[{"name": "Monte Figogna", "latitude": 44.4891703, "longitude": 8.8623286, "elevation": 804.0, "source": "osm", "_tags": {"ele": "804", "name": "Monte Figogna", "natural": "peak", "wikidata": "Q1065115", "wikipedia": "it:Monte Figogna"}}, {"name": "Punta Martin", "latitude": 44.4782557, "longitude": 8.7890144, "elevation": 1001.0, "source": "osm", "_tags": {"ele": "1001", "name": "Punta Martin", "natural": "peak", "wikidata": "Q3925696", "wikipedia": "it:Punta Martin"}}, {"name": "Monte Penello", "latitude": 44.4802028, "longitude": 8.8000098, "elevation": 998.0, "source": "osm", "_tags": {"alt_name": "Monte Pennello", "ele": "998", "name": "Monte Penello", "natural": "peak", "wikidata": "Q3861828", "wikipedia": "it:Monte Penello"}}, {"name": "Punta Pietralunga", "latitude": 44.4657515, "longitude": 8.7824667, "elevation": 663.0, "source": "osm", "_tags": {"ele": "663", "name": "Punta Pietralunga", "natural": "peak"}}, {"name": "Bric del Dente", "latitude": 44.4822849, "longitude": 8.6763989, "elevation": 1107.0, "source": "osm", "_tags": {"ele": "1107", "name": "Bric del Dente", "natural": "peak", "wikidata": "Q3644545", "wikipedia": "it:Bric del Dente"}}, {"name": "Monte Reixa", "latitude": 44.4509502, "longitude": 8.6672163, "elevation": 1183.0, "source": "osm", "_tags": {"ele": "1183", "name": "Monte Reixa", "natural": "peak", "wikidata": "Q675236", "wikipedia": "it:Monte Reixa"}}, {"name": "Cima Faiallo", "latitude": 44.4564561, "longitude": 8.6706316, "elevation": 1138.0, "source": "osm", "_tags": {"ele": "1138", "name": "Cima Faiallo", "natural": "peak"}}, {"name": "Monte Tardia di Ponente", "latitude": 44.4369224, "longitude": 8.6817196, "elevation": 928.0, "source": "osm", "_tags": {"ele": "928", "name": "Monte Tardia di Ponente", "natural": "peak", "wikidata": "Q31666123"}}, {"name": "", "latitude": 44.4796439, "longitude": 8.7057499, "elevation": 819.0, "source": "osm", "_tags": {"ele": "819", "natural": "peak"}}, {"name": "Anticima del Reixa (tabernacolo)", "latitude": 44.4522522, "longitude": 8.6692786, "elevation": 1176.0, "source": "osm", "_tags": {"ele": "1176", "name": "Anticima del Reixa (tabernacolo)", "natural": "peak"}}, {"name": "Corno Stella", "latitude": 44.4748377, "longitude": 8.7887824, "elevation": 765.0, "source": "osm", "_tags": {"ele": "765", "name": "Corno Stella", "natural": "peak"}}, {"name": "Punta del Corno", "latitude": 44.474678, "longitude": 8.8098238, "elevation": 852.0, "source": "osm", "_tags": {"ele": "852", "name": "Punta del Corno", "name:lij": "Priun do Seunno", "natural": "peak"}}, {"name": "Bric La Masca", "latitude": 44.4996987, "longitude": 8.6683008, "elevation": 902.0, "source": "osm", "_tags": {"ele": "902", "name": "Bric La Masca", "natural": "peak"}}, {"name": "Monte Riondo", "latitude": 44.4608547, "longitude": 8.7977741, "elevation": 712.0, "source": "osm", "_tags": {"ele": "712", "name": "Monte Riondo", "natural": "peak", "wikidata": "Q31666104"}}, {"name": "Monte Contessa", "latitude": 44.4549926, "longitude": 8.8323868, "elevation": 546.0, "source": "osm", "_tags": {"ele": "546", "name": "Monte Contessa", "natural": "peak", "source": "CTR Regione Liguria"}}, {"name": "Monte Spassoja", "latitude": 44.4467277, "longitude": 8.8432907, "elevation": 437.0, "source": "osm", "_tags": {"ele": "437", "name": "Monte Spassoja", "natural": "peak", "source:name": "CIPPO UCAM dedicato ai caduti della montagna", "website": "https://www.ucamgenova.org/storia.htm"}}, {"name": "Monte Pidocchio", "latitude": 44.4397037, "longitude": 8.6944309, "elevation": 816.0, "source": "osm", "_tags": {"alt_name": "Bric Pigheuggiu", "ele": "816", "name": "Monte Pidocchio", "name:lij": "Briccu Pigoeggiu", "natural": "peak"}}, {"name": "Monte Lerxio", "latitude": 44.4334682, "longitude": 8.6823492, "elevation": 896.0, "source": "osm", "_tags": {"alt_name": "Rocca dell'Erxo", "ele": "896", "name": "Monte Lerxio", "natural": "peak"}}, {"name": "Monte Argentea", "latitude": 44.434279, "longitude": 8.6403906, "elevation": 1082.0, "source": "osm", "_tags": {"ele": "1082", "name": "Monte Argentea", "natural": "peak", "wikidata": "Q16579499", "wikipedia": "it:Monte Argentea"}}, {"name": "Rocca Vaccaria", "latitude": 44.4458641, "longitude": 8.6581757, "elevation": 1167.0, "source": "osm", "_tags": {"ele": "1167", "name": "Rocca Vaccaria", "name:lij": "Rocche dra Vaccaria", "natural": "peak", "summit:register": "yes", "summit:statue": "yes"}}, {"name": "Bric Resonau", "latitude": 44.4316715, "longitude": 8.60843, "elevation": 1146.0, "source": "osm", "_tags": {"alt_name": "Bric Ressunou", "ele": "1146", "name": "Bric Resonau", "name:lij": "Arsunou", "natural": "peak", "wikidata": "Q22970136", "wikipedia": "it:Bric Resonau"}}, {"name": "Rocche du Prou Ballou", "latitude": 44.4378196, "longitude": 8.707515, "elevation": 571.0, "source": "osm", "_tags": {"alt_name": "Picco Palestra", "ele": "571", "name": "Rocche du Prou Ballou", "natural": "peak"}}, {"name": "Monte Tardia di Levante", "latitude": 44.4392182, "longitude": 8.6894382, "elevation": 878.0, "source": "osm", "_tags": {"ele": "878", "name": "Monte Tardia di Levante", "natural": "peak", "wikidata": "Q31666141"}}, {"name": "Bric Rocche dei Gatti", "latitude": 44.4421618, "longitude": 8.7081256, "elevation": 645.0, "source": "osm", "_tags": {"ele": "645", "name": "Bric Rocche dei Gatti", "natural": "peak"}}, {"name": "Bric Rocca dei Gatti", "latitude": 44.4424638, "longitude": 8.7040665, "elevation": 653.0, "source": "osm", "_tags": {"ele": "653", "name": "Bric Rocca dei Gatti", "natural": "peak"}}, {"name": "Monte Pavaglione", "latitude": 44.5242909, "longitude": 8.6762666, "elevation": 890.0, "source": "osm", "_tags": {"ele": "890", "name": "Monte Pavaglione", "natural": "peak"}}, {"name": "Bric Saccone", "latitude": 44.5657977, "longitude": 8.6283578, "elevation": 640.0, "source": "osm", "_tags": {"ele": "640", "name": "Bric Saccone", "natural": "peak"}}, {"name": "Le Ciazze", "latitude": 44.5784928, "longitude": 8.6420338, "elevation": 739.0, "source": "osm", "_tags": {"ele": "739", "name": "Le Ciazze", "natural": "peak", "wikidata": "Q31666171"}}, {"name": "Bric del Lovè", "latitude": 44.5888555, "longitude": 8.6226387, "elevation": 600.0, "source": "osm", "_tags": {"ele": "600", "name": "Bric del Lovè", "natural": "peak"}}, {"name": "Bric del Termo", "latitude": 44.5849826, "longitude": 8.6250705, "elevation": 550.0, "source": "osm", "_tags": {"ele": "550", "name": "Bric del Termo", "natural": "peak"}}, {"name": "Il Poggio", "latitude": 44.5483452, "longitude": 8.5651605, "elevation": 819.0, "source": "osm", "_tags": {"ele": "819", "name": "Il Poggio", "natural": "peak"}}, {"name": "Monte Ratto", "latitude": 44.5761559, "longitude": 8.5806889, "elevation": 685.0, "source": "osm", "_tags": {"ele": "685", "name": "Monte Ratto", "natural": "peak"}}, {"name": "Bric Scaglione", "latitude": 44.5357069, "longitude": 8.6067741, "elevation": 649.0, "source": "osm", "_tags": {"ele": "649", "name": "Bric Scaglione", "natural": "peak", "source": "CTR Regione Liguria"}}, {"name": "Bric Gheia", "latitude": 44.5695625, "longitude": 8.5814782, "elevation": 625.0, "source": "osm", "_tags": {"ele": "625", "name": "Bric Gheia", "natural": "peak"}}, {"name": "", "latitude": 44.570384, "longitude": 8.6393545, "elevation": 644.0, "source": "osm", "_tags": {"ele": "644", "natural": "peak"}}, {"name": "", "latitude": 44.5993831, "longitude": 8.623232, "elevation": 407.0, "source": "osm", "_tags": {"ele": "407", "natural": "peak"}}, {"name": "", "latitude": 44.5938076, "longitude": 8.6401672, "elevation": 468.0, "source": "osm", "_tags": {"ele": "468", "natural": "peak"}}, {"name": "", "latitude": 44.5969199, "longitude": 8.6374196, "elevation": 459.0, "source": "osm", "_tags": {"ele": "459", "natural": "peak"}}, {"name": "Bric della Cacalupa", "latitude": 44.5985605, "longitude": 8.6505707, "elevation": 572.0, "source": "osm", "_tags": {"ele": "572", "name": "Bric della Cacalupa", "natural": "peak"}}, {"name": "", "latitude": 44.6002512, "longitude": 8.6506222, "elevation": 555.0, "source": "osm", "_tags": {"ele": "555", "natural": "peak"}}, {"name": "Bric Roccia Nera", "latitude": 44.5167717, "longitude": 8.6641302, "elevation": 878.0, "source": "osm", "_tags": {"alt_name": "Monte Roccianera", "ele": "878", "name": "Bric Roccia Nera", "natural": "peak"}}, {"name": "Poggio", "latitude": 44.5277791, "longitude": 8.6553414, "elevation": 878.0, "source": "osm", "_tags": {"alt_name": "Il Poggio", "ele": "878", "name": "Poggio", "natural": "peak", "wikidata": "Q31667810"}}, {"name": "Monte Calvo", "latitude": 44.5337904, "longitude": 8.6306397, "elevation": 738.0, "source": "osm", "_tags": {"ele": "738", "name": "Monte Calvo", "natural": "peak"}}, {"name": "Monte Tacco", "latitude": 44.5170972, "longitude": 8.7312642, "elevation": 782.0, "source": "osm", "_tags": {"ele": "782", "name": "Monte Tacco", "natural": "peak", "source": "CTR Regione Liguria"}}, {"name": "Monte Tobbio", "latitude": 44.588048, "longitude": 8.8046648, "elevation": 1092.0, "source": "osm", "_tags": {"ele": "1092", "name": "Monte Tobbio", "natural": "peak", "wikidata": "Q3862072", "wikipedia": "it:Monte Tobbio"}}, {"name": "Bric Berton", "latitude": 44.5188998, "longitude": 8.5394085, "elevation": 773.0, "source": "osm", "_tags": {"ele": "773", "name": "Bric Berton", "natural": "peak"}}, {"name": "Bric Gorrei", "latitude": 44.5492008, "longitude": 8.5369529, "elevation": 829.0, "source": "osm", "_tags": {"ele": "829", "name": "Bric Gorrei", "natural": "peak"}}, {"name": "Monte Fonegrone", "latitude": 44.5473868, "longitude": 8.555452, "elevation": 800.0, "source": "osm", "_tags": {"ele": "800", "name": "Monte Fonegrone", "natural": "peak", "source": "CTR Regione Liguria"}}, {"name": "Monte Pracaban", "latitude": 44.5513576, "longitude": 8.7380545, "elevation": 946.0, "source": "osm", "_tags": {"ele": "946", "name": "Monte Pracaban", "natural": "peak", "source": "survey", "wikidata": "Q925720", "wikipedia": "it:Monte Pracaban"}}, {"name": "Monte Poggio", "latitude": 44.5501079, "longitude": 8.6681699, "elevation": 550.0, "source": "osm", "_tags": {"ele": "550", "name": "Monte Poggio", "natural": "peak"}}, {"name": "Bric del Dentino", "latitude": 44.4885426, "longitude": 8.6685228, "elevation": 976.0, "source": "osm", "_tags": {"alt_name": "Bric Saliera", "ele": "976", "name": "Bric del Dentino", "natural": "peak", "wikidata": "Q31675214"}}, {"name": "Torre Baiarda - Grande Diedro", "latitude": 44.4690337, "longitude": 8.7865486, "elevation": 688.0, "source": "osm", "_tags": {"ele": "688", "name": "Torre Baiarda - Grande Diedro", "natural": "peak"}}, {"name": "Rocca dra Crava", "latitude": 44.5492972, "longitude": 8.6543872, "elevation": 512.0, "source": "osm", "_tags": {"ele": "512", "name": "Rocca dra Crava", "natural": "peak"}}, {"name": "Bric Gisola", "latitude": 44.4413719, "longitude": 8.0456576, "elevation": null, "source": "osm", "_tags": {"name": "Bric Gisola", "natural": "peak"}}, {"name": "Bric del Monte", "latitude": 45.3809091, "longitude": 8.0222363, "elevation": 443.0, "source": "osm", "_tags": {"ele": "443", "name": "Bric del Monte", "natural": "peak"}}, {"name": "Monte Colma", "latitude": 44.579445, "longitude": 8.6974186, "elevation": 857.0, "source": "osm", "_tags": {"ele": "857", "name": "Monte Colma", "natural": "peak", "wikidata": "Q3861465", "wikipedia": "it:Monte Colma"}}, {"name": "Monte Bruzeta", "latitude": 44.6390255, "longitude": 8.8227562, "elevation": 626.0, "source": "osm", "_tags": {"ele": "626", "name": "Monte Bruzeta", "natural": "peak"}}, {"name": "Monte Capriolo", "latitude": 44.6245839, "longitude": 8.4625698, "elevation": 546.0, "source": "osm", "_tags": {"ele": "546", "name": "Monte Capriolo", "natural": "peak"}}, {"name": "Rocca di Tiglieto", "latitude": 44.5109475, "longitude": 8.6359437, "elevation": 575.0, "source": "osm", "_tags": {"ele": "575", "name": "Rocca di Tiglieto", "natural": "peak"}}, {"name": "Bric Turniola", "latitude": 45.1363876, "longitude": 7.9029735, "elevation": 528.0, "source": "osm", "_tags": {"ele": "528", "name": "Bric Turniola", "natural": "peak"}}, {"name": "Rocca Maia", "latitude": 44.5010401, "longitude": 8.8404667, "elevation": 695.0, "source": "osm", "_tags": {"ele": "695", "name": "Rocca Maia", "natural": "peak", "old_name": "Rocca Maya"}}, {"name": "Bric del Vaj", "latitude": 45.1502428, "longitude": 7.8896303, "elevation": 583.0, "source": "osm", "_tags": {"ele": "583", "man_made": "cross", "name": "Bric del Vaj", "natural": "peak", "wikidata": "Q106405808", "wikipedia": "it:Bric del Vaj"}}, {"name": "Monte Leco", "latitude": 44.5634276, "longitude": 8.8724483, "elevation": 1071.0, "source": "osm", "_tags": {"ele": "1071", "name": "Monte Leco", "natural": "peak", "wikidata": "Q977867", "wikipedia": "it:Monte Leco"}}, {"name": "", "latitude": 45.0961111, "longitude": 8.3500057, "elevation": null, "source": "osm", "_tags": {"natural": "peak", "summit:cross": "yes"}}, {"name": "Bric Valcalda", "latitude": 44.5529084, "longitude": 8.691617, "elevation": 708.0, "source": "osm", "_tags": {"ele": "708", "name": "Bric Valcalda", "natural": "peak"}}, {"name": "Monte Faiottu", "latitude": 44.5074738, "longitude": 8.6638837, "elevation": 902.0, "source": "osm", "_tags": {"ele": "902", "name": "Monte Faiottu", "natural": "peak"}}, {"name": "Briccu Tardie", "latitude": 44.4342092, "longitude": 8.6886866, "elevation": 732.0, "source": "osm", "_tags": {"ele": "732", "name": "Briccu Tardie", "natural": "peak"}}, {"name": "Colle Fregei", "latitude": 44.4357331, "longitude": 8.671702, "elevation": 600.0, "source": "osm", "_tags": {"ele": "600", "name": "Colle Fregei", "natural": "peak"}}, {"name": "Cima Sineuvin", "latitude": 44.4451279, "longitude": 8.6729006, "elevation": 983.0, "source": "osm", "_tags": {"ele": "983", "name": "Cima Sineuvin", "name:lij": "Cimma Sinovin", "natural": "peak"}}, {"name": "Monte Grosso", "latitude": 44.436098, "longitude": 8.6468614, "elevation": 960.0, "source": "osm", "_tags": {"ele": "960", "name": "Monte Grosso", "natural": "peak"}}, {"name": "Rocca Crocetta", "latitude": 44.4420596, "longitude": 8.6471107, "elevation": 1100.0, "source": "osm", "_tags": {"ele": "1100", "name": "Rocca Crocetta", "name:lij": "Bric da Cruxetta", "natural": "peak"}}, {"name": "Bric Damè", "latitude": 44.4363487, "longitude": 8.6058121, "elevation": 1200.0, "source": "osm", "_tags": {"ele": "1200", "name": "Bric Damè", "name:lij": "Brictin dl'Amé", "natural": "peak"}}, {"name": "Bricco Saiardo", "latitude": 44.4480036, "longitude": 8.6714812, "elevation": 1104.0, "source": "osm", "_tags": {"ele": "1104", "name": "Bricco Saiardo", "natural": "peak"}}, {"name": "Rocca del Groppazzo", "latitude": 44.442718, "longitude": 8.6536955, "elevation": 1120.0, "source": "osm", "_tags": {"ele": "1120", "name": "Rocca del Groppazzo", "natural": "peak"}}, {"name": "Cima Giassetti", "latitude": 44.4395764, "longitude": 8.6321827, "elevation": 1092.0, "source": "osm", "_tags": {"ele": "1092", "name": "Cima Giassetti", "natural": "peak"}}, {"name": "Cima Pian di Lerca", "latitude": 44.439855, "longitude": 8.6397377, "elevation": 1070.0, "source": "osm", "_tags": {"ele": "1070", "name": "Cima Pian di Lerca", "name:lij": "Cian d'Lerca", "natural": "peak"}}, {"name": "Cima del Pozzo", "latitude": 44.4387386, "longitude": 8.6254654, "elevation": 1100.0, "source": "osm", "_tags": {"ele": "1100", "name": "Cima del Pozzo", "name:lij": "Cimma du Pussu", "natural": "peak"}}, {"name": "Monte Pennone", "latitude": 44.4360183, "longitude": 8.6996293, "elevation": 802.0, "source": "osm", "_tags": {"ele": "802", "name": "Monte Pennone", "natural": "peak"}}, {"name": "Rocca Fontanassa", "latitude": 44.4368524, "longitude": 8.6125813, "elevation": 1172.0, "source": "osm", "_tags": {"ele": "1172", "name": "Rocca Fontanassa", "name:lij": "Funtanazza", "natural": "peak"}}, {"name": "Monte Figne", "latitude": 44.56313, "longitude": 8.8352882, "elevation": 1172.0, "source": "osm", "_tags": {"ele": "1172", "name": "Monte Figne", "natural": "peak", "wikidata": "Q1945959", "wikipedia": "it:Monte delle Figne"}}, {"name": "Bric di Guana", "latitude": 44.5439681, "longitude": 8.8437735, "elevation": 962.0, "source": "osm", "_tags": {"ele": "962", "name": "Bric di Guana", "natural": "peak", "source": "CTR Regione Liguria"}}, {"name": "Monte Taccone", "latitude": 44.5596605, "longitude": 8.8499242, "elevation": 1113.0, "source": "osm", "_tags": {"ele": "1113", "name": "Monte Taccone", "natural": "peak", "wikidata": "Q1945943", "wikipedia": "it:Monte Taccone"}}, {"name": "Bric Riundo", "latitude": 44.4600935, "longitude": 8.6796839, "elevation": 978.0, "source": "osm", "_tags": {"ele": "978", "name": "Bric Riundo", "natural": "peak"}}, {"name": "Bric Malanotte", "latitude": 44.4526285, "longitude": 8.6778838, "elevation": 969.0, "source": "osm", "_tags": {"ele": "969", "name": "Bric Malanotte", "natural": "peak", "source": "CTR Regione Liguria"}}, {"name": "Bric Zerbino", "latitude": 44.5711796, "longitude": 8.6134319, "elevation": 415.0, "source": "osm", "_tags": {"ele": "415", "name": "Bric Zerbino", "natural": "peak", "source": "CTR Regione Liguria"}}, {"name": "Rocca del Garsello", "latitude": 44.4957254, "longitude": 8.8266474, "elevation": 813.0, "source": "osm", "_tags": {"ele": "813", "name": "Rocca del Garsello", "natural": "peak"}}, {"name": "Bricchettino Aguzzo", "latitude": 44.4444885, "longitude": 8.5862153, "elevation": 983.0, "source": "osm", "_tags": {"ele": "983", "name": "Bricchettino Aguzzo", "natural": "peak", "source": "CTR Regione Liguria"}}, {"name": "Rocche del Tufo", "latitude": 44.4429406, "longitude": 8.5850119, "elevation": 983.0, "source": "osm", "_tags": {"ele": "983", "name": "Rocche del Tufo", "name:lij": "Rocche du Tuvu", "natural": "peak"}}, {"name": "Rocca del Tuono", "latitude": 44.4454968, "longitude": 8.5872561, "elevation": 978.0, "source": "osm", "_tags": {"ele": "978", "name": "Rocca del Tuono", "name:lij": "Rocca du Trun", "natural": "peak"}}, {"name": "Rocche dei Canaloni", "latitude": 44.4546243, "longitude": 8.6294502, "elevation": 834.0, "source": "osm", "_tags": {"ele": "834", "name": "Rocche dei Canaloni", "name:lij": "Rocche di Canarun-ni", "natural": "peak"}}, {"name": "Rocca della Marasca cima NW", "latitude": 44.4823711, "longitude": 8.6123411, "elevation": 908.0, "source": "osm", "_tags": {"ele": "908", "name": "Rocca della Marasca cima NW", "natural": "peak"}}, {"name": "Monte Ermetta", "latitude": 44.444912, "longitude": 8.5497396, "elevation": 1267.0, "source": "osm", "_tags": {"ele": "1267", "name": "Monte Ermetta", "name:lij": "Armetta", "natural": "peak"}}, {"name": "Rocca di Perudun", "latitude": 44.4890017, "longitude": 8.5888208, "elevation": 558.0, "source": "osm", "_tags": {"ele": "558", "name": "Rocca di Perudun", "natural": "peak"}}, {"name": "Bric Pullin", "latitude": 44.4551742, "longitude": 8.5571533, "elevation": 1058.0, "source": "osm", "_tags": {"ele": "1058", "name": "Bric Pullin", "name:lij": "Bric der Pulin", "natural": "peak"}}, {"name": "Monte Favato", "latitude": 45.1154131, "longitude": 8.1760619, "elevation": 445.0, "source": "osm", "_tags": {"ele": "445", "name": "Monte Favato", "natural": "peak"}}, {"name": "Rocca del Porco", "latitude": 44.4429735, "longitude": 8.5620446, "elevation": 1182.0, "source": "osm", "_tags": {"ele": "1182", "name": "Rocca del Porco", "name:lij": "Rocca di Porchi", "natural": "peak"}}, {"name": "Rocca Lucco", "latitude": 44.4597146, "longitude": 8.5945656, "elevation": 756.0, "source": "osm", "_tags": {"ele": "756", "name": "Rocca Lucco", "name:lij": "Rocca d'Lüccu", "natural": "peak"}}, {"name": "Bricco delle Pietre", "latitude": 45.1193122, "longitude": 8.176333, "elevation": 430.0, "source": "osm", "_tags": {"ele": "430", "name": "Bricco delle Pietre", "natural": "peak"}}, {"name": "Sacro Monte di Crea", "latitude": 45.0952103, "longitude": 8.2727798, "elevation": 443.0, "source": "osm", "_tags": {"ele": "443", "heritage": "1", "heritage:operator": "whc", "name": "Sacro Monte di Crea", "natural": "peak", "ref:whc": "1068-002", "wikidata": "Q1787362", "wikipedia": "it:Sacro Monte di Crea"}}, {"name": "Monte Stregone", "latitude": 44.6574239, "longitude": 8.4802071, "elevation": 407.0, "source": "osm", "_tags": {"ele": "407", "name": "Monte Stregone", "natural": "peak"}}, {"name": "Monte Rotondo", "latitude": 44.5361155, "longitude": 8.5701343, "elevation": 704.0, "source": "osm", "_tags": {"ele": "704", "name": "Monte Rotondo", "natural": "peak"}}, {"name": "Bric degli Uvi", "latitude": 44.5818881, "longitude": 8.5501944, "elevation": 612.0, "source": "osm", "_tags": {"ele": "612", "name": "Bric degli Uvi", "natural": "peak"}}, {"name": "Rocca Vergone", "latitude": 44.5798307, "longitude": 8.820718, "elevation": 871.0, "source": "osm", "_tags": {"ele": "871", "name": "Rocca Vergone", "natural": "peak"}}, {"name": "Monte Brignone", "latitude": 44.5903669, "longitude": 8.5133593, "elevation": 541.0, "source": "osm", "_tags": {"ele": "541", "name": "Monte Brignone", "natural": "peak"}}, {"name": "Bric Boessa", "latitude": 44.4533412, "longitude": 8.8048173, "elevation": 469.0, "source": "osm", "_tags": {"ele": "469", "name": "Bric Boessa", "natural": "peak"}}, {"name": "Monte Croieua", "latitude": 44.4592923, "longitude": 8.8133482, "elevation": 241.0, "source": "osm", "_tags": {"ele": "241", "name": "Monte Croieua", "natural": "peak"}}, {"name": "Monte Grosso", "latitude": 44.441363, "longitude": 8.566007, "elevation": 1265.0, "source": "osm", "_tags": {"ele": "1265", "name": "Monte Grosso", "name:lij": "Mun Grossu", "natural": "peak"}}, {"name": "Monte Piazza", "latitude": 44.4794075, "longitude": 8.7952267, "elevation": 1000.0, "source": "osm", "_tags": {"ele": "1000", "name": "Monte Piazza", "natural": "peak"}}, {"name": "Bric Strambè", "latitude": 44.4903444, "longitude": 8.7869013, "elevation": 845.0, "source": "osm", "_tags": {"ele": "845", "name": "Bric Strambè", "natural": "peak"}}, {"name": "Il Poggio", "latitude": 44.486593, "longitude": 8.8149292, "elevation": 877.0, "source": "osm", "_tags": {"ele": "877", "name": "Il Poggio", "natural": "peak"}}, {"name": "Monte Fontanabuona", "latitude": 44.4745302, "longitude": 8.7978584, "elevation": 966.0, "source": "osm", "_tags": {"ele": "966", "name": "Monte Fontanabuona", "natural": "peak"}}, {"name": "Monte Foscallo", "latitude": 44.4910354, "longitude": 8.8059436, "elevation": 988.0, "source": "osm", "_tags": {"ele": "988", "name": "Monte Foscallo", "natural": "peak"}}, {"name": "Monte Ottine", "latitude": 44.4880554, "longitude": 8.7501976, "elevation": 725.0, "source": "osm", "_tags": {"ele": "725", "name": "Monte Ottine", "natural": "peak"}}, {"name": "Monte Laione", "latitude": 44.5090424, "longitude": 8.5901417, "elevation": 732.0, "source": "osm", "_tags": {"ele": "732", "name": "Monte Laione", "natural": "peak"}}, {"name": "Monte Moro", "latitude": 44.5374802, "longitude": 8.8087338, "elevation": 883.0, "source": "osm", "_tags": {"ele": "883", "name": "Monte Moro", "natural": "peak"}}, {"name": "Bricco della Croce", "latitude": 44.6804867, "longitude": 8.3636904, "elevation": 486.0, "source": "osm", "_tags": {"ele": "486", "name": "Bricco della Croce", "natural": "peak", "place": "locality"}}, {"name": "Monte Marino", "latitude": 44.648408, "longitude": 8.4805114, "elevation": 429.0, "source": "osm", "_tags": {"ele": "429", "name": "Monte Marino", "natural": "peak", "place": "locality"}}, {"name": "Monte Menno", "latitude": 44.6456856, "longitude": 8.5174899, "elevation": 405.0, "source": "osm", "_tags": {"ele": "405", "name": "Monte Menno", "natural": "peak"}}, {"name": "Bric Luvetto", "latitude": 44.4580265, "longitude": 8.5064105, "elevation": 787.0, "source": "osm", "_tags": {"ele": "787", "name": "Bric Luvetto", "natural": "peak"}}, {"name": "Cima Rocche", "latitude": 44.4688208, "longitude": 8.5290816, "elevation": 744.0, "source": "osm", "_tags": {"ele": "744", "name": "Cima Rocche", "natural": "peak"}}, {"name": "Colle Bergnon", "latitude": 44.4492869, "longitude": 8.5170559, "elevation": 816.0, "source": "osm", "_tags": {"ele": "816", "name": "Colle Bergnon", "name:lij": "Bergnun", "natural": "peak"}}, {"name": "Monte Cucco", "latitude": 44.4656508, "longitude": 8.5490331, "elevation": 1026.0, "source": "osm", "_tags": {"ele": "1026", "name": "Monte Cucco", "name:lij": "Cuccu", "natural": "peak"}}, {"name": "Bric Riondo", "latitude": 44.4426735, "longitude": 8.5152723, "elevation": 856.0, "source": "osm", "_tags": {"ele": "856", "name": "Bric Riondo", "name:lij": "Bric Riundu", "natural": "peak"}}, {"name": "Bric Roverina", "latitude": 44.4537301, "longitude": 8.4936426, "elevation": 705.0, "source": "osm", "_tags": {"ele": "705", "name": "Bric Roverina", "natural": "peak"}}, {"name": "Bric Veciri", "latitude": 44.4396143, "longitude": 8.5524092, "elevation": 1264.0, "source": "osm", "_tags": {"ele": "1264", "name": "Bric Veciri", "natural": "peak"}}, {"name": "Bric della Rama", "latitude": 44.4677933, "longitude": 8.4642843, "elevation": 706.0, "source": "osm", "_tags": {"ele": "706", "name": "Bric della Rama", "name:lij": "Bric dra Rama", "natural": "peak"}}, {"name": "Bric di Battesto", "latitude": 44.4528086, "longitude": 8.4679717, "elevation": 661.0, "source": "osm", "_tags": {"ele": "661", "name": "Bric di Battesto", "natural": "peak"}}, {"name": "Bric di Bonuzzo", "latitude": 44.4594412, "longitude": 8.4703777, "elevation": 611.0, "source": "osm", "_tags": {"ele": "611", "name": "Bric di Bonuzzo", "name:lij": "Bunüzzu", "natural": "peak"}}, {"name": "Cima Galletto", "latitude": 44.4661082, "longitude": 8.5006628, "elevation": 642.0, "source": "osm", "_tags": {"ele": "642", "name": "Cima Galletto", "natural": "peak"}}, {"name": "Bric Berlusce", "latitude": 44.4600463, "longitude": 8.5309903, "elevation": 892.0, "source": "osm", "_tags": {"ele": "892", "name": "Bric Berlusce", "name:lij": "Berlüsce", "natural": "peak"}}, {"name": "Monte Merlo", "latitude": 44.4654054, "longitude": 8.5184955, "elevation": 682.0, "source": "osm", "_tags": {"ele": "682", "name": "Monte Merlo", "natural": "peak"}}, {"name": "Monte Tremmo", "latitude": 44.4651515, "longitude": 8.5058345, "elevation": 720.0, "source": "osm", "_tags": {"ele": "720", "name": "Monte Tremmo", "natural": "peak"}}, {"name": "Torrione Olga", "latitude": 44.4668975, "longitude": 8.7843513, "elevation": 690.0, "source": "osm", "_tags": {"ele": "690", "name": "Torrione Olga", "natural": "peak"}}, {"name": "Monte Croce", "latitude": 44.5100647, "longitude": 8.6932718, "elevation": 695.0, "source": "osm", "_tags": {"ele": "695", "name": "Monte Croce", "natural": "peak"}}, {"name": "Monte Badè", "latitude": 44.5029044, "longitude": 8.6882078, "elevation": 784.0, "source": "osm", "_tags": {"ele": "784", "name": "Monte Badè", "natural": "peak"}}, {"name": "Bric della Sorba", "latitude": 44.490102, "longitude": 8.6793375, "elevation": 859.0, "source": "osm", "_tags": {"ele": "859", "name": "Bric della Sorba", "natural": "peak"}}, {"name": "Monte Giallo", "latitude": 44.4847162, "longitude": 8.6883077, "elevation": 970.0, "source": "osm", "_tags": {"ele": "970", "name": "Monte Giallo", "natural": "peak", "wikidata": "Q23006491", "wikipedia": "it:Monte Giallo"}}, {"name": "Bric Praioli", "latitude": 44.4795852, "longitude": 8.6524556, "elevation": 1074.0, "source": "osm", "_tags": {"ele": "1074", "name": "Bric Praioli", "natural": "peak", "wikidata": "Q31646316"}}, {"name": "Bric Dato", "latitude": 44.4660696, "longitude": 8.6590663, "elevation": 1102.0, "source": "osm", "_tags": {"ele": "1102", "name": "Bric Dato", "natural": "peak", "wikidata": "Q31646330"}}, {"name": "Bric Rusca", "latitude": 44.4673968, "longitude": 8.6474087, "elevation": 1007.0, "source": "osm", "_tags": {"ele": "1007", "name": "Bric Rusca", "natural": "peak"}}, {"name": "Bric del Porco", "latitude": 44.4999665, "longitude": 8.6518223, "elevation": 834.0, "source": "osm", "_tags": {"ele": "834", "name": "Bric del Porco", "natural": "peak"}}, {"name": "Bric Mapassu", "latitude": 44.5086283, "longitude": 8.6531098, "elevation": 869.0, "source": "osm", "_tags": {"ele": "869", "name": "Bric Mapassu", "natural": "peak"}}, {"name": "Monte Tugello", "latitude": 44.5852654, "longitude": 8.7799217, "elevation": 848.0, "source": "osm", "_tags": {"ele": "848", "name": "Monte Tugello", "natural": "peak"}}, {"name": "Rocca del Cavallo", "latitude": 44.4711793, "longitude": 8.5939878, "elevation": 838.0, "source": "osm", "_tags": {"ele": "838", "name": "Rocca del Cavallo", "name:lij": "Rocca der Cavallu", "natural": "peak"}}, {"name": "Bric dell'Orologio", "latitude": 44.5049497, "longitude": 8.8177897, "elevation": 939.0, "source": "osm", "_tags": {"ele": "939", "name": "Bric dell'Orologio", "natural": "peak"}}, {"name": "Monte Sejeu", "latitude": 44.5052736, "longitude": 8.8149931, "elevation": 958.0, "source": "osm", "_tags": {"ele": "958", "name": "Monte Sejeu", "natural": "peak"}}, {"name": "Monte Orditano", "latitude": 44.518234, "longitude": 8.813571, "elevation": 951.0, "source": "osm", "_tags": {"ele": "951", "name": "Monte Orditano", "natural": "peak", "wikidata": "Q957654", "wikipedia": "it:Monte Orditano"}}, {"name": "Monte Vesolina", "latitude": 44.5175593, "longitude": 8.7855473, "elevation": 974.0, "source": "osm", "_tags": {"ele": "974", "name": "Monte Vesolina", "natural": "peak"}}, {"name": "Monte Oliveto", "latitude": 44.5346011, "longitude": 8.7239208, "elevation": 749.0, "source": "osm", "_tags": {"ele": "749", "name": "Monte Oliveto", "natural": "peak"}}, {"name": "Bric Puschera", "latitude": 44.5627206, "longitude": 8.2632124, "elevation": 851.0, "source": "osm", "_tags": {"ele": "851", "name": "Bric Puschera", "natural": "peak", "wikidata": "Q3644546", "wikipedia": "it:Bric Puschera"}}, {"name": "Bric Ballincion", "latitude": 44.517957, "longitude": 8.4711847, "elevation": 400.0, "source": "osm", "_tags": {"ele": "400", "name": "Bric Ballincion", "natural": "peak"}}, {"name": "Bric Gippone", "latitude": 44.4873903, "longitude": 8.5155211, "elevation": 600.0, "source": "osm", "_tags": {"ele": "600", "name": "Bric Gippone", "name:lij": "Bric d'Gippun", "natural": "peak"}}, {"name": "Bric del Poggio", "latitude": 44.5043995, "longitude": 8.5437966, "elevation": 701.0, "source": "osm", "_tags": {"ele": "701", "name": "Bric del Poggio", "name:lij": "Bric der Pözzu", "natural": "peak"}}, {"name": "Monte Cecca", "latitude": 44.4610114, "longitude": 8.5642629, "elevation": 949.0, "source": "osm", "_tags": {"ele": "949", "name": "Monte Cecca", "name:lij": "Cecca", "natural": "peak"}}, {"name": "Bricco Macarin", "latitude": 44.4515835, "longitude": 8.5269305, "elevation": 1053.0, "source": "osm", "_tags": {"ele": "1053", "name": "Bricco Macarin", "name:lij": "Macarin", "natural": "peak"}}, {"name": "Monte Avzè", "latitude": 44.4534402, "longitude": 8.5245261, "elevation": 1022.0, "source": "osm", "_tags": {"ele": "1022", "name": "Monte Avzè", "name:lij": "Avzè", "natural": "peak"}}, {"name": "Bric del Vento", "latitude": 44.4486454, "longitude": 8.5370279, "elevation": 1103.0, "source": "osm", "_tags": {"ele": "1103", "name": "Bric del Vento", "name:lij": "Bric der Ventu", "natural": "peak"}}, {"name": "Bric dell'Ombra", "latitude": 44.435976, "longitude": 8.5894759, "elevation": 1110.0, "source": "osm", "_tags": {"ele": "1110", "name": "Bric dell'Ombra", "name:lij": "Bric dl'Umbra", "natural": "peak"}}, {"name": "Bric Caglietta", "latitude": 44.475186, "longitude": 8.4624516, "elevation": 597.0, "source": "osm", "_tags": {"ele": "597", "name": "Bric Caglietta", "natural": "peak"}}, {"name": "Bric Riondo", "latitude": 44.4719569, "longitude": 8.464729, "elevation": 621.0, "source": "osm", "_tags": {"ele": "621", "name": "Bric Riondo", "name:lij": "Bric Riundu", "natural": "peak"}}, {"name": "Bric Soriazza", "latitude": 44.4789564, "longitude": 8.4680423, "elevation": 562.0, "source": "osm", "_tags": {"ele": "562", "name": "Bric Soriazza", "natural": "peak"}}, {"name": "Bric Verne", "latitude": 44.4720241, "longitude": 8.4525204, "elevation": 526.0, "source": "osm", "_tags": {"ele": "526", "name": "Bric Verne", "natural": "peak"}}, {"name": "Bric del Diavolo", "latitude": 44.4800663, "longitude": 8.4629974, "elevation": 498.0, "source": "osm", "_tags": {"ele": "498", "name": "Bric del Diavolo", "natural": "peak"}}, {"name": "Bric di Salmaceto", "latitude": 44.4595835, "longitude": 8.4599188, "elevation": 701.0, "source": "osm", "_tags": {"ele": "701", "name": "Bric di Salmaceto", "natural": "peak"}}, {"name": "Cima di Deiva", "latitude": 44.4636885, "longitude": 8.4610226, "elevation": 707.0, "source": "osm", "_tags": {"ele": "707", "name": "Cima di Deiva", "name:lij": "Deiva", "natural": "peak"}}, {"name": "Bric Veso", "latitude": 44.4778254, "longitude": 8.438266, "elevation": 500.0, "source": "osm", "_tags": {"ele": "500", "name": "Bric Veso", "natural": "peak"}}, {"name": "Monte Bono", "latitude": 44.4873289, "longitude": 8.4442634, "elevation": 606.0, "source": "osm", "_tags": {"ele": "606", "name": "Monte Bono", "natural": "peak", "source": "CTR Regione Liguria"}}, {"name": "Bric Montado", "latitude": 44.5072936, "longitude": 8.462025, "elevation": 487.0, "source": "osm", "_tags": {"ele": "487", "name": "Bric Montado", "name:lij": "Muntadu", "natural": "peak"}}, {"name": "Bric Roccazza", "latitude": 44.4988165, "longitude": 8.4620541, "elevation": 571.0, "source": "osm", "_tags": {"ele": "571", "name": "Bric Roccazza", "natural": "peak"}}, {"name": "Bric Rianoz", "latitude": 44.4927054, "longitude": 8.4524654, "elevation": 410.0, "source": "osm", "_tags": {"ele": "410", "name": "Bric Rianoz", "natural": "peak"}}, {"name": "Monte Fergione", "latitude": 44.4597177, "longitude": 8.6593346, "elevation": 1012.0, "source": "osm", "_tags": {"ele": "1012", "name": "Monte Fergione", "natural": "peak"}}, {"name": "Bric Ciuchen", "latitude": 44.603514, "longitude": 8.4442788, "elevation": 510.0, "source": "osm", "_tags": {"ele": "510", "name": "Bric Ciuchen", "natural": "peak"}}, {"name": "Monte Uccellino", "latitude": 44.5884595, "longitude": 8.4359248, "elevation": 412.0, "source": "osm", "_tags": {"ele": "412", "name": "Monte Uccellino", "natural": "peak"}}, {"name": "Bric Cardunera", "latitude": 44.4470198, "longitude": 8.6374115, "elevation": 1100.0, "source": "osm", "_tags": {"ele": "1100", "name": "Bric Cardunera", "name:lij": "Bric Cardunera", "natural": "peak"}}, {"name": "Rocca Zuetto", "latitude": 44.4446664, "longitude": 8.6413512, "elevation": 1069.0, "source": "osm", "_tags": {"ele": "1069", "name": "Rocca Zuetto", "name:lij": "Rocche du Zuvettu", "natural": "peak"}}, {"name": "Bricco del Lupo", "latitude": 44.4703261, "longitude": 8.559081, "elevation": 976.0, "source": "osm", "_tags": {"ele": "976", "name": "Bricco del Lupo", "name:lij": "Bric du Luvu", "natural": "peak"}}, {"name": "Bric dell'Oca", "latitude": 44.476908, "longitude": 8.5600753, "elevation": 934.0, "source": "osm", "_tags": {"ele": "934", "name": "Bric dell'Oca", "name:lij": "Bric dl'Oca", "natural": "peak"}}, {"name": "Bric dell'Uomo Morto", "latitude": 44.4772276, "longitude": 8.5691245, "elevation": 916.0, "source": "osm", "_tags": {"ele": "916", "name": "Bric dell'Uomo Morto", "name:lij": "Bric dl'Om Mortu", "natural": "peak", "source": "CTR Regione Liguria"}}, {"name": "Bric Ciazzo", "latitude": 44.4593227, "longitude": 8.6075727, "elevation": 815.0, "source": "osm", "_tags": {"ele": "815", "name": "Bric Ciazzo", "name:lij": "Bricu du Ciazzu", "natural": "peak"}}, {"name": "Bric Pelucco", "latitude": 44.4619064, "longitude": 8.6037501, "elevation": 702.0, "source": "osm", "_tags": {"ele": "702", "name": "Bric Pelucco", "name:lij": "Plüccu", "natural": "peak"}}, {"name": "Bric Prebarra", "latitude": 44.4542156, "longitude": 8.5648684, "elevation": 990.0, "source": "osm", "_tags": {"ele": "990", "name": "Bric Prebarra", "name:lij": "Bric d'Prebarà", "natural": "peak"}}, {"name": "Bric dei Ceppi", "latitude": 44.4890891, "longitude": 8.5612338, "elevation": 688.0, "source": "osm", "_tags": {"ele": "688", "name": "Bric dei Ceppi", "name:lij": "Bric di Geppi", "natural": "peak"}}, {"name": "Bric dei Groppi", "latitude": 44.4637613, "longitude": 8.6247694, "elevation": 803.0, "source": "osm", "_tags": {"ele": "803", "name": "Bric dei Groppi", "natural": "peak"}}, {"name": "Monte Scioro", "latitude": 44.4651407, "longitude": 8.5855577, "elevation": 918.0, "source": "osm", "_tags": {"ele": "918", "name": "Monte Scioro", "name:lij": "Munt Scioru", "natural": "peak"}}, {"name": "Rocca Becciavè", "latitude": 44.4351525, "longitude": 8.5490022, "elevation": 1178.0, "source": "osm", "_tags": {"ele": "1178", "name": "Rocca Becciavè", "natural": "peak"}}, {"name": "Bric Castiglione", "latitude": 44.5924652, "longitude": 8.8320951, "elevation": 926.0, "source": "osm", "_tags": {"ele": "926", "name": "Bric Castiglione", "natural": "peak", "wikidata": "Q31666068"}}, {"name": "Bric della Croce", "latitude": 44.5939894, "longitude": 8.8401288, "elevation": 854.0, "source": "osm", "_tags": {"ele": "854", "name": "Bric della Croce", "natural": "peak"}}, {"name": "Cresta di Castiglione", "latitude": 44.5876849, "longitude": 8.8207508, "elevation": 994.0, "source": "osm", "_tags": {"ele": "994", "name": "Cresta di Castiglione", "natural": "peak"}}, {"name": "Bric Tavolin", "latitude": 44.5741047, "longitude": 8.8337373, "elevation": 1001.0, "source": "osm", "_tags": {"ele": "1001", "name": "Bric Tavolin", "natural": "peak"}}, {"name": "Costa di Grano", "latitude": 44.5787192, "longitude": 8.8337801, "elevation": 972.0, "source": "osm", "_tags": {"ele": "972", "name": "Costa di Grano", "natural": "peak"}}, {"name": "Pietra Lunga", "latitude": 44.4684216, "longitude": 8.7861314, "elevation": 722.0, "source": "osm", "_tags": {"ele": "722", "name": "Pietra Lunga", "natural": "peak"}}, {"name": "Bric dell'Omo", "latitude": 44.4817583, "longitude": 8.8492631, "elevation": 695.0, "source": "osm", "_tags": {"ele": "695", "name": "Bric dell'Omo", "natural": "peak", "wikidata": "Q31664035"}}, {"name": "Monte dei Torbi", "latitude": 44.4999938, "longitude": 8.8440256, "elevation": 741.0, "source": "osm", "_tags": {"ele": "741", "name": "Monte dei Torbi", "natural": "peak"}}, {"name": "Costa Lavezzara", "latitude": 44.5503585, "longitude": 8.7881889, "elevation": 1081.0, "source": "osm", "_tags": {"ele": "1081", "name": "Costa Lavezzara", "natural": "peak", "wikidata": "Q110883846", "wikipedia": "it:Costa Lavezzara"}}, {"name": "Monte Lanzone", "latitude": 44.6174485, "longitude": 8.7965043, "elevation": 804.0, "source": "osm", "_tags": {"ele": "804", "name": "Monte Lanzone", "natural": "peak"}}, {"name": "Monte delle Rocche", "latitude": 44.6035837, "longitude": 8.8474755, "elevation": 690.0, "source": "osm", "_tags": {"ele": "690", "name": "Monte delle Rocche", "natural": "peak"}}, {"name": "Bric Castelnegro", "latitude": 44.4560422, "longitude": 8.7055752, "elevation": 459.0, "source": "osm", "_tags": {"ele": "459", "name": "Bric Castelnegro", "natural": "peak"}}, {"name": "Rocca della Marasca", "latitude": 44.4807945, "longitude": 8.6150511, "elevation": 947.0, "source": "osm", "_tags": {"alt_name": "Cima della Marasca", "ele": "947", "name": "Rocca della Marasca", "natural": "peak"}}, {"name": "Rocca del Turnou Cima Sud", "latitude": 44.438938, "longitude": 8.5989376, "elevation": 1198.0, "source": "osm", "_tags": {"ele": "1198", "name": "Rocca del Turnou Cima Sud", "natural": "peak"}}, {"name": "Bric del Terma", "latitude": 44.5051277, "longitude": 8.769326, "elevation": 760.0, "source": "osm", "_tags": {"ele": "760", "name": "Bric del Terma", "natural": "peak", "wikidata": "Q3644548", "wikipedia": "it:Bric del Terma"}}, {"name": "Bric della Vite", "latitude": 44.557466, "longitude": 8.4191981, "elevation": 540.0, "source": "osm", "_tags": {"ele": "540", "name": "Bric della Vite", "natural": "peak"}}, {"name": "Bric di Montado", "latitude": 44.5250836, "longitude": 8.5130142, "elevation": 703.0, "source": "osm", "_tags": {"ele": "703", "name": "Bric di Montado", "natural": "peak"}}, {"name": "Bric dei Cheilini", "latitude": 44.4889015, "longitude": 8.3361709, "elevation": 518.0, "source": "osm", "_tags": {"ele": "518", "name": "Bric dei Cheilini", "natural": "peak"}}, {"name": "Monte Poggio", "latitude": 44.5312993, "longitude": 8.7846784, "elevation": 1081.0, "source": "osm", "_tags": {"ele": "1081", "name": "Monte Poggio", "natural": "peak", "wikidata": "Q3861852", "wikipedia": "it:Monte Poggio"}}, {"name": "Bric Sciue Gianche", "latitude": 44.4373984, "longitude": 8.6124175, "elevation": 1172.0, "source": "osm", "_tags": {"alt_name": "Monte Fiori Bianchi", "ele": "1172", "name": "Bric Sciue Gianche", "name:lij": "Rocche der Sciur Gianche", "natural": "peak"}}, {"name": "Rocca del Turnou Cima Nord", "latitude": 44.4401955, "longitude": 8.5987016, "elevation": 1191.0, "source": "osm", "_tags": {"ele": "1191", "name": "Rocca del Turnou Cima Nord", "natural": "peak"}}, {"name": "Bric Eiraldo", "latitude": 44.454105, "longitude": 8.4519416, "elevation": 681.0, "source": "osm", "_tags": {"ele": "681", "name": "Bric Eiraldo", "natural": "peak"}}, {"name": "Bric Riund", "latitude": 44.4458982, "longitude": 8.4596192, "elevation": 699.0, "source": "osm", "_tags": {"ele": "699", "name": "Bric Riund", "name:lij": "Briccu Riund", "natural": "peak"}}, {"name": "Bric Suriazza", "latitude": 44.453791, "longitude": 8.448694, "elevation": 675.0, "source": "osm", "_tags": {"ele": "675", "name": "Bric Suriazza", "natural": "peak", "source": "CTR Regione Liguria"}}, {"name": "Briccazzo", "latitude": 44.4507155, "longitude": 8.4701345, "elevation": 612.0, "source": "osm", "_tags": {"ele": "612", "name": "Briccazzo", "natural": "peak"}}, {"name": "Bric Mosca", "latitude": 44.4537554, "longitude": 8.4095729, "elevation": 584.0, "source": "osm", "_tags": {"ele": "584", "name": "Bric Mosca", "natural": "peak"}}, {"name": "Bric Oggia", "latitude": 44.4526502, "longitude": 8.4209249, "elevation": 548.0, "source": "osm", "_tags": {"ele": "548", "name": "Bric Oggia", "natural": "peak"}}, {"name": "Bric Schiena d'asino", "latitude": 44.4587112, "longitude": 8.4132423, "elevation": 605.0, "source": "osm", "_tags": {"ele": "605", "name": "Bric Schiena d'asino", "natural": "peak"}}, {"name": "Bric dell'Isola", "latitude": 44.4527473, "longitude": 8.430198, "elevation": 502.0, "source": "osm", "_tags": {"ele": "502", "name": "Bric dell'Isola", "natural": "peak"}}, {"name": "Bric Roccazza Piccola", "latitude": 44.4940501, "longitude": 8.4672809, "elevation": 493.0, "source": "osm", "_tags": {"ele": "493", "name": "Bric Roccazza Piccola", "natural": "peak"}}, {"name": "Bric Savoia", "latitude": 44.489675, "longitude": 8.4726858, "elevation": 445.0, "source": "osm", "_tags": {"ele": "445", "name": "Bric Savoia", "natural": "peak"}}, {"name": "Bric dell'Uccello", "latitude": 44.4787261, "longitude": 8.5536702, "elevation": 803.0, "source": "osm", "_tags": {"ele": "803", "name": "Bric dell'Uccello", "name:lij": "Bric dl'Oxello", "natural": "peak"}}, {"name": "Bric Ciaggiazza", "latitude": 44.4849908, "longitude": 8.523233, "elevation": 676.0, "source": "osm", "_tags": {"ele": "676", "name": "Bric Ciaggiazza", "name:lij": "Ciazazza", "natural": "peak"}}, {"name": "Bric Buscarola", "latitude": 44.4671342, "longitude": 8.5671549, "elevation": 879.0, "source": "osm", "_tags": {"ele": "879", "name": "Bric Buscarola", "natural": "peak"}}, {"name": "Cima Strina", "latitude": 44.4498171, "longitude": 8.5799712, "elevation": 1008.0, "source": "osm", "_tags": {"ele": "1008", "name": "Cima Strina", "name:lij": "Rocca Strin-nà", "natural": "peak"}}, {"name": "Cima le Fontane", "latitude": 44.4552868, "longitude": 8.5948883, "elevation": 839.0, "source": "osm", "_tags": {"ele": "839", "name": "Cima le Fontane", "natural": "peak"}}, {"name": "Bricco Ducca", "latitude": 44.4668871, "longitude": 8.538625, "elevation": 836.0, "source": "osm", "_tags": {"ele": "836", "name": "Bricco Ducca", "name:lij": "Dücca", "natural": "peak"}}, {"name": "Cima La Frandaia", "latitude": 44.460396, "longitude": 8.5179353, "elevation": 665.0, "source": "osm", "_tags": {"ele": "665", "name": "Cima La Frandaia", "name:lij": "Frandaja", "natural": "peak"}}, {"name": "Punta Marelli", "latitude": 44.5695756, "longitude": 8.3928852, "elevation": 473.0, "source": "osm", "_tags": {"ele": "473", "name": "Punta Marelli", "natural": "peak"}}, {"name": "Bric Arpescella", "latitude": 44.574848, "longitude": 8.769482, "elevation": 875.0, "source": "osm", "_tags": {"ele": "875", "name": "Bric Arpescella", "natural": "peak"}}, {"name": "Mond'Ovile", "latitude": 44.596505, "longitude": 8.74303, "elevation": 705.0, "source": "osm", "_tags": {"ele": "705", "name": "Mond'Ovile", "natural": "peak"}}, {"name": "Bric dei Galli", "latitude": 44.5182459, "longitude": 7.9610001, "elevation": 520.0, "source": "osm", "_tags": {"ele": "520", "name": "Bric dei Galli", "natural": "peak"}}, {"name": "San Martino", "latitude": 44.5373138, "longitude": 7.9909131, "elevation": 545.0, "source": "osm", "_tags": {"ele": "545", "name": "San Martino", "natural": "peak"}}, {"name": "Bric del Frati", "latitude": 44.5356737, "longitude": 7.9413514, "elevation": 350.0, "source": "osm", "_tags": {"ele": "350", "name": "Bric del Frati", "natural": "peak"}}, {"name": "Monte Griva", "latitude": 44.5238236, "longitude": 7.9674422, "elevation": 520.0, "source": "osm", "_tags": {"ele": "520", "name": "Monte Griva", "natural": "peak"}}, {"name": "Bricco Rosso", "latitude": 44.5179956, "longitude": 7.9347072, "elevation": 430.0, "source": "osm", "_tags": {"ele": "430", "name": "Bricco Rosso", "natural": "peak"}}, {"name": "Monte Colma", "latitude": 44.499303, "longitude": 8.5814967, "elevation": 754.0, "source": "osm", "_tags": {"ele": "754", "name": "Monte Colma", "name:lij": "Curma", "natural": "peak"}}, {"name": "Bric Zoanni", "latitude": 44.7648602, "longitude": 8.0400362, "elevation": 318.0, "source": "osm", "_tags": {"ele": "318", "name": "Bric Zoanni", "natural": "peak"}}, {"name": "Monte Carlo", "latitude": 44.5361464, "longitude": 8.8711115, "elevation": 550.0, "source": "osm", "_tags": {"ele": "550", "name": "Monte Carlo", "natural": "peak", "source": "CTR Regione Liguria"}}, {"name": "Monte Pesucco", "latitude": 44.5213092, "longitude": 8.8398325, "elevation": 672.0, "source": "osm", "_tags": {"ele": "672", "name": "Monte Pesucco", "natural": "peak", "source": "CTR Regione Liguria"}}, {"name": "Monte Calvo", "latitude": 44.5453228, "longitude": 8.8791698, "elevation": 747.0, "source": "osm", "_tags": {"ele": "747", "name": "Monte Calvo", "natural": "peak", "source": "CTR Regione Liguria"}}, {"name": "Bric Bucchei", "latitude": 44.450793, "longitude": 8.4128078, "elevation": 634.0, "source": "osm", "_tags": {"ele": "634", "name": "Bric Bucchei", "natural": "peak"}}, {"name": "Bric Buongiorno", "latitude": 44.4389708, "longitude": 8.3923234, "elevation": 607.0, "source": "osm", "_tags": {"ele": "607", "name": "Bric Buongiorno", "natural": "peak"}}, {"name": "Bric Buscana", "latitude": 44.4394151, "longitude": 8.3387422, "elevation": 495.0, "source": "osm", "_tags": {"ele": "495", "name": "Bric Buscana", "natural": "peak"}}, {"name": "Bric Cerro", "latitude": 44.4785103, "longitude": 8.3821742, "elevation": 576.0, "source": "osm", "_tags": {"ele": "576", "name": "Bric Cerro", "natural": "peak"}}, {"name": "Bric Funga", "latitude": 44.4522685, "longitude": 8.3854073, "elevation": 539.0, "source": "osm", "_tags": {"ele": "539", "name": "Bric Funga", "natural": "peak"}}, {"name": "Bric Mondo", "latitude": 44.4371738, "longitude": 8.4939414, "elevation": 698.0, "source": "osm", "_tags": {"ele": "698", "name": "Bric Mondo", "natural": "peak"}}, {"name": "Bric Riondo di Cavanna", "latitude": 44.4649917, "longitude": 8.3682086, "elevation": 485.0, "source": "osm", "_tags": {"ele": "485", "name": "Bric Riondo di Cavanna", "natural": "peak", "source": "CTR Regione Liguria"}}, {"name": "Bric Rotondo", "latitude": 44.4788126, "longitude": 8.3417148, "elevation": 489.0, "source": "osm", "_tags": {"ele": "489", "name": "Bric Rotondo", "natural": "peak"}}, {"name": "Bric Sibiria", "latitude": 44.4825705, "longitude": 8.3992742, "elevation": 434.0, "source": "osm", "_tags": {"ele": "434", "name": "Bric Sibiria", "natural": "peak"}}, {"name": "Bric Strinata", "latitude": 44.4321418, "longitude": 8.3709916, "elevation": 517.0, "source": "osm", "_tags": {"ele": "517", "name": "Bric Strinata", "natural": "peak"}}, {"name": "Bric Valdinaso", "latitude": 44.4587028, "longitude": 8.3304055, "elevation": 461.0, "source": "osm", "_tags": {"ele": "461", "name": "Bric Valdinaso", "natural": "peak", "source": "CTR Regione Liguria"}}, {"name": "Bric dei Botta", "latitude": 44.4407686, "longitude": 8.3472194, "elevation": 492.0, "source": "osm", "_tags": {"ele": "492", "name": "Bric dei Botta", "natural": "peak"}}, {"name": "Bric del Group", "latitude": 44.4716956, "longitude": 8.382918, "elevation": 604.0, "source": "osm", "_tags": {"ele": "604", "name": "Bric del Group", "natural": "peak"}}, {"name": "Bric delle Rocche", "latitude": 44.4440315, "longitude": 8.4420345, "elevation": 562.0, "source": "osm", "_tags": {"ele": "562", "name": "Bric delle Rocche", "natural": "peak"}}, {"name": "Monte Sorba", "latitude": 44.5016307, "longitude": 8.3993738, "elevation": 476.0, "source": "osm", "_tags": {"ele": "476", "name": "Monte Sorba", "natural": "peak"}}, {"name": "Bric Foresto", "latitude": 44.4724305, "longitude": 8.2995677, "elevation": 418.0, "source": "osm", "_tags": {"ele": "418", "name": "Bric Foresto", "natural": "peak", "source": "CTR Regione Liguria"}}, {"name": "Bric Genevraio", "latitude": 44.4565105, "longitude": 8.2499236, "elevation": 532.0, "source": "osm", "_tags": {"ele": "532", "name": "Bric Genevraio", "natural": "peak", "source": "CTR Regione Liguria"}}, {"name": "Bric Palmolari", "latitude": 44.4677361, "longitude": 8.256546, "elevation": 534.0, "source": "osm", "_tags": {"ele": "534", "name": "Bric Palmolari", "natural": "peak", "source": "CTR Regione Liguria"}}, {"name": "Bric Pendie", "latitude": 44.4608192, "longitude": 8.2035995, "elevation": 702.0, "source": "osm", "_tags": {"ele": "702", "name": "Bric Pendie", "natural": "peak", "source": "CTR Regione Liguria"}}, {"name": "Bric Petacchi", "latitude": 44.4759926, "longitude": 8.2756406, "elevation": 490.0, "source": "osm", "_tags": {"ele": "490", "name": "Bric Petacchi", "natural": "peak", "source": "CTR Regione Liguria"}}, {"name": "Bric Pozza", "latitude": 44.4569522, "longitude": 8.2077792, "elevation": 707.0, "source": "osm", "_tags": {"ele": "707", "name": "Bric Pozza", "natural": "peak", "source": "CTR Regione Liguria"}}, {"name": "Bric Preizi", "latitude": 44.4540245, "longitude": 8.2237702, "elevation": 797.0, "source": "osm", "_tags": {"ele": "797", "name": "Bric Preizi", "natural": "peak", "source": "CTR Regione Liguria"}}, {"name": "Bric Rotondo", "latitude": 44.4725798, "longitude": 8.277304, "elevation": 474.0, "source": "osm", "_tags": {"ele": "474", "name": "Bric Rotondo", "natural": "peak", "source": "CTR Regione Liguria"}}, {"name": "Bric Toduc", "latitude": 44.5002934, "longitude": 8.3074043, "elevation": 386.0, "source": "osm", "_tags": {"ele": "386", "name": "Bric Toduc", "natural": "peak", "source": "CTR Regione Liguria"}}, {"name": "Bric Traverse", "latitude": 44.4397841, "longitude": 8.2160173, "elevation": 742.0, "source": "osm", "_tags": {"ele": "742", "name": "Bric Traverse", "natural": "peak", "source": "CTR Regione Liguria"}}, {"name": "Bric Vignazza", "latitude": 44.4511234, "longitude": 8.2816865, "elevation": 427.0, "source": "osm", "_tags": {"ele": "427", "name": "Bric Vignazza", "natural": "peak", "source": "CTR Regione Liguria"}}, {"name": "Bric del Carretto", "latitude": 44.434865, "longitude": 8.2375266, "elevation": 729.0, "source": "osm", "_tags": {"ele": "729", "name": "Bric del Carretto", "natural": "peak", "source": "CTR Regione Liguria"}}, {"name": "Bric del Castello", "latitude": 44.5083827, "longitude": 8.2478864, "elevation": 651.0, "source": "osm", "_tags": {"ele": "651", "name": "Bric del Castello", "natural": "peak", "source": "CTR Regione Liguria"}}, {"name": "Bric del Prete", "latitude": 44.4643832, "longitude": 8.2732385, "elevation": 474.0, "source": "osm", "_tags": {"ele": "474", "name": "Bric del Prete", "natural": "peak", "source": "CTR Regione Liguria"}}, {"name": "Bric del Rizzo", "latitude": 44.4939833, "longitude": 8.2192032, "elevation": 742.0, "source": "osm", "_tags": {"ele": "742", "name": "Bric del Rizzo", "natural": "peak", "source": "CTR Regione Liguria"}}, {"name": "Bric del Rocco", "latitude": 44.5129666, "longitude": 8.2689461, "elevation": 497.0, "source": "osm", "_tags": {"ele": "497", "name": "Bric del Rocco", "natural": "peak", "source": "CTR Regione Liguria"}}, {"name": "Bric della Croce", "latitude": 44.4939753, "longitude": 8.2395522, "elevation": 637.0, "source": "osm", "_tags": {"ele": "637", "name": "Bric della Croce", "natural": "peak", "source": "CTR Regione Liguria"}}, {"name": "Bric Forte", "latitude": 44.4880796, "longitude": 8.2323568, "elevation": 680.0, "source": "osm", "_tags": {"ele": "680", "name": "Bric Forte", "natural": "peak", "source": "CTR Regione Liguria"}}, {"name": "Bric Cavaira", "latitude": 44.4328811, "longitude": 8.26235, "elevation": 504.0, "source": "osm", "_tags": {"ele": "504", "name": "Bric Cavaira", "natural": "peak", "source": "CTR Regione Liguria"}}, {"name": "Bric della Codolla", "latitude": 44.4653442, "longitude": 8.4281121, "elevation": 519.0, "source": "osm", "_tags": {"ele": "519", "name": "Bric della Codolla", "natural": "peak", "source": "CTR Regione Liguria"}}, {"name": "Bric della Ressia", "latitude": 44.4366153, "longitude": 8.2569582, "elevation": 532.0, "source": "osm", "_tags": {"ele": "532", "name": "Bric della Ressia", "natural": "peak", "source": "CTR Regione Liguria"}}, {"name": "Monte Fea", "latitude": 44.4381093, "longitude": 8.2659095, "elevation": 509.0, "source": "osm", "_tags": {"ele": "509", "name": "Monte Fea", "natural": "peak", "source": "CTR Regione Liguria"}}, {"name": "Bric Bombarda", "latitude": 44.437165, "longitude": 8.4285763, "elevation": 605.0, "source": "osm", "_tags": {"ele": "605", "name": "Bric Bombarda", "natural": "peak"}}, {"name": "Bric Busa", "latitude": 44.4884318, "longitude": 8.7182982, "elevation": 692.0, "source": "osm", "_tags": {"ele": "692", "name": "Bric Busa", "natural": "peak", "source": "CTR Regione Liguria"}}, {"name": "Bric Bossarina", "latitude": 44.4341328, "longitude": 8.4218256, "elevation": 604.0, "source": "osm", "_tags": {"ele": "604", "name": "Bric Bossarina", "natural": "peak"}}, {"name": "Bric Caban", "latitude": 44.5140933, "longitude": 8.7176404, "elevation": 647.0, "source": "osm", "_tags": {"ele": "647", "name": "Bric Caban", "natural": "peak", "source": "CTR Regione Liguria"}}, {"name": "Bric Canaio", "latitude": 44.5538674, "longitude": 8.6021903, "elevation": 499.0, "source": "osm", "_tags": {"ele": "499", "name": "Bric Canaio", "natural": "peak", "source": "CTR Regione Liguria"}}, {"name": "Bric Carpescio", "latitude": 44.5044869, "longitude": 8.6187614, "elevation": 662.0, "source": "osm", "_tags": {"ele": "662", "name": "Bric Carpescio", "natural": "peak", "source": "CTR Regione Liguria"}}, {"name": "Bric Lagolungo", "latitude": 44.5488296, "longitude": 8.8341841, "elevation": 923.0, "source": "osm", "_tags": {"ele": "923", "name": "Bric Lagolungo", "natural": "peak", "source": "CTR Regione Liguria"}}, {"name": "Bric Rattun", "latitude": 44.5030368, "longitude": 8.6050431, "elevation": 634.0, "source": "osm", "_tags": {"ele": "634", "name": "Bric Rattun", "natural": "peak", "source": "CTR Regione Liguria"}}, {"name": "Bric Roncasci", "latitude": 44.53383, "longitude": 8.8343838, "elevation": 833.0, "source": "osm", "_tags": {"ele": "833", "name": "Bric Roncasci", "natural": "peak", "source": "CTR Regione Liguria"}}, {"name": "Bric del Cucco", "latitude": 44.5224012, "longitude": 8.5869587, "elevation": 632.0, "source": "osm", "_tags": {"ele": "632", "name": "Bric del Cucco", "natural": "peak", "source": "CTR Regione Liguria"}}, {"name": "Bric dell'Asino", "latitude": 44.5098056, "longitude": 8.7258495, "elevation": 574.0, "source": "osm", "_tags": {"ele": "574", "name": "Bric dell'Asino", "natural": "peak", "source": "CTR Regione Liguria"}}, {"name": "Bric della Bandita", "latitude": 44.5275242, "longitude": 8.5903976, "elevation": 650.0, "source": "osm", "_tags": {"ele": "650", "name": "Bric della Bandita", "natural": "peak"}}, {"name": "Bricco Mascin", "latitude": 44.5284473, "longitude": 8.6830705, "elevation": 758.0, "source": "osm", "_tags": {"ele": "758", "name": "Bricco Mascin", "natural": "peak", "source": "CTR Regione Liguria"}}, {"name": "Il Castellaccio", "latitude": 44.4374808, "longitude": 8.4175201, "elevation": 558.0, "source": "osm", "_tags": {"ele": "558", "name": "Il Castellaccio", "natural": "peak"}}, {"name": "Monte Castelloncelo", "latitude": 44.5749512, "longitude": 8.6113119, "elevation": 360.0, "source": "osm", "_tags": {"ele": "360", "name": "Monte Castelloncelo", "natural": "peak", "source": "CTR Regione Liguria"}}, {"name": "Monte Fossa", "latitude": 44.5541196, "longitude": 8.6141575, "elevation": 500.0, "source": "osm", "_tags": {"ele": "500", "name": "Monte Fossa", "natural": "peak", "source": "CTR Regione Liguria"}}, {"name": "Rocca della Marietta", "latitude": 44.5321208, "longitude": 8.6085663, "elevation": 614.0, "source": "osm", "_tags": {"ele": "614", "name": "Rocca della Marietta", "natural": "peak", "source": "CTR Regione Liguria"}}, {"name": "Bric Bancarara", "latitude": 44.4874517, "longitude": 8.6508928, "elevation": 958.0, "source": "osm", "_tags": {"ele": "958", "name": "Bric Bancarara", "natural": "peak"}}, {"name": "Bric Francescon", "latitude": 44.4874925, "longitude": 8.6065077, "elevation": 731.0, "source": "osm", "_tags": {"ele": "731", "name": "Bric Francescon", "natural": "peak"}}, {"name": "Bric Maraschin", "latitude": 44.4917958, "longitude": 8.6097328, "elevation": 666.0, "source": "osm", "_tags": {"ele": "666", "name": "Bric Maraschin", "natural": "peak", "source": "CTR Regione Liguria"}}, {"name": "Bric Mattellona", "latitude": 44.5094473, "longitude": 8.6400065, "elevation": 720.0, "source": "osm", "_tags": {"ele": "720", "name": "Bric Mattellona", "natural": "peak", "source": "CTR Regione Liguria"}}, {"name": "Bric Pietra Acuta", "latitude": 44.4912214, "longitude": 8.6356437, "elevation": 756.0, "source": "osm", "_tags": {"ele": "756", "name": "Bric Pietra Acuta", "natural": "peak"}}, {"name": "Bric Prato D'Erma", "latitude": 44.48895, "longitude": 8.7585501, "elevation": 760.0, "source": "osm", "_tags": {"ele": "760", "name": "Bric Prato D'Erma", "natural": "peak"}}, {"name": "Bric Preburon", "latitude": 44.4929168, "longitude": 8.6620347, "elevation": 815.0, "source": "osm", "_tags": {"ele": "815", "name": "Bric Preburon", "natural": "peak", "source": "CTR Regione Liguria"}}, {"name": "Bric Spinzo", "latitude": 44.4368049, "longitude": 8.5829444, "elevation": 1120.0, "source": "osm", "_tags": {"ele": "1120", "name": "Bric Spinzo", "name:lij": "Bric du Splinziu", "natural": "peak"}}, {"name": "Bric del Fratin", "latitude": 44.4856, "longitude": 8.6242937, "elevation": 911.0, "source": "osm", "_tags": {"ele": "911", "name": "Bric del Fratin", "natural": "peak", "source": "CTR Regione Liguria"}}, {"name": "Bric del Sozzo", "latitude": 44.4839846, "longitude": 8.5952254, "elevation": 650.0, "source": "osm", "_tags": {"ele": "650", "name": "Bric del Sozzo", "natural": "peak"}}, {"name": "Bric della Castagna", "latitude": 44.4902504, "longitude": 8.6531007, "elevation": 872.0, "source": "osm", "_tags": {"ele": "872", "name": "Bric della Castagna", "natural": "peak", "source": "CTR Regione Liguria"}}, {"name": "Monte Cuccio", "latitude": 44.4710241, "longitude": 8.7944037, "elevation": 838.0, "source": "osm", "_tags": {"ele": "838", "name": "Monte Cuccio", "natural": "peak"}}, {"name": "Rocca Gianni", "latitude": 44.4945338, "longitude": 8.6680902, "elevation": 901.0, "source": "osm", "_tags": {"ele": "901", "name": "Rocca Gianni", "natural": "peak"}}, {"name": "Rocca della Biscia", "latitude": 44.450722, "longitude": 8.6088043, "elevation": 932.0, "source": "osm", "_tags": {"ele": "932", "name": "Rocca della Biscia", "name:lij": "Rocca dra Biscia", "natural": "peak"}}, {"name": "Bric Ambrogio", "latitude": 44.4759151, "longitude": 8.6294539, "elevation": 980.0, "source": "osm", "_tags": {"ele": "980", "name": "Bric Ambrogio", "natural": "peak", "source": "CTR Regione Liguria"}}, {"name": "Bric Belcante", "latitude": 44.549444, "longitude": 8.6419341, "elevation": 501.0, "source": "osm", "_tags": {"ele": "501", "name": "Bric Belcante", "natural": "peak", "source": "CTR Regione Liguria"}}, {"name": "Bric Mondo", "latitude": 44.5518001, "longitude": 8.6807106, "elevation": 623.0, "source": "osm", "_tags": {"ele": "623", "name": "Bric Mondo", "natural": "peak"}}, {"name": "Bric Zambrà", "latitude": 44.5568384, "longitude": 8.7075855, "elevation": 661.0, "source": "osm", "_tags": {"ele": "661", "name": "Bric Zambrà", "natural": "peak", "source": "CTR Regione Liguria"}}, {"name": "La Colma", "latitude": 44.5731251, "longitude": 8.7270862, "elevation": 802.0, "source": "osm", "_tags": {"ele": "802", "name": "La Colma", "natural": "peak", "source": "CTR Regione Liguria"}}, {"name": "Montà delle Pietre", "latitude": 44.4726841, "longitude": 8.6376798, "elevation": 1024.0, "source": "osm", "_tags": {"ele": "1024", "name": "Montà delle Pietre", "natural": "peak", "source": "CTR Regione Liguria"}}, {"name": "Monte Battolina", "latitude": 44.5567097, "longitude": 8.823234, "elevation": 834.0, "source": "osm", "_tags": {"ele": "834", "name": "Monte Battolina", "natural": "peak", "source": "CTR Regione Liguria"}}, {"name": "Monte Bellavista", "latitude": 44.5488924, "longitude": 8.7112044, "elevation": 820.0, "source": "osm", "_tags": {"ele": "820", "name": "Monte Bellavista", "natural": "peak", "source": "CTR Regione Liguria"}}, {"name": "Monte Nero", "latitude": 44.5556151, "longitude": 8.6602025, "elevation": 546.0, "source": "osm", "_tags": {"ele": "546", "name": "Monte Nero", "natural": "peak", "source": "CTR Regione Liguria"}}, {"name": "Rocca dei Pei", "latitude": 44.4772632, "longitude": 8.6975871, "elevation": 710.0, "source": "osm", "_tags": {"ele": "710", "name": "Rocca dei Pei", "natural": "peak", "source": "CTR Regione Liguria"}}, {"name": "Bric Fagaggia", "latitude": 44.4419198, "longitude": 8.7812682, "elevation": 257.0, "source": "osm", "_tags": {"ele": "257", "name": "Bric Fagaggia", "natural": "peak", "source": "CTR Regione Liguria"}}, {"name": "Bric dei Corvi Nord", "latitude": 44.4683892, "longitude": 8.8620057, "elevation": 624.0, "source": "osm", "_tags": {"ele": "624", "name": "Bric dei Corvi Nord", "natural": "peak", "source": "CTR Regione Liguria"}}, {"name": "Bric dei Corvi Sud", "latitude": 44.4538123, "longitude": 8.8659145, "elevation": 597.0, "source": "osm", "_tags": {"ele": "597", "name": "Bric dei Corvi Sud", "natural": "peak", "source": "CTR Regione Liguria"}}, {"name": "Bric Teiolo", "latitude": 44.4620735, "longitude": 8.8631765, "elevation": 660.0, "source": "osm", "_tags": {"ele": "660", "name": "Bric Teiolo", "natural": "peak", "source": "CTR Regione Liguria"}}, {"name": "Bric Ghighermasso", "latitude": 44.4588793, "longitude": 8.7230027, "elevation": 571.0, "source": "osm", "_tags": {"ele": "571", "name": "Bric Ghighermasso", "natural": "peak"}}, {"name": "Bric Becco", "latitude": 44.4863908, "longitude": 8.557014, "elevation": 725.0, "source": "osm", "_tags": {"ele": "725", "name": "Bric Becco", "name:lij": "Bric d'Beccu", "natural": "peak", "source": "CTR Regione Liguria"}}, {"name": "Bric delle Monache", "latitude": 44.446588, "longitude": 8.8040784, "elevation": 448.0, "source": "osm", "_tags": {"ele": "448", "name": "Bric delle Monache", "natural": "peak"}}, {"name": "Rocca dei Ciapuri", "latitude": 44.4495667, "longitude": 8.6102053, "elevation": 932.0, "source": "osm", "_tags": {"ele": "932", "name": "Rocca dei Ciapuri", "natural": "peak"}}, {"name": "monte Rosso", "latitude": 44.747864, "longitude": 8.8654123, "elevation": null, "source": "osm", "_tags": {"name": "monte Rosso", "natural": "peak"}}, {"name": "Bric Furiana", "latitude": 44.4313617, "longitude": 8.2648794, "elevation": 468.0, "source": "osm", "_tags": {"ele": "468", "name": "Bric Furiana", "natural": "peak", "source": "CTR Regione Liguria"}}, {"name": "Bric MIsse", "latitude": 44.4931094, "longitude": 8.2307903, "elevation": 693.0, "source": "osm", "_tags": {"ele": "693", "name": "Bric MIsse", "natural": "peak", "source": "CTR Regione Liguria"}}, {"name": "Bric Antizzan", "latitude": 44.4951693, "longitude": 8.4428911, "elevation": 425.0, "source": "osm", "_tags": {"ele": "425", "name": "Bric Antizzan", "natural": "peak", "source": "CTR Regione Liguria"}}, {"name": "Bric Bottero", "latitude": 44.4930927, "longitude": 8.4297213, "elevation": 458.0, "source": "osm", "_tags": {"ele": "458", "name": "Bric Bottero", "natural": "peak", "source": "CTR Regione Liguria"}}, {"name": "Bric Grafia", "latitude": 44.4936924, "longitude": 8.4321473, "elevation": 448.0, "source": "osm", "_tags": {"ele": "448", "name": "Bric Grafia", "natural": "peak", "source": "CTR Regione Liguria"}}, {"name": "Bric Tiazze", "latitude": 44.4959919, "longitude": 8.4353338, "elevation": 442.0, "source": "osm", "_tags": {"ele": "442", "name": "Bric Tiazze", "natural": "peak", "source": "CTR Regione Liguria"}}, {"name": "Cima della Ciazza", "latitude": 44.4665765, "longitude": 8.6397422, "elevation": 1059.0, "source": "osm", "_tags": {"ele": "1059", "name": "Cima della Ciazza", "natural": "peak"}}, {"name": "Bric Picciu", "latitude": 44.4859508, "longitude": 8.7296963, "elevation": 653.0, "source": "osm", "_tags": {"ele": "653", "name": "Bric Picciu", "natural": "peak"}}, {"name": "Bric Vardiola", "latitude": 44.4941241, "longitude": 8.7099083, "elevation": 645.0, "source": "osm", "_tags": {"ele": "645", "name": "Bric Vardiola", "natural": "peak"}}, {"name": "Il Poggio", "latitude": 44.4801477, "longitude": 8.752288, "elevation": 603.0, "source": "osm", "_tags": {"ele": "603", "name": "Il Poggio", "natural": "peak"}}, {"name": "Monte Antenna", "latitude": 44.4774001, "longitude": 8.5895195, "elevation": 821.0, "source": "osm", "_tags": {"ele": "821", "name": "Monte Antenna", "name:lij": "Antena", "natural": "peak", "source": "CTR Regione Liguria"}}, {"name": "Bric Crevacuore", "latitude": 44.7252885, "longitude": 8.2382394, "elevation": 375.0, "source": "osm", "_tags": {"ele": "375", "name": "Bric Crevacuore", "natural": "peak"}}, {"name": "Monte Tarinè", "latitude": 44.4739185, "longitude": 8.5890339, "elevation": 931.0, "source": "osm", "_tags": {"ele": "931", "name": "Monte Tarinè", "name:lij": "Tariné", "natural": "peak", "source": "CTR Regione Liguria"}}, {"name": "Bricco Lù", "latitude": 44.7796527, "longitude": 8.2144558, "elevation": 326.0, "source": "osm", "_tags": {"ele": "326", "name": "Bricco Lù", "natural": "peak", "wikidata": "Q112652463"}}, {"name": "Bric Solardo", "latitude": 44.496498, "longitude": 8.7026674, "elevation": 530.0, "source": "osm", "_tags": {"ele": "530", "name": "Bric Solardo", "natural": "peak"}}, {"name": "Cima Galada", "latitude": 44.4477654, "longitude": 8.6279825, "elevation": 966.0, "source": "osm", "_tags": {"ele": "966", "name": "Cima Galada", "name:lij": "An zümma a Galadda", "natural": "peak"}}, {"name": "Bric Boscobello", "latitude": 44.5886685, "longitude": 8.7436865, "elevation": 688.0, "source": "osm", "_tags": {"ele": "688", "name": "Bric Boscobello", "natural": "peak"}}, {"name": "Bric dei Ladri", "latitude": 44.545618, "longitude": 8.7665543, "elevation": 841.0, "source": "osm", "_tags": {"ele": "841", "name": "Bric dei Ladri", "natural": "peak"}}, {"name": "Bric di Scioin", "latitude": 44.5454142, "longitude": 8.7770368, "elevation": 964.0, "source": "osm", "_tags": {"ele": "964", "name": "Bric di Scioin", "natural": "peak"}}, {"name": "Rocca Ciapassin", "latitude": 44.5703225, "longitude": 8.7380789, "elevation": 832.0, "source": "osm", "_tags": {"ele": "832", "name": "Rocca Ciapassin", "natural": "peak"}}, {"name": "Bric delle Forche", "latitude": 44.6038544, "longitude": 8.3826902, "elevation": 613.0, "source": "osm", "_tags": {"ele": "613", "name": "Bric delle Forche", "natural": "peak"}}, {"name": "Rocca del Corvo", "latitude": 44.4539557, "longitude": 8.6856397, "elevation": 701.0, "source": "osm", "_tags": {"ele": "701", "name": "Rocca del Corvo", "natural": "peak"}}, {"name": "Bric Tumela", "latitude": 44.471404, "longitude": 8.6164706, "elevation": 865.0, "source": "osm", "_tags": {"ele": "865", "name": "Bric Tumela", "natural": "peak"}}, {"name": "Bric Brigna", "latitude": 44.4341984, "longitude": 8.7105386, "elevation": 473.0, "source": "osm", "_tags": {"ele": "473", "name": "Bric Brigna", "natural": "peak"}}, {"name": "Bricco Grosso", "latitude": 44.4317307, "longitude": 8.7132873, "elevation": 441.0, "source": "osm", "_tags": {"ele": "441", "name": "Bricco Grosso", "natural": "peak"}}, {"name": "Bric Avra", "latitude": 44.4705336, "longitude": 8.3958799, "elevation": 607.0, "source": "osm", "_tags": {"ele": "607", "name": "Bric Avra", "natural": "peak"}}, {"name": "Bric Costa Canizzi", "latitude": 44.4638746, "longitude": 8.6502523, "elevation": 1045.0, "source": "osm", "_tags": {"ele": "1045", "name": "Bric Costa Canizzi", "natural": "peak"}}, {"name": "Rocca Colombi", "latitude": 44.486357, "longitude": 8.4824132, "elevation": 435.0, "source": "osm", "_tags": {"ele": "435", "name": "Rocca Colombi", "natural": "peak"}}, {"name": "Bric Bardenco", "latitude": 44.4526766, "longitude": 8.8174067, "elevation": 244.0, "source": "osm", "_tags": {"ele": "244", "fixme": "position", "name": "Bric Bardenco", "natural": "peak"}}, {"name": "Bric Ferra", "latitude": 44.4422587, "longitude": 8.8062719, "elevation": 370.0, "source": "osm", "_tags": {"ele": "370", "fixme": "position", "name": "Bric Ferra", "natural": "peak"}}, {"name": "Monte Carmelo", "latitude": 44.5366438, "longitude": 8.8576573, "elevation": 533.0, "source": "osm", "_tags": {"ele": "533", "name": "Monte Carmelo", "natural": "peak"}}, {"name": "Monte Larvego", "latitude": 44.5186101, "longitude": 8.8594973, "elevation": 503.0, "source": "osm", "_tags": {"ele": "503", "name": "Monte Larvego", "natural": "peak"}}, {"name": "Bric Suia", "latitude": 44.6245436, "longitude": 8.8830099, "elevation": 707.0, "source": "osm", "_tags": {"ele": "707", "name": "Bric Suia", "natural": "peak"}}, {"name": "Bric Torella", "latitude": 44.6356976, "longitude": 8.8581097, "elevation": 595.0, "source": "osm", "_tags": {"ele": "595", "name": "Bric Torella", "natural": "peak"}}, {"name": "Rocca Carolina - Cresta del Gallo", "latitude": 44.5390779, "longitude": 8.6788796, "elevation": null, "source": "osm", "_tags": {"name": "Rocca Carolina - Cresta del Gallo", "natural": "peak"}}, {"name": "Monte Turchino", "latitude": 44.4854777, "longitude": 8.7421899, "elevation": 671.0, "source": "osm", "_tags": {"ele": "671", "name": "Monte Turchino", "natural": "peak"}}, {"name": "Monte Proratado", "latitude": 44.4999128, "longitude": 8.8240162, "elevation": 928.0, "source": "osm", "_tags": {"ele": "928", "name": "Monte Proratado", "natural": "peak"}}, {"name": "Monte Tardia", "latitude": 44.4386418, "longitude": 8.6867509, "elevation": 865.0, "source": "osm", "_tags": {"ele": "865", "name": "Monte Tardia", "natural": "peak"}}, {"name": "Rocca di Scatone", "latitude": 44.4513918, "longitude": 8.7022389, "elevation": 358.0, "source": "osm", "_tags": {"ele": "358", "name": "Rocca di Scatone", "natural": "peak"}}, {"name": "Roccia Malpasso", "latitude": 44.445855, "longitude": 8.6952414, "elevation": 563.0, "source": "osm", "_tags": {"ele": "563", "name": "Roccia Malpasso", "natural": "peak"}}, {"name": "Bric dell'Oro", "latitude": 44.5147969, "longitude": 8.7468767, "elevation": 595.0, "source": "osm", "_tags": {"ele": "595", "name": "Bric dell'Oro", "natural": "peak"}}, {"name": "Rocca di Castelliermo", "latitude": 44.5117485, "longitude": 8.5692434, "elevation": 629.0, "source": "osm", "_tags": {"ele": "629", "name": "Rocca di Castelliermo", "natural": "peak"}}, {"name": "Rocca della Serra", "latitude": 44.4520141, "longitude": 8.5993038, "elevation": 755.0, "source": "osm", "_tags": {"ele": "755", "name": "Rocca della Serra", "natural": "peak"}}, {"name": "Croce del Beigua", "latitude": 44.4348232, "longitude": 8.5578625, "elevation": 1267.0, "source": "osm", "_tags": {"ele": "1267", "name": "Croce del Beigua", "natural": "peak"}}, {"name": "Bric Tappa", "latitude": 44.5880309, "longitude": 7.9773731, "elevation": null, "source": "osm", "_tags": {"name": "Bric Tappa", "natural": "peak"}}, {"name": "Bric Giubellini", "latitude": 44.5934975, "longitude": 7.9751469, "elevation": null, "source": "osm", "_tags": {"name": "Bric Giubellini", "natural": "peak"}}, {"name": "Bric Barone", "latitude": 44.5705152, "longitude": 7.957686, "elevation": null, "source": "osm", "_tags": {"name": "Bric Barone", "natural": "peak"}}, {"name": "Bricco Croce", "latitude": 44.4526209, "longitude": 8.3901212, "elevation": 539.0, "source": "osm", "_tags": {"ele": "539", "name": "Bricco Croce", "natural": "peak"}}, {"name": "Bric dei Ciazzi", "latitude": 44.4645844, "longitude": 8.3925113, "elevation": 548.0, "source": "osm", "_tags": {"ele": "548", "name": "Bric dei Ciazzi", "natural": "peak"}}, {"name": "Bric della Croce", "latitude": 44.4443732, "longitude": 8.430955, "elevation": 518.0, "source": "osm", "_tags": {"ele": "518", "name": "Bric della Croce", "natural": "peak"}}, {"name": "Montecastello", "latitude": 44.5652827, "longitude": 8.3548999, "elevation": null, "source": "osm", "_tags": {"name": "Montecastello", "natural": "peak"}}, {"name": "Col Bertone", "latitude": 44.5221633, "longitude": 8.2606462, "elevation": 626.0, "source": "osm", "_tags": {"ele": "626", "name": "Col Bertone", "natural": "peak", "source": "CTR Regione Liguria"}}, {"name": "Bric Rossani", "latitude": 44.5059319, "longitude": 8.2713623, "elevation": 455.0, "source": "osm", "_tags": {"ele": "455", "name": "Bric Rossani", "natural": "peak", "source": "CTR Regione Liguria"}}, {"name": "Bric Morena", "latitude": 44.5681108, "longitude": 8.1380343, "elevation": 651.0, "source": "osm", "_tags": {"ele": "651", "name": "Bric Morena", "natural": "peak"}}, {"name": "Bric Pratolungo", "latitude": 44.5761712, "longitude": 8.1346252, "elevation": 580.0, "source": "osm", "_tags": {"ele": "580", "name": "Bric Pratolungo", "natural": "peak"}}, {"name": "Bric Rodin", "latitude": 44.5684739, "longitude": 8.1301781, "elevation": 655.0, "source": "osm", "_tags": {"ele": "655", "name": "Bric Rodin", "natural": "peak"}}, {"name": "Bric del Pellegrino", "latitude": 44.4523145, "longitude": 8.6563635, "elevation": 1018.0, "source": "osm", "_tags": {"ele": "1018", "name": "Bric del Pellegrino", "natural": "peak"}}, {"name": "Rocca Fergione", "latitude": 44.4578868, "longitude": 8.6568595, "elevation": 1005.0, "source": "osm", "_tags": {"ele": "1005", "name": "Rocca Fergione", "natural": "peak"}}, {"name": "Bric Brescia", "latitude": 44.4680044, "longitude": 8.6056926, "elevation": 769.0, "source": "osm", "_tags": {"ele": "769", "name": "Bric Brescia", "name:lij": "An Brescia", "natural": "peak"}}, {"name": "Briccu dl'Audùra", "latitude": 44.5653413, "longitude": 8.6110015, "elevation": 413.0, "source": "osm", "_tags": {"ele": "413", "name": "Briccu dl'Audùra", "natural": "peak"}}, {"name": "Bric dl'Amicizia", "latitude": 44.5656345, "longitude": 8.6084144, "elevation": 413.0, "source": "osm", "_tags": {"ele": "413", "name": "Bric dl'Amicizia", "natural": "peak"}}, {"name": "Briccu dra Taià", "latitude": 44.5575741, "longitude": 8.6070772, "elevation": 424.0, "source": "osm", "_tags": {"ele": "424", "name": "Briccu dra Taià", "natural": "peak"}}, {"name": "Munte Pastùu", "latitude": 44.5557635, "longitude": 8.5976205, "elevation": 470.0, "source": "osm", "_tags": {"ele": "470", "name": "Munte Pastùu", "natural": "peak"}}, {"name": "Briccu Spresce", "latitude": 44.5508467, "longitude": 8.607346, "elevation": null, "source": "osm", "_tags": {"name": "Briccu Spresce", "natural": "peak"}}, {"name": "Rocca della Capra", "latitude": 44.4521373, "longitude": 8.6483291, "elevation": 959.0, "source": "osm", "_tags": {"ele": "959", "name": "Rocca della Capra", "name:lij": "Rocca der Crave", "natural": "peak"}}, {"name": "Bric Mandù", "latitude": 44.4539052, "longitude": 8.6415433, "elevation": 903.0, "source": "osm", "_tags": {"ele": "903", "name": "Bric Mandù", "natural": "peak"}}, {"name": "Bric del Rosto", "latitude": 44.4662078, "longitude": 8.6571173, "elevation": 1086.0, "source": "osm", "_tags": {"ele": "1086", "name": "Bric del Rosto", "natural": "peak"}}, {"name": "Bric Suia", "latitude": 44.4543801, "longitude": 8.7734469, "elevation": 339.0, "source": "osm", "_tags": {"ele": "339", "name": "Bric Suia", "natural": "peak"}}, {"name": "Bric Scagge", "latitude": 44.4394371, "longitude": 8.7905591, "elevation": 203.0, "source": "osm", "_tags": {"ele": "203", "name": "Bric Scagge", "natural": "peak"}}, {"name": "Monte Magnano", "latitude": 45.3954739, "longitude": 8.0637848, "elevation": null, "source": "osm", "_tags": {"name": "Monte Magnano", "natural": "peak"}}, {"name": "Bric Cabania", "latitude": 44.4363049, "longitude": 8.801768, "elevation": 232.0, "source": "osm", "_tags": {"ele": "232", "name": "Bric Cabania", "natural": "peak"}}, {"name": "Bric Grimaldi", "latitude": 44.4390604, "longitude": 8.8133819, "elevation": 235.0, "source": "osm", "_tags": {"ele": "235", "name": "Bric Grimaldi", "natural": "peak"}}, {"name": "", "latitude": 44.6918285, "longitude": 8.2404527, "elevation": 499.0, "source": "osm", "_tags": {"ele": "499", "natural": "peak"}}, {"name": "", "latitude": 44.6854969, "longitude": 8.219933, "elevation": 498.0, "source": "osm", "_tags": {"ele": "498", "natural": "peak"}}, {"name": "", "latitude": 44.6828204, "longitude": 8.2272399, "elevation": 539.0, "source": "osm", "_tags": {"ele": "539", "natural": "peak"}}, {"name": "", "latitude": 44.6850229, "longitude": 8.2319823, "elevation": 522.0, "source": "osm", "_tags": {"ele": "522", "natural": "peak"}}, {"name": "", "latitude": 44.6939414, "longitude": 8.24277, "elevation": 492.0, "source": "osm", "_tags": {"ele": "492", "natural": "peak"}}, {"name": "Bric Rasul", "latitude": 44.9869429, "longitude": 8.3005619, "elevation": 262.0, "source": "osm", "_tags": {"ele": "262", "name": "Bric Rasul", "natural": "peak"}}, {"name": "", "latitude": 44.4380052, "longitude": 8.7802364, "elevation": 175.0, "source": "osm", "_tags": {"ele": "175", "natural": "peak"}}, {"name": "Bric Rovere Grossa", "latitude": 44.4387516, "longitude": 8.4597489, "elevation": 616.0, "source": "osm", "_tags": {"ele": "616", "name": "Bric Rovere Grossa", "natural": "peak"}}, {"name": "Prîe da Formîgoa", "latitude": 44.4669308, "longitude": 8.8254587, "elevation": 330.0, "source": "osm", "_tags": {"climbing:bolted": "2 m", "climbing:grade:french:max": "7a", "climbing:grade:french:min": "5c", "climbing:length:max": "20", "climbing:length:min": "10", "climbing:orientation": "S-SE", "climbing:quality": "mixed", "climbing:rock": "dunite", "climbing:sport": "11", "description": "Chiodata a spit inox da Enrico Ferraro tra la fine del 2017 e la prima metà del 2018. 11 vie", "ele": "330", "name": "Prîe da Formîgoa", "natural": "peak", "sport": "climbing"}}, {"name": "Bric Caramello", "latitude": 44.4807045, "longitude": 8.7674781, "elevation": 536.0, "source": "osm", "_tags": {"ele": "536", "name": "Bric Caramello", "natural": "peak"}}, {"name": "Bric Maraschino", "latitude": 44.4859186, "longitude": 8.6108621, "elevation": null, "source": "osm", "_tags": {"name": "Bric Maraschino", "natural": "peak"}}, {"name": "Bric Finestrella", "latitude": 45.3682902, "longitude": 8.0070403, "elevation": null, "source": "osm", "_tags": {"name": "Bric Finestrella", "natural": "peak"}}, {"name": "Bric Torre", "latitude": 44.7713966, "longitude": 8.0278015, "elevation": 322.0, "source": "osm", "_tags": {"ele": "322", "name": "Bric Torre", "natural": "peak"}}, {"name": "", "latitude": 44.9693958, "longitude": 8.6064421, "elevation": 168.0, "source": "osm", "_tags": {"ele": "168", "natural": "peak"}}, {"name": "", "latitude": 44.9749143, "longitude": 8.5974329, "elevation": 192.0, "source": "osm", "_tags": {"ele": "192", "natural": "peak"}}, {"name": "Cima Mascia", "latitude": 44.5121121, "longitude": 8.6690889, "elevation": 845.0, "source": "osm", "_tags": {"ele": "845", "name": "Cima Mascia", "natural": "peak"}}, {"name": "Bric degli Angeli", "latitude": 44.4856469, "longitude": 8.6781585, "elevation": 971.0, "source": "osm", "_tags": {"ele": "971", "name": "Bric degli Angeli", "natural": "peak"}}, {"name": "Bric della Bia", "latitude": 44.5008347, "longitude": 8.5854131, "elevation": 746.0, "source": "osm", "_tags": {"ele": "746", "name": "Bric della Bia", "natural": "peak"}}, {"name": "Bric di Giazzo", "latitude": 44.4843323, "longitude": 8.5827631, "elevation": 729.0, "source": "osm", "_tags": {"ele": "729", "name": "Bric di Giazzo", "natural": "peak"}}, {"name": "Rocca del Crovo", "latitude": 44.4485044, "longitude": 8.6011228, "elevation": 875.0, "source": "osm", "_tags": {"ele": "875", "name": "Rocca del Crovo", "natural": "peak"}}, {"name": "Bric Roncaste", "latitude": 44.5022542, "longitude": 8.2921994, "elevation": 432.0, "source": "osm", "_tags": {"ele": "432", "name": "Bric Roncaste", "natural": "peak", "source": "CTR Regione Liguria"}}, {"name": "Monte Bergone", "latitude": 44.4994937, "longitude": 8.2948253, "elevation": 418.0, "source": "osm", "_tags": {"ele": "418", "name": "Monte Bergone", "natural": "peak", "source": "CTR Regione Liguria"}}, {"name": "Bric Riondo", "latitude": 44.4523913, "longitude": 8.4607856, "elevation": 659.0, "source": "osm", "_tags": {"ele": "659", "name": "Bric Riondo", "name:lij": "Bric Riundu", "natural": "peak", "source": "CTR Regione Liguria"}}, {"name": "Bric Gruppè", "latitude": 44.4570198, "longitude": 8.4532446, "elevation": 658.0, "source": "osm", "_tags": {"ele": "658", "name": "Bric Gruppè", "natural": "peak", "source": "CTR Regione Liguria"}}, {"name": "Monterotondo", "latitude": 44.4372009, "longitude": 8.4548814, "elevation": 555.0, "source": "osm", "_tags": {"ele": "555", "name": "Monterotondo", "natural": "peak"}}, {"name": "Bric Valcrosa", "latitude": 44.4512501, "longitude": 8.2741535, "elevation": 453.0, "source": "osm", "_tags": {"ele": "453", "name": "Bric Valcrosa", "natural": "peak", "source": "CTR Regione Liguria"}}, {"name": "Bric Schena", "latitude": 44.4501588, "longitude": 8.2724583, "elevation": 472.0, "source": "osm", "_tags": {"ele": "472", "name": "Bric Schena", "natural": "peak", "source": "CTR Regione Liguria"}}, {"name": "Bric della Croce", "latitude": 44.4688387, "longitude": 8.4718363, "elevation": 621.0, "source": "osm", "_tags": {"ele": "621", "name": "Bric della Croce", "natural": "peak"}}, {"name": "Bric Rocche Turchine", "latitude": 44.4732687, "longitude": 8.4729105, "elevation": 605.0, "source": "osm", "_tags": {"ele": "605", "name": "Bric Rocche Turchine", "natural": "peak"}}, {"name": "", "latitude": 45.33635, "longitude": 7.8873667, "elevation": 332.0, "source": "osm", "_tags": {"ele": "332", "natural": "peak"}}, {"name": "", "latitude": 45.0785028, "longitude": 7.9700107, "elevation": 553.0, "source": "osm", "_tags": {"ele": "553", "natural": "peak"}}, {"name": "Bric Ambria", "latitude": 45.063204, "longitude": 8.1883228, "elevation": null, "source": "osm", "_tags": {"name": "Bric Ambria", "natural": "peak"}}, {"name": "Bric di Moricale", "latitude": 44.4702503, "longitude": 8.4761453, "elevation": 510.0, "source": "osm", "_tags": {"ele": "510", "name": "Bric di Moricale", "natural": "peak"}}, {"name": "Bric Martina", "latitude": 45.1389066, "longitude": 7.8863905, "elevation": 535.0, "source": "osm", "_tags": {"ele": "535", "name": "Bric Martina", "natural": "peak"}}, {"name": "Bric del Cerro", "latitude": 45.1207649, "longitude": 7.9104095, "elevation": 500.0, "source": "osm", "_tags": {"ele": "500", "name": "Bric del Cerro", "natural": "peak"}}, {"name": "San Siro", "latitude": 45.1288823, "longitude": 7.9305649, "elevation": 294.0, "source": "osm", "_tags": {"ele": "294", "name": "San Siro", "natural": "peak"}}, {"name": "Croce di Pandemia", "latitude": 44.5581251, "longitude": 8.563226, "elevation": 590.0, "source": "osm", "_tags": {"ele": "590", "name": "Croce di Pandemia", "natural": "peak"}}, {"name": "Monte Drè", "latitude": 44.5245021, "longitude": 8.7674814, "elevation": 871.0, "source": "osm", "_tags": {"ele": "871", "name": "Monte Drè", "natural": "peak"}}, {"name": "Monte Rotondo", "latitude": 44.440151, "longitude": 8.0355505, "elevation": null, "source": "osm", "_tags": {"name": "Monte Rotondo", "natural": "peak"}}, {"name": "Bric Gamba", "latitude": 44.4370875, "longitude": 8.0234958, "elevation": null, "source": "osm", "_tags": {"name": "Bric Gamba", "natural": "peak"}}, {"name": "Bric Brucialepre", "latitude": 44.4384513, "longitude": 7.9575559, "elevation": null, "source": "osm", "_tags": {"name": "Bric Brucialepre", "natural": "peak"}}, {"name": "Bric Pedaggera", "latitude": 44.4454262, "longitude": 8.0564097, "elevation": 806.0, "source": "osm", "_tags": {"ele": "806", "name": "Bric Pedaggera", "natural": "peak"}}, {"name": "Bric delle Forche", "latitude": 44.6830808, "longitude": 8.2652328, "elevation": 532.0, "source": "osm", "_tags": {"ele": "532", "name": "Bric delle Forche", "natural": "peak"}}, {"name": "Bric Castellaro", "latitude": 44.9834501, "longitude": 8.659604, "elevation": 255.0, "source": "osm", "_tags": {"ele": "255", "name": "Bric Castellaro", "natural": "peak"}}, {"name": "Collina di Moncucco", "latitude": 44.7136729, "longitude": 8.22258, "elevation": 383.0, "source": "osm", "_tags": {"ele": "383", "name": "Collina di Moncucco", "natural": "peak"}}, {"name": "Bric Grifone", "latitude": 44.4766984, "longitude": 8.393316, "elevation": 560.0, "source": "osm", "_tags": {"ele": "560", "name": "Bric Grifone", "natural": "peak"}}, {"name": "Bric Barasan", "latitude": 44.4827822, "longitude": 8.392697, "elevation": 530.0, "source": "osm", "_tags": {"ele": "530", "name": "Bric Barasan", "natural": "peak"}}, {"name": "Bric delle barricate", "latitude": 45.3874219, "longitude": 8.0136097, "elevation": null, "source": "osm", "_tags": {"name": "Bric delle barricate", "natural": "peak"}}, {"name": "Bric Pollone", "latitude": 45.1253311, "longitude": 8.0947968, "elevation": 421.0, "source": "osm", "_tags": {"ele": "421", "name": "Bric Pollone", "natural": "peak"}}, {"name": "Bric Rou del Contino", "latitude": 44.5769804, "longitude": 8.5290656, "elevation": 655.0, "source": "osm", "_tags": {"ele": "655", "name": "Bric Rou del Contino", "natural": "peak"}}, {"name": "Bric della Valletta", "latitude": 44.5918393, "longitude": 8.5306459, "elevation": 554.0, "source": "osm", "_tags": {"ele": "554", "name": "Bric della Valletta", "natural": "peak"}}, {"name": "Monte Laione", "latitude": 44.6128886, "longitude": 8.5189808, "elevation": 582.0, "source": "osm", "_tags": {"ele": "582", "name": "Monte Laione", "natural": "peak"}}, {"name": "Bric Uvi", "latitude": 44.5548063, "longitude": 8.5105016, "elevation": 746.0, "source": "osm", "_tags": {"ele": "746", "name": "Bric Uvi", "natural": "peak"}}, {"name": "Bric Alto delle Scarne", "latitude": 44.5127226, "longitude": 8.5643735, "elevation": 737.0, "source": "osm", "_tags": {"ele": "737", "name": "Bric Alto delle Scarne", "natural": "peak"}}, {"name": "Bric Gruppini", "latitude": 44.5298714, "longitude": 8.5473407, "elevation": 693.0, "source": "osm", "_tags": {"ele": "693", "name": "Bric Gruppini", "natural": "peak"}}, {"name": "Bric Solione", "latitude": 44.5405671, "longitude": 8.4677291, "elevation": 577.0, "source": "osm", "_tags": {"ele": "577", "name": "Bric Solione", "natural": "peak"}}, {"name": "Monte Erbano", "latitude": 44.6637802, "longitude": 8.8508601, "elevation": 424.0, "source": "osm", "_tags": {"ele": "424", "name": "Monte Erbano", "natural": "peak"}}, {"name": "Bric Rive", "latitude": 44.6529445, "longitude": 8.8468834, "elevation": 381.0, "source": "osm", "_tags": {"ele": "381", "name": "Bric Rive", "natural": "peak"}}, {"name": "Rocca di Pre", "latitude": 44.6551129, "longitude": 8.8383245, "elevation": 312.0, "source": "osm", "_tags": {"ele": "312", "name": "Rocca di Pre", "natural": "peak"}}, {"name": "Bric del Monte", "latitude": 44.658648, "longitude": 8.8658849, "elevation": 495.0, "source": "osm", "_tags": {"ele": "495", "name": "Bric del Monte", "natural": "peak"}}, {"name": "Rocca Crovaglia", "latitude": 44.6600957, "longitude": 8.8784296, "elevation": 594.0, "source": "osm", "_tags": {"ele": "594", "name": "Rocca Crovaglia", "natural": "peak"}}, {"name": "Colle Ratto", "latitude": 44.7064609, "longitude": 8.8533961, "elevation": 420.0, "source": "osm", "_tags": {"ele": "420", "name": "Colle Ratto", "natural": "peak"}}, {"name": "Monte Mesma", "latitude": 44.7038573, "longitude": 8.8039347, "elevation": 445.0, "source": "osm", "_tags": {"ele": "445", "name": "Monte Mesma", "natural": "peak"}}, {"name": "Bric dei Poveri", "latitude": 44.6218347, "longitude": 8.8674802, "elevation": 651.0, "source": "osm", "_tags": {"ele": "651", "name": "Bric dei Poveri", "natural": "peak"}}, {"name": "Bric Todocco", "latitude": 44.51736, "longitude": 8.2186471, "elevation": 804.0, "source": "osm", "_tags": {"ele": "804", "name": "Bric Todocco", "natural": "peak"}}, {"name": "Bric Monferrina", "latitude": 44.5146832, "longitude": 8.1955852, "elevation": 566.0, "source": "osm", "_tags": {"ele": "566", "name": "Bric Monferrina", "natural": "peak"}}, {"name": "Bric Cupazzolo", "latitude": 44.5422896, "longitude": 8.2407324, "elevation": 814.0, "source": "osm", "_tags": {"ele": "814", "name": "Bric Cupazzolo", "natural": "peak", "wikidata": "Q31223218"}}, {"name": "", "latitude": 44.5385305, "longitude": 8.2453158, "elevation": 813.0, "source": "osm", "_tags": {"ele": "813", "natural": "peak"}}, {"name": "Bric Tre Strade", "latitude": 44.5462972, "longitude": 8.2317344, "elevation": 766.0, "source": "osm", "_tags": {"ele": "766", "name": "Bric Tre Strade", "natural": "peak"}}, {"name": "Bric la Piazza", "latitude": 44.5435307, "longitude": 8.2569715, "elevation": 708.0, "source": "osm", "_tags": {"ele": "708", "name": "Bric la Piazza", "natural": "peak"}}, {"name": "Bric delle Barche", "latitude": 44.5442063, "longitude": 8.2603187, "elevation": 747.0, "source": "osm", "_tags": {"ele": "747", "name": "Bric delle Barche", "natural": "peak"}}, {"name": "Bric Carizzone", "latitude": 44.5645896, "longitude": 8.2486905, "elevation": 781.0, "source": "osm", "_tags": {"ele": "781", "name": "Bric Carizzone", "natural": "peak"}}, {"name": "Bric Cian Pasquela", "latitude": 44.4948006, "longitude": 8.211556, "elevation": 714.0, "source": "osm", "_tags": {"ele": "714", "name": "Bric Cian Pasquela", "natural": "peak"}}, {"name": "Bric Pian Paroni", "latitude": 44.5029497, "longitude": 8.1999778, "elevation": 666.0, "source": "osm", "_tags": {"ele": "666", "name": "Bric Pian Paroni", "natural": "peak"}}, {"name": "il Bricco", "latitude": 44.472949, "longitude": 8.2120812, "elevation": 674.0, "source": "osm", "_tags": {"ele": "674", "name": "il Bricco", "natural": "peak"}}, {"name": "Bric la Pareta", "latitude": 44.4674124, "longitude": 8.1932564, "elevation": 576.0, "source": "osm", "_tags": {"ele": "576", "name": "Bric la Pareta", "natural": "peak"}}, {"name": "Bric Pian della Casa", "latitude": 44.4601083, "longitude": 8.1878358, "elevation": 632.0, "source": "osm", "_tags": {"ele": "632", "name": "Bric Pian della Casa", "natural": "peak"}}, {"name": "Bric della Brunetta", "latitude": 44.4553348, "longitude": 8.1724523, "elevation": 749.0, "source": "osm", "_tags": {"ele": "749", "name": "Bric della Brunetta", "natural": "peak"}}, {"name": "Bric Orso", "latitude": 44.4430252, "longitude": 8.1790038, "elevation": 731.0, "source": "osm", "_tags": {"ele": "731", "name": "Bric Orso", "natural": "peak"}}, {"name": "Bric Giampeire", "latitude": 44.4384957, "longitude": 8.1827946, "elevation": 762.0, "source": "osm", "_tags": {"ele": "762", "name": "Bric Giampeire", "natural": "peak"}}, {"name": "Bric del Pilo", "latitude": 44.441124, "longitude": 8.1966775, "elevation": 810.0, "source": "osm", "_tags": {"ele": "810", "name": "Bric del Pilo", "natural": "peak"}}, {"name": "Bric sulla Langa", "latitude": 44.4484304, "longitude": 8.1910267, "elevation": 676.0, "source": "osm", "_tags": {"ele": "676", "name": "Bric sulla Langa", "natural": "peak"}}, {"name": "Bric Baraccone", "latitude": 44.4340192, "longitude": 8.205347, "elevation": 765.0, "source": "osm", "_tags": {"ele": "765", "name": "Bric Baraccone", "natural": "peak"}}, {"name": "Bric dei Sieizi", "latitude": 44.4351424, "longitude": 8.2186422, "elevation": 774.0, "source": "osm", "_tags": {"ele": "774", "name": "Bric dei Sieizi", "natural": "peak"}}, {"name": "Bric Ciappelle", "latitude": 44.441696, "longitude": 8.2239136, "elevation": 694.0, "source": "osm", "_tags": {"ele": "694", "name": "Bric Ciappelle", "natural": "peak"}}, {"name": "Bric dei Faggi", "latitude": 44.4792972, "longitude": 8.1619124, "elevation": 863.0, "source": "osm", "_tags": {"ele": "863", "name": "Bric dei Faggi", "natural": "peak"}}, {"name": "Bric della Colma", "latitude": 44.4802984, "longitude": 8.1459388, "elevation": 815.0, "source": "osm", "_tags": {"ele": "815", "name": "Bric della Colma", "natural": "peak"}}, {"name": "Bric della Valbella", "latitude": 44.4689008, "longitude": 8.1452977, "elevation": 724.0, "source": "osm", "_tags": {"ele": "724", "name": "Bric della Valbella", "natural": "peak"}}, {"name": "Bric delle Forche", "latitude": 44.5123599, "longitude": 8.1654605, "elevation": 811.0, "source": "osm", "_tags": {"ele": "811", "name": "Bric delle Forche", "natural": "peak"}}, {"name": "Bric della Croce", "latitude": 44.5207497, "longitude": 8.1645709, "elevation": 776.0, "source": "osm", "_tags": {"ele": "776", "name": "Bric della Croce", "natural": "peak"}}, {"name": "Bric Sarvajoni", "latitude": 44.5296624, "longitude": 8.1690566, "elevation": 764.0, "source": "osm", "_tags": {"ele": "764", "name": "Bric Sarvajoni", "natural": "peak"}}, {"name": "Bric Creusa", "latitude": 44.5334824, "longitude": 8.168005, "elevation": 790.0, "source": "osm", "_tags": {"ele": "790", "name": "Bric Creusa", "natural": "peak"}}, {"name": "Bric Massimino", "latitude": 44.5355389, "longitude": 8.1682454, "elevation": 770.0, "source": "osm", "_tags": {"ele": "770", "name": "Bric Massimino", "natural": "peak"}}, {"name": "Bric del Russo", "latitude": 44.5379856, "longitude": 8.1678447, "elevation": 782.0, "source": "osm", "_tags": {"ele": "782", "name": "Bric del Russo", "natural": "peak"}}, {"name": "Bric delle Forche", "latitude": 44.5596802, "longitude": 8.1906469, "elevation": 671.0, "source": "osm", "_tags": {"ele": "671", "name": "Bric delle Forche", "natural": "peak"}}, {"name": "Bric Fiocca", "latitude": 44.5778249, "longitude": 8.1305971, "elevation": 598.0, "source": "osm", "_tags": {"ele": "598", "name": "Bric Fiocca", "natural": "peak"}}, {"name": "Bric Tomalino", "latitude": 44.581556, "longitude": 8.138121, "elevation": 614.0, "source": "osm", "_tags": {"ele": "614", "name": "Bric Tomalino", "natural": "peak"}}, {"name": "Bric del Cucco", "latitude": 44.5848926, "longitude": 8.1477459, "elevation": 650.0, "source": "osm", "_tags": {"ele": "650", "name": "Bric del Cucco", "natural": "peak"}}, {"name": "Bric Nasio", "latitude": 44.580555, "longitude": 8.1456165, "elevation": 666.0, "source": "osm", "_tags": {"ele": "666", "name": "Bric Nasio", "natural": "peak"}}, {"name": "Bric Grella", "latitude": 44.5785529, "longitude": 8.1499321, "elevation": 633.0, "source": "osm", "_tags": {"ele": "633", "name": "Bric Grella", "natural": "peak"}}, {"name": "Bric Buffione", "latitude": 44.5772181, "longitude": 8.1543045, "elevation": 630.0, "source": "osm", "_tags": {"ele": "630", "name": "Bric Buffione", "natural": "peak"}}, {"name": "Bric Ciutto", "latitude": 44.5661737, "longitude": 8.1270658, "elevation": 660.0, "source": "osm", "_tags": {"ele": "660", "name": "Bric Ciutto", "natural": "peak"}}, {"name": "Bric Langa", "latitude": 44.5546472, "longitude": 8.1183981, "elevation": 721.0, "source": "osm", "_tags": {"ele": "721", "name": "Bric Langa", "natural": "peak"}}, {"name": "Bric della Chiesa", "latitude": 44.5459157, "longitude": 8.1125187, "elevation": 774.0, "source": "osm", "_tags": {"ele": "774", "name": "Bric della Chiesa", "natural": "peak"}}, {"name": "Bric Battistotto", "latitude": 44.5406089, "longitude": 8.1226468, "elevation": 702.0, "source": "osm", "_tags": {"ele": "702", "name": "Bric Battistotto", "natural": "peak"}}, {"name": "Monte Cherpo", "latitude": 44.5366935, "longitude": 8.1061887, "elevation": 831.0, "source": "osm", "_tags": {"ele": "831", "name": "Monte Cherpo", "natural": "peak"}}, {"name": "Bric Spaventa", "latitude": 44.5317615, "longitude": 8.1078551, "elevation": 820.0, "source": "osm", "_tags": {"ele": "820", "name": "Bric Spaventa", "natural": "peak"}}, {"name": "Bric Giacotto", "latitude": 44.5316544, "longitude": 8.121867, "elevation": 681.0, "source": "osm", "_tags": {"ele": "681", "name": "Bric Giacotto", "natural": "peak"}}, {"name": "Bric Servaglioni", "latitude": 44.5276313, "longitude": 8.1031559, "elevation": 823.0, "source": "osm", "_tags": {"ele": "823", "name": "Bric Servaglioni", "natural": "peak"}}, {"name": "Monte Leone", "latitude": 44.5194007, "longitude": 8.1038426, "elevation": 871.0, "source": "osm", "_tags": {"ele": "871", "name": "Monte Leone", "natural": "peak"}}, {"name": "Bric Orgino", "latitude": 44.5179319, "longitude": 8.1000016, "elevation": 866.0, "source": "osm", "_tags": {"ele": "866", "name": "Bric Orgino", "natural": "peak"}}, {"name": "Bric Moglie", "latitude": 44.5128827, "longitude": 8.1065462, "elevation": 781.0, "source": "osm", "_tags": {"ele": "781", "name": "Bric Moglie", "natural": "peak"}}, {"name": "Bric Faro", "latitude": 44.5138773, "longitude": 8.112726, "elevation": 738.0, "source": "osm", "_tags": {"ele": "738", "name": "Bric Faro", "natural": "peak"}}, {"name": "Bric Montazzo", "latitude": 44.5063179, "longitude": 8.0843723, "elevation": 872.0, "source": "osm", "_tags": {"ele": "872", "name": "Bric Montazzo", "natural": "peak"}}, {"name": "Bric Bella Capra", "latitude": 44.5010093, "longitude": 8.0789681, "elevation": 854.0, "source": "osm", "_tags": {"ele": "854", "name": "Bric Bella Capra", "natural": "peak"}}, {"name": "Bric Gerbazzo", "latitude": 44.493036, "longitude": 8.0810045, "elevation": 875.0, "source": "osm", "_tags": {"ele": "875", "name": "Bric Gerbazzo", "natural": "peak"}}, {"name": "Bricchetto", "latitude": 44.4859443, "longitude": 8.0841165, "elevation": 805.0, "source": "osm", "_tags": {"ele": "805", "name": "Bricchetto", "natural": "peak"}}, {"name": "Bric del Poggio", "latitude": 44.4626102, "longitude": 8.0695709, "elevation": 828.0, "source": "osm", "_tags": {"ele": "828", "name": "Bric del Poggio", "natural": "peak"}}, {"name": "", "latitude": 44.4683286, "longitude": 8.0858303, "elevation": 894.0, "source": "osm", "_tags": {"ele": "894", "natural": "peak"}}, {"name": "Bric Pedicaro", "latitude": 44.466398, "longitude": 8.0914557, "elevation": 854.0, "source": "osm", "_tags": {"ele": "854", "name": "Bric Pedicaro", "natural": "peak"}}, {"name": "Bric Ronchetto", "latitude": 44.4511995, "longitude": 8.1048953, "elevation": 701.0, "source": "osm", "_tags": {"ele": "701", "name": "Bric Ronchetto", "natural": "peak"}}, {"name": "Bric delle Forche", "latitude": 44.4469564, "longitude": 8.1081783, "elevation": 712.0, "source": "osm", "_tags": {"ele": "712", "name": "Bric delle Forche", "natural": "peak"}}, {"name": "Bric Pasiotti", "latitude": 44.441135, "longitude": 8.1140363, "elevation": 731.0, "source": "osm", "_tags": {"ele": "731", "name": "Bric Pasiotti", "natural": "peak"}}, {"name": "Bric Giacotto", "latitude": 44.4329535, "longitude": 8.1234562, "elevation": 775.0, "source": "osm", "_tags": {"ele": "775", "name": "Bric Giacotto", "natural": "peak"}}, {"name": "Bric Pistolin", "latitude": 44.4363254, "longitude": 8.1371183, "elevation": 559.0, "source": "osm", "_tags": {"ele": "559", "name": "Bric Pistolin", "natural": "peak"}}, {"name": "Bric del Paluco", "latitude": 44.4461114, "longitude": 8.0836021, "elevation": 815.0, "source": "osm", "_tags": {"ele": "815", "name": "Bric del Paluco", "natural": "peak"}}, {"name": "Bricco del Ciùdu", "latitude": 44.9978076, "longitude": 8.4626757, "elevation": null, "source": "osm", "_tags": {"name": "Bricco del Ciùdu", "natural": "peak"}}, {"name": "Bric Calma", "latitude": 44.5250854, "longitude": 8.3358926, "elevation": 516.0, "source": "osm", "_tags": {"ele": "516", "name": "Bric Calma", "natural": "peak"}}, {"name": "Bric Castagneto", "latitude": 45.0871995, "longitude": 7.9083402, "elevation": null, "source": "osm", "_tags": {"name": "Bric Castagneto", "natural": "peak"}}, {"name": "Rocca Giana", "latitude": 44.5484655, "longitude": 8.6519203, "elevation": 565.0, "source": "osm", "_tags": {"ele": "565", "name": "Rocca Giana", "natural": "peak"}}, {"name": "Rocca dei Castellaschi", "latitude": 44.5409522, "longitude": 8.6447344, "elevation": 619.0, "source": "osm", "_tags": {"ele": "619", "name": "Rocca dei Castellaschi", "natural": "peak"}}, {"name": "Rocche dei Crovi", "latitude": 44.545588, "longitude": 8.6505599, "elevation": 580.0, "source": "osm", "_tags": {"ele": "580", "name": "Rocche dei Crovi", "natural": "peak"}}, {"name": "Briccu Ate", "latitude": 44.554679, "longitude": 8.662194, "elevation": 562.0, "source": "osm", "_tags": {"ele": "562", "name": "Briccu Ate", "natural": "peak"}}, {"name": "Monte la Torre", "latitude": 44.5619598, "longitude": 8.6755505, "elevation": 487.0, "source": "osm", "_tags": {"ele": "487", "name": "Monte la Torre", "natural": "peak"}}, {"name": "Briccu dra Rocca", "latitude": 44.5790429, "longitude": 8.6662893, "elevation": 450.0, "source": "osm", "_tags": {"ele": "450", "name": "Briccu dra Rocca", "natural": "peak"}}, {"name": "Bric Nascio", "latitude": 44.5503676, "longitude": 8.7483567, "elevation": 939.0, "source": "osm", "_tags": {"ele": "939", "name": "Bric Nascio", "natural": "peak"}}, {"name": "Bric degli Alberghi", "latitude": 44.5557087, "longitude": 8.805087, "elevation": 935.0, "source": "osm", "_tags": {"ele": "935", "name": "Bric degli Alberghi", "natural": "peak"}}, {"name": "Bric dei Porcelli", "latitude": 44.5655124, "longitude": 8.801799, "elevation": 783.0, "source": "osm", "_tags": {"ele": "783", "name": "Bric dei Porcelli", "natural": "peak"}}, {"name": "Bric delle Rocche", "latitude": 44.5007877, "longitude": 8.726166, "elevation": 537.0, "source": "osm", "_tags": {"ele": "537", "name": "Bric delle Rocche", "natural": "peak"}}, {"name": "la Montà", "latitude": 44.5006533, "longitude": 8.7316285, "elevation": 545.0, "source": "osm", "_tags": {"ele": "545", "name": "la Montà", "natural": "peak"}}, {"name": "Bric Tascere", "latitude": 44.5006981, "longitude": 8.7411511, "elevation": 646.0, "source": "osm", "_tags": {"ele": "646", "name": "Bric Tascere", "natural": "peak"}}, {"name": "Il Castello", "latitude": 44.4341993, "longitude": 8.4580377, "elevation": 562.0, "source": "osm", "_tags": {"ele": "562", "name": "Il Castello", "natural": "peak"}}, {"name": "Bric Moliere", "latitude": 44.4823133, "longitude": 8.3378477, "elevation": 491.0, "source": "osm", "_tags": {"ele": "491", "name": "Bric Moliere", "natural": "peak"}}, {"name": "Bric Merlin", "latitude": 44.483815, "longitude": 8.3408971, "elevation": 491.0, "source": "osm", "_tags": {"ele": "491", "name": "Bric Merlin", "natural": "peak"}}, {"name": "Bric Fontane", "latitude": 44.4791121, "longitude": 8.3704456, "elevation": 575.0, "source": "osm", "_tags": {"ele": "575", "name": "Bric Fontane", "natural": "peak"}}, {"name": "Bric dell'Era", "latitude": 44.4844067, "longitude": 8.3587098, "elevation": 493.0, "source": "osm", "_tags": {"ele": "493", "name": "Bric dell'Era", "natural": "peak"}}, {"name": "Monte Orsaro", "latitude": 44.4865383, "longitude": 8.3808806, "elevation": 578.0, "source": "osm", "_tags": {"ele": "578", "name": "Monte Orsaro", "natural": "peak"}}, {"name": "Bric del Francese", "latitude": 44.495168, "longitude": 8.3824029, "elevation": 515.0, "source": "osm", "_tags": {"ele": "515", "name": "Bric del Francese", "natural": "peak"}}, {"name": "Bric Bojetti", "latitude": 44.5228194, "longitude": 8.3258252, "elevation": 497.0, "source": "osm", "_tags": {"ele": "497", "name": "Bric Bojetti", "natural": "peak"}}, {"name": "Monte Beigua", "latitude": 44.433392, "longitude": 8.5657012, "elevation": 1287.0, "source": "osm", "_tags": {"ele": "1287", "name": "Monte Beigua", "natural": "peak", "wikidata": "Q1299731", "wikipedia": "en:Monte Beigua"}}, {"name": "Bricco Moncucco", "latitude": 44.9907622, "longitude": 8.2072072, "elevation": null, "source": "osm", "_tags": {"name": "Bricco Moncucco", "natural": "peak"}}, {"name": "", "latitude": 44.6968009, "longitude": 8.1883516, "elevation": 485.0, "source": "osm", "_tags": {"ele": "485", "natural": "peak"}}, {"name": "Croce di Terzo", "latitude": 44.673056, "longitude": 8.4091942, "elevation": 286.0, "source": "osm", "_tags": {"ele": "286", "name": "Croce di Terzo", "natural": "peak", "summit:cross": "yes"}}, {"name": "Bric Massocco", "latitude": 44.6585513, "longitude": 8.0692395, "elevation": 467.0, "source": "osm", "_tags": {"ele": "467", "name": "Bric Massocco", "natural": "peak"}}, {"name": "Monte Pracaban (Anticima Sud)", "latitude": 44.5497398, "longitude": 8.7404515, "elevation": null, "source": "osm", "_tags": {"name": "Monte Pracaban (Anticima Sud)", "natural": "peak"}}, {"name": "Bricco del Merendino", "latitude": 44.4354972, "longitude": 8.473104, "elevation": null, "source": "osm", "_tags": {"name": "Bricco del Merendino", "natural": "peak"}}]