[{"name": "Dent de Crolles", "latitude": 45.3082229, "longitude": 5.8555566, "elevation": 2062.0, "source": "osm", "_tags": {"ele": "2062", "lwn_name": "Dent de Crolles", "name": "Dent de Crolles", "natural": "peak", "network:type": "node_network", "summit:cross": "yes", "summit:register": "no", "tourism": "viewpoint", "wheelchair": "no", "wikidata": "Q729243", "wikipedia": "fr:Dent de Crolles"}}, {"name": "Le Grand Ferrand", "latitude": 44.721716, "longitude": 5.8148554, "elevation": 2758.0, "source": "osm", "_tags": {"ele": "2758", "name": "Le Grand Ferrand", "natural": "peak", "note": "Position précise", "wikidata": "Q3113596"}}, {"name": "Le Grand Som", "latitude": 45.3704545, "longitude": 5.8120021, "elevation": 2026.0, "source": "osm", "_tags": {"ele": "2026", "name": "Le Grand Som", "natural": "peak", "summit:cross": "yes", "wikidata": "Q2782043", "wikipedia": "fr:Grand Som"}}, {"name": "Grande Tête de l'Obiou", "latitude": 44.7752786, "longitude": 5.8394587, "elevation": 2789.0, "source": "osm", "_tags": {"ele": "2789", "name": "Grande Tête de l'Obiou", "natural": "peak", "prominence": "1543", "source:prominence": "2789-1246 (Col Bayard)", "wikidata": "Q1813560"}}, {"name": "Le Néron", "latitude": 45.2346628, "longitude": 5.7102326, "elevation": 1298.0, "source": "osm", "_tags": {"ele": "1298", "name": "Le Néron", "natural": "peak", "wikidata": "Q3347188", "wikipedia": "fr:Néron (Isère)"}}, {"name": "Le Tabor", "latitude": 44.9769195, "longitude": 5.8554622, "elevation": 2389.0, "source": "osm", "_tags": {"ele": "2389", "name": "Le Tabor", "natural": "peak", "prominence": "1022", "tourism": "viewpoint", "wikidata": "Q3513523"}}, {"name": "Montagne d'Oule", "latitude": 44.5120943, "longitude": 5.832748, "elevation": 1603.0, "source": "osm", "_tags": {"ele": "1603", "name": "Montagne d'Oule", "natural": "peak", "tourism": "viewpoint"}}, {"name": "Montagne de Jocou", "latitude": 44.7241517, "longitude": 5.6471206, "elevation": 2051.0, "source": "osm", "_tags": {"ele": "2051", "name": "Montagne de Jocou", "natural": "peak", "note": "Position précise", "wikidata": "Q3179923"}}, {"name": "Rocher Garaux", "latitude": 44.4572264, "longitude": 5.1010596, "elevation": 1341.0, "source": "osm", "_tags": {"ele": "1341", "name": "Rocher Garaux", "natural": "peak"}}, {"name": "Montagne de Mielandre", "latitude": 44.4846813, "longitude": 5.1962917, "elevation": 1451.0, "source": "osm", "_tags": {"ele": "1451", "name": "Montagne de Mielandre", "name:oc": "Montanha de Mialandra", "natural": "peak", "source:name:oc": "ieo-bdtopoc", "wikidata": "Q3317357"}}, {"name": "Roche Courbe", "latitude": 44.647661, "longitude": 5.199257, "elevation": 1545.0, "source": "osm", "_tags": {"ele": "1545", "name": "Roche Courbe", "name:oc": "Ròcha Corba", "natural": "peak", "source:name:oc": "ieo-bdtopoc"}}, {"name": "La Grande Sure", "latitude": 45.3352569, "longitude": 5.7029086, "elevation": 1920.0, "source": "osm", "_tags": {"ele": "1920", "name": "La Grande Sure", "natural": "peak", "note": "coordonnées+alti relevées au GPS (précision 5m)", "wikidata": "Q3115031", "wikipedia": "fr:Grande Sure"}}, {"name": "Montagne de Laups Duffre", "latitude": 44.465465, "longitude": 5.6036227, "elevation": 1757.0, "source": "osm", "_tags": {"ele": "1757", "name": "Montagne de Laups Duffre", "name:oc": "Montanha de l'Aup - Dufre", "natural": "peak", "source:name:oc": "ieo-bdtopoc"}}, {"name": "La Pinéa", "latitude": 45.2883082, "longitude": 5.7384016, "elevation": 1771.0, "source": "osm", "_tags": {"ele": "1771", "name": "La Pinéa", "natural": "peak", "wikidata": "Q582244", "wikipedia": "fr:Pinéa"}}, {"name": "La Vierge du Vercors", "latitude": 45.0282628, "longitude": 5.4596963, "elevation": 1238.0, "source": "osm", "_tags": {"ele": "1238", "name": "La Vierge du Vercors", "natural": "peak", "tourism": "attraction", "wheelchair": "no"}}, {"name": "Infernet", "latitude": 44.9011161, "longitude": 5.305118, "elevation": 1698.0, "source": "osm", "_tags": {"ele": "1698", "name": "Infernet", "name:oc": "Infernet", "natural": "peak", "source:name:oc": "ieo-bdtopoc"}}, {"name": "Croix de l'Izon", "latitude": 45.2368473, "longitude": 5.7606537, "elevation": 1349.0, "source": "osm", "_tags": {"alt_name": "Rocher du Bret", "ele": "1349", "name": "Croix de l'Izon", "natural": "peak", "tourism": "viewpoint", "wheelchair": "no"}}, {"name": "La Toussière", "latitude": 44.6555356, "longitude": 5.6543553, "elevation": 1916.0, "source": "osm", "_tags": {"ele": "1916", "name": "La Toussière", "natural": "peak", "note": "Position précise"}}, {"name": "Serre des Aiguilles", "latitude": 44.6169497, "longitude": 5.5379106, "elevation": 1320.0, "source": "osm", "_tags": {"ele": "1320", "name": "Serre des Aiguilles", "natural": "peak"}}, {"name": "Roche Veyrand", "latitude": 45.428778, "longitude": 5.8443619, "elevation": 1429.0, "source": "osm", "_tags": {"ele": "1429", "name": "Roche Veyrand", "natural": "peak", "summit:cross": "no", "wikidata": "Q3437525", "wikipedia": "fr:Roche Veyrand"}}, {"name": "Serre de l'Horizon", "latitude": 44.9137612, "longitude": 5.7370621, "elevation": 1617.0, "source": "osm", "_tags": {"ele": "1617", "name": "Serre de l'Horizon", "natural": "peak"}}, {"name": "Mont Aiguille", "latitude": 44.8417918, "longitude": 5.5522225, "elevation": 2087.0, "source": "osm", "_tags": {"ele": "2087", "name": "Mont Aiguille", "natural": "peak", "wikidata": "Q1337859", "wikipedia": "fr:Mont Aiguille"}}, {"name": "Château Nardent", "latitude": 45.2805318, "longitude": 5.8383782, "elevation": 1217.0, "source": "osm", "_tags": {"ele": "1217", "name": "Château Nardent", "natural": "peak"}}, {"name": "La Petite Moucherolle", "latitude": 45.0031825, "longitude": 5.5587277, "elevation": 2156.0, "source": "osm", "_tags": {"ele": "2156", "name": "La Petite Moucherolle", "natural": "peak", "wikidata": "Q31394388"}}, {"name": "Pic de Bouvières", "latitude": 44.5199852, "longitude": 5.2376987, "elevation": 1013.0, "source": "osm", "_tags": {"ele": "1013", "name": "Pic de Bouvières", "natural": "peak"}}, {"name": "La Blache", "latitude": 45.3153458, "longitude": 5.3887072, "elevation": 625.0, "source": "osm", "_tags": {"ele": "625", "name": "La Blache", "natural": "peak"}}, {"name": "Le Truc", "latitude": 45.3163782, "longitude": 5.3939652, "elevation": 629.0, "source": "osm", "_tags": {"ele": "629", "name": "Le Truc", "natural": "peak"}}, {"name": "Sommet du Ranc des Agnelons", "latitude": 45.033462, "longitude": 5.5920834, "elevation": 1974.0, "source": "osm", "_tags": {"ele": "1974", "name": "Sommet du Ranc des Agnelons", "natural": "peak"}}, {"name": "Mont Ventefort", "latitude": 45.1788763, "longitude": 4.9902953, "elevation": 452.0, "source": "osm", "_tags": {"ele": "452", "name": "Mont Ventefort", "natural": "peak"}}, {"name": "Le Fournet", "latitude": 45.1555537, "longitude": 5.7964153, "elevation": 903.0, "source": "osm", "_tags": {"ele": "903", "name": "Le Fournet", "natural": "peak", "source": "cadastre-dgi-fr source : Direction Générale des Impôts - Cadastre ; mise à jour :2009"}}, {"name": "Mont Froid", "latitude": 45.1919054, "longitude": 4.9935805, "elevation": 464.0, "source": "osm", "_tags": {"ele": "464", "name": "Mont Froid", "natural": "peak"}}, {"name": "Serre Plumé", "latitude": 44.9294084, "longitude": 5.3697129, "elevation": 1573.23, "source": "osm", "_tags": {"description": "Borne en granit gravée IGN (1949) - Point vu en place en 1953", "ele": "1573.23", "name": "Serre Plumé", "natural": "peak", "note": "Ne pas déplacer ce point, cf. - Do not move this node, see - http://wiki.openstreetmap.org/wiki/WikiProject_France/Repères_Géodésiques#Permanence_des_rep.C3.A8res", "ref": "2636403 - 1", "source": "©IGN 2010 dans le cadre de la cartographie réglementaire", "url": "http://geodesie.ign.fr/fiches/index.php?module=e&action=fichepdf&source=carte&sit_no=2636403"}}, {"name": "Le Pérollier", "latitude": 44.9909397, "longitude": 5.8455586, "elevation": 2183.0, "source": "osm", "_tags": {"ele": "2183", "name": "Le Pérollier", "natural": "peak", "wikidata": "Q124543594"}}, {"name": "L'Oreille du Loup", "latitude": 44.9850143, "longitude": 5.8564431, "elevation": 2291.0, "source": "osm", "_tags": {"ele": "2291", "name": "L'Oreille du Loup", "natural": "peak", "wikidata": "Q31635532"}}, {"name": "Pravena", "latitude": 45.0984636, "longitude": 5.7737901, "elevation": 737.0, "source": "osm", "_tags": {"ele": "737", "name": "Pravena", "natural": "peak"}}, {"name": "Sommet de Pierre Blanche", "latitude": 44.8895136, "longitude": 5.5240983, "elevation": 2108.0, "source": "osm", "_tags": {"ele": "2108", "name": "Sommet de Pierre Blanche", "natural": "peak"}}, {"name": "Montagne de Roussillon", "latitude": 44.9053736, "longitude": 5.876229, "elevation": 1460.0, "source": "osm", "_tags": {"ele": "1460", "name": "Montagne de Roussillon", "natural": "peak", "wikidata": "Q31659042"}}, {"name": "La Petite Cournouse", "latitude": 45.0407202, "longitude": 5.3938922, "elevation": null, "source": "osm", "_tags": {"name": "La Petite Cournouse", "natural": "peak", "source": "© CNES 2004-2007 / Spot Image"}}, {"name": "Rocher du Baconnet", "latitude": 44.8935622, "longitude": 5.5929304, "elevation": 1808.0, "source": "osm", "_tags": {"ele": "1808", "name": "Rocher du Baconnet", "natural": "peak"}}, {"name": "Le Dôme", "latitude": 44.7371779, "longitude": 5.4701482, "elevation": 2041.0, "source": "osm", "_tags": {"alt_name": "Pié Ferré", "ele": "2041", "name": "Le Dôme", "name:oc": "Pueg Ferat", "natural": "peak", "source:name:oc": "ieo-bdtopoc", "wikidata": "Q3389617", "wikipedia": "fr:Pié Ferré"}}, {"name": "Bec de l'Orient", "latitude": 45.2354173, "longitude": 5.5450398, "elevation": 1554.0, "source": "osm", "_tags": {"ele": "1554", "name": "Bec de l'Orient", "natural": "peak", "tourism": "viewpoint", "wikidata": "Q19543917"}}, {"name": "La Peyrouse", "latitude": 44.9918646, "longitude": 5.724514, "elevation": 1711.0, "source": "osm", "_tags": {"ele": "1711", "name": "La Peyrouse", "natural": "peak", "wikidata": "Q3377869"}}, {"name": "Le Grand Serre", "latitude": 45.0052913, "longitude": 5.8262932, "elevation": 2141.0, "source": "osm", "_tags": {"ele": "2141", "name": "Le Grand Serre", "natural": "peak", "source": "GPS", "wikidata": "Q3114571"}}, {"name": "Mollard de la Grande Vache", "latitude": 45.3403707, "longitude": 5.7190897, "elevation": 1764.0, "source": "osm", "_tags": {"ele": "1764", "name": "Mollard de la Grande Vache", "natural": "peak", "source": "survey"}}, {"name": "Le Pieu", "latitude": 45.0525077, "longitude": 5.6407759, "elevation": 1270.0, "source": "osm", "_tags": {"alt_name": "Le Bémont", "ele": "1270", "name": "Le Pieu", "natural": "peak", "note": "Petite croix sur un cairn", "summit:cross": "yes", "summit:register": "yes", "tourism": "viewpoint", "wikidata": "Q135426398"}}, {"name": "Le Grand Brion", "latitude": 45.0234837, "longitude": 5.6775437, "elevation": 926.0, "source": "osm", "_tags": {"ele": "926", "name": "Le Grand Brion", "natural": "peak", "wikidata": "Q113836110"}}, {"name": "Le Petit Brion", "latitude": 45.0522772, "longitude": 5.6904179, "elevation": 537.0, "source": "osm", "_tags": {"ele": "537", "name": "Le Petit Brion", "natural": "peak"}}, {"name": "Charmant Som", "latitude": 45.3251067, "longitude": 5.7641689, "elevation": 1867.0, "source": "osm", "_tags": {"ele": "1867", "name": "Charmant Som", "natural": "peak", "summit:cross": "yes", "summit:register": "no", "tourism": "viewpoint", "wikidata": "Q2961098", "wikipedia": "fr:Charmant Som"}}, {"name": "Rochers de Brise Tourte", "latitude": 45.0555233, "longitude": 5.6435813, "elevation": 1017.0, "source": "osm", "_tags": {"ele": "1017", "name": "Rochers de Brise Tourte", "natural": "peak"}}, {"name": "Lance sud de Malissard", "latitude": 45.3469622, "longitude": 5.873181, "elevation": 2045.0, "source": "osm", "_tags": {"ele": "2045", "name": "Lance sud de Malissard", "natural": "peak", "source": "JVT Relevé 110710"}}, {"name": "Triors", "latitude": 45.1011839, "longitude": 5.1090038, "elevation": 297.0, "source": "osm", "_tags": {"ele": "297", "name": "Triors", "natural": "peak"}}, {"name": "Grand Veymont", "latitude": 44.8697393, "longitude": 5.5267039, "elevation": 2341.0, "source": "osm", "_tags": {"ele": "2341", "name": "Grand Veymont", "natural": "peak", "note": "pas de trace de borne géodésique au sommet qui serait qqes m en contrebas d'après le GPS.", "prominence": "1165", "source": "GPS", "wikidata": "Q2105265"}}, {"name": "La Servelle", "latitude": 44.5878876, "longitude": 5.3442175, "elevation": 1613.0, "source": "osm", "_tags": {"ele": "1613", "name": "La Servelle", "name:oc": "La Servèla", "natural": "peak", "source:name:oc": "ieo-bdtopoc"}}, {"name": "Moucherotte", "latitude": 45.1476026, "longitude": 5.6394528, "elevation": 1901.0, "source": "osm", "_tags": {"ele": "1901", "name": "Moucherotte", "natural": "peak", "tourism": "viewpoint", "wikidata": "Q3325416"}}, {"name": "La Buffe", "latitude": 45.2439251, "longitude": 5.5843788, "elevation": 1623.0, "source": "osm", "_tags": {"ele": "1623", "name": "La Buffe", "natural": "peak", "summit:register": "no", "tourism": "viewpoint", "wikidata": "Q19544006"}}, {"name": "La Scia", "latitude": 45.3487343, "longitude": 5.8509429, "elevation": 1791.0, "source": "osm", "_tags": {"ele": "1791", "name": "La Scia", "natural": "peak", "wikidata": "Q16652713"}}, {"name": "la Raye", "latitude": 44.8168394, "longitude": 5.0735257, "elevation": 1001.0, "source": "osm", "_tags": {"ele": "1001", "name": "la Raye", "natural": "peak"}}, {"name": "Le Cul de Lampe", "latitude": 45.3505448, "longitude": 5.7186094, "elevation": 1588.0, "source": "osm", "_tags": {"ele": "1588", "name": "Le Cul de Lampe", "natural": "peak"}}, {"name": "Canaple", "latitude": 45.3076622, "longitude": 5.7488173, "elevation": 1703.0, "source": "osm", "_tags": {"ele": "1703", "name": "Canaple", "natural": "peak", "source": "GPS"}}, {"name": "Champerus", "latitude": 44.5430849, "longitude": 5.8291133, "elevation": 1236.0, "source": "osm", "_tags": {"ele": "1236", "name": "Champerus", "natural": "peak", "tourism": "viewpoint"}}, {"name": "Saint-Apôtre", "latitude": 44.5408452, "longitude": 5.7444984, "elevation": 1491.0, "source": "osm", "_tags": {"ele": "1491", "name": "Saint-Apôtre", "natural": "peak"}}, {"name": "La Longeagne", "latitude": 44.5462354, "longitude": 5.705128, "elevation": 1564.0, "source": "osm", "_tags": {"ele": "1564", "name": "La Longeagne", "natural": "peak"}}, {"name": "Rocher Saint-Loup", "latitude": 45.0657184, "longitude": 5.6620142, "elevation": 700.0, "source": "osm", "_tags": {"ele": "700", "name": "Rocher Saint-Loup", "natural": "peak", "note": "private ?"}}, {"name": "La Sure", "latitude": 45.235242, "longitude": 5.5973939, "elevation": 1643.0, "source": "osm", "_tags": {"ele": "1643", "name": "La Sure", "natural": "peak", "source": "GPS", "tourism": "viewpoint", "wikidata": "Q21027470"}}, {"name": "L'Aiguille", "latitude": 45.2467608, "longitude": 5.7866183, "elevation": 800.0, "source": "osm", "_tags": {"ele": "800", "name": "L'Aiguille", "natural": "peak"}}, {"name": "Bane", "latitude": 44.534234, "longitude": 5.6201134, "elevation": 1643.0, "source": "osm", "_tags": {"ele": "1643", "name": "Bane", "natural": "peak"}}, {"name": "Tarsimoure", "latitude": 44.519226, "longitude": 5.5150203, "elevation": 1550.0, "source": "osm", "_tags": {"ele": "1550", "name": "Tarsimoure", "name:oc": "Torsimorre", "natural": "peak", "source:name:oc": "ieo-bdtopoc"}}, {"name": "Pic de Beauvoisin", "latitude": 44.7383363, "longitude": 5.3625919, "elevation": 790.0, "source": "osm", "_tags": {"ele": "790", "name": "Pic de Beauvoisin", "name:oc": "Pic de Bòscvesin", "natural": "peak", "source:name:oc": "ieo-bdtopoc"}}, {"name": "Pravouta", "latitude": 45.3112744, "longitude": 5.8354703, "elevation": 1760.0, "source": "osm", "_tags": {"alt_name": "Dôme d'Arguille", "ele": "1760", "hiking": "yes", "information": "guidepost", "name": "Pravouta", "natural": "peak", "tourism": "information", "wikidata": "Q31394491"}}, {"name": "Rocher de Lorzier", "latitude": 45.3131166, "longitude": 5.6964734, "elevation": 1838.0, "source": "osm", "_tags": {"ele": "1838", "name": "Rocher de Lorzier", "natural": "peak", "tourism": "viewpoint", "wikidata": "Q24929376", "wikipedia": "fr:Rocher de Lorzier"}}, {"name": "Bec Charvet", "latitude": 45.2966422, "longitude": 5.8284109, "elevation": 1738.0, "source": "osm", "_tags": {"ele": "1738", "name": "Bec Charvet", "natural": "peak", "wikidata": "Q2419534", "wikipedia": "fr:Bec Charvet"}}, {"name": "Le Veyou", "latitude": 44.6365443, "longitude": 5.200502, "elevation": 1589.0, "source": "osm", "_tags": {"ele": "1589", "name": "Le Veyou", "name:oc": "Lo Veió", "natural": "peak", "source:name:oc": "ieo-bdtopoc"}}, {"name": "Le Grand Ruy", "latitude": 44.5047574, "longitude": 5.1640297, "elevation": 1082.0, "source": "osm", "_tags": {"ele": "1082", "name": "Le Grand Ruy", "natural": "peak"}}, {"name": "Le Merlu", "latitude": 44.4877691, "longitude": 5.2575165, "elevation": 1606.0, "source": "osm", "_tags": {"ele": "1606", "name": "Le Merlu", "name:oc": "Lo Merlu", "natural": "peak", "source:name:oc": "ieo-bdtopoc"}}, {"name": "Le Parquet", "latitude": 44.5890819, "longitude": 5.2956876, "elevation": 1104.0, "source": "osm", "_tags": {"ele": "1104", "name": "Le Parquet", "natural": "peak"}}, {"name": "Rochers de Chalves", "latitude": 45.2981009, "longitude": 5.6975877, "elevation": 1845.0, "source": "osm", "_tags": {"ele": "1845", "name": "Rochers de Chalves", "natural": "peak", "wikidata": "Q31394200"}}, {"name": "Rocher rond", "latitude": 44.6966618, "longitude": 5.8269871, "elevation": 2453.0, "source": "osm", "_tags": {"ele": "2453", "name": "Rocher rond", "natural": "peak", "wikidata": "Q3437598"}}, {"name": "Pointe Feuillette", "latitude": 44.6989005, "longitude": 5.7433251, "elevation": 1881.0, "source": "osm", "_tags": {"ele": "1881", "name": "Pointe Feuillette", "natural": "peak"}}, {"name": "Le Signal", "latitude": 44.6423827, "longitude": 5.2009799, "elevation": 1559.0, "source": "osm", "_tags": {"ele": "1559", "name": "Le Signal", "name:oc": "Lo Senhau", "natural": "peak", "source:name:oc": "ieo-bdtopoc"}}, {"name": "Mont Jalla", "latitude": 45.2039883, "longitude": 5.7242332, "elevation": 635.0, "source": "osm", "_tags": {"ele": "635", "name": "Mont Jalla", "natural": "peak", "summit:cross": "no", "summit:register": "no", "wikidata": "Q3321880", "wikipedia": "fr:Mont Jalla"}}, {"name": "Croix des Ramées", "latitude": 45.1323051, "longitude": 5.6173728, "elevation": 1632.0, "source": "osm", "_tags": {"ele": "1632", "name": "Croix des Ramées", "natural": "peak", "summit:cross": "yes"}}, {"name": "", "latitude": 45.1280437, "longitude": 5.4920628, "elevation": 1583.0, "source": "osm", "_tags": {"ele": "1583", "natural": "peak", "note": "altitude GPS"}}, {"name": "Pointe du Frou", "latitude": 45.4227903, "longitude": 5.7973098, "elevation": 1160.0, "source": "osm", "_tags": {"ele": "1160", "name": "Pointe du Frou", "natural": "peak", "tourism": "viewpoint"}}, {"name": "", "latitude": 44.7436584, "longitude": 5.8296818, "elevation": 2626.0, "source": "osm", "_tags": {"ele": "2626", "natural": "peak"}}, {"name": "Quigouret", "latitude": 44.6194061, "longitude": 5.6494725, "elevation": 1729.0, "source": "osm", "_tags": {"ele": "1729", "name": "Quigouret", "natural": "peak"}}, {"name": "Gros Martel", "latitude": 45.0936534, "longitude": 5.5030425, "elevation": 1556.0, "source": "osm", "_tags": {"ele": "1556", "name": "Gros Martel", "natural": "peak"}}, {"name": "Sommet de Meillarot", "latitude": 45.0913563, "longitude": 5.5374437, "elevation": 1361.0, "source": "osm", "_tags": {"ele": "1361", "name": "Sommet de Meillarot", "natural": "peak"}}, {"name": "Crête de la Charmille", "latitude": 45.3567539, "longitude": 5.7245938, "elevation": 1627.0, "source": "osm", "_tags": {"ele": "1627", "name": "Crête de la Charmille", "natural": "peak"}}, {"name": "La Petite Vache", "latitude": 45.3468747, "longitude": 5.7243272, "elevation": 1735.0, "source": "osm", "_tags": {"ele": "1735", "name": "La Petite Vache", "natural": "peak", "source": "Bing"}}, {"name": "Le Nid", "latitude": 44.7599377, "longitude": 5.8270571, "elevation": 2517.0, "source": "osm", "_tags": {"ele": "2517", "fixme": "mesure GPS en hiver avec de la neige, localisation du sommet incertaine", "name": "Le Nid", "natural": "peak"}}, {"name": "Tête de Lapras", "latitude": 44.7570731, "longitude": 5.8409484, "elevation": 2593.0, "source": "osm", "_tags": {"ele": "2593", "fixme": "vérifier la localisation du sommet sans neige", "name": "Tête de Lapras", "natural": "peak", "note": "3 mesures GPS sur un petit kairn", "source": "GPS"}}, {"name": "Serre Piégu", "latitude": 44.4684841, "longitude": 5.2241174, "elevation": 1150.0, "source": "osm", "_tags": {"ele": "1150", "name": "Serre Piégu", "name:oc": "Puei-Agut", "natural": "peak", "source": "cadastre-dgi-fr source : Direction Générale des Impôts - Cadastre. Mise à jour : 2013", "source:name:oc": "ieo-bdtopoc"}}, {"name": "Roche Brune", "latitude": 45.3166807, "longitude": 5.6399378, "elevation": 932.0, "source": "osm", "_tags": {"ele": "932", "name": "Roche Brune", "natural": "peak", "summit:cross": "yes"}}, {"name": "Roc d'Arguille", "latitude": 45.3170072, "longitude": 5.8374899, "elevation": 1768.0, "source": "osm", "_tags": {"ele": "1768", "name": "Roc d'Arguille", "natural": "peak", "summit:cross": "no", "summit:register": "no", "wikidata": "Q3437335"}}, {"name": "La Grande Sœur Agathe", "latitude": 45.0008916, "longitude": 5.5769306, "elevation": 2194.0, "source": "osm", "_tags": {"ele": "2194", "name": "La Grande Sœur Agathe", "natural": "peak", "wikidata": "Q31394395"}}, {"name": "Aiguille de Chalais", "latitude": 45.2939755, "longitude": 5.660681, "elevation": 1089.0, "source": "osm", "_tags": {"ele": "1089", "name": "Aiguille de Chalais", "natural": "peak", "wikidata": "Q2827874", "wikipedia": "fr:Aiguille de Chalais"}}, {"name": "Dent de Moirans", "latitude": 45.2874285, "longitude": 5.5956578, "elevation": 988.0, "source": "osm", "_tags": {"ele": "988", "name": "Dent de Moirans", "natural": "peak", "tourism": "viewpoint", "wikidata": "Q3023306"}}, {"name": "Bec de l'Échaillon", "latitude": 45.2979716, "longitude": 5.6008866, "elevation": 622.0, "source": "osm", "_tags": {"ele": "622", "name": "Bec de l'Échaillon", "natural": "peak", "tourism": "viewpoint", "wikidata": "Q19543915", "wikipedia": "fr:Bec de l'Échaillon"}}, {"name": "Rocher de l'Éperrimont", "latitude": 45.0287908, "longitude": 5.6178633, "elevation": 1441.0, "source": "osm", "_tags": {"ele": "1441", "name": "Rocher de l'Éperrimont", "natural": "peak", "note": "Orthographe corrigé en concordance avec les bases de géographie et de géologie. Altitude sans virgule."}}, {"name": "Rocher de la Garde", "latitude": 45.3779708, "longitude": 5.6654836, "elevation": 706.0, "source": "osm", "_tags": {"ele": "706", "name": "Rocher de la Garde", "natural": "peak"}}, {"name": "Ménil", "latitude": 44.7581902, "longitude": 5.437919, "elevation": null, "source": "osm", "_tags": {"name": "Ménil", "natural": "peak"}}, {"name": "Petit Veymont", "latitude": 44.8646374, "longitude": 5.5309139, "elevation": 2120.0, "source": "osm", "_tags": {"alt_name": "Aiguillette du Grand Veymont", "ele": "2120", "name": "Petit Veymont", "natural": "peak", "wikidata": "Q31394398"}}, {"name": "Grand-Pomerolle", "latitude": 44.6479768, "longitude": 5.1046415, "elevation": 1062.0, "source": "osm", "_tags": {"ele": "1062", "name": "Grand-Pomerolle", "natural": "peak"}}, {"name": "Petit-Pomerolle", "latitude": 44.6508251, "longitude": 5.0946311, "elevation": 822.0, "source": "osm", "_tags": {"ele": "822", "name": "Petit-Pomerolle", "natural": "peak"}}, {"name": "Dôme de Bellefont", "latitude": 45.3420935, "longitude": 5.8810795, "elevation": 1975.0, "source": "osm", "_tags": {"ele": "1975", "name": "Dôme de Bellefont", "natural": "peak", "wikidata": "Q9249108"}}, {"name": "Les Quatre Seigneurs", "latitude": 45.153665, "longitude": 5.8046118, "elevation": 937.0, "source": "osm", "_tags": {"ele": "937", "name": "Les Quatre Seigneurs", "natural": "peak"}}, {"name": "", "latitude": 45.1340886, "longitude": 5.7587491, "elevation": 544.0, "source": "osm", "_tags": {"ele": "544", "natural": "peak"}}, {"name": "Aiguille de Quaix", "latitude": 45.2671104, "longitude": 5.7205577, "elevation": 1143.0, "source": "osm", "_tags": {"ele": "1143", "name": "Aiguille de Quaix", "natural": "peak", "source": "©IGN 2010 dans le cadre de la cartographie réglementaire", "wikidata": "Q2827878"}}, {"name": "Le Haut Bouffet", "latitude": 44.6677176, "longitude": 5.799307, "elevation": 2162.0, "source": "osm", "_tags": {"ele": "2162", "name": "Le Haut Bouffet", "natural": "peak", "source": "Survey + GPS"}}, {"name": "La Rama", "latitude": 44.6816745, "longitude": 5.8167575, "elevation": 2380.0, "source": "osm", "_tags": {"ele": "2380", "name": "La Rama", "natural": "peak", "source": "survey + GPS"}}, {"name": "l'Aiglière", "latitude": 44.6905497, "longitude": 5.8303722, "elevation": 2259.0, "source": "osm", "_tags": {"ele": "2259", "name": "l'Aiglière", "natural": "peak", "source": "survey + GPS"}}, {"name": "Tête du Jas des Arres", "latitude": 44.6663391, "longitude": 5.8275934, "elevation": 1968.0, "source": "osm", "_tags": {"ele": "1968", "name": "Tête du Jas des Arres", "natural": "peak", "source": "survey + GPS"}}, {"name": "Tête de Merlant", "latitude": 44.6648589, "longitude": 5.8257376, "elevation": 2002.0, "source": "osm", "_tags": {"ele": "2002", "name": "Tête de Merlant", "natural": "peak", "source": "survey + GPS"}}, {"name": "Le Chauvet", "latitude": 44.6583344, "longitude": 5.8343491, "elevation": 2062.0, "source": "osm", "_tags": {"ele": "2062", "name": "Le Chauvet", "natural": "peak", "source": "survey + GPS"}}, {"name": "La Plane du Pin", "latitude": 44.6301333, "longitude": 5.8075, "elevation": 1863.0, "source": "osm", "_tags": {"ele": "1863", "name": "La Plane du Pin", "natural": "peak", "source": "survey + GPS"}}, {"name": "Tete du Rif de l'Are", "latitude": 44.6256665, "longitude": 5.8152838, "elevation": 1863.0, "source": "osm", "_tags": {"ele": "1863", "name": "Tete du Rif de l'Are", "natural": "peak", "source": "survey + GPS"}}, {"name": "Serre Pointu", "latitude": 44.6410885, "longitude": 5.8246012, "elevation": 1622.0, "source": "osm", "_tags": {"ele": "1622", "name": "Serre Pointu", "natural": "peak", "source": "survey + GPS"}}, {"name": "Tête d'Ere", "latitude": 44.6208485, "longitude": 5.8155772, "elevation": 1791.0, "source": "osm", "_tags": {"ele": "1791", "name": "Tête d'Ere", "natural": "peak", "source": "survey + GPS"}}, {"name": "Haute-Luce", "latitude": 44.6212633, "longitude": 5.8449635, "elevation": 1787.0, "source": "osm", "_tags": {"ele": "1787", "name": "Haute-Luce", "natural": "peak", "source": "survey + GPS"}}, {"name": "Tête de Garnesier", "latitude": 44.6537597, "longitude": 5.7904449, "elevation": 2368.0, "source": "osm", "_tags": {"ele": "2368", "name": "Tête de Garnesier", "natural": "peak"}}, {"name": "Tête des Ormans", "latitude": 44.6459895, "longitude": 5.8043227, "elevation": 2141.0, "source": "osm", "_tags": {"ele": "2141", "name": "Tête des Ormans", "natural": "peak", "source": "survey + GPS", "wikidata": "Q49754435"}}, {"name": "Roc de Garnesier", "latitude": 44.6601779, "longitude": 5.791535, "elevation": 2384.0, "source": "osm", "_tags": {"ele": "2384", "name": "Roc de Garnesier", "natural": "peak", "source": "survey + GPS"}}, {"name": "Chamousset", "latitude": 44.6562763, "longitude": 5.7634462, "elevation": 2090.0, "source": "osm", "_tags": {"ele": "2090", "name": "Chamousset", "natural": "peak", "source": "survey + GPS"}}, {"name": "Grand Chamousset", "latitude": 44.6630163, "longitude": 5.7540391, "elevation": 1931.0, "source": "osm", "_tags": {"ele": "1931", "name": "Grand Chamousset", "natural": "peak", "source": "survey + GPS"}}, {"name": "Tete de l'Aupet", "latitude": 44.7435813, "longitude": 5.8291262, "elevation": 2628.0, "source": "osm", "_tags": {"ele": "2628", "name": "Tete de l'Aupet", "natural": "peak", "source": "survey + GPS"}}, {"name": "Tete d'Oriol", "latitude": 44.7343904, "longitude": 5.8377736, "elevation": 2335.0, "source": "osm", "_tags": {"ele": "2335", "name": "Tete d'Oriol", "natural": "peak", "source": "survey + GPS"}}, {"name": "Puyjovent", "latitude": 44.6860297, "longitude": 5.0786983, "elevation": 538.0, "source": "osm", "_tags": {"ele": "538", "name": "Puyjovent", "name:oc": "Pueijovent", "natural": "peak", "source:name:oc": "ieo-bdtopoc"}}, {"name": "Roc Mazilier", "latitude": 44.8438142, "longitude": 5.5100719, "elevation": 1949.73, "source": "osm", "_tags": {"ele": "1949.73", "name": "Roc Mazilier", "natural": "peak"}}, {"name": "Tourte-Barreaux", "latitude": 44.8187588, "longitude": 5.4942366, "elevation": 1876.0, "source": "osm", "_tags": {"ele": "1876", "name": "Tourte-Barreaux", "natural": "peak"}}, {"name": "Tête de la Graille", "latitude": 44.8359361, "longitude": 5.4985246, "elevation": 1885.0, "source": "osm", "_tags": {"ele": "1885", "name": "Tête de la Graille", "name:oc": "Tèsta de la Gralha", "natural": "peak", "source:name:oc": "ieo-bdtopoc", "wikidata": "Q32173956"}}, {"name": "Ratier", "latitude": 44.7562165, "longitude": 5.7806812, "elevation": 1436.0, "source": "osm", "_tags": {"ele": "1436", "name": "Ratier", "natural": "peak"}}, {"name": "Montagne d'Ambel", "latitude": 44.8863056, "longitude": 5.287234, "elevation": 1492.0, "source": "osm", "_tags": {"ele": "1492", "name": "Montagne d'Ambel", "name:oc": "Montanha d'Ambèl", "natural": "peak", "source:name:oc": "ieo-bdtopoc", "wikidata": "Q31653641"}}, {"name": "Roc de Toulau", "latitude": 44.8900856, "longitude": 5.2389081, "elevation": 1581.0, "source": "osm", "_tags": {"ele": "1581", "name": "Roc de Toulau", "name:oc": "Ròc de Tolaut", "natural": "peak", "source:name:oc": "ieo-bdtopoc", "summit:cross": "yes"}}, {"name": "Tête de la Dame", "latitude": 44.8572711, "longitude": 5.2531636, "elevation": 1506.0, "source": "osm", "_tags": {"ele": "1506", "name": "Tête de la Dame", "name:oc": "Tèsta de la Dama", "natural": "peak", "source:name:oc": "ieo-bdtopoc", "wikidata": "Q49754370"}}, {"name": "Serre de Montue", "latitude": 44.914388, "longitude": 5.3040379, "elevation": 1706.0, "source": "osm", "_tags": {"ele": "1706", "name": "Serre de Montue", "natural": "peak"}}, {"name": "Puy de la Gagère", "latitude": 44.8788921, "longitude": 5.3424569, "elevation": 1651.0, "source": "osm", "_tags": {"ele": "1651", "name": "Puy de la Gagère", "name:oc": "Puèi de las Gageras", "natural": "peak", "source:name:oc": "ieo-bdtopoc"}}, {"name": "But de Nève", "latitude": 44.8458207, "longitude": 5.3941935, "elevation": 1656.0, "source": "osm", "_tags": {"ele": "1656", "name": "But de Nève", "name:oc": "But de Nèvol", "natural": "peak", "source:name:oc": "ieo-bdtopoc"}}, {"name": "But Sapiau", "latitude": 44.8265098, "longitude": 5.4173891, "elevation": 1619.0, "source": "osm", "_tags": {"ele": "1619", "name": "But Sapiau", "name:oc": "But Sapiau", "natural": "peak", "source:name:oc": "ieo-bdtopoc", "wikidata": "Q32170248"}}, {"name": "Royou", "latitude": 44.7154338, "longitude": 5.5046175, "elevation": 1787.0, "source": "osm", "_tags": {"ele": "1787", "name": "Royou", "natural": "peak"}}, {"name": "Tête du Petit Jardin", "latitude": 44.7637326, "longitude": 5.4925716, "elevation": 1799.0, "source": "osm", "_tags": {"ele": "1799", "name": "Tête du Petit Jardin", "name:oc": "Tèsta dau Petit Jardin", "natural": "peak", "source:name:oc": "ieo-bdtopoc"}}, {"name": "Rochers de Plautret", "latitude": 44.8003509, "longitude": 5.4584341, "elevation": 1827.0, "source": "osm", "_tags": {"ele": "1827", "name": "Rochers de Plautret", "natural": "peak"}}, {"name": "Rochers de l'Ours", "latitude": 45.0688129, "longitude": 5.6055076, "elevation": 2038.0, "source": "osm", "_tags": {"ele": "2038", "name": "Rochers de l'Ours", "natural": "peak"}}, {"name": "Montagne de la Pale", "latitude": 44.9322014, "longitude": 5.5880811, "elevation": 1734.0, "source": "osm", "_tags": {"ele": "1734", "name": "Montagne de la Pale", "natural": "peak", "wikidata": "Q31393761"}}, {"name": "Rocher du Cléton", "latitude": 44.9272558, "longitude": 5.5895022, "elevation": 1669.0, "source": "osm", "_tags": {"ele": "1669", "name": "Rocher du Cléton", "natural": "peak", "source": "gps"}}, {"name": "Petit Som", "latitude": 45.3878902, "longitude": 5.8052158, "elevation": 1770.0, "source": "osm", "_tags": {"ele": "1770", "lwn_name": "Petit Som", "name": "Petit Som", "natural": "peak", "network:type": "node_network", "summit:cross": "yes"}}, {"name": "Rocher du Cornillon", "latitude": 45.2510406, "longitude": 5.6704897, "elevation": 315.0, "source": "osm", "_tags": {"ele": "315", "name": "Rocher du Cornillon", "natural": "peak", "wikidata": "Q109043443"}}, {"name": "", "latitude": 44.68906, "longitude": 5.6511451, "elevation": 1501.0, "source": "osm", "_tags": {"ele": "1501", "man_made": "summit_cross", "natural": "peak", "source": "Bing"}}, {"name": "Serre Les Têtes", "latitude": 44.6839334, "longitude": 5.645833, "elevation": 1710.0, "source": "osm", "_tags": {"ele": "1710", "name": "Serre Les Têtes", "natural": "peak", "source": "Bing"}}, {"name": "", "latitude": 44.6855238, "longitude": 5.6481014, "elevation": 1653.0, "source": "osm", "_tags": {"ele": "1653", "natural": "peak", "source": "Bing"}}, {"name": "l'Aiguille", "latitude": 44.802619, "longitude": 5.823839, "elevation": 2037.0, "source": "osm", "_tags": {"ele": "2037", "name": "l'Aiguille", "natural": "peak"}}, {"name": "Roche-Colombe", "latitude": 44.6613968, "longitude": 5.046122, "elevation": 886.0, "source": "osm", "_tags": {"ele": "886", "name": "Roche-Colombe", "natural": "peak"}}, {"name": "Sommet du Tisserand", "latitude": 44.776256, "longitude": 5.5349659, "elevation": 1951.0, "source": "osm", "_tags": {"alt_name": "Sommet du Ranconnet", "ele": "1951", "name": "Sommet du Tisserand", "natural": "peak", "ref:refuges.info": "3627"}}, {"name": "Tête des Baumiens", "latitude": 44.801056, "longitude": 5.5173113, "elevation": null, "source": "osm", "_tags": {"name": "Tête des Baumiens", "natural": "peak", "source": "cadastre-dgi-fr source : Direction Générale des Impôts - Cadastre. Mise à jour : 2014"}}, {"name": "Tête des Chanaux", "latitude": 44.7939784, "longitude": 5.5170992, "elevation": 1888.6, "source": "osm", "_tags": {"ele": "1888.6", "name": "Tête des Chanaux", "natural": "peak", "source": "cadastre-dgi-fr source : Direction Générale des Impôts - Cadastre. Mise à jour : 2014", "source:name": "cadastre-dgi-fr source : Direction Générale des Impôts - Cadastre. Mise à jour : 2014", "source:position": "©IGN 2010 dans le cadre de la cartographie réglementaire"}}, {"name": "Mont Follet", "latitude": 45.4154264, "longitude": 5.5095351, "elevation": 773.0, "source": "osm", "_tags": {"ele": "773", "name": "Mont Follet", "natural": "peak"}}, {"name": "Mont Levatel", "latitude": 45.4137783, "longitude": 5.4790534, "elevation": 752.0, "source": "osm", "_tags": {"ele": "752", "name": "Mont Levatel", "natural": "peak"}}, {"name": "Plan du Rey", "latitude": 45.4132464, "longitude": 5.5039112, "elevation": 771.0, "source": "osm", "_tags": {"ele": "771", "name": "Plan du Rey", "natural": "peak"}}, {"name": "Mourelle", "latitude": 44.5499777, "longitude": 5.2038189, "elevation": 1117.0, "source": "osm", "_tags": {"ele": "1117", "name": "Mourelle", "natural": "peak", "source": "cadastre-dgi-fr source : Direction Générale des Impôts - Cadastre. Mise à jour : 2014"}}, {"name": "Roc Cornafion", "latitude": 45.0626859, "longitude": 5.6007635, "elevation": 2049.0, "source": "osm", "_tags": {"ele": "2049", "name": "Roc Cornafion", "natural": "peak", "wikidata": "Q3437328"}}, {"name": "Platary", "latitude": 44.7930716, "longitude": 5.6120851, "elevation": 1586.0, "source": "osm", "_tags": {"ele": "1586", "name": "Platary", "natural": "peak"}}, {"name": "", "latitude": 44.4929839, "longitude": 5.7255702, "elevation": null, "source": "osm", "_tags": {"natural": "peak"}}, {"name": "Quichat", "latitude": 45.2413038, "longitude": 5.7440104, "elevation": 1050.0, "source": "osm", "_tags": {"ele": "1050", "name": "Quichat", "natural": "peak", "summit:cross": "no", "summit:register": "no"}}, {"name": "Rocher de Bellevue", "latitude": 45.2910304, "longitude": 5.6575685, "elevation": 948.0, "source": "osm", "_tags": {"ele": "948", "name": "Rocher de Bellevue", "natural": "peak"}}, {"name": "Tête de Plate Longue", "latitude": 44.7003592, "longitude": 5.8265298, "elevation": 2383.0, "source": "osm", "_tags": {"ele": "2383", "name": "Tête de Plate Longue", "natural": "peak", "source": "survey"}}, {"name": "Roche courbe", "latitude": 44.7053877, "longitude": 5.830718, "elevation": 2259.0, "source": "osm", "_tags": {"ele": "2259", "name": "Roche courbe", "natural": "peak", "source": "survey"}}, {"name": "Tête des Vautes", "latitude": 44.7038478, "longitude": 5.8136723, "elevation": 2188.0, "source": "osm", "_tags": {"ele": "2188", "name": "Tête des Vautes", "natural": "peak", "source": "survey"}}, {"name": "Tête de Lauzon", "latitude": 44.705968, "longitude": 5.8038327, "elevation": 2278.0, "source": "osm", "_tags": {"ele": "2278", "name": "Tête de Lauzon", "natural": "peak", "source": "survey"}}, {"name": "", "latitude": 44.702736, "longitude": 5.7908543, "elevation": null, "source": "osm", "_tags": {"natural": "peak"}}, {"name": "Roche Rousse", "latitude": 45.1835318, "longitude": 5.6036627, "elevation": 1395.0, "source": "osm", "_tags": {"ele": "1395", "name": "Roche Rousse", "natural": "peak"}}, {"name": "La Petite Sœur - Sophie", "latitude": 45.0062123, "longitude": 5.5796972, "elevation": 2162.0, "source": "osm", "_tags": {"ele": "2162", "name": "La Petite Sœur - Sophie", "natural": "peak", "wikidata": "Q31394396"}}, {"name": "Pierre Chauve", "latitude": 44.9171785, "longitude": 5.1765988, "elevation": 1308.0, "source": "osm", "_tags": {"ele": "1308", "name": "Pierre Chauve", "natural": "peak"}}, {"name": "La Montagnette", "latitude": 44.7836883, "longitude": 5.5491149, "elevation": 1972.0, "source": "osm", "_tags": {"ele": "1972", "name": "La Montagnette", "name:oc": "La Montanheta", "natural": "peak", "source:name:oc": "ieo-bdtopoc", "wikidata": "Q31393810"}}, {"name": "Chamechaude", "latitude": 45.2877885, "longitude": 5.7881067, "elevation": 2082.0, "source": "osm", "_tags": {"ele": "2082", "name": "Chamechaude", "natural": "peak", "prominence": "1762", "source:prominence": "2082-320 (Chacuzard)", "summit:cross": "yes", "wikidata": "Q2321630", "wikipedia": "fr:Chamechaude"}}, {"name": "Pic de l'Œilly", "latitude": 45.0873935, "longitude": 5.8377277, "elevation": 1545.0, "source": "osm", "_tags": {"ele": "1545", "name": "Pic de l'Œilly", "natural": "peak", "wikidata": "Q31659257"}}, {"name": "Montrond", "latitude": 45.1610993, "longitude": 5.8692079, "elevation": 1140.0, "source": "osm", "_tags": {"ele": "1140", "name": "Montrond", "natural": "peak"}}, {"name": "Tête Chevalière", "latitude": 44.8025919, "longitude": 5.5392252, "elevation": 1951.0, "source": "osm", "_tags": {"ele": "1951", "name": "Tête Chevalière", "natural": "peak", "wikidata": "Q32173759"}}, {"name": "Musan", "latitude": 44.9969054, "longitude": 5.226419, "elevation": 1295.0, "source": "osm", "_tags": {"ele": "1295", "name": "Musan", "name:oc": "Mont Musan", "natural": "peak", "source:name:oc": "ieo-bdtopoc"}}, {"name": "Goutaroux", "latitude": 44.8442114, "longitude": 5.5934412, "elevation": 1543.0, "source": "osm", "_tags": {"ele": "1543", "name": "Goutaroux", "natural": "peak", "wikidata": "Q31658935"}}, {"name": "Puy Bernard", "latitude": 44.5106011, "longitude": 5.7904121, "elevation": null, "source": "osm", "_tags": {"name": "Puy Bernard", "natural": "peak"}}, {"name": "Tête de Praorzel", "latitude": 44.7779195, "longitude": 5.5819999, "elevation": 1691.0, "source": "osm", "_tags": {"ele": "1691", "name": "Tête de Praorzel", "natural": "peak"}}, {"name": "Jenabran", "latitude": 44.7955491, "longitude": 5.8841016, "elevation": 1597.0, "source": "osm", "_tags": {"ele": "1597", "name": "Jenabran", "natural": "peak"}}, {"name": "Tête de la Garde", "latitude": 44.7783077, "longitude": 5.88084, "elevation": 1769.0, "source": "osm", "_tags": {"ele": "1769", "name": "Tête de la Garde", "natural": "peak"}}, {"name": "", "latitude": 44.7318196, "longitude": 5.6441415, "elevation": 1997.0, "source": "osm", "_tags": {"ele": "1997", "natural": "peak", "source": "survey"}}, {"name": "L'Aupillon", "latitude": 44.6784042, "longitude": 5.6405139, "elevation": 1744.0, "source": "osm", "_tags": {"ele": "1744", "name": "L'Aupillon", "natural": "peak", "source": "survey"}}, {"name": "Mont Barral", "latitude": 44.7537665, "longitude": 5.6247671, "elevation": 1903.0, "source": "osm", "_tags": {"ele": "1903", "name": "Mont Barral", "natural": "peak", "source": "survey", "wikidata": "Q31394259"}}, {"name": "Charajaille", "latitude": 44.5872225, "longitude": 5.8102962, "elevation": 1813.0, "source": "osm", "_tags": {"ele": "1813", "name": "Charajaille", "natural": "peak"}}, {"name": "Montagne d'Aureille", "latitude": 44.5650242, "longitude": 5.6478978, "elevation": 1461.0, "source": "osm", "_tags": {"ele": "1461", "name": "Montagne d'Aureille", "natural": "peak"}}, {"name": "", "latitude": 44.8936709, "longitude": 5.654676, "elevation": null, "source": "osm", "_tags": {"natural": "peak"}}, {"name": "Roche Rousse", "latitude": 45.1365078, "longitude": 5.6146781, "elevation": 1474.0, "source": "osm", "_tags": {"ele": "1474", "name": "Roche Rousse", "natural": "peak"}}, {"name": "Tête de Vachères", "latitude": 44.673705, "longitude": 5.7995015, "elevation": 2402.0, "source": "osm", "_tags": {"ele": "2402", "name": "Tête de Vachères", "natural": "peak"}}, {"name": "Le Chatel", "latitude": 44.8132068, "longitude": 5.8118384, "elevation": 1937.0, "source": "osm", "_tags": {"ele": "1937", "name": "Le Chatel", "natural": "peak", "wikidata": "Q111685001"}}, {"name": "Le Pradou", "latitude": 44.6344452, "longitude": 5.1722202, "elevation": 1388.0, "source": "osm", "_tags": {"ele": "1388", "name": "Le Pradou", "natural": "peak"}}, {"name": "Roche Rousse", "latitude": 44.6329842, "longitude": 5.1875267, "elevation": 1432.0, "source": "osm", "_tags": {"ele": "1432", "name": "Roche Rousse", "name:oc": "Ròcha Rossa", "natural": "peak", "source:name:oc": "ieo-bdtopoc"}}, {"name": "", "latitude": 44.6150481, "longitude": 5.1483383, "elevation": 875.0, "source": "osm", "_tags": {"ele": "875", "natural": "peak"}}, {"name": "", "latitude": 44.6201991, "longitude": 5.1375215, "elevation": 746.0, "source": "osm", "_tags": {"ele": "746", "natural": "peak", "source:ele": "survey"}}, {"name": "", "latitude": 44.6197311, "longitude": 5.1376552, "elevation": 746.0, "source": "osm", "_tags": {"ele": "746", "natural": "peak", "source:ele": "survey"}}, {"name": "Serre Antoine", "latitude": 44.6304485, "longitude": 5.1445722, "elevation": 823.0, "source": "osm", "_tags": {"ele": "823", "name": "Serre Antoine", "natural": "peak"}}, {"name": "Serre Delègue", "latitude": 44.5779444, "longitude": 5.2319521, "elevation": 1482.0, "source": "osm", "_tags": {"ele": "1482", "name": "Serre Delègue", "natural": "peak"}}, {"name": "Bec Pointu", "latitude": 44.8337709, "longitude": 5.2330785, "elevation": 1342.0, "source": "osm", "_tags": {"ele": "1342", "name": "Bec Pointu", "name:oc": "Bèc Ponchut", "natural": "peak", "source:name:oc": "ieo-bdtopoc"}}, {"name": "Courcousson", "latitude": 44.8338162, "longitude": 5.2239192, "elevation": 1281.0, "source": "osm", "_tags": {"ele": "1281", "name": "Courcousson", "natural": "peak"}}, {"name": "Grand Delmas", "latitude": 44.6148515, "longitude": 5.2027409, "elevation": 1544.0, "source": "osm", "_tags": {"ele": "1544", "name": "Grand Delmas", "natural": "peak"}}, {"name": "Le Cuchet", "latitude": 45.2204857, "longitude": 5.5162244, "elevation": null, "source": "osm", "_tags": {"name": "Le Cuchet", "natural": "peak"}}, {"name": "Rancou", "latitude": 44.7644387, "longitude": 5.5330935, "elevation": 1882.0, "source": "osm", "_tags": {"ele": "1882", "name": "Rancou", "natural": "peak"}}, {"name": "Rocher de Combau", "latitude": 44.750937, "longitude": 5.5487638, "elevation": 1508.0, "source": "osm", "_tags": {"ele": "1508", "name": "Rocher de Combau", "natural": "peak"}}, {"name": "Mont Frol", "latitude": 45.415745, "longitude": 5.5729938, "elevation": 799.0, "source": "osm", "_tags": {"ele": "799", "name": "Mont Frol", "natural": "peak"}}, {"name": "Serre de la Fayole", "latitude": 44.8405364, "longitude": 5.6922014, "elevation": 1080.0, "source": "osm", "_tags": {"ele": "1080", "name": "Serre de la Fayole", "natural": "peak"}}, {"name": "Bonnet de l'Évêque", "latitude": 44.7722445, "longitude": 5.8301247, "elevation": 2663.0, "source": "osm", "_tags": {"ele": "2663", "name": "Bonnet de l'Évêque", "natural": "peak"}}, {"name": "Le Rougnou", "latitude": 44.7520115, "longitude": 5.8273523, "elevation": 2577.0, "source": "osm", "_tags": {"ele": "2577", "name": "Le Rougnou", "natural": "peak"}}, {"name": "Montagne de Faraud", "latitude": 44.6424678, "longitude": 5.2560501, "elevation": 1202.0, "source": "osm", "_tags": {"ele": "1202", "name": "Montagne de Faraud", "natural": "peak"}}, {"name": "Tête de Vallon Pierra", "latitude": 44.7126418, "longitude": 5.8107596, "elevation": 2512.0, "source": "osm", "_tags": {"ele": "2512", "name": "Tête de Vallon Pierra", "natural": "peak"}}, {"name": "Crête du Grand Serre", "latitude": 45.0096229, "longitude": 5.8564505, "elevation": 1947.0, "source": "osm", "_tags": {"ele": "1947", "name": "Crête du Grand Serre", "natural": "peak"}}, {"name": "Rocher de l'Église", "latitude": 45.2706798, "longitude": 5.6886697, "elevation": 1300.0, "source": "osm", "_tags": {"ele": "1300", "name": "Rocher de l'Église", "natural": "peak"}}, {"name": "Mont Rachas", "latitude": 44.5016563, "longitude": 5.0004503, "elevation": 898.0, "source": "osm", "_tags": {"ele": "898", "name": "Mont Rachas", "name:oc": "Mont Rachàs", "natural": "peak", "source:name:oc": "ieo-bdtopoc"}}, {"name": "Montagne d'Aujour", "latitude": 44.4380859, "longitude": 5.8488702, "elevation": 1834.0, "source": "osm", "_tags": {"ele": "1834", "name": "Montagne d'Aujour", "natural": "peak", "wikidata": "Q31652642"}}, {"name": "Mongiron", "latitude": 45.1971131, "longitude": 5.8787209, "elevation": 964.0, "source": "osm", "_tags": {"ele": "964", "name": "Mongiron", "natural": "peak"}}, {"name": "Bonnet Rouge", "latitude": 44.4446988, "longitude": 5.617048, "elevation": 1645.0, "source": "osm", "_tags": {"ele": "1645", "name": "Bonnet Rouge", "natural": "peak"}}, {"name": "Le Cimon", "latitude": 44.9102249, "longitude": 5.7745299, "elevation": 1209.0, "source": "osm", "_tags": {"ele": "1209", "name": "Le Cimon", "natural": "peak"}}, {"name": "Cîme de Pignerole", "latitude": 44.5678329, "longitude": 5.8411719, "elevation": 1427.0, "source": "osm", "_tags": {"ele": "1427", "name": "Cîme de Pignerole", "natural": "peak"}}, {"name": "", "latitude": 44.9593819, "longitude": 5.526474, "elevation": 1945.0, "source": "osm", "_tags": {"ele": "1945", "natural": "peak"}}, {"name": "", "latitude": 44.9615303, "longitude": 5.5268281, "elevation": 1971.0, "source": "osm", "_tags": {"ele": "1971", "natural": "peak"}}, {"name": "Montagne de Grand Rochefort", "latitude": 45.1094932, "longitude": 5.6904467, "elevation": 409.0, "source": "osm", "_tags": {"ele": "409", "name": "Montagne de Grand Rochefort", "natural": "peak", "source": "IGN- 2021-06", "summit:cross": "no", "summit:register": "no", "tourism": "viewpoint", "wikidata": "Q106485584"}}, {"name": "Plenouze", "latitude": 45.2119152, "longitude": 5.5896485, "elevation": 1648.0, "source": "osm", "_tags": {"ele": "1648", "name": "Plenouze", "natural": "peak"}}, {"name": "Sornin", "latitude": 45.2143886, "longitude": 5.6107226, "elevation": 1596.0, "source": "osm", "_tags": {"ele": "1596", "name": "Sornin", "natural": "peak"}}, {"name": "La Dent du Loup", "latitude": 45.2210423, "longitude": 5.6233208, "elevation": 1377.0, "source": "osm", "_tags": {"ele": "1377", "name": "La Dent du Loup", "natural": "peak", "tourism": "viewpoint", "wikidata": "Q31638659"}}, {"name": "Les Deux Sœurs - Dôme de l'Œille", "latitude": 45.0137546, "longitude": 5.581332, "elevation": 2105.0, "source": "osm", "_tags": {"ele": "2105", "name": "Les Deux Sœurs - Dôme de l'Œille", "natural": "peak", "tourism": "viewpoint"}}, {"name": "Bec de la Scia", "latitude": 45.3455225, "longitude": 5.8499987, "elevation": 1783.0, "source": "osm", "_tags": {"ele": "1783", "name": "Bec de la Scia", "natural": "peak", "source": "https://wxs.ign.fr/an7nvfzojv5wa96dsga5nk8w/geoportail/wmts?SERVICE=WMTS&VERSION=1.0.0&REQUEST=GetTile&LAYER=GEOGRAPHICALGRIDSYSTEMS.MAPS&STYLE=normal&FORMAT=image/jpeg&TILEMATRIXSET=PM&TILEMATRIX=15&TILEROW=11742&TILECOL=16916.jpg", "wikidata": "Q31394332"}}, {"name": "Charbonnier", "latitude": 44.8133289, "longitude": 5.5999106, "elevation": 1557.0, "source": "osm", "_tags": {"ele": "1557", "name": "Charbonnier", "natural": "peak"}}, {"name": "La Grésière", "latitude": 44.6415785, "longitude": 5.5114098, "elevation": 1493.0, "source": "osm", "_tags": {"ele": "1493", "name": "La Grésière", "natural": "peak"}}, {"name": "Petit Ferrand", "latitude": 44.724927, "longitude": 5.8159288, "elevation": 2724.0, "source": "osm", "_tags": {"ele": "2724", "name": "Petit Ferrand", "natural": "peak"}}, {"name": "", "latitude": 45.1137936, "longitude": 5.5482593, "elevation": null, "source": "osm", "_tags": {"natural": "peak"}}, {"name": "Serre Rochasson", "latitude": 44.4481057, "longitude": 5.4647245, "elevation": 1212.0, "source": "osm", "_tags": {"ele": "1212", "name": "Serre Rochasson", "name:oc": "Serre Rochasson", "natural": "peak", "source:name:oc": "ieo-bdtopoc"}}, {"name": "Serre Merville", "latitude": 44.4465115, "longitude": 5.4377746, "elevation": 1341.0, "source": "osm", "_tags": {"ele": "1341", "name": "Serre Merville", "name:oc": "Serre Mervila", "natural": "peak", "source:name:oc": "ieo-bdtopoc"}}, {"name": "Saint-Romans", "latitude": 44.452466, "longitude": 5.4414062, "elevation": 1341.0, "source": "osm", "_tags": {"ele": "1341", "name": "Saint-Romans", "name:oc": "Sant Roman", "natural": "peak", "source:name:oc": "ieo-bdtopoc"}}, {"name": "Serre du Mortier", "latitude": 44.9369178, "longitude": 5.2289408, "elevation": null, "source": "osm", "_tags": {"name": "Serre du Mortier", "name:oc": "Serre dau Mortier", "natural": "peak", "source:name:oc": "ieo-bdtopoc"}}, {"name": "Crête de Comblezine", "latitude": 44.913274, "longitude": 5.241615, "elevation": null, "source": "osm", "_tags": {"name": "Crête de Comblezine", "name:oc": "Crèsta de Comblasina", "natural": "peak", "source:name:oc": "ieo-bdtopoc"}}, {"name": "Montagne de la Sausse", "latitude": 44.893542, "longitude": 5.221499, "elevation": null, "source": "osm", "_tags": {"name": "Montagne de la Sausse", "name:oc": "Montanha de Sausse", "natural": "peak", "source:name:oc": "ieo-bdtopoc"}}, {"name": "Pié Miat", "latitude": 44.4607826, "longitude": 5.4030633, "elevation": 1064.0, "source": "osm", "_tags": {"ele": "1064", "name": "Pié Miat", "name:oc": "Puei Miat", "natural": "peak", "source:name:oc": "ieo-bdtopoc"}}, {"name": "Serre du Miral", "latitude": 44.4524621, "longitude": 5.4067218, "elevation": 1041.0, "source": "osm", "_tags": {"ele": "1041", "name": "Serre du Miral", "name:oc": "Serre dau Miral", "natural": "peak", "source:name:oc": "ieo-bdtopoc"}}, {"name": "Mont de Ménil", "latitude": 44.7605056, "longitude": 5.7557817, "elevation": 1594.0, "source": "osm", "_tags": {"ele": "1594", "name": "Mont de Ménil", "natural": "peak", "wikidata": "Q31637724"}}, {"name": "Sommet de l'Aup", "latitude": 44.7364339, "longitude": 5.7159548, "elevation": 1796.0, "source": "osm", "_tags": {"ele": "1796", "name": "Sommet de l'Aup", "natural": "peak", "wikidata": "Q31658793"}}, {"name": "Le Rognon", "latitude": 44.7317282, "longitude": 5.7034318, "elevation": 1851.0, "source": "osm", "_tags": {"ele": "1851", "name": "Le Rognon", "natural": "peak", "wikidata": "Q31658775"}}, {"name": "Montagne de Haute Huchette", "latitude": 44.4704723, "longitude": 5.429239, "elevation": 813.0, "source": "osm", "_tags": {"ele": "813", "name": "Montagne de Haute Huchette", "name:oc": "Montanha d'Autucheta", "natural": "peak", "source:name:oc": "ieo-bdtopoc"}}, {"name": "La Château de Concourdet", "latitude": 44.4537689, "longitude": 5.1175019, "elevation": 1061.0, "source": "osm", "_tags": {"ele": "1061", "name": "La Château de Concourdet", "natural": "peak"}}, {"name": "La Lance", "latitude": 44.4552194, "longitude": 5.1019039, "elevation": 1338.0, "source": "osm", "_tags": {"ele": "1338", "name": "La Lance", "natural": "peak", "wikidata": "Q3322299"}}, {"name": "Motte Vieille", "latitude": 44.4886377, "longitude": 5.3998875, "elevation": null, "source": "osm", "_tags": {"name": "Motte Vieille", "name:oc": "Mota Vielha", "natural": "peak", "source:name:oc": "ieo-bdtopoc"}}, {"name": "Sommet de la Montagne de Buègue", "latitude": 44.4498428, "longitude": 5.3336263, "elevation": 1222.0, "source": "osm", "_tags": {"ele": "1222", "name": "Sommet de la Montagne de Buègue", "name:oc": "Cima de la Montanha de Buegue", "natural": "peak", "source:name:oc": "ieo-bdtopoc"}}, {"name": "Rocher du Brachet", "latitude": 44.4590558, "longitude": 5.3398275, "elevation": 1170.0, "source": "osm", "_tags": {"ele": "1170", "name": "Rocher du Brachet", "name:oc": "Rochier dau Brachet", "natural": "peak", "source:name:oc": "ieo-bdtopoc"}}, {"name": "Mollard d'Arbon", "latitude": 45.2983569, "longitude": 5.6519034, "elevation": 651.0, "source": "osm", "_tags": {"ele": "651", "name": "Mollard d'Arbon", "natural": "peak"}}, {"name": "Montagne de Baise", "latitude": 44.7851942, "longitude": 5.3864184, "elevation": 958.0, "source": "osm", "_tags": {"ele": "958", "name": "Montagne de Baise", "natural": "peak", "wikidata": "Q31652338"}}, {"name": "Montfromage", "latitude": 45.2968224, "longitude": 5.7435965, "elevation": 1662.0, "source": "osm", "_tags": {"ele": "1662", "name": "Montfromage", "natural": "peak", "place": "locality"}}, {"name": "Tête des Chaudières", "latitude": 44.9930386, "longitude": 5.5385607, "elevation": 2029.0, "source": "osm", "_tags": {"ele": "2029", "name": "Tête des Chaudières", "natural": "peak", "note": "http://www.skitour.fr/sommets/tete-des-chaudieres,939.html", "summit:cross": "no", "summit:register": "no", "website": "https://www.isere-tourisme.com/patrimoine-naturel/la-tete-des-chaudieres", "wikidata": "Q32174008"}}, {"name": "Rocher de la Balme", "latitude": 44.9895437, "longitude": 5.5371953, "elevation": 2063.0, "source": "osm", "_tags": {"ele": "2063", "name": "Rocher de la Balme", "natural": "peak", "place": "locality", "wikidata": "Q3437633", "wikipedia": "fr:Rochers de la Balme"}}, {"name": "Montvernet", "latitude": 45.2919077, "longitude": 5.7446592, "elevation": 1630.0, "source": "osm", "_tags": {"ele": "1630", "name": "Montvernet", "natural": "peak", "place": "locality"}}, {"name": "Petit Chamousset", "latitude": 44.6614877, "longitude": 5.7498139, "elevation": 1700.0, "source": "osm", "_tags": {"ele": "1700", "name": "Petit Chamousset", "natural": "peak"}}, {"name": "", "latitude": 45.3462357, "longitude": 5.7766598, "elevation": 931.0, "source": "osm", "_tags": {"ele": "931", "natural": "peak"}}, {"name": "Rocher de Malamille", "latitude": 45.3469728, "longitude": 5.7629406, "elevation": 1084.0, "source": "osm", "_tags": {"ele": "1084", "name": "Rocher de Malamille", "natural": "peak"}}, {"name": "La Chinarde", "latitude": 44.9995945, "longitude": 5.8587358, "elevation": 1905.0, "source": "osm", "_tags": {"ele": "1905", "name": "La Chinarde", "natural": "peak", "wikidata": "Q31647699"}}, {"name": "Le Grand Vent", "latitude": 44.9894517, "longitude": 5.8576763, "elevation": 2149.0, "source": "osm", "_tags": {"ele": "2149", "name": "Le Grand Vent", "natural": "peak"}}, {"name": "La Demoiselle", "latitude": 44.7340828, "longitude": 5.8312511, "elevation": 2305.0, "source": "osm", "_tags": {"ele": "2305", "name": "La Demoiselle", "natural": "peak"}}, {"name": "Les Prêtres", "latitude": 44.7344487, "longitude": 5.829041, "elevation": 2349.0, "source": "osm", "_tags": {"ele": "2349", "name": "Les Prêtres", "natural": "peak"}}, {"name": "Le Banc", "latitude": 44.9717187, "longitude": 5.8467329, "elevation": 2235.0, "source": "osm", "_tags": {"ele": "2235", "name": "Le Banc", "natural": "peak"}}, {"name": "Le Mathieu", "latitude": 45.0035708, "longitude": 5.8560802, "elevation": 1756.0, "source": "osm", "_tags": {"ele": "1756", "name": "Le Mathieu", "natural": "peak"}}, {"name": "La Grande Cuche", "latitude": 45.0134969, "longitude": 5.8232474, "elevation": 1938.0, "source": "osm", "_tags": {"ele": "1938", "name": "La Grande Cuche", "natural": "peak"}}, {"name": "Les Trois Têtes", "latitude": 45.0000401, "longitude": 5.7258886, "elevation": 1639.0, "source": "osm", "_tags": {"ele": "1639", "name": "Les Trois Têtes", "natural": "peak"}}, {"name": "Rocher du Chatelard", "latitude": 45.038316, "longitude": 5.8387613, "elevation": 1201.0, "source": "osm", "_tags": {"ele": "1201", "name": "Rocher du Chatelard", "natural": "peak"}}, {"name": "Les Souillets", "latitude": 45.0284063, "longitude": 5.8431172, "elevation": 1436.0, "source": "osm", "_tags": {"ele": "1436", "name": "Les Souillets", "natural": "peak"}}, {"name": "Canier", "latitude": 45.0189386, "longitude": 5.7945156, "elevation": 1221.0, "source": "osm", "_tags": {"ele": "1221", "name": "Canier", "natural": "peak"}}, {"name": "Grand Cheval", "latitude": 45.1090433, "longitude": 5.62327, "elevation": 1827.0, "source": "osm", "_tags": {"ele": "1827", "name": "Grand Cheval", "natural": "peak", "wikidata": "Q31394402"}}, {"name": "", "latitude": 45.3227086, "longitude": 5.7615322, "elevation": null, "source": "osm", "_tags": {"elev": "1835", "natural": "peak"}}, {"name": "Pic de l'Aigle", "latitude": 44.680259, "longitude": 5.7380667, "elevation": 1734.0, "source": "osm", "_tags": {"ele": "1734", "name": "Pic de l'Aigle", "natural": "peak"}}, {"name": "Montagne de Jagène", "latitude": 44.7138656, "longitude": 5.736621, "elevation": 1784.0, "source": "osm", "_tags": {"ele": "1784", "name": "Montagne de Jagène", "natural": "peak"}}, {"name": "But de l'Aiglette", "latitude": 44.8231061, "longitude": 5.3687868, "elevation": 1524.0, "source": "osm", "_tags": {"ele": "1524", "name": "But de l'Aiglette", "natural": "peak"}}, {"name": "Piton de Bellefont", "latitude": 45.3377696, "longitude": 5.877991, "elevation": 1953.0, "source": "osm", "_tags": {"ele": "1953", "name": "Piton de Bellefont", "natural": "peak", "wikidata": "Q31394405"}}, {"name": "", "latitude": 44.8157021, "longitude": 5.5775972, "elevation": 1068.0, "source": "osm", "_tags": {"ele": "1068", "natural": "peak", "summit:cross": "yes"}}, {"name": "Claret", "latitude": 44.678777, "longitude": 5.7347218, "elevation": 1735.0, "source": "osm", "_tags": {"ele": "1735", "name": "Claret", "natural": "peak", "summit:cross": "yes"}}, {"name": "Les Rateaux", "latitude": 44.6214638, "longitude": 4.9926615, "elevation": null, "source": "osm", "_tags": {"name": "Les Rateaux", "natural": "peak"}}, {"name": "Mondieu", "latitude": 45.1657719, "longitude": 5.7771968, "elevation": 479.0, "source": "osm", "_tags": {"ele": "479", "name": "Mondieu", "natural": "peak"}}, {"name": "Combeloup", "latitude": 45.1760185, "longitude": 5.841129, "elevation": 999.0, "source": "osm", "_tags": {"ele": "999", "name": "Combeloup", "natural": "peak"}}, {"name": "Beauregard", "latitude": 44.7477601, "longitude": 5.3953943, "elevation": 555.0, "source": "osm", "_tags": {"ele": "555", "name": "Beauregard", "natural": "peak"}}, {"name": "Montagne de Bret", "latitude": 44.7489242, "longitude": 5.4106342, "elevation": 1030.0, "source": "osm", "_tags": {"ele": "1030", "name": "Montagne de Bret", "natural": "peak"}}, {"name": "Les Charmettes", "latitude": 45.1926585, "longitude": 5.83936, "elevation": 622.0, "source": "osm", "_tags": {"ele": "622", "name": "Les Charmettes", "natural": "peak"}}, {"name": "Serre de Beaupuy", "latitude": 44.7625021, "longitude": 5.5779664, "elevation": 1740.0, "source": "osm", "_tags": {"ele": "1740", "name": "Serre de Beaupuy", "natural": "peak"}}, {"name": "Grand Brisou", "latitude": 44.8818748, "longitude": 5.5563737, "elevation": 1674.0, "source": "osm", "_tags": {"ele": "1674", "name": "Grand Brisou", "natural": "peak"}}, {"name": "Petit Brisou", "latitude": 44.8848695, "longitude": 5.5634574, "elevation": 1483.0, "source": "osm", "_tags": {"ele": "1483", "name": "Petit Brisou", "natural": "peak"}}, {"name": "Le Taillefer", "latitude": 44.7854436, "longitude": 5.226637, "elevation": 932.0, "source": "osm", "_tags": {"ele": "932", "name": "Le Taillefer", "natural": "peak"}}, {"name": "Malaval", "latitude": 44.9258027, "longitude": 5.5189034, "elevation": 2080.0, "source": "osm", "_tags": {"ele": "2080", "name": "Malaval", "natural": "peak"}}, {"name": "Rocher de Seguret", "latitude": 44.9079214, "longitude": 5.5208022, "elevation": 2051.0, "source": "osm", "_tags": {"ele": "2051", "name": "Rocher de Seguret", "natural": "peak"}}, {"name": "Roche Rousse", "latitude": 44.9032652, "longitude": 5.5206927, "elevation": 2105.0, "source": "osm", "_tags": {"ele": "2105", "name": "Roche Rousse", "natural": "peak", "wikidata": "Q31393654"}}, {"name": "", "latitude": 44.7523756, "longitude": 5.3803318, "elevation": 463.0, "source": "osm", "_tags": {"ele": "463", "natural": "peak"}}, {"name": "Pic de Luc", "latitude": 44.6088176, "longitude": 5.464683, "elevation": 1085.0, "source": "osm", "_tags": {"ele": "1085", "name": "Pic de Luc", "name:oc": "Pic de Luc", "natural": "peak", "source:name:oc": "ieo-bdtopoc", "summit:cross": "no"}}, {"name": "Roc de Peyrolle", "latitude": 44.7689007, "longitude": 5.4569265, "elevation": 2016.0, "source": "osm", "_tags": {"ele": "2016", "name": "Roc de Peyrolle", "natural": "peak"}}, {"name": "Dent de l'Ours", "latitude": 45.3886964, "longitude": 5.8207853, "elevation": 1820.0, "source": "osm", "_tags": {"ele": "1820", "name": "Dent de l'Ours", "natural": "peak", "wikidata": "Q2387511"}}, {"name": "Sommet de Peyre Rouge", "latitude": 44.847105, "longitude": 5.5244354, "elevation": 1941.0, "source": "osm", "_tags": {"ele": "1941", "name": "Sommet de Peyre Rouge", "natural": "peak"}}, {"name": "Sommet de Montaveilla", "latitude": 44.8445427, "longitude": 5.5197503, "elevation": 1979.0, "source": "osm", "_tags": {"ele": "1979", "name": "Sommet de Montaveilla", "natural": "peak"}}, {"name": "Le Somme", "latitude": 44.901046, "longitude": 5.7617743, "elevation": 1163.0, "source": "osm", "_tags": {"ele": "1163", "name": "Le Somme", "natural": "peak"}}, {"name": "Montagne d'Angèle", "latitude": 44.477043, "longitude": 5.2803357, "elevation": null, "source": "osm", "_tags": {"name": "Montagne d'Angèle", "name:oc": "Anjala", "natural": "peak", "source:name:oc": "ieo-bdtopoc"}}, {"name": "Tête du Mollah", "latitude": 44.670611, "longitude": 5.7994876, "elevation": 2139.0, "source": "osm", "_tags": {"ele": "2139", "name": "Tête du Mollah", "natural": "peak"}}, {"name": "Tête d'Aziz", "latitude": 44.7087676, "longitude": 5.8014688, "elevation": 2316.0, "source": "osm", "_tags": {"ele": "2316", "name": "Tête d'Aziz", "natural": "peak"}}, {"name": "Gressette", "latitude": 44.8977048, "longitude": 5.5585729, "elevation": 1260.0, "source": "osm", "_tags": {"ele": "1260", "name": "Gressette", "natural": "peak"}}, {"name": "Gros Moure", "latitude": 44.5580953, "longitude": 5.0533574, "elevation": 969.0, "source": "osm", "_tags": {"ele": "969", "name": "Gros Moure", "natural": "peak"}}, {"name": "Rocher des Deux Dents", "latitude": 44.5639388, "longitude": 5.0629589, "elevation": 937.0, "source": "osm", "_tags": {"ele": "937", "name": "Rocher des Deux Dents", "natural": "peak"}}, {"name": "Montagne de Desse", "latitude": 44.7855618, "longitude": 5.339585, "elevation": 882.0, "source": "osm", "_tags": {"ele": "882", "name": "Montagne de Desse", "natural": "peak", "source": "EU-DEM"}}, {"name": "Le Petit Pestel", "latitude": 44.725884, "longitude": 5.4324983, "elevation": 1059.0, "source": "osm", "_tags": {"ele": "1059", "name": "Le Petit Pestel", "natural": "peak", "source": "EU-DEM"}}, {"name": "Gourdon", "latitude": 44.6203948, "longitude": 5.1799679, "elevation": 1043.0, "source": "osm", "_tags": {"ele": "1043", "name": "Gourdon", "natural": "peak"}}, {"name": "Rocher de la Tournelle", "latitude": 44.561446, "longitude": 5.0298643, "elevation": 857.0, "source": "osm", "_tags": {"ele": "857", "name": "Rocher de la Tournelle", "natural": "peak"}}, {"name": "Le Bissard", "latitude": 44.8060194, "longitude": 5.5636277, "elevation": null, "source": "osm", "_tags": {"name": "Le Bissard", "natural": "peak"}}, {"name": "Pic Saint-Michel", "latitude": 45.0901506, "longitude": 5.6200817, "elevation": 1966.0, "source": "osm", "_tags": {"ele": "1966", "name": "Pic Saint-Michel", "natural": "peak", "wikidata": "Q31394326"}}, {"name": "tête de Chame rousse", "latitude": 44.9186103, "longitude": 5.7379102, "elevation": null, "source": "osm", "_tags": {"name": "tête de Chame rousse", "natural": "peak"}}, {"name": "Lance nord de Malissard", "latitude": 45.3497697, "longitude": 5.8740888, "elevation": 2036.0, "source": "osm", "_tags": {"ele": "2036", "name": "Lance nord de Malissard", "natural": "peak"}}, {"name": "Fau Cuchet", "latitude": 45.0459083, "longitude": 5.7416675, "elevation": 1360.0, "source": "osm", "_tags": {"alt_name": "Le Connex", "ele": "1360", "name": "Fau Cuchet", "natural": "peak", "wikidata": "Q2993457"}}, {"name": "Sommet de Monure", "latitude": 45.3878911, "longitude": 5.5910093, "elevation": 655.0, "source": "osm", "_tags": {"ele": "655", "name": "Sommet de Monure", "natural": "peak"}}, {"name": "Mollard de la Chaleur", "latitude": 45.3182907, "longitude": 5.7083992, "elevation": 1776.0, "source": "osm", "_tags": {"ele": "1776", "name": "Mollard de la Chaleur", "natural": "peak", "wikidata": "Q31393812"}}, {"name": "Rocher Noir", "latitude": 44.9531771, "longitude": 5.8401691, "elevation": 1850.0, "source": "osm", "_tags": {"ele": "1850", "name": "Rocher Noir", "natural": "peak"}}, {"name": "Le Chateau", "latitude": 44.9754184, "longitude": 5.6928306, "elevation": 882.0, "source": "osm", "_tags": {"ele": "882", "name": "Le Chateau", "natural": "peak"}}, {"name": "", "latitude": 44.9984273, "longitude": 5.66199, "elevation": null, "source": "osm", "_tags": {"natural": "peak", "source": "IGN - 2021-06"}}, {"name": "Montagne du Mulet", "latitude": 45.1533945, "longitude": 5.7875279, "elevation": 819.0, "source": "osm", "_tags": {"ele": "819", "name": "Montagne du Mulet", "natural": "peak"}}, {"name": "Pierre Grosse Marie", "latitude": 45.2575621, "longitude": 5.803609, "elevation": 795.0, "source": "osm", "_tags": {"ele": "795", "name": "Pierre Grosse Marie", "natural": "peak"}}, {"name": "rocher Siéroux", "latitude": 44.9308424, "longitude": 5.762309, "elevation": 1200.0, "source": "osm", "_tags": {"ele": "1200", "name": "rocher Siéroux", "natural": "peak"}}, {"name": "Montagne Durbonas", "latitude": 44.6114266, "longitude": 5.759542, "elevation": 2086.0, "source": "osm", "_tags": {"ele": "2086", "name": "Montagne Durbonas", "natural": "peak"}}, {"name": "Signal de Nave", "latitude": 45.2235917, "longitude": 5.5369227, "elevation": 1609.0, "source": "osm", "_tags": {"ele": "1609", "name": "Signal de Nave", "natural": "peak", "wikidata": "Q21027404"}}, {"name": "Mont Miéry", "latitude": 44.7921863, "longitude": 4.9791669, "elevation": 395.0, "source": "osm", "_tags": {"ele": "395", "name": "Mont Miéry", "natural": "peak", "source": "IGN - 2021-06"}}, {"name": "Chalamet", "latitude": 44.8334151, "longitude": 5.0733946, "elevation": null, "source": "osm", "_tags": {"name": "Chalamet", "natural": "peak", "source": "IGN - 2021-06"}}, {"name": "Serre Perrier", "latitude": 44.8284238, "longitude": 5.0571891, "elevation": null, "source": "osm", "_tags": {"name": "Serre Perrier", "natural": "peak", "source": "IGN - 2021-06"}}, {"name": "Serre du Buis", "latitude": 44.8429627, "longitude": 5.0489665, "elevation": null, "source": "osm", "_tags": {"name": "Serre du Buis", "natural": "peak", "source": "IGN - 2021-06"}}, {"name": "Montagne de Musan", "latitude": 45.0044862, "longitude": 5.2376309, "elevation": null, "source": "osm", "_tags": {"name": "Montagne de Musan", "name:oc": "Montanha de Musan", "natural": "peak", "source": "IGN - 2021-06", "source:name:oc": "ieo-bdtopoc"}}, {"name": "Montagne de Chovet", "latitude": 44.8936676, "longitude": 5.2110951, "elevation": null, "source": "osm", "_tags": {"name": "Montagne de Chovet", "natural": "peak", "source": "IGN - 2021-06"}}, {"name": "Pierre Rousse", "latitude": 44.9966205, "longitude": 5.2040828, "elevation": null, "source": "osm", "_tags": {"name": "Pierre Rousse", "name:oc": "Pèira Rossa", "natural": "peak", "source": "IGN - 2021-06", "source:name:oc": "ieo-bdtopoc"}}, {"name": "Montagne de Clamontard", "latitude": 44.6008644, "longitude": 5.4372243, "elevation": null, "source": "osm", "_tags": {"name": "Montagne de Clamontard", "natural": "peak", "source": "IGN - 2021-06"}}, {"name": "Mont Rolland", "latitude": 45.1120755, "longitude": 5.7793462, "elevation": 588.0, "source": "osm", "_tags": {"ele": "588", "name": "Mont Rolland", "natural": "peak", "source": "IGN - 2021-06"}}, {"name": "Mont Jayet", "latitude": 45.129379, "longitude": 5.7451536, "elevation": 435.0, "source": "osm", "_tags": {"ele": "435", "name": "Mont Jayet", "natural": "peak", "source": "IGN- 2021-06"}}, {"name": "Les Baleyères", "latitude": 45.1211487, "longitude": 5.7678291, "elevation": 422.0, "source": "osm", "_tags": {"ele": "422", "name": "Les Baleyères", "natural": "peak", "source": "IGN - 2021-06"}}, {"name": "Le Plomb", "latitude": 45.1173024, "longitude": 5.7779854, "elevation": 538.0, "source": "osm", "_tags": {"ele": "538", "name": "Le Plomb", "natural": "peak", "source": "IGN - 2021-06"}}, {"name": "Moutet", "latitude": 45.0777459, "longitude": 5.7463842, "elevation": 468.0, "source": "osm", "_tags": {"ele": "468", "name": "Moutet", "natural": "peak", "source": "IGN - 2021-06"}}, {"name": "Molard", "latitude": 45.1770014, "longitude": 5.7959748, "elevation": 427.0, "source": "osm", "_tags": {"ele": "427", "name": "Molard", "natural": "peak", "source": "IGN - 2021-06"}}, {"name": "le Cuchet", "latitude": 45.1364572, "longitude": 5.8058133, "elevation": 646.0, "source": "osm", "_tags": {"ele": "646", "name": "le Cuchet", "natural": "peak", "source": "IGN - 2021-06"}}, {"name": "les Civières", "latitude": 45.1547498, "longitude": 5.779244, "elevation": 742.0, "source": "osm", "_tags": {"ele": "742", "name": "les Civières", "natural": "peak", "source": "IGN - 2021-06"}}, {"name": "Grand Molard", "latitude": 45.1515601, "longitude": 5.5448618, "elevation": 1130.0, "source": "osm", "_tags": {"ele": "1130", "name": "Grand Molard", "natural": "peak", "source": "IGN - 2021-06"}}, {"name": "La Montagne", "latitude": 45.1750412, "longitude": 5.8257516, "elevation": null, "source": "osm", "_tags": {"name": "La Montagne", "natural": "peak", "source": "IGN - 2021-06"}}, {"name": "Le Châtelard", "latitude": 45.1261131, "longitude": 5.5220197, "elevation": 1042.0, "source": "osm", "_tags": {"ele": "1042", "name": "Le Châtelard", "natural": "peak", "source": "IGN - 2021-06"}}, {"name": "Rochassier", "latitude": 45.0789974, "longitude": 5.8222402, "elevation": null, "source": "osm", "_tags": {"name": "Rochassier", "natural": "peak", "source": "IGN - 2021-06"}}, {"name": "l'Aup Morel", "latitude": 45.0919753, "longitude": 5.7831311, "elevation": null, "source": "osm", "_tags": {"name": "l'Aup Morel", "natural": "peak", "source": "IGN - 2021-06"}}, {"name": "Côte Ber", "latitude": 44.9866306, "longitude": 5.6653012, "elevation": null, "source": "osm", "_tags": {"name": "Côte Ber", "natural": "peak", "source": "IGN - 2021-06"}}, {"name": "La Rochette", "latitude": 44.986403, "longitude": 5.655494, "elevation": null, "source": "osm", "_tags": {"name": "La Rochette", "natural": "peak", "source": "IGN - 2021-06"}}, {"name": "Le Fays", "latitude": 44.8938689, "longitude": 5.6430173, "elevation": null, "source": "osm", "_tags": {"name": "Le Fays", "natural": "peak", "source": "IGN - 2021-06"}}, {"name": "Lessay", "latitude": 44.9158342, "longitude": 5.6463573, "elevation": null, "source": "osm", "_tags": {"name": "Lessay", "natural": "peak", "source": "IGN - 2021-06"}}, {"name": "Pié Rond", "latitude": 44.9196317, "longitude": 5.6596217, "elevation": 693.0, "source": "osm", "_tags": {"ele": "693", "name": "Pié Rond", "natural": "peak", "source": "IGN - 2021-06"}}, {"name": "Côte Rouge", "latitude": 44.8877248, "longitude": 5.6549608, "elevation": 1044.0, "source": "osm", "_tags": {"ele": "1044", "name": "Côte Rouge", "natural": "peak", "source": "IGN - 2021-06"}}, {"name": "Serre Chauvet", "latitude": 44.8812315, "longitude": 5.7346425, "elevation": null, "source": "osm", "_tags": {"name": "Serre Chauvet", "natural": "peak", "source": "IGN - 2021-06"}}, {"name": "Baraton", "latitude": 44.8825822, "longitude": 5.6612287, "elevation": null, "source": "osm", "_tags": {"name": "Baraton", "natural": "peak", "source": "IGN - 2021-06"}}, {"name": "Genevray", "latitude": 44.8816267, "longitude": 5.7404273, "elevation": null, "source": "osm", "_tags": {"name": "Genevray", "natural": "peak", "source": "IGN - 2021-06"}}, {"name": "l'Aubeyron", "latitude": 44.8497315, "longitude": 5.5936599, "elevation": null, "source": "osm", "_tags": {"name": "l'Aubeyron", "natural": "peak", "source": "IGN - 2021-06"}}, {"name": "Champ Raud", "latitude": 44.9659125, "longitude": 5.811241, "elevation": null, "source": "osm", "_tags": {"name": "Champ Raud", "natural": "peak", "source": "IGN - 2021-06"}}, {"name": "Le Devès", "latitude": 44.9020956, "longitude": 5.7444504, "elevation": null, "source": "osm", "_tags": {"name": "Le Devès", "natural": "peak", "source": "IGN - 2021-06"}}, {"name": "Rocher du Sabet", "latitude": 45.0659806, "longitude": 5.8535201, "elevation": null, "source": "osm", "_tags": {"name": "Rocher du Sabet", "natural": "peak", "source": "IGN - 2021-06"}}, {"name": "Rocher du Châtelard", "latitude": 45.0752635, "longitude": 5.8603326, "elevation": null, "source": "osm", "_tags": {"name": "Rocher du Châtelard", "natural": "peak", "source": "IGN - 2021-06"}}, {"name": "Rocher de Richagnier", "latitude": 45.0791338, "longitude": 5.862344, "elevation": 1370.0, "source": "osm", "_tags": {"ele": "1370", "name": "Rocher de Richagnier", "natural": "peak", "source": "IGN - 2021-06"}}, {"name": "Grand Rouchon", "latitude": 45.063584, "longitude": 5.8501407, "elevation": null, "source": "osm", "_tags": {"name": "Grand Rouchon", "natural": "peak", "source": "IGN - 2021-06"}}, {"name": "Petit Rouchon", "latitude": 45.0608256, "longitude": 5.848823, "elevation": null, "source": "osm", "_tags": {"name": "Petit Rouchon", "natural": "peak", "source": "IGN - 2021-06"}}, {"name": "Le Plat", "latitude": 45.026637, "longitude": 5.7948914, "elevation": null, "source": "osm", "_tags": {"name": "Le Plat", "natural": "peak", "source": "IGN - 2021-06"}}, {"name": "La Petite Cuche", "latitude": 45.0185754, "longitude": 5.8183977, "elevation": null, "source": "osm", "_tags": {"name": "La Petite Cuche", "natural": "peak", "source": "IGN - 2021-06"}}, {"name": "Le Collet", "latitude": 45.0157686, "longitude": 5.72908, "elevation": 1370.0, "source": "osm", "_tags": {"ele": "1370", "name": "Le Collet", "natural": "peak", "source": "IGN - 2021-06"}}, {"name": "Montagne de Maladray", "latitude": 45.0275427, "longitude": 5.8167224, "elevation": null, "source": "osm", "_tags": {"name": "Montagne de Maladray", "natural": "peak", "source": "IGN - 2021-06"}}, {"name": "", "latitude": 45.0254354, "longitude": 5.7699468, "elevation": null, "source": "osm", "_tags": {"natural": "peak", "source": "IGN - 2021-06"}}, {"name": "Les Adrets", "latitude": 44.9356066, "longitude": 5.67975, "elevation": null, "source": "osm", "_tags": {"name": "Les Adrets", "natural": "peak", "source": "IGN - 2021-06"}}, {"name": "Le Crey", "latitude": 44.9870361, "longitude": 5.7624044, "elevation": 1124.0, "source": "osm", "_tags": {"ele": "1124", "name": "Le Crey", "natural": "peak", "source": "IGN - 2021-06"}}, {"name": "Le Château", "latitude": 44.9582263, "longitude": 5.6901761, "elevation": null, "source": "osm", "_tags": {"name": "Le Château", "natural": "peak", "source": "IGN - 2021-06"}}, {"name": "Le Désert de l'Écureuil", "latitude": 45.1777748, "longitude": 5.6773938, "elevation": 487.0, "source": "osm", "_tags": {"ele": "487", "name": "Le Désert de l'Écureuil", "natural": "peak", "source": "IGN - 2021-06"}}, {"name": "Pinjallas", "latitude": 44.9488774, "longitude": 5.6489906, "elevation": 981.0, "source": "osm", "_tags": {"ele": "981", "name": "Pinjallas", "natural": "peak", "source": "IGN - 2021-06"}}, {"name": "La Croix des Suifs", "latitude": 45.1060189, "longitude": 5.5987561, "elevation": 1470.0, "source": "osm", "_tags": {"ele": "1470", "name": "La Croix des Suifs", "natural": "peak", "source": "IGN - 2021-06"}}, {"name": "La Sambue", "latitude": 45.0228642, "longitude": 5.483746, "elevation": 1575.0, "source": "osm", "_tags": {"ele": "1575", "name": "La Sambue", "natural": "peak", "source": "IGN - 2021-06", "wikidata": "Q31394323"}}, {"name": "Coteau d'Artets", "latitude": 45.2091159, "longitude": 5.4939434, "elevation": 600.0, "source": "osm", "_tags": {"ele": "600", "name": "Coteau d'Artets", "natural": "peak", "source": "IGN - 2021-06"}}, {"name": "Montagne de l'Épenet", "latitude": 44.9323617, "longitude": 5.191321, "elevation": null, "source": "osm", "_tags": {"name": "Montagne de l'Épenet", "natural": "peak", "source": "IGN - 2021-06"}}, {"name": "Montagne du Grand Échaillon", "latitude": 44.9133886, "longitude": 5.2021755, "elevation": null, "source": "osm", "_tags": {"name": "Montagne du Grand Échaillon", "natural": "peak", "source": "IGN - 2021-06"}}, {"name": "Baracuchet", "latitude": 45.4170409, "longitude": 5.6358267, "elevation": 952.0, "source": "osm", "_tags": {"ele": "952", "name": "Baracuchet", "natural": "peak", "wikidata": "Q31652068"}}, {"name": "Le Gey", "latitude": 45.2752674, "longitude": 5.3956278, "elevation": 767.0, "source": "osm", "_tags": {"ele": "767", "name": "Le Gey", "natural": "peak"}}, {"name": "Le Pinatet", "latitude": 45.279986, "longitude": 5.3826148, "elevation": 742.0, "source": "osm", "_tags": {"ele": "742", "name": "Le Pinatet", "natural": "peak"}}, {"name": "Pilandrey", "latitude": 45.2784145, "longitude": 5.3725805, "elevation": 748.0, "source": "osm", "_tags": {"ele": "748", "name": "Pilandrey", "natural": "peak"}}, {"name": "Montolivet", "latitude": 45.2853295, "longitude": 5.3715183, "elevation": 744.0, "source": "osm", "_tags": {"ele": "744", "name": "Montolivet", "natural": "peak"}}, {"name": "Le Tralus", "latitude": 45.2831848, "longitude": 5.3435639, "elevation": 705.0, "source": "osm", "_tags": {"ele": "705", "name": "Le Tralus", "natural": "peak"}}, {"name": "Mont au Pin", "latitude": 45.2674211, "longitude": 5.3316149, "elevation": 696.0, "source": "osm", "_tags": {"ele": "696", "name": "Mont au Pin", "natural": "peak"}}, {"name": "Tête de la Cavale", "latitude": 44.7673551, "longitude": 5.8283152, "elevation": 2697.0, "source": "osm", "_tags": {"ele": "2697", "name": "Tête de la Cavale", "natural": "peak"}}, {"name": "Montagne de l'Aupet", "latitude": 44.8394984, "longitude": 5.5391436, "elevation": null, "source": "osm", "_tags": {"name": "Montagne de l'Aupet", "natural": "peak", "source": "IGN - 2021-06"}}, {"name": "Le Rocher", "latitude": 44.8290283, "longitude": 5.5830839, "elevation": null, "source": "osm", "_tags": {"name": "Le Rocher", "natural": "peak", "source": "IGN - 2021-06"}}, {"name": "Tête de Gaudissart", "latitude": 44.8511727, "longitude": 5.5684317, "elevation": 1489.0, "source": "osm", "_tags": {"ele": "1489", "name": "Tête de Gaudissart", "natural": "peak", "source": "IGN - 2021-06"}}, {"name": "", "latitude": 45.09304, "longitude": 5.7554124, "elevation": 590.0, "source": "osm", "_tags": {"ele": "590", "natural": "peak"}}, {"name": "", "latitude": 45.089794, "longitude": 5.7532136, "elevation": 590.0, "source": "osm", "_tags": {"ele": "590", "natural": "peak"}}, {"name": "", "latitude": 44.8418806, "longitude": 5.5752343, "elevation": null, "source": "osm", "_tags": {"natural": "peak"}}, {"name": "Le Châtelar", "latitude": 45.1158789, "longitude": 5.3751752, "elevation": 840.0, "source": "osm", "_tags": {"ele": "840", "name": "Le Châtelar", "natural": "peak"}}, {"name": "Le Rocher", "latitude": 45.0913745, "longitude": 5.3567247, "elevation": 852.0, "source": "osm", "_tags": {"ele": "852", "name": "Le Rocher", "natural": "peak"}}, {"name": "Serre Cocu", "latitude": 45.0951647, "longitude": 5.3717242, "elevation": 1007.0, "source": "osm", "_tags": {"ele": "1007", "name": "Serre Cocu", "natural": "peak", "wikidata": "Q49753578"}}, {"name": "Le Grand Serre", "latitude": 45.0808734, "longitude": 5.4188448, "elevation": 1297.0, "source": "osm", "_tags": {"ele": "1297", "name": "Le Grand Serre", "natural": "peak"}}, {"name": "Serre Playe", "latitude": 45.0995319, "longitude": 5.4342418, "elevation": 1366.0, "source": "osm", "_tags": {"ele": "1366", "name": "Serre Playe", "natural": "peak"}}, {"name": "Serre Grier", "latitude": 45.0909225, "longitude": 5.3953692, "elevation": 941.0, "source": "osm", "_tags": {"ele": "941", "name": "Serre Grier", "natural": "peak"}}, {"name": "Beauregard", "latitude": 45.0875242, "longitude": 5.4212735, "elevation": 1301.0, "source": "osm", "_tags": {"ele": "1301", "name": "Beauregard", "natural": "peak"}}, {"name": "Serre du Sâtre", "latitude": 45.1074903, "longitude": 5.4406833, "elevation": 1415.0, "source": "osm", "_tags": {"ele": "1415", "name": "Serre du Sâtre", "natural": "peak"}}, {"name": "Serre Coton", "latitude": 45.1102644, "longitude": 5.4285483, "elevation": 1316.0, "source": "osm", "_tags": {"ele": "1316", "name": "Serre Coton", "natural": "peak"}}, {"name": "Mont Noir", "latitude": 45.1246455, "longitude": 5.4500916, "elevation": 1475.0, "source": "osm", "_tags": {"ele": "1475", "name": "Mont Noir", "natural": "peak"}}, {"name": "Mont Baret", "latitude": 45.054057, "longitude": 5.3560819, "elevation": 793.0, "source": "osm", "_tags": {"ele": "793", "name": "Mont Baret", "natural": "peak"}}, {"name": "Croix de Justin", "latitude": 44.7441478, "longitude": 5.3502529, "elevation": 1004.0, "source": "osm", "_tags": {"ele": "1004", "man_made": "cross", "name": "Croix de Justin", "natural": "peak"}}, {"name": "Crête de Chalimont", "latitude": 45.0683485, "longitude": 5.474883, "elevation": 1607.0, "source": "osm", "_tags": {"ele": "1607", "name": "Crête de Chalimont", "natural": "peak", "source": "IGN Top 25", "wikidata": "Q32179085"}}, {"name": "Gaudichart", "latitude": 44.7307674, "longitude": 5.2341431, "elevation": 1112.0, "source": "osm", "_tags": {"ele": "1112", "name": "Gaudichart", "name:oc": "Gaudeissart", "natural": "peak", "source:name:oc": "ieo-bdtopoc"}}, {"name": "Mont Avalon", "latitude": 45.4104975, "longitude": 5.3154397, "elevation": 644.0, "source": "osm", "_tags": {"ele": "644", "name": "Mont Avalon", "natural": "peak", "wikidata": "Q110463365"}}, {"name": "Le Chat", "latitude": 45.4043634, "longitude": 5.7017983, "elevation": null, "source": "osm", "_tags": {"name": "Le Chat", "natural": "peak"}}, {"name": "Pointe de Tornegas", "latitude": 44.5667547, "longitude": 5.8092964, "elevation": 1391.0, "source": "osm", "_tags": {"ele": "1391", "name": "Pointe de Tornegas", "natural": "peak"}}, {"name": "Cuberselle", "latitude": 44.5498678, "longitude": 5.8084889, "elevation": 1261.0, "source": "osm", "_tags": {"ele": "1261", "name": "Cuberselle", "natural": "peak"}}, {"name": "l'Aiguille", "latitude": 44.5246761, "longitude": 5.8433406, "elevation": 1415.0, "source": "osm", "_tags": {"ele": "1415", "name": "l'Aiguille", "natural": "peak"}}, {"name": "Tête d'Avette", "latitude": 44.4856817, "longitude": 5.8497122, "elevation": 1367.0, "source": "osm", "_tags": {"ele": "1367", "name": "Tête d'Avette", "natural": "peak"}}, {"name": "Tête du Roux", "latitude": 44.4804089, "longitude": 5.8555171, "elevation": 1425.0, "source": "osm", "_tags": {"ele": "1425", "name": "Tête du Roux", "natural": "peak"}}, {"name": "Tête des Quarante", "latitude": 44.4814064, "longitude": 5.8654308, "elevation": 1562.0, "source": "osm", "_tags": {"ele": "1562", "name": "Tête des Quarante", "natural": "peak"}}, {"name": "Les Grosses Pierres", "latitude": 44.4834028, "longitude": 5.8665168, "elevation": 1593.0, "source": "osm", "_tags": {"ele": "1593", "name": "Les Grosses Pierres", "natural": "peak"}}, {"name": "La Plane", "latitude": 44.4604984, "longitude": 5.8449114, "elevation": 1576.0, "source": "osm", "_tags": {"ele": "1576", "name": "La Plane", "natural": "peak"}}, {"name": "Champbeau", "latitude": 44.4329867, "longitude": 5.830749, "elevation": 1530.0, "source": "osm", "_tags": {"ele": "1530", "name": "Champbeau", "natural": "peak"}}, {"name": "l'Aup", "latitude": 44.4571444, "longitude": 5.6239974, "elevation": 1516.0, "source": "osm", "_tags": {"ele": "1516", "name": "l'Aup", "natural": "peak"}}, {"name": "Gaude", "latitude": 44.6637819, "longitude": 5.5000695, "elevation": 970.0, "source": "osm", "_tags": {"ele": "970", "name": "Gaude", "natural": "peak"}}, {"name": "Serre du Raugou", "latitude": 44.4381735, "longitude": 5.87802, "elevation": 1459.0, "source": "osm", "_tags": {"ele": "1459", "name": "Serre du Raugou", "natural": "peak"}}, {"name": "", "latitude": 44.9594289, "longitude": 5.1537278, "elevation": 575.0, "source": "osm", "_tags": {"ele": "575", "natural": "peak"}}, {"name": "", "latitude": 44.9617899, "longitude": 5.1597226, "elevation": 600.0, "source": "osm", "_tags": {"ele": "600", "natural": "peak"}}, {"name": "Bec de l'Échaillon", "latitude": 45.0364027, "longitude": 5.6225042, "elevation": 1262.0, "source": "osm", "_tags": {"alt_name": "Pal de Fer", "ele": "1262", "name": "Bec de l'Échaillon", "natural": "peak"}}, {"name": "Montagne Chauvet", "latitude": 44.5999969, "longitude": 5.6167091, "elevation": 1617.0, "source": "osm", "_tags": {"ele": "1617", "name": "Montagne Chauvet", "natural": "peak"}}, {"name": "Luzet", "latitude": 44.5858933, "longitude": 5.6250663, "elevation": 1692.0, "source": "osm", "_tags": {"ele": "1692", "name": "Luzet", "natural": "peak"}}, {"name": "Rocher de Chamoux", "latitude": 44.8402464, "longitude": 5.529372, "elevation": 1980.0, "source": "osm", "_tags": {"ele": "1980", "name": "Rocher de Chamoux", "natural": "peak"}}, {"name": "", "latitude": 44.8388148, "longitude": 5.5301633, "elevation": 2024.0, "source": "osm", "_tags": {"ele": "2024", "natural": "peak"}}, {"name": "Rocher du Château", "latitude": 44.9613561, "longitude": 5.8831205, "elevation": 1478.0, "source": "osm", "_tags": {"ele": "1478", "name": "Rocher du Château", "natural": "peak"}}, {"name": "Château des Chèvres", "latitude": 44.759219, "longitude": 5.8144605, "elevation": null, "source": "osm", "_tags": {"name": "Château des Chèvres", "natural": "peak"}}, {"name": "Piquet de Nantes", "latitude": 44.9617206, "longitude": 5.8438788, "elevation": 2214.0, "source": "osm", "_tags": {"ele": "2214", "name": "Piquet de Nantes", "natural": "peak", "wikidata": "Q124541027"}}, {"name": "Le Rattier", "latitude": 44.7809441, "longitude": 5.8309574, "elevation": 2474.0, "source": "osm", "_tags": {"ele": "2474", "name": "Le Rattier", "natural": "peak"}}, {"name": "Le Petit Obiou", "latitude": 44.7739851, "longitude": 5.8462313, "elevation": 2458.0, "source": "osm", "_tags": {"ele": "2458", "name": "Le Petit Obiou", "natural": "peak"}}, {"name": "Serre d'Aupillon", "latitude": 44.7393481, "longitude": 5.5861938, "elevation": 1532.0, "source": "osm", "_tags": {"ele": "1532", "name": "Serre d'Aupillon", "natural": "peak"}}, {"name": "Tête du Sapet", "latitude": 44.728989, "longitude": 5.5740037, "elevation": 1648.0, "source": "osm", "_tags": {"ele": "1648", "name": "Tête du Sapet", "natural": "peak"}}, {"name": "Bec de Neurre", "latitude": 45.1636213, "longitude": 5.4736957, "elevation": 1474.0, "source": "osm", "_tags": {"ele": "1474", "name": "Bec de Neurre", "natural": "peak", "wikidata": "Q19543918"}}, {"name": "Vautour", "latitude": 44.447687, "longitude": 5.2245183, "elevation": 1049.0, "source": "osm", "_tags": {"ele": "1049", "name": "Vautour", "name:oc": "Vòutor", "natural": "peak", "source:name:oc": "ieo-bdtopoc"}}, {"name": "Serre de Créma", "latitude": 44.4791104, "longitude": 5.2419715, "elevation": 1391.0, "source": "osm", "_tags": {"ele": "1391", "name": "Serre de Créma", "name:oc": "Serre de Cremat", "natural": "peak", "source:name:oc": "ieo-bdtopoc"}}, {"name": "Montagne de Col Plat", "latitude": 44.4766037, "longitude": 5.1917168, "elevation": 1367.0, "source": "osm", "_tags": {"ele": "1367", "name": "Montagne de Col Plat", "natural": "peak"}}, {"name": "", "latitude": 44.766731, "longitude": 5.619767, "elevation": null, "source": "osm", "_tags": {"natural": "peak"}}, {"name": "", "latitude": 44.7641887, "longitude": 5.6162707, "elevation": null, "source": "osm", "_tags": {"natural": "peak"}}, {"name": "Côte Belle", "latitude": 44.4934907, "longitude": 5.8709286, "elevation": 1591.0, "source": "osm", "_tags": {"ele": "1591", "name": "Côte Belle", "natural": "peak"}}, {"name": "Rocher de Barras", "latitude": 44.452554, "longitude": 5.8827227, "elevation": 1552.0, "source": "osm", "_tags": {"ele": "1552", "name": "Rocher de Barras", "natural": "peak"}}, {"name": "L'Aiglon", "latitude": 44.4475891, "longitude": 5.8816043, "elevation": 1628.0, "source": "osm", "_tags": {"ele": "1628", "name": "L'Aiglon", "natural": "peak"}}, {"name": "La Croix", "latitude": 44.4508373, "longitude": 5.8788272, "elevation": 1661.0, "source": "osm", "_tags": {"ele": "1661", "name": "La Croix", "natural": "peak"}}, {"name": "La Charousse", "latitude": 44.4931931, "longitude": 5.0724058, "elevation": 750.0, "source": "osm", "_tags": {"ele": "750", "name": "La Charousse", "natural": "peak"}}, {"name": "Tête du Jardin", "latitude": 44.7665786, "longitude": 5.5104528, "elevation": 1820.0, "source": "osm", "_tags": {"ele": "1820", "name": "Tête du Jardin", "natural": "peak"}}, {"name": "Tête du Peyssé", "latitude": 44.7702814, "longitude": 5.5064973, "elevation": 1781.0, "source": "osm", "_tags": {"ele": "1781", "name": "Tête du Peyssé", "natural": "peak"}}, {"name": "Rocher des Aures", "latitude": 44.469906, "longitude": 5.0593127, "elevation": 771.0, "source": "osm", "_tags": {"ele": "771", "name": "Rocher des Aures", "natural": "peak"}}, {"name": "Bec de Châtelus", "latitude": 45.0588765, "longitude": 5.3875452, "elevation": 907.0, "source": "osm", "_tags": {"ele": "907", "name": "Bec de Châtelus", "natural": "peak"}}, {"name": "", "latitude": 44.9003295, "longitude": 5.6607954, "elevation": null, "source": "osm", "_tags": {"natural": "peak"}}, {"name": "Le Château", "latitude": 44.6241535, "longitude": 5.3426676, "elevation": null, "source": "osm", "_tags": {"name": "Le Château", "natural": "peak", "source": "IGN - 2022-06"}}, {"name": "Tête Noire", "latitude": 44.8278656, "longitude": 5.072875, "elevation": 960.0, "source": "osm", "_tags": {"ele": "960", "name": "Tête Noire", "natural": "peak"}}, {"name": "Pré de Rencurel", "latitude": 45.2190713, "longitude": 5.7021883, "elevation": 765.0, "source": "osm", "_tags": {"ele": "765", "name": "Pré de Rencurel", "natural": "peak"}}, {"name": "Le Grand Regardou", "latitude": 45.3880942, "longitude": 5.5574244, "elevation": 787.0, "source": "osm", "_tags": {"ele": "787", "name": "Le Grand Regardou", "natural": "peak", "source": "IGN - 2022-06"}}, {"name": "La Grande Porte", "latitude": 45.3883947, "longitude": 5.5509739, "elevation": 777.0, "source": "osm", "_tags": {"ele": "777", "name": "La Grande Porte", "natural": "peak", "source": "IGN - 2022-06"}}, {"name": "La Tête de la Femme", "latitude": 45.3900289, "longitude": 5.5454327, "elevation": 787.0, "source": "osm", "_tags": {"ele": "787", "name": "La Tête de la Femme", "natural": "peak", "source": "IGN - 2022-06"}}, {"name": "Serre Gros", "latitude": 44.5608813, "longitude": 5.042846, "elevation": 971.0, "source": "osm", "_tags": {"ele": "971", "name": "Serre Gros", "natural": "peak", "tourism": "viewpoint"}}, {"name": "Mont Gerbier", "latitude": 45.0250683, "longitude": 5.5889839, "elevation": 2109.0, "source": "osm", "_tags": {"ele": "2109", "name": "Mont Gerbier", "natural": "peak"}}, {"name": "Mont Rachais", "latitude": 45.218456, "longitude": 5.7334802, "elevation": 1046.0, "source": "osm", "_tags": {"ele": "1046", "name": "Mont Rachais", "natural": "peak", "summit:cross": "yes", "summit:register": "no", "wikidata": "Q3416060", "wikipedia": "fr:Mont Rachais"}}, {"name": "L'Écoutoux", "latitude": 45.252951, "longitude": 5.7578116, "elevation": 1407.0, "source": "osm", "_tags": {"ele": "1407", "name": "L'Écoutoux", "natural": "peak", "summit:cross": "no", "tourism": "viewpoint", "wikidata": "Q3578842", "wikipedia": "fr:Écoutoux"}}, {"name": "Beauregard", "latitude": 45.0141084, "longitude": 5.740534, "elevation": 1633.0, "source": "osm", "_tags": {"ele": "1633", "name": "Beauregard", "natural": "peak"}}, {"name": "Pierre Plantée", "latitude": 44.9294156, "longitude": 5.7448414, "elevation": 1560.0, "source": "osm", "_tags": {"ele": "1560", "name": "Pierre Plantée", "natural": "peak"}}, {"name": "Bellevue", "latitude": 45.1001385, "longitude": 5.767561, "elevation": 733.0, "source": "osm", "_tags": {"ele": "733", "name": "Bellevue", "natural": "peak", "tourism": "viewpoint"}}, {"name": "Roche de Méaudre", "latitude": 45.1374231, "longitude": 5.4933704, "elevation": 1628.0, "source": "osm", "_tags": {"ele": "1628", "name": "Roche de Méaudre", "natural": "peak"}}, {"name": "Le Sénépy", "latitude": 44.908152, "longitude": 5.7211721, "elevation": 1769.0, "source": "osm", "_tags": {"alt_name": "Le Sénépi", "ele": "1769", "name": "Le Sénépy", "natural": "peak", "wikidata": "Q7666046"}}, {"name": "Mollard Gargot", "latitude": 45.1965826, "longitude": 5.6483682, "elevation": 1069.0, "source": "osm", "_tags": {"ele": "1069", "name": "Mollard Gargot", "natural": "peak"}}, {"name": "Charande", "latitude": 45.1864372, "longitude": 5.5923908, "elevation": 1709.0, "source": "osm", "_tags": {"ele": "1709", "name": "Charande", "natural": "peak", "wikidata": "Q31659323"}}, {"name": "But Saint-Genix", "latitude": 44.8302236, "longitude": 5.3314702, "elevation": 1644.0, "source": "osm", "_tags": {"ele": "1644", "name": "But Saint-Genix", "name:oc": "But Sant Geneis", "natural": "peak", "source:name:oc": "ieo-bdtopoc", "wikidata": "Q31631050"}}, {"name": "", "latitude": 44.6109757, "longitude": 5.1248017, "elevation": 651.0, "source": "osm", "_tags": {"ele": "651", "natural": "peak"}}, {"name": "Montagne de Haute Huche", "latitude": 44.480216, "longitude": 5.4346276, "elevation": 1166.0, "source": "osm", "_tags": {"ele": "1166", "name": "Montagne de Haute Huche", "name:oc": "Montanha d'Autucha", "natural": "peak", "source:name:oc": "ieo-bdtopoc"}}, {"name": "", "latitude": 44.5891614, "longitude": 5.3871426, "elevation": 1471.0, "source": "osm", "_tags": {"ele": "1471", "natural": "peak"}}, {"name": "Dent du Passet", "latitude": 44.4392853, "longitude": 5.4919363, "elevation": 1182.0, "source": "osm", "_tags": {"ele": "1182", "name": "Dent du Passet", "name:oc": "Dent dau Passet", "natural": "peak", "source:name:oc": "ieo-bdtopoc"}}, {"name": "Piégros", "latitude": 44.4540686, "longitude": 5.4647091, "elevation": 1250.0, "source": "osm", "_tags": {"ele": "1250", "name": "Piégros", "name:oc": "Pueigròs", "natural": "peak", "source:name:oc": "ieo-bdtopoc"}}, {"name": "Montagne Durbonas", "latitude": 44.6114267, "longitude": 5.7595486, "elevation": 2086.0, "source": "osm", "_tags": {"ele": "2086", "name": "Montagne Durbonas", "natural": "peak"}}, {"name": "Montagne de Raton", "latitude": 44.43315, "longitude": 5.4423587, "elevation": 1473.0, "source": "osm", "_tags": {"ele": "1473", "name": "Montagne de Raton", "name:oc": "Montanha de Raton", "natural": "peak", "source:name:oc": "ieo-bdtopoc"}}, {"name": "", "latitude": 44.4447382, "longitude": 5.617111, "elevation": 1645.0, "source": "osm", "_tags": {"ele": "1645", "natural": "peak"}}, {"name": "La Grande Moucherolle", "latitude": 45.0049158, "longitude": 5.5641793, "elevation": 2285.0, "source": "osm", "_tags": {"ele": "2285", "name": "La Grande Moucherolle", "natural": "peak", "wikidata": "Q3114991", "wikipedia": "fr:La Grande Moucherolle"}}, {"name": "", "latitude": 44.7753822, "longitude": 5.6050128, "elevation": null, "source": "osm", "_tags": {"natural": "peak"}}, {"name": "Roc de Saou", "latitude": 44.6448317, "longitude": 5.0676263, "elevation": 501.0, "source": "osm", "_tags": {"ele": "501", "name": "Roc de Saou", "natural": "peak"}}, {"name": "", "latitude": 45.1419124, "longitude": 5.6378207, "elevation": 1872.0, "source": "osm", "_tags": {"ele": "1872", "natural": "peak"}}, {"name": "Rochers de Bournette", "latitude": 44.9274024, "longitude": 5.3497162, "elevation": 1591.0, "source": "osm", "_tags": {"ele": "1591", "name": "Rochers de Bournette", "natural": "peak"}}, {"name": "Merly", "latitude": 44.7949553, "longitude": 5.1913174, "elevation": 959.0, "source": "osm", "_tags": {"ele": "959", "name": "Merly", "natural": "peak"}}, {"name": "Eylu", "latitude": 44.7908806, "longitude": 5.2030881, "elevation": 879.0, "source": "osm", "_tags": {"ele": "879", "name": "Eylu", "natural": "peak", "survey:date": "2025-03-01"}}, {"name": "Fonds Julias", "latitude": 44.7834709, "longitude": 5.1951081, "elevation": 822.0, "source": "osm", "_tags": {"ele": "822", "name": "Fonds Julias", "natural": "peak"}}, {"name": "le Petit Roussilon", "latitude": 44.9042967, "longitude": 5.857365, "elevation": 1009.0, "source": "osm", "_tags": {"ele": "1009", "name": "le Petit Roussilon", "natural": "peak"}}, {"name": "Serre Vulson", "latitude": 44.8341918, "longitude": 5.7268115, "elevation": 1074.0, "source": "osm", "_tags": {"ele": "1074", "name": "Serre Vulson", "natural": "peak"}}, {"name": "Grand Fays", "latitude": 44.8313412, "longitude": 5.698, "elevation": 1105.0, "source": "osm", "_tags": {"ele": "1105", "name": "Grand Fays", "natural": "peak"}}, {"name": "Beauregard", "latitude": 45.0995047, "longitude": 5.6898072, "elevation": 351.0, "source": "osm", "_tags": {"ele": "351", "name": "Beauregard", "natural": "peak"}}, {"name": "Giberja", "latitude": 44.7691861, "longitude": 5.1345414, "elevation": 390.0, "source": "osm", "_tags": {"ele": "390", "name": "Giberja", "natural": "peak"}}, {"name": "", "latitude": 45.2120456, "longitude": 5.6295571, "elevation": null, "source": "osm", "_tags": {"natural": "peak"}}, {"name": "", "latitude": 44.8732095, "longitude": 5.4564103, "elevation": 1525.0, "source": "osm", "_tags": {"ele": "1525", "natural": "peak"}}, {"name": "1526", "latitude": 44.8693926, "longitude": 5.4656586, "elevation": null, "source": "osm", "_tags": {"name": "1526", "natural": "peak"}}, {"name": "", "latitude": 44.8774063, "longitude": 5.4645643, "elevation": 1535.0, "source": "osm", "_tags": {"ele": "1535", "natural": "peak"}}, {"name": "", "latitude": 44.8815116, "longitude": 5.4813012, "elevation": 1546.0, "source": "osm", "_tags": {"ele": "1546", "natural": "peak"}}, {"name": "", "latitude": 44.8841723, "longitude": 5.4833826, "elevation": 1558.0, "source": "osm", "_tags": {"ele": "1558", "natural": "peak"}}, {"name": "", "latitude": 44.8851605, "longitude": 5.4869661, "elevation": 1566.0, "source": "osm", "_tags": {"ele": "1566", "natural": "peak"}}, {"name": "", "latitude": 44.8876842, "longitude": 5.5003342, "elevation": 1637.0, "source": "osm", "_tags": {"ele": "1637", "natural": "peak"}}, {"name": "", "latitude": 44.8952698, "longitude": 5.4777822, "elevation": 1545.0, "source": "osm", "_tags": {"ele": "1545", "natural": "peak"}}, {"name": "", "latitude": 44.8918799, "longitude": 5.496901, "elevation": 1646.0, "source": "osm", "_tags": {"ele": "1646", "natural": "peak"}}, {"name": "", "latitude": 44.898401, "longitude": 5.490056, "elevation": 1569.0, "source": "osm", "_tags": {"ele": "1569", "natural": "peak"}}, {"name": "Serrelong", "latitude": 44.7802894, "longitude": 4.9584543, "elevation": 281.0, "source": "osm", "_tags": {"ele": "281", "name": "Serrelong", "natural": "peak"}}, {"name": "", "latitude": 44.8912532, "longitude": 5.5782675, "elevation": null, "source": "osm", "_tags": {"man_made": "cross", "natural": "peak", "summit:cross": "yes"}}, {"name": "Serre de Chabanas", "latitude": 44.7015437, "longitude": 4.8896759, "elevation": null, "source": "osm", "_tags": {"name": "Serre de Chabanas", "natural": "peak", "source": "IGN - 2024-03-15"}}, {"name": "Serre Saint-Paulet", "latitude": 44.5469349, "longitude": 4.9535953, "elevation": null, "source": "osm", "_tags": {"name": "Serre Saint-Paulet", "natural": "peak", "source": "IGN - 2024-03-15"}}, {"name": "les Voultourets", "latitude": 44.8727587, "longitude": 5.0669809, "elevation": null, "source": "osm", "_tags": {"name": "les Voultourets", "natural": "peak", "source": "IGN - 2024-03-15"}}, {"name": "Malombre", "latitude": 44.7801815, "longitude": 5.0577381, "elevation": null, "source": "osm", "_tags": {"name": "Malombre", "natural": "peak", "source": "IGN - 2024-03-15"}}, {"name": "Serre de Darne", "latitude": 44.6738326, "longitude": 4.8972299, "elevation": null, "source": "osm", "_tags": {"name": "Serre de Darne", "natural": "peak", "source": "IGN - 2024-03-15"}}, {"name": "La Motte", "latitude": 44.6164106, "longitude": 4.9791836, "elevation": null, "source": "osm", "_tags": {"name": "La Motte", "natural": "peak", "source": "IGN - 2024-03-15"}}, {"name": "Serre Charlon", "latitude": 44.739829, "longitude": 4.8929365, "elevation": null, "source": "osm", "_tags": {"name": "Serre Charlon", "natural": "peak", "source": "IGN - 2024-03-15"}}, {"name": "La Garenne", "latitude": 44.7716242, "longitude": 4.9443903, "elevation": null, "source": "osm", "_tags": {"name": "La Garenne", "natural": "peak", "source": "IGN - 2024-03-15"}}, {"name": "Pierris", "latitude": 44.5482464, "longitude": 4.940504, "elevation": null, "source": "osm", "_tags": {"name": "Pierris", "natural": "peak", "source": "IGN - 2024-03-15"}}, {"name": "Chalaye", "latitude": 44.604886, "longitude": 4.9516106, "elevation": null, "source": "osm", "_tags": {"name": "Chalaye", "natural": "peak", "source": "IGN - 2024-03-15"}}, {"name": "Serre de Cogne", "latitude": 44.7725526, "longitude": 4.9651785, "elevation": null, "source": "osm", "_tags": {"name": "Serre de Cogne", "natural": "peak", "source": "IGN - 2024-03-15"}}, {"name": "Payoursel", "latitude": 44.8085807, "longitude": 5.0450865, "elevation": null, "source": "osm", "_tags": {"name": "Payoursel", "natural": "peak", "source": "IGN - 2024-03-15"}}, {"name": "Serre de Trémoulet", "latitude": 44.6901508, "longitude": 4.8958936, "elevation": null, "source": "osm", "_tags": {"name": "Serre de Trémoulet", "natural": "peak", "source": "IGN - 2024-03-15"}}, {"name": "Malimberte", "latitude": 44.8646603, "longitude": 5.0640157, "elevation": null, "source": "osm", "_tags": {"name": "Malimberte", "natural": "peak", "source": "IGN - 2024-03-15"}}, {"name": "Vaumane", "latitude": 44.6509258, "longitude": 4.9800905, "elevation": null, "source": "osm", "_tags": {"name": "Vaumane", "natural": "peak", "source": "IGN - 2024-03-15"}}, {"name": "Les Chapelles", "latitude": 44.5766784, "longitude": 4.9635793, "elevation": null, "source": "osm", "_tags": {"name": "Les Chapelles", "natural": "peak", "source": "IGN - 2024-03-15"}}, {"name": "Calot", "latitude": 44.5757489, "longitude": 4.8880259, "elevation": null, "source": "osm", "_tags": {"name": "Calot", "natural": "peak", "source": "IGN - 2024-03-15"}}, {"name": "Serre Raspan", "latitude": 44.6307519, "longitude": 5.0224158, "elevation": null, "source": "osm", "_tags": {"name": "Serre Raspan", "natural": "peak", "source": "IGN - 2024-03-15"}}, {"name": "Serre Peloux", "latitude": 44.8844695, "longitude": 5.0497534, "elevation": null, "source": "osm", "_tags": {"name": "Serre Peloux", "natural": "peak", "source": "IGN - 2024-03-15"}}, {"name": "Les Bocances", "latitude": 44.931595, "longitude": 5.1045632, "elevation": null, "source": "osm", "_tags": {"name": "Les Bocances", "natural": "peak", "source": "IGN - 2024-03-15"}}, {"name": "Serre de Gland", "latitude": 44.5825985, "longitude": 4.9443278, "elevation": null, "source": "osm", "_tags": {"name": "Serre de Gland", "natural": "peak", "source": "IGN - 2024-03-15"}}, {"name": "Montagne de Sainte-Euphémie", "latitude": 44.6095106, "longitude": 5.0007408, "elevation": null, "source": "osm", "_tags": {"name": "Montagne de Sainte-Euphémie", "natural": "peak", "source": "IGN - 2024-03-15"}}, {"name": "Les Côtes", "latitude": 44.6029614, "longitude": 4.9876449, "elevation": null, "source": "osm", "_tags": {"name": "Les Côtes", "natural": "peak", "source": "IGN - 2024-03-15"}}, {"name": "Pichetete", "latitude": 44.9042431, "longitude": 5.1074241, "elevation": null, "source": "osm", "_tags": {"name": "Pichetete", "natural": "peak", "source": "IGN - 2024-03-15"}}, {"name": "Montagne d'Eson", "latitude": 44.6172282, "longitude": 5.0267964, "elevation": null, "source": "osm", "_tags": {"name": "Montagne d'Eson", "natural": "peak", "source": "IGN - 2024-03-15"}}, {"name": "Menerault", "latitude": 44.8865207, "longitude": 5.0952397, "elevation": null, "source": "osm", "_tags": {"name": "Menerault", "natural": "peak", "source": "IGN - 2024-03-15"}}, {"name": "Serre Gealat", "latitude": 44.6856497, "longitude": 4.9048712, "elevation": null, "source": "osm", "_tags": {"name": "Serre Gealat", "natural": "peak", "source": "IGN - 2024-03-15"}}, {"name": "La Motte", "latitude": 44.5856292, "longitude": 4.9497196, "elevation": null, "source": "osm", "_tags": {"name": "La Motte", "natural": "peak", "source": "IGN - 2024-03-15"}}, {"name": "Cabanas", "latitude": 44.6257403, "longitude": 4.9994441, "elevation": null, "source": "osm", "_tags": {"name": "Cabanas", "natural": "peak", "source": "IGN - 2024-03-15"}}, {"name": "Saint-Rome", "latitude": 44.5746098, "longitude": 4.9106461, "elevation": null, "source": "osm", "_tags": {"name": "Saint-Rome", "natural": "peak", "source": "IGN - 2024-03-15"}}, {"name": "L'Estan", "latitude": 44.6338065, "longitude": 4.9952138, "elevation": null, "source": "osm", "_tags": {"name": "L'Estan", "natural": "peak", "source": "IGN - 2024-03-15"}}, {"name": "La Pigne", "latitude": 44.6305914, "longitude": 4.9833551, "elevation": null, "source": "osm", "_tags": {"name": "La Pigne", "natural": "peak", "source": "IGN - 2024-03-15"}}, {"name": "Serre la Lauze", "latitude": 44.6867022, "longitude": 4.8905526, "elevation": null, "source": "osm", "_tags": {"name": "Serre la Lauze", "natural": "peak", "source": "IGN - 2024-03-15"}}, {"name": "La Motte", "latitude": 44.6548487, "longitude": 5.0243632, "elevation": null, "source": "osm", "_tags": {"name": "La Motte", "natural": "peak", "source": "IGN - 2024-03-15"}}, {"name": "Maniaudet", "latitude": 44.8626662, "longitude": 5.0580094, "elevation": null, "source": "osm", "_tags": {"name": "Maniaudet", "natural": "peak", "source": "IGN - 2024-03-15"}}, {"name": "Mont Peroux", "latitude": 44.9971047, "longitude": 5.0808465, "elevation": null, "source": "osm", "_tags": {"name": "Mont Peroux", "natural": "peak", "source": "IGN - 2024-03-15"}}, {"name": "Serre des Griottes", "latitude": 44.605334, "longitude": 4.9739934, "elevation": null, "source": "osm", "_tags": {"name": "Serre des Griottes", "natural": "peak", "source": "IGN - 2024-03-15"}}, {"name": "Courmaut", "latitude": 44.7695169, "longitude": 5.0412512, "elevation": null, "source": "osm", "_tags": {"name": "Courmaut", "natural": "peak", "source": "IGN - 2024-03-15"}}, {"name": "Serre Vivier", "latitude": 44.5824516, "longitude": 4.9791226, "elevation": null, "source": "osm", "_tags": {"name": "Serre Vivier", "natural": "peak", "source": "IGN - 2024-03-15"}}, {"name": "Puy Agut", "latitude": 44.9195552, "longitude": 5.1270083, "elevation": null, "source": "osm", "_tags": {"name": "Puy Agut", "natural": "peak", "source": "IGN - 2024-03-15"}}, {"name": "Les Chabrettes", "latitude": 44.917499, "longitude": 5.1200268, "elevation": null, "source": "osm", "_tags": {"name": "Les Chabrettes", "natural": "peak", "source": "IGN - 2024-03-15"}}, {"name": "Les Faujoux", "latitude": 44.9152494, "longitude": 5.1225111, "elevation": null, "source": "osm", "_tags": {"name": "Les Faujoux", "natural": "peak", "source": "IGN - 2024-03-15"}}, {"name": "Les Boisses", "latitude": 44.9132411, "longitude": 5.1218407, "elevation": null, "source": "osm", "_tags": {"name": "Les Boisses", "natural": "peak", "source": "IGN - 2024-03-15"}}, {"name": "Le Grand Bois", "latitude": 44.5809378, "longitude": 4.9675807, "elevation": null, "source": "osm", "_tags": {"name": "Le Grand Bois", "natural": "peak", "source": "IGN - 2024-03-15"}}, {"name": "Chauvet", "latitude": 44.7827131, "longitude": 5.0696381, "elevation": null, "source": "osm", "_tags": {"name": "Chauvet", "natural": "peak", "source": "IGN - 2024-03-15"}}, {"name": "Serre des Tantes", "latitude": 44.802337, "longitude": 4.9210846, "elevation": null, "source": "osm", "_tags": {"name": "Serre des Tantes", "natural": "peak", "source": "IGN - 2024-03-15"}}, {"name": "Mont Rôti", "latitude": 44.9471586, "longitude": 5.1395288, "elevation": null, "source": "osm", "_tags": {"name": "Mont Rôti", "natural": "peak", "source": "IGN - 2024-03-15"}}, {"name": "Serre Pugnet", "latitude": 44.5791039, "longitude": 4.9284906, "elevation": null, "source": "osm", "_tags": {"name": "Serre Pugnet", "natural": "peak", "source": "IGN - 2024-03-15"}}, {"name": "Gornier", "latitude": 44.7688127, "longitude": 5.0530932, "elevation": null, "source": "osm", "_tags": {"name": "Gornier", "natural": "peak", "source": "IGN - 2024-03-15"}}, {"name": "Paillasson", "latitude": 44.6460681, "longitude": 5.0076194, "elevation": null, "source": "osm", "_tags": {"name": "Paillasson", "natural": "peak", "source": "IGN - 2024-03-15"}}, {"name": "Beaugontard", "latitude": 44.8651701, "longitude": 5.0473366, "elevation": null, "source": "osm", "_tags": {"name": "Beaugontard", "natural": "peak", "source": "IGN - 2024-03-15"}}, {"name": "Totet", "latitude": 44.963348, "longitude": 5.1707437, "elevation": null, "source": "osm", "_tags": {"name": "Totet", "natural": "peak", "source": "IGN - 2024-03-15"}}, {"name": "Serre Bibiot", "latitude": 44.8025841, "longitude": 4.9050938, "elevation": null, "source": "osm", "_tags": {"name": "Serre Bibiot", "natural": "peak", "source": "IGN - 2024-03-15"}}, {"name": "Les Buissonnées", "latitude": 44.9424214, "longitude": 5.1428267, "elevation": null, "source": "osm", "_tags": {"name": "Les Buissonnées", "natural": "peak", "source": "IGN - 2024-03-15"}}, {"name": "La Rochette", "latitude": 44.6390017, "longitude": 4.9932169, "elevation": null, "source": "osm", "_tags": {"name": "La Rochette", "natural": "peak", "source": "IGN - 2024-03-15"}}, {"name": "Serre Lotie", "latitude": 44.6322247, "longitude": 5.0062802, "elevation": null, "source": "osm", "_tags": {"name": "Serre Lotie", "natural": "peak", "source": "IGN - 2024-03-15"}}, {"name": "Serre de Peilles", "latitude": 44.8315283, "longitude": 4.9304017, "elevation": null, "source": "osm", "_tags": {"name": "Serre de Peilles", "natural": "peak", "source": "IGN - 2024-03-15"}}, {"name": "Serre de Garde", "latitude": 44.7984212, "longitude": 4.9315086, "elevation": null, "source": "osm", "_tags": {"name": "Serre de Garde", "natural": "peak", "source": "IGN - 2024-03-15"}}, {"name": "Coteau des Reines", "latitude": 44.8413308, "longitude": 4.9203069, "elevation": null, "source": "osm", "_tags": {"name": "Coteau des Reines", "natural": "peak", "source": "IGN - 2024-03-15"}}, {"name": "Pied Bazi", "latitude": 44.6169634, "longitude": 4.9921239, "elevation": null, "source": "osm", "_tags": {"name": "Pied Bazi", "natural": "peak", "source": "IGN - 2024-03-15"}}, {"name": "Serre de l'Âne", "latitude": 44.8837352, "longitude": 5.1000891, "elevation": null, "source": "osm", "_tags": {"name": "Serre de l'Âne", "natural": "peak", "source": "IGN - 2024-03-15"}}, {"name": "Château Gaillard", "latitude": 44.9855773, "longitude": 5.1322399, "elevation": null, "source": "osm", "_tags": {"name": "Château Gaillard", "natural": "peak", "source": "IGN - 2024-03-15"}}, {"name": "Le Peu", "latitude": 44.9717372, "longitude": 5.1445098, "elevation": null, "source": "osm", "_tags": {"name": "Le Peu", "natural": "peak", "source": "IGN - 2024-03-15"}}, {"name": "Charpenanche", "latitude": 44.7922241, "longitude": 5.0744378, "elevation": null, "source": "osm", "_tags": {"name": "Charpenanche", "natural": "peak", "source": "IGN - 2024-03-15"}}, {"name": "Serre de Liotard", "latitude": 44.8026898, "longitude": 4.9241098, "elevation": null, "source": "osm", "_tags": {"name": "Serre de Liotard", "natural": "peak", "source": "IGN - 2024-03-15"}}, {"name": "Genebroux", "latitude": 44.9257603, "longitude": 5.0589441, "elevation": null, "source": "osm", "_tags": {"name": "Genebroux", "natural": "peak", "source": "IGN - 2024-03-15"}}, {"name": "Osselet", "latitude": 44.8567079, "longitude": 5.0543912, "elevation": null, "source": "osm", "_tags": {"name": "Osselet", "natural": "peak", "source": "IGN - 2024-03-15"}}, {"name": "Malo", "latitude": 44.9020123, "longitude": 5.1195848, "elevation": null, "source": "osm", "_tags": {"name": "Malo", "natural": "peak", "source": "IGN - 2024-03-15"}}, {"name": "La Condamine", "latitude": 44.9822642, "longitude": 5.1757891, "elevation": null, "source": "osm", "_tags": {"name": "La Condamine", "natural": "peak", "source": "IGN - 2024-03-15"}}, {"name": "Chalamet", "latitude": 44.7786814, "longitude": 5.067445, "elevation": null, "source": "osm", "_tags": {"name": "Chalamet", "natural": "peak", "source": "IGN - 2024-03-15"}}, {"name": "Saint-Denis", "latitude": 44.7802316, "longitude": 5.0494903, "elevation": null, "source": "osm", "_tags": {"name": "Saint-Denis", "natural": "peak", "source": "IGN - 2024-03-15"}}, {"name": "Les Côtes de Sevaines", "latitude": 44.5924865, "longitude": 5.0099824, "elevation": null, "source": "osm", "_tags": {"name": "Les Côtes de Sevaines", "natural": "peak", "source": "IGN - 2024-03-15"}}, {"name": "Les Baumettes", "latitude": 44.9398989, "longitude": 5.1354638, "elevation": null, "source": "osm", "_tags": {"name": "Les Baumettes", "natural": "peak", "source": "IGN - 2024-03-15"}}, {"name": "Serre Gontard", "latitude": 44.7692127, "longitude": 5.0623483, "elevation": null, "source": "osm", "_tags": {"name": "Serre Gontard", "natural": "peak", "source": "IGN - 2024-03-15"}}, {"name": "Pelaf", "latitude": 44.9573751, "longitude": 5.1479905, "elevation": null, "source": "osm", "_tags": {"name": "Pelaf", "natural": "peak", "source": "IGN - 2024-03-15"}}, {"name": "Côte Ballon", "latitude": 44.9386863, "longitude": 5.1307395, "elevation": null, "source": "osm", "_tags": {"name": "Côte Ballon", "natural": "peak", "source": "IGN - 2024-03-15"}}, {"name": "Le Couteau", "latitude": 45.163187, "longitude": 5.6406342, "elevation": 1416.0, "source": "osm", "_tags": {"ele": "1416", "name": "Le Couteau", "natural": "peak"}}, {"name": "Dent Gérard", "latitude": 45.1635676, "longitude": 5.6403586, "elevation": 1450.0, "source": "osm", "_tags": {"ele": "1450", "name": "Dent Gérard", "natural": "peak"}}, {"name": "Pucelle de Saint Nizier", "latitude": 45.163066, "longitude": 5.639608, "elevation": 1444.0, "source": "osm", "_tags": {"ele": "1444", "name": "Pucelle de Saint Nizier", "natural": "peak"}}, {"name": "Grande pucelle", "latitude": 45.162723, "longitude": 5.6397962, "elevation": 1457.0, "source": "osm", "_tags": {"ele": "1457", "name": "Grande pucelle", "natural": "peak"}}, {"name": "Cachan", "latitude": 44.5368643, "longitude": 4.8986523, "elevation": null, "source": "osm", "_tags": {"name": "Cachan", "natural": "peak", "source": "IGN - 2024-03-15"}}, {"name": "Serre Saint-Martin", "latitude": 44.4317524, "longitude": 4.9626331, "elevation": null, "source": "osm", "_tags": {"name": "Serre Saint-Martin", "natural": "peak", "source": "IGN - 2024-03-15"}}, {"name": "Vire Vieille", "latitude": 44.4832301, "longitude": 4.8947148, "elevation": null, "source": "osm", "_tags": {"name": "Vire Vieille", "natural": "peak", "source": "IGN - 2024-03-15"}}, {"name": "Serre Plat", "latitude": 44.4775446, "longitude": 4.9250194, "elevation": null, "source": "osm", "_tags": {"name": "Serre Plat", "natural": "peak", "source": "IGN - 2024-03-15"}}, {"name": "Serre Colon", "latitude": 44.4808196, "longitude": 4.9054758, "elevation": null, "source": "osm", "_tags": {"name": "Serre Colon", "natural": "peak", "source": "IGN - 2024-03-15"}}, {"name": "Serre des Lèches", "latitude": 44.4732409, "longitude": 4.8986583, "elevation": null, "source": "osm", "_tags": {"name": "Serre des Lèches", "natural": "peak", "source": "IGN - 2024-03-15"}}, {"name": "Serre du Fraysse", "latitude": 44.4701609, "longitude": 4.8852491, "elevation": null, "source": "osm", "_tags": {"name": "Serre du Fraysse", "natural": "peak", "source": "IGN - 2024-03-15"}}, {"name": "Serre de la Verrière", "latitude": 44.5008002, "longitude": 4.9320361, "elevation": null, "source": "osm", "_tags": {"name": "Serre de la Verrière", "natural": "peak", "source": "IGN - 2024-03-15"}}, {"name": "Montagne de la Série", "latitude": 44.4878161, "longitude": 4.9347055, "elevation": null, "source": "osm", "_tags": {"name": "Montagne de la Série", "natural": "peak", "source": "IGN - 2024-03-15"}}, {"name": "La Sauce", "latitude": 44.4917911, "longitude": 4.925638, "elevation": null, "source": "osm", "_tags": {"name": "La Sauce", "natural": "peak", "source": "IGN - 2024-03-15"}}, {"name": "Serre de la Fougère", "latitude": 44.4967263, "longitude": 4.921628, "elevation": null, "source": "osm", "_tags": {"name": "Serre de la Fougère", "natural": "peak", "source": "IGN - 2024-03-15"}}, {"name": "Serre Guillot", "latitude": 44.5037267, "longitude": 4.9197119, "elevation": null, "source": "osm", "_tags": {"name": "Serre Guillot", "natural": "peak", "source": "IGN - 2024-03-15"}}, {"name": "Serre de Ciersa", "latitude": 44.5103625, "longitude": 4.9294599, "elevation": null, "source": "osm", "_tags": {"name": "Serre de Ciersa", "natural": "peak", "source": "IGN - 2024-03-15"}}, {"name": "Mativet", "latitude": 44.5233758, "longitude": 4.9201998, "elevation": null, "source": "osm", "_tags": {"name": "Mativet", "natural": "peak", "source": "IGN - 2024-03-15"}}, {"name": "Serre de Mirabel", "latitude": 44.5169559, "longitude": 4.9142576, "elevation": null, "source": "osm", "_tags": {"name": "Serre de Mirabel", "natural": "peak", "source": "IGN - 2024-03-15"}}, {"name": "Serre Pointu", "latitude": 44.5119964, "longitude": 4.9093527, "elevation": null, "source": "osm", "_tags": {"name": "Serre Pointu", "natural": "peak", "source": "IGN - 2024-03-15"}}, {"name": "Serre de la Dame", "latitude": 44.4990688, "longitude": 4.9111881, "elevation": null, "source": "osm", "_tags": {"name": "Serre de la Dame", "natural": "peak", "source": "IGN - 2024-03-15"}}, {"name": "Serre Gros", "latitude": 44.5013094, "longitude": 4.8980891, "elevation": null, "source": "osm", "_tags": {"name": "Serre Gros", "natural": "peak", "source": "IGN - 2024-03-15"}}, {"name": "Le Chênevier", "latitude": 44.4957548, "longitude": 4.9047503, "elevation": null, "source": "osm", "_tags": {"name": "Le Chênevier", "natural": "peak", "source": "IGN - 2024-03-15"}}, {"name": "Hauthueche", "latitude": 44.4949685, "longitude": 4.8956632, "elevation": null, "source": "osm", "_tags": {"name": "Hauthueche", "natural": "peak", "source": "IGN - 2024-03-15"}}, {"name": "Odoir", "latitude": 44.4432296, "longitude": 5.0464031, "elevation": null, "source": "osm", "_tags": {"name": "Odoir", "natural": "peak", "source": "IGN - 2024-03-15"}}, {"name": "Piégu", "latitude": 44.4378677, "longitude": 5.047828, "elevation": null, "source": "osm", "_tags": {"name": "Piégu", "natural": "peak", "source": "IGN - 2024-03-15"}}, {"name": "Le Châtelard", "latitude": 44.4321613, "longitude": 5.027667, "elevation": null, "source": "osm", "_tags": {"name": "Le Châtelard", "natural": "peak", "source": "IGN - 2024-03-15"}}, {"name": "Serre Lachaud", "latitude": 44.4576293, "longitude": 5.1927984, "elevation": null, "source": "osm", "_tags": {"name": "Serre Lachaud", "natural": "peak", "source": "IGN - 2024-03-15"}}, {"name": "Les Margillères", "latitude": 44.4429024, "longitude": 5.1895525, "elevation": null, "source": "osm", "_tags": {"name": "Les Margillères", "natural": "peak", "source": "IGN - 2024-03-15"}}, {"name": "Montagne Reyssas", "latitude": 44.4377363, "longitude": 5.187858, "elevation": null, "source": "osm", "_tags": {"name": "Montagne Reyssas", "natural": "peak", "source": "IGN - 2024-03-15"}}, {"name": "Clos du Puits", "latitude": 44.4343909, "longitude": 5.145592, "elevation": 1091.0, "source": "osm", "_tags": {"ele": "1091", "name": "Clos du Puits", "natural": "peak", "source": "IGN - 2024-03-15"}}, {"name": "Montagne de Sauveginoux", "latitude": 44.4381482, "longitude": 5.1485299, "elevation": 972.0, "source": "osm", "_tags": {"ele": "972", "name": "Montagne de Sauveginoux", "natural": "peak", "source": "IGN - 2024-03-15"}}, {"name": "Montagne de Roubiouse", "latitude": 44.4386855, "longitude": 5.1665639, "elevation": 859.0, "source": "osm", "_tags": {"ele": "859", "name": "Montagne de Roubiouse", "natural": "peak", "source": "IGN - 2024-03-15"}}, {"name": "Molière", "latitude": 44.434807, "longitude": 4.9863838, "elevation": null, "source": "osm", "_tags": {"name": "Molière", "natural": "peak", "source": "IGN - 2024-03-15"}}, {"name": "Les Clavières", "latitude": 44.4583938, "longitude": 4.965308, "elevation": null, "source": "osm", "_tags": {"name": "Les Clavières", "natural": "peak", "source": "IGN - 2024-03-15"}}, {"name": "Beauregard", "latitude": 44.4567256, "longitude": 4.9533841, "elevation": null, "source": "osm", "_tags": {"name": "Beauregard", "natural": "peak", "source": "IGN - 2024-03-15"}}, {"name": "Serre Fauconet", "latitude": 44.4589186, "longitude": 4.9392853, "elevation": null, "source": "osm", "_tags": {"name": "Serre Fauconet", "natural": "peak", "source": "IGN - 2024-03-15"}}, {"name": "Serre du Grés", "latitude": 44.459202, "longitude": 4.9336108, "elevation": null, "source": "osm", "_tags": {"name": "Serre du Grés", "natural": "peak", "source": "IGN - 2024-03-15"}}, {"name": "Serre Enrichier", "latitude": 44.4903011, "longitude": 5.0010907, "elevation": null, "source": "osm", "_tags": {"name": "Serre Enrichier", "natural": "peak", "source": "IGN - 2024-03-15"}}, {"name": "Serre Court", "latitude": 44.4938891, "longitude": 4.9646038, "elevation": null, "source": "osm", "_tags": {"name": "Serre Court", "natural": "peak", "source": "IGN - 2024-03-15"}}, {"name": "Serre Peyrard", "latitude": 44.4868863, "longitude": 4.9598269, "elevation": null, "source": "osm", "_tags": {"name": "Serre Peyrard", "natural": "peak", "source": "IGN - 2024-03-15"}}, {"name": "Serre Froid", "latitude": 44.4799895, "longitude": 4.9551063, "elevation": null, "source": "osm", "_tags": {"name": "Serre Froid", "natural": "peak", "source": "IGN - 2024-03-15"}}, {"name": "Serre Pigière", "latitude": 44.4846455, "longitude": 5.0031483, "elevation": null, "source": "osm", "_tags": {"name": "Serre Pigière", "natural": "peak", "source": "IGN - 2024-03-15"}}, {"name": "Serre Muat", "latitude": 44.4741263, "longitude": 5.0057536, "elevation": null, "source": "osm", "_tags": {"name": "Serre Muat", "natural": "peak", "source": "IGN - 2024-03-15"}}, {"name": "Cime de Rozier", "latitude": 44.4693274, "longitude": 5.0099621, "elevation": null, "source": "osm", "_tags": {"name": "Cime de Rozier", "natural": "peak", "source": "IGN - 2024-03-15"}}, {"name": "Figanier", "latitude": 44.4562225, "longitude": 5.0016008, "elevation": null, "source": "osm", "_tags": {"name": "Figanier", "natural": "peak", "source": "IGN - 2024-03-15"}}, {"name": "La Tour de Blacon", "latitude": 44.4600108, "longitude": 5.0316319, "elevation": null, "source": "osm", "_tags": {"name": "La Tour de Blacon", "natural": "peak", "source": "IGN - 2024-03-15"}}, {"name": "Pierre Lignier", "latitude": 44.4545423, "longitude": 5.0304609, "elevation": 587.0, "source": "osm", "_tags": {"ele": "587", "name": "Pierre Lignier", "natural": "peak", "source": "IGN - 2024-03-15"}}, {"name": "La Viale", "latitude": 44.4500602, "longitude": 5.0379761, "elevation": 589.0, "source": "osm", "_tags": {"ele": "589", "name": "La Viale", "natural": "peak", "source": "IGN - 2024-03-15"}}, {"name": "Serre de Forillon", "latitude": 44.5297471, "longitude": 4.9449201, "elevation": null, "source": "osm", "_tags": {"name": "Serre de Forillon", "natural": "peak", "source": "IGN - 2024-03-15"}}, {"name": "Fort Barrau", "latitude": 44.5337448, "longitude": 4.9360865, "elevation": null, "source": "osm", "_tags": {"name": "Fort Barrau", "natural": "peak", "source": "IGN - 2024-03-15"}}, {"name": "Serre de la Dame", "latitude": 44.5248008, "longitude": 4.9406664, "elevation": null, "source": "osm", "_tags": {"name": "Serre de la Dame", "natural": "peak", "source": "IGN - 2024-03-15"}}, {"name": "Serre du Buisson", "latitude": 44.5211022, "longitude": 4.9402687, "elevation": null, "source": "osm", "_tags": {"name": "Serre du Buisson", "natural": "peak", "source": "IGN - 2024-03-15"}}, {"name": "La Grande Pigne", "latitude": 44.5181439, "longitude": 4.9504436, "elevation": null, "source": "osm", "_tags": {"name": "La Grande Pigne", "natural": "peak", "source": "IGN - 2024-03-15"}}, {"name": "Serre Court", "latitude": 44.518269, "longitude": 4.9459093, "elevation": null, "source": "osm", "_tags": {"name": "Serre Court", "natural": "peak", "source": "IGN - 2024-03-15"}}, {"name": "Serre de la Borne Française", "latitude": 44.5170947, "longitude": 4.9431013, "elevation": null, "source": "osm", "_tags": {"name": "Serre de la Borne Française", "natural": "peak", "source": "IGN - 2024-03-15"}}, {"name": "Côte Chorian", "latitude": 44.5127718, "longitude": 4.9745281, "elevation": null, "source": "osm", "_tags": {"name": "Côte Chorian", "natural": "peak", "source": "IGN - 2024-03-15"}}, {"name": "La Rige", "latitude": 44.513554, "longitude": 4.9599013, "elevation": null, "source": "osm", "_tags": {"name": "La Rige", "natural": "peak", "source": "IGN - 2024-03-15"}}, {"name": "Serre Longe", "latitude": 44.508625, "longitude": 4.9666125, "elevation": null, "source": "osm", "_tags": {"name": "Serre Longe", "natural": "peak", "source": "IGN - 2024-03-15"}}, {"name": "Serre du Pommier", "latitude": 44.5104484, "longitude": 4.9433458, "elevation": null, "source": "osm", "_tags": {"name": "Serre du Pommier", "natural": "peak", "source": "IGN - 2024-03-15"}}, {"name": "Saint-Restitut", "latitude": 44.5032969, "longitude": 4.9557141, "elevation": null, "source": "osm", "_tags": {"name": "Saint-Restitut", "natural": "peak", "source": "IGN - 2024-03-15"}}, {"name": "Les Ségnaux", "latitude": 44.5027177, "longitude": 4.9615085, "elevation": null, "source": "osm", "_tags": {"name": "Les Ségnaux", "natural": "peak", "source": "IGN - 2024-03-15"}}, {"name": "Serre Pelé", "latitude": 44.5019324, "longitude": 4.974786, "elevation": null, "source": "osm", "_tags": {"name": "Serre Pelé", "natural": "peak", "source": "IGN - 2024-03-15"}}, {"name": "l'Oulette", "latitude": 44.4988139, "longitude": 4.9659653, "elevation": null, "source": "osm", "_tags": {"name": "l'Oulette", "natural": "peak", "source": "IGN - 2024-03-15"}}, {"name": "Tête d'Asclet", "latitude": 44.4363592, "longitude": 5.1992688, "elevation": null, "source": "osm", "_tags": {"name": "Tête d'Asclet", "natural": "peak", "source": "IGN - 2024-03-15"}}, {"name": "Sainte-Anne", "latitude": 44.4373379, "longitude": 5.2192629, "elevation": null, "source": "osm", "_tags": {"name": "Sainte-Anne", "natural": "peak", "source": "IGN - 2024-03-15"}}, {"name": "Serre de Lachaud", "latitude": 44.4383196, "longitude": 5.1251463, "elevation": 1096.0, "source": "osm", "_tags": {"ele": "1096", "name": "Serre de Lachaud", "natural": "peak", "source": "IGN - 2024-03-15"}}, {"name": "Clamieux", "latitude": 44.456524, "longitude": 5.1238305, "elevation": null, "source": "osm", "_tags": {"name": "Clamieux", "natural": "peak", "source": "IGN - 2024-03-15"}}, {"name": "Montagne du Brujas", "latitude": 44.4589562, "longitude": 5.1314899, "elevation": null, "source": "osm", "_tags": {"name": "Montagne du Brujas", "natural": "peak", "source": "IGN - 2024-03-15"}}, {"name": "Pischet", "latitude": 44.4541314, "longitude": 5.1351074, "elevation": null, "source": "osm", "_tags": {"name": "Pischet", "natural": "peak", "source": "IGN - 2024-03-15"}}, {"name": "Montagne Robert", "latitude": 44.4549102, "longitude": 5.1475826, "elevation": null, "source": "osm", "_tags": {"name": "Montagne Robert", "natural": "peak", "source": "IGN - 2024-03-15"}}, {"name": "Côte Aurand", "latitude": 44.4467159, "longitude": 5.1484808, "elevation": null, "source": "osm", "_tags": {"name": "Côte Aurand", "natural": "peak", "source": "IGN - 2024-03-15"}}, {"name": "Serre Gaillard", "latitude": 44.4477147, "longitude": 5.1628386, "elevation": null, "source": "osm", "_tags": {"name": "Serre Gaillard", "natural": "peak", "source": "IGN - 2024-03-15"}}, {"name": "Serre Ponciau", "latitude": 44.4512446, "longitude": 5.1651888, "elevation": 953.0, "source": "osm", "_tags": {"ele": "953", "name": "Serre Ponciau", "natural": "peak", "source": "IGN - 2024-03-15"}}, {"name": "Montagne d'Autuche", "latitude": 44.4523617, "longitude": 5.1787381, "elevation": null, "source": "osm", "_tags": {"name": "Montagne d'Autuche", "natural": "peak", "source": "IGN - 2024-03-15"}}, {"name": "Anemort", "latitude": 44.4667936, "longitude": 5.1505391, "elevation": null, "source": "osm", "_tags": {"name": "Anemort", "natural": "peak", "source": "IGN - 2024-03-15"}}, {"name": "Forcherand", "latitude": 44.4636153, "longitude": 5.160043, "elevation": null, "source": "osm", "_tags": {"name": "Forcherand", "natural": "peak", "source": "IGN - 2024-03-15"}}, {"name": "Blache Myère", "latitude": 44.4695458, "longitude": 5.1614467, "elevation": null, "source": "osm", "_tags": {"name": "Blache Myère", "natural": "peak", "source": "IGN - 2024-03-15"}}, {"name": "Serre Blanc", "latitude": 44.4749503, "longitude": 5.1549434, "elevation": null, "source": "osm", "_tags": {"name": "Serre Blanc", "natural": "peak", "source": "IGN - 2024-03-15"}}, {"name": "Rambert", "latitude": 44.4825736, "longitude": 5.1632569, "elevation": null, "source": "osm", "_tags": {"name": "Rambert", "natural": "peak", "source": "IGN - 2024-03-15"}}, {"name": "Serre de la Gardette", "latitude": 44.4758039, "longitude": 5.1672151, "elevation": null, "source": "osm", "_tags": {"name": "Serre de la Gardette", "natural": "peak", "source": "IGN - 2024-03-15"}}, {"name": "Montagne de l'Autèche", "latitude": 44.5024327, "longitude": 5.0095117, "elevation": null, "source": "osm", "_tags": {"name": "Montagne de l'Autèche", "natural": "peak", "source": "IGN - 2024-03-15"}}, {"name": "Serre Long", "latitude": 44.4993969, "longitude": 5.0255227, "elevation": null, "source": "osm", "_tags": {"name": "Serre Long", "natural": "peak", "source": "IGN - 2024-03-15"}}, {"name": "Montagne d'Ufernet", "latitude": 44.5046685, "longitude": 5.0438809, "elevation": null, "source": "osm", "_tags": {"name": "Montagne d'Ufernet", "natural": "peak", "source": "IGN - 2024-03-15"}}, {"name": "Montagne de Dieu-Grâce", "latitude": 44.5046595, "longitude": 5.0587932, "elevation": null, "source": "osm", "_tags": {"name": "Montagne de Dieu-Grâce", "natural": "peak", "source": "IGN - 2024-03-15"}}, {"name": "Serre Choseille", "latitude": 44.4847037, "longitude": 5.0452583, "elevation": null, "source": "osm", "_tags": {"name": "Serre Choseille", "natural": "peak", "source": "IGN - 2024-03-15"}}, {"name": "Guimond", "latitude": 44.4486586, "longitude": 5.0777079, "elevation": 741.0, "source": "osm", "_tags": {"ele": "741", "name": "Guimond", "natural": "peak", "source": "IGN - 2024-03-15"}}, {"name": "Noyeron", "latitude": 44.455981, "longitude": 5.0677591, "elevation": 679.0, "source": "osm", "_tags": {"ele": "679", "name": "Noyeron", "natural": "peak", "source": "IGN - 2024-03-15"}}, {"name": "Paudru", "latitude": 44.4647764, "longitude": 5.054553, "elevation": 593.0, "source": "osm", "_tags": {"ele": "593", "name": "Paudru", "natural": "peak", "source": "IGN - 2024-03-15"}}, {"name": "Montagne de Lusset", "latitude": 44.4904681, "longitude": 5.0898731, "elevation": null, "source": "osm", "_tags": {"name": "Montagne de Lusset", "natural": "peak", "source": "IGN - 2024-03-15"}}, {"name": "Pié Rond", "latitude": 44.4795082, "longitude": 5.0891358, "elevation": null, "source": "osm", "_tags": {"name": "Pié Rond", "natural": "peak", "source": "IGN - 2024-03-15"}}, {"name": "les Serrettes", "latitude": 44.4763107, "longitude": 5.1453973, "elevation": null, "source": "osm", "_tags": {"name": "les Serrettes", "natural": "peak", "source": "IGN - 2024-03-15"}}, {"name": "Châteaubuis", "latitude": 44.4606489, "longitude": 5.1148127, "elevation": null, "source": "osm", "_tags": {"name": "Châteaubuis", "natural": "peak", "source": "IGN - 2024-03-15"}}, {"name": "Rachas", "latitude": 44.4759343, "longitude": 5.1152903, "elevation": null, "source": "osm", "_tags": {"name": "Rachas", "natural": "peak", "source": "IGN - 2024-03-15"}}, {"name": "Montagne de Mioufaux", "latitude": 44.4737448, "longitude": 5.1228488, "elevation": null, "source": "osm", "_tags": {"name": "Montagne de Mioufaux", "natural": "peak", "source": "IGN - 2024-03-15"}}, {"name": "Beaujassou", "latitude": 44.4643709, "longitude": 5.1231004, "elevation": null, "source": "osm", "_tags": {"name": "Beaujassou", "natural": "peak", "source": "IGN - 2024-03-15"}}, {"name": "Briasson", "latitude": 44.4673824, "longitude": 5.1324238, "elevation": null, "source": "osm", "_tags": {"name": "Briasson", "natural": "peak", "source": "IGN - 2024-03-15"}}, {"name": "Le Salavour", "latitude": 44.4444393, "longitude": 5.0912997, "elevation": 1026.0, "source": "osm", "_tags": {"ele": "1026", "name": "Le Salavour", "natural": "peak", "source": "IGN - 2024-03-15"}}, {"name": "Les Esparaux", "latitude": 44.4848198, "longitude": 5.0793531, "elevation": null, "source": "osm", "_tags": {"name": "Les Esparaux", "natural": "peak", "source": "IGN - 2024-03-15"}}, {"name": "La Coste", "latitude": 44.4680986, "longitude": 5.1176933, "elevation": null, "source": "osm", "_tags": {"name": "La Coste", "natural": "peak", "source": "IGN - 2024-03-15"}}, {"name": "Château Buis", "latitude": 44.4324523, "longitude": 5.0957905, "elevation": 901.0, "source": "osm", "_tags": {"ele": "901", "name": "Château Buis", "natural": "peak", "source": "IGN - 2024-03-15"}}, {"name": "Grand Conjau", "latitude": 44.4334222, "longitude": 5.0735715, "elevation": 816.0, "source": "osm", "_tags": {"ele": "816", "name": "Grand Conjau", "natural": "peak", "source": "IGN - 2024-03-15"}}, {"name": "Le Petit Châtel", "latitude": 44.8239186, "longitude": 5.7906473, "elevation": null, "source": "osm", "_tags": {"name": "Le Petit Châtel", "natural": "peak"}}]