[{"name": "Mohokos", "latitude": 46.4539675, "longitude": 16.363586, "elevation": 344.0, "source": "osm", "_tags": {"ele": "344", "name": "Mohokos", "natural": "peak", "wikidata": "Q1942898", "wikipedia": "hr:Mohokos"}}, {"name": "Dreiländerecke / Hármashatárkő / Tromejnik", "latitude": 46.8690592, "longitude": 16.1138866, "elevation": 387.0, "source": "osm", "_tags": {"ele": "387", "historic": "boundary_stone", "name": "Dreiländerecke / Hármashatárkő / Tromejnik", "name:de": "Dreiländereck", "name:hu": "Hármashatárkő", "name:sl": "Tromejnik", "natural": "peak", "source": "GURS", "start_date": "1923-05-26", "tourism": "attraction", "wheelchair": "no", "wikidata": "Q465430", "wikimedia_commons": "Category:Tromejnik", "wikipedia": "de:Dreiländereck (bei Sankt Martin an der Raab)"}}, {"name": "Galgenberg", "latitude": 47.2985847, "longitude": 16.4198189, "elevation": 352.0, "source": "osm", "_tags": {"ele": "352", "name": "Galgenberg", "natural": "peak"}}, {"name": "Stefansberg", "latitude": 47.271762, "longitude": 16.2607406, "elevation": 370.0, "source": "osm", "_tags": {"ele": "370", "name": "Stefansberg", "natural": "peak"}}, {"name": "Paulusberg", "latitude": 47.2931952, "longitude": 16.1780775, "elevation": 372.0, "source": "osm", "_tags": {"ele": "372", "name": "Paulusberg", "natural": "peak"}}, {"name": "Jesusberg", "latitude": 47.3063585, "longitude": 16.2018868, "elevation": 365.0, "source": "osm", "_tags": {"ele": "365", "name": "Jesusberg", "natural": "peak"}}, {"name": "Kleincsaterberg", "latitude": 47.1760545, "longitude": 16.3808496, "elevation": 365.0, "source": "osm", "_tags": {"alt_name": "Kleintschaterberg", "ele": "365", "name": "Kleincsaterberg", "natural": "peak"}}, {"name": "Hochcsaterberg", "latitude": 47.1753175, "longitude": 16.3941626, "elevation": 341.0, "source": "osm", "_tags": {"alt_name": "Hochtschaterberg", "ele": "341", "name": "Hochcsaterberg", "natural": "peak"}}, {"name": "Kalapos-kő", "latitude": 47.3326368, "longitude": 16.4699864, "elevation": 587.0, "source": "osm", "_tags": {"ele": "587", "name": "Kalapos-kő", "natural": "peak", "source": "estimation"}}, {"name": "Vukanovec", "latitude": 46.4590593, "longitude": 16.3401257, "elevation": 331.0, "source": "osm", "_tags": {"ele": "331", "name": "Vukanovec", "natural": "peak", "source": "geoportal.dgu.hr: TK25 (Topografska karta 1:25000)", "tourism": "viewpoint"}}, {"name": "", "latitude": 46.647737, "longitude": 16.2047955, "elevation": null, "source": "osm", "_tags": {"natural": "peak"}}, {"name": "", "latitude": 46.6285666, "longitude": 16.1177638, "elevation": 191.7, "source": "osm", "_tags": {"ele": "191.7", "natural": "peak"}}, {"name": "", "latitude": 46.5236313, "longitude": 16.1756715, "elevation": null, "source": "osm", "_tags": {"natural": "peak"}}, {"name": "Großer Hirschenstein", "latitude": 47.3453794, "longitude": 16.3792803, "elevation": 862.0, "source": "osm", "_tags": {"ele": "862", "name": "Großer Hirschenstein", "name:de": "Großer Hirschenstein", "name:hu": "Nagy Szarvaskő", "natural": "peak", "short_name": "Hirschenstein", "summit:cross": "yes", "tourism": "viewpoint", "wheelchair": "no", "wikidata": "Q1548698", "wikipedia": "de:Großer Hirschenstein"}}, {"name": "Dürrenriegel", "latitude": 47.3787133, "longitude": 16.2920375, "elevation": 506.0, "source": "osm", "_tags": {"ele": "506", "name": "Dürrenriegel", "natural": "peak"}}, {"name": "", "latitude": 47.326349, "longitude": 16.442487, "elevation": 524.0, "source": "osm", "_tags": {"ele": "524", "natural": "peak", "source:ele": "GPS"}}, {"name": "", "latitude": 47.386897, "longitude": 16.2678012, "elevation": 583.0, "source": "osm", "_tags": {"ele": "583", "natural": "peak"}}, {"name": "Kreuzriegel", "latitude": 47.3949173, "longitude": 16.2647403, "elevation": 614.0, "source": "osm", "_tags": {"ele": "614", "name": "Kreuzriegel", "natural": "peak"}}, {"name": "Schulriegel", "latitude": 47.3578683, "longitude": 16.245813, "elevation": 497.0, "source": "osm", "_tags": {"ele": "497", "name": "Schulriegel", "natural": "peak"}}, {"name": "Pfaffenberg", "latitude": 47.3633058, "longitude": 16.2725141, "elevation": 499.0, "source": "osm", "_tags": {"ele": "499", "name": "Pfaffenberg", "natural": "peak"}}, {"name": "Gleichenberger Kogel", "latitude": 46.8922777, "longitude": 15.9082047, "elevation": 598.0, "source": "osm", "_tags": {"ele": "598", "name": "Gleichenberger Kogel", "natural": "peak", "wikidata": "Q1150493", "wikipedia": "en:Gleichenberg Kögel"}}, {"name": "Bschaidkogel", "latitude": 46.8940916, "longitude": 15.916963, "elevation": 563.0, "source": "osm", "_tags": {"ele": "563", "name": "Bschaidkogel", "natural": "peak", "wikidata": "Q21861443"}}, {"name": "Eisenberg", "latitude": 47.1977474, "longitude": 16.4113114, "elevation": 415.0, "source": "osm", "_tags": {"ele": "415", "name": "Eisenberg", "natural": "peak"}}, {"name": "Holzmannkogel", "latitude": 46.8749694, "longitude": 16.1153265, "elevation": 393.0, "source": "osm", "_tags": {"ele": "393", "name": "Holzmannkogel", "natural": "peak", "source": "estimated"}}, {"name": "", "latitude": 47.3558993, "longitude": 16.3640924, "elevation": null, "source": "osm", "_tags": {"natural": "peak"}}, {"name": "", "latitude": 46.8625, "longitude": 16.155, "elevation": 379.0, "source": "osm", "_tags": {"ele": "379", "natural": "peak", "note": "1) name? 2) proper elevation? (from non-SRTM source) 3) proper location? (from survey)", "source": "SRTM", "source:ele": "SRTM"}}, {"name": "Stradner Kogel", "latitude": 46.8456828, "longitude": 15.9317507, "elevation": 609.0, "source": "osm", "_tags": {"alt_name": "Stradnerkogel", "ele": "609", "name": "Stradner Kogel", "natural": "peak", "source:ele": "Laserscan Höhenmodelle auf https://gis.stmk.gv.at", "wikidata": "Q2352716", "wikimedia_commons": "Category:Stradner Kogel", "wikipedia": "de:Stradner Kogel"}}, {"name": "Rosenberg", "latitude": 46.8154063, "longitude": 15.9231275, "elevation": 458.0, "source": "osm", "_tags": {"ele": "458", "name": "Rosenberg", "natural": "peak", "wikidata": "Q21861396"}}, {"name": "", "latitude": 46.8460429, "longitude": 16.3667277, "elevation": 280.0, "source": "osm", "_tags": {"ele": "280", "natural": "peak"}}, {"name": "Große Plischa", "latitude": 47.331233, "longitude": 16.3553394, "elevation": 661.0, "source": "osm", "_tags": {"ele": "661", "name": "Große Plischa", "natural": "peak", "source:position": "basemap.at", "wikidata": "Q21871264"}}, {"name": "Fidischberg", "latitude": 47.0455093, "longitude": 16.2370592, "elevation": 361.0, "source": "osm", "_tags": {"ele": "361", "name": "Fidischberg", "natural": "peak", "source": "BEV"}}, {"name": "", "latitude": 46.8861035, "longitude": 16.4291976, "elevation": 270.0, "source": "osm", "_tags": {"ele": "270", "natural": "peak"}}, {"name": "", "latitude": 46.8768397, "longitude": 16.2341238, "elevation": 353.0, "source": "osm", "_tags": {"ele": "353", "natural": "peak"}}, {"name": "", "latitude": 46.8742618, "longitude": 16.2539398, "elevation": 332.0, "source": "osm", "_tags": {"ele": "332", "natural": "peak"}}, {"name": "Ringkogel", "latitude": 47.2975684, "longitude": 15.951121, "elevation": 789.0, "source": "osm", "_tags": {"ele": "789", "name": "Ringkogel", "name:zh": "靈科格爾山", "natural": "peak", "wikidata": "Q2153914", "wikimedia_commons": "Category:Ringkogel", "wikipedia": "de:Ringkogel"}}, {"name": "Wullmenstein", "latitude": 47.300491, "longitude": 15.9185389, "elevation": 867.0, "source": "osm", "_tags": {"ele": "867", "name": "Wullmenstein", "natural": "peak", "source:position": "estimation", "wikidata": "Q21881467"}}, {"name": "Annenkogel", "latitude": 47.301488, "longitude": 15.9007267, "elevation": 860.0, "source": "osm", "_tags": {"ele": "860", "name": "Annenkogel", "natural": "peak", "source:position": "estimation", "wikidata": "Q21881466"}}, {"name": "", "latitude": 47.3648002, "longitude": 16.2599654, "elevation": 440.0, "source": "osm", "_tags": {"ele": "440", "natural": "peak"}}, {"name": "Hollerwiese", "latitude": 47.3355148, "longitude": 16.462078, "elevation": 602.0, "source": "osm", "_tags": {"ele": "602", "name": "Hollerwiese", "natural": "peak"}}, {"name": "Hármashatár-hegy", "latitude": 47.359047, "longitude": 16.464785, "elevation": 724.0, "source": "osm", "_tags": {"ele": "724", "name": "Hármashatár-hegy", "natural": "peak", "source": "turistautak.hu", "url": "http://turistautak.hu/poi.php?id=23117"}}, {"name": "Kopasz-domb", "latitude": 47.3438075, "longitude": 16.4512542, "elevation": 687.0, "source": "osm", "_tags": {"ele": "687", "name": "Kopasz-domb", "natural": "peak", "source": "turistautak.hu", "url": "http://turistautak.hu/poi.php?id=19577"}}, {"name": "Jakab-hegy", "latitude": 47.001787, "longitude": 16.3904, "elevation": 295.0, "source": "osm", "_tags": {"ele": "295", "name": "Jakab-hegy", "natural": "peak", "source": "turistautak.hu", "source:date": "2012-12-10", "url": "http://turistautak.hu/poi.php?id=7686"}}, {"name": "Magas-tető", "latitude": 47.0028718, "longitude": 16.3549118, "elevation": 320.9, "source": "osm", "_tags": {"ele": "320.9", "name": "Magas-tető", "natural": "peak"}}, {"name": "Magyar-hegy", "latitude": 46.985393, "longitude": 16.390228, "elevation": null, "source": "osm", "_tags": {"name": "Magyar-hegy", "natural": "peak", "source": "turistautak.hu", "source:date": "2013-06-30", "url": "http://turistautak.hu/poi.php?id=7684"}}, {"name": "Sáfrány-hegy", "latitude": 46.983547, "longitude": 16.396623, "elevation": 270.8, "source": "osm", "_tags": {"ele": "270.8", "name": "Sáfrány-hegy", "natural": "peak", "source": "turistautak.hu", "source:date": "2013-06-30", "url": "http://turistautak.hu/poi.php?id=7683"}}, {"name": "Turul-hegy", "latitude": 46.993675, "longitude": 16.382933, "elevation": 298.5, "source": "osm", "_tags": {"alt_name": "Sudzter-hegy", "ele": "298.5", "name": "Turul-hegy", "natural": "peak"}}, {"name": "Schlossberg", "latitude": 47.0567192, "longitude": 16.32294, "elevation": 318.0, "source": "osm", "_tags": {"ele": "318", "name": "Schlossberg", "name:hu": "Várhegy", "natural": "peak", "source:position": "estimation"}}, {"name": "Tobajer Kogel", "latitude": 47.0854055, "longitude": 16.2990287, "elevation": null, "source": "osm", "_tags": {"name": "Tobajer Kogel", "natural": "peak"}}, {"name": "Geschriebenstein / Írott-kő", "latitude": 47.3528283, "longitude": 16.4337197, "elevation": 884.0, "source": "osm", "_tags": {"alt_name:de": "Gschriebenstein", "ele": "884", "name": "Geschriebenstein / Írott-kő", "name:de": "Geschriebenstein", "name:hu": "Írott-kő", "natural": "peak", "prominence": "414", "wikidata": "Q630494", "wikipedia": "hu:Írott-kő"}}, {"name": "Brotriegel", "latitude": 47.3343254, "longitude": 16.3693872, "elevation": 678.0, "source": "osm", "_tags": {"ele": "678", "name": "Brotriegel", "natural": "peak", "source": "basemap.at"}}, {"name": "Kleine Plischa", "latitude": 47.3419892, "longitude": 16.3218619, "elevation": 639.0, "source": "osm", "_tags": {"ele": "639", "name": "Kleine Plischa", "natural": "peak"}}, {"name": "Bremsberg", "latitude": 47.3518825, "longitude": 16.3536462, "elevation": 765.0, "source": "osm", "_tags": {"ele": "765", "name": "Bremsberg", "natural": "peak"}}, {"name": "Kleiner Hirschenstein", "latitude": 47.3563949, "longitude": 16.3690327, "elevation": 836.0, "source": "osm", "_tags": {"ele": "836", "name": "Kleiner Hirschenstein", "natural": "peak", "source": "basemap.at"}}, {"name": "Hochbuchen", "latitude": 47.3775061, "longitude": 16.3592233, "elevation": 599.0, "source": "osm", "_tags": {"ele": "599", "name": "Hochbuchen", "natural": "peak", "source": "basemap.at"}}, {"name": "Hoher Stein", "latitude": 47.3531202, "longitude": 16.3407996, "elevation": null, "source": "osm", "_tags": {"fixme": "Lage", "name": "Hoher Stein", "natural": "peak"}}, {"name": "Birkenriegel", "latitude": 47.3656036, "longitude": 16.3418283, "elevation": 675.0, "source": "osm", "_tags": {"ele": "675", "name": "Birkenriegel", "natural": "peak", "source": "basemap.at"}}, {"name": "Steinberg", "latitude": 46.9332423, "longitude": 15.9209763, "elevation": 470.0, "source": "osm", "_tags": {"ele": "470", "name": "Steinberg", "natural": "peak", "wikidata": "Q21861460"}}, {"name": "Forstkogel", "latitude": 46.9167246, "longitude": 15.9422532, "elevation": 420.0, "source": "osm", "_tags": {"ele": "420", "name": "Forstkogel", "natural": "peak", "summit:cross": "yes", "summit:register": "yes", "wikidata": "Q21861451"}}, {"name": "", "latitude": 46.891185, "longitude": 16.3794696, "elevation": 279.0, "source": "osm", "_tags": {"ele": "279", "natural": "peak"}}, {"name": "", "latitude": 46.856199, "longitude": 16.3583658, "elevation": 283.0, "source": "osm", "_tags": {"ele": "283", "natural": "peak"}}, {"name": "", "latitude": 46.869867, "longitude": 16.2194577, "elevation": 366.0, "source": "osm", "_tags": {"ele": "366", "natural": "peak"}}, {"name": "", "latitude": 46.8524152, "longitude": 16.3543156, "elevation": 285.0, "source": "osm", "_tags": {"ele": "285", "natural": "peak"}}, {"name": "", "latitude": 46.8417483, "longitude": 16.3519233, "elevation": 286.0, "source": "osm", "_tags": {"ele": "286", "natural": "peak"}}, {"name": "", "latitude": 46.844581, "longitude": 16.3441524, "elevation": 288.0, "source": "osm", "_tags": {"ele": "288", "natural": "peak"}}, {"name": "", "latitude": 46.8537832, "longitude": 16.3530371, "elevation": 270.0, "source": "osm", "_tags": {"ele": "270", "natural": "peak"}}, {"name": "", "latitude": 46.851856, "longitude": 16.3613917, "elevation": 280.0, "source": "osm", "_tags": {"ele": "280", "natural": "peak"}}, {"name": "", "latitude": 46.8429255, "longitude": 16.3620188, "elevation": 282.0, "source": "osm", "_tags": {"ele": "282", "natural": "peak"}}, {"name": "", "latitude": 46.8404047, "longitude": 16.3939644, "elevation": 271.0, "source": "osm", "_tags": {"ele": "271", "natural": "peak"}}, {"name": "", "latitude": 46.8384312, "longitude": 16.3978727, "elevation": 269.0, "source": "osm", "_tags": {"ele": "269", "natural": "peak"}}, {"name": "", "latitude": 46.8414236, "longitude": 16.4151998, "elevation": 253.0, "source": "osm", "_tags": {"ele": "253", "natural": "peak"}}, {"name": "", "latitude": 46.8318473, "longitude": 16.4059092, "elevation": 265.0, "source": "osm", "_tags": {"ele": "265", "natural": "peak"}}, {"name": "", "latitude": 46.8320016, "longitude": 16.3987041, "elevation": 268.0, "source": "osm", "_tags": {"ele": "268", "natural": "peak"}}, {"name": "", "latitude": 46.8365539, "longitude": 16.4174373, "elevation": 246.0, "source": "osm", "_tags": {"ele": "246", "natural": "peak"}}, {"name": "Öreg hegy", "latitude": 46.831862, "longitude": 16.4317657, "elevation": 258.0, "source": "osm", "_tags": {"ele": "258", "name": "Öreg hegy", "natural": "peak"}}, {"name": "", "latitude": 46.8340128, "longitude": 16.4192391, "elevation": 263.0, "source": "osm", "_tags": {"ele": "263", "natural": "peak"}}, {"name": "Balla-hegy", "latitude": 46.8283975, "longitude": 16.4504976, "elevation": 253.0, "source": "osm", "_tags": {"ele": "253", "name": "Balla-hegy", "natural": "peak"}}, {"name": "Nagy-sári-hegy", "latitude": 46.8812379, "longitude": 16.3622178, "elevation": 288.0, "source": "osm", "_tags": {"ele": "288", "name": "Nagy-sári-hegy", "natural": "peak"}}, {"name": "", "latitude": 46.8879417, "longitude": 16.337985, "elevation": 306.0, "source": "osm", "_tags": {"ele": "306", "natural": "peak"}}, {"name": "", "latitude": 46.8908544, "longitude": 16.3041866, "elevation": 316.0, "source": "osm", "_tags": {"ele": "316", "natural": "peak"}}, {"name": "", "latitude": 46.8825961, "longitude": 16.2966468, "elevation": 316.0, "source": "osm", "_tags": {"ele": "316", "natural": "peak"}}, {"name": "", "latitude": 46.889542, "longitude": 16.3017565, "elevation": 318.0, "source": "osm", "_tags": {"ele": "318", "natural": "peak"}}, {"name": "", "latitude": 46.8845689, "longitude": 16.2995543, "elevation": 314.0, "source": "osm", "_tags": {"ele": "314", "natural": "peak"}}, {"name": "", "latitude": 46.8776792, "longitude": 16.2730487, "elevation": 315.0, "source": "osm", "_tags": {"ele": "315", "natural": "peak"}}, {"name": "", "latitude": 46.8727688, "longitude": 16.2830641, "elevation": 324.0, "source": "osm", "_tags": {"ele": "324", "natural": "peak"}}, {"name": "", "latitude": 46.8733334, "longitude": 16.2888503, "elevation": 326.0, "source": "osm", "_tags": {"ele": "326", "natural": "peak"}}, {"name": "", "latitude": 46.8724865, "longitude": 16.268666, "elevation": 322.0, "source": "osm", "_tags": {"ele": "322", "natural": "peak"}}, {"name": "", "latitude": 46.8773711, "longitude": 16.268127, "elevation": 319.0, "source": "osm", "_tags": {"ele": "319", "natural": "peak"}}, {"name": "", "latitude": 46.8754937, "longitude": 16.2604101, "elevation": 319.0, "source": "osm", "_tags": {"ele": "319", "natural": "peak"}}, {"name": "", "latitude": 46.8764046, "longitude": 16.2649379, "elevation": 320.0, "source": "osm", "_tags": {"ele": "320", "natural": "peak"}}, {"name": "Katalin-hegy", "latitude": 46.8773693, "longitude": 16.2274754, "elevation": 367.0, "source": "osm", "_tags": {"ele": "367", "name": "Katalin-hegy", "name:sl": "Katin breg (Verica)", "natural": "peak", "wikidata": "Q26232541"}}, {"name": "", "latitude": 46.8762929, "longitude": 16.2426325, "elevation": 339.0, "source": "osm", "_tags": {"ele": "339", "natural": "peak"}}, {"name": "", "latitude": 46.8749068, "longitude": 16.2462588, "elevation": 339.0, "source": "osm", "_tags": {"ele": "339", "natural": "peak"}}, {"name": "", "latitude": 46.87399, "longitude": 16.22736, "elevation": 359.0, "source": "osm", "_tags": {"ele": "359", "natural": "peak"}}, {"name": "", "latitude": 46.8718667, "longitude": 16.2264646, "elevation": 359.0, "source": "osm", "_tags": {"ele": "359", "natural": "peak"}}, {"name": "", "latitude": 46.8718265, "longitude": 16.2239375, "elevation": 358.0, "source": "osm", "_tags": {"ele": "358", "natural": "peak"}}, {"name": "", "latitude": 46.8713789, "longitude": 16.2172164, "elevation": 355.0, "source": "osm", "_tags": {"ele": "355", "natural": "peak"}}, {"name": "", "latitude": 46.8734328, "longitude": 16.2165077, "elevation": 343.0, "source": "osm", "_tags": {"ele": "343", "natural": "peak"}}, {"name": "", "latitude": 46.8702973, "longitude": 16.211036, "elevation": 354.0, "source": "osm", "_tags": {"ele": "354", "natural": "peak"}}, {"name": "", "latitude": 46.8696703, "longitude": 16.2062056, "elevation": 355.0, "source": "osm", "_tags": {"ele": "355", "natural": "peak"}}, {"name": "", "latitude": 46.8680452, "longitude": 16.1982258, "elevation": 358.0, "source": "osm", "_tags": {"ele": "358", "natural": "peak"}}, {"name": "", "latitude": 46.8675648, "longitude": 16.197287, "elevation": 376.0, "source": "osm", "_tags": {"ele": "376", "natural": "peak"}}, {"name": "", "latitude": 46.868883, "longitude": 16.2016709, "elevation": 366.0, "source": "osm", "_tags": {"ele": "366", "natural": "peak"}}, {"name": "", "latitude": 46.8941585, "longitude": 16.4189811, "elevation": 268.0, "source": "osm", "_tags": {"ele": "268", "natural": "peak"}}, {"name": "Nagysári-hegy", "latitude": 46.8901923, "longitude": 16.3738174, "elevation": 286.0, "source": "osm", "_tags": {"ele": "286", "name": "Nagysári-hegy", "natural": "peak"}}, {"name": "Bucsa-hegy", "latitude": 46.8937969, "longitude": 16.4062546, "elevation": 276.0, "source": "osm", "_tags": {"ele": "276", "name": "Bucsa-hegy", "natural": "peak"}}, {"name": "Máli-hegy", "latitude": 46.8923963, "longitude": 16.4258983, "elevation": 264.0, "source": "osm", "_tags": {"ele": "264", "name": "Máli-hegy", "natural": "peak"}}, {"name": "Öreg-hegy", "latitude": 46.8613102, "longitude": 16.4302489, "elevation": null, "source": "osm", "_tags": {"name": "Öreg-hegy", "natural": "peak"}}, {"name": "Schießlkogel", "latitude": 46.9821075, "longitude": 15.9800499, "elevation": 389.0, "source": "osm", "_tags": {"ele": "389", "name": "Schießlkogel", "natural": "peak", "wikidata": "Q21865471"}}, {"name": "Grillberg", "latitude": 46.9673795, "longitude": 16.0032429, "elevation": 354.0, "source": "osm", "_tags": {"ele": "354", "name": "Grillberg", "natural": "peak", "wikidata": "Q21861483"}}, {"name": "Sandriegel", "latitude": 46.912086, "longitude": 16.0371189, "elevation": 368.0, "source": "osm", "_tags": {"ele": "368", "name": "Sandriegel", "natural": "peak", "wikidata": "Q21861454"}}, {"name": "Zotterberg", "latitude": 46.8698098, "longitude": 16.069538, "elevation": 359.0, "source": "osm", "_tags": {"ele": "359", "name": "Zotterberg", "natural": "peak"}}, {"name": "Rauscherriegel", "latitude": 46.8543407, "longitude": 16.0623156, "elevation": 380.0, "source": "osm", "_tags": {"ele": "380", "name": "Rauscherriegel", "natural": "peak"}}, {"name": "Schirrenkogel", "latitude": 46.8364933, "longitude": 15.9861455, "elevation": 404.0, "source": "osm", "_tags": {"ele": "404", "name": "Schirrenkogel", "natural": "peak", "wikidata": "Q21861404"}}, {"name": "Königsberg", "latitude": 46.7856146, "longitude": 15.9584169, "elevation": 462.0, "source": "osm", "_tags": {"ele": "462", "name": "Königsberg", "natural": "peak", "wikidata": "Q21861392"}}, {"name": "Satzwipfel", "latitude": 46.9116208, "longitude": 15.8906141, "elevation": 411.0, "source": "osm", "_tags": {"ele": "411", "name": "Satzwipfel", "natural": "peak"}}, {"name": "Rittscheinberg", "latitude": 47.004864, "longitude": 16.0276536, "elevation": 398.0, "source": "osm", "_tags": {"ele": "398", "name": "Rittscheinberg", "natural": "peak"}}, {"name": "Nesselbachberg", "latitude": 46.9640158, "longitude": 16.0666562, "elevation": 363.0, "source": "osm", "_tags": {"ele": "363", "name": "Nesselbachberg", "natural": "peak", "wikidata": "Q21861486"}}, {"name": "Mauser", "latitude": 46.9513172, "longitude": 16.0804966, "elevation": 367.0, "source": "osm", "_tags": {"ele": "367", "name": "Mauser", "natural": "peak"}}, {"name": "Brandriegel", "latitude": 46.918102, "longitude": 16.0654468, "elevation": 351.0, "source": "osm", "_tags": {"ele": "351", "name": "Brandriegel", "natural": "peak"}}, {"name": "Wolfsriegel", "latitude": 46.8746209, "longitude": 16.0452343, "elevation": 381.0, "source": "osm", "_tags": {"ele": "381", "name": "Wolfsriegel", "natural": "peak"}}, {"name": "Kalchberg", "latitude": 46.8605227, "longitude": 16.0161337, "elevation": 347.0, "source": "osm", "_tags": {"ele": "347", "name": "Kalchberg", "natural": "peak"}}, {"name": "Langriegel", "latitude": 46.8522641, "longitude": 16.0214191, "elevation": 341.0, "source": "osm", "_tags": {"ele": "341", "name": "Langriegel", "natural": "peak"}}, {"name": "Wachtriegel", "latitude": 46.8402929, "longitude": 16.0136747, "elevation": 294.0, "source": "osm", "_tags": {"ele": "294", "name": "Wachtriegel", "natural": "peak"}}, {"name": "Bruchen", "latitude": 46.8434999, "longitude": 16.0518743, "elevation": 372.0, "source": "osm", "_tags": {"ele": "372", "name": "Bruchen", "natural": "peak"}}, {"name": "Schneiderkogel", "latitude": 46.8540291, "longitude": 16.0785369, "elevation": 389.0, "source": "osm", "_tags": {"ele": "389", "name": "Schneiderkogel", "natural": "peak"}}, {"name": "Karlhöhe", "latitude": 46.903814, "longitude": 15.9501646, "elevation": 402.0, "source": "osm", "_tags": {"ele": "402", "name": "Karlhöhe", "natural": "peak", "wikidata": "Q21861446"}}, {"name": "Jakobsberg", "latitude": 46.9043417, "longitude": 16.1687601, "elevation": 324.0, "source": "osm", "_tags": {"ele": "324", "name": "Jakobsberg", "natural": "peak", "wikidata": "Q106637212"}}, {"name": "Schneiderberg", "latitude": 46.9091961, "longitude": 16.1789748, "elevation": 325.0, "source": "osm", "_tags": {"ele": "325", "name": "Schneiderberg", "natural": "peak", "wikidata": "Q106637250"}}, {"name": "Gotziberg", "latitude": 46.9790816, "longitude": 16.1992435, "elevation": 286.0, "source": "osm", "_tags": {"ele": "286", "name": "Gotziberg", "natural": "peak"}}, {"name": "Gmosberg", "latitude": 47.1366321, "longitude": 16.1497648, "elevation": 348.0, "source": "osm", "_tags": {"ele": "348", "name": "Gmosberg", "natural": "peak"}}, {"name": "MItterriegel", "latitude": 47.1045847, "longitude": 16.1355321, "elevation": 327.0, "source": "osm", "_tags": {"ele": "327", "name": "MItterriegel", "natural": "peak"}}, {"name": "Ritási-domb", "latitude": 46.7557034, "longitude": 16.3234567, "elevation": 296.0, "source": "osm", "_tags": {"ele": "296", "name": "Ritási-domb", "natural": "peak"}}, {"name": "Mađerkin Breg", "latitude": 46.4911948, "longitude": 16.2609423, "elevation": 341.0, "source": "osm", "_tags": {"ele": "341", "name": "Mađerkin Breg", "natural": "peak", "tourism": "viewpoint"}}, {"name": "Oetschikopf", "latitude": 46.9957513, "longitude": 15.9946459, "elevation": 358.0, "source": "osm", "_tags": {"ele": "358", "name": "Oetschikopf", "natural": "peak", "wikidata": "Q21861491"}}, {"name": "Bundek breg", "latitude": 46.5096289, "longitude": 16.4109163, "elevation": 190.0, "source": "osm", "_tags": {"ele": "190", "name": "Bundek breg", "natural": "peak"}}, {"name": "Galgegg", "latitude": 46.8774586, "longitude": 15.9456836, "elevation": 389.0, "source": "osm", "_tags": {"ele": "389", "name": "Galgegg", "natural": "peak", "wikidata": "Q21861434"}}, {"name": "Sotinski breg (Kugla)", "latitude": 46.8360934, "longitude": 16.0306101, "elevation": 418.0, "source": "osm", "_tags": {"alt_name": "Prekmurski Triglav", "ele": "418", "name": "Sotinski breg (Kugla)", "name:de": "Stadelberg", "name:sl": "Sotinski breg", "natural": "peak", "wikidata": "Q55220992"}}, {"name": "Kienberg", "latitude": 47.424763, "longitude": 16.2650131, "elevation": 805.0, "source": "osm", "_tags": {"ele": "805", "name": "Kienberg", "natural": "peak"}}, {"name": "Tisch", "latitude": 47.4218326, "longitude": 16.2849107, "elevation": 618.0, "source": "osm", "_tags": {"ele": "618", "name": "Tisch", "natural": "peak"}}, {"name": "Waldwiesenberg", "latitude": 47.3774438, "longitude": 16.1791759, "elevation": 501.0, "source": "osm", "_tags": {"ele": "501", "name": "Waldwiesenberg", "natural": "peak", "source": "basemap.at"}}, {"name": "Steinberg", "latitude": 47.425245, "longitude": 16.1820228, "elevation": 671.0, "source": "osm", "_tags": {"ele": "671", "name": "Steinberg", "natural": "peak"}}, {"name": "Rotterberg", "latitude": 46.8318264, "longitude": 16.0059288, "elevation": 408.0, "source": "osm", "_tags": {"ele": "408", "name": "Rotterberg", "natural": "peak"}}, {"name": "Cimermanov breg", "latitude": 46.4561217, "longitude": 16.3578354, "elevation": 345.0, "source": "osm", "_tags": {"ele": "345", "name": "Cimermanov breg", "natural": "peak"}}, {"name": "", "latitude": 46.8504796, "longitude": 16.1103782, "elevation": null, "source": "osm", "_tags": {"natural": "peak"}}, {"name": "Retzelberg", "latitude": 46.9729213, "longitude": 16.1601906, "elevation": 368.0, "source": "osm", "_tags": {"ele": "368", "name": "Retzelberg", "natural": "peak"}}, {"name": "", "latitude": 47.365328, "longitude": 16.420671, "elevation": 739.0, "source": "osm", "_tags": {"ele": "739", "natural": "peak"}}, {"name": "", "latitude": 47.3365706, "longitude": 16.3376935, "elevation": 516.0, "source": "osm", "_tags": {"ele": "516", "natural": "peak", "source:ele": "GPS"}}, {"name": "Beistein", "latitude": 47.3607454, "longitude": 15.9476128, "elevation": 813.0, "source": "osm", "_tags": {"ele": "813", "name": "Beistein", "natural": "peak", "wikidata": "Q21873530"}}, {"name": "Steinergipfel", "latitude": 46.9982, "longitude": 16.2813108, "elevation": 336.0, "source": "osm", "_tags": {"ele": "336", "name": "Steinergipfel", "natural": "peak"}}, {"name": "Hochkogel", "latitude": 47.0206693, "longitude": 16.2320015, "elevation": 345.0, "source": "osm", "_tags": {"ele": "345", "name": "Hochkogel", "natural": "peak"}}, {"name": "Steinwandriegel", "latitude": 47.3680986, "longitude": 16.3187671, "elevation": 529.0, "source": "osm", "_tags": {"ele": "529", "name": "Steinwandriegel", "natural": "peak", "source": "basemap.at"}}, {"name": "Venec", "latitude": 46.5045422, "longitude": 16.3469097, "elevation": 297.0, "source": "osm", "_tags": {"ele": "297", "name": "Venec", "natural": "peak"}}, {"name": "Štrigovščak", "latitude": 46.4956806, "longitude": 16.285311, "elevation": 300.0, "source": "osm", "_tags": {"alt_name": "Štrigovčak", "ele": "300", "name": "Štrigovščak", "natural": "peak"}}, {"name": "Hohensteinmaißberg", "latitude": 47.1439304, "longitude": 16.346627, "elevation": 345.0, "source": "osm", "_tags": {"ele": "345", "name": "Hohensteinmaißberg", "natural": "peak"}}, {"name": "Orehovščak", "latitude": 46.481097, "longitude": 16.3074396, "elevation": 320.0, "source": "osm", "_tags": {"alt_name": "Orehovčak", "ele": "320", "name": "Orehovščak", "natural": "peak"}}, {"name": "", "latitude": 46.4756136, "longitude": 16.2788126, "elevation": 315.0, "source": "osm", "_tags": {"ele": "315", "natural": "peak"}}, {"name": "János-hegy", "latitude": 46.8954291, "longitude": 16.1764331, "elevation": 354.2, "source": "osm", "_tags": {"ele": "354.2", "name": "János-hegy", "natural": "peak", "wikidata": "Q26232465"}}, {"name": "", "latitude": 47.21262, "longitude": 16.423085, "elevation": 314.0, "source": "osm", "_tags": {"ele": "314", "fixme": "ele ungenau", "natural": "peak", "source": "GPS"}}, {"name": "", "latitude": 46.463931, "longitude": 16.2729518, "elevation": 320.0, "source": "osm", "_tags": {"ele": "320", "natural": "peak"}}, {"name": "Krafthügel", "latitude": 46.9863413, "longitude": 16.1127648, "elevation": null, "source": "osm", "_tags": {"name": "Krafthügel", "natural": "peak"}}, {"name": "Weidenhöhe", "latitude": 47.3932989, "longitude": 16.2346894, "elevation": 523.0, "source": "osm", "_tags": {"ele": "523", "name": "Weidenhöhe", "natural": "peak"}}, {"name": "", "latitude": 47.4065477, "longitude": 16.134253, "elevation": null, "source": "osm", "_tags": {"fixme": "name", "natural": "peak"}}, {"name": "Fuchsberg", "latitude": 47.0230299, "longitude": 16.2956518, "elevation": 365.0, "source": "osm", "_tags": {"ele": "365", "name": "Fuchsberg", "natural": "peak"}}, {"name": "Hundseck", "latitude": 47.0291441, "longitude": 16.283579, "elevation": 377.0, "source": "osm", "_tags": {"ele": "377", "name": "Hundseck", "natural": "peak"}}, {"name": "", "latitude": 46.888629, "longitude": 16.161562, "elevation": 382.0, "source": "osm", "_tags": {"ele": "382", "natural": "peak"}}, {"name": "Serdiški breg", "latitude": 46.8304119, "longitude": 16.0132208, "elevation": 416.0, "source": "osm", "_tags": {"ele": "416", "name": "Serdiški breg", "natural": "peak"}}, {"name": "", "latitude": 46.7770147, "longitude": 16.3644084, "elevation": 287.8, "source": "osm", "_tags": {"ele": "287.8", "natural": "peak"}}, {"name": "Berki-hegy", "latitude": 46.7803183, "longitude": 16.3951919, "elevation": 257.9, "source": "osm", "_tags": {"ele": "257.9", "name": "Berki-hegy", "natural": "peak"}}, {"name": "", "latitude": 46.9920196, "longitude": 16.464126, "elevation": 266.3, "source": "osm", "_tags": {"ele": "266.3", "natural": "peak"}}, {"name": "Csókás", "latitude": 47.004021, "longitude": 16.2966718, "elevation": 354.1, "source": "osm", "_tags": {"ele": "354.1", "name": "Csókás", "natural": "peak"}}, {"name": "Levente-hegy", "latitude": 46.9902923, "longitude": 16.3066765, "elevation": 298.4, "source": "osm", "_tags": {"ele": "298.4", "name": "Levente-hegy", "natural": "peak"}}, {"name": "", "latitude": 46.9831377, "longitude": 16.4362999, "elevation": 269.5, "source": "osm", "_tags": {"ele": "269.5", "natural": "peak"}}, {"name": "", "latitude": 46.9898917, "longitude": 16.4229889, "elevation": 235.4, "source": "osm", "_tags": {"ele": "235.4", "natural": "peak"}}, {"name": "", "latitude": 46.998107, "longitude": 16.4501472, "elevation": 260.5, "source": "osm", "_tags": {"ele": "260.5", "natural": "peak"}}, {"name": "", "latitude": 46.9930612, "longitude": 16.4486612, "elevation": 263.8, "source": "osm", "_tags": {"ele": "263.8", "natural": "peak"}}, {"name": "Savanyú-hegy", "latitude": 46.9999355, "longitude": 16.3961746, "elevation": 279.4, "source": "osm", "_tags": {"ele": "279.4", "name": "Savanyú-hegy", "natural": "peak"}}, {"name": "Lahmberg", "latitude": 47.0381896, "longitude": 16.396155, "elevation": 316.0, "source": "osm", "_tags": {"ele": "316", "name": "Lahmberg", "natural": "peak"}}, {"name": "Schöberlberg", "latitude": 47.0034528, "longitude": 16.3899949, "elevation": 277.0, "source": "osm", "_tags": {"ele": "277", "name": "Schöberlberg", "natural": "peak"}}, {"name": "Hofweinrigel", "latitude": 47.0604841, "longitude": 16.1870928, "elevation": 366.0, "source": "osm", "_tags": {"ele": "366", "name": "Hofweinrigel", "natural": "peak"}}, {"name": "Stettnerberg", "latitude": 47.0324039, "longitude": 16.3570654, "elevation": 301.0, "source": "osm", "_tags": {"ele": "301", "name": "Stettnerberg", "natural": "peak"}}, {"name": "Hamerlberg", "latitude": 47.0385114, "longitude": 16.3796389, "elevation": 327.0, "source": "osm", "_tags": {"ele": "327", "name": "Hamerlberg", "natural": "peak"}}, {"name": "Hochberg", "latitude": 47.0268844, "longitude": 16.4090699, "elevation": 306.0, "source": "osm", "_tags": {"ele": "306", "name": "Hochberg", "natural": "peak"}}, {"name": "", "latitude": 46.4798219, "longitude": 16.3303805, "elevation": 261.0, "source": "osm", "_tags": {"ele": "261", "natural": "peak"}}, {"name": "Trnovčak", "latitude": 46.487527, "longitude": 16.3204305, "elevation": 271.0, "source": "osm", "_tags": {"ele": "271", "name": "Trnovčak", "natural": "peak", "source": "geoportal.dgu.hr: TK25 (Topografska karta 1:25000)"}}, {"name": "Wenzelanger", "latitude": 47.4307438, "longitude": 16.2731117, "elevation": 830.0, "source": "osm", "_tags": {"ele": "830", "name": "Wenzelanger", "natural": "peak"}}, {"name": "Kögelberg", "latitude": 47.0066223, "longitude": 16.0634267, "elevation": 408.0, "source": "osm", "_tags": {"ele": "408", "name": "Kögelberg", "natural": "peak", "source": "Digitaler atlas Steiermark"}}, {"name": "", "latitude": 47.3486842, "longitude": 15.8872415, "elevation": 1237.0, "source": "osm", "_tags": {"ele": "1237", "natural": "peak", "source": "basemap.at"}}, {"name": "Pongratzer Kogel", "latitude": 47.3515119, "longitude": 15.8923459, "elevation": 1248.0, "source": "osm", "_tags": {"ele": "1248", "name": "Pongratzer Kogel", "natural": "peak", "source": "basemap.at", "wikidata": "Q21881469"}}, {"name": "Pucheggberg", "latitude": 47.3591472, "longitude": 15.8925658, "elevation": 1144.0, "source": "osm", "_tags": {"ele": "1144", "name": "Pucheggberg", "natural": "peak", "source": "basemap.at", "wikidata": "Q21881468"}}, {"name": "Hirschkogel", "latitude": 47.3093107, "longitude": 15.8939981, "elevation": 876.0, "source": "osm", "_tags": {"ele": "876", "name": "Hirschkogel", "natural": "peak", "source": "basemap.at"}}, {"name": "Tetterberg", "latitude": 47.2492176, "longitude": 16.0280013, "elevation": 445.0, "source": "osm", "_tags": {"ele": "445", "name": "Tetterberg", "natural": "peak", "source": "basemap.at"}}, {"name": "Ungarberg", "latitude": 47.1995205, "longitude": 16.2862024, "elevation": 366.0, "source": "osm", "_tags": {"ele": "366", "name": "Ungarberg", "natural": "peak"}}, {"name": "", "latitude": 47.2414614, "longitude": 16.2046781, "elevation": 364.0, "source": "osm", "_tags": {"ele": "364", "natural": "peak", "source": "BEV"}}, {"name": "", "latitude": 47.2620508, "longitude": 16.2145295, "elevation": 368.0, "source": "osm", "_tags": {"ele": "368", "natural": "peak", "source": "BEV"}}, {"name": "Križarka", "latitude": 46.8285327, "longitude": 16.1324786, "elevation": 413.0, "source": "osm", "_tags": {"ele": "413", "name": "Križarka", "natural": "peak", "source": "geoportal.gov.si"}}, {"name": "Sedlarov breg", "latitude": 46.8070003, "longitude": 16.1617413, "elevation": 364.0, "source": "osm", "_tags": {"ele": "364", "name": "Sedlarov breg", "natural": "peak"}}, {"name": "Slamek", "latitude": 46.4750965, "longitude": 16.2933705, "elevation": 329.0, "source": "osm", "_tags": {"ele": "329", "name": "Slamek", "natural": "peak"}}, {"name": "Riegersburg", "latitude": 47.0049335, "longitude": 15.932539, "elevation": 484.0, "source": "osm", "_tags": {"ele": "484", "name": "Riegersburg", "natural": "peak", "source": "BEV"}}, {"name": "Sengberg", "latitude": 47.0078405, "longitude": 15.9180423, "elevation": 424.0, "source": "osm", "_tags": {"ele": "424", "name": "Sengberg", "natural": "peak", "source": "BEV"}}, {"name": "", "latitude": 47.0008314, "longitude": 15.9141477, "elevation": 421.0, "source": "osm", "_tags": {"ele": "421", "natural": "peak", "source": "BEV"}}, {"name": "Weinberg", "latitude": 47.3067887, "longitude": 16.38361, "elevation": 494.0, "source": "osm", "_tags": {"ele": "494", "name": "Weinberg", "natural": "peak"}}, {"name": "Budiriegel", "latitude": 47.3145077, "longitude": 16.416781, "elevation": 535.0, "source": "osm", "_tags": {"ele": "535", "name": "Budiriegel", "natural": "peak"}}, {"name": "Hinterleiten", "latitude": 47.330202, "longitude": 16.4297523, "elevation": 618.0, "source": "osm", "_tags": {"ele": "618", "name": "Hinterleiten", "natural": "peak"}}, {"name": "", "latitude": 47.1717778, "longitude": 15.9801176, "elevation": 412.0, "source": "osm", "_tags": {"ele": "412", "natural": "peak", "source": "BEV"}}, {"name": "", "latitude": 47.1105798, "longitude": 16.1562626, "elevation": 341.0, "source": "osm", "_tags": {"ele": "341", "natural": "peak", "source": "BEV"}}, {"name": "", "latitude": 47.0945176, "longitude": 16.1781924, "elevation": 330.0, "source": "osm", "_tags": {"ele": "330", "natural": "peak", "source": "BEV"}}, {"name": "", "latitude": 47.1613175, "longitude": 16.1346323, "elevation": 358.0, "source": "osm", "_tags": {"ele": "358", "natural": "peak", "source": "BEV"}}, {"name": "", "latitude": 47.1435543, "longitude": 16.1301906, "elevation": 350.0, "source": "osm", "_tags": {"ele": "350", "natural": "peak", "source": "BEV"}}, {"name": "", "latitude": 47.1444227, "longitude": 16.147185, "elevation": 350.0, "source": "osm", "_tags": {"ele": "350", "natural": "peak", "source": "BEV"}}, {"name": "Neuberg", "latitude": 47.2863322, "longitude": 15.9395243, "elevation": 548.0, "source": "osm", "_tags": {"ele": "548", "name": "Neuberg", "natural": "peak"}}, {"name": "", "latitude": 47.0305864, "longitude": 15.9656352, "elevation": 373.0, "source": "osm", "_tags": {"ele": "373", "natural": "peak", "source": "BEV"}}, {"name": "Loiberg", "latitude": 47.0222322, "longitude": 15.9712786, "elevation": 392.0, "source": "osm", "_tags": {"ele": "392", "name": "Loiberg", "natural": "peak", "source": "BEV"}}, {"name": "Hochriegel", "latitude": 47.4131477, "longitude": 16.1119223, "elevation": 673.0, "source": "osm", "_tags": {"ele": "673", "name": "Hochriegel", "natural": "peak", "source": "basemap.at", "wikidata": "Q107265721"}}, {"name": "Kreuzberg", "latitude": 47.4029824, "longitude": 16.1949474, "elevation": 601.0, "source": "osm", "_tags": {"ele": "601", "name": "Kreuzberg", "natural": "peak", "source": "basemap.at"}}, {"name": "Berdo", "latitude": 47.2752984, "longitude": 16.2912762, "elevation": 363.0, "source": "osm", "_tags": {"ele": "363", "name": "Berdo", "natural": "peak", "source": "basemap.at"}}, {"name": "Erzberg", "latitude": 47.3090634, "longitude": 16.2698293, "elevation": 412.0, "source": "osm", "_tags": {"ele": "412", "name": "Erzberg", "natural": "peak", "source": "basemap.at"}}, {"name": "Reitboden", "latitude": 47.3656296, "longitude": 16.3038826, "elevation": 543.0, "source": "osm", "_tags": {"ele": "543", "name": "Reitboden", "natural": "peak", "source": "basemap.at"}}, {"name": "Königsberg", "latitude": 47.2193495, "longitude": 16.3837695, "elevation": 350.0, "source": "osm", "_tags": {"ele": "350", "name": "Königsberg", "natural": "peak", "source": "basemap.at"}}, {"name": "Pullersberg", "latitude": 47.4204801, "longitude": 16.3859045, "elevation": 432.0, "source": "osm", "_tags": {"ele": "432", "name": "Pullersberg", "natural": "peak", "source": "basemap.at"}}, {"name": "Apfalter", "latitude": 47.415834, "longitude": 16.4617252, "elevation": 389.0, "source": "osm", "_tags": {"ele": "389", "name": "Apfalter", "natural": "peak", "source": "basemap.at"}}, {"name": "Großer Beerriegel", "latitude": 47.3818176, "longitude": 16.447649, "elevation": 510.0, "source": "osm", "_tags": {"ele": "510", "name": "Großer Beerriegel", "natural": "peak", "source": "basemap.at"}}, {"name": "Weidriegel", "latitude": 47.3862052, "longitude": 16.4110422, "elevation": 605.0, "source": "osm", "_tags": {"ele": "605", "name": "Weidriegel", "natural": "peak", "source": "basemap.at"}}, {"name": "Dürrleiten", "latitude": 47.3774296, "longitude": 16.3945412, "elevation": 607.0, "source": "osm", "_tags": {"ele": "607", "name": "Dürrleiten", "natural": "peak", "source": "basemap.at"}}, {"name": "Höltlhöhe", "latitude": 47.2873478, "longitude": 16.1089879, "elevation": 446.0, "source": "osm", "_tags": {"ele": "446", "name": "Höltlhöhe", "natural": "peak", "source": "basemap.at"}}, {"name": "Schirnitzriegel", "latitude": 47.4261711, "longitude": 16.3070583, "elevation": 630.0, "source": "osm", "_tags": {"ele": "630", "name": "Schirnitzriegel", "natural": "peak", "source": "basemap.at"}}, {"name": "Steinriegel", "latitude": 47.2425534, "longitude": 16.2482858, "elevation": 369.0, "source": "osm", "_tags": {"ele": "369", "name": "Steinriegel", "natural": "peak", "source": "basemap.at"}}, {"name": "Arischberg", "latitude": 47.1060112, "longitude": 16.2636548, "elevation": 312.0, "source": "osm", "_tags": {"ele": "312", "name": "Arischberg", "natural": "peak", "source": "basemap.at"}}, {"name": "Kogel", "latitude": 47.1302427, "longitude": 16.1922973, "elevation": 323.0, "source": "osm", "_tags": {"ele": "323", "name": "Kogel", "natural": "peak"}}, {"name": "Schaflerhöhe", "latitude": 47.384972, "longitude": 16.1351962, "elevation": 456.0, "source": "osm", "_tags": {"ele": "456", "name": "Schaflerhöhe", "natural": "peak", "source": "FJLA;FLA"}}, {"name": "", "latitude": 47.3731551, "longitude": 16.1353099, "elevation": 464.0, "source": "osm", "_tags": {"ele": "464", "natural": "peak", "note": "lt. FJLA 470m (zu hoch)", "source": "basemap;FJLA"}}, {"name": "Steinriegel", "latitude": 47.3608287, "longitude": 16.1393468, "elevation": 456.0, "source": "osm", "_tags": {"ele": "456", "name": "Steinriegel", "natural": "peak", "source": "FJLA;FLA;basemap"}}, {"name": "", "latitude": 47.3647053, "longitude": 16.1016193, "elevation": 507.0, "source": "osm", "_tags": {"ele": "507", "natural": "peak", "source": "ÖK50"}}, {"name": "Steinriegel", "latitude": 47.3418057, "longitude": 16.1168128, "elevation": 476.0, "source": "osm", "_tags": {"ele": "476", "name": "Steinriegel", "natural": "peak", "source": "ÖK50;FJLA"}}, {"name": "Siebachberg", "latitude": 47.3774488, "longitude": 16.1033625, "elevation": 481.0, "source": "osm", "_tags": {"ele": "481", "name": "Siebachberg", "natural": "peak", "source": "basemap;FLA"}}, {"name": "Mühlriegel", "latitude": 47.4057891, "longitude": 16.0909762, "elevation": 524.0, "source": "osm", "_tags": {"ele": "524", "name": "Mühlriegel", "natural": "peak", "source": "basemap;ÖK50;FJLA", "wikidata": "Q107266636"}}, {"name": "Buchegg", "latitude": 47.4148417, "longitude": 16.09288, "elevation": 579.0, "source": "osm", "_tags": {"ele": "579", "name": "Buchegg", "natural": "peak", "source": "basemap;ÖK50", "wikidata": "Q107266687"}}, {"name": "Wiesberg", "latitude": 47.3367124, "longitude": 15.8926155, "elevation": 1164.0, "source": "osm", "_tags": {"ele": "1164", "name": "Wiesberg", "natural": "peak"}}, {"name": "Kugel", "latitude": 46.8592945, "longitude": 16.106358, "elevation": 346.0, "source": "osm", "_tags": {"ele": "346", "name": "Kugel", "natural": "peak"}}, {"name": "Zalka", "latitude": 46.84999, "longitude": 16.1121168, "elevation": 362.0, "source": "osm", "_tags": {"ele": "362", "name": "Zalka", "natural": "peak"}}, {"name": "Petrin breg", "latitude": 46.8413799, "longitude": 16.1268205, "elevation": 396.0, "source": "osm", "_tags": {"ele": "396", "name": "Petrin breg", "natural": "peak"}}, {"name": "Srebrni breg", "latitude": 46.8503264, "longitude": 16.1438019, "elevation": 404.0, "source": "osm", "_tags": {"ele": "404", "name": "Srebrni breg", "natural": "peak"}}, {"name": "Prelog", "latitude": 46.851222, "longitude": 16.1857824, "elevation": 359.0, "source": "osm", "_tags": {"ele": "359", "name": "Prelog", "natural": "peak"}}, {"name": "Vojni breg", "latitude": 46.8401193, "longitude": 16.1352025, "elevation": 391.0, "source": "osm", "_tags": {"ele": "391", "name": "Vojni breg", "natural": "peak"}}, {"name": "Drojni breg", "latitude": 46.8208369, "longitude": 16.1732795, "elevation": 351.0, "source": "osm", "_tags": {"ele": "351", "name": "Drojni breg", "natural": "peak"}}, {"name": "Huma", "latitude": 46.8146095, "longitude": 16.1830771, "elevation": 362.0, "source": "osm", "_tags": {"ele": "362", "name": "Huma", "natural": "peak"}}, {"name": "Čepeleš", "latitude": 46.805782, "longitude": 16.3271098, "elevation": 298.0, "source": "osm", "_tags": {"ele": "298", "name": "Čepeleš", "natural": "peak"}}, {"name": "Bejčin breg", "latitude": 46.8653627, "longitude": 16.2382072, "elevation": 344.0, "source": "osm", "_tags": {"ele": "344", "name": "Bejčin breg", "natural": "peak"}}, {"name": "Veliki vrh", "latitude": 46.8564137, "longitude": 16.2355885, "elevation": 337.0, "source": "osm", "_tags": {"ele": "337", "name": "Veliki vrh", "natural": "peak"}}, {"name": "Črnkin breg", "latitude": 46.8535806, "longitude": 16.2438717, "elevation": 324.0, "source": "osm", "_tags": {"ele": "324", "name": "Črnkin breg", "natural": "peak"}}, {"name": "Gorički breg", "latitude": 46.8667441, "longitude": 16.2164765, "elevation": 362.0, "source": "osm", "_tags": {"ele": "362", "name": "Gorički breg", "natural": "peak"}}, {"name": "Kamenek", "latitude": 46.8429178, "longitude": 16.314457, "elevation": 292.0, "source": "osm", "_tags": {"ele": "292", "name": "Kamenek", "natural": "peak"}}, {"name": "Soški vrh", "latitude": 46.8724358, "longitude": 16.2898896, "elevation": 326.0, "source": "osm", "_tags": {"ele": "326", "name": "Soški vrh", "natural": "peak"}}, {"name": "Gračec", "latitude": 46.8640807, "longitude": 16.2827653, "elevation": 304.0, "source": "osm", "_tags": {"ele": "304", "name": "Gračec", "natural": "peak"}}, {"name": "Vrana", "latitude": 46.8288047, "longitude": 16.3114405, "elevation": 274.0, "source": "osm", "_tags": {"ele": "274", "name": "Vrana", "natural": "peak"}}, {"name": "Popovšček", "latitude": 46.8086959, "longitude": 16.0910933, "elevation": 369.0, "source": "osm", "_tags": {"ele": "369", "name": "Popovšček", "natural": "peak"}}, {"name": "Pepelšček", "latitude": 46.8054302, "longitude": 16.1020285, "elevation": 386.0, "source": "osm", "_tags": {"ele": "386", "name": "Pepelšček", "natural": "peak"}}, {"name": "Kripta", "latitude": 46.7932837, "longitude": 16.0887169, "elevation": 331.0, "source": "osm", "_tags": {"ele": "331", "name": "Kripta", "natural": "peak"}}, {"name": "Majorec", "latitude": 46.8002837, "longitude": 16.1762283, "elevation": 364.0, "source": "osm", "_tags": {"ele": "364", "name": "Majorec", "natural": "peak"}}, {"name": "Kančec", "latitude": 46.8207676, "longitude": 16.1159943, "elevation": 376.0, "source": "osm", "_tags": {"ele": "376", "name": "Kančec", "natural": "peak"}}, {"name": "Begarjev breg", "latitude": 46.7793878, "longitude": 16.1676857, "elevation": 319.0, "source": "osm", "_tags": {"ele": "319", "name": "Begarjev breg", "natural": "peak"}}, {"name": "Praponek", "latitude": 46.7888249, "longitude": 16.1882637, "elevation": 397.0, "source": "osm", "_tags": {"ele": "397", "name": "Praponek", "natural": "peak"}}, {"name": "Strmec", "latitude": 46.7874858, "longitude": 16.2048953, "elevation": 382.0, "source": "osm", "_tags": {"ele": "382", "name": "Strmec", "natural": "peak"}}, {"name": "Kovčev breg", "latitude": 46.7814379, "longitude": 16.2121741, "elevation": 375.0, "source": "osm", "_tags": {"ele": "375", "name": "Kovčev breg", "natural": "peak"}}, {"name": "Kamenek", "latitude": 46.7752151, "longitude": 16.2029908, "elevation": 392.0, "source": "osm", "_tags": {"ele": "392", "name": "Kamenek", "natural": "peak"}}, {"name": "Veliki Vrej", "latitude": 46.7975425, "longitude": 16.21748, "elevation": 329.0, "source": "osm", "_tags": {"ele": "329", "name": "Veliki Vrej", "natural": "peak"}}, {"name": "Džekišev breg", "latitude": 46.7638658, "longitude": 16.2206102, "elevation": 369.0, "source": "osm", "_tags": {"ele": "369", "name": "Džekišev breg", "natural": "peak"}}, {"name": "Beli breg", "latitude": 46.8137034, "longitude": 16.0076812, "elevation": 346.0, "source": "osm", "_tags": {"ele": "346", "name": "Beli breg", "natural": "peak"}}, {"name": "Rožičev breg", "latitude": 46.8205077, "longitude": 16.0065803, "elevation": 327.0, "source": "osm", "_tags": {"ele": "327", "name": "Rožičev breg", "natural": "peak"}}, {"name": "Črešnjevec", "latitude": 46.823751, "longitude": 16.0211, "elevation": 310.0, "source": "osm", "_tags": {"ele": "310", "name": "Črešnjevec", "natural": "peak"}}, {"name": "Apneni breg", "latitude": 46.8265127, "longitude": 15.9955559, "elevation": 352.0, "source": "osm", "_tags": {"ele": "352", "name": "Apneni breg", "natural": "peak"}}, {"name": "Bogin breg", "latitude": 46.8469771, "longitude": 16.1130292, "elevation": 371.0, "source": "osm", "_tags": {"ele": "371", "name": "Bogin breg", "natural": "peak"}}, {"name": "Uma", "latitude": 46.7892157, "longitude": 16.1546817, "elevation": 346.0, "source": "osm", "_tags": {"ele": "346", "name": "Uma", "natural": "peak"}}, {"name": "Rakov vrh", "latitude": 46.7860218, "longitude": 16.0133716, "elevation": 367.0, "source": "osm", "_tags": {"ele": "367", "name": "Rakov vrh", "natural": "peak"}}, {"name": "Činčev breg", "latitude": 46.837493, "longitude": 16.043038, "elevation": 375.0, "source": "osm", "_tags": {"ele": "375", "name": "Činčev breg", "natural": "peak"}}, {"name": "Jaklov breg", "latitude": 46.8506603, "longitude": 16.07922, "elevation": 374.0, "source": "osm", "_tags": {"ele": "374", "name": "Jaklov breg", "natural": "peak"}}, {"name": "Kinšček", "latitude": 46.7866272, "longitude": 16.113637, "elevation": 354.0, "source": "osm", "_tags": {"ele": "354", "name": "Kinšček", "natural": "peak"}}, {"name": "Abrahamov breg", "latitude": 46.7626984, "longitude": 16.1566249, "elevation": 323.0, "source": "osm", "_tags": {"ele": "323", "name": "Abrahamov breg", "natural": "peak"}}, {"name": "Sukićev breg", "latitude": 46.778353, "longitude": 16.1295029, "elevation": 326.0, "source": "osm", "_tags": {"ele": "326", "name": "Sukićev breg", "natural": "peak"}}, {"name": "Vrej", "latitude": 46.785939, "longitude": 16.1411538, "elevation": 342.0, "source": "osm", "_tags": {"ele": "342", "name": "Vrej", "natural": "peak"}}, {"name": "Riganoc", "latitude": 46.6622092, "longitude": 16.3924094, "elevation": 212.0, "source": "osm", "_tags": {"ele": "212", "name": "Riganoc", "natural": "peak"}}, {"name": "Sveti Martin", "latitude": 46.6745262, "longitude": 16.3823395, "elevation": 230.0, "source": "osm", "_tags": {"ele": "230", "name": "Sveti Martin", "name:hu": "Szent Márton-hegy", "natural": "peak"}}, {"name": "Čerteg", "latitude": 46.6969647, "longitude": 16.3935336, "elevation": 220.0, "source": "osm", "_tags": {"ele": "220", "name": "Čerteg", "natural": "peak"}}, {"name": "Turnerov breg", "latitude": 46.6840285, "longitude": 16.377035, "elevation": 217.0, "source": "osm", "_tags": {"ele": "217", "name": "Turnerov breg", "natural": "peak"}}, {"name": "Trebež", "latitude": 46.6932791, "longitude": 16.3000413, "elevation": 263.0, "source": "osm", "_tags": {"ele": "263", "name": "Trebež", "natural": "peak"}}, {"name": "Mali Vrej", "latitude": 46.6961641, "longitude": 16.4031814, "elevation": 218.0, "source": "osm", "_tags": {"ele": "218", "name": "Mali Vrej", "natural": "peak"}}, {"name": "Breznov breg", "latitude": 46.7070655, "longitude": 16.3102795, "elevation": 280.0, "source": "osm", "_tags": {"ele": "280", "name": "Breznov breg", "natural": "peak"}}, {"name": "Trebež", "latitude": 46.7175589, "longitude": 16.3006736, "elevation": 289.0, "source": "osm", "_tags": {"ele": "289", "name": "Trebež", "natural": "peak"}}, {"name": "Vršič", "latitude": 46.6834075, "longitude": 16.2802231, "elevation": 246.0, "source": "osm", "_tags": {"ele": "246", "name": "Vršič", "natural": "peak"}}, {"name": "Gabernik", "latitude": 46.7243912, "longitude": 16.2889806, "elevation": 317.0, "source": "osm", "_tags": {"ele": "317", "name": "Gabernik", "natural": "peak"}}, {"name": "Domba", "latitude": 46.7253094, "longitude": 16.3105427, "elevation": 276.0, "source": "osm", "_tags": {"ele": "276", "name": "Domba", "natural": "peak"}}, {"name": "Gomba", "latitude": 46.7050539, "longitude": 16.2746618, "elevation": 290.0, "source": "osm", "_tags": {"ele": "290", "name": "Gomba", "natural": "peak"}}, {"name": "Kamena gorica", "latitude": 46.721105, "longitude": 16.2522765, "elevation": 317.0, "source": "osm", "_tags": {"ele": "317", "name": "Kamena gorica", "natural": "peak"}}, {"name": "Blažev breg", "latitude": 46.706309, "longitude": 16.2538182, "elevation": 283.0, "source": "osm", "_tags": {"ele": "283", "name": "Blažev breg", "natural": "peak"}}, {"name": "Komen", "latitude": 46.742219, "longitude": 16.2256519, "elevation": 324.0, "source": "osm", "_tags": {"ele": "324", "name": "Komen", "natural": "peak"}}, {"name": "Rdeči breg", "latitude": 46.713422, "longitude": 16.2349784, "elevation": 277.0, "source": "osm", "_tags": {"ele": "277", "name": "Rdeči breg", "natural": "peak"}}, {"name": "Trestenjak", "latitude": 46.7397613, "longitude": 16.2108991, "elevation": 304.0, "source": "osm", "_tags": {"ele": "304", "name": "Trestenjak", "natural": "peak"}}, {"name": "Gomba", "latitude": 46.7573584, "longitude": 16.2809759, "elevation": 307.0, "source": "osm", "_tags": {"ele": "307", "name": "Gomba", "natural": "peak"}}, {"name": "Kermendin", "latitude": 46.7406773, "longitude": 16.2420917, "elevation": 348.0, "source": "osm", "_tags": {"ele": "348", "name": "Kermendin", "natural": "peak"}}, {"name": "Gavge", "latitude": 46.7446327, "longitude": 16.2464736, "elevation": 360.0, "source": "osm", "_tags": {"ele": "360", "name": "Gavge", "natural": "peak"}}, {"name": "Rastike", "latitude": 46.7616135, "longitude": 16.2789098, "elevation": 302.0, "source": "osm", "_tags": {"ele": "302", "name": "Rastike", "natural": "peak"}}, {"name": "Gomila", "latitude": 46.7753014, "longitude": 16.2576337, "elevation": 334.0, "source": "osm", "_tags": {"ele": "334", "name": "Gomila", "natural": "peak"}}, {"name": "Želerjev breg", "latitude": 46.748571, "longitude": 16.2583661, "elevation": 342.0, "source": "osm", "_tags": {"ele": "342", "name": "Želerjev breg", "natural": "peak"}}, {"name": "Vrej", "latitude": 46.7594466, "longitude": 16.2680794, "elevation": 333.0, "source": "osm", "_tags": {"ele": "333", "name": "Vrej", "natural": "peak"}}, {"name": "Celina", "latitude": 46.7705502, "longitude": 16.2782503, "elevation": 318.0, "source": "osm", "_tags": {"ele": "318", "name": "Celina", "natural": "peak"}}, {"name": "Kamenek", "latitude": 46.7987757, "longitude": 16.2724462, "elevation": 340.0, "source": "osm", "_tags": {"ele": "340", "name": "Kamenek", "natural": "peak"}}, {"name": "Bencatni breg", "latitude": 46.7625637, "longitude": 16.2498119, "elevation": 349.0, "source": "osm", "_tags": {"ele": "349", "name": "Bencatni breg", "natural": "peak"}}, {"name": "Črdjelov breg", "latitude": 46.7636403, "longitude": 16.2403172, "elevation": 341.0, "source": "osm", "_tags": {"ele": "341", "name": "Črdjelov breg", "natural": "peak"}}, {"name": "Bukov breg", "latitude": 46.7960817, "longitude": 16.3026074, "elevation": 323.0, "source": "osm", "_tags": {"ele": "323", "name": "Bukov breg", "natural": "peak"}}, {"name": "Cankovec", "latitude": 46.7694923, "longitude": 16.2341161, "elevation": 367.0, "source": "osm", "_tags": {"ele": "367", "name": "Cankovec", "natural": "peak"}}, {"name": "Veliki breg", "latitude": 46.7754543, "longitude": 16.3037968, "elevation": 297.0, "source": "osm", "_tags": {"ele": "297", "name": "Veliki breg", "natural": "peak"}}, {"name": "Homokoš", "latitude": 46.7764802, "longitude": 16.2615339, "elevation": 334.0, "source": "osm", "_tags": {"ele": "334", "name": "Homokoš", "natural": "peak"}}, {"name": "Novi vrh", "latitude": 46.797028, "longitude": 16.2967527, "elevation": 326.0, "source": "osm", "_tags": {"ele": "326", "name": "Novi vrh", "natural": "peak"}}, {"name": "Stari breg", "latitude": 46.800477, "longitude": 16.3115453, "elevation": 306.0, "source": "osm", "_tags": {"ele": "306", "name": "Stari breg", "natural": "peak"}}, {"name": "Krojaški breg", "latitude": 46.7780928, "longitude": 16.3120302, "elevation": 270.0, "source": "osm", "_tags": {"ele": "270", "name": "Krojaški breg", "natural": "peak"}}, {"name": "Balažičin breg", "latitude": 46.7980858, "longitude": 16.2545878, "elevation": 330.0, "source": "osm", "_tags": {"ele": "330", "name": "Balažičin breg", "natural": "peak"}}, {"name": "Šintarski breg", "latitude": 46.7992228, "longitude": 16.2631506, "elevation": 338.0, "source": "osm", "_tags": {"ele": "338", "name": "Šintarski breg", "natural": "peak"}}, {"name": "Ludac", "latitude": 46.8137913, "longitude": 16.3076102, "elevation": 271.0, "source": "osm", "_tags": {"ele": "271", "name": "Ludac", "natural": "peak"}}, {"name": "Jamski breg", "latitude": 46.8398188, "longitude": 16.2766401, "elevation": 312.0, "source": "osm", "_tags": {"ele": "312", "name": "Jamski breg", "natural": "peak"}}, {"name": "Skaličev breg", "latitude": 46.7209095, "longitude": 16.1984341, "elevation": 291.0, "source": "osm", "_tags": {"ele": "291", "name": "Skaličev breg", "natural": "peak"}}, {"name": "Kutošev breg", "latitude": 46.8379207, "longitude": 16.2837299, "elevation": 322.0, "source": "osm", "_tags": {"ele": "322", "name": "Kutošev breg", "natural": "peak"}}, {"name": "Kančec", "latitude": 46.8151444, "longitude": 16.2648802, "elevation": 293.0, "source": "osm", "_tags": {"ele": "293", "name": "Kančec", "natural": "peak"}}, {"name": "Griža", "latitude": 46.8134463, "longitude": 16.2546562, "elevation": 307.0, "source": "osm", "_tags": {"ele": "307", "name": "Griža", "natural": "peak"}}, {"name": "Kančec", "latitude": 46.8130893, "longitude": 16.2402004, "elevation": 322.0, "source": "osm", "_tags": {"ele": "322", "name": "Kančec", "natural": "peak"}}, {"name": "Vrbnjek", "latitude": 46.7332734, "longitude": 16.1591208, "elevation": 298.0, "source": "osm", "_tags": {"ele": "298", "name": "Vrbnjek", "natural": "peak"}}, {"name": "Zasad", "latitude": 46.7701472, "longitude": 16.1770112, "elevation": 338.0, "source": "osm", "_tags": {"ele": "338", "name": "Zasad", "natural": "peak"}}, {"name": "Pernjek", "latitude": 46.7387992, "longitude": 16.1484878, "elevation": 302.0, "source": "osm", "_tags": {"ele": "302", "name": "Pernjek", "natural": "peak"}}, {"name": "Vrej", "latitude": 46.7451345, "longitude": 16.1805694, "elevation": 331.0, "source": "osm", "_tags": {"ele": "331", "name": "Vrej", "natural": "peak"}}, {"name": "Ribnjek", "latitude": 46.7339388, "longitude": 16.1773091, "elevation": 317.0, "source": "osm", "_tags": {"ele": "317", "name": "Ribnjek", "natural": "peak"}}, {"name": "Zalka", "latitude": 46.7487417, "longitude": 16.193685, "elevation": 302.0, "source": "osm", "_tags": {"ele": "302", "name": "Zalka", "natural": "peak"}}, {"name": "Lebarjevo", "latitude": 46.7405446, "longitude": 16.1959401, "elevation": 299.0, "source": "osm", "_tags": {"ele": "299", "name": "Lebarjevo", "natural": "peak"}}, {"name": "Kralošček", "latitude": 46.7369606, "longitude": 16.1300735, "elevation": 287.0, "source": "osm", "_tags": {"ele": "287", "name": "Kralošček", "natural": "peak"}}, {"name": "Ograd", "latitude": 46.7316594, "longitude": 16.1925647, "elevation": 282.0, "source": "osm", "_tags": {"ele": "282", "name": "Ograd", "natural": "peak"}}, {"name": "Breg", "latitude": 46.693205, "longitude": 16.2000304, "elevation": 208.0, "source": "osm", "_tags": {"ele": "208", "name": "Breg", "natural": "peak"}}, {"name": "Breg", "latitude": 46.696501, "longitude": 16.1745079, "elevation": 215.0, "source": "osm", "_tags": {"ele": "215", "name": "Breg", "natural": "peak"}}, {"name": "Griški vrh", "latitude": 46.7397742, "longitude": 16.115952, "elevation": 322.0, "source": "osm", "_tags": {"ele": "322", "name": "Griški vrh", "natural": "peak"}}, {"name": "Kokotinjek", "latitude": 46.7407107, "longitude": 16.0819346, "elevation": 277.0, "source": "osm", "_tags": {"ele": "277", "name": "Kokotinjek", "natural": "peak"}}, {"name": "Kamenšček", "latitude": 46.75935, "longitude": 16.095024, "elevation": 347.0, "source": "osm", "_tags": {"ele": "347", "name": "Kamenšček", "natural": "peak"}}, {"name": "", "latitude": 47.3261705, "longitude": 15.8991373, "elevation": 1097.0, "source": "osm", "_tags": {"ele": "1097", "natural": "peak"}}, {"name": "", "latitude": 46.8554794, "longitude": 16.1580138, "elevation": 397.0, "source": "osm", "_tags": {"ele": "397", "natural": "peak"}}, {"name": "Kapfensteiner Kogel", "latitude": 46.89214, "longitude": 15.9752331, "elevation": 473.0, "source": "osm", "_tags": {"ele": "473", "name": "Kapfensteiner Kogel", "natural": "peak", "wikidata": "Q21861447"}}, {"name": "Gomila", "latitude": 46.5900553, "longitude": 15.9257697, "elevation": 325.0, "source": "osm", "_tags": {"ele": "325", "name": "Gomila", "natural": "peak"}}, {"name": "Dajnšek", "latitude": 46.5965091, "longitude": 15.9331078, "elevation": 297.0, "source": "osm", "_tags": {"ele": "297", "name": "Dajnšek", "natural": "peak"}}, {"name": "Turnovž", "latitude": 46.5625924, "longitude": 15.9141, "elevation": 282.0, "source": "osm", "_tags": {"ele": "282", "name": "Turnovž", "natural": "peak"}}, {"name": "Kodoličov breg", "latitude": 46.6694914, "longitude": 15.9614893, "elevation": 334.0, "source": "osm", "_tags": {"ele": "334", "name": "Kodoličov breg", "natural": "peak"}}, {"name": "Piramida", "latitude": 46.6779175, "longitude": 15.9700755, "elevation": 310.0, "source": "osm", "_tags": {"ele": "310", "name": "Piramida", "natural": "peak"}}, {"name": "Norički vrh", "latitude": 46.6692251, "longitude": 15.9818768, "elevation": 303.0, "source": "osm", "_tags": {"ele": "303", "name": "Norički vrh", "natural": "peak"}}, {"name": "Zomarov breg", "latitude": 46.6659159, "longitude": 15.9576023, "elevation": 330.0, "source": "osm", "_tags": {"ele": "330", "name": "Zomarov breg", "natural": "peak"}}, {"name": "Kmetušak", "latitude": 46.6036469, "longitude": 15.9325156, "elevation": 282.0, "source": "osm", "_tags": {"ele": "282", "name": "Kmetušak", "natural": "peak"}}, {"name": "Smolinski vrh", "latitude": 46.5505681, "longitude": 15.9751881, "elevation": 322.0, "source": "osm", "_tags": {"ele": "322", "name": "Smolinski vrh", "natural": "peak"}}, {"name": "Lokavsko brdo", "latitude": 46.6160662, "longitude": 15.9267908, "elevation": 297.0, "source": "osm", "_tags": {"ele": "297", "name": "Lokavsko brdo", "natural": "peak"}}, {"name": "Kremperk", "latitude": 46.5597026, "longitude": 15.9316668, "elevation": 339.0, "source": "osm", "_tags": {"ele": "339", "name": "Kremperk", "natural": "peak"}}, {"name": "Kogel", "latitude": 46.6055076, "longitude": 15.9376126, "elevation": 305.0, "source": "osm", "_tags": {"ele": "305", "name": "Kogel", "natural": "peak"}}, {"name": "Stadelberg", "latitude": 46.8375167, "longitude": 16.0335642, "elevation": 418.0, "source": "osm", "_tags": {"ele": "418", "name": "Stadelberg", "natural": "peak", "source:ele": "Laserscan Geländemodell auf https://geodaten.bgld.gv.at"}}, {"name": "Makotrov breg", "latitude": 46.7455687, "longitude": 16.2851276, "elevation": 319.0, "source": "osm", "_tags": {"ele": "319", "name": "Makotrov breg", "natural": "peak"}}, {"name": "Ostragova", "latitude": 46.5404228, "longitude": 15.9247879, "elevation": 309.0, "source": "osm", "_tags": {"ele": "309", "name": "Ostragova", "natural": "peak"}}, {"name": "Weinberg", "latitude": 47.0486533, "longitude": 15.9192998, "elevation": 390.0, "source": "osm", "_tags": {"ele": "390", "name": "Weinberg", "natural": "peak"}}, {"name": "Zanglberg", "latitude": 46.9791092, "longitude": 15.8899368, "elevation": 395.0, "source": "osm", "_tags": {"ele": "395", "name": "Zanglberg", "natural": "peak"}}, {"name": "", "latitude": 46.9955473, "longitude": 15.8951667, "elevation": 428.0, "source": "osm", "_tags": {"ele": "428", "natural": "peak"}}, {"name": "Rinneregg", "latitude": 47.0073566, "longitude": 15.886649, "elevation": 426.0, "source": "osm", "_tags": {"ele": "426", "name": "Rinneregg", "natural": "peak"}}, {"name": "Ilzberg", "latitude": 47.0734091, "longitude": 15.9065841, "elevation": 409.0, "source": "osm", "_tags": {"ele": "409", "name": "Ilzberg", "natural": "peak"}}, {"name": "Priusberg", "latitude": 47.1134198, "longitude": 15.8986857, "elevation": 421.0, "source": "osm", "_tags": {"ele": "421", "name": "Priusberg", "natural": "peak"}}, {"name": "", "latitude": 47.1802394, "longitude": 15.8968416, "elevation": 452.0, "source": "osm", "_tags": {"ele": "452", "natural": "peak"}}, {"name": "", "latitude": 47.2022952, "longitude": 15.9296438, "elevation": 387.0, "source": "osm", "_tags": {"ele": "387", "natural": "peak"}}, {"name": "", "latitude": 47.2633699, "longitude": 15.9460765, "elevation": 391.0, "source": "osm", "_tags": {"ele": "391", "natural": "peak"}}, {"name": "", "latitude": 47.2510707, "longitude": 15.9795564, "elevation": 397.0, "source": "osm", "_tags": {"ele": "397", "natural": "peak"}}, {"name": "", "latitude": 47.2315943, "longitude": 15.9730637, "elevation": 384.0, "source": "osm", "_tags": {"ele": "384", "natural": "peak"}}, {"name": "", "latitude": 47.2119053, "longitude": 15.9606072, "elevation": 395.0, "source": "osm", "_tags": {"ele": "395", "natural": "peak"}}, {"name": "", "latitude": 47.2193038, "longitude": 15.9437336, "elevation": 400.0, "source": "osm", "_tags": {"ele": "400", "natural": "peak"}}, {"name": "Döllingkogel", "latitude": 46.9000126, "longitude": 15.9999038, "elevation": 420.0, "source": "osm", "_tags": {"ele": "420", "name": "Döllingkogel", "natural": "peak", "wikidata": "Q21861448"}}, {"name": "Heißberg", "latitude": 46.910436, "longitude": 15.98778, "elevation": null, "source": "osm", "_tags": {"name": "Heißberg", "natural": "peak", "wikidata": "Q107186628"}}, {"name": "Degla", "latitude": 46.5061147, "longitude": 15.9498544, "elevation": 262.0, "source": "osm", "_tags": {"ele": "262", "name": "Degla", "natural": "peak"}}, {"name": "Jurošak", "latitude": 46.4697123, "longitude": 15.9094737, "elevation": 275.0, "source": "osm", "_tags": {"ele": "275", "name": "Jurošak", "natural": "peak"}}, {"name": "Kukava", "latitude": 46.4628838, "longitude": 15.9555121, "elevation": 287.0, "source": "osm", "_tags": {"ele": "287", "name": "Kukava", "natural": "peak"}}, {"name": "Tičnica", "latitude": 46.4355408, "longitude": 15.9167224, "elevation": 270.0, "source": "osm", "_tags": {"ele": "270", "name": "Tičnica", "natural": "peak"}}, {"name": "Blaguš", "latitude": 46.5718517, "longitude": 15.989723, "elevation": 269.0, "source": "osm", "_tags": {"ele": "269", "name": "Blaguš", "natural": "peak"}}, {"name": "Žuničev breg", "latitude": 46.5747831, "longitude": 16.0758813, "elevation": 233.0, "source": "osm", "_tags": {"ele": "233", "name": "Žuničev breg", "natural": "peak"}}, {"name": "Vršec", "latitude": 46.5346214, "longitude": 15.9589902, "elevation": 306.0, "source": "osm", "_tags": {"ele": "306", "name": "Vršec", "natural": "peak"}}, {"name": "Zglavje", "latitude": 46.5738847, "longitude": 16.0559275, "elevation": 241.0, "source": "osm", "_tags": {"ele": "241", "name": "Zglavje", "natural": "peak"}}, {"name": "Strmec", "latitude": 46.5783001, "longitude": 16.0422265, "elevation": 235.0, "source": "osm", "_tags": {"ele": "235", "name": "Strmec", "natural": "peak"}}, {"name": "Veliki vrh", "latitude": 46.5969441, "longitude": 16.076632, "elevation": 256.0, "source": "osm", "_tags": {"ele": "256", "name": "Veliki vrh", "natural": "peak"}}, {"name": "Bukve", "latitude": 46.8237443, "longitude": 16.1533766, "elevation": 398.0, "source": "osm", "_tags": {"ele": "398", "name": "Bukve", "natural": "peak"}}, {"name": "", "latitude": 46.8542606, "longitude": 16.0388196, "elevation": 334.0, "source": "osm", "_tags": {"ele": "334", "natural": "peak"}}, {"name": "", "latitude": 46.8625292, "longitude": 16.0376426, "elevation": 345.0, "source": "osm", "_tags": {"ele": "345", "natural": "peak"}}, {"name": "", "latitude": 46.8616602, "longitude": 16.0483675, "elevation": 331.0, "source": "osm", "_tags": {"ele": "331", "natural": "peak"}}, {"name": "", "latitude": 46.8628968, "longitude": 16.0872407, "elevation": 388.0, "source": "osm", "_tags": {"ele": "388", "natural": "peak"}}, {"name": "", "latitude": 46.8442363, "longitude": 16.0253674, "elevation": 380.0, "source": "osm", "_tags": {"ele": "380", "natural": "peak"}}, {"name": "Savski vrh", "latitude": 46.4734522, "longitude": 16.0580175, "elevation": 292.0, "source": "osm", "_tags": {"ele": "292", "name": "Savski vrh", "natural": "peak"}}, {"name": "Brezovec", "latitude": 46.486633, "longitude": 16.1014467, "elevation": 296.0, "source": "osm", "_tags": {"ele": "296", "name": "Brezovec", "natural": "peak"}}, {"name": "Sitarovski breg", "latitude": 46.5189791, "longitude": 16.0785936, "elevation": 253.0, "source": "osm", "_tags": {"ele": "253", "name": "Sitarovski breg", "natural": "peak"}}, {"name": "Kostanj", "latitude": 46.4790391, "longitude": 16.0840137, "elevation": 325.0, "source": "osm", "_tags": {"ele": "325", "name": "Kostanj", "natural": "peak"}}, {"name": "Kogel", "latitude": 46.4746924, "longitude": 16.0729665, "elevation": 286.0, "source": "osm", "_tags": {"ele": "286", "name": "Kogel", "natural": "peak"}}, {"name": "Tičnica", "latitude": 46.4930168, "longitude": 16.1493913, "elevation": 265.0, "source": "osm", "_tags": {"ele": "265", "name": "Tičnica", "natural": "peak"}}, {"name": "Kačura", "latitude": 46.5029866, "longitude": 16.1716708, "elevation": 246.0, "source": "osm", "_tags": {"ele": "246", "name": "Kačura", "natural": "peak"}}, {"name": "Hujčje", "latitude": 46.5041254, "longitude": 16.1623065, "elevation": 250.0, "source": "osm", "_tags": {"ele": "250", "name": "Hujčje", "natural": "peak"}}, {"name": "Klumpa", "latitude": 46.4669842, "longitude": 16.2425516, "elevation": 325.0, "source": "osm", "_tags": {"ele": "325", "name": "Klumpa", "natural": "peak"}}, {"name": "Stara gora", "latitude": 46.4797675, "longitude": 16.2289432, "elevation": 291.0, "source": "osm", "_tags": {"ele": "291", "name": "Stara gora", "natural": "peak"}}, {"name": "Kogel", "latitude": 46.4410419, "longitude": 16.1532181, "elevation": 330.0, "source": "osm", "_tags": {"ele": "330", "name": "Kogel", "natural": "peak"}}, {"name": "Kamenščak", "latitude": 46.51346, "longitude": 16.191484, "elevation": 272.0, "source": "osm", "_tags": {"ele": "272", "name": "Kamenščak", "natural": "peak"}}, {"name": "Strmec", "latitude": 46.4877442, "longitude": 16.2316133, "elevation": 321.0, "source": "osm", "_tags": {"ele": "321", "name": "Strmec", "natural": "peak"}}, {"name": "Bajzek", "latitude": 46.4750985, "longitude": 16.2401559, "elevation": 313.0, "source": "osm", "_tags": {"ele": "313", "name": "Bajzek", "natural": "peak"}}, {"name": "Jeruzalem", "latitude": 46.4765125, "longitude": 16.1875265, "elevation": 338.0, "source": "osm", "_tags": {"ele": "338", "name": "Jeruzalem", "natural": "peak"}}, {"name": "Strmec", "latitude": 46.4402588, "longitude": 16.0673451, "elevation": 280.0, "source": "osm", "_tags": {"ele": "280", "name": "Strmec", "natural": "peak"}}, {"name": "Plavščak", "latitude": 46.4817141, "longitude": 16.2130254, "elevation": 333.0, "source": "osm", "_tags": {"ele": "333", "name": "Plavščak", "natural": "peak"}}, {"name": "Pavlovski vrh", "latitude": 46.4429893, "longitude": 16.180106, "elevation": 300.0, "source": "osm", "_tags": {"ele": "300", "name": "Pavlovski vrh", "natural": "peak"}}, {"name": "Strmec", "latitude": 46.4891368, "longitude": 16.2483138, "elevation": 302.0, "source": "osm", "_tags": {"ele": "302", "name": "Strmec", "natural": "peak"}}, {"name": "Veliki vrh", "latitude": 46.4619377, "longitude": 16.2020054, "elevation": 311.0, "source": "osm", "_tags": {"ele": "311", "name": "Veliki vrh", "natural": "peak"}}, {"name": "Miklov breg", "latitude": 46.4339484, "longitude": 16.0070244, "elevation": 309.0, "source": "osm", "_tags": {"ele": "309", "name": "Miklov breg", "natural": "peak"}}, {"name": "Kamenik", "latitude": 46.5033457, "longitude": 16.1092994, "elevation": 311.0, "source": "osm", "_tags": {"ele": "311", "name": "Kamenik", "natural": "peak"}}, {"name": "Stara Gora", "latitude": 46.5493308, "longitude": 16.0316152, "elevation": 262.0, "source": "osm", "_tags": {"ele": "262", "name": "Stara Gora", "natural": "peak"}}, {"name": "Preraščak", "latitude": 46.4588035, "longitude": 16.1316876, "elevation": 330.0, "source": "osm", "_tags": {"ele": "330", "name": "Preraščak", "natural": "peak"}}, {"name": "Cerkveni breg", "latitude": 46.4357759, "longitude": 16.1195263, "elevation": 304.0, "source": "osm", "_tags": {"ele": "304", "name": "Cerkveni breg", "natural": "peak"}}, {"name": "Strmec", "latitude": 46.4886707, "longitude": 15.9511218, "elevation": 321.0, "source": "osm", "_tags": {"ele": "321", "name": "Strmec", "natural": "peak"}}, {"name": "Miza", "latitude": 46.4742062, "longitude": 15.9776144, "elevation": 280.0, "source": "osm", "_tags": {"ele": "280", "name": "Miza", "natural": "peak"}}, {"name": "Gomila", "latitude": 46.5080043, "longitude": 16.0079188, "elevation": 352.0, "source": "osm", "_tags": {"ele": "352", "name": "Gomila", "natural": "peak"}}, {"name": "Kunovski vrh", "latitude": 46.595647, "longitude": 15.948436, "elevation": 286.0, "source": "osm", "_tags": {"ele": "286", "name": "Kunovski vrh", "natural": "peak"}}, {"name": "Velika Kunovska", "latitude": 46.597533, "longitude": 15.942292, "elevation": 281.0, "source": "osm", "_tags": {"ele": "281", "name": "Velika Kunovska", "natural": "peak"}}, {"name": "Mala Kunovska", "latitude": 46.5985962, "longitude": 15.9486012, "elevation": 279.0, "source": "osm", "_tags": {"ele": "279", "name": "Mala Kunovska", "natural": "peak"}}, {"name": "Mulčev hrib", "latitude": 46.588996, "longitude": 15.944906, "elevation": 292.0, "source": "osm", "_tags": {"ele": "292", "name": "Mulčev hrib", "natural": "peak"}}, {"name": "Gomila", "latitude": 46.6436021, "longitude": 15.9831661, "elevation": 305.0, "source": "osm", "_tags": {"ele": "305", "name": "Gomila", "natural": "peak"}}, {"name": "Orehovski vrh", "latitude": 46.641869, "longitude": 15.9786821, "elevation": 310.0, "source": "osm", "_tags": {"ele": "310", "name": "Orehovski vrh", "natural": "peak"}}, {"name": "Protinščak", "latitude": 46.4879731, "longitude": 16.1781455, "elevation": 304.0, "source": "osm", "_tags": {"ele": "304", "name": "Protinščak", "natural": "peak"}}, {"name": "Kalmanov breg", "latitude": 46.4547329, "longitude": 15.9101747, "elevation": 319.0, "source": "osm", "_tags": {"ele": "319", "name": "Kalmanov breg", "natural": "peak"}}, {"name": "Rucmanski vrh", "latitude": 46.4991304, "longitude": 16.0315426, "elevation": 308.0, "source": "osm", "_tags": {"ele": "308", "name": "Rucmanski vrh", "natural": "peak"}}, {"name": "Kuruzzenkogel", "latitude": 46.9127161, "longitude": 15.9917995, "elevation": 425.0, "source": "osm", "_tags": {"ele": "425", "name": "Kuruzzenkogel", "natural": "peak", "wikidata": "Q21861452"}}, {"name": "Mali vrh", "latitude": 46.6986005, "longitude": 16.3344565, "elevation": 260.0, "source": "osm", "_tags": {"ele": "260", "name": "Mali vrh", "name:hu": "Kis hegy", "natural": "peak"}}, {"name": "Langer Riegel", "latitude": 47.2355727, "longitude": 16.1097768, "elevation": 385.0, "source": "osm", "_tags": {"ele": "385", "name": "Langer Riegel", "natural": "peak"}}, {"name": "", "latitude": 47.2443881, "longitude": 16.1002601, "elevation": 405.0, "source": "osm", "_tags": {"ele": "405", "natural": "peak"}}, {"name": "", "latitude": 47.2210118, "longitude": 16.1269141, "elevation": 361.0, "source": "osm", "_tags": {"ele": "361", "natural": "peak"}}, {"name": "", "latitude": 47.2021225, "longitude": 16.2669488, "elevation": 381.0, "source": "osm", "_tags": {"ele": "381", "natural": "peak"}}, {"name": "Sauberg", "latitude": 47.2049323, "longitude": 16.2764768, "elevation": 375.0, "source": "osm", "_tags": {"ele": "375", "name": "Sauberg", "natural": "peak"}}, {"name": "Steinriegel", "latitude": 47.1905604, "longitude": 16.2919241, "elevation": 375.0, "source": "osm", "_tags": {"ele": "375", "name": "Steinriegel", "natural": "peak"}}, {"name": "", "latitude": 47.1777349, "longitude": 16.2888431, "elevation": 321.0, "source": "osm", "_tags": {"ele": "321", "natural": "peak"}}, {"name": "Štok", "latitude": 46.4458841, "longitude": 15.9075349, "elevation": 316.0, "source": "osm", "_tags": {"ele": "316", "name": "Štok", "natural": "peak"}}, {"name": "Salzriegel", "latitude": 47.3722805, "longitude": 16.4214164, "elevation": 688.0, "source": "osm", "_tags": {"ele": "688", "name": "Salzriegel", "natural": "peak"}}, {"name": "Gorica", "latitude": 46.439521, "longitude": 16.0293296, "elevation": 275.0, "source": "osm", "_tags": {"ele": "275", "name": "Gorica", "natural": "peak"}}]