[{"name": "Oberhau", "latitude": 47.4956923, "longitude": 9.0405383, "elevation": 701.0, "source": "osm", "_tags": {"ele": "701", "name": "Oberhau", "natural": "peak"}}, {"name": "Pfänder", "latitude": 47.5073712, "longitude": 9.7802047, "elevation": 1062.0, "source": "osm", "_tags": {"ele": "1062", "name": "Pfänder", "name:de": "Pfänder", "name:uk": "Пфендер", "natural": "peak", "prominence": "77", "summit:cross": "yes", "summit:register": "no", "wikidata": "Q698608", "wikipedia": "de:Pfänder"}}, {"name": "Bussen", "latitude": 48.1623379, "longitude": 9.5560622, "elevation": 767.0, "source": "osm", "_tags": {"ele": "767", "name": "Bussen", "natural": "peak", "wikidata": "Q464548", "wikipedia": "de:Bussen"}}, {"name": "Höchsten", "latitude": 47.8191417, "longitude": 9.4020614, "elevation": 838.0, "source": "osm", "_tags": {"ele": "838", "name": "Höchsten", "natural": "peak", "wikidata": "Q741838", "wikipedia": "de:Höchsten"}}, {"name": "", "latitude": 47.5888366, "longitude": 9.6245636, "elevation": null, "source": "osm", "_tags": {"natural": "peak"}}, {"name": "Schafberg", "latitude": 47.9359677, "longitude": 9.6122609, "elevation": null, "source": "osm", "_tags": {"name": "Schafberg", "natural": "peak"}}, {"name": "Vogelsberg", "latitude": 47.4352617, "longitude": 9.1210463, "elevation": 703.0, "source": "osm", "_tags": {"ele": "703", "name": "Vogelsberg", "natural": "peak", "wikidata": "Q22428212"}}, {"name": "Geissberg", "latitude": 47.4606738, "longitude": 9.1486182, "elevation": 595.0, "source": "osm", "_tags": {"ele": "595", "name": "Geissberg", "natural": "peak"}}, {"name": "Galgenbühl", "latitude": 47.9511959, "longitude": 9.628836, "elevation": null, "source": "osm", "_tags": {"name": "Galgenbühl", "natural": "peak"}}, {"name": "Hirschberg", "latitude": 47.5223458, "longitude": 9.8221171, "elevation": 1095.0, "source": "osm", "_tags": {"communication:amateur_radio:sota": "OE/VB-509", "communication:amateur_radio:sota:points": "4", "ele": "1095", "name": "Hirschberg", "name:ru": "Хиршберг", "name:uk": "Гіршберг", "natural": "peak", "prominence": "394", "source": "survey 10.2018 and Vogis 2015", "summit:cross": "yes", "summit:register": "no", "wikidata": "Q19787566", "wikipedia": "de:Hirschberg (Langen bei Bregenz)"}}, {"name": "Blasenberg", "latitude": 48.297823, "longitude": 8.9605834, "elevation": 886.0, "source": "osm", "_tags": {"ele": "886", "name": "Blasenberg", "natural": "peak", "tourism": "viewpoint", "wikidata": "Q881796"}}, {"name": "Zeller Horn", "latitude": 48.3125187, "longitude": 8.9800224, "elevation": 912.0, "source": "osm", "_tags": {"ele": "912", "name": "Zeller Horn", "natural": "peak", "tourism": "viewpoint", "wikidata": "Q187749"}}, {"name": "Heiligenkopf", "latitude": 48.2941997, "longitude": 8.9555325, "elevation": 893.0, "source": "osm", "_tags": {"ele": "893", "name": "Heiligenkopf", "natural": "peak", "tourism": "viewpoint", "wikidata": "Q1537277"}}, {"name": "Beissbartseck", "latitude": 48.3010504, "longitude": 9.0396111, "elevation": null, "source": "osm", "_tags": {"name": "Beissbartseck", "natural": "peak", "tourism": "viewpoint"}}, {"name": "Hoher Berg (Himberg)", "latitude": 48.3154853, "longitude": 9.0440441, "elevation": 854.0, "source": "osm", "_tags": {"ele": "854", "name": "Hoher Berg (Himberg)", "natural": "peak", "tourism": "viewpoint"}}, {"name": "Raichberg", "latitude": 48.305149, "longitude": 8.9932961, "elevation": 956.0, "source": "osm", "_tags": {"ele": "956", "name": "Raichberg", "natural": "peak", "wikidata": "Q594960", "wikipedia": "en:Raichberg"}}, {"name": "Böllat", "latitude": 48.2424252, "longitude": 8.9250461, "elevation": 920.5, "source": "osm", "_tags": {"ele": "920.5", "name": "Böllat", "natural": "peak", "wikidata": "Q21714643"}}, {"name": "Burg", "latitude": 48.2718664, "longitude": 9.0215404, "elevation": 975.0, "source": "osm", "_tags": {"ele": "975", "name": "Burg", "natural": "peak", "wikidata": "Q30811489"}}, {"name": "Bergle", "latitude": 48.2824797, "longitude": 9.0048368, "elevation": null, "source": "osm", "_tags": {"name": "Bergle", "natural": "peak"}}, {"name": "Kornbühl", "latitude": 48.3544958, "longitude": 9.0982095, "elevation": 886.0, "source": "osm", "_tags": {"ele": "886", "name": "Kornbühl", "natural": "peak", "wikidata": "Q1784500", "wikipedia": "de:Kornbühl"}}, {"name": "Steinegg", "latitude": 47.4347728, "longitude": 9.315626, "elevation": 907.0, "source": "osm", "_tags": {"ele": "907", "name": "Steinegg", "natural": "peak"}}, {"name": "Judenstein", "latitude": 48.3607902, "longitude": 9.2906033, "elevation": 820.0, "source": "osm", "_tags": {"created_by": "Merkaartor 0.13", "ele": "820", "name": "Judenstein", "natural": "peak"}}, {"name": "Buchbühl", "latitude": 48.0117308, "longitude": 9.7028782, "elevation": 627.0, "source": "osm", "_tags": {"ele": "627", "name": "Buchbühl", "natural": "peak"}}, {"name": "Hohberg", "latitude": 47.6679893, "longitude": 9.350092, "elevation": 454.0, "source": "osm", "_tags": {"alt_name": "Hochberg", "ele": "454", "name": "Hohberg", "natural": "peak", "note": "Eiszeitlicher Drumlinhügel", "tourism": "viewpoint", "website": "https://www.immenstaad-tourismus.de/attraktion/hohberg-immenstaad-d10339b20d"}}, {"name": "Ottenberg", "latitude": 47.5825608, "longitude": 9.1376703, "elevation": 681.0, "source": "osm", "_tags": {"ele": "681", "name": "Ottenberg", "natural": "peak", "note": "Gebrauchshöhe LN02"}}, {"name": "Nollen", "latitude": 47.4925073, "longitude": 9.121414, "elevation": 734.0, "source": "osm", "_tags": {"alt_name": "Nole", "ele": "734", "name": "Nollen", "name:gsw": "Nollä", "natural": "peak", "note": "Gebrauchshöhe LN02", "wikidata": "Q1722506"}}, {"name": "Ghaiberg", "latitude": 48.1165815, "longitude": 9.1362225, "elevation": 713.0, "source": "osm", "_tags": {"ele": "713", "name": "Ghaiberg", "natural": "peak", "wikidata": "Q30688384"}}, {"name": "Hochberg", "latitude": 47.5425853, "longitude": 9.8031382, "elevation": 1069.0, "source": "osm", "_tags": {"communication:amateur_radio:sota": "OE/VB-511", "communication:amateur_radio:sota:points": "4", "ele": "1069", "name": "Hochberg", "natural": "peak", "prominence": "174", "wikidata": "Q1621684", "wikipedia": "de:Hochberg (Allgäuer Alpen)"}}, {"name": "Friedrichshöhe", "latitude": 47.6963735, "longitude": 9.2735339, "elevation": null, "source": "osm", "_tags": {"name": "Friedrichshöhe", "name:etymology:wikidata": "Q57483", "name:etymology:wikipedia": "de:Friedrich I. (Baden, Großherzog)", "natural": "peak", "noexit": "yes", "note": "Wegen Platanen an der unteren Plattform ist dieser erhöhte Punkt kein Aussichtspunkt mehr.", "wheelchair": "no", "wikimedia_commons": "File:Wasserturm Pano.jpg"}}, {"name": "Ittenhalde", "latitude": 48.31256, "longitude": 9.26996, "elevation": 802.0, "source": "osm", "_tags": {"ele": "802", "name": "Ittenhalde", "natural": "peak"}}, {"name": "Mettlau", "latitude": 48.31633, "longitude": 9.28025, "elevation": 802.0, "source": "osm", "_tags": {"ele": "802", "name": "Mettlau", "natural": "peak"}}, {"name": "Kreuzberg", "latitude": 48.3095586, "longitude": 9.2862179, "elevation": 812.0, "source": "osm", "_tags": {"ele": "812", "historic": "wayside_cross", "name": "Kreuzberg", "natural": "peak"}}, {"name": "Zwieselberg", "latitude": 48.31274, "longitude": 9.28749, "elevation": 804.0, "source": "osm", "_tags": {"ele": "804", "name": "Zwieselberg", "natural": "peak"}}, {"name": "Schneeberg", "latitude": 48.3194, "longitude": 9.28733, "elevation": 812.0, "source": "osm", "_tags": {"ele": "812", "name": "Schneeberg", "natural": "peak", "wikidata": "Q31522317"}}, {"name": "Augstberg", "latitude": 48.2974122, "longitude": 9.2766841, "elevation": 849.0, "source": "osm", "_tags": {"ele": "849", "name": "Augstberg", "natural": "peak", "wikidata": "Q573704", "wikipedia": "de:Augstberg"}}, {"name": "Bannholz", "latitude": 48.30405, "longitude": 9.26586, "elevation": 801.0, "source": "osm", "_tags": {"ele": "801", "name": "Bannholz", "natural": "peak"}}, {"name": "Lippertshorn", "latitude": 48.33029, "longitude": 9.26774, "elevation": 812.0, "source": "osm", "_tags": {"ele": "812", "name": "Lippertshorn", "natural": "peak"}}, {"name": "Dachenstein", "latitude": 48.3388089, "longitude": 9.297541, "elevation": 829.0, "source": "osm", "_tags": {"ele": "829", "name": "Dachenstein", "natural": "peak", "wikidata": "Q31550017"}}, {"name": "Gräbelesberg", "latitude": 48.2112498, "longitude": 8.9193204, "elevation": 915.0, "source": "osm", "_tags": {"ele": "915", "name": "Gräbelesberg", "natural": "peak", "wikidata": "Q1551267", "wikipedia": "de:Gräbelesberg"}}, {"name": "Stöckberg", "latitude": 48.3339669, "longitude": 9.3232181, "elevation": 770.0, "source": "osm", "_tags": {"ele": "770", "name": "Stöckberg", "natural": "peak"}}, {"name": "Schlossfelsen", "latitude": 48.2177149, "longitude": 9.0364536, "elevation": 953.0, "source": "osm", "_tags": {"ele": "953", "name": "Schlossfelsen", "natural": "peak", "tourism": "viewpoint", "wheelchair": "no", "wikidata": "Q21714946"}}, {"name": "Felsenwand", "latitude": 48.2283935, "longitude": 9.0033952, "elevation": null, "source": "osm", "_tags": {"name": "Felsenwand", "natural": "peak"}}, {"name": "Sickersberg", "latitude": 48.1806669, "longitude": 8.9452884, "elevation": 978.0, "source": "osm", "_tags": {"ele": "978", "name": "Sickersberg", "natural": "peak", "tourism": "viewpoint"}}, {"name": "Titusenköpfle", "latitude": 48.3039531, "longitude": 9.1189579, "elevation": 899.0, "source": "osm", "_tags": {"ele": "899", "name": "Titusenköpfle", "natural": "peak", "wikidata": "Q31517343"}}, {"name": "Hinterer Bankrain", "latitude": 47.7043472, "longitude": 9.1398122, "elevation": 472.0, "source": "osm", "_tags": {"ele": "472", "name": "Hinterer Bankrain", "natural": "peak"}}, {"name": "Bettenberg", "latitude": 47.7009869, "longitude": 9.1566988, "elevation": 464.0, "source": "osm", "_tags": {"ele": "464", "name": "Bettenberg", "natural": "peak"}}, {"name": "Lehnberg", "latitude": 47.7039212, "longitude": 9.1318434, "elevation": 480.8, "source": "osm", "_tags": {"ele": "480.8", "name": "Lehnberg", "natural": "peak"}}, {"name": "Vorderer Bankrain", "latitude": 47.7018522, "longitude": 9.138606, "elevation": 469.0, "source": "osm", "_tags": {"ele": "469", "name": "Vorderer Bankrain", "natural": "peak"}}, {"name": "Auchtertburren", "latitude": 48.24705, "longitude": 9.29407, "elevation": 788.0, "source": "osm", "_tags": {"ele": "788", "name": "Auchtertburren", "natural": "peak"}}, {"name": "Killberg", "latitude": 48.33746, "longitude": 9.2813, "elevation": 796.0, "source": "osm", "_tags": {"ele": "796", "name": "Killberg", "natural": "peak"}}, {"name": "Mägerkinger Häule", "latitude": 48.28259, "longitude": 9.29778, "elevation": 804.0, "source": "osm", "_tags": {"ele": "804", "name": "Mägerkinger Häule", "natural": "peak"}}, {"name": "Killerberg", "latitude": 48.3167737, "longitude": 9.071772, "elevation": 813.0, "source": "osm", "_tags": {"ele": "813", "name": "Killerberg", "natural": "peak", "wikidata": "Q31535213"}}, {"name": "Lindenhörnle", "latitude": 48.29656, "longitude": 9.14036, "elevation": 898.0, "source": "osm", "_tags": {"ele": "898", "name": "Lindenhörnle", "natural": "peak", "wikidata": "Q31531710"}}, {"name": "Bürgle (Schiller-Höhe)", "latitude": 48.3261669, "longitude": 9.0581214, "elevation": null, "source": "osm", "_tags": {"name": "Bürgle (Schiller-Höhe)", "natural": "peak"}}, {"name": "Gehrenberg", "latitude": 47.7416419, "longitude": 9.4242971, "elevation": 754.0, "source": "osm", "_tags": {"alt_name": "Stadtbühl", "communication:amateur_radio:sota": "DM/BW-348", "ele": "754", "name": "Gehrenberg", "natural": "peak", "wikidata": "Q538262", "wikipedia": "de:Gehrenberg"}}, {"name": "Kaienspitz", "latitude": 47.4323453, "longitude": 9.504019, "elevation": 1121.0, "source": "osm", "_tags": {"ele": "1121", "name": "Kaienspitz", "natural": "peak", "wikidata": "Q1721401", "wikipedia": "de:Kaien"}}, {"name": "Fürberg", "latitude": 47.529164, "longitude": 9.7911385, "elevation": 1044.0, "source": "osm", "_tags": {"ele": "1044", "name": "Fürberg", "natural": "peak", "prominence": "42", "wikidata": "Q21876719"}}, {"name": "Fürstenhöhe", "latitude": 48.1225425, "longitude": 9.1597572, "elevation": 794.0, "source": "osm", "_tags": {"ele": "794", "name": "Fürstenhöhe", "natural": "peak", "wikidata": "Q30733207"}}, {"name": "Galgenberg", "latitude": 47.72853, "longitude": 8.8934135, "elevation": 501.0, "source": "osm", "_tags": {"direction": "0-360", "ele": "501", "name": "Galgenberg", "natural": "peak", "tourism": "viewpoint", "wikidata": "Q30730976"}}, {"name": "Hohenzollern", "latitude": 48.3236087, "longitude": 8.9671537, "elevation": 855.0, "source": "osm", "_tags": {"alt_name": "Zoller", "ele": "855", "name": "Hohenzollern", "natural": "peak", "wikidata": "Q1374777", "wikipedia": "de:Hohenzollern (Berg)"}}, {"name": "Brüggelekopf", "latitude": 47.443464, "longitude": 9.852995, "elevation": 1182.0, "source": "osm", "_tags": {"communication:amateur_radio:sota": "OE/VB-505", "communication:amateur_radio:sota:points": "4", "ele": "1182", "name": "Brüggelekopf", "natural": "peak", "summit:cross": "yes", "summit:register": "no", "wikidata": "Q996848", "wikipedia": "de:Brüggelekopf"}}, {"name": "Fohrenbühl", "latitude": 47.7016414, "longitude": 9.1448358, "elevation": 453.0, "source": "osm", "_tags": {"ele": "453", "name": "Fohrenbühl", "natural": "peak"}}, {"name": "", "latitude": 47.7002303, "longitude": 9.1432319, "elevation": 454.9, "source": "osm", "_tags": {"ele": "454.9", "natural": "peak"}}, {"name": "Jordanberg", "latitude": 48.0816102, "longitude": 9.8245167, "elevation": 638.0, "source": "osm", "_tags": {"FIXME": "position estimated", "ele": "638", "name": "Jordanberg", "natural": "peak", "wikidata": "Q1703673", "wikipedia": "de:Jordanbad"}}, {"name": "Weichenwang", "latitude": 48.1855739, "longitude": 8.9455689, "elevation": 989.5, "source": "osm", "_tags": {"ele": "989.5", "name": "Weichenwang", "natural": "peak", "wikidata": "Q2554873"}}, {"name": "Berg", "latitude": 48.2411103, "longitude": 9.6775033, "elevation": 567.0, "source": "osm", "_tags": {"ele": "567", "name": "Berg", "natural": "peak"}}, {"name": "Burghalde", "latitude": 47.7957694, "longitude": 9.1118478, "elevation": 528.0, "source": "osm", "_tags": {"ele": "528", "name": "Burghalde", "natural": "peak", "note": "FIXME Lage"}}, {"name": "Heimberg", "latitude": 48.2020394, "longitude": 8.9201808, "elevation": 943.0, "source": "osm", "_tags": {"ele": "943", "name": "Heimberg", "natural": "peak"}}, {"name": "Heersberg", "latitude": 48.2247987, "longitude": 8.9489293, "elevation": 964.0, "source": "osm", "_tags": {"ele": "964", "name": "Heersberg", "natural": "peak", "wikidata": "Q1593614", "wikipedia": "de:Heersberg"}}, {"name": "Pfeffinger Böllat", "latitude": 48.2532424, "longitude": 8.9391285, "elevation": 912.0, "source": "osm", "_tags": {"ele": "912", "name": "Pfeffinger Böllat", "natural": "peak", "wikidata": "Q31291851"}}, {"name": "Oberer Berg", "latitude": 48.2014685, "longitude": 8.9467037, "elevation": 982.0, "source": "osm", "_tags": {"ele": "982", "name": "Oberer Berg", "natural": "peak"}}, {"name": "Hundsrücken", "latitude": 48.279941, "longitude": 8.9291438, "elevation": 931.0, "source": "osm", "_tags": {"ele": "931", "name": "Hundsrücken", "natural": "peak", "wikidata": "Q1637681"}}, {"name": "Irrenberg", "latitude": 48.2814148, "longitude": 8.9447796, "elevation": 921.0, "source": "osm", "_tags": {"ele": "921", "name": "Irrenberg", "natural": "peak", "wikidata": "Q1673183"}}, {"name": "Heuberg", "latitude": 48.2810008, "longitude": 8.9891303, "elevation": 905.0, "source": "osm", "_tags": {"ele": "905", "name": "Heuberg", "natural": "peak", "wikidata": "Q30746275"}}, {"name": "Höchst", "latitude": 48.2613589, "longitude": 8.9023959, "elevation": 803.0, "source": "osm", "_tags": {"ele": "803", "name": "Höchst", "natural": "peak", "wikidata": "Q30724228"}}, {"name": "Hangender Stein", "latitude": 48.3064775, "longitude": 9.0001273, "elevation": 923.0, "source": "osm", "_tags": {"ele": "923", "name": "Hangender Stein", "natural": "peak", "wikidata": "Q31542418"}}, {"name": "Mühlberg", "latitude": 48.0903863, "longitude": 9.2177154, "elevation": 620.0, "source": "osm", "_tags": {"ele": "620", "name": "Mühlberg", "natural": "peak"}}, {"name": "Josefsberg", "latitude": 48.0838607, "longitude": 9.2170304, "elevation": 630.0, "source": "osm", "_tags": {"ele": "630", "name": "Josefsberg", "natural": "peak"}}, {"name": "Schachen", "latitude": 48.3585907, "longitude": 9.4586218, "elevation": 796.0, "source": "osm", "_tags": {"ele": "796", "name": "Schachen", "natural": "peak", "wikidata": "Q1755352"}}, {"name": "Heubelstein", "latitude": 48.2308284, "longitude": 8.9751496, "elevation": 868.0, "source": "osm", "_tags": {"ele": "868", "name": "Heubelstein", "natural": "peak"}}, {"name": "Hornau", "latitude": 48.2395951, "longitude": 8.980549, "elevation": 878.0, "source": "osm", "_tags": {"ele": "878", "name": "Hornau", "natural": "peak"}}, {"name": "Katzenbuckel", "latitude": 48.2189806, "longitude": 9.0044866, "elevation": 948.0, "source": "osm", "_tags": {"ele": "948", "name": "Katzenbuckel", "natural": "peak"}}, {"name": "Kornberg", "latitude": 48.2468128, "longitude": 8.9808585, "elevation": 878.0, "source": "osm", "_tags": {"ele": "878", "name": "Kornberg", "natural": "peak", "wikidata": "Q31332572"}}, {"name": "Kreuzbühl", "latitude": 48.2262577, "longitude": 9.0026423, "elevation": 960.0, "source": "osm", "_tags": {"ele": "960", "name": "Kreuzbühl", "natural": "peak"}}, {"name": "Kugelbergle", "latitude": 48.2277285, "longitude": 8.9805796, "elevation": 954.0, "source": "osm", "_tags": {"ele": "954", "name": "Kugelbergle", "natural": "peak"}}, {"name": "Kugelwäldle", "latitude": 48.233752, "longitude": 8.9934996, "elevation": 930.0, "source": "osm", "_tags": {"ele": "930", "name": "Kugelwäldle", "natural": "peak"}}, {"name": "Schnecklesfels", "latitude": 48.22064, "longitude": 9.0163937, "elevation": 920.0, "source": "osm", "_tags": {"ele": "920", "name": "Schnecklesfels", "natural": "peak", "summit:register": "no"}}, {"name": "Wachtfels", "latitude": 48.2227594, "longitude": 8.981818, "elevation": 950.0, "source": "osm", "_tags": {"ele": "950", "name": "Wachtfels", "natural": "peak"}}, {"name": "Autenwang", "latitude": 48.2030387, "longitude": 8.9697018, "elevation": 955.0, "source": "osm", "_tags": {"ele": "955", "name": "Autenwang", "natural": "peak"}}, {"name": "Hornstein", "latitude": 48.1959351, "longitude": 9.0129301, "elevation": 946.0, "source": "osm", "_tags": {"ele": "946", "name": "Hornstein", "natural": "peak"}}, {"name": "Malesfelsen", "latitude": 48.2023275, "longitude": 9.036199, "elevation": 884.0, "source": "osm", "_tags": {"ele": "884", "name": "Malesfelsen", "natural": "peak", "wikidata": "Q6743122"}}, {"name": "Meßstetter Berg", "latitude": 48.2020084, "longitude": 8.9936501, "elevation": 932.0, "source": "osm", "_tags": {"ele": "932", "name": "Meßstetter Berg", "natural": "peak"}}, {"name": "Sandbühl", "latitude": 48.1952854, "longitude": 8.9700566, "elevation": 957.0, "source": "osm", "_tags": {"ele": "957", "name": "Sandbühl", "natural": "peak"}}, {"name": "Schopfloch", "latitude": 48.1984105, "longitude": 8.9930926, "elevation": 942.0, "source": "osm", "_tags": {"ele": "942", "name": "Schopfloch", "natural": "peak"}}, {"name": "Wachtbühl", "latitude": 48.2025151, "longitude": 8.986681, "elevation": 966.0, "source": "osm", "_tags": {"ele": "966", "name": "Wachtbühl", "natural": "peak", "wikidata": "Q31292197"}}, {"name": "Schneckenberg", "latitude": 47.7709378, "longitude": 9.0467907, "elevation": null, "source": "osm", "_tags": {"direction": "110-270", "name": "Schneckenberg", "natural": "peak", "tourism": "viewpoint"}}, {"name": "Cheltberg", "latitude": 47.4825436, "longitude": 9.0443549, "elevation": 692.0, "source": "osm", "_tags": {"ele": "692", "name": "Cheltberg", "natural": "peak"}}, {"name": "", "latitude": 48.3065539, "longitude": 9.4975235, "elevation": 650.0, "source": "osm", "_tags": {"ele": "650", "historic": "wayside_cross", "inscription": "Das tat ich für dich! - Was tust du für mich?", "natural": "peak", "religion": "christian", "start_date": "1960", "summit:cross": "yes"}}, {"name": "Kreuzberg", "latitude": 48.3439273, "longitude": 9.549159, "elevation": 764.0, "source": "osm", "_tags": {"denomination": "catholic", "ele": "764", "historic": "wayside_cross", "inscription": "I.N.R.I", "man_made": "cross", "name": "Kreuzberg", "natural": "peak", "panoramax": "5d826852-85b0-45f4-9a9a-6e28646ae031", "religion": "christian", "wikidata": "Q31329623"}}, {"name": "", "latitude": 48.3461312, "longitude": 9.5521504, "elevation": 760.0, "source": "osm", "_tags": {"ele": "760", "natural": "peak"}}, {"name": "Biß", "latitude": 48.341868, "longitude": 9.5630075, "elevation": 771.0, "source": "osm", "_tags": {"ele": "771", "name": "Biß", "natural": "peak"}}, {"name": "", "latitude": 48.2489117, "longitude": 9.6184549, "elevation": 573.0, "source": "osm", "_tags": {"ele": "573", "natural": "peak"}}, {"name": "Kätzleberg", "latitude": 47.7655588, "longitude": 9.1958196, "elevation": 507.0, "source": "osm", "_tags": {"ele": "507", "name": "Kätzleberg", "natural": "peak"}}, {"name": "Hochberg", "latitude": 48.2519375, "longitude": 9.5635026, "elevation": 662.0, "source": "osm", "_tags": {"ele": "662", "name": "Hochberg", "natural": "peak", "wikidata": "Q30727333"}}, {"name": "Lindele", "latitude": 48.1046533, "longitude": 9.7796691, "elevation": 614.0, "source": "osm", "_tags": {"ele": "614", "name": "Lindele", "natural": "peak"}}, {"name": "Baienberg", "latitude": 48.191862, "longitude": 8.8975826, "elevation": 976.0, "source": "osm", "_tags": {"ele": "976", "height": "9", "hiking": "yes", "man_made": "utility_pole", "name": "Baienberg", "natural": "peak", "wikidata": "Q30714982"}}, {"name": "Afterbol", "latitude": 48.0424016, "longitude": 9.3369356, "elevation": 609.0, "source": "osm", "_tags": {"ele": "609", "name": "Afterbol", "natural": "peak"}}, {"name": "Missionsberg", "latitude": 48.0448659, "longitude": 9.3350095, "elevation": 606.0, "source": "osm", "_tags": {"ele": "606", "name": "Missionsberg", "natural": "peak", "wikidata": "Q31307061"}}, {"name": "Blicklefels", "latitude": 48.0892311, "longitude": 9.0698005, "elevation": null, "source": "osm", "_tags": {"name": "Blicklefels", "natural": "peak"}}, {"name": "Schnaitkapf", "latitude": 48.1010668, "longitude": 8.9650693, "elevation": 920.0, "source": "osm", "_tags": {"ele": "920", "name": "Schnaitkapf", "natural": "peak", "wikidata": "Q2246935"}}, {"name": "Paradieswald", "latitude": 47.4378026, "longitude": 9.2926593, "elevation": 827.0, "source": "osm", "_tags": {"ele": "827", "name": "Paradieswald", "natural": "peak"}}, {"name": "Witberg", "latitude": 48.1057581, "longitude": 9.2140794, "elevation": 711.0, "source": "osm", "_tags": {"ele": "711", "name": "Witberg", "natural": "peak"}}, {"name": "Weilerwaldkopf", "latitude": 48.3403443, "longitude": 9.0497285, "elevation": 857.0, "source": "osm", "_tags": {"ele": "857", "name": "Weilerwaldkopf", "natural": "peak"}}, {"name": "Köhlberg", "latitude": 48.3352189, "longitude": 9.0564322, "elevation": 857.0, "source": "osm", "_tags": {"ele": "857", "name": "Köhlberg", "natural": "peak", "wikidata": "Q31533778"}}, {"name": "Schönebärg", "latitude": 47.6334344, "longitude": 8.8869159, "elevation": 603.0, "source": "osm", "_tags": {"ele": "603", "name": "Schönebärg", "natural": "peak"}}, {"name": "Meisenberg", "latitude": 48.3423613, "longitude": 9.691412, "elevation": 644.0, "source": "osm", "_tags": {"ele": "644", "name": "Meisenberg", "natural": "peak", "wikidata": "Q31308168"}}, {"name": "Immenberg", "latitude": 47.5315241, "longitude": 8.9763178, "elevation": 706.0, "source": "osm", "_tags": {"alt_name": "Imäbarg", "ele": "706", "name": "Immenberg", "natural": "peak", "wikidata": "Q6004799"}}, {"name": "Monkberg", "latitude": 48.3608807, "longitude": 9.1054883, "elevation": 884.0, "source": "osm", "_tags": {"ele": "884", "name": "Monkberg", "natural": "peak", "wikidata": "Q31530388"}}, {"name": "Köbele", "latitude": 48.3529357, "longitude": 9.120208, "elevation": 900.0, "source": "osm", "_tags": {"ele": "900", "name": "Köbele", "natural": "peak", "wikidata": "Q31533857"}}, {"name": "Pfaffenberg", "latitude": 48.3633028, "longitude": 9.1520524, "elevation": 812.0, "source": "osm", "_tags": {"ele": "812", "name": "Pfaffenberg", "natural": "peak", "wikidata": "Q30620386"}}, {"name": "", "latitude": 48.3581201, "longitude": 9.1609381, "elevation": 814.0, "source": "osm", "_tags": {"ele": "814", "natural": "peak"}}, {"name": "", "latitude": 48.3516472, "longitude": 9.15888, "elevation": 859.0, "source": "osm", "_tags": {"ele": "859", "natural": "peak"}}, {"name": "Käpfle", "latitude": 48.3443917, "longitude": 9.1382782, "elevation": 851.0, "source": "osm", "_tags": {"ele": "851", "name": "Käpfle", "natural": "peak"}}, {"name": "Hasenberg", "latitude": 48.3331008, "longitude": 9.1492073, "elevation": 844.0, "source": "osm", "_tags": {"ele": "844", "name": "Hasenberg", "natural": "peak"}}, {"name": "Mannenberg", "latitude": 48.3228072, "longitude": 9.1343553, "elevation": 831.0, "source": "osm", "_tags": {"ele": "831", "name": "Mannenberg", "natural": "peak"}}, {"name": "Nähberg", "latitude": 48.322188, "longitude": 9.108093, "elevation": 878.0, "source": "osm", "_tags": {"ele": "878", "name": "Nähberg", "natural": "peak", "wikidata": "Q31529765"}}, {"name": "", "latitude": 48.2680047, "longitude": 9.6682625, "elevation": 604.0, "source": "osm", "_tags": {"ele": "604", "natural": "peak"}}, {"name": "", "latitude": 48.2841209, "longitude": 9.763144, "elevation": 563.0, "source": "osm", "_tags": {"ele": "563", "natural": "peak"}}, {"name": "Vogelherd", "latitude": 47.4478077, "longitude": 9.0405739, "elevation": 584.0, "source": "osm", "_tags": {"ele": "584", "height": "584", "name": "Vogelherd", "natural": "peak", "official_name": "Vogelhärd"}}, {"name": "Guppenloch", "latitude": 48.3592389, "longitude": 9.1878894, "elevation": 831.0, "source": "osm", "_tags": {"ele": "831", "name": "Guppenloch", "natural": "peak", "note": "Gruppenlochfels"}}, {"name": "Aspen", "latitude": 48.0804803, "longitude": 9.8713333, "elevation": 653.0, "source": "osm", "_tags": {"ele": "653", "name": "Aspen", "natural": "peak", "wikidata": "Q30724512"}}, {"name": "Hungerberg", "latitude": 48.1753191, "longitude": 9.5698966, "elevation": 612.0, "source": "osm", "_tags": {"ele": "612", "name": "Hungerberg", "natural": "peak"}}, {"name": "", "latitude": 48.3587461, "longitude": 9.1803679, "elevation": 819.9, "source": "osm", "_tags": {"ele": "819.9", "natural": "peak"}}, {"name": "", "latitude": 48.3584681, "longitude": 9.1724929, "elevation": 829.3, "source": "osm", "_tags": {"ele": "829.3", "natural": "peak"}}, {"name": "Klarafels", "latitude": 48.2231689, "longitude": 9.0206406, "elevation": null, "source": "osm", "_tags": {"name": "Klarafels", "natural": "peak"}}, {"name": "Schlossberg", "latitude": 48.1638147, "longitude": 9.3386318, "elevation": 709.0, "source": "osm", "_tags": {"ele": "709", "name": "Schlossberg", "natural": "peak"}}, {"name": "Stuhlfels", "latitude": 48.0897334, "longitude": 9.0389436, "elevation": null, "source": "osm", "_tags": {"name": "Stuhlfels", "natural": "peak", "summit:cross": "yes", "summit:register": "no"}}, {"name": "Kählesbühl", "latitude": 48.1719065, "longitude": 8.9797326, "elevation": 972.0, "source": "osm", "_tags": {"ele": "972", "name": "Kählesbühl", "natural": "peak"}}, {"name": "Lastenbergle", "latitude": 48.1793985, "longitude": 9.0054248, "elevation": 916.0, "source": "osm", "_tags": {"ele": "916", "name": "Lastenbergle", "natural": "peak"}}, {"name": "Reifersberg", "latitude": 48.1917852, "longitude": 9.407452, "elevation": 773.0, "source": "osm", "_tags": {"ele": "773", "name": "Reifersberg", "natural": "peak", "wikidata": "Q31526518"}}, {"name": "", "latitude": 47.6814601, "longitude": 9.1626052, "elevation": null, "source": "osm", "_tags": {"natural": "peak"}}, {"name": "", "latitude": 47.6821564, "longitude": 9.1606806, "elevation": 437.1, "source": "osm", "_tags": {"ele": "437.1", "natural": "peak"}}, {"name": "", "latitude": 48.1715937, "longitude": 9.6535092, "elevation": 570.0, "source": "osm", "_tags": {"ele": "570", "natural": "peak"}}, {"name": "Lammerberg", "latitude": 48.2583273, "longitude": 9.0255142, "elevation": null, "source": "osm", "_tags": {"name": "Lammerberg", "natural": "peak"}}, {"name": "Wachbüel", "latitude": 47.5572791, "longitude": 8.9877161, "elevation": 703.0, "source": "osm", "_tags": {"ele": "703", "name": "Wachbüel", "natural": "peak"}}, {"name": "Hasenberg", "latitude": 47.9168505, "longitude": 9.6237341, "elevation": null, "source": "osm", "_tags": {"name": "Hasenberg", "natural": "peak"}}, {"name": "Vord. Buch", "latitude": 48.1183057, "longitude": 8.9166159, "elevation": null, "source": "osm", "_tags": {"name": "Vord. Buch", "natural": "peak"}}, {"name": "Böl", "latitude": 47.4378381, "longitude": 9.2205326, "elevation": 626.0, "source": "osm", "_tags": {"ele": "626", "name": "Böl", "natural": "peak"}}, {"name": "Martinsfels", "latitude": 48.2258617, "longitude": 9.0203932, "elevation": 940.0, "source": "osm", "_tags": {"ele": "940", "name": "Martinsfels", "natural": "peak"}}, {"name": "Höhrenberg", "latitude": 47.717976, "longitude": 9.0688533, "elevation": 442.8, "source": "osm", "_tags": {"ele": "442.8", "name": "Höhrenberg", "natural": "peak"}}, {"name": "Walzenberg", "latitude": 47.7224747, "longitude": 9.0653734, "elevation": 457.0, "source": "osm", "_tags": {"ele": "457", "name": "Walzenberg", "natural": "peak"}}, {"name": "Kreuzberg", "latitude": 48.1540715, "longitude": 9.8602011, "elevation": null, "source": "osm", "_tags": {"name": "Kreuzberg", "natural": "peak"}}, {"name": "Kreuzberg", "latitude": 48.0635173, "longitude": 9.8367639, "elevation": 572.0, "source": "osm", "_tags": {"ele": "572", "name": "Kreuzberg", "natural": "peak"}}, {"name": "Prälatenhöhe", "latitude": 48.0701034, "longitude": 9.8307902, "elevation": 580.0, "source": "osm", "_tags": {"ele": "580", "name": "Prälatenhöhe", "natural": "peak"}}, {"name": "Bönischberg", "latitude": 48.3062058, "longitude": 9.1505613, "elevation": null, "source": "osm", "_tags": {"name": "Bönischberg", "natural": "peak", "wikidata": "Q31551830"}}, {"name": "Spiziger Bühl", "latitude": 48.0703042, "longitude": 9.1176027, "elevation": 675.0, "source": "osm", "_tags": {"ele": "675", "name": "Spiziger Bühl", "natural": "peak", "source": "LGL, www.lgl-bw.de"}}, {"name": "", "latitude": 47.4735889, "longitude": 9.8098887, "elevation": 963.0, "source": "osm", "_tags": {"ele": "963", "natural": "peak", "source": "approximated by opencyclemap"}}, {"name": "Homberg", "latitude": 47.7966165, "longitude": 9.1047263, "elevation": 500.0, "source": "osm", "_tags": {"ele": "500", "name": "Homberg", "natural": "peak", "note": "FIXME Lage"}}, {"name": "Geigenberg", "latitude": 47.7943894, "longitude": 9.1092002, "elevation": 475.0, "source": "osm", "_tags": {"ele": "475", "name": "Geigenberg", "natural": "peak", "note": "FIXME Lage"}}, {"name": "Hochwart", "latitude": 47.6911449, "longitude": 9.067035, "elevation": 438.7, "source": "osm", "_tags": {"ele": "438.7", "name": "Hochwart", "natural": "peak", "source:ele": "signpost"}}, {"name": "Vögelisberg", "latitude": 47.6939295, "longitude": 9.0725783, "elevation": 430.0, "source": "osm", "_tags": {"ele": "430", "name": "Vögelisberg", "natural": "peak"}}, {"name": "Gockelsberg", "latitude": 47.7240334, "longitude": 9.0919806, "elevation": 459.3, "source": "osm", "_tags": {"ele": "459.3", "name": "Gockelsberg", "natural": "peak"}}, {"name": "Junisberg", "latitude": 47.7239179, "longitude": 9.098729, "elevation": 470.0, "source": "osm", "_tags": {"ele": "470", "name": "Junisberg", "natural": "peak"}}, {"name": "Schönenberg", "latitude": 47.7188403, "longitude": 9.1085861, "elevation": 499.4, "source": "osm", "_tags": {"ele": "499.4", "name": "Schönenberg", "natural": "peak"}}, {"name": "Brückleberg", "latitude": 47.7175735, "longitude": 9.1264068, "elevation": 514.7, "source": "osm", "_tags": {"ele": "514.7", "name": "Brückleberg", "natural": "peak"}}, {"name": "Schneiderkopf", "latitude": 47.4707664, "longitude": 9.80995, "elevation": 971.0, "source": "osm", "_tags": {"communication:amateur_radio:sota": "OE/VB-519", "communication:amateur_radio:sota:points": "2", "ele": "971", "name": "Schneiderkopf", "natural": "peak", "source": "gps survey (IPhone 5SE) 07.2017", "wikidata": "Q21865529", "wikipedia": "de:Schneiderkopf"}}, {"name": "Schiener Berg", "latitude": 47.6855135, "longitude": 8.9199221, "elevation": 715.6, "source": "osm", "_tags": {"ele": "715.6", "name": "Schiener Berg", "natural": "peak", "wikidata": "Q1697468", "wikipedia": "de:Schiener Berg"}}, {"name": "Hörenberg", "latitude": 47.705867, "longitude": 9.1232039, "elevation": 478.7, "source": "osm", "_tags": {"ele": "478.7", "name": "Hörenberg", "natural": "peak"}}, {"name": "Grabhügel", "latitude": 47.705397, "longitude": 9.1090958, "elevation": 451.0, "source": "osm", "_tags": {"archaeological_site": "tumulus", "ele": "451", "historic": "archaeological_site", "name": "Grabhügel", "natural": "peak"}}, {"name": "Hochfirst", "latitude": 47.7113033, "longitude": 9.1104124, "elevation": 487.2, "source": "osm", "_tags": {"ele": "487.2", "name": "Hochfirst", "natural": "peak"}}, {"name": "Burstel", "latitude": 47.4650871, "longitude": 8.906283, "elevation": 820.0, "source": "osm", "_tags": {"ele": "820", "name": "Burstel", "natural": "peak"}}, {"name": "Rupberg", "latitude": 47.6873201, "longitude": 9.4405604, "elevation": null, "source": "osm", "_tags": {"alt_name": "Bühl", "name": "Rupberg", "natural": "peak"}}, {"name": "Hundsrugge", "latitude": 47.5412413, "longitude": 8.898079, "elevation": 455.0, "source": "osm", "_tags": {"ele": "455", "name": "Hundsrugge", "natural": "peak"}}, {"name": "Hasenberg", "latitude": 48.3370128, "longitude": 9.8370729, "elevation": 551.0, "source": "osm", "_tags": {"ele": "551", "name": "Hasenberg", "natural": "peak", "wikidata": "Q30620332"}}, {"name": "Schloßberg", "latitude": 48.3227287, "longitude": 9.8843871, "elevation": 530.0, "source": "osm", "_tags": {"ele": "530", "name": "Schloßberg", "natural": "peak"}}, {"name": "Schellenberg", "latitude": 48.3210477, "longitude": 9.8806169, "elevation": 535.0, "source": "osm", "_tags": {"ele": "535", "name": "Schellenberg", "natural": "peak", "wikidata": "Q31332453"}}, {"name": "Hipfelberg", "latitude": 48.1419395, "longitude": 9.6361067, "elevation": 625.0, "source": "osm", "_tags": {"ele": "625", "name": "Hipfelberg", "natural": "peak", "peak": "hill", "wikidata": "Q30736114"}}, {"name": "Steinbühl", "latitude": 47.9168875, "longitude": 9.0023593, "elevation": 673.0, "source": "osm", "_tags": {"ele": "673", "name": "Steinbühl", "natural": "peak"}}, {"name": "Alte Burg", "latitude": 48.1617703, "longitude": 9.3467474, "elevation": null, "source": "osm", "_tags": {"name": "Alte Burg", "natural": "peak"}}, {"name": "Sazbühl", "latitude": 47.7206164, "longitude": 9.6427318, "elevation": 624.0, "source": "osm", "_tags": {"ele": "624", "name": "Sazbühl", "natural": "peak"}}, {"name": "Grindelsberg", "latitude": 47.9034935, "longitude": 9.7102739, "elevation": null, "source": "osm", "_tags": {"name": "Grindelsberg", "natural": "peak"}}, {"name": "Oberer Schorren", "latitude": 47.6686026, "longitude": 9.6916634, "elevation": 607.0, "source": "osm", "_tags": {"ele": "607", "name": "Oberer Schorren", "natural": "peak"}}, {"name": "Purren", "latitude": 47.7152177, "longitude": 9.1630731, "elevation": 507.8, "source": "osm", "_tags": {"ele": "507.8", "name": "Purren", "natural": "peak"}}, {"name": "", "latitude": 47.7238293, "longitude": 9.1498387, "elevation": 477.0, "source": "osm", "_tags": {"ele": "477", "natural": "peak"}}, {"name": "Notzenberg", "latitude": 47.923833, "longitude": 9.0156203, "elevation": null, "source": "osm", "_tags": {"name": "Notzenberg", "natural": "peak"}}, {"name": "Falkenergert", "latitude": 47.9080614, "longitude": 9.3139279, "elevation": 705.0, "source": "osm", "_tags": {"ele": "705", "name": "Falkenergert", "natural": "peak"}}, {"name": "Arnoldsberg", "latitude": 47.9472345, "longitude": 9.3513661, "elevation": null, "source": "osm", "_tags": {"name": "Arnoldsberg", "natural": "peak", "wikidata": "Q1010842"}}, {"name": "Ebinger Turm", "latitude": 48.0914879, "longitude": 9.0701218, "elevation": 752.0, "source": "osm", "_tags": {"ele": "752", "name": "Ebinger Turm", "natural": "peak"}}, {"name": "Rinkenburg", "latitude": 47.878045, "longitude": 9.4458336, "elevation": 726.0, "source": "osm", "_tags": {"ele": "726", "name": "Rinkenburg", "natural": "peak"}}, {"name": "Runder Burren", "latitude": 48.2798155, "longitude": 9.4562608, "elevation": 689.0, "source": "osm", "_tags": {"ele": "689", "name": "Runder Burren", "natural": "peak"}}, {"name": "Loacker Berg", "latitude": 47.4594814, "longitude": 9.6791315, "elevation": 460.0, "source": "osm", "_tags": {"ele": "460", "name": "Loacker Berg", "natural": "peak"}}, {"name": "Burgberg", "latitude": 47.7781988, "longitude": 9.6163625, "elevation": 525.0, "source": "osm", "_tags": {"ele": "525", "name": "Burgberg", "natural": "peak"}}, {"name": "Heubuch", "latitude": 47.4891028, "longitude": 9.1531544, "elevation": 729.0, "source": "osm", "_tags": {"ele": "729", "name": "Heubuch", "natural": "peak"}}, {"name": "Braunhardsberg", "latitude": 48.2465694, "longitude": 9.0064358, "elevation": 969.0, "source": "osm", "_tags": {"ele": "969", "name": "Braunhardsberg", "natural": "peak", "wikidata": "Q901443"}}, {"name": "Kirnberg", "latitude": 47.8187055, "longitude": 8.939007, "elevation": 633.0, "source": "osm", "_tags": {"ele": "633", "name": "Kirnberg", "natural": "peak"}}, {"name": "Homberg", "latitude": 47.5066827, "longitude": 9.0947652, "elevation": null, "source": "osm", "_tags": {"name": "Homberg", "natural": "peak"}}, {"name": "Härle", "latitude": 47.6960742, "longitude": 9.1297143, "elevation": 434.7, "source": "osm", "_tags": {"ele": "434.7", "name": "Härle", "natural": "peak"}}, {"name": "Büchelesberg", "latitude": 48.3107746, "longitude": 9.7293296, "elevation": null, "source": "osm", "_tags": {"name": "Büchelesberg", "natural": "peak"}}, {"name": "Steinsberg", "latitude": 48.3494737, "longitude": 9.7199225, "elevation": null, "source": "osm", "_tags": {"name": "Steinsberg", "natural": "peak"}}, {"name": "Heilenberg", "latitude": 48.3275914, "longitude": 9.7362916, "elevation": null, "source": "osm", "_tags": {"name": "Heilenberg", "natural": "peak"}}, {"name": "Ameisenberg", "latitude": 48.3269, "longitude": 9.2709, "elevation": 814.0, "source": "osm", "_tags": {"ele": "814", "man_made": "survey_point", "name": "Ameisenberg", "natural": "peak"}}, {"name": "Goldberg", "latitude": 48.3351, "longitude": 9.2701, "elevation": 802.0, "source": "osm", "_tags": {"ele": "802", "name": "Goldberg", "natural": "peak"}}, {"name": "Martinsberg", "latitude": 48.3612038, "longitude": 8.9412815, "elevation": 540.0, "source": "osm", "_tags": {"ele": "540", "name": "Martinsberg", "natural": "peak", "wikidata": "Q31309146"}}, {"name": "Braunauer Berg", "latitude": 47.5045113, "longitude": 9.064924, "elevation": 724.0, "source": "osm", "_tags": {"ele": "724", "name": "Braunauer Berg", "natural": "peak"}}, {"name": "Heiligenbühl", "latitude": 48.2619444, "longitude": 9.2275, "elevation": 773.0, "source": "osm", "_tags": {"ele": "773", "name": "Heiligenbühl", "natural": "peak"}}, {"name": "Kreuzberg", "latitude": 48.3127561, "longitude": 9.5706864, "elevation": null, "source": "osm", "_tags": {"name": "Kreuzberg", "natural": "peak"}}, {"name": "", "latitude": 48.3181457, "longitude": 9.1558734, "elevation": null, "source": "osm", "_tags": {"man_made": "cross", "natural": "peak"}}, {"name": "", "latitude": 48.3229346, "longitude": 9.1551592, "elevation": null, "source": "osm", "_tags": {"man_made": "cross", "natural": "peak"}}, {"name": "Warmberg", "latitude": 48.3124, "longitude": 9.3349, "elevation": 791.0, "source": "osm", "_tags": {"ele": "791", "name": "Warmberg", "natural": "peak", "wikidata": "Q31290893"}}, {"name": "Bleichberg", "latitude": 48.3452133, "longitude": 8.9085465, "elevation": null, "source": "osm", "_tags": {"name": "Bleichberg", "natural": "peak"}}, {"name": "Staufenberg", "latitude": 48.1163937, "longitude": 8.8934999, "elevation": 955.0, "source": "osm", "_tags": {"ele": "955", "name": "Staufenberg", "natural": "peak", "wikidata": "Q31311326"}}, {"name": "Nollenberg", "latitude": 47.4798633, "longitude": 9.0675748, "elevation": 629.0, "source": "osm", "_tags": {"ele": "629", "height": "629", "name": "Nollenberg", "natural": "peak"}}, {"name": "Böl", "latitude": 47.4884836, "longitude": 9.0665871, "elevation": 718.0, "source": "osm", "_tags": {"ele": "718", "height": "718", "name": "Böl", "natural": "peak"}}, {"name": "Muggenbüel", "latitude": 47.4841974, "longitude": 9.0553833, "elevation": 696.0, "source": "osm", "_tags": {"ele": "696", "height": "696", "name": "Muggenbüel", "natural": "peak"}}, {"name": "Remisberg", "latitude": 47.4781659, "longitude": 9.0556659, "elevation": 651.0, "source": "osm", "_tags": {"ele": "651", "height": "651", "name": "Remisberg", "natural": "peak"}}, {"name": "Hofberg", "latitude": 47.4794698, "longitude": 9.0476089, "elevation": 723.0, "source": "osm", "_tags": {"ele": "723", "height": "723", "name": "Hofberg", "natural": "peak"}}, {"name": "Gärtensberg", "latitude": 47.4915507, "longitude": 9.0819614, "elevation": 699.0, "source": "osm", "_tags": {"ele": "699", "height": "699", "name": "Gärtensberg", "natural": "peak"}}, {"name": "Uerentaler Berg", "latitude": 47.4925446, "longitude": 9.0745696, "elevation": 741.0, "source": "osm", "_tags": {"ele": "741", "height": "741", "name": "Uerentaler Berg", "natural": "peak"}}, {"name": "Bärenbüel", "latitude": 47.4824391, "longitude": 9.0854443, "elevation": 640.0, "source": "osm", "_tags": {"ele": "640", "height": "640", "name": "Bärenbüel", "natural": "peak"}}, {"name": "Hasenloo", "latitude": 47.4834143, "longitude": 9.0823352, "elevation": 634.0, "source": "osm", "_tags": {"ele": "634", "height": "634", "name": "Hasenloo", "natural": "peak"}}, {"name": "Burgstall", "latitude": 47.4762923, "longitude": 9.0419559, "elevation": 684.0, "source": "osm", "_tags": {"ele": "684", "name": "Burgstall", "natural": "peak"}}, {"name": "Nieselberg", "latitude": 47.4735837, "longitude": 9.077638, "elevation": 718.0, "source": "osm", "_tags": {"ele": "718", "name": "Nieselberg", "natural": "peak"}}, {"name": "Sedelberg", "latitude": 47.4380145, "longitude": 9.052616, "elevation": 607.0, "source": "osm", "_tags": {"ele": "607", "name": "Sedelberg", "natural": "peak"}}, {"name": "Fetzwald", "latitude": 47.4325396, "longitude": 9.0531778, "elevation": 659.0, "source": "osm", "_tags": {"ele": "659", "name": "Fetzwald", "natural": "peak"}}, {"name": "Würenholz", "latitude": 47.4416247, "longitude": 9.0405756, "elevation": 630.0, "source": "osm", "_tags": {"ele": "630", "name": "Würenholz", "natural": "peak"}}, {"name": "Ebnet", "latitude": 47.4375551, "longitude": 9.0164636, "elevation": 684.0, "source": "osm", "_tags": {"ele": "684", "name": "Ebnet", "natural": "peak"}}, {"name": "Hummelberg", "latitude": 47.4466638, "longitude": 9.0263834, "elevation": 684.0, "source": "osm", "_tags": {"ele": "684", "name": "Hummelberg", "natural": "peak"}}, {"name": "Rooset", "latitude": 47.4477138, "longitude": 9.0015904, "elevation": 721.0, "source": "osm", "_tags": {"ele": "721", "name": "Rooset", "natural": "peak"}}, {"name": "Arenenberg", "latitude": 47.4441783, "longitude": 9.0080862, "elevation": 652.0, "source": "osm", "_tags": {"ele": "652", "name": "Arenenberg", "natural": "peak"}}, {"name": "Sirnacherberg", "latitude": 47.4578706, "longitude": 9.0058331, "elevation": 676.0, "source": "osm", "_tags": {"ele": "676", "name": "Sirnacherberg", "natural": "peak"}}, {"name": "Bergholz", "latitude": 47.4600006, "longitude": 9.0262862, "elevation": 581.0, "source": "osm", "_tags": {"ele": "581", "name": "Bergholz", "natural": "peak"}}, {"name": "Altstadthügel", "latitude": 47.4674704, "longitude": 9.0498763, "elevation": 600.0, "source": "osm", "_tags": {"ele": "600", "name": "Altstadthügel", "natural": "peak"}}, {"name": "", "latitude": 48.1332522, "longitude": 8.8968197, "elevation": null, "source": "osm", "_tags": {"man_made": "cross", "natural": "peak", "summit:cross": "yes"}}, {"name": "", "latitude": 48.0294857, "longitude": 8.9395908, "elevation": null, "source": "osm", "_tags": {"man_made": "cross", "natural": "peak", "summit:cross": "yes"}}, {"name": "Unterholz", "latitude": 47.4715417, "longitude": 9.0188577, "elevation": null, "source": "osm", "_tags": {"name": "Unterholz", "natural": "peak"}}, {"name": "Trunger Holz", "latitude": 47.4885479, "longitude": 9.0176684, "elevation": 551.0, "source": "osm", "_tags": {"ele": "551", "name": "Trunger Holz", "natural": "peak"}}, {"name": "Lettenberg", "latitude": 47.4344938, "longitude": 9.0096022, "elevation": 710.0, "source": "osm", "_tags": {"ele": "710", "name": "Lettenberg", "natural": "peak"}}, {"name": "", "latitude": 47.511713, "longitude": 9.814424, "elevation": 1010.0, "source": "osm", "_tags": {"ele": "1010", "natural": "peak", "prominence": "50", "wikidata": "Q132560039"}}, {"name": "", "latitude": 47.6122532, "longitude": 9.86774, "elevation": 801.0, "source": "osm", "_tags": {"ele": "801", "natural": "peak", "prominence": "26"}}, {"name": "", "latitude": 47.608295, "longitude": 9.8553152, "elevation": null, "source": "osm", "_tags": {"natural": "peak"}}, {"name": "Kreuzberg", "latitude": 47.5770398, "longitude": 9.8497861, "elevation": 866.0, "source": "osm", "_tags": {"ele": "866", "name": "Kreuzberg", "natural": "peak", "wikidata": "Q130516497"}}, {"name": "", "latitude": 47.5447966, "longitude": 9.8130348, "elevation": 1053.0, "source": "osm", "_tags": {"ele": "1053", "natural": "peak", "prominence": "26"}}, {"name": "", "latitude": 47.5015231, "longitude": 9.7788184, "elevation": 1021.0, "source": "osm", "_tags": {"ele": "1021", "natural": "peak", "summit:cross": "no"}}, {"name": "Mooskopf", "latitude": 47.5163584, "longitude": 9.7833999, "elevation": 1042.0, "source": "osm", "_tags": {"ele": "1042", "name": "Mooskopf", "natural": "peak", "prominence": "38", "wikidata": "Q130516142"}}, {"name": "Trögerhöhe", "latitude": 47.5402328, "longitude": 9.8104893, "elevation": 1039.0, "source": "osm", "_tags": {"ele": "1039", "name": "Trögerhöhe", "natural": "peak", "prominence": "15", "wikidata": "Q21876718"}}, {"name": "Tatzen", "latitude": 47.553986, "longitude": 9.81683, "elevation": 1024.0, "source": "osm", "_tags": {"ele": "1024", "name": "Tatzen", "natural": "peak", "prominence": "38", "wikidata": "Q21876717"}}, {"name": "", "latitude": 47.533587, "longitude": 9.796809, "elevation": 1034.0, "source": "osm", "_tags": {"ele": "1034", "natural": "peak", "prominence": "23"}}, {"name": "", "latitude": 47.5644798, "longitude": 9.8267181, "elevation": 951.0, "source": "osm", "_tags": {"ele": "951", "natural": "peak", "prominence": "25"}}, {"name": "Roderbühl", "latitude": 47.5833238, "longitude": 9.8654772, "elevation": 849.0, "source": "osm", "_tags": {"ele": "849", "name": "Roderbühl", "natural": "peak", "prominence": "46", "wikidata": "Q130524920"}}, {"name": "Känzele", "latitude": 47.4875498, "longitude": 9.7621017, "elevation": 726.0, "source": "osm", "_tags": {"alt_name": "Kanzelfelsen;Gebhardsbergfelsen", "ele": "726", "name": "Känzele", "natural": "peak", "prominence": "16", "source": "survey 05.2020 and Vogis 2018", "tourism": "viewpoint", "wikidata": "Q123336511", "wikipedia": "de:Känzele (Gebhardsberg)"}}, {"name": "", "latitude": 47.4459132, "longitude": 8.9053118, "elevation": 823.0, "source": "osm", "_tags": {"ele": "823", "natural": "peak"}}, {"name": "Wirtenbühl", "latitude": 48.0026784, "longitude": 8.8979192, "elevation": 818.0, "source": "osm", "_tags": {"ele": "818", "name": "Wirtenbühl", "natural": "peak", "source": "LGL, www.lgl-bw.de"}}, {"name": "Brennten", "latitude": 47.9930997, "longitude": 8.8908008, "elevation": 842.0, "source": "osm", "_tags": {"ele": "842", "name": "Brennten", "natural": "peak", "source": "LGL, www.lgl-bw.de"}}, {"name": "Schildhalde", "latitude": 48.1929253, "longitude": 8.954514, "elevation": 974.0, "source": "osm", "_tags": {"ele": "974", "name": "Schildhalde", "natural": "peak", "source": "LGL, www.lgl-bw.de"}}, {"name": "Loh", "latitude": 47.8514004, "longitude": 8.8883003, "elevation": 560.0, "source": "osm", "_tags": {"ele": "560", "name": "Loh", "natural": "peak", "source": "LGL, www.lgl-bw.de"}}, {"name": "Mittelberg", "latitude": 48.0883969, "longitude": 9.0866975, "elevation": 752.0, "source": "osm", "_tags": {"ele": "752", "name": "Mittelberg", "natural": "peak", "source": "LGL, www.lgl-bw.de"}}, {"name": "Benzenberg", "latitude": 48.0702344, "longitude": 9.1267306, "elevation": 722.0, "source": "osm", "_tags": {"ele": "722", "name": "Benzenberg", "natural": "peak", "source": "LGL, www.lgl-bw.de", "wikidata": "Q30703393"}}, {"name": "", "latitude": 48.0218119, "longitude": 9.0601304, "elevation": 756.0, "source": "osm", "_tags": {"comment": "Mahdenhäule=Name des Waldes, nicht des Berges", "ele": "756", "natural": "peak", "source": "LGL, www.lgl-bw.de"}}, {"name": "Blankenhalde", "latitude": 48.0408945, "longitude": 8.9921649, "elevation": 869.0, "source": "osm", "_tags": {"ele": "869", "name": "Blankenhalde", "natural": "peak", "source": "LGL, www.lgl-bw.de"}}, {"name": "Kirchberg", "latitude": 48.0220282, "longitude": 8.9435792, "elevation": 796.0, "source": "osm", "_tags": {"ele": "796", "name": "Kirchberg", "natural": "peak", "source": "LGL, www.lgl-bw.de"}}, {"name": "Sipplinger Berg", "latitude": 47.8081138, "longitude": 9.1040135, "elevation": 706.0, "source": "osm", "_tags": {"ele": "706", "name": "Sipplinger Berg", "natural": "peak", "source": "LGL, www.lgl-bw.de", "wikidata": "Q31317152"}}, {"name": "Hochbühl", "latitude": 47.8122778, "longitude": 9.1410863, "elevation": 717.0, "source": "osm", "_tags": {"ele": "717", "name": "Hochbühl", "natural": "peak", "source": "LGL, www.lgl-bw.de"}}, {"name": "Brand", "latitude": 47.7799371, "longitude": 9.0433015, "elevation": 659.0, "source": "osm", "_tags": {"ele": "659", "name": "Brand", "natural": "peak"}}, {"name": "Rossberg", "latitude": 47.8081463, "longitude": 8.9530885, "elevation": 640.0, "source": "osm", "_tags": {"ele": "640", "name": "Rossberg", "natural": "peak", "source": "LGL, www.lgl-bw.de"}}, {"name": "Nellenburger Berg", "latitude": 47.8553983, "longitude": 8.9900055, "elevation": 624.0, "source": "osm", "_tags": {"ele": "624", "name": "Nellenburger Berg", "natural": "peak", "source": "LGL, www.lgl-bw.de", "wikidata": "Q31300289"}}, {"name": "Lettenberg", "latitude": 47.7309947, "longitude": 9.052992, "elevation": 466.1, "source": "osm", "_tags": {"ele": "466.1", "name": "Lettenberg", "natural": "peak", "source": "LGL, www.lgl-bw.de"}}, {"name": "Riesenberg", "latitude": 47.6953513, "longitude": 9.1703318, "elevation": 485.2, "source": "osm", "_tags": {"alt_name": "Eugenshöhe", "ele": "485.2", "name": "Riesenberg", "natural": "peak", "source": "LGL, www.lgl-bw.de"}}, {"name": "Taborberg", "latitude": 47.6918554, "longitude": 9.1602763, "elevation": 473.3, "source": "osm", "_tags": {"ele": "473.3", "name": "Taborberg", "natural": "peak", "source": "LGL, www.lgl-bw.de", "wikidata": "Q1262910", "wikipedia": "de:Taborberg (Bodanrück)"}}, {"name": "Homberg", "latitude": 47.7372006, "longitude": 9.0335962, "elevation": 487.3, "source": "osm", "_tags": {"ele": "487.3", "name": "Homberg", "natural": "peak", "source": "LGL, www.lgl-bw.de"}}, {"name": "Käferberg", "latitude": 47.9022121, "longitude": 9.3390864, "elevation": 726.0, "source": "osm", "_tags": {"ele": "726", "name": "Käferberg", "natural": "peak", "source": "LGL, www.lgl-bw.de"}}, {"name": "Habsberg", "latitude": 48.1745766, "longitude": 9.3434277, "elevation": 732.0, "source": "osm", "_tags": {"ele": "732", "name": "Habsberg", "natural": "peak", "source": "LGL, www.lgl-bw.de"}}, {"name": "Bozenberg", "latitude": 48.1635071, "longitude": 9.309731, "elevation": 754.0, "source": "osm", "_tags": {"ele": "754", "name": "Bozenberg", "natural": "peak"}}, {"name": "Scheinenberg", "latitude": 48.1366914, "longitude": 9.2324601, "elevation": 774.0, "source": "osm", "_tags": {"ele": "774", "name": "Scheinenberg", "natural": "peak", "source": "LGL, www.lgl-bw.de", "wikidata": "Q31332741"}}, {"name": "", "latitude": 48.1298062, "longitude": 9.1975635, "elevation": 708.0, "source": "osm", "_tags": {"ele": "708", "natural": "peak", "source": "LGL, www.lgl-bw.de"}}, {"name": "Schellenberg", "latitude": 48.0183686, "longitude": 9.5703817, "elevation": 677.0, "source": "osm", "_tags": {"ele": "677", "name": "Schellenberg", "natural": "peak"}}, {"name": "Hochberg", "latitude": 47.9916698, "longitude": 9.5330583, "elevation": 676.0, "source": "osm", "_tags": {"ele": "676", "name": "Hochberg", "natural": "peak", "source": "LGL, www.lgl-bw.de"}}, {"name": "Hochberg", "latitude": 48.0077933, "longitude": 9.4532703, "elevation": 634.0, "source": "osm", "_tags": {"ele": "634", "name": "Hochberg", "natural": "peak", "source": "LGL, www.lgl-bw.de"}}, {"name": "Emerberg", "latitude": 48.2279571, "longitude": 9.4984248, "elevation": 704.0, "source": "osm", "_tags": {"ele": "704", "name": "Emerberg", "natural": "peak", "source": "LGL, www.lgl-bw.de", "wikidata": "Q31548076"}}, {"name": "Tautschbuch", "latitude": 48.2014877, "longitude": 9.4626008, "elevation": 734.0, "source": "osm", "_tags": {"ele": "734", "name": "Tautschbuch", "natural": "peak", "source": "LGL, www.lgl-bw.de"}}, {"name": "Österberg", "latitude": 48.1588934, "longitude": 9.4375012, "elevation": 652.0, "source": "osm", "_tags": {"ele": "652", "name": "Österberg", "natural": "peak", "source": "LGL, www.lgl-bw.de", "wikidata": "Q31528641"}}, {"name": "Kohlberg", "latitude": 48.2791318, "longitude": 9.6867781, "elevation": 571.0, "source": "osm", "_tags": {"ele": "571", "name": "Kohlberg", "natural": "peak", "source": "LGL, www.lgl-bw.de"}}, {"name": "Doppberg", "latitude": 48.2678388, "longitude": 9.6517285, "elevation": 589.0, "source": "osm", "_tags": {"ele": "589", "name": "Doppberg", "natural": "peak", "source": "LGL, www.lgl-bw.de"}}, {"name": "Guckenberg", "latitude": 48.2035998, "longitude": 9.5722418, "elevation": 657.0, "source": "osm", "_tags": {"ele": "657", "name": "Guckenberg", "natural": "peak", "source": "LGL, www.lgl-bw.de"}}, {"name": "Egelsberg", "latitude": 48.3613995, "longitude": 9.7535989, "elevation": 685.0, "source": "osm", "_tags": {"ele": "685", "name": "Egelsberg", "natural": "peak", "source": "LGL, www.lgl-bw.de", "wikidata": "Q30789948"}}, {"name": "Erzberg", "latitude": 48.354393, "longitude": 9.7544323, "elevation": 631.0, "source": "osm", "_tags": {"ele": "631", "name": "Erzberg", "natural": "peak", "source": "LGL, www.lgl-bw.de"}}, {"name": "Schelklinger Berg", "latitude": 48.3620981, "longitude": 9.7311433, "elevation": 653.0, "source": "osm", "_tags": {"ele": "653", "name": "Schelklinger Berg", "natural": "peak", "source": "LGL, www.lgl-bw.de", "wikidata": "Q31332621"}}, {"name": "Hausberg", "latitude": 48.3089458, "longitude": 9.4024002, "elevation": 794.0, "source": "osm", "_tags": {"ele": "794", "name": "Hausberg", "natural": "peak", "source": "LGL, www.lgl-bw.de", "wikidata": "Q31542051"}}, {"name": "Rommetsberg", "latitude": 48.3402985, "longitude": 9.384256, "elevation": 798.0, "source": "osm", "_tags": {"ele": "798", "name": "Rommetsberg", "natural": "peak", "source": "LGL, www.lgl-bw.de"}}, {"name": "Rosshäuptle", "latitude": 48.3273081, "longitude": 9.3765986, "elevation": 824.0, "source": "osm", "_tags": {"ele": "824", "name": "Rosshäuptle", "natural": "peak", "source": "LGL, www.lgl-bw.de", "wikidata": "Q31352551"}}, {"name": "Eichelberg", "latitude": 48.344548, "longitude": 9.3535562, "elevation": 768.0, "source": "osm", "_tags": {"ele": "768", "name": "Eichelberg", "natural": "peak", "source": "LGL, www.lgl-bw.de"}}, {"name": "Schwarzenberg", "latitude": 47.7164783, "longitude": 9.1016927, "elevation": 489.0, "source": "osm", "_tags": {"ele": "489", "name": "Schwarzenberg", "natural": "peak"}}, {"name": "", "latitude": 47.715616, "longitude": 9.0974466, "elevation": 474.0, "source": "osm", "_tags": {"ele": "474", "natural": "peak"}}, {"name": "Tafelholz", "latitude": 47.7193879, "longitude": 9.0883545, "elevation": 460.2, "source": "osm", "_tags": {"ele": "460.2", "name": "Tafelholz", "natural": "peak"}}, {"name": "", "latitude": 47.7264578, "longitude": 9.0953769, "elevation": 494.0, "source": "osm", "_tags": {"ele": "494", "natural": "peak"}}, {"name": "Ameisenberg", "latitude": 47.726464, "longitude": 9.110198, "elevation": 497.4, "source": "osm", "_tags": {"ele": "497.4", "name": "Ameisenberg", "natural": "peak"}}, {"name": "Buchrain", "latitude": 47.724357, "longitude": 9.082282, "elevation": 447.5, "source": "osm", "_tags": {"ele": "447.5", "name": "Buchrain", "natural": "peak"}}, {"name": "Eichelrain", "latitude": 47.722423, "longitude": 9.077046, "elevation": 452.9, "source": "osm", "_tags": {"ele": "452.9", "name": "Eichelrain", "natural": "peak"}}, {"name": "Röhrenberg", "latitude": 47.7175339, "longitude": 9.0809742, "elevation": 459.9, "source": "osm", "_tags": {"ele": "459.9", "name": "Röhrenberg", "natural": "peak"}}, {"name": "Schwackerten", "latitude": 47.685165, "longitude": 9.1676964, "elevation": 453.0, "source": "osm", "_tags": {"ele": "453", "name": "Schwackerten", "natural": "peak"}}, {"name": "Mooshalde", "latitude": 47.747228, "longitude": 9.028262, "elevation": 470.0, "source": "osm", "_tags": {"ele": "470", "name": "Mooshalde", "natural": "peak"}}, {"name": "", "latitude": 47.739912, "longitude": 9.021343, "elevation": 466.0, "source": "osm", "_tags": {"ele": "466", "natural": "peak"}}, {"name": "Scheffhalde", "latitude": 47.737933, "longitude": 9.042782, "elevation": 467.0, "source": "osm", "_tags": {"ele": "467", "name": "Scheffhalde", "natural": "peak"}}, {"name": "Wolfsgrund", "latitude": 47.763631, "longitude": 9.024468, "elevation": 512.0, "source": "osm", "_tags": {"ele": "512", "name": "Wolfsgrund", "natural": "peak"}}, {"name": "", "latitude": 47.772952, "longitude": 9.053388, "elevation": 635.0, "source": "osm", "_tags": {"ele": "635", "natural": "peak"}}, {"name": "Lerchenacker", "latitude": 47.7862402, "longitude": 9.0357396, "elevation": 693.4, "source": "osm", "_tags": {"ele": "693.4", "name": "Lerchenacker", "natural": "peak"}}, {"name": "Hasenbühl", "latitude": 47.762264, "longitude": 9.049033, "elevation": 538.0, "source": "osm", "_tags": {"ele": "538", "name": "Hasenbühl", "natural": "peak"}}, {"name": "Birkelwald", "latitude": 47.7646, "longitude": 9.046348, "elevation": 555.0, "source": "osm", "_tags": {"ele": "555", "name": "Birkelwald", "natural": "peak"}}, {"name": "Vogelherd", "latitude": 47.766721, "longitude": 9.068728, "elevation": 591.0, "source": "osm", "_tags": {"ele": "591", "name": "Vogelherd", "natural": "peak"}}, {"name": "Gallensberg", "latitude": 47.758888, "longitude": 9.081109, "elevation": 537.0, "source": "osm", "_tags": {"ele": "537", "name": "Gallensberg", "natural": "peak"}}, {"name": "Schloßberg", "latitude": 47.7442411, "longitude": 9.0775536, "elevation": 513.0, "source": "osm", "_tags": {"ele": "513", "name": "Schloßberg", "natural": "peak"}}, {"name": "", "latitude": 47.749666, "longitude": 9.063918, "elevation": 509.0, "source": "osm", "_tags": {"ele": "509", "natural": "peak"}}, {"name": "", "latitude": 47.748411, "longitude": 9.069881, "elevation": 524.0, "source": "osm", "_tags": {"ele": "524", "natural": "peak"}}, {"name": "Brandberg", "latitude": 47.750523, "longitude": 9.071034, "elevation": 542.0, "source": "osm", "_tags": {"ele": "542", "name": "Brandberg", "natural": "peak"}}, {"name": "Bommern", "latitude": 47.743116, "longitude": 9.065496, "elevation": 492.4, "source": "osm", "_tags": {"ele": "492.4", "name": "Bommern", "natural": "peak"}}, {"name": "Pfahlsberg", "latitude": 47.752768, "longitude": 9.088452, "elevation": 541.0, "source": "osm", "_tags": {"ele": "541", "name": "Pfahlsberg", "natural": "peak"}}, {"name": "Pfahlsberg", "latitude": 47.748289, "longitude": 9.093156, "elevation": 566.0, "source": "osm", "_tags": {"ele": "566", "name": "Pfahlsberg", "natural": "peak"}}, {"name": "Lerchenbühl", "latitude": 47.7413, "longitude": 9.090303, "elevation": 516.0, "source": "osm", "_tags": {"ele": "516", "name": "Lerchenbühl", "natural": "peak"}}, {"name": "Wiesberg", "latitude": 47.74078, "longitude": 9.078302, "elevation": 490.0, "source": "osm", "_tags": {"ele": "490", "name": "Wiesberg", "natural": "peak"}}, {"name": "Hölzle", "latitude": 47.7373646, "longitude": 9.0710192, "elevation": 489.0, "source": "osm", "_tags": {"ele": "489", "name": "Hölzle", "natural": "peak"}}, {"name": "Buchberg", "latitude": 47.728483, "longitude": 9.089666, "elevation": 472.0, "source": "osm", "_tags": {"ele": "472", "name": "Buchberg", "natural": "peak"}}, {"name": "Riedberg", "latitude": 47.730106, "longitude": 9.099862, "elevation": 503.4, "source": "osm", "_tags": {"ele": "503.4", "name": "Riedberg", "natural": "peak"}}, {"name": "Dachsberg", "latitude": 47.727677, "longitude": 9.101289, "elevation": 494.0, "source": "osm", "_tags": {"ele": "494", "name": "Dachsberg", "natural": "peak"}}, {"name": "", "latitude": 47.721992, "longitude": 9.125853, "elevation": 522.0, "source": "osm", "_tags": {"ele": "522", "natural": "peak"}}, {"name": "", "latitude": 47.71897, "longitude": 9.121468, "elevation": 504.6, "source": "osm", "_tags": {"ele": "504.6", "natural": "peak"}}, {"name": "Milchenberg", "latitude": 47.720716, "longitude": 9.151693, "elevation": 494.0, "source": "osm", "_tags": {"ele": "494", "name": "Milchenberg", "natural": "peak"}}, {"name": "", "latitude": 47.71947, "longitude": 9.134183, "elevation": 507.0, "source": "osm", "_tags": {"ele": "507", "natural": "peak"}}, {"name": "Schwarzenberg", "latitude": 47.71897, "longitude": 9.140435, "elevation": 514.8, "source": "osm", "_tags": {"ele": "514.8", "name": "Schwarzenberg", "natural": "peak", "wikidata": "Q30620251"}}, {"name": "Kazet", "latitude": 47.70918, "longitude": 9.140981, "elevation": 494.2, "source": "osm", "_tags": {"ele": "494.2", "name": "Kazet", "natural": "peak"}}, {"name": "Heckenberg", "latitude": 47.71503, "longitude": 9.134608, "elevation": 508.1, "source": "osm", "_tags": {"ele": "508.1", "name": "Heckenberg", "natural": "peak"}}, {"name": "", "latitude": 47.714131, "longitude": 9.12998, "elevation": 503.0, "source": "osm", "_tags": {"ele": "503", "natural": "peak"}}, {"name": "Langfuhren", "latitude": 47.71114, "longitude": 9.132894, "elevation": 499.2, "source": "osm", "_tags": {"ele": "499.2", "name": "Langfuhren", "natural": "peak"}}, {"name": "Adelheider Berg", "latitude": 47.711184, "longitude": 9.124647, "elevation": 499.1, "source": "osm", "_tags": {"ele": "499.1", "name": "Adelheider Berg", "natural": "peak"}}, {"name": "", "latitude": 47.7114453, "longitude": 9.1177414, "elevation": 489.0, "source": "osm", "_tags": {"ele": "489", "natural": "peak"}}, {"name": "", "latitude": 47.7074297, "longitude": 9.1289735, "elevation": 475.0, "source": "osm", "_tags": {"ele": "475", "natural": "peak"}}, {"name": "Saustall", "latitude": 47.7147571, "longitude": 9.1471052, "elevation": 480.0, "source": "osm", "_tags": {"ele": "480", "name": "Saustall", "natural": "peak"}}, {"name": "", "latitude": 47.7120284, "longitude": 9.1412258, "elevation": 466.0, "source": "osm", "_tags": {"ele": "466", "natural": "peak"}}, {"name": "Eichbühl", "latitude": 47.7014456, "longitude": 9.1170316, "elevation": 450.0, "source": "osm", "_tags": {"ele": "450", "name": "Eichbühl", "natural": "peak"}}, {"name": "Hügelstein", "latitude": 47.7880464, "longitude": 9.0172219, "elevation": 632.0, "source": "osm", "_tags": {"ele": "632", "name": "Hügelstein", "natural": "peak"}}, {"name": "", "latitude": 47.795521, "longitude": 9.0257299, "elevation": 622.0, "source": "osm", "_tags": {"ele": "622", "natural": "peak"}}, {"name": "Gütletaler Eck", "latitude": 47.7927173, "longitude": 9.0196895, "elevation": 636.0, "source": "osm", "_tags": {"ele": "636", "name": "Gütletaler Eck", "natural": "peak"}}, {"name": "", "latitude": 47.7896322, "longitude": 9.0029955, "elevation": 662.0, "source": "osm", "_tags": {"ele": "662", "natural": "peak"}}, {"name": "", "latitude": 47.7866624, "longitude": 8.9932108, "elevation": 649.0, "source": "osm", "_tags": {"ele": "649", "natural": "peak"}}, {"name": "", "latitude": 47.7890988, "longitude": 8.991065, "elevation": 649.0, "source": "osm", "_tags": {"ele": "649", "natural": "peak"}}, {"name": "Mühlberg", "latitude": 47.7933371, "longitude": 8.9962578, "elevation": 687.0, "source": "osm", "_tags": {"ele": "687", "name": "Mühlberg", "natural": "peak"}}, {"name": "Böhlerberg", "latitude": 47.7877797, "longitude": 8.9861941, "elevation": 618.0, "source": "osm", "_tags": {"ele": "618", "name": "Böhlerberg", "natural": "peak"}}, {"name": "", "latitude": 47.7587214, "longitude": 9.0293348, "elevation": 483.0, "source": "osm", "_tags": {"ele": "483", "natural": "peak"}}, {"name": "", "latitude": 47.7623492, "longitude": 9.0432286, "elevation": 538.0, "source": "osm", "_tags": {"ele": "538", "natural": "peak"}}, {"name": "", "latitude": 47.755858, "longitude": 9.0758657, "elevation": 514.0, "source": "osm", "_tags": {"ele": "514", "natural": "peak"}}, {"name": "Speicherholz", "latitude": 47.7514146, "longitude": 9.0812516, "elevation": 543.0, "source": "osm", "_tags": {"ele": "543", "name": "Speicherholz", "natural": "peak"}}, {"name": "", "latitude": 47.7564061, "longitude": 9.089942, "elevation": 541.0, "source": "osm", "_tags": {"ele": "541", "natural": "peak"}}, {"name": "Bruderholz", "latitude": 47.7604019, "longitude": 9.0986967, "elevation": 523.0, "source": "osm", "_tags": {"ele": "523", "name": "Bruderholz", "natural": "peak"}}, {"name": "Bauenberg", "latitude": 47.7538239, "longitude": 9.1172576, "elevation": 481.0, "source": "osm", "_tags": {"ele": "481", "name": "Bauenberg", "natural": "peak"}}, {"name": "Maiersberg", "latitude": 47.7508953, "longitude": 9.102323, "elevation": 547.0, "source": "osm", "_tags": {"ele": "547", "name": "Maiersberg", "natural": "peak"}}, {"name": "", "latitude": 47.7482117, "longitude": 9.1076016, "elevation": 532.4, "source": "osm", "_tags": {"ele": "532.4", "natural": "peak"}}, {"name": "", "latitude": 47.6836573, "longitude": 9.1808367, "elevation": 433.0, "source": "osm", "_tags": {"ele": "433", "natural": "peak"}}, {"name": "Homburg", "latitude": 47.792328, "longitude": 8.9661956, "elevation": 622.0, "source": "osm", "_tags": {"ele": "622", "name": "Homburg", "natural": "peak"}}, {"name": "", "latitude": 47.7954129, "longitude": 8.9923954, "elevation": 652.0, "source": "osm", "_tags": {"ele": "652", "natural": "peak"}}, {"name": "", "latitude": 47.7786097, "longitude": 8.9843917, "elevation": 537.0, "source": "osm", "_tags": {"ele": "537", "natural": "peak"}}, {"name": "Durchenberg", "latitude": 47.7761944, "longitude": 8.9879429, "elevation": 531.0, "source": "osm", "_tags": {"ele": "531", "name": "Durchenberg", "natural": "peak"}}, {"name": "Durchenberg", "latitude": 47.7764179, "longitude": 8.9860225, "elevation": 531.0, "source": "osm", "_tags": {"ele": "531", "name": "Durchenberg", "natural": "peak"}}, {"name": "Oberer Brandbühlwald", "latitude": 47.7726541, "longitude": 8.965584, "elevation": 497.0, "source": "osm", "_tags": {"ele": "497", "name": "Oberer Brandbühlwald", "natural": "peak"}}, {"name": "Hohen Gemingen", "latitude": 47.7651618, "longitude": 8.9760125, "elevation": 494.0, "source": "osm", "_tags": {"ele": "494", "name": "Hohen Gemingen", "natural": "peak"}}, {"name": "", "latitude": 47.7818684, "longitude": 9.0131879, "elevation": 636.0, "source": "osm", "_tags": {"ele": "636", "natural": "peak"}}, {"name": "Bord", "latitude": 47.7726541, "longitude": 9.0017831, "elevation": 523.0, "source": "osm", "_tags": {"ele": "523", "name": "Bord", "natural": "peak"}}, {"name": "Bord", "latitude": 47.7710029, "longitude": 9.0169215, "elevation": 550.0, "source": "osm", "_tags": {"ele": "550", "name": "Bord", "natural": "peak"}}, {"name": "Lützelhart", "latitude": 47.768955, "longitude": 9.0244961, "elevation": 540.0, "source": "osm", "_tags": {"ele": "540", "name": "Lützelhart", "natural": "peak"}}, {"name": "", "latitude": 47.7592768, "longitude": 9.0892553, "elevation": 542.0, "source": "osm", "_tags": {"ele": "542", "natural": "peak"}}, {"name": "Steigbühl", "latitude": 47.744013, "longitude": 9.1183305, "elevation": 531.0, "source": "osm", "_tags": {"ele": "531", "name": "Steigbühl", "natural": "peak"}}, {"name": "Wachholderberg", "latitude": 47.7432339, "longitude": 9.0712738, "elevation": 488.0, "source": "osm", "_tags": {"ele": "488", "name": "Wachholderberg", "natural": "peak"}}, {"name": "Gogolorishau", "latitude": 47.7459898, "longitude": 9.0730333, "elevation": 514.9, "source": "osm", "_tags": {"ele": "514.9", "name": "Gogolorishau", "natural": "peak"}}, {"name": "Roßberg", "latitude": 47.7319056, "longitude": 9.0587425, "elevation": 466.0, "source": "osm", "_tags": {"ele": "466", "name": "Roßberg", "natural": "peak"}}, {"name": "Langer Rain", "latitude": 47.734056, "longitude": 9.0457177, "elevation": 472.0, "source": "osm", "_tags": {"ele": "472", "name": "Langer Rain", "natural": "peak"}}, {"name": "Sengerberg", "latitude": 47.7297984, "longitude": 9.1385436, "elevation": 489.0, "source": "osm", "_tags": {"ele": "489", "name": "Sengerberg", "natural": "peak"}}, {"name": "Rupertsberg", "latitude": 47.7309675, "longitude": 9.1415262, "elevation": 482.9, "source": "osm", "_tags": {"ele": "482.9", "name": "Rupertsberg", "natural": "peak"}}, {"name": "Hesselberg", "latitude": 47.7324541, "longitude": 9.1268492, "elevation": 488.4, "source": "osm", "_tags": {"ele": "488.4", "name": "Hesselberg", "natural": "peak"}}, {"name": "Verenenberg", "latitude": 47.7280087, "longitude": 9.1147363, "elevation": 466.0, "source": "osm", "_tags": {"ele": "466", "name": "Verenenberg", "natural": "peak"}}, {"name": "", "latitude": 47.7304407, "longitude": 9.0934181, "elevation": 475.0, "source": "osm", "_tags": {"ele": "475", "natural": "peak"}}, {"name": "Mühlbergle", "latitude": 47.7328726, "longitude": 9.0819597, "elevation": 449.0, "source": "osm", "_tags": {"ele": "449", "name": "Mühlbergle", "natural": "peak"}}, {"name": "Riesenberg", "latitude": 47.7276984, "longitude": 9.0693855, "elevation": 447.0, "source": "osm", "_tags": {"ele": "447", "name": "Riesenberg", "natural": "peak"}}, {"name": "", "latitude": 47.7208781, "longitude": 9.1163993, "elevation": 499.0, "source": "osm", "_tags": {"ele": "499", "natural": "peak"}}, {"name": "", "latitude": 47.7193335, "longitude": 9.1141033, "elevation": 495.0, "source": "osm", "_tags": {"ele": "495", "natural": "peak"}}, {"name": "", "latitude": 47.7052854, "longitude": 9.1490364, "elevation": 487.1, "source": "osm", "_tags": {"ele": "487.1", "natural": "peak"}}, {"name": "Adelisbölle", "latitude": 47.7077618, "longitude": 9.1491973, "elevation": 482.0, "source": "osm", "_tags": {"ele": "482", "name": "Adelisbölle", "natural": "peak"}}, {"name": "Schwallert", "latitude": 47.7094583, "longitude": 9.152137, "elevation": 502.0, "source": "osm", "_tags": {"ele": "502", "name": "Schwallert", "natural": "peak"}}, {"name": "Eggenhalden", "latitude": 47.7125301, "longitude": 9.1545081, "elevation": 499.0, "source": "osm", "_tags": {"ele": "499", "name": "Eggenhalden", "natural": "peak"}}, {"name": "Großer Abendberg", "latitude": 47.7080433, "longitude": 9.1618681, "elevation": 488.6, "source": "osm", "_tags": {"ele": "488.6", "name": "Großer Abendberg", "natural": "peak"}}, {"name": "", "latitude": 47.7037548, "longitude": 9.1696572, "elevation": 484.4, "source": "osm", "_tags": {"ele": "484.4", "natural": "peak"}}, {"name": "Eggerhalde", "latitude": 47.6953661, "longitude": 9.1808876, "elevation": 468.7, "source": "osm", "_tags": {"ele": "468.7", "name": "Eggerhalde", "natural": "peak"}}, {"name": "", "latitude": 47.693559, "longitude": 9.1670179, "elevation": 478.8, "source": "osm", "_tags": {"ele": "478.8", "natural": "peak"}}, {"name": "Riesenberg", "latitude": 47.6860453, "longitude": 9.1755795, "elevation": 461.4, "source": "osm", "_tags": {"ele": "461.4", "name": "Riesenberg", "natural": "peak"}}, {"name": "Eichberg", "latitude": 47.6868858, "longitude": 9.184066, "elevation": 450.8, "source": "osm", "_tags": {"ele": "450.8", "name": "Eichberg", "natural": "peak"}}, {"name": "Fuchsbühl", "latitude": 47.6845601, "longitude": 9.1850531, "elevation": 454.0, "source": "osm", "_tags": {"ele": "454", "name": "Fuchsbühl", "natural": "peak"}}, {"name": "Allmannshöhe", "latitude": 47.6860146, "longitude": 9.2025746, "elevation": 461.0, "source": "osm", "_tags": {"ele": "461", "name": "Allmannshöhe", "natural": "peak"}}, {"name": "", "latitude": 47.6347425, "longitude": 8.8992262, "elevation": 603.0, "source": "osm", "_tags": {"ele": "603", "natural": "peak"}}, {"name": "", "latitude": 47.6488819, "longitude": 8.9825463, "elevation": 572.0, "source": "osm", "_tags": {"ele": "572", "natural": "peak"}}, {"name": "", "latitude": 47.66611, "longitude": 9.0236297, "elevation": 560.0, "source": "osm", "_tags": {"ele": "560", "natural": "peak"}}, {"name": "", "latitude": 47.6513996, "longitude": 9.0241931, "elevation": 722.0, "source": "osm", "_tags": {"ele": "722", "natural": "peak"}}, {"name": "Brugghau", "latitude": 47.6453546, "longitude": 9.0996837, "elevation": 552.0, "source": "osm", "_tags": {"ele": "552", "name": "Brugghau", "natural": "peak"}}, {"name": "Affenberg", "latitude": 47.7572068, "longitude": 9.2497802, "elevation": null, "source": "osm", "_tags": {"fixme": "exact position", "name": "Affenberg", "natural": "peak", "source": "survey 04.2023"}}, {"name": "Raiteberg", "latitude": 47.6797396, "longitude": 9.1805162, "elevation": 452.0, "source": "osm", "_tags": {"ele": "452", "name": "Raiteberg", "natural": "peak"}}, {"name": "Altbodman", "latitude": 47.7946489, "longitude": 9.0319955, "elevation": 627.0, "source": "osm", "_tags": {"ele": "627", "name": "Altbodman", "natural": "peak"}}, {"name": "", "latitude": 47.7620318, "longitude": 8.9856577, "elevation": 477.0, "source": "osm", "_tags": {"ele": "477", "natural": "peak"}}, {"name": "Krebsbuch", "latitude": 47.7778383, "longitude": 8.9692855, "elevation": 481.0, "source": "osm", "_tags": {"ele": "481", "name": "Krebsbuch", "natural": "peak"}}, {"name": "Hals", "latitude": 47.7748389, "longitude": 9.065094, "elevation": 583.0, "source": "osm", "_tags": {"ele": "583", "name": "Hals", "natural": "peak"}}, {"name": "", "latitude": 47.742296, "longitude": 9.1384148, "elevation": 421.1, "source": "osm", "_tags": {"ele": "421.1", "natural": "peak"}}, {"name": "Witmoos", "latitude": 47.7445902, "longitude": 9.1282868, "elevation": null, "source": "osm", "_tags": {"name": "Witmoos", "natural": "peak"}}, {"name": "", "latitude": 47.747447, "longitude": 9.0633988, "elevation": 492.4, "source": "osm", "_tags": {"ele": "492.4", "natural": "peak"}}, {"name": "Hornhalde", "latitude": 47.7483416, "longitude": 9.0182948, "elevation": 451.8, "source": "osm", "_tags": {"ele": "451.8", "name": "Hornhalde", "natural": "peak"}}, {"name": "Steinerberg", "latitude": 47.7279943, "longitude": 9.1332221, "elevation": 493.7, "source": "osm", "_tags": {"ele": "493.7", "name": "Steinerberg", "natural": "peak"}}, {"name": "Grießenberg", "latitude": 47.7261035, "longitude": 9.1437149, "elevation": 494.8, "source": "osm", "_tags": {"ele": "494.8", "name": "Grießenberg", "natural": "peak"}}, {"name": "Wachholderbühl", "latitude": 48.0661283, "longitude": 9.0870774, "elevation": 715.0, "source": "osm", "_tags": {"ele": "715", "name": "Wachholderbühl", "natural": "peak", "source": "LGL, www.lgl-bw.de"}}, {"name": "", "latitude": 47.7978057, "longitude": 8.9449525, "elevation": 585.0, "source": "osm", "_tags": {"ele": "585", "natural": "peak"}}, {"name": "", "latitude": 47.7919676, "longitude": 8.9434933, "elevation": 576.0, "source": "osm", "_tags": {"ele": "576", "natural": "peak"}}, {"name": "Kreuzhalde", "latitude": 47.7843988, "longitude": 8.9433861, "elevation": 551.0, "source": "osm", "_tags": {"ele": "551", "name": "Kreuzhalde", "natural": "peak"}}, {"name": "Grundhalde", "latitude": 47.7963066, "longitude": 8.9100194, "elevation": 541.0, "source": "osm", "_tags": {"ele": "541", "name": "Grundhalde", "natural": "peak"}}, {"name": "Jöhlisberg", "latitude": 47.7841825, "longitude": 8.899784, "elevation": 508.0, "source": "osm", "_tags": {"ele": "508", "name": "Jöhlisberg", "natural": "peak", "wikidata": "Q30654143"}}, {"name": "Friedinger Schlossberg", "latitude": 47.7851485, "longitude": 8.8869739, "elevation": 547.2, "source": "osm", "_tags": {"ele": "547.2", "name": "Friedinger Schlossberg", "natural": "peak", "wikidata": "Q1457573", "wikipedia": "de:Friedinger Schlossberg"}}, {"name": "Naturparkfels", "latitude": 48.0739338, "longitude": 9.0367076, "elevation": null, "source": "osm", "_tags": {"climbing:sport": "yes", "climbing:toprope": "yes", "leisure": "Massiv", "name": "Naturparkfels", "natural": "peak", "outdoor": "yes", "sport": "climbing"}}, {"name": "Hackenberg", "latitude": 47.4430924, "longitude": 8.9534879, "elevation": 745.0, "source": "osm", "_tags": {"ele": "745", "name": "Hackenberg", "natural": "peak"}}, {"name": "Zillesberg", "latitude": 47.7102702, "longitude": 9.5005998, "elevation": 494.0, "source": "osm", "_tags": {"ele": "494", "name": "Zillesberg", "natural": "peak"}}, {"name": "Wachtfelsen", "latitude": 48.0163421, "longitude": 8.9017364, "elevation": 787.0, "source": "osm", "_tags": {"ele": "787", "name": "Wachtfelsen", "natural": "peak"}}, {"name": "Ochsenberg", "latitude": 47.727483, "longitude": 9.047305, "elevation": null, "source": "osm", "_tags": {"name": "Ochsenberg", "natural": "peak", "source": "LGL, www.lgl-bw.de"}}, {"name": "Braunenberg", "latitude": 47.8599111, "longitude": 8.9747788, "elevation": 601.0, "source": "osm", "_tags": {"ele": "601", "name": "Braunenberg", "natural": "peak"}}, {"name": "Fockenberg", "latitude": 48.3094438, "longitude": 9.4103754, "elevation": 759.0, "source": "osm", "_tags": {"ele": "759", "name": "Fockenberg", "natural": "peak", "source": "LGL, www.lgl-bw.de 1:25.000"}}, {"name": "Großer Kirschbühl", "latitude": 48.1120126, "longitude": 8.8849405, "elevation": 936.0, "source": "osm", "_tags": {"ele": "936", "name": "Großer Kirschbühl", "natural": "peak", "source": "LGL, www.lgl-bw.de 1:25.000"}}, {"name": "", "latitude": 48.1152523, "longitude": 8.9090702, "elevation": 950.0, "source": "osm", "_tags": {"ele": "950", "natural": "peak"}}, {"name": "", "latitude": 48.1270011, "longitude": 8.9192025, "elevation": 929.0, "source": "osm", "_tags": {"ele": "929", "natural": "peak", "source": "LGL, www.lgl-bw.de 1:25.000"}}, {"name": "Brankbühl", "latitude": 48.1270112, "longitude": 8.9000945, "elevation": 943.0, "source": "osm", "_tags": {"ele": "943", "name": "Brankbühl", "natural": "peak", "source": "LGL, www.lgl-bw.de 1:25.000"}}, {"name": "Käsberg", "latitude": 48.1222403, "longitude": 8.9225137, "elevation": 909.0, "source": "osm", "_tags": {"ele": "909", "name": "Käsberg", "natural": "peak", "source": "LGL, www.lgl-bw.de 1:25.000"}}, {"name": "Mühlberg", "latitude": 48.154134, "longitude": 9.1148504, "elevation": 767.0, "source": "osm", "_tags": {"ele": "767", "name": "Mühlberg", "natural": "peak", "source": "LGL, www.lgl-bw.de 1:25.000"}}, {"name": "Ghaibühl", "latitude": 48.1395728, "longitude": 9.1375027, "elevation": 754.0, "source": "osm", "_tags": {"ele": "754", "name": "Ghaibühl", "natural": "peak", "source": "LGL, www.lgl-bw.de 1:25.000"}}, {"name": "Irrleberg", "latitude": 48.1254952, "longitude": 9.1373753, "elevation": 789.0, "source": "osm", "_tags": {"ele": "789", "name": "Irrleberg", "natural": "peak", "source": "LGL, www.lgl-bw.de 1:25.000", "wikidata": "Q30656669"}}, {"name": "Ebnet", "latitude": 48.104876, "longitude": 9.0997301, "elevation": 782.0, "source": "osm", "_tags": {"ele": "782", "name": "Ebnet", "natural": "peak", "source": "LGL, www.lgl-bw.de 1:50.000"}}, {"name": "Ochsenberg", "latitude": 48.0989569, "longitude": 9.1059455, "elevation": 762.0, "source": "osm", "_tags": {"ele": "762", "name": "Ochsenberg", "natural": "peak", "source": "LGL, www.lgl-bw.de 1:50.000"}}, {"name": "Genenberg", "latitude": 48.1035793, "longitude": 9.0881906, "elevation": 773.0, "source": "osm", "_tags": {"ele": "773", "name": "Genenberg", "natural": "peak", "source": "LGL, www.lgl-bw.de 1:25.000"}}, {"name": "Steinberg", "latitude": 48.0559494, "longitude": 9.1008073, "elevation": 746.0, "source": "osm", "_tags": {"ele": "746", "name": "Steinberg", "natural": "peak", "source": "LGL, www.lgl-bw.de 1:25.000"}}, {"name": "Traubenkapf", "latitude": 48.0295271, "longitude": 9.0653771, "elevation": 729.0, "source": "osm", "_tags": {"ele": "729", "name": "Traubenkapf", "natural": "peak", "source": "LGL, www.lgl-bw.de 1:25.000"}}, {"name": "Wasserhorn", "latitude": 48.1272345, "longitude": 8.9873734, "elevation": null, "source": "osm", "_tags": {"name": "Wasserhorn", "natural": "peak", "source": "LGL, www.lgl-bw.de 1:25.000"}}, {"name": "Christusbühl", "latitude": 48.1320478, "longitude": 8.9825783, "elevation": 914.0, "source": "osm", "_tags": {"ele": "914", "name": "Christusbühl", "natural": "peak", "source": "LGL, www.lgl-bw.de 1:25.000"}}, {"name": "Wachtbühl", "latitude": 48.1088338, "longitude": 9.0144017, "elevation": 864.0, "source": "osm", "_tags": {"ele": "864", "name": "Wachtbühl", "natural": "peak", "source": "LGL, www.lgl-bw.de 1:25.000"}}, {"name": "Staudenbühl", "latitude": 48.0948788, "longitude": 9.0025006, "elevation": 857.0, "source": "osm", "_tags": {"ele": "857", "name": "Staudenbühl", "natural": "peak", "source": "LGL, www.lgl-bw.de 1:25.000"}}, {"name": "Barlendorferbühl", "latitude": 48.0726335, "longitude": 9.0496915, "elevation": 834.0, "source": "osm", "_tags": {"ele": "834", "name": "Barlendorferbühl", "natural": "peak", "source": "LGL, www.lgl-bw.de 1:25.000"}}, {"name": "Bööl", "latitude": 47.4845633, "longitude": 9.2609697, "elevation": 587.0, "source": "osm", "_tags": {"ele": "587", "name": "Bööl", "natural": "peak"}}, {"name": "Rammelesberg", "latitude": 48.1826277, "longitude": 9.2259294, "elevation": 747.0, "source": "osm", "_tags": {"ele": "747", "name": "Rammelesberg", "natural": "peak", "source": "LGL, www.lgl-bw.de 1:25.000"}}, {"name": "Steinbühl", "latitude": 48.1705534, "longitude": 9.2390913, "elevation": 812.0, "source": "osm", "_tags": {"ele": "812", "name": "Steinbühl", "natural": "peak", "source": "LGL, www.lgl-bw.de 1:25.000"}}, {"name": "Breitenberg", "latitude": 48.1663067, "longitude": 9.2368696, "elevation": 804.0, "source": "osm", "_tags": {"ele": "804", "name": "Breitenberg", "natural": "peak", "source": "LGL, www.lgl-bw.de 1:25.000"}}, {"name": "Nonnenbühl", "latitude": 48.1311861, "longitude": 9.3120405, "elevation": 666.0, "source": "osm", "_tags": {"ele": "666", "name": "Nonnenbühl", "natural": "peak", "source": "LGL, www.lgl-bw.de 1:25.000"}}, {"name": "Salzbühl", "latitude": 48.1355805, "longitude": 9.315999, "elevation": 705.0, "source": "osm", "_tags": {"ele": "705", "name": "Salzbühl", "natural": "peak", "source": "LGL, www.lgl-bw.de 1:25.000"}}, {"name": "Rosslet", "latitude": 48.169582, "longitude": 9.3782121, "elevation": 760.0, "source": "osm", "_tags": {"ele": "760", "name": "Rosslet", "natural": "peak", "source": "LGL, www.lgl-bw.de 1:25.000"}}, {"name": "Schafbuckel", "latitude": 48.1846557, "longitude": 9.4385923, "elevation": 728.0, "source": "osm", "_tags": {"ele": "728", "name": "Schafbuckel", "natural": "peak", "source": "LGL, www.lgl-bw.de 1:50.000"}}, {"name": "Mettenberg", "latitude": 48.1920106, "longitude": 9.3913294, "elevation": 695.0, "source": "osm", "_tags": {"ele": "695", "name": "Mettenberg", "natural": "peak", "source": "LGL, www.lgl-bw.de 1:25.000"}}, {"name": "Eichelberg", "latitude": 48.1931685, "longitude": 9.3623202, "elevation": 727.0, "source": "osm", "_tags": {"ele": "727", "name": "Eichelberg", "natural": "peak", "source": "LGL, www.lgl-bw.de 1:25.000"}}, {"name": "Hungerberg", "latitude": 48.052653, "longitude": 9.4229579, "elevation": 592.0, "source": "osm", "_tags": {"ele": "592", "name": "Hungerberg", "natural": "peak", "source": "LGL, www.lgl-bw.de 1:25.000"}}, {"name": "Schandenberg", "latitude": 48.0504633, "longitude": 9.4289118, "elevation": 593.0, "source": "osm", "_tags": {"ele": "593", "name": "Schandenberg", "natural": "peak"}}, {"name": "Stettener Berg", "latitude": 48.1674651, "longitude": 9.2007035, "elevation": 646.0, "source": "osm", "_tags": {"ele": "646", "name": "Stettener Berg", "natural": "peak", "source": "LGL, www.lgl-bw.de 1:25.000"}}, {"name": "Emmelberg", "latitude": 48.1558321, "longitude": 9.215045, "elevation": null, "source": "osm", "_tags": {"name": "Emmelberg", "natural": "peak"}}, {"name": "Mettenberg", "latitude": 48.1429775, "longitude": 9.232266, "elevation": 764.0, "source": "osm", "_tags": {"ele": "764", "name": "Mettenberg", "natural": "peak", "source": "LGL, www.lgl-bw.de 1:25.000"}}, {"name": "Frauenstock", "latitude": 48.1294203, "longitude": 9.2378996, "elevation": 762.0, "source": "osm", "_tags": {"ele": "762", "name": "Frauenstock", "natural": "peak", "source": "LGL, www.lgl-bw.de 1:25.000"}}, {"name": "Kohlberg", "latitude": 48.135172, "longitude": 9.2489784, "elevation": 765.0, "source": "osm", "_tags": {"ele": "765", "name": "Kohlberg", "natural": "peak", "source": "LGL, www.lgl-bw.de 1:25.000"}}, {"name": "Zwerchkopf", "latitude": 48.1334556, "longitude": 9.2426224, "elevation": 763.0, "source": "osm", "_tags": {"ele": "763", "name": "Zwerchkopf", "natural": "peak", "source": "LGL, www.lgl-bw.de 1:25.000"}}, {"name": "Galgenbühl", "latitude": 48.1863355, "longitude": 9.2006066, "elevation": 712.0, "source": "osm", "_tags": {"ele": "712", "name": "Galgenbühl", "natural": "peak", "source": "LGL, www.lgl-bw.de 1:25.000"}}, {"name": "Kugelberg", "latitude": 48.1829511, "longitude": 9.1770781, "elevation": 710.0, "source": "osm", "_tags": {"ele": "710", "name": "Kugelberg", "natural": "peak", "source": "LGL, www.lgl-bw.de 1:25.000"}}, {"name": "Auberg", "latitude": 48.174816, "longitude": 9.2018493, "elevation": 673.0, "source": "osm", "_tags": {"ele": "673", "name": "Auberg", "natural": "peak", "source": "LGL, www.lgl-bw.de 1:25.000"}}, {"name": "Breitenberg", "latitude": 48.1671685, "longitude": 9.3282893, "elevation": 730.0, "source": "osm", "_tags": {"ele": "730", "name": "Breitenberg", "natural": "peak", "source": "LGL, www.lgl-bw.de 1:25.000"}}, {"name": "Dachsberg", "latitude": 48.21169, "longitude": 9.5923853, "elevation": null, "source": "osm", "_tags": {"name": "Dachsberg", "natural": "peak", "source": "LGL, www.lgl-bw.de 1:25.000", "wikidata": "Q30807008"}}, {"name": "Schneckenburren", "latitude": 48.366398, "longitude": 9.7621357, "elevation": 673.0, "source": "osm", "_tags": {"ele": "673", "name": "Schneckenburren", "natural": "peak", "source": "LGL, www.lgl-bw.de 1:25.000"}}, {"name": "Hühnerberg", "latitude": 48.3579839, "longitude": 9.7749091, "elevation": 678.0, "source": "osm", "_tags": {"ele": "678", "name": "Hühnerberg", "natural": "peak", "source": "LGL, www.lgl-bw.de 1:25.000"}}, {"name": "Vogelbühl", "latitude": 48.3512681, "longitude": 9.7754565, "elevation": 615.0, "source": "osm", "_tags": {"ele": "615", "name": "Vogelbühl", "natural": "peak", "source": "LGL, www.lgl-bw.de 1:25.000"}}, {"name": "Pfifferlingsberg", "latitude": 48.3463124, "longitude": 9.7830209, "elevation": 633.0, "source": "osm", "_tags": {"ele": "633", "name": "Pfifferlingsberg", "natural": "peak", "source": "LGL, www.lgl-bw.de 1:25.000", "wikidata": "Q31291716"}}, {"name": "Guckenbühl", "latitude": 48.3514967, "longitude": 9.7560762, "elevation": 622.0, "source": "osm", "_tags": {"ele": "622", "name": "Guckenbühl", "natural": "peak", "source": "LGL, www.lgl-bw.de 1:25.000"}}, {"name": "Roter Berg", "latitude": 48.3331962, "longitude": 9.7048774, "elevation": 648.0, "source": "osm", "_tags": {"ele": "648", "name": "Roter Berg", "natural": "peak", "source": "LGL, www.lgl-bw.de 1:25.000", "wikidata": "Q31351655"}}, {"name": "Galgenberg", "latitude": 48.2672831, "longitude": 9.6358452, "elevation": 556.0, "source": "osm", "_tags": {"ele": "556", "name": "Galgenberg", "natural": "peak", "source": "LGL, www.lgl-bw.de 1:25.000"}}, {"name": "Kasperberg", "latitude": 48.2658958, "longitude": 9.6476143, "elevation": null, "source": "osm", "_tags": {"name": "Kasperberg", "natural": "peak", "source": "LGL, www.lgl-bw.de 1:25.000"}}, {"name": "", "latitude": 47.5002824, "longitude": 9.8763924, "elevation": 900.0, "source": "osm", "_tags": {"ele": "900", "natural": "peak", "prominence": "17"}}, {"name": "", "latitude": 47.503611, "longitude": 9.8827789, "elevation": 959.0, "source": "osm", "_tags": {"ele": "959", "natural": "peak", "prominence": "17"}}, {"name": "Hasenberg", "latitude": 47.8563789, "longitude": 9.5511076, "elevation": 621.0, "source": "osm", "_tags": {"ele": "621", "name": "Hasenberg", "natural": "peak"}}, {"name": "Sudelmeister", "latitude": 47.7830493, "longitude": 9.2541399, "elevation": 556.0, "source": "osm", "_tags": {"ele": "556", "name": "Sudelmeister", "natural": "peak"}}, {"name": "Hohenreute", "latitude": 47.8361044, "longitude": 9.2799899, "elevation": 766.0, "source": "osm", "_tags": {"ele": "766", "name": "Hohenreute", "natural": "peak"}}, {"name": "Rieder Höhe", "latitude": 47.5874264, "longitude": 9.875911, "elevation": 833.0, "source": "osm", "_tags": {"ele": "833", "name": "Rieder Höhe", "natural": "peak", "prominence": "15", "wikidata": "Q130516612"}}, {"name": "Bremgarten", "latitude": 47.7372147, "longitude": 9.3147218, "elevation": 474.0, "source": "osm", "_tags": {"ele": "474", "name": "Bremgarten", "natural": "peak"}}, {"name": "Möglisrain", "latitude": 47.7849976, "longitude": 9.3488898, "elevation": 617.0, "source": "osm", "_tags": {"ele": "617", "name": "Möglisrain", "natural": "peak"}}, {"name": "Lobbühl", "latitude": 47.7711101, "longitude": 9.3844458, "elevation": 566.0, "source": "osm", "_tags": {"ele": "566", "name": "Lobbühl", "natural": "peak"}}, {"name": "Gockeler", "latitude": 48.2968263, "longitude": 9.009696, "elevation": 951.0, "source": "osm", "_tags": {"ele": "951", "name": "Gockeler", "natural": "peak", "source": "LGL, www.lgl-bw.de 1:25000"}}, {"name": "Brunnenbühl", "latitude": 48.2872366, "longitude": 9.0285861, "elevation": 952.0, "source": "osm", "_tags": {"ele": "952", "name": "Brunnenbühl", "natural": "peak", "source": "LGL, www.lgl-bw.de 1:25000"}}, {"name": "Sandbühl", "latitude": 48.2835784, "longitude": 9.0321309, "elevation": 934.0, "source": "osm", "_tags": {"ele": "934", "name": "Sandbühl", "natural": "peak", "source": "LGL, www.lgl-bw.de 1:25000"}}, {"name": "Bennenbühl", "latitude": 48.283838, "longitude": 9.0368428, "elevation": 945.0, "source": "osm", "_tags": {"ele": "945", "name": "Bennenbühl", "natural": "peak", "source": "LGL, www.lgl-bw.de 1:25000"}}, {"name": "Remmetsenberg", "latitude": 48.281846, "longitude": 9.0460213, "elevation": 914.0, "source": "osm", "_tags": {"ele": "914", "name": "Remmetsenberg", "natural": "peak", "source": "LGL, www.lgl-bw.de 1:25000"}}, {"name": "Pfulleshart", "latitude": 48.2807234, "longitude": 9.0368317, "elevation": 940.0, "source": "osm", "_tags": {"ele": "940", "name": "Pfulleshart", "natural": "peak", "source": "LGL, www.lgl-bw.de 1:25000"}}, {"name": "Markenberg", "latitude": 48.2703805, "longitude": 9.011573, "elevation": 884.0, "source": "osm", "_tags": {"ele": "884", "name": "Markenberg", "natural": "peak", "source": "LGL, www.lgl-bw.de 1:25000"}}, {"name": "Fuchsloch", "latitude": 48.1820134, "longitude": 8.9107108, "elevation": 929.8, "source": "osm", "_tags": {"ele": "929.8", "name": "Fuchsloch", "natural": "peak"}}, {"name": "Büchelholz", "latitude": 47.6936065, "longitude": 9.6108298, "elevation": 561.0, "source": "osm", "_tags": {"ele": "561", "name": "Büchelholz", "natural": "peak"}}, {"name": "Netzenberg", "latitude": 47.7641593, "longitude": 9.3458247, "elevation": 606.0, "source": "osm", "_tags": {"ele": "606", "name": "Netzenberg", "natural": "peak"}}, {"name": "Bühl", "latitude": 47.7632399, "longitude": 9.250939, "elevation": 500.0, "source": "osm", "_tags": {"ele": "500", "name": "Bühl", "natural": "peak"}}, {"name": "", "latitude": 47.6489116, "longitude": 9.0331331, "elevation": 721.0, "source": "osm", "_tags": {"ele": "721", "natural": "peak"}}, {"name": "Geserberg", "latitude": 47.5083717, "longitude": 9.8101795, "elevation": 939.0, "source": "osm", "_tags": {"ele": "939", "name": "Geserberg", "natural": "peak", "prominence": "9", "wikidata": "Q21928791", "wikipedia": "de:Geserberg"}}, {"name": "Tobel", "latitude": 47.8241566, "longitude": 9.2116681, "elevation": 659.0, "source": "osm", "_tags": {"ele": "659", "name": "Tobel", "natural": "peak"}}, {"name": "Berghalden", "latitude": 47.8580465, "longitude": 9.3897172, "elevation": 783.0, "source": "osm", "_tags": {"ele": "783", "name": "Berghalden", "natural": "peak"}}, {"name": "Geipensberg", "latitude": 47.8336048, "longitude": 9.1783356, "elevation": 729.0, "source": "osm", "_tags": {"ele": "729", "name": "Geipensberg", "natural": "peak"}}, {"name": "Langes Buch", "latitude": 47.6407617, "longitude": 9.7240594, "elevation": 591.0, "source": "osm", "_tags": {"ele": "591", "name": "Langes Buch", "natural": "peak"}}, {"name": "Homberg", "latitude": 47.8405524, "longitude": 9.0697163, "elevation": 631.0, "source": "osm", "_tags": {"ele": "631", "name": "Homberg", "natural": "peak"}}, {"name": "Ramsberg", "latitude": 47.8627648, "longitude": 9.2452698, "elevation": 657.0, "source": "osm", "_tags": {"ele": "657", "name": "Ramsberg", "natural": "peak"}}, {"name": "Horach", "latitude": 47.7052683, "longitude": 9.4927747, "elevation": 499.0, "source": "osm", "_tags": {"ele": "499", "name": "Horach", "natural": "peak"}}, {"name": "Josenberg", "latitude": 47.8730508, "longitude": 9.1169429, "elevation": 715.0, "source": "osm", "_tags": {"ele": "715", "name": "Josenberg", "natural": "peak"}}, {"name": "Waldbühl", "latitude": 47.8819446, "longitude": 9.0677823, "elevation": 685.0, "source": "osm", "_tags": {"ele": "685", "name": "Waldbühl", "natural": "peak"}}, {"name": "Amalienhöhe", "latitude": 47.8222195, "longitude": 9.3199978, "elevation": 787.0, "source": "osm", "_tags": {"ele": "787", "name": "Amalienhöhe", "natural": "peak", "wikidata": "Q113994749"}}, {"name": "Argenhardter Kapf", "latitude": 47.6447158, "longitude": 9.6057694, "elevation": 549.4, "source": "osm", "_tags": {"ele": "549.4", "name": "Argenhardter Kapf", "natural": "peak", "wikidata": "Q30728684"}}, {"name": "Gebhardsberg", "latitude": 47.490012, "longitude": 9.747343, "elevation": 598.0, "source": "osm", "_tags": {"ele": "598", "name": "Gebhardsberg", "natural": "peak", "wikidata": "Q1496955", "wikipedia": "de:Gebhardsberg"}}, {"name": "Reute", "latitude": 47.7913813, "longitude": 9.4249976, "elevation": 652.0, "source": "osm", "_tags": {"ele": "652", "name": "Reute", "natural": "peak"}}, {"name": "Kornberg", "latitude": 47.8494833, "longitude": 9.3301037, "elevation": null, "source": "osm", "_tags": {"name": "Kornberg", "natural": "peak"}}, {"name": "Löchenberg", "latitude": 47.7578018, "longitude": 9.3557382, "elevation": null, "source": "osm", "_tags": {"name": "Löchenberg", "natural": "peak"}}, {"name": "Semberg", "latitude": 47.7535859, "longitude": 9.3467152, "elevation": null, "source": "osm", "_tags": {"name": "Semberg", "natural": "peak"}}, {"name": "Fuchsbühl", "latitude": 47.7481973, "longitude": 9.3496656, "elevation": null, "source": "osm", "_tags": {"name": "Fuchsbühl", "natural": "peak"}}, {"name": "Haubühl", "latitude": 47.7412859, "longitude": 9.3482065, "elevation": null, "source": "osm", "_tags": {"name": "Haubühl", "natural": "peak"}}, {"name": "Annenberg", "latitude": 47.7200733, "longitude": 9.3412596, "elevation": 429.8, "source": "osm", "_tags": {"alt_name": "Annaberg", "ele": "429.8", "name": "Annenberg", "natural": "peak"}}, {"name": "Dachsberg", "latitude": 47.7031988, "longitude": 9.3251395, "elevation": null, "source": "osm", "_tags": {"name": "Dachsberg", "natural": "peak"}}, {"name": "Taubenberg", "latitude": 47.7332458, "longitude": 9.3062207, "elevation": 458.5, "source": "osm", "_tags": {"ele": "458.5", "name": "Taubenberg", "natural": "peak"}}, {"name": "", "latitude": 47.5677746, "longitude": 9.8437714, "elevation": 902.0, "source": "osm", "_tags": {"ele": "902", "natural": "peak", "prominence": "40", "wikidata": "Q136008932"}}, {"name": "Berg", "latitude": 47.6462881, "longitude": 9.6647186, "elevation": 550.5, "source": "osm", "_tags": {"ele": "550.5", "name": "Berg", "natural": "peak"}}, {"name": "Gehrn", "latitude": 47.8275084, "longitude": 9.5513785, "elevation": 616.0, "source": "osm", "_tags": {"ele": "616", "name": "Gehrn", "natural": "peak"}}, {"name": "Schönberg", "latitude": 47.7008305, "longitude": 9.6897215, "elevation": 643.0, "source": "osm", "_tags": {"ele": "643", "name": "Schönberg", "natural": "peak"}}, {"name": "", "latitude": 47.431929, "longitude": 9.786018, "elevation": 934.0, "source": "osm", "_tags": {"ele": "934", "natural": "peak"}}, {"name": "Geigersbühl", "latitude": 47.851838, "longitude": 9.1881371, "elevation": null, "source": "osm", "_tags": {"name": "Geigersbühl", "natural": "peak"}}, {"name": "Reutenberg", "latitude": 47.8439179, "longitude": 9.2124927, "elevation": null, "source": "osm", "_tags": {"name": "Reutenberg", "natural": "peak"}}, {"name": "Kapf", "latitude": 47.8946615, "longitude": 9.2967379, "elevation": null, "source": "osm", "_tags": {"name": "Kapf", "natural": "peak"}}, {"name": "Hartberg", "latitude": 47.8121086, "longitude": 9.3044521, "elevation": null, "source": "osm", "_tags": {"name": "Hartberg", "natural": "peak"}}, {"name": "Schlossbühl", "latitude": 47.7946257, "longitude": 9.4013916, "elevation": null, "source": "osm", "_tags": {"name": "Schlossbühl", "natural": "peak"}}, {"name": "Röschenbühl", "latitude": 47.712907, "longitude": 9.4914084, "elevation": null, "source": "osm", "_tags": {"name": "Röschenbühl", "natural": "peak"}}, {"name": "Hermannsberg", "latitude": 47.6809154, "longitude": 9.4448307, "elevation": null, "source": "osm", "_tags": {"name": "Hermannsberg", "natural": "peak"}}, {"name": "Tannberg", "latitude": 47.6879268, "longitude": 9.4476773, "elevation": null, "source": "osm", "_tags": {"name": "Tannberg", "natural": "peak"}}, {"name": "Franzensberg", "latitude": 47.7060954, "longitude": 9.4243828, "elevation": null, "source": "osm", "_tags": {"name": "Franzensberg", "natural": "peak"}}, {"name": "Röhrenberg", "latitude": 47.7150225, "longitude": 9.2700691, "elevation": null, "source": "osm", "_tags": {"name": "Röhrenberg", "natural": "peak"}}, {"name": "Schlossbühl", "latitude": 47.7385889, "longitude": 9.3612425, "elevation": null, "source": "osm", "_tags": {"alt_name": "Schloßbühl", "name": "Schlossbühl", "natural": "peak"}}, {"name": "Burgberg", "latitude": 47.9986131, "longitude": 9.7411054, "elevation": 624.0, "source": "osm", "_tags": {"ele": "624", "name": "Burgberg", "natural": "peak", "wikidata": "Q1011234"}}, {"name": "Atzenberger Höhe", "latitude": 47.9875062, "longitude": 9.6044527, "elevation": 707.0, "source": "osm", "_tags": {"ele": "707", "name": "Atzenberger Höhe", "natural": "peak"}}, {"name": "Schorrenwald", "latitude": 48.0113809, "longitude": 9.6433322, "elevation": 622.0, "source": "osm", "_tags": {"ele": "622", "name": "Schorrenwald", "natural": "peak"}}, {"name": "Lugbühl", "latitude": 47.749996, "longitude": 9.4816611, "elevation": 521.0, "source": "osm", "_tags": {"ele": "521", "name": "Lugbühl", "natural": "peak"}}, {"name": "", "latitude": 47.524278, "longitude": 9.809937, "elevation": 971.0, "source": "osm", "_tags": {"ele": "971", "natural": "peak", "prominence": "40", "wikidata": "Q136008830"}}, {"name": "Rieselsberg", "latitude": 47.6224538, "longitude": 9.6137085, "elevation": 518.0, "source": "osm", "_tags": {"ele": "518", "name": "Rieselsberg", "natural": "peak", "wikidata": "Q31357285"}}, {"name": "Hohenfriedingen", "latitude": 47.7848318, "longitude": 8.8869127, "elevation": 547.0, "source": "osm", "_tags": {"ele": "547", "name": "Hohenfriedingen", "natural": "peak"}}, {"name": "", "latitude": 47.51466, "longitude": 9.817957, "elevation": 979.0, "source": "osm", "_tags": {"ele": "979", "natural": "peak", "prominence": "12"}}, {"name": "", "latitude": 47.55458, "longitude": 9.8339707, "elevation": 912.0, "source": "osm", "_tags": {"ele": "912", "natural": "peak", "prominence": "33"}}, {"name": "Buchbergspitze", "latitude": 48.1122695, "longitude": 9.140438, "elevation": null, "source": "osm", "_tags": {"name": "Buchbergspitze", "natural": "peak"}}, {"name": "Kestenberg", "latitude": 47.6676093, "longitude": 9.6262974, "elevation": 573.0, "source": "osm", "_tags": {"ele": "573", "name": "Kestenberg", "natural": "peak"}}, {"name": "Schwanden", "latitude": 47.6682448, "longitude": 9.6157732, "elevation": 558.6, "source": "osm", "_tags": {"ele": "558.6", "name": "Schwanden", "natural": "peak"}}, {"name": "Hochwacht", "latitude": 47.6332849, "longitude": 9.5936538, "elevation": 503.1, "source": "osm", "_tags": {"ele": "503.1", "name": "Hochwacht", "natural": "peak"}}, {"name": "Oberhofer Kapf", "latitude": 47.6534704, "longitude": 9.6037579, "elevation": 541.0, "source": "osm", "_tags": {"ele": "541", "name": "Oberhofer Kapf", "natural": "peak"}}, {"name": "Grindenbühl", "latitude": 47.638463, "longitude": 9.6025209, "elevation": 515.3, "source": "osm", "_tags": {"ele": "515.3", "name": "Grindenbühl", "natural": "peak"}}, {"name": "Reichenbühl", "latitude": 47.6371328, "longitude": 9.6073448, "elevation": 506.4, "source": "osm", "_tags": {"ele": "506.4", "name": "Reichenbühl", "natural": "peak"}}, {"name": "Wagnerbühl", "latitude": 47.6494607, "longitude": 9.6218028, "elevation": null, "source": "osm", "_tags": {"name": "Wagnerbühl", "natural": "peak"}}, {"name": "Sulzbühl", "latitude": 47.6516288, "longitude": 9.6250964, "elevation": 539.2, "source": "osm", "_tags": {"ele": "539.2", "name": "Sulzbühl", "natural": "peak"}}, {"name": "Birkenbühl", "latitude": 47.6528495, "longitude": 9.6299139, "elevation": null, "source": "osm", "_tags": {"name": "Birkenbühl", "natural": "peak"}}, {"name": "Kohlplattenbühl", "latitude": 47.6530748, "longitude": 9.6338393, "elevation": 542.4, "source": "osm", "_tags": {"ele": "542.4", "name": "Kohlplattenbühl", "natural": "peak"}}, {"name": "Fuchsbühl", "latitude": 47.6585382, "longitude": 9.6338038, "elevation": 524.8, "source": "osm", "_tags": {"ele": "524.8", "name": "Fuchsbühl", "natural": "peak"}}, {"name": "Manngätsberg", "latitude": 47.6415889, "longitude": 9.6382894, "elevation": 507.2, "source": "osm", "_tags": {"ele": "507.2", "name": "Manngätsberg", "natural": "peak"}}, {"name": "", "latitude": 47.6233216, "longitude": 9.6398503, "elevation": 527.0, "source": "osm", "_tags": {"ele": "527", "natural": "peak"}}, {"name": "", "latitude": 47.62232, "longitude": 9.6442226, "elevation": 529.5, "source": "osm", "_tags": {"ele": "529.5", "natural": "peak"}}, {"name": "Grafenholz", "latitude": 47.6394066, "longitude": 9.6219162, "elevation": 549.0, "source": "osm", "_tags": {"ele": "549", "name": "Grafenholz", "natural": "peak"}}, {"name": "Gießenbühl", "latitude": 47.6220393, "longitude": 9.604852, "elevation": 502.5, "source": "osm", "_tags": {"ele": "502.5", "name": "Gießenbühl", "natural": "peak"}}, {"name": "Schleinseeberg", "latitude": 47.6141312, "longitude": 9.627, "elevation": 519.9, "source": "osm", "_tags": {"ele": "519.9", "name": "Schleinseeberg", "natural": "peak"}}, {"name": "Nitzenweiler Berg", "latitude": 47.6148023, "longitude": 9.6245085, "elevation": null, "source": "osm", "_tags": {"name": "Nitzenweiler Berg", "natural": "peak"}}, {"name": "Lehen", "latitude": 47.6153168, "longitude": 9.6496227, "elevation": 527.6, "source": "osm", "_tags": {"ele": "527.6", "name": "Lehen", "natural": "peak"}}, {"name": "", "latitude": 47.6112251, "longitude": 9.6420134, "elevation": 494.3, "source": "osm", "_tags": {"ele": "494.3", "natural": "peak"}}, {"name": "Schachbühl", "latitude": 47.608504, "longitude": 9.6408961, "elevation": 506.7, "source": "osm", "_tags": {"ele": "506.7", "name": "Schachbühl", "natural": "peak"}}, {"name": "Höhenberg", "latitude": 47.6079847, "longitude": 9.6500208, "elevation": 528.2, "source": "osm", "_tags": {"ele": "528.2", "name": "Höhenberg", "natural": "peak"}}, {"name": "Längenberg", "latitude": 47.6061912, "longitude": 9.6439547, "elevation": 504.2, "source": "osm", "_tags": {"ele": "504.2", "name": "Längenberg", "natural": "peak"}}, {"name": "", "latitude": 47.6174499, "longitude": 9.609415, "elevation": 510.4, "source": "osm", "_tags": {"ele": "510.4", "natural": "peak"}}, {"name": "Eltenberg", "latitude": 47.6163796, "longitude": 9.6058262, "elevation": 497.9, "source": "osm", "_tags": {"ele": "497.9", "name": "Eltenberg", "natural": "peak"}}, {"name": "Mühlenberg", "latitude": 47.6112325, "longitude": 9.6050638, "elevation": 497.7, "source": "osm", "_tags": {"ele": "497.7", "name": "Mühlenberg", "natural": "peak"}}, {"name": "Dieglishofer Holz", "latitude": 47.6910094, "longitude": 9.6088797, "elevation": 559.7, "source": "osm", "_tags": {"ele": "559.7", "name": "Dieglishofer Holz", "natural": "peak"}}, {"name": "Siggenweiler Holz", "latitude": 47.6920115, "longitude": 9.624602, "elevation": 573.6, "source": "osm", "_tags": {"ele": "573.6", "name": "Siggenweiler Holz", "natural": "peak"}}, {"name": "Kogen", "latitude": 47.6822883, "longitude": 9.6264725, "elevation": 569.1, "source": "osm", "_tags": {"ele": "569.1", "name": "Kogen", "natural": "peak"}}, {"name": "Fuchslöcher", "latitude": 47.6757841, "longitude": 9.6096824, "elevation": 549.6, "source": "osm", "_tags": {"ele": "549.6", "name": "Fuchslöcher", "natural": "peak"}}, {"name": "Rehholz", "latitude": 47.6149302, "longitude": 9.6356805, "elevation": 516.1, "source": "osm", "_tags": {"ele": "516.1", "name": "Rehholz", "natural": "peak"}}, {"name": "Iltisberg", "latitude": 47.6619114, "longitude": 9.673836, "elevation": 589.5, "source": "osm", "_tags": {"ele": "589.5", "name": "Iltisberg", "natural": "peak"}}, {"name": "Außerberg", "latitude": 47.731926, "longitude": 9.3225767, "elevation": 463.3, "source": "osm", "_tags": {"ele": "463.3", "name": "Außerberg", "natural": "peak"}}, {"name": "Bühl", "latitude": 48.3439726, "longitude": 9.100093, "elevation": 865.0, "source": "osm", "_tags": {"ele": "865", "name": "Bühl", "natural": "peak"}}, {"name": "", "latitude": 47.7392682, "longitude": 9.7815903, "elevation": 709.0, "source": "osm", "_tags": {"ele": "709", "natural": "peak"}}, {"name": "Buchberg", "latitude": 47.7376058, "longitude": 9.8037896, "elevation": 635.0, "source": "osm", "_tags": {"ele": "635", "name": "Buchberg", "natural": "peak"}}, {"name": "Schweinberg", "latitude": 47.7445586, "longitude": 9.8083055, "elevation": 641.0, "source": "osm", "_tags": {"ele": "641", "name": "Schweinberg", "natural": "peak"}}]