[{"name": "Grand Ballon", "latitude": 47.9008362, "longitude": 7.0983962, "elevation": 1424.0, "source": "osm", "_tags": {"alt_name": "Ballon de Guebwiller", "alt_name:de": "Sulzer Belchen;Gebweiler Belchen", "ele": "1424", "importance": "national", "name": "Grand Ballon", "name:de": "Großer Belchen", "name:gsw": "Kahler Wase", "natural": "peak", "prominence": "1072", "ref:refuges.info": "3284", "wikidata": "Q1397720", "wikipedia": "fr:Grand Ballon"}}, {"name": "Hohneck", "latitude": 48.0376142, "longitude": 7.0162929, "elevation": 1363.0, "source": "osm", "_tags": {"ele": "1363", "name": "Hohneck", "natural": "peak", "ref:refuges.info": "3012", "summit:cross": "no", "summit:register": "no", "wikidata": "Q1624140"}}, {"name": "Blauen", "latitude": 47.7773294, "longitude": 7.7012369, "elevation": 1165.0, "source": "osm", "_tags": {"alt_name": "Hochblauen", "ele": "1165", "name": "Blauen", "natural": "peak", "wikidata": "Q25630", "wikipedia": "de:Blauen (Badenweiler)"}}, {"name": "Les Trois Bornes", "latitude": 48.3102622, "longitude": 7.1983663, "elevation": 852.0, "source": "osm", "_tags": {"ele": "852", "name": "Les Trois Bornes", "natural": "peak"}}, {"name": "Hasenlochkopf", "latitude": 47.9804501, "longitude": 6.9437887, "elevation": 1135.0, "source": "osm", "_tags": {"ele": "1135", "name": "Hasenlochkopf", "natural": "peak"}}, {"name": "l'Altenberg", "latitude": 47.9918657, "longitude": 6.944008, "elevation": 1197.0, "source": "osm", "_tags": {"ele": "1197", "name": "l'Altenberg", "natural": "peak"}}, {"name": "Hohe Flum", "latitude": 47.6265276, "longitude": 7.8101588, "elevation": 536.0, "source": "osm", "_tags": {"ele": "536", "name": "Hohe Flum", "name:gsw": "Hochi Flum", "natural": "peak", "wikidata": "Q885275"}}, {"name": "Prinzensitz", "latitude": 47.7935944, "longitude": 7.6798346, "elevation": null, "source": "osm", "_tags": {"name": "Prinzensitz", "natural": "peak"}}, {"name": "Batzenberg", "latitude": 47.9376365, "longitude": 7.7400244, "elevation": 328.0, "source": "osm", "_tags": {"ele": "328", "name": "Batzenberg", "name:gsw": "Batzeberg", "natural": "peak", "wikidata": "Q811067", "wikipedia": "de:Batzenberg"}}, {"name": "Schlossberg", "latitude": 48.0704058, "longitude": 7.6212091, "elevation": 352.0, "source": "osm", "_tags": {"ele": "352", "name": "Schlossberg", "natural": "peak", "wikidata": "Q31522654"}}, {"name": "Le Grand Ventron", "latitude": 47.9594414, "longitude": 6.9253336, "elevation": 1204.0, "source": "osm", "_tags": {"ele": "1204", "name": "Le Grand Ventron", "name:de": "Winterau", "natural": "peak", "ref:refuges.info": "5979", "wikidata": "Q3114629", "wikipedia": "fr:Grand Ventron"}}, {"name": "Rossberg", "latitude": 47.4936882, "longitude": 7.3027881, "elevation": 675.0, "source": "osm", "_tags": {"ele": "675", "name": "Rossberg", "natural": "peak"}}, {"name": "Belchen", "latitude": 47.8224928, "longitude": 7.8330046, "elevation": 1414.0, "source": "osm", "_tags": {"ele": "1414", "name": "Belchen", "name:fr": "Ballon Badois", "name:gsw": "Belche", "natural": "peak", "wikidata": "Q515385", "wikipedia": "de:Belchen (Schwarzwald)"}}, {"name": "Hohfirst", "latitude": 47.9384535, "longitude": 7.7795773, "elevation": 496.0, "source": "osm", "_tags": {"ele": "496", "name": "Hohfirst", "name:gsw": "Hohfirscht", "natural": "peak", "wikidata": "Q13142665", "wikipedia": "als:Hohfirst"}}, {"name": "Kienberg", "latitude": 47.9509193, "longitude": 7.7850969, "elevation": 435.0, "source": "osm", "_tags": {"ele": "435", "name": "Kienberg", "name:gsw": "Chiembarg", "natural": "peak"}}, {"name": "Schneeberg", "latitude": 47.961222, "longitude": 7.7975617, "elevation": 512.0, "source": "osm", "_tags": {"ele": "512", "name": "Schneeberg", "name:gsw": "Schneeberg", "natural": "peak"}}, {"name": "Ölberg", "latitude": 47.9193752, "longitude": 7.7653386, "elevation": null, "source": "osm", "_tags": {"name": "Ölberg", "natural": "peak", "wikidata": "Q31560439"}}, {"name": "Elsberg", "latitude": 47.9274199, "longitude": 7.7866827, "elevation": null, "source": "osm", "_tags": {"name": "Elsberg", "natural": "peak"}}, {"name": "Petit Ballon", "latitude": 47.9806263, "longitude": 7.12603, "elevation": 1272.0, "source": "osm", "_tags": {"alt_name:de": "Kahler Wasen", "ele": "1272", "name": "Petit Ballon", "name:de": "Kleiner Belchen", "natural": "peak", "ref:refuges.info": "3033", "summit:cross": "no", "summit:register": "no", "wikidata": "Q1721201", "wikipedia": "fr:Petit Ballon"}}, {"name": "Am brennten Buck", "latitude": 47.7577554, "longitude": 7.6717807, "elevation": 687.0, "source": "osm", "_tags": {"ele": "687", "name": "Am brennten Buck", "natural": "peak"}}, {"name": "", "latitude": 47.7546968, "longitude": 7.6745796, "elevation": 709.0, "source": "osm", "_tags": {"ele": "709", "natural": "peak", "source": "Historische Messtischblätter TK25 (validiert);OpenTopoMap"}}, {"name": "Ameisenbuck", "latitude": 47.7610649, "longitude": 7.6833244, "elevation": 812.0, "source": "osm", "_tags": {"ele": "812", "name": "Ameisenbuck", "natural": "peak", "wikidata": "Q31553610"}}, {"name": "Maistollen", "latitude": 47.8800289, "longitude": 7.8012449, "elevation": 834.0, "source": "osm", "_tags": {"ele": "834", "name": "Maistollen", "natural": "peak", "wikidata": "Q31531180"}}, {"name": "Zielberg", "latitude": 47.8121091, "longitude": 7.6151828, "elevation": null, "source": "osm", "_tags": {"name": "Zielberg", "natural": "peak"}}, {"name": "Fohrenberg", "latitude": 47.859917, "longitude": 7.7109116, "elevation": 432.0, "source": "osm", "_tags": {"ele": "432", "name": "Fohrenberg", "natural": "peak", "source": "LGL, www.lgl-bw.de"}}, {"name": "Kapuzinerbuck", "latitude": 47.9481098, "longitude": 7.8128896, "elevation": 455.0, "source": "osm", "_tags": {"ele": "455", "name": "Kapuzinerbuck", "natural": "peak"}}, {"name": "Urberg", "latitude": 47.9276389, "longitude": 7.7652354, "elevation": null, "source": "osm", "_tags": {"name": "Urberg", "natural": "peak"}}, {"name": "Oberg", "latitude": 47.4437522, "longitude": 7.8240293, "elevation": 636.0, "source": "osm", "_tags": {"ele": "636", "name": "Oberg", "natural": "peak"}}, {"name": "Gießhübel", "latitude": 47.898984, "longitude": 7.8638424, "elevation": 1069.0, "source": "osm", "_tags": {"ele": "1069", "name": "Gießhübel", "natural": "peak"}}, {"name": "Hörnle", "latitude": 47.855568, "longitude": 7.8735841, "elevation": null, "source": "osm", "_tags": {"created_by": "Potlatch 0.10f", "name": "Hörnle", "natural": "peak", "wikidata": "Q31537953"}}, {"name": "Totenkopf", "latitude": 48.0812327, "longitude": 7.6706628, "elevation": 557.0, "source": "osm", "_tags": {"ele": "557", "name": "Totenkopf", "natural": "peak", "wikidata": "Q464537", "wikipedia": "de:Totenkopf (Kaiserstuhl)"}}, {"name": "Rollspitz", "latitude": 47.8280976, "longitude": 7.873813, "elevation": 1236.0, "source": "osm", "_tags": {"ele": "1236", "name": "Rollspitz", "natural": "peak", "wikidata": "Q31525433"}}, {"name": "Badberg", "latitude": 48.095926, "longitude": 7.6771834, "elevation": 417.0, "source": "osm", "_tags": {"ele": "417", "name": "Badberg", "natural": "peak"}}, {"name": "Dietschel", "latitude": 47.8382584, "longitude": 7.8549884, "elevation": 1241.0, "source": "osm", "_tags": {"ele": "1241", "name": "Dietschel", "natural": "peak", "wikidata": "Q31560454"}}, {"name": "Schnepfenriedkopf", "latitude": 47.9813727, "longitude": 7.0418433, "elevation": 1258.0, "source": "osm", "_tags": {"ele": "1258", "name": "Schnepfenriedkopf", "natural": "peak", "ref:refuges.info": "5985", "wikidata": "Q31663718"}}, {"name": "Rammelsbacher Eck", "latitude": 47.8268513, "longitude": 7.7671337, "elevation": 867.0, "source": "osm", "_tags": {"ele": "867", "name": "Rammelsbacher Eck", "natural": "peak", "wikidata": "Q31560302"}}, {"name": "Kaibenkopf", "latitude": 47.8154649, "longitude": 7.766258, "elevation": 940.0, "source": "osm", "_tags": {"ele": "940", "name": "Kaibenkopf", "natural": "peak", "wikidata": "Q31536617"}}, {"name": "Enggründlekopf", "latitude": 47.8473404, "longitude": 7.7279306, "elevation": 704.0, "source": "osm", "_tags": {"ele": "704", "name": "Enggründlekopf", "natural": "peak", "wikidata": "Q31548043"}}, {"name": "Riesterkopf", "latitude": 47.8425857, "longitude": 7.7384682, "elevation": 762.0, "source": "osm", "_tags": {"ele": "762", "name": "Riesterkopf", "natural": "peak", "wikidata": "Q31560285"}}, {"name": "Thanner Hubel", "latitude": 47.8245125, "longitude": 7.0256296, "elevation": 1183.0, "source": "osm", "_tags": {"ele": "1183", "name": "Thanner Hubel", "natural": "peak"}}, {"name": "Tête du Rouge Gazon", "latitude": 47.8600686, "longitude": 6.9151146, "elevation": 1188.0, "source": "osm", "_tags": {"ele": "1188", "name": "Tête du Rouge Gazon", "natural": "peak", "ref:refuges.info": "8066"}}, {"name": "", "latitude": 48.2932515, "longitude": 7.1721454, "elevation": 839.0, "source": "osm", "_tags": {"ele": "839", "natural": "peak"}}, {"name": "", "latitude": 48.2972833, "longitude": 7.172633, "elevation": 832.0, "source": "osm", "_tags": {"ele": "832", "natural": "peak"}}, {"name": "Sissacher Flue", "latitude": 47.4800294, "longitude": 7.8170513, "elevation": null, "source": "osm", "_tags": {"check_date": "2023-02-17", "name": "Sissacher Flue", "natural": "peak", "summit:cross": "no", "summit:register": "no"}}, {"name": "Isletenebeni", "latitude": 47.4815459, "longitude": 7.8305752, "elevation": 741.0, "source": "osm", "_tags": {"ele": "741", "name": "Isletenebeni", "natural": "peak"}}, {"name": "Lützelberg", "latitude": 48.1464333, "longitude": 7.6113722, "elevation": null, "source": "osm", "_tags": {"alt_name": "Litzelberg", "name": "Lützelberg", "natural": "peak", "summit:register": "no"}}, {"name": "Limberg", "latitude": 48.1505442, "longitude": 7.6060508, "elevation": 272.0, "source": "osm", "_tags": {"ele": "272", "name": "Limberg", "natural": "peak", "wikidata": "Q29018634"}}, {"name": "Eckartsberg", "latitude": 48.0269328, "longitude": 7.5831931, "elevation": 236.0, "source": "osm", "_tags": {"ele": "236", "name": "Eckartsberg", "natural": "peak", "wikidata": "Q25393529", "wikipedia": "de:Eckartsberg (Breisach am Rhein)"}}, {"name": "Hohe Möhr", "latitude": 47.6929053, "longitude": 7.8744711, "elevation": 983.0, "source": "osm", "_tags": {"ele": "983", "name": "Hohe Möhr", "natural": "peak", "wikidata": "Q880395"}}, {"name": "Lipberg", "latitude": 47.7895514, "longitude": 7.6598086, "elevation": 461.0, "source": "osm", "_tags": {"ele": "461", "name": "Lipberg", "natural": "peak"}}, {"name": "Le Schweisel", "latitude": 47.9744204, "longitude": 6.9905965, "elevation": 1271.0, "source": "osm", "_tags": {"ele": "1271", "name": "Le Schweisel", "name:de": "Schweisel", "natural": "peak", "ref:refuges.info": "5977", "wikidata": "Q17426607"}}, {"name": "Batteriekopf", "latitude": 47.9938927, "longitude": 6.9806331, "elevation": 1311.0, "source": "osm", "_tags": {"ele": "1311", "name": "Batteriekopf", "natural": "peak", "ref:refuges.info": "5987", "summit:cross": "no", "summit:register": "no", "wikidata": "Q1877318"}}, {"name": "Rothenbachkopf", "latitude": 48.0007431, "longitude": 6.9809965, "elevation": 1316.0, "source": "osm", "_tags": {"ele": "1316", "name": "Rothenbachkopf", "natural": "peak", "ref:refuges.info": "5986", "summit:cross": "no", "summit:register": "no", "wikidata": "Q3442970"}}, {"name": "Rainkopf", "latitude": 48.009745, "longitude": 6.9827593, "elevation": 1305.0, "source": "osm", "_tags": {"direction": "0-360", "ele": "1305", "name": "Rainkopf", "natural": "peak", "ref:refuges.info": "5976", "summit:cross": "no", "summit:register": "no", "tourism": "viewpoint", "wikidata": "Q8158932"}}, {"name": "Gagenhart", "latitude": 48.0704295, "longitude": 7.6862258, "elevation": 380.0, "source": "osm", "_tags": {"ele": "380", "name": "Gagenhart", "natural": "peak"}}, {"name": "Grand Brézouard", "latitude": 48.1895053, "longitude": 7.1500035, "elevation": 1229.0, "source": "osm", "_tags": {"alt_name": "Bressoir", "alt_name:de": "Bludenberg", "ele": "1229", "name": "Grand Brézouard", "name:de": "Birschberg", "name:gsw": "Brüschbuckel", "natural": "peak", "summit:register": "no"}}, {"name": "Katharinenberg", "latitude": 48.1168342, "longitude": 7.6891557, "elevation": 492.0, "source": "osm", "_tags": {"ele": "492", "name": "Katharinenberg", "natural": "peak", "wikidata": "Q31536033"}}, {"name": "Ernet", "latitude": 48.3241684, "longitude": 7.8821293, "elevation": 343.0, "source": "osm", "_tags": {"ele": "343", "name": "Ernet", "natural": "peak"}}, {"name": "Munzenberg", "latitude": 47.6948719, "longitude": 7.7025037, "elevation": 702.0, "source": "osm", "_tags": {"ele": "702", "name": "Munzenberg", "natural": "peak", "wikidata": "Q31529896"}}, {"name": "Wildsberg", "latitude": 47.7429536, "longitude": 7.7345886, "elevation": 1018.0, "source": "osm", "_tags": {"ele": "1018", "name": "Wildsberg", "natural": "peak", "wikidata": "Q31561326"}}, {"name": "Hohwildsberg", "latitude": 47.7520686, "longitude": 7.7389312, "elevation": 1084.0, "source": "osm", "_tags": {"ele": "1084", "name": "Hohwildsberg", "natural": "peak", "wikidata": "Q31538341"}}, {"name": "Mt. Climont", "latitude": 48.3448597, "longitude": 7.1832658, "elevation": 965.0, "source": "osm", "_tags": {"ele": "965", "name": "Mt. Climont", "name:de": "Winberg", "natural": "peak", "summit:cross": "no", "summit:register": "no", "tourism": "viewpoint", "wikidata": "Q1101476", "wikipedia": "de:Climont"}}, {"name": "", "latitude": 48.0196087, "longitude": 7.2180661, "elevation": 869.0, "source": "osm", "_tags": {"ele": "869", "natural": "peak"}}, {"name": "Hohfelsen", "latitude": 47.7253735, "longitude": 7.7485407, "elevation": 963.0, "source": "osm", "_tags": {"ele": "963", "name": "Hohfelsen", "natural": "peak"}}, {"name": "Schneckenberg", "latitude": 47.7330496, "longitude": 7.6001127, "elevation": 370.0, "source": "osm", "_tags": {"ele": "370", "name": "Schneckenberg", "natural": "peak"}}, {"name": "Grosse Sunnenberg", "latitude": 47.5333316, "longitude": 7.8482759, "elevation": 636.0, "source": "osm", "_tags": {"ele": "636", "name": "Grosse Sunnenberg", "natural": "peak"}}, {"name": "Zeller Blauen", "latitude": 47.7342111, "longitude": 7.8517311, "elevation": 1077.0, "source": "osm", "_tags": {"ele": "1077", "name": "Zeller Blauen", "natural": "peak", "wikidata": "Q14531851"}}, {"name": "Leisenberg", "latitude": 47.7263468, "longitude": 7.8657598, "elevation": 703.0, "source": "osm", "_tags": {"ele": "703", "name": "Leisenberg", "natural": "peak"}}, {"name": "Tannenkopf", "latitude": 47.7603611, "longitude": 7.8427353, "elevation": 967.0, "source": "osm", "_tags": {"ele": "967", "name": "Tannenkopf", "natural": "peak"}}, {"name": "Hirschkopf", "latitude": 47.7503538, "longitude": 7.8480482, "elevation": 1057.0, "source": "osm", "_tags": {"ele": "1057", "name": "Hirschkopf", "natural": "peak", "wikidata": "Q31561389"}}, {"name": "Bubshorn", "latitude": 47.750728, "longitude": 7.8589572, "elevation": 1032.0, "source": "osm", "_tags": {"ele": "1032", "name": "Bubshorn", "natural": "peak", "wikidata": "Q31550783"}}, {"name": "Itterschwander Horn", "latitude": 47.763788, "longitude": 7.8581693, "elevation": 996.0, "source": "osm", "_tags": {"ele": "996", "name": "Itterschwander Horn", "natural": "peak"}}, {"name": "Honeck", "latitude": 47.7761313, "longitude": 7.8428082, "elevation": 1022.0, "source": "osm", "_tags": {"ele": "1022", "name": "Honeck", "natural": "peak", "wikidata": "Q31538098"}}, {"name": "Dachseck", "latitude": 47.7693405, "longitude": 7.8546875, "elevation": 997.0, "source": "osm", "_tags": {"ele": "997", "name": "Dachseck", "natural": "peak"}}, {"name": "Schauenburgflue", "latitude": 47.4995202, "longitude": 7.6761436, "elevation": 665.0, "source": "osm", "_tags": {"ele": "665", "name": "Schauenburgflue", "natural": "peak", "source": "local_knowledge"}}, {"name": "Thürner Flue", "latitude": 47.455608, "longitude": 7.8410305, "elevation": 599.0, "source": "osm", "_tags": {"ele": "599", "name": "Thürner Flue", "natural": "peak"}}, {"name": "Heißbühl", "latitude": 47.7195376, "longitude": 7.6702814, "elevation": 476.0, "source": "osm", "_tags": {"alt_name": "Häßler", "ele": "476", "name": "Heißbühl", "natural": "peak", "source": "local knowledge;LGRB", "tourism": "viewpoint"}}, {"name": "Hohe Kelch", "latitude": 47.8189588, "longitude": 7.8211713, "elevation": 1264.0, "source": "osm", "_tags": {"ele": "1264", "name": "Hohe Kelch", "natural": "peak", "wikidata": "Q31561261"}}, {"name": "Le Rougerain", "latitude": 48.3187479, "longitude": 7.2814928, "elevation": null, "source": "osm", "_tags": {"name": "Le Rougerain", "name:de": "Rotrain", "natural": "peak", "source": "cadastre-dgi-fr source : Direction Générale des Impôts - Cadastre;mise à jour : 2010"}}, {"name": "Lauchenkopf", "latitude": 47.9561791, "longitude": 7.0394744, "elevation": 1314.0, "source": "osm", "_tags": {"ele": "1314", "name": "Lauchenkopf", "natural": "peak", "wikidata": "Q3218575"}}, {"name": "Nonselkopf", "latitude": 47.9623372, "longitude": 7.038977, "elevation": 1257.0, "source": "osm", "_tags": {"ele": "1257", "name": "Nonselkopf", "natural": "peak", "wikidata": "Q110151346"}}, {"name": "Eichberg", "latitude": 48.1334615, "longitude": 7.8658432, "elevation": 369.0, "source": "osm", "_tags": {"ele": "369", "name": "Eichberg", "natural": "peak"}}, {"name": "Eichelspitze", "latitude": 48.0924043, "longitude": 7.6960007, "elevation": 521.0, "source": "osm", "_tags": {"ele": "521", "name": "Eichelspitze", "natural": "peak", "summit:cross": "no", "summit:register": "yes", "wikidata": "Q1301437", "wikipedia": "de:Eichelspitze"}}, {"name": "Rütenberg", "latitude": 47.4523677, "longitude": 7.8700419, "elevation": 535.0, "source": "osm", "_tags": {"ele": "535", "name": "Rütenberg", "natural": "peak"}}, {"name": "", "latitude": 48.3481037, "longitude": 7.2103647, "elevation": 822.0, "source": "osm", "_tags": {"ele": "822", "natural": "peak"}}, {"name": "", "latitude": 48.3526818, "longitude": 7.2148254, "elevation": 735.0, "source": "osm", "_tags": {"ele": "735", "natural": "peak"}}, {"name": "Köhlgarten", "latitude": 47.7908337, "longitude": 7.7787727, "elevation": 1224.0, "source": "osm", "_tags": {"ele": "1224", "name": "Köhlgarten", "natural": "peak", "summit:register": "no", "wikidata": "Q31533729"}}, {"name": "Obere Buck", "latitude": 47.7755355, "longitude": 7.7766728, "elevation": 954.0, "source": "osm", "_tags": {"ele": "954", "name": "Obere Buck", "natural": "peak"}}, {"name": "Schattann", "latitude": 47.7697093, "longitude": 7.7916932, "elevation": 1067.0, "source": "osm", "_tags": {"ele": "1067", "name": "Schattann", "natural": "peak", "wikidata": "Q31523459"}}, {"name": "Tannenkopf", "latitude": 47.7913954, "longitude": 7.8051686, "elevation": 1039.0, "source": "osm", "_tags": {"ele": "1039", "name": "Tannenkopf", "natural": "peak"}}, {"name": "Spitzkopf", "latitude": 47.7922027, "longitude": 7.8204465, "elevation": 937.0, "source": "osm", "_tags": {"ele": "937", "name": "Spitzkopf", "natural": "peak"}}, {"name": "Hörnle", "latitude": 47.7515056, "longitude": 7.7892041, "elevation": 912.0, "source": "osm", "_tags": {"ele": "912", "name": "Hörnle", "natural": "peak"}}, {"name": "Hohe Stückbäume", "latitude": 47.7164651, "longitude": 7.7222133, "elevation": 939.0, "source": "osm", "_tags": {"ele": "939", "name": "Hohe Stückbäume", "natural": "peak", "wikidata": "Q31538623"}}, {"name": "Schlöttleberg", "latitude": 47.7288647, "longitude": 7.7407124, "elevation": 988.0, "source": "osm", "_tags": {"ele": "988", "name": "Schlöttleberg", "natural": "peak"}}, {"name": "Köpfle", "latitude": 47.7084954, "longitude": 7.7547002, "elevation": 770.0, "source": "osm", "_tags": {"ele": "770", "name": "Köpfle", "natural": "peak"}}, {"name": "Häfnet", "latitude": 47.6689177, "longitude": 7.7493571, "elevation": 545.0, "source": "osm", "_tags": {"ele": "545", "name": "Häfnet", "natural": "peak"}}, {"name": "Scheinberg", "latitude": 47.6723567, "longitude": 7.7823377, "elevation": 619.0, "source": "osm", "_tags": {"ele": "619", "name": "Scheinberg", "natural": "peak", "wikidata": "Q31523337"}}, {"name": "Hausener Köpfle", "latitude": 47.6743795, "longitude": 7.8213906, "elevation": 594.0, "source": "osm", "_tags": {"ele": "594", "name": "Hausener Köpfle", "natural": "peak"}}, {"name": "Entegast", "latitude": 47.6707962, "longitude": 7.816155, "elevation": 589.0, "source": "osm", "_tags": {"ele": "589", "name": "Entegast", "natural": "peak", "wikidata": "Q30771114"}}, {"name": "Stuhlskopf", "latitude": 47.8112079, "longitude": 7.80978, "elevation": 1116.0, "source": "osm", "_tags": {"ele": "1116", "name": "Stuhlskopf", "natural": "peak", "wikidata": "Q31518146"}}, {"name": "Sirnitz", "latitude": 47.8016921, "longitude": 7.7675529, "elevation": 1114.0, "source": "osm", "_tags": {"ele": "1114", "name": "Sirnitz", "natural": "peak", "wikidata": "Q31520599"}}, {"name": "Weiherkopf", "latitude": 47.8034844, "longitude": 7.7782171, "elevation": 1143.0, "source": "osm", "_tags": {"ele": "1143", "name": "Weiherkopf", "natural": "peak", "summit:cross": "no", "summit:register": "no", "wikidata": "Q31561278"}}, {"name": "Raukopf", "latitude": 47.7916967, "longitude": 7.7607739, "elevation": 1071.0, "source": "osm", "_tags": {"ele": "1071", "name": "Raukopf", "natural": "peak", "wikidata": "Q31561294"}}, {"name": "", "latitude": 47.7581134, "longitude": 7.6768628, "elevation": 752.0, "source": "osm", "_tags": {"ele": "752", "natural": "peak", "source": "Historische Messtischblätter TK25 (validiert)"}}, {"name": "", "latitude": 47.759695, "longitude": 7.6800559, "elevation": null, "source": "osm", "_tags": {"natural": "peak", "source": "Historische Messtischblätter TK25 (validiert)"}}, {"name": "Bürgeln", "latitude": 47.7499266, "longitude": 7.6778061, "elevation": 665.0, "source": "osm", "_tags": {"ele": "665", "name": "Bürgeln", "natural": "peak", "source": "Historische Messtischblätter TK25 (validiert)"}}, {"name": "Farnsberg", "latitude": 47.4925567, "longitude": 7.8681529, "elevation": 761.0, "source": "osm", "_tags": {"ele": "761", "name": "Farnsberg", "natural": "peak"}}, {"name": "Staufen", "latitude": 47.4973033, "longitude": 7.8490001, "elevation": null, "source": "osm", "_tags": {"name": "Staufen", "natural": "peak"}}, {"name": "Önsberg", "latitude": 47.5175084, "longitude": 7.8331671, "elevation": 563.0, "source": "osm", "_tags": {"ele": "563", "name": "Önsberg", "natural": "peak"}}, {"name": "Eilete", "latitude": 47.5037818, "longitude": 7.7820524, "elevation": 625.0, "source": "osm", "_tags": {"ele": "625", "name": "Eilete", "natural": "peak"}}, {"name": "Halmet", "latitude": 47.5091856, "longitude": 7.7962373, "elevation": null, "source": "osm", "_tags": {"name": "Halmet", "natural": "peak"}}, {"name": "Dumberg", "latitude": 47.4968504, "longitude": 7.7822357, "elevation": null, "source": "osm", "_tags": {"name": "Dumberg", "natural": "peak"}}, {"name": "Madlenchöpfli", "latitude": 47.5065984, "longitude": 7.6967218, "elevation": 534.0, "source": "osm", "_tags": {"ele": "534", "name": "Madlenchöpfli", "natural": "peak"}}, {"name": "Wartenberg", "latitude": 47.5187589, "longitude": 7.6546393, "elevation": 479.3, "source": "osm", "_tags": {"ele": "479.3", "name": "Wartenberg", "natural": "peak", "wikidata": "Q2549960"}}, {"name": "Landskronberg", "latitude": 47.4884129, "longitude": 7.4908102, "elevation": null, "source": "osm", "_tags": {"name": "Landskronberg", "natural": "peak"}}, {"name": "Ottmart", "latitude": 47.4546403, "longitude": 7.4947965, "elevation": 770.0, "source": "osm", "_tags": {"ele": "770", "name": "Ottmart", "natural": "peak"}}, {"name": "Rossberg", "latitude": 47.82037, "longitude": 7.008943, "elevation": 1191.0, "source": "osm", "_tags": {"ele": "1191", "name": "Rossberg", "natural": "peak", "ref:refuges.info": "3041", "wikidata": "Q3442813", "wikipedia": "fr:Rossberg (France)"}}, {"name": "Schlossberg", "latitude": 47.9974939, "longitude": 7.8675518, "elevation": 455.9, "source": "osm", "_tags": {"ele": "455.9", "name": "Schlossberg", "name:de": "Schlossberg", "name:ru": "Шлоссберг", "natural": "peak", "wikidata": "Q277106", "wikipedia": "de:Schlossberg (Freiburg im Breisgau)"}}, {"name": "Honigbuck", "latitude": 47.9971269, "longitude": 7.7632875, "elevation": 225.0, "source": "osm", "_tags": {"alt_name": "Hunnenbuck", "ele": "225", "name": "Honigbuck", "name:gsw": "Huunibugg", "natural": "peak", "wikidata": "Q16861395", "wikipedia": "als:Honigbuck"}}, {"name": "Monte Kalino", "latitude": 47.8584466, "longitude": 7.6196449, "elevation": null, "source": "osm", "_tags": {"name": "Monte Kalino", "natural": "peak", "tourism": "attraction"}}, {"name": "Sulzberg", "latitude": 48.313506, "longitude": 7.8789626, "elevation": 387.0, "source": "osm", "_tags": {"ele": "387", "name": "Sulzberg", "natural": "peak"}}, {"name": "Hünerberg", "latitude": 47.6124898, "longitude": 7.6718807, "elevation": 403.0, "source": "osm", "_tags": {"ele": "403", "name": "Hünerberg", "natural": "peak"}}, {"name": "Knobel", "latitude": 47.6908817, "longitude": 7.8271166, "elevation": 679.0, "source": "osm", "_tags": {"ele": "679", "name": "Knobel", "natural": "peak"}}, {"name": "Le Petit Hohnack", "latitude": 48.0940961, "longitude": 7.1845328, "elevation": 927.0, "source": "osm", "_tags": {"ele": "927", "name": "Le Petit Hohnack", "name:de": "Kleiner Hohnack", "natural": "peak"}}, {"name": "Le Grand Hohnack", "latitude": 48.0867555, "longitude": 7.1903563, "elevation": 982.0, "source": "osm", "_tags": {"ele": "982", "name": "Le Grand Hohnack", "name:de": "Großer Hohnack", "natural": "peak"}}, {"name": "Gabler Eck", "latitude": 47.8318583, "longitude": 7.7568179, "elevation": 825.0, "source": "osm", "_tags": {"ele": "825", "name": "Gabler Eck", "natural": "peak", "wikidata": "Q31560317"}}, {"name": "Le Stauffen", "latitude": 48.0330361, "longitude": 7.2329084, "elevation": 898.0, "source": "osm", "_tags": {"ele": "898", "name": "Le Stauffen", "name:de": "Staufen", "natural": "peak", "source": "cadastre-dgi-fr source : Direction Générale des Impôts - Cadastre. Mise à jour : 2011"}}, {"name": "Stumpfenkopf", "latitude": 48.037991, "longitude": 7.2154035, "elevation": 555.0, "source": "osm", "_tags": {"ele": "555", "name": "Stumpfenkopf", "natural": "peak", "source": "cadastre-dgi-fr source : Direction Générale des Impôts - Cadastre. Mise à jour : 2011"}}, {"name": "Hörnle", "latitude": 47.9211989, "longitude": 7.8501571, "elevation": 886.0, "source": "osm", "_tags": {"ele": "886", "name": "Hörnle", "natural": "peak"}}, {"name": "Hohbühl", "latitude": 47.9129706, "longitude": 7.8557836, "elevation": 896.0, "source": "osm", "_tags": {"ele": "896", "name": "Hohbühl", "natural": "peak"}}, {"name": "Kuhberg", "latitude": 48.0799873, "longitude": 7.1610874, "elevation": 968.0, "source": "osm", "_tags": {"ele": "968", "name": "Kuhberg", "natural": "peak"}}, {"name": "Schutterlindenberg", "latitude": 48.3488073, "longitude": 7.8570157, "elevation": 297.0, "source": "osm", "_tags": {"ele": "297", "name": "Schutterlindenberg", "natural": "peak", "wikidata": "Q1735273"}}, {"name": "Schartenflue", "latitude": 47.4775591, "longitude": 7.6474682, "elevation": 759.0, "source": "osm", "_tags": {"ele": "759", "name": "Schartenflue", "natural": "peak", "tourism": "viewpoint"}}, {"name": "Tête des Immerlins", "latitude": 48.142175, "longitude": 7.1045385, "elevation": 1216.0, "source": "osm", "_tags": {"ele": "1216", "name": "Tête des Immerlins", "name:de": "Immerlinskopf", "natural": "peak", "source": "cadastre-dgi-fr source : Direction Générale des Impôts - Cadastre. Mise à jour : 2011"}}, {"name": "Tête des Faux", "latitude": 48.1541973, "longitude": 7.1151185, "elevation": 1208.0, "source": "osm", "_tags": {"ele": "1208", "name": "Tête des Faux", "name:de": "Buchenkopf", "natural": "peak", "source": "cadastre-dgi-fr source : Direction Générale des Impôts - Cadastre. Mise à jour : 2011", "wikidata": "Q33821796"}}, {"name": "Koenigsstuhl", "latitude": 48.1886502, "longitude": 7.2487099, "elevation": 945.0, "source": "osm", "_tags": {"ele": "945", "name": "Koenigsstuhl", "name:de": "Königsstuhl", "natural": "peak"}}, {"name": "Roti Flue", "latitude": 47.4354815, "longitude": 7.403093, "elevation": 780.0, "source": "osm", "_tags": {"ele": "780", "name": "Roti Flue", "natural": "peak"}}, {"name": "Köpfle", "latitude": 47.848842, "longitude": 7.7790419, "elevation": null, "source": "osm", "_tags": {"historic": "wayside_cross", "name": "Köpfle", "natural": "peak", "tourism": "viewpoint"}}, {"name": "Zinnkoepflé", "latitude": 47.9643518, "longitude": 7.2491389, "elevation": 420.0, "source": "osm", "_tags": {"ele": "420", "name": "Zinnkoepflé", "name:de": "Zinnköpfle", "natural": "peak", "source": "cadastre-dgi-fr source : Direction Générale des Impôts - Cadastre. Mise à jour : 2011"}}, {"name": "Gommkopf", "latitude": 47.9290833, "longitude": 6.9824755, "elevation": 842.0, "source": "osm", "_tags": {"ele": "842", "name": "Gommkopf", "natural": "peak"}}, {"name": "Ameisenbuck", "latitude": 47.7370411, "longitude": 7.622223, "elevation": null, "source": "osm", "_tags": {"name": "Ameisenbuck", "natural": "peak"}}, {"name": "Hagelstein", "latitude": 48.3161797, "longitude": 7.3801112, "elevation": 591.0, "source": "osm", "_tags": {"ele": "591", "name": "Hagelstein", "natural": "peak"}}, {"name": "Rocher du Falkenstein", "latitude": 48.3153806, "longitude": 7.3780631, "elevation": 550.0, "source": "osm", "_tags": {"ele": "550", "name": "Rocher du Falkenstein", "natural": "peak"}}, {"name": "Barrenkopf", "latitude": 48.0750192, "longitude": 7.1317643, "elevation": 980.0, "source": "osm", "_tags": {"ele": "980", "name": "Barrenkopf", "natural": "peak"}}, {"name": "", "latitude": 47.9223756, "longitude": 7.8422385, "elevation": 865.0, "source": "osm", "_tags": {"ele": "865", "natural": "peak"}}, {"name": "Soultzeren Eck", "latitude": 48.1085697, "longitude": 7.076663, "elevation": 1302.0, "source": "osm", "_tags": {"ele": "1302", "name": "Soultzeren Eck", "name:de": "Sulzerer Eck", "natural": "peak", "source": "cadastre-dgi-fr source : Direction Générale des Impôts - Cadastre."}}, {"name": "Ringbuhlkopf", "latitude": 48.0987905, "longitude": 7.0653558, "elevation": 1302.0, "source": "osm", "_tags": {"alt_name": "Gazon du Faite", "ele": "1302", "name": "Ringbuhlkopf", "natural": "peak"}}, {"name": "Rocher Hans", "latitude": 48.1231051, "longitude": 7.0927568, "elevation": 1144.0, "source": "osm", "_tags": {"ele": "1144", "name": "Rocher Hans", "natural": "peak", "note": "Hans-Felsen als deutscher Name ist ungebräuchlich", "wikidata": "Q267332", "wikipedia": "fr:Lac Blanc (Vosges)"}}, {"name": "Schönberg", "latitude": 47.9547079, "longitude": 7.805501, "elevation": 644.0, "source": "osm", "_tags": {"ele": "644", "name": "Schönberg", "name:fr": "Beaumont", "name:gsw": "Schimbarg", "name:it": "Monte Bello", "natural": "peak", "wikidata": "Q885298", "wikipedia": "de:Schönberg (Ebringen)"}}, {"name": "Schratzmaennele", "latitude": 48.0795171, "longitude": 7.1382474, "elevation": 1044.0, "source": "osm", "_tags": {"ele": "1044", "name": "Schratzmaennele", "name:de": "Schratzmännle", "natural": "peak"}}, {"name": "Breitenberg", "latitude": 48.0722261, "longitude": 7.1631317, "elevation": 853.0, "source": "osm", "_tags": {"ele": "853", "name": "Breitenberg", "natural": "peak", "source": "cadastre-dgi-fr source : Direction Générale des Impôts - Cadastre."}}, {"name": "Tête de Grouvelin", "latitude": 48.0467855, "longitude": 6.916688, "elevation": 1137.0, "source": "osm", "_tags": {"ele": "1137", "name": "Tête de Grouvelin", "natural": "peak", "tourism": "viewpoint", "wikidata": "Q17640220"}}, {"name": "Hamlekopf", "latitude": 48.0605335, "longitude": 7.0518845, "elevation": null, "source": "osm", "_tags": {"name": "Hamlekopf", "natural": "peak", "source": "cadastre-dgi-fr source : Direction Générale des Impôts - Cadastre."}}, {"name": "", "latitude": 47.9791958, "longitude": 7.8379339, "elevation": 348.0, "source": "osm", "_tags": {"ele": "348", "natural": "peak", "note": "Bergsporn des Lorettobergs", "wikidata": "Q1870290", "wikipedia": "de:Lorettoberg"}}, {"name": "Kastelberg", "latitude": 47.8512706, "longitude": 7.7053285, "elevation": 435.0, "source": "osm", "_tags": {"alt_name": "Castellberg", "ele": "435", "name": "Kastelberg", "natural": "peak", "wikidata": "Q30620464"}}, {"name": "Le Chalmont", "latitude": 48.2838257, "longitude": 7.2895809, "elevation": 702.0, "source": "osm", "_tags": {"alt_name:de": "Karlsberg", "ele": "702", "name": "Le Chalmont", "name:de": "Schalberg", "natural": "peak", "source": "cadastre-dgi-fr source : Direction Générale des Impôts - Cadastre. Mise à jour : 2012", "wikidata": "Q2947986"}}, {"name": "Le Kast", "latitude": 48.2757001, "longitude": 7.282229, "elevation": 373.0, "source": "osm", "_tags": {"ele": "373", "name": "Le Kast", "natural": "peak", "source": "cadastre-dgi-fr source : Direction Générale des Impôts - Cadastre. Mise à jour : 2012"}}, {"name": "Le Kesbel", "latitude": 48.2735714, "longitude": 7.286312, "elevation": 302.0, "source": "osm", "_tags": {"ele": "302", "name": "Le Kesbel", "natural": "peak", "source": "cadastre-dgi-fr source : Direction Générale des Impôts - Cadastre. Mise à jour : 2012"}}, {"name": "Hoernleskkopf", "latitude": 48.0645175, "longitude": 7.14066, "elevation": 842.0, "source": "osm", "_tags": {"ele": "842", "name": "Hoernleskkopf", "name:de": "Hörnleskopf", "natural": "peak", "source": "cadastre-dgi-fr source : Direction Générale des Impôts - Cadastre."}}, {"name": "Hundskopf", "latitude": 47.9616365, "longitude": 7.0034246, "elevation": 1237.0, "source": "osm", "_tags": {"ele": "1237", "name": "Hundskopf", "natural": "peak", "ref:refuges.info": "5988", "source": "knowledge", "wikidata": "Q17485163"}}, {"name": "Le Hurlin", "latitude": 48.0832838, "longitude": 7.1230521, "elevation": 998.0, "source": "osm", "_tags": {"ele": "998", "name": "Le Hurlin", "natural": "peak"}}, {"name": "Petit Ventron", "latitude": 47.9512071, "longitude": 6.9245381, "elevation": 1155.0, "source": "osm", "_tags": {"ele": "1155", "name": "Petit Ventron", "natural": "peak"}}, {"name": "Tête du Chat Sauvage", "latitude": 47.9464071, "longitude": 6.9200301, "elevation": 1153.0, "source": "osm", "_tags": {"ele": "1153", "name": "Tête du Chat Sauvage", "natural": "peak", "wikidata": "Q34815896"}}, {"name": "Kastelberg", "latitude": 48.021375, "longitude": 7.001028, "elevation": 1350.0, "source": "osm", "_tags": {"ele": "1350", "name": "Kastelberg", "natural": "peak", "ref:refuges.info": "5984", "wikidata": "Q2485743", "wikipedia": "fr:Kastelberg"}}, {"name": "Tête de Nayemont", "latitude": 48.1251962, "longitude": 6.8901108, "elevation": 967.0, "source": "osm", "_tags": {"ele": "967", "name": "Tête de Nayemont", "natural": "peak", "tourism": "viewpoint"}}, {"name": "Seckenberg", "latitude": 47.6066731, "longitude": 7.1286451, "elevation": null, "source": "osm", "_tags": {"name": "Seckenberg", "natural": "peak", "source": "Direction Générale des Finances Publiques - Cadastre. Mise à jour : 2012"}}, {"name": "Kuenenberg", "latitude": 47.6430473, "longitude": 7.1453385, "elevation": 310.0, "source": "osm", "_tags": {"ele": "310", "name": "Kuenenberg", "name:de": "Künenberg", "natural": "peak", "source": "Direction Générale des Finances Publiques - cadastre. Mise à jour : 2012"}}, {"name": "Thalenberg", "latitude": 47.6246224, "longitude": 7.1474449, "elevation": null, "source": "osm", "_tags": {"name": "Thalenberg", "natural": "peak", "source": "Direction Générale des Finances Publiques  - cadastre. Mise à jour : 2012"}}, {"name": "Tüllinger Berg", "latitude": 47.6197513, "longitude": 7.6355603, "elevation": 452.0, "source": "osm", "_tags": {"ele": "452", "name": "Tüllinger Berg", "natural": "peak", "wikidata": "Q94358445"}}, {"name": "Roche D'Aivau", "latitude": 48.0065464, "longitude": 6.8898858, "elevation": null, "source": "osm", "_tags": {"name": "Roche D'Aivau", "natural": "peak"}}, {"name": "Mont Renaud", "latitude": 47.4966272, "longitude": 7.0342828, "elevation": 505.0, "source": "osm", "_tags": {"ele": "505", "name": "Mont Renaud", "natural": "peak", "source": "cadastre-dgi-fr source : Direction Générale des Impôts - Cadastre. Mise à jour : 2012"}}, {"name": "Hirzberg", "latitude": 48.2117364, "longitude": 7.1880688, "elevation": 1140.0, "source": "osm", "_tags": {"ele": "1140", "name": "Hirzberg", "natural": "peak"}}, {"name": "Le Noirmont", "latitude": 48.1099804, "longitude": 7.1330562, "elevation": 863.0, "source": "osm", "_tags": {"ele": "863", "name": "Le Noirmont", "name:de": "Schwarzenberg", "natural": "peak", "source": "cadastre-dgi-fr source : Direction Générale des Impôts - Cadastre."}}, {"name": "Ilienkopf", "latitude": 48.0083776, "longitude": 7.0870962, "elevation": 815.0, "source": "osm", "_tags": {"ele": "815", "name": "Ilienkopf", "natural": "peak", "source": "cadastre-dgi-fr source : Direction Générale des Impôts - Cadastre."}}, {"name": "Katzenstein", "latitude": 48.0604847, "longitude": 7.116597, "elevation": 658.0, "source": "osm", "_tags": {"ele": "658", "name": "Katzenstein", "natural": "peak"}}, {"name": "Rebberg Biengen", "latitude": 47.932691, "longitude": 7.6906571, "elevation": 245.0, "source": "osm", "_tags": {"ele": "245", "name": "Rebberg Biengen", "natural": "peak"}}, {"name": "Krozinger Berg", "latitude": 47.9143062, "longitude": 7.6828615, "elevation": 264.0, "source": "osm", "_tags": {"ele": "264", "name": "Krozinger Berg", "natural": "peak"}}, {"name": "Lorettoberg", "latitude": 47.9749206, "longitude": 7.839586, "elevation": 385.0, "source": "osm", "_tags": {"ele": "385", "name": "Lorettoberg", "natural": "peak", "wikidata": "Q1870290", "wikipedia": "de:Lorettoberg"}}, {"name": "Tête de la Biche", "latitude": 48.2970186, "longitude": 6.9026934, "elevation": 645.0, "source": "osm", "_tags": {"ele": "645", "name": "Tête de la Biche", "natural": "peak"}}, {"name": "Storkenkopf", "latitude": 47.904722, "longitude": 7.082222, "elevation": 1366.0, "source": "osm", "_tags": {"ele": "1366", "name": "Storkenkopf", "natural": "peak", "wikidata": "Q1574024", "wikipedia": "fr:Storkenkopf"}}, {"name": "Breitfirst", "latitude": 47.9475972, "longitude": 7.0269775, "elevation": 1280.0, "source": "osm", "_tags": {"description": "quelques pans de mur en béton, 1ere guerre mondiale", "ele": "1280", "historic": "ruins", "name": "Breitfirst", "natural": "peak", "wikidata": "Q17485176"}}, {"name": "Roche des Bioquets", "latitude": 48.0344274, "longitude": 6.9030322, "elevation": 1091.0, "source": "osm", "_tags": {"ele": "1091", "name": "Roche des Bioquets", "natural": "peak", "source": "survey"}}, {"name": "La Gesse", "latitude": 48.032542, "longitude": 6.8942906, "elevation": 1063.0, "source": "osm", "_tags": {"ele": "1063", "name": "La Gesse", "natural": "peak"}}, {"name": "Le Petit Hohneck", "latitude": 48.0356908, "longitude": 7.0331405, "elevation": 1289.0, "source": "osm", "_tags": {"ele": "1289", "name": "Le Petit Hohneck", "natural": "peak", "ref:refuges.info": "5991"}}, {"name": "Limbachkopf", "latitude": 48.1483952, "longitude": 7.2014246, "elevation": null, "source": "osm", "_tags": {"name": "Limbachkopf", "natural": "peak", "source": "cadastre-dgi-fr source : Direction Générale des Impôts - Cadastre. Mise à jour : 2014"}}, {"name": "Illenberg", "latitude": 47.9544929, "longitude": 7.8537945, "elevation": 643.0, "source": "osm", "_tags": {"ele": "643", "name": "Illenberg", "natural": "peak", "wikidata": "Q31560423"}}, {"name": "Kreuzkopf", "latitude": 47.9639266, "longitude": 7.8467748, "elevation": 525.0, "source": "osm", "_tags": {"ele": "525", "name": "Kreuzkopf", "natural": "peak", "wikidata": "Q31560408"}}, {"name": "Reichsackerkopf", "latitude": 48.0397332, "longitude": 7.0968405, "elevation": 778.0, "source": "osm", "_tags": {"ele": "778", "name": "Reichsackerkopf", "natural": "peak"}}, {"name": "Rickenbacher Flue", "latitude": 47.4796965, "longitude": 7.8341799, "elevation": null, "source": "osm", "_tags": {"name": "Rickenbacher Flue", "natural": "peak"}}, {"name": "Blittenchopf", "latitude": 47.450778, "longitude": 7.8198985, "elevation": 636.0, "source": "osm", "_tags": {"ele": "636", "name": "Blittenchopf", "natural": "peak"}}, {"name": "Tenniker Flue", "latitude": 47.4412285, "longitude": 7.816505, "elevation": 608.0, "source": "osm", "_tags": {"ele": "608", "name": "Tenniker Flue", "natural": "peak"}}, {"name": "Kernenweid", "latitude": 47.4579107, "longitude": 7.8180525, "elevation": null, "source": "osm", "_tags": {"name": "Kernenweid", "natural": "peak"}}, {"name": "Bischofstein", "latitude": 47.4746442, "longitude": 7.8272092, "elevation": null, "source": "osm", "_tags": {"name": "Bischofstein", "natural": "peak"}}, {"name": "Vieil Armand", "latitude": 47.8609139, "longitude": 7.1610179, "elevation": 956.0, "source": "osm", "_tags": {"alt_name": "Hartmannswillerkopf", "ele": "956", "name": "Vieil Armand", "name:de": "Hartmannsweilerkopf", "name:fr": "Vieil Armand", "natural": "peak", "old_name:de": "Hartmannsweiler Kopf", "ref:refuges.info": "3956", "wikidata": "Q325716"}}, {"name": "Halbuck", "latitude": 48.077775, "longitude": 7.6587248, "elevation": 371.0, "source": "osm", "_tags": {"ele": "371", "name": "Halbuck", "natural": "peak"}}, {"name": "Wolfsbuck", "latitude": 48.0256854, "longitude": 7.8263417, "elevation": 260.0, "source": "osm", "_tags": {"alt_name": "Monte Scherbelino", "ele": "260", "name": "Wolfsbuck", "natural": "peak", "website": "https://www.freiburg-schwarzwald.de/blog/regio/berge/wolfsbuck/"}}, {"name": "Rehbrunnenkopf", "latitude": 47.9051564, "longitude": 7.1840764, "elevation": 632.0, "source": "osm", "_tags": {"ele": "632", "name": "Rehbrunnenkopf", "natural": "peak"}}, {"name": "Rödelsburg", "latitude": 47.8778811, "longitude": 7.7817769, "elevation": 773.0, "source": "osm", "_tags": {"ele": "773", "name": "Rödelsburg", "natural": "peak", "wikidata": "Q31525567"}}, {"name": "Le Ramelstein", "latitude": 48.2348733, "longitude": 7.25848, "elevation": 988.0, "source": "osm", "_tags": {"ele": "988", "name": "Le Ramelstein", "name:de": "Ramelstein", "natural": "peak", "wikidata": "Q1418334", "wikipedia": "fr:Taennchel"}}, {"name": "Roche des Fosses", "latitude": 48.3020646, "longitude": 6.8850573, "elevation": 649.0, "source": "osm", "_tags": {"ele": "649", "name": "Roche des Fosses", "natural": "peak"}}, {"name": "Petite Tête des Immerlins", "latitude": 48.1394177, "longitude": 7.095048, "elevation": 1143.0, "source": "osm", "_tags": {"ele": "1143", "name": "Petite Tête des Immerlins", "name:de": "Kleiner Immerlinskopf", "natural": "peak"}}, {"name": "Tête de Saint-Roch", "latitude": 48.3032662, "longitude": 6.9420005, "elevation": 469.0, "source": "osm", "_tags": {"ele": "469", "name": "Tête de Saint-Roch", "natural": "peak"}}, {"name": "Schaenzelkopf", "latitude": 48.2418571, "longitude": 7.3222914, "elevation": 709.0, "source": "osm", "_tags": {"ele": "709", "name": "Schaenzelkopf", "name:de": "Schänzelkopf", "natural": "peak", "note": "Positionnement appoximatif. À effectuer un relevé plus précis..."}}, {"name": "Haut de Rittempierre", "latitude": 48.317903, "longitude": 6.952419, "elevation": 611.0, "source": "osm", "_tags": {"ele": "611", "name": "Haut de Rittempierre", "natural": "peak", "wikidata": "Q3433332", "wikipedia": "fr:Rittempierre"}}, {"name": "Schlossberg", "latitude": 48.2952366, "longitude": 7.3249803, "elevation": 703.0, "source": "osm", "_tags": {"ele": "703", "name": "Schlossberg", "name:de": "Schlossberg", "natural": "peak"}}, {"name": "Le Spitzemberg", "latitude": 48.3075195, "longitude": 7.044068, "elevation": 641.0, "source": "osm", "_tags": {"ele": "641", "name": "Le Spitzemberg", "natural": "peak", "wikidata": "Q3493627", "wikipedia": "fr:Spitzemberg"}}, {"name": "Burgkopf", "latitude": 47.4488659, "longitude": 7.4814512, "elevation": 689.0, "source": "osm", "_tags": {"ele": "689", "name": "Burgkopf", "natural": "peak"}}, {"name": "Roche du Sapin Sec", "latitude": 48.3080093, "longitude": 7.0035045, "elevation": 901.0, "source": "osm", "_tags": {"ele": "901", "name": "Roche du Sapin Sec", "natural": "peak", "tourism": "viewpoint"}}, {"name": "Böckterflue", "latitude": 47.4776893, "longitude": 7.830926, "elevation": 740.0, "source": "osm", "_tags": {"ele": "740", "name": "Böckterflue", "natural": "peak", "tourism": "viewpoint", "wheelchair": "no"}}, {"name": "Tête du 10ème B.C.P.", "latitude": 48.3145215, "longitude": 7.017134, "elevation": 874.0, "source": "osm", "_tags": {"ele": "874", "name": "Tête du 10ème B.C.P.", "natural": "peak"}}, {"name": "Spitzenberg", "latitude": 47.4431024, "longitude": 7.764225, "elevation": 496.0, "source": "osm", "_tags": {"ele": "496", "name": "Spitzenberg", "natural": "peak", "source": "Landsat"}}, {"name": "Homberg", "latitude": 47.4494378, "longitude": 7.7558969, "elevation": 507.0, "source": "osm", "_tags": {"ele": "507", "name": "Homberg", "natural": "peak"}}, {"name": "Baholde", "latitude": 47.4424841, "longitude": 7.7713954, "elevation": 522.0, "source": "osm", "_tags": {"ele": "522", "name": "Baholde", "natural": "peak"}}, {"name": "Schoren", "latitude": 47.4386519, "longitude": 7.7755582, "elevation": 540.0, "source": "osm", "_tags": {"ele": "540", "name": "Schoren", "natural": "peak"}}, {"name": "Tête des Perches", "latitude": 47.8501116, "longitude": 6.9200907, "elevation": 1222.0, "source": "osm", "_tags": {"ele": "1222", "name": "Tête des Perches", "name:de": "Sternseekopf", "natural": "peak", "ref:refuges.info": "7321", "tourism": "viewpoint", "wikidata": "Q3546957"}}, {"name": "Molkenrain", "latitude": 47.854084, "longitude": 7.1299334, "elevation": 1125.0, "source": "osm", "_tags": {"ele": "1125", "name": "Molkenrain", "natural": "peak", "ref:refuges.info": "3952", "source": "Bing", "wikidata": "Q1943538", "wikipedia": "fr:Molkenrain"}}, {"name": "Riesenkopf", "latitude": 47.8614988, "longitude": 7.1279436, "elevation": 1077.0, "source": "osm", "_tags": {"ele": "1077", "name": "Riesenkopf", "natural": "peak", "wikidata": "Q17485172", "wikipedia": "fr:Riesenkopf"}}, {"name": "Ungersberg", "latitude": 48.3626927, "longitude": 7.3586549, "elevation": 901.0, "source": "osm", "_tags": {"ele": "901", "name": "Ungersberg", "natural": "peak", "note": "sommet précis à déterminer", "source": "Bing", "wikidata": "Q940612", "wikipedia": "fr:Ungersberg"}}, {"name": "Klinzkopf", "latitude": 47.9493515, "longitude": 7.0559558, "elevation": 1330.0, "source": "osm", "_tags": {"ele": "1330", "name": "Klinzkopf", "natural": "peak"}}, {"name": "Becherkopf", "latitude": 47.8390417, "longitude": 7.1138453, "elevation": 922.0, "source": "osm", "_tags": {"ele": "922", "name": "Becherkopf", "natural": "peak", "ref:refuges.info": "3797"}}, {"name": "Schädelberg", "latitude": 47.6064351, "longitude": 7.6753265, "elevation": 420.0, "source": "osm", "_tags": {"ele": "420", "name": "Schädelberg", "natural": "peak", "wikidata": "Q108282155"}}, {"name": "Katzenstuhl", "latitude": 47.8552015, "longitude": 7.7302146, "elevation": 595.0, "source": "osm", "_tags": {"ele": "595", "name": "Katzenstuhl", "natural": "peak", "wikidata": "Q30609443"}}, {"name": "Terril Ouest", "latitude": 47.777972, "longitude": 7.2352724, "elevation": null, "source": "osm", "_tags": {"name": "Terril Ouest", "name:de": "Westliche Abraumhalde", "natural": "peak"}}, {"name": "Terril Est", "latitude": 47.7757881, "longitude": 7.2495901, "elevation": null, "source": "osm", "_tags": {"name": "Terril Est", "name:de": "Östliche Abraumhalde", "natural": "peak"}}, {"name": "Terril Amélie 2", "latitude": 47.7869562, "longitude": 7.2433716, "elevation": null, "source": "osm", "_tags": {"name": "Terril Amélie 2", "name:de": "Halde Amélie 2", "natural": "peak"}}, {"name": "Terril Amélie 1", "latitude": 47.7991816, "longitude": 7.2509534, "elevation": null, "source": "osm", "_tags": {"name": "Terril Amélie 1", "name:de": "Halde Amélie 1", "natural": "peak"}}, {"name": "Terril Rodolphe", "latitude": 47.8514922, "longitude": 7.281885, "elevation": null, "source": "osm", "_tags": {"name": "Terril Rodolphe", "natural": "peak"}}, {"name": "Terril Marie-Louise", "latitude": 47.8355355, "longitude": 7.2707391, "elevation": null, "source": "osm", "_tags": {"name": "Terril Marie-Louise", "natural": "peak"}}, {"name": "Terril Ensisheim 1", "latitude": 47.8602733, "longitude": 7.3352992, "elevation": null, "source": "osm", "_tags": {"name": "Terril Ensisheim 1", "natural": "peak"}}, {"name": "Terril Anna Est", "latitude": 47.7954988, "longitude": 7.3004439, "elevation": null, "source": "osm", "_tags": {"name": "Terril Anna Est", "natural": "peak"}}, {"name": "Terril Anna Ouest", "latitude": 47.7943384, "longitude": 7.2950366, "elevation": null, "source": "osm", "_tags": {"name": "Terril Anna Ouest", "natural": "peak"}}, {"name": "Terril Eugène", "latitude": 47.8241746, "longitude": 7.3264197, "elevation": null, "source": "osm", "_tags": {"name": "Terril Eugène", "name:de": "Abraumhalde Prinz Eugen", "natural": "peak"}}, {"name": "Terril Fernand", "latitude": 47.8005111, "longitude": 7.3221025, "elevation": null, "source": "osm", "_tags": {"name": "Terril Fernand", "natural": "peak"}}, {"name": "Terril Théodore", "latitude": 47.8292726, "longitude": 7.3231031, "elevation": null, "source": "osm", "_tags": {"name": "Terril Théodore", "name:de": "Abraumhalde Theodor", "natural": "peak"}}, {"name": "Terril Alex", "latitude": 47.8542632, "longitude": 7.2773768, "elevation": null, "source": "osm", "_tags": {"name": "Terril Alex", "natural": "peak"}}, {"name": "Spitzkoepfe", "latitude": 48.0303535, "longitude": 7.0157439, "elevation": 1290.0, "source": "osm", "_tags": {"ele": "1290", "name": "Spitzkoepfe", "natural": "peak", "wikidata": "Q3493628"}}, {"name": "Roche de froide Fontaine", "latitude": 48.2602469, "longitude": 6.9022242, "elevation": 550.0, "source": "osm", "_tags": {"ele": "550", "name": "Roche de froide Fontaine", "natural": "peak"}}, {"name": "", "latitude": 47.711311, "longitude": 6.8865657, "elevation": 480.0, "source": "osm", "_tags": {"ele": "480", "natural": "peak"}}, {"name": "Le Drumont", "latitude": 47.9021587, "longitude": 6.9167008, "elevation": 1200.0, "source": "osm", "_tags": {"ele": "1200", "name": "Le Drumont", "name:de": "Trumenkopf", "natural": "peak", "ref:refuges.info": "3017", "wikidata": "Q3040130", "wikipedia": "fr:Drumont"}}, {"name": "Haute Bers", "latitude": 47.8462684, "longitude": 6.9120249, "elevation": 1252.0, "source": "osm", "_tags": {"ele": "1252", "name": "Haute Bers", "name:de": "Obere Bers", "natural": "peak", "ref:refuges.info": "8065", "wikidata": "Q3128527"}}, {"name": "Tête des Bluets", "latitude": 47.8563168, "longitude": 6.889645, "elevation": 1150.0, "source": "osm", "_tags": {"ele": "1150", "name": "Tête des Bluets", "natural": "peak"}}, {"name": "Tête des Neufs Bois", "latitude": 47.871777, "longitude": 6.9096583, "elevation": 1229.0, "source": "osm", "_tags": {"ele": "1229", "name": "Tête des Neufs Bois", "name:de": "Neuwaldkopf", "natural": "peak", "wikidata": "Q3546956"}}, {"name": "Tête des Allemands", "latitude": 47.8840967, "longitude": 6.8989147, "elevation": 1014.0, "source": "osm", "_tags": {"ele": "1014", "name": "Tête des Allemands", "name:de": "Deutscher Kopf", "natural": "peak"}}, {"name": "Tête des Mineurs", "latitude": 47.7572818, "longitude": 6.8900889, "elevation": 926.0, "source": "osm", "_tags": {"ele": "926", "name": "Tête des Mineurs", "natural": "peak", "source": "IGN BDTOPO 2022-03-15", "source:ele": "IGN RGEALTI 2020-09-18 (Lidar)"}}, {"name": "Glaserberg", "latitude": 47.4509848, "longitude": 7.2795855, "elevation": 816.0, "source": "osm", "_tags": {"ele": "816", "name": "Glaserberg", "name:gsw": "Glaserbàrg", "natural": "peak", "wikidata": "Q1529410", "wikipedia": "fr:Glaserberg"}}, {"name": "", "latitude": 47.7282156, "longitude": 6.9039287, "elevation": 575.0, "source": "osm", "_tags": {"description": "mesuré au GPS, à confirmer.", "ele": "575", "natural": "peak"}}, {"name": "Dumbuhlkopf", "latitude": 48.0320134, "longitude": 7.1503032, "elevation": 540.0, "source": "osm", "_tags": {"ele": "540", "name": "Dumbuhlkopf", "natural": "peak", "source": "cadastre-dgi-fr source : Direction Générale des Impôts - Cadastre. Mise à jour : 2017"}}, {"name": "Salneck", "latitude": 47.7449113, "longitude": 7.690839, "elevation": 652.0, "source": "osm", "_tags": {"ele": "652", "name": "Salneck", "natural": "peak"}}, {"name": "Blomd", "latitude": 47.4478506, "longitude": 7.7234418, "elevation": 551.0, "source": "osm", "_tags": {"ele": "551", "name": "Blomd", "natural": "peak"}}, {"name": "Chleckenberg", "latitude": 47.4427574, "longitude": 7.6986033, "elevation": 544.0, "source": "osm", "_tags": {"ele": "544", "name": "Chleckenberg", "natural": "peak"}}, {"name": "Horn", "latitude": 47.442802, "longitude": 7.6695734, "elevation": 631.0, "source": "osm", "_tags": {"ele": "631", "name": "Horn", "natural": "peak"}}, {"name": "Uf Berg", "latitude": 47.4704871, "longitude": 7.7261278, "elevation": 483.0, "source": "osm", "_tags": {"ele": "483", "name": "Uf Berg", "natural": "peak"}}, {"name": "Galmshöchi", "latitude": 47.4627525, "longitude": 7.7504187, "elevation": 513.0, "source": "osm", "_tags": {"ele": "513", "name": "Galmshöchi", "natural": "peak"}}, {"name": "Spitzenberg", "latitude": 47.4580451, "longitude": 7.7920752, "elevation": 609.0, "source": "osm", "_tags": {"ele": "609", "name": "Spitzenberg", "natural": "peak"}}, {"name": "Heidelberg", "latitude": 47.8972143, "longitude": 7.1970935, "elevation": 550.0, "source": "osm", "_tags": {"ele": "550", "name": "Heidelberg", "natural": "peak"}}, {"name": "Birkenrain", "latitude": 47.9288915, "longitude": 7.2069285, "elevation": 582.0, "source": "osm", "_tags": {"ele": "582", "name": "Birkenrain", "natural": "peak"}}, {"name": "", "latitude": 47.9190561, "longitude": 7.2230003, "elevation": 586.0, "source": "osm", "_tags": {"ele": "586", "natural": "peak"}}, {"name": "Luspelkopf", "latitude": 47.9083829, "longitude": 7.1943764, "elevation": 483.0, "source": "osm", "_tags": {"ele": "483", "name": "Luspelkopf", "natural": "peak"}}, {"name": "Eichenberg", "latitude": 47.4407386, "longitude": 7.6265771, "elevation": 644.0, "source": "osm", "_tags": {"ele": "644", "name": "Eichenberg", "natural": "peak"}}, {"name": "Baslerholz", "latitude": 47.447446, "longitude": 7.6268177, "elevation": 653.0, "source": "osm", "_tags": {"ele": "653", "name": "Baslerholz", "natural": "peak"}}, {"name": "Bürenflue", "latitude": 47.4590619, "longitude": 7.6661462, "elevation": 727.0, "source": "osm", "_tags": {"ele": "727", "name": "Bürenflue", "natural": "peak"}}, {"name": "Spitzenflüeli", "latitude": 47.4608189, "longitude": 7.6714862, "elevation": 708.0, "source": "osm", "_tags": {"ele": "708", "name": "Spitzenflüeli", "natural": "peak"}}, {"name": "Remischberg", "latitude": 47.4509334, "longitude": 7.6930974, "elevation": 497.0, "source": "osm", "_tags": {"ele": "497", "name": "Remischberg", "natural": "peak"}}, {"name": "", "latitude": 47.7447028, "longitude": 6.9558084, "elevation": 645.0, "source": "osm", "_tags": {"ele": "645", "fixme": "A confirmer", "natural": "peak", "source": "GPS"}}, {"name": "Tête du Chariot", "latitude": 48.313284, "longitude": 7.0082576, "elevation": 888.0, "source": "osm", "_tags": {"ele": "888", "name": "Tête du Chariot", "natural": "peak"}}, {"name": "Etzenbacher Höhe", "latitude": 47.8773638, "longitude": 7.7617668, "elevation": 725.0, "source": "osm", "_tags": {"ele": "725", "name": "Etzenbacher Höhe", "natural": "peak", "source:name": "maps4bw (LGL, www.lgl-bw.de);Mapbox Satellite", "wikidata": "Q31547736"}}, {"name": "", "latitude": 47.7516055, "longitude": 6.972388, "elevation": 791.0, "source": "osm", "_tags": {"ele": "791", "natural": "peak", "source": "gps;survey"}}, {"name": "Le Montori", "latitude": 47.754215, "longitude": 6.9705875, "elevation": 807.0, "source": "osm", "_tags": {"ele": "807", "name": "Le Montori", "name:de": "Montori", "natural": "peak"}}, {"name": "", "latitude": 47.7550569, "longitude": 6.9684788, "elevation": 821.0, "source": "osm", "_tags": {"ele": "821", "natural": "peak"}}, {"name": "", "latitude": 47.7594551, "longitude": 6.9574664, "elevation": 897.0, "source": "osm", "_tags": {"ele": "897", "natural": "peak"}}, {"name": "", "latitude": 47.7650745, "longitude": 6.9468423, "elevation": 916.0, "source": "osm", "_tags": {"ele": "916", "natural": "peak"}}, {"name": "", "latitude": 47.7644501, "longitude": 6.9521227, "elevation": 922.0, "source": "osm", "_tags": {"ele": "922", "natural": "peak"}}, {"name": "Laitschenbacher Kopf", "latitude": 47.874616, "longitude": 7.7946174, "elevation": 769.0, "source": "osm", "_tags": {"ele": "769", "name": "Laitschenbacher Kopf", "natural": "peak"}}, {"name": "Tête Sem", "latitude": 47.7587242, "longitude": 6.9291775, "elevation": 799.0, "source": "osm", "_tags": {"ele": "799", "name": "Tête Sem", "natural": "peak", "note": "La mesure d'altitude au GPS correspond à l'altitude notée sur les cartes traditionnelles", "source": "IGN BDTOPO 2022-03-15", "source:ele": "IGN RGEALTI 2020-09-18 (Lidar)"}}, {"name": "Ballon de St-Nicolas", "latitude": 47.7696988, "longitude": 6.931365, "elevation": 1039.0, "source": "osm", "_tags": {"ele": "1039", "name": "Ballon de St-Nicolas", "name:de": "Feldberg", "natural": "peak", "source": "IGN BDTOPO 2022-03-15", "source:ele": "IGN RGEALTI 2020-09-18 (Lidar)"}}, {"name": "Le Haquin", "latitude": 47.7579763, "longitude": 6.9213845, "elevation": 834.0, "source": "osm", "_tags": {"ele": "834", "name": "Le Haquin", "natural": "peak", "source": "IGN BDTOPO 2022-03-15", "source:ele": "IGN RGEALTI 2020-09-18 (Lidar)"}}, {"name": "", "latitude": 48.0899931, "longitude": 7.1522007, "elevation": 945.0, "source": "osm", "_tags": {"ele": "945", "natural": "peak"}}, {"name": "Rain des Chênes", "latitude": 48.1057563, "longitude": 7.1563593, "elevation": 884.0, "source": "osm", "_tags": {"ele": "884", "name": "Rain des Chênes", "name:de": "Eichenrain", "natural": "peak"}}, {"name": "", "latitude": 47.7520146, "longitude": 6.9226404, "elevation": 737.0, "source": "osm", "_tags": {"ele": "737", "natural": "peak"}}, {"name": "Tête Le Moine", "latitude": 47.7444134, "longitude": 6.9256041, "elevation": 785.0, "source": "osm", "_tags": {"ele": "785", "name": "Tête Le Moine", "natural": "peak"}}, {"name": "Le Clochet", "latitude": 47.7506733, "longitude": 6.9311619, "elevation": 657.0, "source": "osm", "_tags": {"ele": "657", "name": "Le Clochet", "natural": "peak", "source": "IGN BDTOPO 2022-03-15", "source:ele": "IGN RGEALTI 2020-09-18 (Lidar)"}}, {"name": "Schöneberg", "latitude": 47.527412, "longitude": 7.8622796, "elevation": 598.0, "source": "osm", "_tags": {"ele": "598", "name": "Schöneberg", "natural": "peak"}}, {"name": "Rehhagkopf", "latitude": 47.9671909, "longitude": 7.8826206, "elevation": 757.0, "source": "osm", "_tags": {"ele": "757", "name": "Rehhagkopf", "natural": "peak"}}, {"name": "Brombergkopf", "latitude": 47.9739311, "longitude": 7.8648652, "elevation": 607.0, "source": "osm", "_tags": {"ele": "607", "name": "Brombergkopf", "natural": "peak", "summit:cross": "no", "summit:register": "no", "wikidata": "Q31560393"}}, {"name": "Bleichendobelkopf", "latitude": 47.9723961, "longitude": 7.8734054, "elevation": 649.0, "source": "osm", "_tags": {"ele": "649", "name": "Bleichendobelkopf", "natural": "peak"}}, {"name": "Hintere Ebene", "latitude": 47.5040816, "longitude": 7.6420169, "elevation": 607.0, "source": "osm", "_tags": {"ele": "607", "name": "Hintere Ebene", "natural": "peak"}}, {"name": "Rasinakopf", "latitude": 47.7777042, "longitude": 7.7256461, "elevation": 888.0, "source": "osm", "_tags": {"addr:city": "Marzell", "alt_name": "Hürrnenköpfle", "ele": "888", "name": "Rasinakopf", "natural": "peak", "source": "Historische Gemarkungspläne leo-bw.de (validiert);Historische Messtischblätter TK25 (validiert);A(lbert) Eisele „Vordeutsche Flurnamen um Badenweiler“. Der „Rasinakopf“ der gar nicht so heißt. In: Die Markgrafschaft Heft 6/1956 S. 12"}}, {"name": "", "latitude": 47.7288612, "longitude": 6.9615832, "elevation": 519.0, "source": "osm", "_tags": {"ele": "519", "natural": "peak", "source": "gps"}}, {"name": "", "latitude": 47.7267243, "longitude": 6.9547256, "elevation": 520.0, "source": "osm", "_tags": {"ele": "520", "natural": "peak"}}, {"name": "Mont Bouillon", "latitude": 47.7254365, "longitude": 6.9505343, "elevation": 521.0, "source": "osm", "_tags": {"ele": "521", "name": "Mont Bouillon", "natural": "peak", "source": "IGN BDTOPO 2022-03-15", "source:ele": "IGN RGEALTI 2020-09-18 (Lidar)"}}, {"name": "Glümerhöhe", "latitude": 47.9824634, "longitude": 7.8713648, "elevation": 425.0, "source": "osm", "_tags": {"ele": "425", "name": "Glümerhöhe", "natural": "peak"}}, {"name": "", "latitude": 47.6969642, "longitude": 6.894107, "elevation": 420.0, "source": "osm", "_tags": {"ele": "420", "natural": "peak", "source": "gps"}}, {"name": "", "latitude": 47.6951279, "longitude": 6.9181627, "elevation": 510.0, "source": "osm", "_tags": {"ele": "510", "natural": "peak", "source": "gps"}}, {"name": "Mont Bonnet", "latitude": 47.7263166, "longitude": 6.9327156, "elevation": 568.0, "source": "osm", "_tags": {"ele": "568", "name": "Mont Bonnet", "natural": "peak", "source": "IGN BDTOPO 2022-03-15", "source:ele": "IGN RGEALTI 2020-09-18 (Lidar)"}}, {"name": "Le Montanjus", "latitude": 47.7177228, "longitude": 6.9170443, "elevation": 528.0, "source": "osm", "_tags": {"ele": "528", "name": "Le Montanjus", "natural": "peak", "source": "IGN BDTOPO 2022-03-15", "source:ele": "IGN RGEALTI 2020-09-18 (Lidar)"}}, {"name": "", "latitude": 47.7294757, "longitude": 6.9259141, "elevation": 515.0, "source": "osm", "_tags": {"ele": "515", "natural": "peak"}}, {"name": "La Brosse", "latitude": 47.7315035, "longitude": 6.9331714, "elevation": 578.0, "source": "osm", "_tags": {"ele": "578", "name": "La Brosse", "natural": "peak"}}, {"name": "Tête de Raves", "latitude": 48.3126845, "longitude": 7.0330614, "elevation": 874.0, "source": "osm", "_tags": {"ele": "874", "name": "Tête de Raves", "natural": "peak"}}, {"name": "Horber Felsen", "latitude": 47.9487794, "longitude": 7.8819477, "elevation": null, "source": "osm", "_tags": {"name": "Horber Felsen", "natural": "peak"}}, {"name": "", "latitude": 47.7726026, "longitude": 6.9035702, "elevation": 955.0, "source": "osm", "_tags": {"ele": "955", "natural": "peak"}}, {"name": "", "latitude": 47.777632, "longitude": 6.9069897, "elevation": 1075.0, "source": "osm", "_tags": {"ele": "1075", "natural": "peak"}}, {"name": "", "latitude": 47.7806084, "longitude": 6.8867346, "elevation": 976.0, "source": "osm", "_tags": {"ele": "976", "natural": "peak"}}, {"name": "", "latitude": 47.7677675, "longitude": 6.895391, "elevation": 719.0, "source": "osm", "_tags": {"ele": "719", "natural": "peak"}}, {"name": "Ballon Gunon", "latitude": 47.7671271, "longitude": 6.9056319, "elevation": 916.0, "source": "osm", "_tags": {"ele": "916", "name": "Ballon Gunon", "natural": "peak", "source": "IGN BDTOPO 2022-03-15", "source:ele": "IGN RGEALTI 2020-09-18 (Lidar)"}}, {"name": "Horn", "latitude": 47.5021905, "longitude": 7.6725942, "elevation": 647.0, "source": "osm", "_tags": {"ele": "647", "name": "Horn", "natural": "peak"}}, {"name": "Le Fayé", "latitude": 47.7401364, "longitude": 6.8967578, "elevation": 916.0, "source": "osm", "_tags": {"ele": "916", "name": "Le Fayé", "natural": "peak", "source": "IGN BDTOPO 2022-03-15", "source:ele": "IGN RGEALTI 2020-09-18 (Lidar)", "wikidata": "Q16635952"}}, {"name": "", "latitude": 47.7754129, "longitude": 6.8901882, "elevation": 976.0, "source": "osm", "_tags": {"ele": "976", "natural": "peak"}}, {"name": "Gazon du Faing", "latitude": 48.1139152, "longitude": 7.0794376, "elevation": 1306.0, "source": "osm", "_tags": {"ele": "1306", "name": "Gazon du Faing", "natural": "peak"}}, {"name": "", "latitude": 47.7493578, "longitude": 6.8902749, "elevation": 902.0, "source": "osm", "_tags": {"ele": "902", "natural": "peak"}}, {"name": "Le Faré", "latitude": 47.6906712, "longitude": 6.9276397, "elevation": 458.0, "source": "osm", "_tags": {"ele": "458", "name": "Le Faré", "natural": "peak"}}, {"name": "", "latitude": 47.7514319, "longitude": 6.8978012, "elevation": 837.0, "source": "osm", "_tags": {"ele": "837", "natural": "peak"}}, {"name": "Le Sudelkopf", "latitude": 47.8858124, "longitude": 7.1308672, "elevation": 1012.0, "source": "osm", "_tags": {"ele": "1012", "name": "Le Sudelkopf", "name:de": "Sudelkopf", "natural": "peak", "wikidata": "Q17405130"}}, {"name": "Thierenbachkopf", "latitude": 47.884744, "longitude": 7.1630806, "elevation": 836.0, "source": "osm", "_tags": {"ele": "836", "name": "Thierenbachkopf", "natural": "peak"}}, {"name": "Roche Dure - Hartfelsen", "latitude": 47.8724076, "longitude": 7.145201, "elevation": 731.0, "source": "osm", "_tags": {"ele": "731", "name": "Roche Dure - Hartfelsen", "natural": "peak"}}, {"name": "Buchberg", "latitude": 47.7825749, "longitude": 7.0256429, "elevation": 759.0, "source": "osm", "_tags": {"ele": "759", "name": "Buchberg", "natural": "peak", "source": "GPS"}}, {"name": "Schneckenberg", "latitude": 48.1005329, "longitude": 7.6611242, "elevation": null, "source": "osm", "_tags": {"name": "Schneckenberg", "natural": "peak"}}, {"name": "Schützenebnetchopf", "latitude": 47.4405519, "longitude": 7.4418449, "elevation": 742.0, "source": "osm", "_tags": {"ele": "742", "name": "Schützenebnetchopf", "natural": "peak"}}, {"name": "Amsberg", "latitude": 47.4368894, "longitude": 7.4151, "elevation": 731.0, "source": "osm", "_tags": {"ele": "731", "name": "Amsberg", "natural": "peak"}}, {"name": "Hörnlichopf", "latitude": 47.4432386, "longitude": 7.4506756, "elevation": 715.0, "source": "osm", "_tags": {"ele": "715", "name": "Hörnlichopf", "natural": "peak"}}, {"name": "Forstberg", "latitude": 47.4486525, "longitude": 7.4663919, "elevation": 809.0, "source": "osm", "_tags": {"ele": "809", "name": "Forstberg", "natural": "peak"}}, {"name": "Hofstettenspitz", "latitude": 47.4592314, "longitude": 7.5020118, "elevation": 824.0, "source": "osm", "_tags": {"ele": "824", "name": "Hofstettenspitz", "natural": "peak"}}, {"name": "Blaueberg", "latitude": 47.4604139, "longitude": 7.514656, "elevation": 837.0, "source": "osm", "_tags": {"ele": "837", "name": "Blaueberg", "natural": "peak"}}, {"name": "Kohlberg", "latitude": 47.5754328, "longitude": 7.1537196, "elevation": 400.0, "source": "osm", "_tags": {"ele": "400", "name": "Kohlberg", "natural": "peak"}}, {"name": "Blauenberg", "latitude": 47.4439664, "longitude": 7.3704578, "elevation": 673.0, "source": "osm", "_tags": {"ele": "673", "name": "Blauenberg", "natural": "peak", "source": "Direction Générale des Finances Publiques - cadastre", "source:date": "2018"}}, {"name": "Moosmattenberg", "latitude": 47.435378, "longitude": 7.3799227, "elevation": 604.0, "source": "osm", "_tags": {"ele": "604", "name": "Moosmattenberg", "natural": "peak", "source": "Direction Générale des Finances Publiques - cadastre", "source:date": "2018"}}, {"name": "Schwardchopf", "latitude": 47.4862111, "longitude": 7.7911526, "elevation": 657.0, "source": "osm", "_tags": {"ele": "657", "name": "Schwardchopf", "natural": "peak"}}, {"name": "Grammet", "latitude": 47.4851531, "longitude": 7.7699116, "elevation": 589.0, "source": "osm", "_tags": {"ele": "589", "name": "Grammet", "natural": "peak"}}, {"name": "Lindenstock", "latitude": 47.4945993, "longitude": 7.7501832, "elevation": 571.0, "source": "osm", "_tags": {"ele": "571", "name": "Lindenstock", "natural": "peak"}}, {"name": "Pfaffenlochberg", "latitude": 48.0733053, "longitude": 7.6158596, "elevation": 289.0, "source": "osm", "_tags": {"ele": "289", "name": "Pfaffenlochberg", "natural": "peak"}}, {"name": "Büchsenberg", "latitude": 48.0700312, "longitude": 7.6097077, "elevation": 284.0, "source": "osm", "_tags": {"ele": "284", "name": "Büchsenberg", "natural": "peak"}}, {"name": "Mittelberg", "latitude": 48.0778756, "longitude": 7.620392, "elevation": 258.0, "source": "osm", "_tags": {"ele": "258", "name": "Mittelberg", "natural": "peak"}}, {"name": "Schneckenberg", "latitude": 48.0717868, "longitude": 7.632233, "elevation": 352.0, "source": "osm", "_tags": {"ele": "352", "name": "Schneckenberg", "natural": "peak"}}, {"name": "Hochbuck", "latitude": 48.0599384, "longitude": 7.6251258, "elevation": 375.0, "source": "osm", "_tags": {"ele": "375", "name": "Hochbuck", "natural": "peak", "wikidata": "Q30725000"}}, {"name": "Böselsberg", "latitude": 48.0563374, "longitude": 7.6787092, "elevation": 340.0, "source": "osm", "_tags": {"ele": "340", "name": "Böselsberg", "natural": "peak"}}, {"name": "Ohrberg", "latitude": 48.1050857, "longitude": 7.6928779, "elevation": 427.0, "source": "osm", "_tags": {"ele": "427", "name": "Ohrberg", "natural": "peak"}}, {"name": "Brunneberg", "latitude": 47.4544194, "longitude": 7.468409, "elevation": 875.0, "source": "osm", "_tags": {"ele": "875", "name": "Brunneberg", "natural": "peak"}}, {"name": "Hard", "latitude": 47.437098, "longitude": 7.4340493, "elevation": 725.0, "source": "osm", "_tags": {"ele": "725", "name": "Hard", "natural": "peak"}}, {"name": "Remel", "latitude": 47.4453829, "longitude": 7.4202398, "elevation": 832.0, "source": "osm", "_tags": {"ele": "832", "name": "Remel", "name:fr": "Raemelspitz", "natural": "peak"}}, {"name": "Chuenisberg", "latitude": 47.4576058, "longitude": 7.5538255, "elevation": 634.0, "source": "osm", "_tags": {"ele": "634", "name": "Chuenisberg", "natural": "peak"}}, {"name": "Eggflue", "latitude": 47.4500233, "longitude": 7.5777666, "elevation": 688.0, "source": "osm", "_tags": {"ele": "688", "name": "Eggflue", "natural": "peak", "wikidata": "Q1297653"}}, {"name": "Schlimmberg", "latitude": 47.4586223, "longitude": 7.678774, "elevation": 691.0, "source": "osm", "_tags": {"ele": "691", "name": "Schlimmberg", "natural": "peak"}}, {"name": "Bärglen", "latitude": 47.4627833, "longitude": 7.6380344, "elevation": 692.0, "source": "osm", "_tags": {"ele": "692", "name": "Bärglen", "natural": "peak"}}, {"name": "Eichenberg", "latitude": 47.4678092, "longitude": 7.6437827, "elevation": 700.0, "source": "osm", "_tags": {"ele": "700", "name": "Eichenberg", "natural": "peak"}}, {"name": "Disliberg", "latitude": 47.4796762, "longitude": 7.6701574, "elevation": 695.0, "source": "osm", "_tags": {"ele": "695", "name": "Disliberg", "natural": "peak"}}, {"name": "Ebeni", "latitude": 47.4568288, "longitude": 7.77872, "elevation": 578.0, "source": "osm", "_tags": {"ele": "578", "name": "Ebeni", "natural": "peak"}}, {"name": "Berg", "latitude": 47.4449127, "longitude": 7.8583674, "elevation": 614.0, "source": "osm", "_tags": {"ele": "614", "name": "Berg", "natural": "peak"}}, {"name": "Schlegel", "latitude": 47.4980265, "longitude": 7.8839162, "elevation": 610.0, "source": "osm", "_tags": {"ele": "610", "name": "Schlegel", "natural": "peak"}}, {"name": "Rugen", "latitude": 47.5057318, "longitude": 7.8731105, "elevation": 536.0, "source": "osm", "_tags": {"ele": "536", "name": "Rugen", "natural": "peak"}}, {"name": "Chopfhölzli", "latitude": 47.4943402, "longitude": 7.8740315, "elevation": 678.0, "source": "osm", "_tags": {"ele": "678", "name": "Chopfhölzli", "natural": "peak"}}, {"name": "Stockenrain", "latitude": 47.4343984, "longitude": 7.8182613, "elevation": 580.0, "source": "osm", "_tags": {"ele": "580", "name": "Stockenrain", "natural": "peak"}}, {"name": "Haut de Felsach", "latitude": 47.9308063, "longitude": 6.9258863, "elevation": 1161.0, "source": "osm", "_tags": {"ele": "1161", "name": "Haut de Felsach", "natural": "peak", "wikidata": "Q31664002"}}, {"name": "Landschachenchöpfli", "latitude": 47.4574926, "longitude": 7.7551953, "elevation": 538.0, "source": "osm", "_tags": {"ele": "538", "name": "Landschachenchöpfli", "natural": "peak"}}, {"name": "Ächerlichopf", "latitude": 47.4602875, "longitude": 7.7634271, "elevation": 516.0, "source": "osm", "_tags": {"ele": "516", "name": "Ächerlichopf", "natural": "peak"}}, {"name": "Wuesthübel", "latitude": 47.4313793, "longitude": 7.7617834, "elevation": 561.0, "source": "osm", "_tags": {"ele": "561", "name": "Wuesthübel", "natural": "peak"}}, {"name": "Imschberg", "latitude": 47.4372877, "longitude": 7.7513991, "elevation": 544.0, "source": "osm", "_tags": {"ele": "544", "name": "Imschberg", "natural": "peak"}}, {"name": "Murenberg", "latitude": 47.4383155, "longitude": 7.7417707, "elevation": 531.0, "source": "osm", "_tags": {"ele": "531", "name": "Murenberg", "natural": "peak"}}, {"name": "Blauenstein", "latitude": 47.4314783, "longitude": 7.4164068, "elevation": 607.0, "source": "osm", "_tags": {"ele": "607", "name": "Blauenstein", "natural": "peak"}}, {"name": "Naegeliberg", "latitude": 47.4416018, "longitude": 7.3896905, "elevation": 694.0, "source": "osm", "_tags": {"ele": "694", "name": "Naegeliberg", "name:de": "Nägeliberg", "natural": "peak"}}, {"name": "Hilsenfirst", "latitude": 47.9644484, "longitude": 7.0850175, "elevation": 1274.0, "source": "osm", "_tags": {"ele": "1274", "name": "Hilsenfirst", "natural": "peak", "wikidata": "Q19365608"}}, {"name": "Langenfeldkopf", "latitude": 47.9559605, "longitude": 7.0813466, "elevation": 1290.0, "source": "osm", "_tags": {"ele": "1290", "name": "Langenfeldkopf", "name:de": "Langenfeldkopf", "natural": "peak"}}, {"name": "Spitzkopf", "latitude": 47.9514969, "longitude": 7.0709679, "elevation": 1281.0, "source": "osm", "_tags": {"ele": "1281", "name": "Spitzkopf", "name:de": "Spitzkopf", "natural": "peak"}}, {"name": "Wirbelkopf", "latitude": 47.9532637, "longitude": 7.0779369, "elevation": 1253.0, "source": "osm", "_tags": {"ele": "1253", "name": "Wirbelkopf", "name:de": "Wirbelkopf", "natural": "peak"}}, {"name": "Steinmauer", "latitude": 47.9752253, "longitude": 7.1081951, "elevation": 1232.0, "source": "osm", "_tags": {"ele": "1232", "name": "Steinmauer", "natural": "peak"}}, {"name": "Le Solberg", "latitude": 48.0220448, "longitude": 7.1347315, "elevation": 785.0, "source": "osm", "_tags": {"ele": "785", "name": "Le Solberg", "name:de": "Solberg", "natural": "peak"}}, {"name": "Geisbachkopf", "latitude": 48.0154522, "longitude": 7.1194668, "elevation": null, "source": "osm", "_tags": {"name": "Geisbachkopf", "natural": "peak"}}, {"name": "Le Steinberg", "latitude": 47.9909913, "longitude": 7.114722, "elevation": 1177.0, "source": "osm", "_tags": {"ele": "1177", "name": "Le Steinberg", "name:de": "Steinberg", "natural": "peak", "wikidata": "Q31663735"}}, {"name": "Rundkopf", "latitude": 47.9806489, "longitude": 7.1590811, "elevation": 943.0, "source": "osm", "_tags": {"ele": "943", "name": "Rundkopf", "natural": "peak"}}, {"name": "Pfaffenheimerkopf", "latitude": 48.0112405, "longitude": 7.2066715, "elevation": 843.0, "source": "osm", "_tags": {"ele": "843", "name": "Pfaffenheimerkopf", "natural": "peak"}}, {"name": "Ehrbergkopf", "latitude": 48.0689468, "longitude": 7.2709104, "elevation": 509.0, "source": "osm", "_tags": {"ele": "509", "name": "Ehrbergkopf", "natural": "peak"}}, {"name": "Dornsilkopf", "latitude": 47.9724367, "longitude": 7.1537859, "elevation": 981.0, "source": "osm", "_tags": {"ele": "981", "name": "Dornsilkopf", "natural": "peak"}}, {"name": "Engelstein", "latitude": 47.9563274, "longitude": 7.1782603, "elevation": 683.0, "source": "osm", "_tags": {"ele": "683", "name": "Engelstein", "natural": "peak"}}, {"name": "Uhlsberg", "latitude": 48.2970612, "longitude": 7.8635242, "elevation": 344.0, "source": "osm", "_tags": {"ele": "344", "name": "Uhlsberg", "natural": "peak", "source": "Landesamt für Geoinformation und Landentwicklung Baden-Württemberg", "wikidata": "Q31566433"}}, {"name": "Eichberg", "latitude": 48.2949736, "longitude": 7.8490351, "elevation": 320.0, "source": "osm", "_tags": {"ele": "320", "name": "Eichberg", "natural": "peak", "source": "Landesamt für Geoinformation und Landentwicklung Baden-Württemberg", "wikidata": "Q31566449"}}, {"name": "Schindlenbühl", "latitude": 48.2584046, "longitude": 7.8755097, "elevation": 488.0, "source": "osm", "_tags": {"ele": "488", "name": "Schindlenbühl", "natural": "peak", "source": "Top50 LGL BW", "wikidata": "Q31566401"}}, {"name": "Scheibenbuck", "latitude": 48.1746919, "longitude": 7.8162322, "elevation": 281.0, "source": "osm", "_tags": {"ele": "281", "name": "Scheibenbuck", "natural": "peak", "source": "Top50 LGL BW"}}, {"name": "Erzbuck", "latitude": 48.1953237, "longitude": 7.8553007, "elevation": 450.0, "source": "osm", "_tags": {"ele": "450", "name": "Erzbuck", "natural": "peak", "source": "Top50 LGL BW"}}, {"name": "Hoher First", "latitude": 48.2150848, "longitude": 7.8756173, "elevation": 468.0, "source": "osm", "_tags": {"ele": "468", "name": "Hoher First", "natural": "peak", "source": "Top50 LGL BW"}}, {"name": "Schneckenberg", "latitude": 48.1694214, "longitude": 7.7960802, "elevation": 261.0, "source": "osm", "_tags": {"ele": "261", "name": "Schneckenberg", "natural": "peak", "source": "Top50 LGL BW"}}, {"name": "Vögelisberg", "latitude": 48.167091, "longitude": 7.8212106, "elevation": 320.0, "source": "osm", "_tags": {"ele": "320", "name": "Vögelisberg", "natural": "peak", "source": "Top50 LGL BW"}}, {"name": "Fronberg", "latitude": 48.1707919, "longitude": 7.8284896, "elevation": 294.0, "source": "osm", "_tags": {"ele": "294", "name": "Fronberg", "natural": "peak", "source": "Top50 LGL BW"}}, {"name": "Schlossberg", "latitude": 47.7544009, "longitude": 7.0157093, "elevation": null, "source": "osm", "_tags": {"name": "Schlossberg", "natural": "peak", "source": "Direction Générale des Finances Publiques - cadastre", "source:date": "2019"}}, {"name": "Petit Brézouard", "latitude": 48.1944055, "longitude": 7.1559974, "elevation": 1203.0, "source": "osm", "_tags": {"ele": "1203", "name": "Petit Brézouard", "natural": "peak", "summit:register": "no", "tourism": "viewpoint", "wheelchair": "no"}}, {"name": "Bruckenberg", "latitude": 47.8102472, "longitude": 6.9492656, "elevation": null, "source": "osm", "_tags": {"name": "Bruckenberg", "name:de": "Brückenberg", "natural": "peak", "source": "Direction Générale des Finances Publiques - cadastre", "source:date": "2019"}}, {"name": "Schopfersberg", "latitude": 47.8031351, "longitude": 6.9236183, "elevation": null, "source": "osm", "_tags": {"name": "Schopfersberg", "natural": "peak", "source": "Direction Générale des Finances Publiques - cadastre", "source:date": "2019"}}, {"name": "Eichberg", "latitude": 48.0962518, "longitude": 7.6251716, "elevation": 269.0, "source": "osm", "_tags": {"ele": "269", "name": "Eichberg", "natural": "peak", "source": "Top50 LGL BW"}}, {"name": "Käsleberg", "latitude": 48.1021327, "longitude": 7.6203522, "elevation": 259.0, "source": "osm", "_tags": {"ele": "259", "name": "Käsleberg", "natural": "peak", "source": "Top50 LGL BW"}}, {"name": "Humberg", "latitude": 48.1146111, "longitude": 7.5871423, "elevation": 235.0, "source": "osm", "_tags": {"ele": "235", "name": "Humberg", "natural": "peak", "source": "Top50 LGL BW"}}, {"name": "Haberberg", "latitude": 48.1095528, "longitude": 7.5969512, "elevation": 291.0, "source": "osm", "_tags": {"ele": "291", "name": "Haberberg", "natural": "peak", "source": "Top50 LGL BW"}}, {"name": "Staffelberg", "latitude": 48.109932, "longitude": 7.6640869, "elevation": 446.0, "source": "osm", "_tags": {"ele": "446", "name": "Staffelberg", "natural": "peak", "source": "Top50 LGL BW"}}, {"name": "Böhmischberg", "latitude": 48.0594524, "longitude": 7.6130699, "elevation": 274.0, "source": "osm", "_tags": {"ele": "274", "name": "Böhmischberg", "natural": "peak", "source": "Top50 LGL BW"}}, {"name": "Steingrubenberg", "latitude": 48.0814323, "longitude": 7.627081, "elevation": 306.0, "source": "osm", "_tags": {"ele": "306", "name": "Steingrubenberg", "natural": "peak", "source": "Top50 LGL BW"}}, {"name": "Mühleberg", "latitude": 48.0304231, "longitude": 7.8831888, "elevation": 403.0, "source": "osm", "_tags": {"ele": "403", "name": "Mühleberg", "natural": "peak", "source": "Top50 LGL BW"}}, {"name": "Schönbuck", "latitude": 47.9165219, "longitude": 7.796708, "elevation": 470.0, "source": "osm", "_tags": {"ele": "470", "name": "Schönbuck", "natural": "peak", "source": "Top50 LGL BW"}}, {"name": "Kohlerkopf", "latitude": 47.9220192, "longitude": 7.8285915, "elevation": 733.0, "source": "osm", "_tags": {"ele": "733", "name": "Kohlerkopf", "natural": "peak", "source": "Top50 LGL BW"}}, {"name": "", "latitude": 48.3342169, "longitude": 7.860641, "elevation": null, "source": "osm", "_tags": {"natural": "peak"}}, {"name": "Nollen", "latitude": 47.7103078, "longitude": 7.7791939, "elevation": null, "source": "osm", "_tags": {"name": "Nollen", "natural": "peak"}}, {"name": "Rosenburgkopf", "latitude": 47.8217998, "longitude": 7.1017813, "elevation": 623.0, "source": "osm", "_tags": {"ele": "623", "name": "Rosenburgkopf", "natural": "peak"}}, {"name": "Brandwaldkopf", "latitude": 47.8190406, "longitude": 7.1177459, "elevation": 644.0, "source": "osm", "_tags": {"ele": "644", "name": "Brandwaldkopf", "natural": "peak", "ref:refuges.info": "3799"}}, {"name": "Amselkopf", "latitude": 47.822313, "longitude": 7.1329192, "elevation": 614.0, "source": "osm", "_tags": {"ele": "614", "name": "Amselkopf", "natural": "peak"}}, {"name": "Kirchberg", "latitude": 47.8130176, "longitude": 7.1255779, "elevation": 466.0, "source": "osm", "_tags": {"ele": "466", "name": "Kirchberg", "natural": "peak"}}, {"name": "Rangenkopf", "latitude": 47.8146585, "longitude": 7.1155116, "elevation": 605.0, "source": "osm", "_tags": {"ele": "605", "name": "Rangenkopf", "natural": "peak", "ref:refuges.info": "3800"}}, {"name": "Notre Dame du Mont", "latitude": 47.4961139, "longitude": 7.1054085, "elevation": null, "source": "osm", "_tags": {"name": "Notre Dame du Mont", "natural": "peak"}}, {"name": "", "latitude": 47.447416, "longitude": 7.3437166, "elevation": 692.0, "source": "osm", "_tags": {"ele": "692", "natural": "peak"}}, {"name": "", "latitude": 47.4527014, "longitude": 7.3387814, "elevation": 790.0, "source": "osm", "_tags": {"ele": "790", "natural": "peak"}}, {"name": "", "latitude": 47.447543, "longitude": 7.220901, "elevation": 557.0, "source": "osm", "_tags": {"ele": "557", "natural": "peak"}}, {"name": "", "latitude": 47.4489251, "longitude": 7.2412455, "elevation": 677.0, "source": "osm", "_tags": {"ele": "677", "natural": "peak"}}, {"name": "", "latitude": 47.8493868, "longitude": 6.9197476, "elevation": 1224.0, "source": "osm", "_tags": {"ele": "1224", "natural": "peak"}}, {"name": "", "latitude": 47.84642, "longitude": 6.9073929, "elevation": 1248.0, "source": "osm", "_tags": {"ele": "1248", "natural": "peak"}}, {"name": "Sprickelsberg", "latitude": 47.7919117, "longitude": 6.9338648, "elevation": 811.0, "source": "osm", "_tags": {"ele": "811", "name": "Sprickelsberg", "natural": "peak"}}, {"name": "Häxenbödeli", "latitude": 47.454738, "longitude": 7.673019, "elevation": 588.0, "source": "osm", "_tags": {"ele": "588", "name": "Häxenbödeli", "natural": "peak"}}, {"name": "Holleberg", "latitude": 47.4864079, "longitude": 7.6318082, "elevation": 530.0, "source": "osm", "_tags": {"ele": "530", "name": "Holleberg", "natural": "peak"}}, {"name": "Gotschberg", "latitude": 47.4727808, "longitude": 7.7099577, "elevation": 450.0, "source": "osm", "_tags": {"ele": "450", "name": "Gotschberg", "natural": "peak"}}, {"name": "", "latitude": 48.2999898, "longitude": 7.3921828, "elevation": 476.0, "source": "osm", "_tags": {"ele": "476", "natural": "peak"}}, {"name": "Stockberg", "latitude": 47.7834328, "longitude": 7.7171395, "elevation": 1074.0, "source": "osm", "_tags": {"ele": "1074", "name": "Stockberg", "natural": "peak"}}, {"name": "Erzenbackopf", "latitude": 47.8346785, "longitude": 7.1031332, "elevation": 791.0, "source": "osm", "_tags": {"ele": "791", "name": "Erzenbackopf", "natural": "peak"}}, {"name": "Grumbachkopf", "latitude": 47.8286825, "longitude": 7.100864, "elevation": 674.0, "source": "osm", "_tags": {"ele": "674", "name": "Grumbachkopf", "natural": "peak", "ref:refuges.info": "3796"}}, {"name": "", "latitude": 47.8293487, "longitude": 7.1449435, "elevation": 574.0, "source": "osm", "_tags": {"ele": "574", "natural": "peak"}}, {"name": "Scheltzenburg", "latitude": 47.8265108, "longitude": 7.1480226, "elevation": 512.0, "source": "osm", "_tags": {"ele": "512", "name": "Scheltzenburg", "natural": "peak"}}, {"name": "Wolfskopf", "latitude": 47.8347433, "longitude": 7.1370685, "elevation": 784.0, "source": "osm", "_tags": {"ele": "784", "name": "Wolfskopf", "natural": "peak"}}, {"name": "Herrenstubenkopf", "latitude": 47.8296224, "longitude": 7.120235, "elevation": 770.0, "source": "osm", "_tags": {"ele": "770", "name": "Herrenstubenkopf", "natural": "peak", "ref:refuges.info": "3798"}}, {"name": "Le Haut du Grumbach", "latitude": 47.8189179, "longitude": 7.0958348, "elevation": 537.0, "source": "osm", "_tags": {"ele": "537", "name": "Le Haut du Grumbach", "natural": "peak"}}, {"name": "Glaserberg", "latitude": 47.8430537, "longitude": 7.1144843, "elevation": 921.0, "source": "osm", "_tags": {"ele": "921", "name": "Glaserberg", "natural": "peak"}}, {"name": "", "latitude": 47.8481714, "longitude": 7.1166247, "elevation": 921.0, "source": "osm", "_tags": {"ele": "921", "natural": "peak"}}, {"name": "", "latitude": 47.8423192, "longitude": 7.1323907, "elevation": 839.0, "source": "osm", "_tags": {"ele": "839", "natural": "peak"}}, {"name": "", "latitude": 47.8403533, "longitude": 7.1353519, "elevation": 811.0, "source": "osm", "_tags": {"ele": "811", "natural": "peak"}}, {"name": "Schlusselkopf", "latitude": 47.8952117, "longitude": 7.1574157, "elevation": 883.0, "source": "osm", "_tags": {"ele": "883", "name": "Schlusselkopf", "natural": "peak"}}, {"name": "", "latitude": 47.8865391, "longitude": 7.1335361, "elevation": 999.0, "source": "osm", "_tags": {"ele": "999", "natural": "peak"}}, {"name": "", "latitude": 47.8869168, "longitude": 7.1393538, "elevation": 977.0, "source": "osm", "_tags": {"ele": "977", "natural": "peak"}}, {"name": "Judenhut", "latitude": 47.9102584, "longitude": 7.114656, "elevation": 1250.0, "source": "osm", "_tags": {"ele": "1250", "name": "Judenhut", "natural": "peak"}}, {"name": "Lochbochkopf", "latitude": 47.9066697, "longitude": 7.13319, "elevation": 981.0, "source": "osm", "_tags": {"ele": "981", "name": "Lochbochkopf", "natural": "peak"}}, {"name": "Birkenfelsen", "latitude": 47.9062958, "longitude": 7.1390641, "elevation": 946.0, "source": "osm", "_tags": {"ele": "946", "name": "Birkenfelsen", "natural": "peak"}}, {"name": "Ebeneck", "latitude": 47.9097069, "longitude": 7.1497513, "elevation": 859.0, "source": "osm", "_tags": {"ele": "859", "name": "Ebeneck", "natural": "peak"}}, {"name": "", "latitude": 47.8776132, "longitude": 7.1479368, "elevation": 664.0, "source": "osm", "_tags": {"ele": "664", "natural": "peak"}}, {"name": "", "latitude": 47.8899241, "longitude": 7.1492135, "elevation": 925.0, "source": "osm", "_tags": {"ele": "925", "natural": "peak"}}, {"name": "", "latitude": 47.7016609, "longitude": 7.2644171, "elevation": 298.0, "source": "osm", "_tags": {"ele": "298", "natural": "peak"}}, {"name": "", "latitude": 47.6964565, "longitude": 7.2753578, "elevation": 302.0, "source": "osm", "_tags": {"ele": "302", "natural": "peak"}}, {"name": "Lerchenberg", "latitude": 47.69444, "longitude": 7.2558635, "elevation": 291.0, "source": "osm", "_tags": {"ele": "291", "name": "Lerchenberg", "natural": "peak"}}, {"name": "Grosskopf", "latitude": 47.697101, "longitude": 7.2346151, "elevation": 295.0, "source": "osm", "_tags": {"ele": "295", "name": "Grosskopf", "natural": "peak"}}, {"name": "", "latitude": 47.6921643, "longitude": 7.2461741, "elevation": 301.0, "source": "osm", "_tags": {"ele": "301", "natural": "peak"}}, {"name": "Grosskopf", "latitude": 47.68863, "longitude": 7.2336012, "elevation": 283.0, "source": "osm", "_tags": {"ele": "283", "name": "Grosskopf", "natural": "peak"}}, {"name": "Hahnenberg", "latitude": 48.2675837, "longitude": 7.3857022, "elevation": 532.0, "source": "osm", "_tags": {"ele": "532", "name": "Hahnenberg", "natural": "peak"}}, {"name": "Rittersberg", "latitude": 48.3039314, "longitude": 7.3932524, "elevation": 519.0, "source": "osm", "_tags": {"ele": "519", "name": "Rittersberg", "natural": "peak"}}, {"name": "Dachfirst", "latitude": 48.3212018, "longitude": 7.392854, "elevation": 681.0, "source": "osm", "_tags": {"ele": "681", "name": "Dachfirst", "natural": "peak"}}, {"name": "", "latitude": 48.0252644, "longitude": 7.8840195, "elevation": 478.0, "source": "osm", "_tags": {"ele": "478", "natural": "peak"}}, {"name": "Burberg", "latitude": 47.7126479, "longitude": 7.6871423, "elevation": 608.0, "source": "osm", "_tags": {"ele": "608", "name": "Burberg", "natural": "peak", "source": "Historische Messtischblätter TK25 (validiert)"}}, {"name": "Böscherzen", "latitude": 47.7118057, "longitude": 7.6537134, "elevation": 413.0, "source": "osm", "_tags": {"ele": "413", "name": "Böscherzen", "natural": "peak"}}, {"name": "Lichsen", "latitude": 47.7084908, "longitude": 7.6764676, "elevation": 493.0, "source": "osm", "_tags": {"ele": "493", "name": "Lichsen", "natural": "peak", "source": "LGRB-BW;Historische Messtischblätter TK25 (validiert)"}}, {"name": "Juchskopf", "latitude": 47.7028681, "longitude": 7.6809267, "elevation": 572.0, "source": "osm", "_tags": {"ele": "572", "name": "Juchskopf", "natural": "peak", "source": "historische Messtischkarten;OpenTopoMap"}}, {"name": "Friedrichstannen", "latitude": 47.716969, "longitude": 7.6938341, "elevation": 609.0, "source": "osm", "_tags": {"ele": "609", "name": "Friedrichstannen", "natural": "peak", "source": "LGRB-BW"}}, {"name": "Mohrensattel", "latitude": 47.7245088, "longitude": 7.6732223, "elevation": 556.0, "source": "osm", "_tags": {"ele": "556", "name": "Mohrensattel", "natural": "peak", "source": "Historische Messtischblätter TK25 (validiert)"}}, {"name": "Stocken", "latitude": 47.7413813, "longitude": 7.6251546, "elevation": 453.0, "source": "osm", "_tags": {"ele": "453", "name": "Stocken", "natural": "peak", "source": "Maps4BW (LGL-BW www.lgl-bw.de);Deutsches Reich 1893", "wikidata": "Q31304574"}}, {"name": "Rüttenen", "latitude": 47.7438755, "longitude": 7.6421042, "elevation": 543.0, "source": "osm", "_tags": {"ele": "543", "name": "Rüttenen", "natural": "peak", "source": "Deutsches Reich 1893"}}, {"name": "Hagschutz", "latitude": 47.7490003, "longitude": 7.6300929, "elevation": null, "source": "osm", "_tags": {"name": "Hagschutz", "natural": "peak", "source": "historische Gemarkungspläne leo-bw.de"}}, {"name": "Rüttibuck", "latitude": 47.7127961, "longitude": 7.592937, "elevation": 364.0, "source": "osm", "_tags": {"ele": "364", "name": "Rüttibuck", "natural": "peak", "source": "Deutsches Reich 1893 (validiert)"}}, {"name": "Löhle", "latitude": 47.7216329, "longitude": 7.6048383, "elevation": 438.0, "source": "osm", "_tags": {"ele": "438", "name": "Löhle", "natural": "peak", "source": "Deutsches Reich 1893 (validiert)"}}, {"name": "Hohe Schule", "latitude": 47.7185448, "longitude": 7.6112006, "elevation": 472.0, "source": "osm", "_tags": {"ele": "472", "name": "Hohe Schule", "natural": "peak", "source": "Deutsches Reich 1893 (validiert)"}}, {"name": "Hüppberg", "latitude": 47.7090226, "longitude": 7.6157284, "elevation": 375.0, "source": "osm", "_tags": {"ele": "375", "name": "Hüppberg", "natural": "peak", "source": "Deutsches Reich 1893 (validiert);historische Gemarkungspläne leo-bw.de"}}, {"name": "Schorner", "latitude": 47.7212073, "longitude": 7.6422553, "elevation": 420.0, "source": "osm", "_tags": {"ele": "420", "name": "Schorner", "natural": "peak", "source": "Deutsches Reich 1893 (validiert)"}}, {"name": "", "latitude": 47.7308306, "longitude": 7.63757, "elevation": 441.0, "source": "osm", "_tags": {"ele": "441", "natural": "peak", "source": "Deutsches Reich 1893 (validiert)"}}, {"name": "Hohfohren", "latitude": 47.7311767, "longitude": 7.6505968, "elevation": 529.0, "source": "osm", "_tags": {"ele": "529", "name": "Hohfohren", "natural": "peak", "source": "Deutsches Reich 1893 (validiert);Historische Gemarkungspläne leo-bw.de (validiert)"}}, {"name": "Bessayfels", "latitude": 47.89535, "longitude": 7.0668667, "elevation": 1044.0, "source": "osm", "_tags": {"ele": "1044", "name": "Bessayfels", "natural": "peak"}}, {"name": "Haberkopf", "latitude": 47.8910761, "longitude": 7.0525441, "elevation": 872.0, "source": "osm", "_tags": {"ele": "872", "name": "Haberkopf", "natural": "peak"}}, {"name": "", "latitude": 47.7377259, "longitude": 7.6272391, "elevation": null, "source": "osm", "_tags": {"natural": "peak"}}, {"name": "", "latitude": 47.7356628, "longitude": 7.6564787, "elevation": null, "source": "osm", "_tags": {"natural": "peak", "source": "OpenTopoMap"}}, {"name": "", "latitude": 47.7431887, "longitude": 7.6944602, "elevation": 680.0, "source": "osm", "_tags": {"ele": "680", "natural": "peak", "source": "Historische Messtischblätter TK25 (validiert)"}}, {"name": "", "latitude": 47.7261555, "longitude": 7.6982933, "elevation": 620.0, "source": "osm", "_tags": {"ele": "620", "natural": "peak", "source": "Historische Messtischblätter TK25 (validiert);OpenTopoMap"}}, {"name": "", "latitude": 47.7253741, "longitude": 7.6772105, "elevation": 556.0, "source": "osm", "_tags": {"ele": "556", "natural": "peak", "source": "Historische Messtischblätter TK25 (validiert)"}}, {"name": "", "latitude": 47.7175388, "longitude": 7.6841429, "elevation": 564.0, "source": "osm", "_tags": {"ele": "564", "natural": "peak", "source": "Historische Messtischblätter TK25 (validiert)"}}, {"name": "Sandelkopf", "latitude": 47.7113519, "longitude": 7.6992542, "elevation": 709.0, "source": "osm", "_tags": {"ele": "709", "name": "Sandelkopf", "natural": "peak", "source": "Historische Messtischblätter TK25 (validiert)"}}, {"name": "Heuberg", "latitude": 47.6956944, "longitude": 7.6666543, "elevation": 550.0, "source": "osm", "_tags": {"ele": "550", "name": "Heuberg", "natural": "peak", "source": "historische Messtischkarten;OpenTopoMap"}}, {"name": "Gugelhut", "latitude": 47.6863529, "longitude": 7.6838823, "elevation": 600.0, "source": "osm", "_tags": {"ele": "600", "name": "Gugelhut", "natural": "peak", "source": "historische Messtischkarten;OpenTopoMap"}}, {"name": "Günglert", "latitude": 47.6818961, "longitude": 7.7081252, "elevation": 580.0, "source": "osm", "_tags": {"ele": "580", "name": "Günglert", "natural": "peak", "source": "Historische Messtischblätter TK25 (validiert);OpenTopoMap"}}, {"name": "Hochstand", "latitude": 47.6789691, "longitude": 7.7018566, "elevation": 574.0, "source": "osm", "_tags": {"ele": "574", "name": "Hochstand", "natural": "peak", "source": "Historische Messtischblätter TK25 (validiert)"}}, {"name": "Grüneberg", "latitude": 47.6761183, "longitude": 7.676961, "elevation": 482.0, "source": "osm", "_tags": {"ele": "482", "name": "Grüneberg", "natural": "peak", "source": "Historische Messtischblätter TK25 (validiert);Historische Gemarkungspläne leo-bw.de (validiert via LGRB)"}}, {"name": "Buchholen", "latitude": 47.6798037, "longitude": 7.6594449, "elevation": 466.0, "source": "osm", "_tags": {"ele": "466", "name": "Buchholen", "natural": "peak", "source": "Historische Messtischblätter TK25 (validiert)"}}, {"name": "", "latitude": 47.6821286, "longitude": 7.6312753, "elevation": 371.0, "source": "osm", "_tags": {"ele": "371", "natural": "peak", "source": "Historische Messtischblätter TK25 (validiert)"}}, {"name": "Fehrbachbuck", "latitude": 47.6972444, "longitude": 7.6104347, "elevation": 314.0, "source": "osm", "_tags": {"ele": "314", "name": "Fehrbachbuck", "natural": "peak", "source": "Historische Messtischblätter TK25 (validiert)"}}, {"name": "", "latitude": 47.6899828, "longitude": 7.5784841, "elevation": 387.0, "source": "osm", "_tags": {"ele": "387", "natural": "peak", "source": "Historische Messtischblätter TK25 (validiert)"}}, {"name": "", "latitude": 47.6624156, "longitude": 7.6632522, "elevation": 420.0, "source": "osm", "_tags": {"ele": "420", "natural": "peak", "source": "Historische Messtischblätter TK25 (validiert)"}}, {"name": "", "latitude": 47.6630601, "longitude": 7.6717428, "elevation": 430.0, "source": "osm", "_tags": {"ele": "430", "natural": "peak", "source": "Historische Messtischblätter TK25 (validiert)"}}, {"name": "", "latitude": 47.659961, "longitude": 7.6830575, "elevation": 482.0, "source": "osm", "_tags": {"ele": "482", "natural": "peak", "source": "Historische Messtischblätter TK25 (validiert);OpenTopoMap"}}, {"name": "Berg", "latitude": 47.6491198, "longitude": 7.6835893, "elevation": 445.0, "source": "osm", "_tags": {"ele": "445", "name": "Berg", "natural": "peak", "source": "Historische Messtischblätter TK25 (validiert)"}}, {"name": "Lingert", "latitude": 47.6439926, "longitude": 7.6860765, "elevation": 429.0, "source": "osm", "_tags": {"ele": "429", "name": "Lingert", "natural": "peak", "source": "Historische Messtischblätter TK25 (validiert)"}}, {"name": "Welschenberg", "latitude": 47.7001157, "longitude": 7.3467797, "elevation": 371.0, "source": "osm", "_tags": {"ele": "371", "name": "Welschenberg", "natural": "peak"}}, {"name": "Lerchenberg", "latitude": 47.6930246, "longitude": 7.3511839, "elevation": 374.0, "source": "osm", "_tags": {"ele": "374", "name": "Lerchenberg", "natural": "peak"}}, {"name": "", "latitude": 47.673696, "longitude": 7.3279881, "elevation": 397.0, "source": "osm", "_tags": {"ele": "397", "natural": "peak"}}, {"name": "", "latitude": 47.6818154, "longitude": 7.303226, "elevation": 342.0, "source": "osm", "_tags": {"ele": "342", "natural": "peak"}}, {"name": "Hinterberg", "latitude": 47.6847768, "longitude": 7.3035264, "elevation": 331.0, "source": "osm", "_tags": {"ele": "331", "name": "Hinterberg", "natural": "peak"}}, {"name": "Lilienberg", "latitude": 47.6561669, "longitude": 7.3129678, "elevation": 369.0, "source": "osm", "_tags": {"ele": "369", "name": "Lilienberg", "natural": "peak"}}, {"name": "Altenberg", "latitude": 47.6678042, "longitude": 7.3205584, "elevation": 403.0, "source": "osm", "_tags": {"ele": "403", "name": "Altenberg", "natural": "peak"}}, {"name": "Britzgyberg", "latitude": 47.678341, "longitude": 7.2831094, "elevation": 382.0, "source": "osm", "_tags": {"ele": "382", "name": "Britzgyberg", "natural": "peak"}}, {"name": "", "latitude": 47.6850296, "longitude": 7.2839302, "elevation": 352.0, "source": "osm", "_tags": {"ele": "352", "natural": "peak"}}, {"name": "Beim alten Schloss", "latitude": 47.7972394, "longitude": 7.7002026, "elevation": 716.0, "source": "osm", "_tags": {"ele": "716", "name": "Beim alten Schloss", "natural": "peak", "source": "Historische Messtischblätter TK25 (validiert)"}}, {"name": "Rütenechöpfli", "latitude": 47.4728804, "longitude": 7.5374365, "elevation": 496.0, "source": "osm", "_tags": {"ele": "496", "name": "Rütenechöpfli", "natural": "peak"}}, {"name": "", "latitude": 47.6700518, "longitude": 7.6211218, "elevation": null, "source": "osm", "_tags": {"natural": "peak", "source": "Historische Messtischblätter TK25 (validiert)"}}, {"name": "Läufelberg", "latitude": 47.6580124, "longitude": 7.607023, "elevation": 393.0, "source": "osm", "_tags": {"ele": "393", "name": "Läufelberg", "natural": "peak", "source": "Historische Messtischblätter TK25 (validiert)", "wikidata": "Q31319655"}}, {"name": "Reckholder", "latitude": 47.6558433, "longitude": 7.6005619, "elevation": 354.0, "source": "osm", "_tags": {"ele": "354", "name": "Reckholder", "natural": "peak", "source": "Historische Messtischblätter TK25 (validiert)"}}, {"name": "Katzenberg", "latitude": 47.6784576, "longitude": 7.5816834, "elevation": 397.0, "source": "osm", "_tags": {"ele": "397", "name": "Katzenberg", "natural": "peak", "source": "Historische Messtischblätter TK25 (validiert)"}}, {"name": "Schafberg", "latitude": 47.6623452, "longitude": 7.5531966, "elevation": 387.0, "source": "osm", "_tags": {"ele": "387", "name": "Schafberg", "natural": "peak", "source": "Historische Messtischblätter TK25 (validiert)", "wikidata": "Q31335874"}}, {"name": "", "latitude": 47.7463355, "longitude": 7.6769546, "elevation": 635.0, "source": "osm", "_tags": {"ele": "635", "natural": "peak"}}, {"name": "Esele", "latitude": 47.7211381, "longitude": 7.7007156, "elevation": 626.0, "source": "osm", "_tags": {"ele": "626", "name": "Esele", "natural": "peak", "source": "Historische Messtischblätter TK25 (validiert);OpenTopoMap"}}, {"name": "Federlisberg", "latitude": 47.7327879, "longitude": 7.7368778, "elevation": 981.0, "source": "osm", "_tags": {"ele": "981", "name": "Federlisberg", "natural": "peak", "source": "Historische Messtischblätter TK25 (validiert);OpenTopoMap", "wikidata": "Q31561342"}}, {"name": "", "latitude": 47.7294696, "longitude": 7.7318823, "elevation": 941.0, "source": "osm", "_tags": {"ele": "941", "natural": "peak", "source": "Historische Messtischblätter TK25 (validiert);OpenTopoMap"}}, {"name": "", "latitude": 47.732177, "longitude": 7.7220565, "elevation": 761.0, "source": "osm", "_tags": {"ele": "761", "natural": "peak", "source": "Historische Messtischblätter TK25 (validiert)"}}, {"name": "", "latitude": 47.7332437, "longitude": 7.6960096, "elevation": 600.0, "source": "osm", "_tags": {"ele": "600", "natural": "peak", "source": "Historische Messtischblätter TK25 (validiert)"}}, {"name": "", "latitude": 47.7371311, "longitude": 7.7016446, "elevation": 692.0, "source": "osm", "_tags": {"ele": "692", "natural": "peak", "source": "Historische Messtischblätter TK25 (validiert)"}}, {"name": "", "latitude": 47.7478452, "longitude": 7.7042742, "elevation": 783.0, "source": "osm", "_tags": {"ele": "783", "natural": "peak", "source": "Historische Messtischblätter TK25 (validiert)"}}, {"name": "Hundsrücken", "latitude": 47.7535207, "longitude": 7.7038797, "elevation": 848.0, "source": "osm", "_tags": {"ele": "848", "name": "Hundsrücken", "natural": "peak", "source": "Historische Messtischblätter TK25 (validiert)"}}, {"name": "", "latitude": 47.7503093, "longitude": 7.6928138, "elevation": 639.0, "source": "osm", "_tags": {"ele": "639", "natural": "peak", "source": "Historische Messtischblätter TK25 (validiert)"}}, {"name": "", "latitude": 47.756241, "longitude": 7.7076744, "elevation": 855.0, "source": "osm", "_tags": {"ele": "855", "natural": "peak", "source": "Historische Messtischblätter TK25 (validiert)"}}, {"name": "Ammelenköpfle", "latitude": 47.7612436, "longitude": 7.7100938, "elevation": 863.0, "source": "osm", "_tags": {"ele": "863", "name": "Ammelenköpfle", "natural": "peak", "source": "Historische Messtischblätter TK25 (validiert)"}}, {"name": "", "latitude": 47.7663359, "longitude": 7.737027, "elevation": 983.0, "source": "osm", "_tags": {"ele": "983", "natural": "peak", "source": "Historische Messtischblätter TK25 (validiert)"}}, {"name": "", "latitude": 47.7656374, "longitude": 7.7185414, "elevation": 779.0, "source": "osm", "_tags": {"ele": "779", "natural": "peak", "source": "Historische Messtischblätter TK25 (validiert)"}}, {"name": "Schild", "latitude": 48.3165138, "longitude": 7.3952025, "elevation": 654.0, "source": "osm", "_tags": {"ele": "654", "name": "Schild", "natural": "peak"}}, {"name": "Rotenberg", "latitude": 48.2742006, "longitude": 7.372906, "elevation": 422.0, "source": "osm", "_tags": {"ele": "422", "name": "Rotenberg", "natural": "peak"}}, {"name": "Koepfel", "latitude": 48.2470006, "longitude": 7.359529, "elevation": 503.0, "source": "osm", "_tags": {"ele": "503", "name": "Koepfel", "natural": "peak"}}, {"name": "", "latitude": 48.2492626, "longitude": 7.3388908, "elevation": 743.0, "source": "osm", "_tags": {"ele": "743", "natural": "peak"}}, {"name": "Danielsrain", "latitude": 48.2703114, "longitude": 7.3442278, "elevation": 328.0, "source": "osm", "_tags": {"ele": "328", "name": "Danielsrain", "natural": "peak"}}, {"name": "Adler", "latitude": 48.2714095, "longitude": 7.3539089, "elevation": 326.0, "source": "osm", "_tags": {"ele": "326", "name": "Adler", "natural": "peak"}}, {"name": "", "latitude": 48.2588812, "longitude": 7.3310581, "elevation": 428.0, "source": "osm", "_tags": {"ele": "428", "natural": "peak"}}, {"name": "", "latitude": 48.2167487, "longitude": 7.1959308, "elevation": 1107.0, "source": "osm", "_tags": {"ele": "1107", "natural": "peak"}}, {"name": "Rehberg", "latitude": 48.2029234, "longitude": 7.1700623, "elevation": 1141.0, "source": "osm", "_tags": {"ele": "1141", "name": "Rehberg", "natural": "peak"}}, {"name": "Le Champ du Diable", "latitude": 48.2045475, "longitude": 7.193508, "elevation": 1136.0, "source": "osm", "_tags": {"ele": "1136", "name": "Le Champ du Diable", "name:de": "Teufelskopf", "natural": "peak"}}, {"name": "Le Pain de Sucre", "latitude": 48.2381245, "longitude": 7.1504557, "elevation": 807.0, "source": "osm", "_tags": {"ele": "807", "name": "Le Pain de Sucre", "name:de": "Zuckerhut", "natural": "peak"}}, {"name": "Tête du Violu", "latitude": 48.2249316, "longitude": 7.126509, "elevation": 993.0, "source": "osm", "_tags": {"ele": "993", "name": "Tête du Violu", "natural": "peak"}}, {"name": "", "latitude": 48.2562502, "longitude": 7.162752, "elevation": 791.0, "source": "osm", "_tags": {"ele": "791", "natural": "peak"}}, {"name": "", "latitude": 48.2819282, "longitude": 7.1648813, "elevation": 905.0, "source": "osm", "_tags": {"ele": "905", "natural": "peak"}}, {"name": "", "latitude": 48.3185123, "longitude": 7.3021788, "elevation": 704.0, "source": "osm", "_tags": {"ele": "704", "natural": "peak"}}, {"name": "Rocher du Coucou", "latitude": 48.295435, "longitude": 7.3130642, "elevation": 856.0, "source": "osm", "_tags": {"ele": "856", "name": "Rocher du Coucou", "name:fr": "Rocher du Coucou", "natural": "peak", "wikipedia": "fr:Rocher du Coucou"}}, {"name": "Nalterin", "latitude": 48.3009952, "longitude": 7.2260553, "elevation": 704.0, "source": "osm", "_tags": {"ele": "704", "name": "Nalterin", "natural": "peak"}}, {"name": "Le Guichat", "latitude": 48.3197559, "longitude": 7.2691587, "elevation": 624.0, "source": "osm", "_tags": {"ele": "624", "name": "Le Guichat", "natural": "peak"}}, {"name": "Colline de Schlingoutte", "latitude": 48.3094995, "longitude": 7.2351523, "elevation": 829.0, "source": "osm", "_tags": {"ele": "829", "name": "Colline de Schlingoutte", "natural": "peak"}}, {"name": "Le Mont", "latitude": 48.3431603, "longitude": 7.2072007, "elevation": 798.0, "source": "osm", "_tags": {"ele": "798", "name": "Le Mont", "natural": "peak"}}, {"name": "Le Remchy", "latitude": 48.3269537, "longitude": 7.2349331, "elevation": 555.0, "source": "osm", "_tags": {"ele": "555", "name": "Le Remchy", "name:de": "Ramchis", "natural": "peak"}}, {"name": "", "latitude": 48.3318627, "longitude": 7.2304234, "elevation": 636.0, "source": "osm", "_tags": {"ele": "636", "natural": "peak"}}, {"name": "Voyemont", "latitude": 48.3330614, "longitude": 7.1271613, "elevation": 793.0, "source": "osm", "_tags": {"ele": "793", "name": "Voyemont", "name:de": "Schauberg", "natural": "peak"}}, {"name": "l'Abatteux", "latitude": 48.3320104, "longitude": 7.1424565, "elevation": 698.0, "source": "osm", "_tags": {"ele": "698", "name": "l'Abatteux", "name:de": "Buchbuckel", "natural": "peak"}}, {"name": "Le Grand Alhan", "latitude": 48.3644356, "longitude": 7.1628365, "elevation": 752.0, "source": "osm", "_tags": {"ele": "752", "name": "Le Grand Alhan", "name:de": "Großer Alhang", "natural": "peak"}}, {"name": "Schrann", "latitude": 48.3517147, "longitude": 7.3210548, "elevation": 433.0, "source": "osm", "_tags": {"ele": "433", "name": "Schrann", "natural": "peak"}}, {"name": "", "latitude": 48.289082, "longitude": 7.1770422, "elevation": 895.0, "source": "osm", "_tags": {"ele": "895", "natural": "peak"}}, {"name": "", "latitude": 48.2830118, "longitude": 7.1911599, "elevation": 807.0, "source": "osm", "_tags": {"ele": "807", "natural": "peak"}}, {"name": "Ohirn", "latitude": 48.2437393, "longitude": 7.3088042, "elevation": 711.0, "source": "osm", "_tags": {"ele": "711", "name": "Ohirn", "natural": "peak"}}, {"name": "Spitzenberg", "latitude": 48.2455904, "longitude": 7.2900809, "elevation": 760.0, "source": "osm", "_tags": {"ele": "760", "name": "Spitzenberg", "natural": "peak"}}, {"name": "l'Adeux du Chat", "latitude": 48.3235243, "longitude": 7.1577722, "elevation": 635.0, "source": "osm", "_tags": {"ele": "635", "name": "l'Adeux du Chat", "natural": "peak"}}, {"name": "Rocher de la Paix d'Udine", "latitude": 48.2201927, "longitude": 7.2912554, "elevation": 902.0, "source": "osm", "_tags": {"ele": "902", "name": "Rocher de la Paix d'Udine", "natural": "peak"}}, {"name": "", "latitude": 48.2368368, "longitude": 7.2697476, "elevation": 954.0, "source": "osm", "_tags": {"ele": "954", "natural": "peak"}}, {"name": "Galtz", "latitude": 48.1079471, "longitude": 7.246601, "elevation": 732.0, "source": "osm", "_tags": {"ele": "732", "name": "Galtz", "natural": "peak"}}, {"name": "Heidstein", "latitude": 47.8360042, "longitude": 7.8423177, "elevation": 1274.0, "source": "osm", "_tags": {"ele": "1274", "name": "Heidstein", "natural": "peak", "wikidata": "Q31541781"}}, {"name": "Hohtannen", "latitude": 47.8338149, "longitude": 7.8607284, "elevation": 1249.0, "source": "osm", "_tags": {"ele": "1249", "name": "Hohtannen", "natural": "peak", "wikidata": "Q31560469"}}, {"name": "Breitnauer Kopf", "latitude": 47.8553734, "longitude": 7.840762, "elevation": 1121.0, "source": "osm", "_tags": {"ele": "1121", "name": "Breitnauer Kopf", "natural": "peak", "wikidata": "Q31560272"}}, {"name": "Schindelkopf", "latitude": 47.8524721, "longitude": 7.8183924, "elevation": 861.0, "source": "osm", "_tags": {"ele": "861", "name": "Schindelkopf", "natural": "peak", "wikidata": "Q31522981"}}, {"name": "", "latitude": 48.0314507, "longitude": 7.2667479, "elevation": 677.0, "source": "osm", "_tags": {"ele": "677", "natural": "peak"}}, {"name": "", "latitude": 48.0362575, "longitude": 7.2544849, "elevation": 751.0, "source": "osm", "_tags": {"ele": "751", "natural": "peak"}}, {"name": "", "latitude": 48.0369426, "longitude": 7.2375172, "elevation": 827.0, "source": "osm", "_tags": {"ele": "827", "natural": "peak"}}, {"name": "", "latitude": 48.0361068, "longitude": 7.2447056, "elevation": 764.0, "source": "osm", "_tags": {"ele": "764", "natural": "peak"}}, {"name": "", "latitude": 48.0423406, "longitude": 7.2539484, "elevation": 688.0, "source": "osm", "_tags": {"ele": "688", "natural": "peak"}}, {"name": "", "latitude": 48.0480931, "longitude": 7.2584546, "elevation": 688.0, "source": "osm", "_tags": {"ele": "688", "natural": "peak"}}, {"name": "Heuberg", "latitude": 48.2430197, "longitude": 7.8011069, "elevation": 282.0, "source": "osm", "_tags": {"ele": "282", "name": "Heuberg", "natural": "peak"}}, {"name": "Öschberg", "latitude": 47.4385705, "longitude": 7.7218542, "elevation": 508.0, "source": "osm", "_tags": {"ele": "508", "name": "Öschberg", "natural": "peak"}}, {"name": "Eichert", "latitude": 48.1305631, "longitude": 7.6141469, "elevation": 267.0, "source": "osm", "_tags": {"ele": "267", "name": "Eichert", "natural": "peak"}}, {"name": "Enselberg", "latitude": 48.1100346, "longitude": 7.6235023, "elevation": 261.0, "source": "osm", "_tags": {"ele": "261", "name": "Enselberg", "natural": "peak"}}, {"name": "Galgenberg", "latitude": 48.131621, "longitude": 7.6790093, "elevation": 327.0, "source": "osm", "_tags": {"ele": "327", "name": "Galgenberg", "natural": "peak"}}, {"name": "Spitzbuck", "latitude": 48.122741, "longitude": 7.6722072, "elevation": 378.0, "source": "osm", "_tags": {"ele": "378", "name": "Spitzbuck", "natural": "peak"}}, {"name": "Burgberg", "latitude": 48.1036986, "longitude": 7.5920916, "elevation": 257.0, "source": "osm", "_tags": {"ele": "257", "name": "Burgberg", "natural": "peak"}}, {"name": "Kirchberg", "latitude": 48.0837052, "longitude": 7.6208487, "elevation": 296.0, "source": "osm", "_tags": {"ele": "296", "name": "Kirchberg", "natural": "peak"}}, {"name": "", "latitude": 47.8927748, "longitude": 7.0454791, "elevation": 725.0, "source": "osm", "_tags": {"ele": "725", "natural": "peak"}}, {"name": "Vogelstein", "latitude": 47.8289379, "longitude": 7.0045353, "elevation": 1181.0, "source": "osm", "_tags": {"ele": "1181", "name": "Vogelstein", "natural": "peak"}}, {"name": "", "latitude": 48.2027496, "longitude": 7.2410524, "elevation": 744.0, "source": "osm", "_tags": {"ele": "744", "natural": "peak"}}, {"name": "", "latitude": 47.8442058, "longitude": 7.1448952, "elevation": 868.0, "source": "osm", "_tags": {"ele": "868", "natural": "peak"}}, {"name": "Chleine Sunneberg", "latitude": 47.5341081, "longitude": 7.8571799, "elevation": 579.0, "source": "osm", "_tags": {"ele": "579", "name": "Chleine Sunneberg", "natural": "peak"}}, {"name": "", "latitude": 48.0156144, "longitude": 7.2031011, "elevation": 747.0, "source": "osm", "_tags": {"ele": "747", "natural": "peak"}}, {"name": "", "latitude": 47.9859364, "longitude": 7.1648669, "elevation": 891.0, "source": "osm", "_tags": {"ele": "891", "natural": "peak"}}, {"name": "Muhlkopf", "latitude": 47.9928081, "longitude": 7.1734285, "elevation": 816.0, "source": "osm", "_tags": {"ele": "816", "name": "Muhlkopf", "natural": "peak"}}, {"name": "", "latitude": 48.0148747, "longitude": 7.1611977, "elevation": 821.0, "source": "osm", "_tags": {"ele": "821", "natural": "peak"}}, {"name": "", "latitude": 48.0106599, "longitude": 7.1565226, "elevation": 845.0, "source": "osm", "_tags": {"ele": "845", "natural": "peak"}}, {"name": "", "latitude": 48.0216277, "longitude": 7.1750271, "elevation": 709.0, "source": "osm", "_tags": {"ele": "709", "natural": "peak"}}, {"name": "", "latitude": 47.9921763, "longitude": 7.1517348, "elevation": 847.0, "source": "osm", "_tags": {"ele": "847", "natural": "peak"}}, {"name": "", "latitude": 48.0093625, "longitude": 7.1665943, "elevation": 684.0, "source": "osm", "_tags": {"ele": "684", "natural": "peak"}}, {"name": "Wassenberg", "latitude": 48.0069867, "longitude": 7.1621203, "elevation": 746.0, "source": "osm", "_tags": {"ele": "746", "name": "Wassenberg", "natural": "peak"}}, {"name": "", "latitude": 47.9971662, "longitude": 7.1325731, "elevation": 1025.0, "source": "osm", "_tags": {"ele": "1025", "natural": "peak"}}, {"name": "Demberg", "latitude": 47.9287516, "longitude": 7.169019, "elevation": 628.0, "source": "osm", "_tags": {"ele": "628", "name": "Demberg", "natural": "peak"}}, {"name": "", "latitude": 47.9265481, "longitude": 7.1443373, "elevation": 748.0, "source": "osm", "_tags": {"ele": "748", "natural": "peak"}}, {"name": "Hohrupf", "latitude": 47.9297814, "longitude": 7.1492726, "elevation": 813.0, "source": "osm", "_tags": {"ele": "813", "name": "Hohrupf", "natural": "peak"}}, {"name": "Huselberg", "latitude": 47.8851469, "longitude": 6.9768132, "elevation": 709.0, "source": "osm", "_tags": {"direction": "0-360", "ele": "709", "name": "Huselberg", "natural": "peak", "tourism": "viewpoint", "wikidata": "Q31664481"}}, {"name": "Le Château de Faîte", "latitude": 48.2478001, "longitude": 7.1334038, "elevation": 884.0, "source": "osm", "_tags": {"ele": "884", "name": "Le Château de Faîte", "name:de": "Hochfirst", "natural": "peak"}}, {"name": "Haut des Yraux", "latitude": 48.2654607, "longitude": 7.1531824, "elevation": 985.0, "source": "osm", "_tags": {"ele": "985", "name": "Haut des Yraux", "natural": "peak"}}, {"name": "", "latitude": 48.2544876, "longitude": 7.0701416, "elevation": 507.0, "source": "osm", "_tags": {"ele": "507", "natural": "peak"}}, {"name": "Le Beheux", "latitude": 48.2749566, "longitude": 7.1515285, "elevation": 877.0, "source": "osm", "_tags": {"ele": "877", "name": "Le Beheux", "natural": "peak"}}, {"name": "Champs Évaux", "latitude": 48.3120966, "longitude": 7.1495396, "elevation": 622.0, "source": "osm", "_tags": {"ele": "622", "name": "Champs Évaux", "natural": "peak"}}, {"name": "Kaelbling", "latitude": 48.2574427, "longitude": 7.3050573, "elevation": 573.0, "source": "osm", "_tags": {"ele": "573", "name": "Kaelbling", "name:de": "Kälbling", "natural": "peak"}}, {"name": "Chöpfli", "latitude": 47.4601951, "longitude": 7.4693557, "elevation": 701.0, "source": "osm", "_tags": {"ele": "701", "name": "Chöpfli", "natural": "peak"}}, {"name": "Köhlgarten Ostgipfel", "latitude": 47.7877709, "longitude": 7.7885355, "elevation": 1224.0, "source": "osm", "_tags": {"ele": "1224", "name": "Köhlgarten Ostgipfel", "natural": "peak", "summit:register": "yes"}}, {"name": "Lausberg", "latitude": 47.816057, "longitude": 7.7031468, "elevation": 689.0, "source": "osm", "_tags": {"ele": "689", "name": "Lausberg", "natural": "peak", "source": "Historische Messtischblätter TK25", "wikidata": "Q31319595"}}, {"name": "Dreispitz", "latitude": 47.8076689, "longitude": 7.7309336, "elevation": 891.0, "source": "osm", "_tags": {"ele": "891", "name": "Dreispitz", "natural": "peak", "source": "Historische Meßtischblätter (TK25)"}}, {"name": "Tête des Chats", "latitude": 48.1944021, "longitude": 7.1063394, "elevation": 1080.0, "source": "osm", "_tags": {"ele": "1080", "name": "Tête des Chats", "natural": "peak"}}, {"name": "Scheibenberg", "latitude": 48.3408921, "longitude": 7.284099, "elevation": 473.0, "source": "osm", "_tags": {"ele": "473", "name": "Scheibenberg", "natural": "peak"}}, {"name": "Honel", "latitude": 48.3407465, "longitude": 7.2670892, "elevation": 612.0, "source": "osm", "_tags": {"alt_name:de": "Honel", "ele": "612", "name": "Honel", "name:de": "Hohnel", "natural": "peak"}}, {"name": "", "latitude": 48.3450397, "longitude": 7.2406322, "elevation": 623.0, "source": "osm", "_tags": {"ele": "623", "natural": "peak"}}, {"name": "Frauenackerkopf", "latitude": 48.0604625, "longitude": 7.1459754, "elevation": 800.0, "source": "osm", "_tags": {"ele": "800", "name": "Frauenackerkopf", "natural": "peak"}}, {"name": "Kleinkopf", "latitude": 48.0699275, "longitude": 7.1310838, "elevation": 940.0, "source": "osm", "_tags": {"ele": "940", "name": "Kleinkopf", "natural": "peak"}}, {"name": "Zwerberg", "latitude": 48.0811379, "longitude": 7.1780271, "elevation": 951.0, "source": "osm", "_tags": {"ele": "951", "name": "Zwerberg", "natural": "peak"}}, {"name": "Heidenruckenkopf", "latitude": 48.0564822, "longitude": 7.1599592, "elevation": 662.0, "source": "osm", "_tags": {"ele": "662", "name": "Heidenruckenkopf", "name:de": "Heidenrückenkopf", "natural": "peak", "wikidata": "Q31665014"}}, {"name": "Sattelkopf", "latitude": 48.0401772, "longitude": 7.0775806, "elevation": 892.0, "source": "osm", "_tags": {"ele": "892", "name": "Sattelkopf", "natural": "peak", "wikidata": "Q31639483"}}, {"name": "Taennlekopf", "latitude": 48.0393012, "longitude": 7.0657091, "elevation": 974.0, "source": "osm", "_tags": {"ele": "974", "name": "Taennlekopf", "natural": "peak"}}, {"name": "Gaschneykopf", "latitude": 48.0360523, "longitude": 7.0542528, "elevation": 1086.0, "source": "osm", "_tags": {"ele": "1086", "name": "Gaschneykopf", "natural": "peak"}}, {"name": "Mont de Miserez", "latitude": 47.433302, "longitude": 7.1939366, "elevation": 658.0, "source": "osm", "_tags": {"ele": "658", "name": "Mont de Miserez", "natural": "peak"}}, {"name": "Auberg", "latitude": 48.1858892, "longitude": 7.8556808, "elevation": 438.0, "source": "osm", "_tags": {"ele": "438", "name": "Auberg", "natural": "peak", "wikidata": "Q30723996"}}, {"name": "Holderhau", "latitude": 48.203136, "longitude": 7.860439, "elevation": 469.0, "source": "osm", "_tags": {"ele": "469", "name": "Holderhau", "natural": "peak"}}, {"name": "Fohrenbühl", "latitude": 48.2175354, "longitude": 7.8632607, "elevation": 435.0, "source": "osm", "_tags": {"comment": "Wiedersprüchliche Angabe auf www.geoportal-bw.de.Auf 1:50000 TopoKarte als Fohrenbühl bezeichnet. Auf 1:25000 Karte als Schänzle und Berghang als Fohrlenbühl !!! (Fohrlenbühl = Schreibfehler ?)", "ele": "435", "name": "Fohrenbühl", "natural": "peak", "wikidata": "Q31566109"}}, {"name": "Heidenbuehl", "latitude": 48.051638, "longitude": 7.1778165, "elevation": 467.0, "source": "osm", "_tags": {"ele": "467", "name": "Heidenbuehl", "name:de": "Heidenbühl", "natural": "peak"}}, {"name": "Kalkmättlebuck", "latitude": 47.8142223, "longitude": 7.696274, "elevation": 663.0, "source": "osm", "_tags": {"ele": "663", "name": "Kalkmättlebuck", "natural": "peak"}}, {"name": "Roches de Lanelle", "latitude": 48.2809362, "longitude": 6.8949674, "elevation": null, "source": "osm", "_tags": {"access": "private", "name": "Roches de Lanelle", "natural": "peak"}}, {"name": "", "latitude": 48.2585914, "longitude": 7.4070167, "elevation": 197.0, "source": "osm", "_tags": {"ele": "197", "natural": "peak"}}, {"name": "", "latitude": 47.6411476, "longitude": 7.1955943, "elevation": 360.0, "source": "osm", "_tags": {"ele": "360", "natural": "peak"}}, {"name": "", "latitude": 47.6445848, "longitude": 7.2156787, "elevation": 360.0, "source": "osm", "_tags": {"ele": "360", "natural": "peak"}}, {"name": "", "latitude": 47.6519319, "longitude": 7.2067416, "elevation": 344.0, "source": "osm", "_tags": {"ele": "344", "natural": "peak"}}, {"name": "Rüttekopf", "latitude": 47.7964327, "longitude": 7.7147972, "elevation": 767.0, "source": "osm", "_tags": {"ele": "767", "name": "Rüttekopf", "natural": "peak"}}, {"name": "Wustkopf", "latitude": 47.816577, "longitude": 6.9142426, "elevation": 867.0, "source": "osm", "_tags": {"ele": "867", "name": "Wustkopf", "name:de": "Wüstkopf", "natural": "peak", "source": "Direction Générale des Finances Publiques - cadastre", "source:date": "2021"}}, {"name": "Schlossberg", "latitude": 47.9489732, "longitude": 6.9585926, "elevation": 666.0, "source": "osm", "_tags": {"ele": "666", "name": "Schlossberg", "natural": "peak", "source": "Direction Générale des Finances Publiques - cadastre", "source:date": "2021"}}, {"name": "Braunkopf", "latitude": 48.022026, "longitude": 7.0648597, "elevation": 713.0, "source": "osm", "_tags": {"ele": "713", "name": "Braunkopf", "natural": "peak"}}, {"name": "Altmattkopf", "latitude": 48.0277587, "longitude": 7.0645418, "elevation": 877.0, "source": "osm", "_tags": {"ele": "877", "name": "Altmattkopf", "natural": "peak"}}, {"name": "Falkenstein", "latitude": 47.8029801, "longitude": 6.9907164, "elevation": 887.0, "source": "osm", "_tags": {"ele": "887", "name": "Falkenstein", "natural": "peak"}}, {"name": "Entzenberg", "latitude": 47.8023027, "longitude": 6.97487, "elevation": 695.0, "source": "osm", "_tags": {"ele": "695", "name": "Entzenberg", "natural": "peak"}}, {"name": "Eichstein", "latitude": 47.7968832, "longitude": 6.9727993, "elevation": 695.0, "source": "osm", "_tags": {"ele": "695", "name": "Eichstein", "natural": "peak"}}, {"name": "Bitzenberg", "latitude": 48.0736619, "longitude": 7.6415883, "elevation": null, "source": "osm", "_tags": {"name": "Bitzenberg", "natural": "peak"}}, {"name": "Brenntenbuck", "latitude": 48.0676329, "longitude": 7.6449486, "elevation": null, "source": "osm", "_tags": {"name": "Brenntenbuck", "natural": "peak"}}, {"name": "Kohlberg", "latitude": 47.7972147, "longitude": 7.0415282, "elevation": 776.0, "source": "osm", "_tags": {"ele": "776", "name": "Kohlberg", "natural": "peak"}}, {"name": "Krastkopf", "latitude": 47.7893763, "longitude": 7.0471823, "elevation": 680.0, "source": "osm", "_tags": {"ele": "680", "name": "Krastkopf", "natural": "peak"}}, {"name": "", "latitude": 47.7930056, "longitude": 6.9129967, "elevation": null, "source": "osm", "_tags": {"natural": "peak"}}, {"name": "", "latitude": 47.766705, "longitude": 6.9436383, "elevation": 959.0, "source": "osm", "_tags": {"ele": "959", "natural": "peak"}}, {"name": "", "latitude": 47.7819477, "longitude": 6.9429839, "elevation": 796.0, "source": "osm", "_tags": {"ele": "796", "natural": "peak"}}, {"name": "Heidenkopf", "latitude": 47.7732958, "longitude": 6.9643235, "elevation": 653.0, "source": "osm", "_tags": {"ele": "653", "name": "Heidenkopf", "natural": "peak"}}, {"name": "Triebelskopf", "latitude": 47.7774345, "longitude": 6.951406, "elevation": 725.0, "source": "osm", "_tags": {"ele": "725", "name": "Triebelskopf", "natural": "peak"}}, {"name": "Hohwetschkopf", "latitude": 47.7893907, "longitude": 7.0608509, "elevation": 594.0, "source": "osm", "_tags": {"ele": "594", "name": "Hohwetschkopf", "natural": "peak"}}, {"name": "Klingenfelsenkopf", "latitude": 47.8026703, "longitude": 7.0629322, "elevation": 733.0, "source": "osm", "_tags": {"ele": "733", "name": "Klingenfelsenkopf", "natural": "peak", "ref:refuges.info": "3802"}}, {"name": "Kurrenburg", "latitude": 47.800865, "longitude": 7.0764184, "elevation": 664.0, "source": "osm", "_tags": {"ele": "664", "name": "Kurrenburg", "natural": "peak", "ref:refuges.info": "3803"}}, {"name": "Maienbühl", "latitude": 47.5944288, "longitude": 7.6807228, "elevation": 477.0, "source": "osm", "_tags": {"ele": "477", "name": "Maienbühl", "natural": "peak"}}, {"name": "", "latitude": 47.5977605, "longitude": 7.6870233, "elevation": 481.0, "source": "osm", "_tags": {"ele": "481", "natural": "peak"}}, {"name": "", "latitude": 47.4905579, "longitude": 7.2928619, "elevation": 651.0, "source": "osm", "_tags": {"ele": "651", "natural": "peak"}}, {"name": "", "latitude": 47.4950742, "longitude": 7.2875833, "elevation": 683.0, "source": "osm", "_tags": {"ele": "683", "natural": "peak"}}, {"name": "", "latitude": 47.4952047, "longitude": 7.2930336, "elevation": 658.0, "source": "osm", "_tags": {"ele": "658", "natural": "peak"}}, {"name": "Kohwald", "latitude": 47.8168866, "longitude": 7.0609259, "elevation": 681.0, "source": "osm", "_tags": {"ele": "681", "name": "Kohwald", "natural": "peak", "ref:refuges.info": "3794"}}, {"name": "Weckenthalkopf", "latitude": 47.8142929, "longitude": 7.0722663, "elevation": 687.0, "source": "osm", "_tags": {"ele": "687", "name": "Weckenthalkopf", "natural": "peak", "ref:refuges.info": "3795"}}, {"name": "", "latitude": 47.8111155, "longitude": 7.0781886, "elevation": 604.0, "source": "osm", "_tags": {"ele": "604", "natural": "peak"}}, {"name": "Staufen", "latitude": 47.8088566, "longitude": 7.09337, "elevation": 510.0, "source": "osm", "_tags": {"ele": "510", "name": "Staufen", "natural": "peak"}}, {"name": "Lerchenbourg", "latitude": 47.7581192, "longitude": 6.987251, "elevation": 547.0, "source": "osm", "_tags": {"ele": "547", "name": "Lerchenbourg", "name:de": "Lerchenburgkopf", "natural": "peak"}}, {"name": "", "latitude": 48.0649596, "longitude": 6.9873476, "elevation": 1129.0, "source": "osm", "_tags": {"ele": "1129", "natural": "peak"}}, {"name": "", "latitude": 48.0689316, "longitude": 6.9780242, "elevation": 1125.0, "source": "osm", "_tags": {"ele": "1125", "natural": "peak"}}, {"name": "", "latitude": 48.0679637, "longitude": 6.9734591, "elevation": null, "source": "osm", "_tags": {"natural": "peak"}}, {"name": "", "latitude": 48.2001572, "longitude": 7.0985444, "elevation": 1031.0, "source": "osm", "_tags": {"description": "Sommet de Ban-de-Laveline", "ele": "1031", "fixme": "préciser altutide", "natural": "peak"}}, {"name": "Les Cigales", "latitude": 48.2442351, "longitude": 7.1161151, "elevation": 847.0, "source": "osm", "_tags": {"ele": "847", "name": "Les Cigales", "natural": "peak"}}, {"name": "La Cabane", "latitude": 48.2372912, "longitude": 7.1211325, "elevation": 880.0, "source": "osm", "_tags": {"ele": "880", "name": "La Cabane", "natural": "peak"}}, {"name": "", "latitude": 47.8223671, "longitude": 7.1028977, "elevation": 613.0, "source": "osm", "_tags": {"ele": "613", "natural": "peak"}}, {"name": "Observatoire Pacchiodo", "latitude": 48.2406264, "longitude": 7.1214703, "elevation": 844.0, "source": "osm", "_tags": {"alt_name": "Fortin Pacchiodo", "ele": "844", "name": "Observatoire Pacchiodo", "natural": "peak"}}, {"name": "Pierre de Laître", "latitude": 48.25643, "longitude": 6.9071188, "elevation": 627.0, "source": "osm", "_tags": {"ele": "627", "name": "Pierre de Laître", "natural": "peak"}}, {"name": "", "latitude": 48.2032973, "longitude": 7.1082671, "elevation": 1020.0, "source": "osm", "_tags": {"ele": "1020", "natural": "peak"}}, {"name": "", "latitude": 48.2050478, "longitude": 7.1135682, "elevation": 1013.0, "source": "osm", "_tags": {"ele": "1013", "natural": "peak"}}, {"name": "", "latitude": 48.2083168, "longitude": 7.1178748, "elevation": 995.0, "source": "osm", "_tags": {"ele": "995", "natural": "peak"}}, {"name": "", "latitude": 48.2122806, "longitude": 7.1152387, "elevation": 1002.0, "source": "osm", "_tags": {"ele": "1002", "natural": "peak"}}, {"name": "", "latitude": 48.2162771, "longitude": 7.1233067, "elevation": 943.0, "source": "osm", "_tags": {"ele": "943", "natural": "peak"}}, {"name": "", "latitude": 48.2340519, "longitude": 7.1301591, "elevation": 893.0, "source": "osm", "_tags": {"ele": "893", "natural": "peak"}}, {"name": "", "latitude": 48.2377531, "longitude": 7.1345945, "elevation": 854.0, "source": "osm", "_tags": {"ele": "854", "natural": "peak"}}, {"name": "La Tête de la Behouille", "latitude": 48.2253648, "longitude": 7.0300848, "elevation": 734.0, "source": "osm", "_tags": {"ele": "734", "name": "La Tête de la Behouille", "natural": "peak"}}, {"name": "", "latitude": 48.0744331, "longitude": 7.0821798, "elevation": 961.0, "source": "osm", "_tags": {"ele": "961", "natural": "peak"}}, {"name": "", "latitude": 48.2249844, "longitude": 7.1099171, "elevation": 903.0, "source": "osm", "_tags": {"ele": "903", "natural": "peak"}}, {"name": "Solamont", "latitude": 48.3649932, "longitude": 7.1170677, "elevation": 826.0, "source": "osm", "_tags": {"ele": "826", "name": "Solamont", "name:de": "Sonnenberg", "natural": "peak"}}, {"name": "Tête de Fellering", "latitude": 47.9100075, "longitude": 6.9289026, "elevation": 1223.0, "source": "osm", "_tags": {"alt_name": "Tête de Fellering", "ele": "1223", "name": "Tête de Fellering", "name:de": "Felleringen-Kopf", "natural": "peak"}}, {"name": "Eichelbuck", "latitude": 48.0511449, "longitude": 7.835108, "elevation": null, "source": "osm", "_tags": {"name": "Eichelbuck", "natural": "peak"}}, {"name": "Grand Artimont", "latitude": 48.0264369, "longitude": 6.9798228, "elevation": 1232.0, "source": "osm", "_tags": {"ele": "1232", "name": "Grand Artimont", "natural": "peak"}}, {"name": "Ronde Tête", "latitude": 48.0005083, "longitude": 6.9610411, "elevation": 1160.0, "source": "osm", "_tags": {"ele": "1160", "name": "Ronde Tête", "natural": "peak"}}, {"name": "Rothenkopf", "latitude": 47.9740771, "longitude": 6.9402206, "elevation": 1137.0, "source": "osm", "_tags": {"ele": "1137", "name": "Rothenkopf", "natural": "peak"}}, {"name": "Tête des Cerfs", "latitude": 48.0419408, "longitude": 6.952816, "elevation": 1177.0, "source": "osm", "_tags": {"ele": "1177", "name": "Tête des Cerfs", "natural": "peak"}}, {"name": "", "latitude": 48.0519783, "longitude": 6.9731205, "elevation": 1125.0, "source": "osm", "_tags": {"ele": "1125", "natural": "peak"}}, {"name": "Haselschacher Buck", "latitude": 48.095993, "longitude": 7.6928049, "elevation": 472.0, "source": "osm", "_tags": {"ele": "472", "name": "Haselschacher Buck", "natural": "peak"}}, {"name": "Brandenspitze", "latitude": 47.8661631, "longitude": 7.8348532, "elevation": 987.0, "source": "osm", "_tags": {"ele": "987", "name": "Brandenspitze", "natural": "peak", "note:de": "Quelle für Name: https://www.muenstertal-staufen.de/Erlebnisse-Aktivitaeten/Wandertouren/Wildnispfade/Brandenpfad-Wildnispfad-Branden-Stampfbach, Quelle für Höhe: GPS-Gerät"}}, {"name": "Hirzenleck", "latitude": 47.56665, "longitude": 7.7315377, "elevation": 523.4, "source": "osm", "_tags": {"ele": "523.4", "name": "Hirzenleck", "natural": "peak"}}, {"name": "Schachbühl", "latitude": 47.6272014, "longitude": 7.8602489, "elevation": 465.9, "source": "osm", "_tags": {"ele": "465.9", "name": "Schachbühl", "natural": "peak"}}, {"name": "St. Chrischona", "latitude": 47.5730212, "longitude": 7.6801762, "elevation": 522.0, "source": "osm", "_tags": {"ele": "522", "name": "St. Chrischona", "natural": "peak", "wikidata": "Q15240", "wikipedia": "de:St. Chrischona"}}, {"name": "Mauerhaldebuck", "latitude": 47.6350351, "longitude": 7.7854436, "elevation": 493.3, "source": "osm", "_tags": {"ele": "493.3", "name": "Mauerhaldebuck", "natural": "peak"}}, {"name": "Eichberg", "latitude": 47.579856, "longitude": 7.738944, "elevation": 477.7, "source": "osm", "_tags": {"ele": "477.7", "name": "Eichberg", "natural": "peak", "wikidata": "Q30789220"}}, {"name": "Tête du Broche", "latitude": 47.9581487, "longitude": 6.8860493, "elevation": 1103.0, "source": "osm", "_tags": {"ele": "1103", "name": "Tête du Broche", "natural": "peak", "source": "IGN - 2022-03", "wikidata": "Q34815872"}}, {"name": "Tête Saint-Nicolas", "latitude": 47.7716652, "longitude": 6.9356008, "elevation": 1021.0, "source": "osm", "_tags": {"ele": "1021", "name": "Tête Saint-Nicolas", "natural": "peak", "source": "IGN BDTOPO 2022-03-15", "source:ele": "IGN RGEALTI 2020-09-18 (Lidar)"}}, {"name": "Mont Marty", "latitude": 47.7288366, "longitude": 6.9616459, "elevation": 517.0, "source": "osm", "_tags": {"ele": "517", "name": "Mont Marty", "natural": "peak", "source": "IGN BDTOPO 2022-03-15", "source:ele": "IGN RGEALTI 2020-09-18 (Lidar)"}}, {"name": "Le Châtelet", "latitude": 47.7112645, "longitude": 6.9554915, "elevation": 544.0, "source": "osm", "_tags": {"ele": "544", "name": "Le Châtelet", "natural": "peak", "source": "IGN BDTOPO 2022-03-15", "source:ele": "IGN RGEALTI 2020-09-18 (Lidar)"}}, {"name": "Les Montailleux", "latitude": 47.7113278, "longitude": 6.8867051, "elevation": 482.0, "source": "osm", "_tags": {"ele": "482", "name": "Les Montailleux", "natural": "peak", "source": "IGN BDTOPO 2022-03-15", "source:ele": "IGN RGEALTI 2020-09-18 (Lidar)"}}, {"name": "La Montagne", "latitude": 47.5489514, "longitude": 6.9693103, "elevation": 389.0, "source": "osm", "_tags": {"ele": "389", "name": "La Montagne", "natural": "peak", "source": "IGN BDTOPO 2022-03-15", "source:ele": "IGN RGEALTI 2020-09-18 (Lidar)"}}, {"name": "Haut du Pré des Loups", "latitude": 47.7182204, "longitude": 6.9560617, "elevation": 543.0, "source": "osm", "_tags": {"ele": "543", "name": "Haut du Pré des Loups", "natural": "peak", "source": "IGN BDTOPO 2022-03-15", "source:ele": "IGN RGEALTI 2020-09-18 (Lidar)"}}, {"name": "Mont de Romagny", "latitude": 47.7243769, "longitude": 6.9674577, "elevation": 488.0, "source": "osm", "_tags": {"ele": "488", "name": "Mont de Romagny", "natural": "peak", "source": "IGN BDTOPO 2022-03-15", "source:ele": "IGN RGEALTI 2020-09-18 (Lidar)"}}, {"name": "La Côte", "latitude": 47.7301044, "longitude": 6.9462725, "elevation": 596.0, "source": "osm", "_tags": {"ele": "596", "name": "La Côte", "natural": "peak", "source": "IGN BDTOPO 2022-03-15", "source:ele": "IGN RGEALTI 2020-09-18 (Lidar)"}}, {"name": "Le Sudel", "latitude": 47.7584471, "longitude": 6.9617126, "elevation": 916.0, "source": "osm", "_tags": {"ele": "916", "name": "Le Sudel", "name:de": "Sudel", "natural": "peak", "source": "IGN BDTOPO 2022-03-15", "source:ele": "IGN RGEALTI 2020-09-18 (Lidar)"}}, {"name": "Tête le Moine", "latitude": 47.7468402, "longitude": 6.9221271, "elevation": 778.0, "source": "osm", "_tags": {"ele": "778", "name": "Tête le Moine", "natural": "peak", "source": "IGN BDTOPO 2022-03-15", "source:ele": "IGN RGEALTI 2020-09-18 (Lidar)"}}, {"name": "Baerenkopf", "latitude": 47.7728378, "longitude": 6.922146, "elevation": 1075.0, "source": "osm", "_tags": {"ele": "1075", "name": "Baerenkopf", "name:de": "Bärenkopf", "natural": "peak", "source": "IGN BDTOPO 2022-03-15", "source:ele": "IGN RGEALTI 2020-09-18 (Lidar)"}}, {"name": "Sur la Côte", "latitude": 47.7244995, "longitude": 6.892488, "elevation": 517.0, "source": "osm", "_tags": {"ele": "517", "name": "Sur la Côte", "natural": "peak", "source": "IGN BDTOPO 2022-03-15", "source:ele": "IGN RGEALTI 2020-09-18 (Lidar)"}}, {"name": "Les Hauts", "latitude": 47.4510556, "longitude": 6.9755495, "elevation": 623.0, "source": "osm", "_tags": {"ele": "623", "fixme": "Position et altitude du sommet approximatives (Correlation). À ajuster lorsque le RGE ALTI Lidar sera disponible dans cette zone.", "name": "Les Hauts", "natural": "peak", "source": "IGN BDTOPO 2022-03-15", "source:ele": "IGN RGEALTI 2020-09-18 (Correlation)"}}, {"name": "La Roche", "latitude": 47.4781116, "longitude": 6.9122985, "elevation": 462.0, "source": "osm", "_tags": {"ele": "462", "fixme": "Position et altitude du sommet approximatives (Correlation). À ajuster lorsque le RGE ALTI Lidar sera disponible dans cette zone.", "name": "La Roche", "natural": "peak", "source": "IGN BDTOPO 2022-03-15", "source:ele": "IGN RGEALTI 2020-09-18 (Correlation)"}}, {"name": "Grammont", "latitude": 47.47457, "longitude": 6.9301208, "elevation": 576.0, "source": "osm", "_tags": {"ele": "576", "fixme": "Position et altitude du sommet approximatives (Correlation). À ajuster lorsque le RGE ALTI Lidar sera disponible dans cette zone.", "name": "Grammont", "natural": "peak", "source": "IGN BDTOPO 2022-03-15", "source:ele": "IGN RGEALTI 2020-09-18 (Correlation)"}}, {"name": "Mont Marie", "latitude": 47.7067548, "longitude": 6.9103363, "elevation": 495.0, "source": "osm", "_tags": {"ele": "495", "name": "Mont Marie", "natural": "peak", "source": "IGN BDTOPO 2022-03-15", "source:ele": "IGN RGEALTI 2020-09-18 (Lidar)"}}, {"name": "", "latitude": 47.851365, "longitude": 7.1342224, "elevation": 1104.0, "source": "osm", "_tags": {"ele": "1104", "natural": "peak", "source": "RGE_ALTI ign"}}, {"name": "", "latitude": 47.8892554, "longitude": 7.1168598, "elevation": 1130.0, "source": "osm", "_tags": {"ele": "1130", "natural": "peak", "source": "RGE_ALTI ign"}}, {"name": "", "latitude": 47.8966977, "longitude": 7.1046925, "elevation": 1290.0, "source": "osm", "_tags": {"ele": "1290", "natural": "peak", "source": "RGE_ALTI ign"}}, {"name": "Sattefels", "latitude": 47.8946218, "longitude": 7.0924575, "elevation": 1169.0, "source": "osm", "_tags": {"ele": "1169", "name": "Sattefels", "natural": "peak", "source": "RGE_ALTI ign"}}, {"name": "Rennenbachfels", "latitude": 47.8906334, "longitude": 7.0895362, "elevation": 1068.0, "source": "osm", "_tags": {"ele": "1068", "name": "Rennenbachfels", "natural": "peak", "source": "RGE_ALTI ign"}}, {"name": "", "latitude": 47.9025641, "longitude": 7.0799708, "elevation": 1348.0, "source": "osm", "_tags": {"ele": "1348", "natural": "peak", "source": "RGE_ALTI ign"}}, {"name": "", "latitude": 47.9130505, "longitude": 7.0887972, "elevation": 1170.0, "source": "osm", "_tags": {"ele": "1170", "natural": "peak", "source": "RGE_ALTI ign"}}, {"name": "", "latitude": 47.9178673, "longitude": 7.0650649, "elevation": 1191.0, "source": "osm", "_tags": {"ele": "1191", "natural": "peak", "source": "RGE_ALTI ign"}}, {"name": "", "latitude": 47.9113468, "longitude": 7.0568768, "elevation": 1238.0, "source": "osm", "_tags": {"ele": "1238", "natural": "peak", "source": "RGE_ALTI ign"}}, {"name": "", "latitude": 47.9108359, "longitude": 7.0507944, "elevation": 1193.0, "source": "osm", "_tags": {"ele": "1193", "natural": "peak", "source": "RGE_ALTI ign"}}, {"name": "", "latitude": 47.9191066, "longitude": 7.0427219, "elevation": 1240.0, "source": "osm", "_tags": {"ele": "1240", "natural": "peak", "source": "RGE_ALTI ign"}}, {"name": "Marksteinkopf", "latitude": 47.9177949, "longitude": 7.0441137, "elevation": 1242.0, "source": "osm", "_tags": {"ele": "1242", "name": "Marksteinkopf", "natural": "peak", "source": "RGE_ALTI ign"}}, {"name": "", "latitude": 47.9225864, "longitude": 7.0404067, "elevation": 1227.0, "source": "osm", "_tags": {"ele": "1227", "natural": "peak", "source": "RGE_ALTI ign"}}, {"name": "", "latitude": 47.9562772, "longitude": 7.0088404, "elevation": 1236.0, "source": "osm", "_tags": {"ele": "1236", "natural": "peak", "source": "RGE_ALTI ign"}}, {"name": "", "latitude": 48.0203918, "longitude": 6.9914784, "elevation": 1290.0, "source": "osm", "_tags": {"ele": "1290", "natural": "peak", "source": "RGE_ALTI ign"}}, {"name": "", "latitude": 48.0248315, "longitude": 7.0170177, "elevation": 1053.0, "source": "osm", "_tags": {"ele": "1053", "natural": "peak", "source": "RGE_ALTI ign"}}, {"name": "", "latitude": 48.0273358, "longitude": 7.0340813, "elevation": 1144.0, "source": "osm", "_tags": {"ele": "1144", "natural": "peak", "source": "RGE_ALTI ign"}}, {"name": "", "latitude": 47.9256425, "longitude": 7.0429275, "elevation": 1222.0, "source": "osm", "_tags": {"ele": "1222", "natural": "peak", "source": "RGE_ALTI ign"}}, {"name": "", "latitude": 47.9212047, "longitude": 7.0309936, "elevation": 1189.0, "source": "osm", "_tags": {"ele": "1189", "natural": "peak", "source": "RGE_ALTI ign"}}, {"name": "", "latitude": 47.9159077, "longitude": 7.0298342, "elevation": 1025.0, "source": "osm", "_tags": {"ele": "1025", "natural": "peak", "source": "RGE_ALTI ign"}}, {"name": "", "latitude": 47.9210016, "longitude": 7.0088296, "elevation": 1147.0, "source": "osm", "_tags": {"ele": "1147", "natural": "peak", "source": "RGE_ALTI ign"}}, {"name": "", "latitude": 47.9185824, "longitude": 7.0076082, "elevation": 1124.0, "source": "osm", "_tags": {"ele": "1124", "natural": "peak", "source": "RGE_ALTI ign"}}, {"name": "", "latitude": 47.9146212, "longitude": 7.0057951, "elevation": 1110.0, "source": "osm", "_tags": {"ele": "1110", "natural": "peak", "source": "RGE_ALTI ign"}}, {"name": "", "latitude": 47.9264406, "longitude": 6.9950974, "elevation": 1055.0, "source": "osm", "_tags": {"ele": "1055", "natural": "peak", "source": "RGE_ALTI ign"}}, {"name": "Hoernleskopf", "latitude": 47.9743553, "longitude": 7.0299535, "elevation": 1138.0, "source": "osm", "_tags": {"ele": "1138", "name": "Hoernleskopf", "natural": "peak", "source": "RGE_ALTI ign"}}, {"name": "", "latitude": 47.9743405, "longitude": 7.0430195, "elevation": 1236.0, "source": "osm", "_tags": {"ele": "1236", "natural": "peak", "source": "RGE_ALTI ign"}}, {"name": "", "latitude": 47.9932236, "longitude": 7.04971, "elevation": 1026.0, "source": "osm", "_tags": {"ele": "1026", "natural": "peak", "source": "RGE_ALTI ign"}}, {"name": "Steinberg", "latitude": 47.976535, "longitude": 7.1136852, "elevation": 1258.0, "source": "osm", "_tags": {"ele": "1258", "name": "Steinberg", "natural": "peak", "source": "RGE_ALTI ign"}}, {"name": "", "latitude": 47.9777428, "longitude": 7.121624, "elevation": 1228.0, "source": "osm", "_tags": {"ele": "1228", "natural": "peak", "source": "RGE_ALTI ign"}}, {"name": "", "latitude": 47.976649, "longitude": 7.1336882, "elevation": 1164.0, "source": "osm", "_tags": {"ele": "1164", "natural": "peak", "source": "RGE_ALTI ign"}}, {"name": "Kegelritz", "latitude": 47.9890942, "longitude": 7.118497, "elevation": 1166.0, "source": "osm", "_tags": {"ele": "1166", "name": "Kegelritz", "natural": "peak", "source": "RGE_ALTI ign"}}, {"name": "", "latitude": 48.0433151, "longitude": 6.9942535, "elevation": 1168.0, "source": "osm", "_tags": {"ele": "1168", "natural": "peak", "source": "RGE_ALTI ign"}}, {"name": "", "latitude": 48.0436787, "longitude": 6.9887089, "elevation": 1157.0, "source": "osm", "_tags": {"ele": "1157", "natural": "peak", "source": "RGE_ALTI ign"}}, {"name": "", "latitude": 48.0430166, "longitude": 6.9832359, "elevation": 1139.0, "source": "osm", "_tags": {"ele": "1139", "natural": "peak", "source": "RGE_ALTI ign"}}, {"name": "Bramont", "latitude": 48.1578569, "longitude": 7.0401453, "elevation": 941.0, "source": "osm", "_tags": {"ele": "941", "name": "Bramont", "natural": "peak"}}, {"name": "Fohreneck", "latitude": 48.201416, "longitude": 7.8298294, "elevation": 326.0, "source": "osm", "_tags": {"ele": "326", "name": "Fohreneck", "natural": "peak", "source": "LGL, www.lgl-bw.de"}}, {"name": "Streitbanner Kopf", "latitude": 47.9030148, "longitude": 7.8138387, "elevation": 698.0, "source": "osm", "_tags": {"ele": "698", "name": "Streitbanner Kopf", "natural": "peak", "source": "LGL, www.lgl-bw.de"}}, {"name": "Tuniberg", "latitude": 47.9727737, "longitude": 7.6805731, "elevation": 314.0, "source": "osm", "_tags": {"ele": "314", "name": "Tuniberg", "natural": "peak", "source": "LGL, www.lgl-bw.de", "wikipedia": "de:Tuniberg"}}, {"name": "Nimberg", "latitude": 48.0878027, "longitude": 7.7760839, "elevation": 253.0, "source": "osm", "_tags": {"ele": "253", "name": "Nimberg", "natural": "peak", "source": "LGL, www.lgl-bw.de", "wikidata": "Q1992530"}}, {"name": "Tannenbühl", "latitude": 47.6978998, "longitude": 7.8228409, "elevation": 727.0, "source": "osm", "_tags": {"ele": "727", "name": "Tannenbühl", "natural": "peak", "source": "LGL, www.lgl-bw.de"}}, {"name": "Kläfferbuck", "latitude": 47.7008268, "longitude": 7.8106054, "elevation": 660.0, "source": "osm", "_tags": {"ele": "660", "name": "Kläfferbuck", "natural": "peak", "source": "LGL, www.lgl-bw.de"}}, {"name": "", "latitude": 47.7053014, "longitude": 7.7818973, "elevation": 743.0, "source": "osm", "_tags": {"ele": "743", "natural": "peak", "source": "LGL, www.lgl-bw.de"}}, {"name": "Gebetsbühl", "latitude": 47.7142078, "longitude": 7.8348914, "elevation": 699.0, "source": "osm", "_tags": {"ele": "699", "name": "Gebetsbühl", "natural": "peak", "source": "LGL, www.lgl-bw.de"}}, {"name": "", "latitude": 47.729521, "longitude": 7.8293155, "elevation": 940.0, "source": "osm", "_tags": {"comment": "Unter Datenbank lgl-bw.de nur als Waldstück/Gemarkung, nicht eindeutig als Berg unter lgl-bw.de & Messtisch-(historische)Karten", "ele": "940", "natural": "peak", "source": "LGL, www.lgl-bw.de"}}, {"name": "", "latitude": 47.7918786, "longitude": 7.6490759, "elevation": 386.0, "source": "osm", "_tags": {"ele": "386", "natural": "peak", "source": "LGL, www.lgl-bw.de"}}, {"name": "Grüneck", "latitude": 47.7706115, "longitude": 7.6717676, "elevation": 705.0, "source": "osm", "_tags": {"ele": "705", "name": "Grüneck", "natural": "peak", "source": "https://de.wikipedia.org/wiki/Burg_Gr%C3%BCneck_(Obereggenen)"}}, {"name": "Hurrberg", "latitude": 47.7785988, "longitude": 7.5980992, "elevation": 371.0, "source": "osm", "_tags": {"ele": "371", "name": "Hurrberg", "natural": "peak", "source": "LGL, www.lgl-bw.de"}}, {"name": "Luginsland", "latitude": 47.8014693, "longitude": 7.6098282, "elevation": 343.0, "source": "osm", "_tags": {"ele": "343", "name": "Luginsland", "natural": "peak", "source": "LGL, www.lgl-bw.de", "wikidata": "Q1876037"}}, {"name": "Steinberg", "latitude": 47.8128511, "longitude": 7.6710827, "elevation": 530.0, "source": "osm", "_tags": {"ele": "530", "name": "Steinberg", "natural": "peak", "source": "LGL, www.lgl-bw.de"}}, {"name": "Mezelhöhe", "latitude": 47.6090704, "longitude": 7.7121556, "elevation": 485.0, "source": "osm", "_tags": {"ele": "485", "name": "Mezelhöhe", "natural": "peak", "source": "LGL, www.lgl-bw.de"}}, {"name": "Nettenberg", "latitude": 47.5752303, "longitude": 7.7512585, "elevation": 445.0, "source": "osm", "_tags": {"ele": "445", "name": "Nettenberg", "natural": "peak", "source": "LGL, www.lgl-bw.de & de.wikipedia.org/wiki/Degerfelden"}}, {"name": "", "latitude": 47.5822964, "longitude": 7.6925103, "elevation": 489.0, "source": "osm", "_tags": {"comment": "Klaiser nur Gemarkungsname, nicht Bergname laut Wiki von Inzlingen und www.lgl-bw.de", "ele": "489", "natural": "peak"}}, {"name": "Buttenberg", "latitude": 47.5981004, "longitude": 7.6982967, "elevation": 485.0, "source": "osm", "_tags": {"ele": "485", "name": "Buttenberg", "natural": "peak", "source": "LGL, www.lgl-bw.de"}}, {"name": "Schindelberg", "latitude": 47.6341994, "longitude": 7.7091986, "elevation": 418.0, "source": "osm", "_tags": {"ele": "418", "name": "Schindelberg", "natural": "peak", "source": "LGL, www.lgl-bw.de"}}, {"name": "Sausenberg", "latitude": 47.7380488, "longitude": 7.6889563, "elevation": 665.0, "source": "osm", "_tags": {"ele": "665", "name": "Sausenberg", "natural": "peak", "source": "https://www.schwarzwald-tourismus.info/attraktionen/sausenburg-5f24dded5c"}}, {"name": "", "latitude": 47.6086016, "longitude": 7.8402973, "elevation": 476.0, "source": "osm", "_tags": {"comment": "Unter Datenbank lgl-bw.de nur als Waldstück/Gemarkung, nicht eindeutig als Berg unter lgl-bw.de & Messtisch-(historische)Karten", "ele": "476", "natural": "peak", "source": "LGL, www.lgl-bw.de"}}, {"name": "Hörnle", "latitude": 47.8241659, "longitude": 7.7020358, "elevation": 661.0, "source": "osm", "_tags": {"ele": "661", "name": "Hörnle", "natural": "peak"}}, {"name": "Rötebuck", "latitude": 47.7975895, "longitude": 7.6308846, "elevation": 326.0, "source": "osm", "_tags": {"ele": "326", "name": "Rötebuck", "natural": "peak", "source": "LGL, www.lgl-bw.de"}}, {"name": "Innerberg", "latitude": 47.8105084, "longitude": 7.6552123, "elevation": 406.0, "source": "osm", "_tags": {"ele": "406", "name": "Innerberg", "natural": "peak", "source": "LGL, www.lgl-bw.de"}}, {"name": "Haufenwannkopf", "latitude": 48.1027447, "longitude": 7.0966753, "elevation": 1119.0, "source": "osm", "_tags": {"ele": "1119", "name": "Haufenwannkopf", "natural": "peak"}}, {"name": "Jungfrauenkopf", "latitude": 47.9262084, "longitude": 7.0244063, "elevation": 1268.0, "source": "osm", "_tags": {"ele": "1268", "name": "Jungfrauenkopf", "natural": "peak", "wikidata": "Q16647598"}}, {"name": "Moyenmont", "latitude": 48.0093526, "longitude": 6.8995402, "elevation": 969.0, "source": "osm", "_tags": {"ele": "969", "name": "Moyenmont", "natural": "peak"}}, {"name": "Le Tanet", "latitude": 48.0836209, "longitude": 7.0521492, "elevation": 1294.0, "source": "osm", "_tags": {"ele": "1294", "name": "Le Tanet", "name:de": "Tanneck", "natural": "peak", "ref:refuges.info": "5981", "summit:cross": "no", "summit:register": "no", "wikidata": "Q3227523", "wikimedia_commons": "File:Le Tanet 02.jpg", "wikipedia": "fr:Le Tannet"}}, {"name": "Le Horni", "latitude": 47.4542156, "longitude": 7.3188234, "elevation": 788.0, "source": "osm", "_tags": {"ele": "788", "name": "Le Horni", "natural": "peak"}}, {"name": "Hundskopf", "latitude": 47.912104, "longitude": 7.063033, "elevation": 1238.0, "source": "osm", "_tags": {"ele": "1238", "name": "Hundskopf", "natural": "peak", "wikidata": "Q17485159"}}, {"name": "Griebkopf", "latitude": 47.9526211, "longitude": 6.9782692, "elevation": 978.0, "source": "osm", "_tags": {"ele": "978", "name": "Griebkopf", "natural": "peak"}}, {"name": "Trehkopf", "latitude": 47.9270994, "longitude": 7.0163394, "elevation": 1266.0, "source": "osm", "_tags": {"ele": "1266", "name": "Trehkopf", "natural": "peak", "ref:refuges.info": "5990", "wikidata": "Q17426306", "wikipedia": "de:Trehkopf (Vogesen)"}}, {"name": "Felsachkopf", "latitude": 47.9267718, "longitude": 6.931309, "elevation": 1108.0, "source": "osm", "_tags": {"ele": "1108", "name": "Felsachkopf", "natural": "peak", "wikidata": "Q31663985"}}, {"name": "Le Gros Rain", "latitude": 48.1934271, "longitude": 7.065463, "elevation": 985.0, "source": "osm", "_tags": {"ele": "985", "name": "Le Gros Rain", "natural": "peak"}}, {"name": "Haut de Steige", "latitude": 48.1337109, "longitude": 6.9887842, "elevation": 987.0, "source": "osm", "_tags": {"ele": "987", "name": "Haut de Steige", "natural": "peak"}}, {"name": "Tête des Raqués", "latitude": 48.2160823, "longitude": 7.0366758, "elevation": 688.0, "source": "osm", "_tags": {"ele": "688", "name": "Tête des Raqués", "natural": "peak"}}, {"name": "", "latitude": 48.2009209, "longitude": 7.0628784, "elevation": 913.0, "source": "osm", "_tags": {"ele": "913", "natural": "peak"}}, {"name": "Linsberg", "latitude": 47.5737301, "longitude": 7.6653074, "elevation": 430.0, "source": "osm", "_tags": {"ele": "430", "name": "Linsberg", "natural": "peak"}}, {"name": "Hochkopf", "latitude": 47.9169736, "longitude": 7.1837045, "elevation": 545.0, "source": "osm", "_tags": {"ele": "545", "name": "Hochkopf", "natural": "peak"}}, {"name": "Hortimont", "latitude": 48.3200859, "longitude": 6.9847832, "elevation": null, "source": "osm", "_tags": {"name": "Hortimont", "natural": "peak", "source": "IGN - 2024-03-15"}}, {"name": "Haut de la Bolle", "latitude": 48.3343286, "longitude": 6.9670835, "elevation": null, "source": "osm", "_tags": {"name": "Haut de la Bolle", "natural": "peak", "source": "IGN - 2024-03-15"}}, {"name": "Haut des Évaux", "latitude": 48.3338476, "longitude": 6.9522776, "elevation": null, "source": "osm", "_tags": {"name": "Haut des Évaux", "natural": "peak", "source": "IGN - 2024-03-15"}}, {"name": "Tête du Villé", "latitude": 48.3258058, "longitude": 6.9359025, "elevation": null, "source": "osm", "_tags": {"name": "Tête du Villé", "natural": "peak", "source": "IGN - 2024-03-15"}}, {"name": "Haut du Rouau", "latitude": 48.3351725, "longitude": 6.908157, "elevation": null, "source": "osm", "_tags": {"name": "Haut du Rouau", "natural": "peak", "source": "IGN - 2024-03-15"}}, {"name": "Haut de Brayère", "latitude": 48.3380068, "longitude": 6.9246688, "elevation": null, "source": "osm", "_tags": {"name": "Haut de Brayère", "natural": "peak", "source": "IGN - 2024-03-15"}}, {"name": "Haut du Mont", "latitude": 48.3383857, "longitude": 6.9051827, "elevation": null, "source": "osm", "_tags": {"name": "Haut du Mont", "natural": "peak", "source": "IGN - 2024-03-15"}}, {"name": "Turumont", "latitude": 48.3513804, "longitude": 6.9100737, "elevation": null, "source": "osm", "_tags": {"name": "Turumont", "natural": "peak", "source": "IGN - 2024-03-15"}}, {"name": "Haut de Charrière", "latitude": 48.3580717, "longitude": 6.8917256, "elevation": null, "source": "osm", "_tags": {"name": "Haut de Charrière", "natural": "peak", "source": "IGN - 2024-03-15"}}, {"name": "Tête de Himbaumont", "latitude": 48.3644114, "longitude": 6.8959136, "elevation": null, "source": "osm", "_tags": {"name": "Tête de Himbaumont", "natural": "peak", "source": "IGN - 2024-03-15"}}, {"name": "Haut de Belfays", "latitude": 48.3532477, "longitude": 7.0637807, "elevation": null, "source": "osm", "_tags": {"name": "Haut de Belfays", "natural": "peak", "source": "IGN - 2024-03-15"}}, {"name": "Haut de l'Estrépoud", "latitude": 48.3560385, "longitude": 7.0471947, "elevation": null, "source": "osm", "_tags": {"name": "Haut de l'Estrépoud", "natural": "peak", "source": "IGN - 2024-03-15"}}, {"name": "", "latitude": 48.1391908, "longitude": 7.1632167, "elevation": 773.0, "source": "osm", "_tags": {"ele": "773", "natural": "peak"}}, {"name": "Rebberg", "latitude": 48.3528371, "longitude": 7.2978717, "elevation": null, "source": "osm", "_tags": {"name": "Rebberg", "natural": "peak", "source": "IGN - 2024-03-15"}}, {"name": "Buchberg", "latitude": 48.3619283, "longitude": 7.4245824, "elevation": null, "source": "osm", "_tags": {"name": "Buchberg", "natural": "peak", "source": "IGN - 2024-03-15"}}, {"name": "le Louschbach", "latitude": 48.145658, "longitude": 7.0593452, "elevation": null, "source": "osm", "_tags": {"name": "le Louschbach", "natural": "peak", "source": "IGN - 2024-03-15"}}, {"name": "le Gestion", "latitude": 48.1294516, "longitude": 7.195888, "elevation": null, "source": "osm", "_tags": {"name": "le Gestion", "natural": "peak", "source": "IGN - 2024-03-15"}}, {"name": "Vorhofkopf d'Ammerschwihr", "latitude": 48.1253748, "longitude": 7.2112012, "elevation": null, "source": "osm", "_tags": {"name": "Vorhofkopf d'Ammerschwihr", "natural": "peak", "source": "IGN - 2024-03-15"}}, {"name": "Vorhofkopf de Kaysersberg", "latitude": 48.1370369, "longitude": 7.2203985, "elevation": null, "source": "osm", "_tags": {"name": "Vorhofkopf de Kaysersberg", "natural": "peak", "source": "IGN - 2024-03-15"}}, {"name": "Rossberg", "latitude": 48.1774986, "longitude": 7.0835431, "elevation": null, "source": "osm", "_tags": {"name": "Rossberg", "natural": "peak", "source": "IGN - 2024-03-15"}}, {"name": "la Grande Roche", "latitude": 48.178997, "longitude": 7.1542079, "elevation": 1105.0, "source": "osm", "_tags": {"ele": "1105", "name": "la Grande Roche", "natural": "peak", "source": "IGN - 2024-03-15"}}, {"name": "Eichenrainkopf", "latitude": 48.1640549, "longitude": 7.2191136, "elevation": null, "source": "osm", "_tags": {"name": "Eichenrainkopf", "natural": "peak", "source": "IGN - 2024-03-15"}}, {"name": "Mont de Sigolsheim", "latitude": 48.1476682, "longitude": 7.2949211, "elevation": null, "source": "osm", "_tags": {"name": "Mont de Sigolsheim", "natural": "peak", "source": "IGN - 2024-03-15"}}, {"name": "Meywihr", "latitude": 48.1166178, "longitude": 7.2732082, "elevation": null, "source": "osm", "_tags": {"name": "Meywihr", "natural": "peak", "source": "IGN - 2024-03-15"}}, {"name": "Schussrainkopf", "latitude": 48.1602231, "longitude": 7.2504826, "elevation": null, "source": "osm", "_tags": {"name": "Schussrainkopf", "natural": "peak", "source": "IGN - 2024-03-15"}}, {"name": "Altenberg", "latitude": 48.239502, "longitude": 7.1904669, "elevation": null, "source": "osm", "_tags": {"name": "Altenberg", "natural": "peak", "source": "IGN - 2024-03-15"}}, {"name": "Schulberg", "latitude": 48.2242373, "longitude": 7.1597188, "elevation": null, "source": "osm", "_tags": {"name": "Schulberg", "natural": "peak", "source": "IGN - 2024-03-15"}}, {"name": "Spiemont", "latitude": 48.2487759, "longitude": 7.2564742, "elevation": null, "source": "osm", "_tags": {"name": "Spiemont", "natural": "peak", "source": "IGN - 2024-03-15"}}, {"name": "le Chat Pendu", "latitude": 48.2939434, "longitude": 7.2474728, "elevation": null, "source": "osm", "_tags": {"name": "le Chat Pendu", "natural": "peak", "source": "IGN - 2024-03-15"}}, {"name": "Hautegarde", "latitude": 48.298221, "longitude": 7.238449, "elevation": null, "source": "osm", "_tags": {"name": "Hautegarde", "natural": "peak", "source": "IGN - 2024-03-15"}}, {"name": "Haut de Bestégoutte", "latitude": 48.2949007, "longitude": 7.2340214, "elevation": null, "source": "osm", "_tags": {"name": "Haut de Bestégoutte", "natural": "peak", "source": "IGN - 2024-03-15"}}, {"name": "le Barançon", "latitude": 48.2977173, "longitude": 7.2050142, "elevation": null, "source": "osm", "_tags": {"name": "le Barançon", "natural": "peak", "source": "IGN - 2024-03-15"}}, {"name": "Haut Domont", "latitude": 48.3277223, "longitude": 7.1108855, "elevation": null, "source": "osm", "_tags": {"name": "Haut Domont", "natural": "peak", "source": "IGN - 2024-03-15"}}, {"name": "la Grande Faîte", "latitude": 48.322464, "longitude": 7.148885, "elevation": null, "source": "osm", "_tags": {"name": "la Grande Faîte", "natural": "peak", "source": "IGN - 2024-03-15"}}, {"name": "Haut de la Bassotte", "latitude": 48.3184714, "longitude": 7.1645626, "elevation": null, "source": "osm", "_tags": {"name": "Haut de la Bassotte", "natural": "peak", "source": "IGN - 2024-03-15"}}, {"name": "le Loquet", "latitude": 48.3247432, "longitude": 7.1759063, "elevation": null, "source": "osm", "_tags": {"name": "le Loquet", "natural": "peak", "source": "IGN - 2024-03-15"}}, {"name": "Comont", "latitude": 48.3279158, "longitude": 7.2005819, "elevation": null, "source": "osm", "_tags": {"name": "Comont", "natural": "peak", "source": "IGN - 2024-03-15"}}, {"name": "Kinschberg", "latitude": 48.353976, "longitude": 7.2819358, "elevation": null, "source": "osm", "_tags": {"name": "Kinschberg", "natural": "peak", "source": "IGN - 2024-03-15"}}, {"name": "Erdbeerberg", "latitude": 48.3569289, "longitude": 7.2798361, "elevation": null, "source": "osm", "_tags": {"name": "Erdbeerberg", "natural": "peak", "source": "IGN - 2024-03-15"}}, {"name": "Muehlberg", "latitude": 48.3618017, "longitude": 7.2751194, "elevation": null, "source": "osm", "_tags": {"name": "Muehlberg", "natural": "peak", "source": "IGN - 2024-03-15"}}, {"name": "Altenberg", "latitude": 48.3117677, "longitude": 7.3044604, "elevation": null, "source": "osm", "_tags": {"name": "Altenberg", "natural": "peak", "source": "IGN - 2024-03-15"}}, {"name": "Kochersberg", "latitude": 48.2328657, "longitude": 7.3320888, "elevation": null, "source": "osm", "_tags": {"name": "Kochersberg", "natural": "peak", "source": "IGN - 2024-03-15"}}, {"name": "Muehlkopf", "latitude": 48.1952655, "longitude": 7.289822, "elevation": null, "source": "osm", "_tags": {"name": "Muehlkopf", "natural": "peak", "source": "IGN - 2024-03-15"}}, {"name": "Grasberg", "latitude": 48.2140451, "longitude": 7.3548998, "elevation": null, "source": "osm", "_tags": {"name": "Grasberg", "natural": "peak", "source": "IGN - 2024-03-15"}}, {"name": "Gloeckelberg", "latitude": 48.2297697, "longitude": 7.345764, "elevation": null, "source": "osm", "_tags": {"name": "Gloeckelberg", "natural": "peak", "source": "IGN - 2024-03-15"}}, {"name": "Schlossberg", "latitude": 48.291213, "longitude": 7.3984206, "elevation": null, "source": "osm", "_tags": {"name": "Schlossberg", "natural": "peak", "source": "IGN - 2024-03-15"}}, {"name": "Neuberg", "latitude": 48.329207, "longitude": 7.4015909, "elevation": null, "source": "osm", "_tags": {"name": "Neuberg", "natural": "peak", "source": "IGN - 2024-03-15"}}, {"name": "Bischberg", "latitude": 48.3213937, "longitude": 7.4106059, "elevation": null, "source": "osm", "_tags": {"name": "Bischberg", "natural": "peak", "source": "IGN - 2024-03-15"}}, {"name": "Rehhag Berg", "latitude": 48.3123589, "longitude": 7.3990467, "elevation": null, "source": "osm", "_tags": {"name": "Rehhag Berg", "natural": "peak", "source": "IGN - 2024-03-15"}}, {"name": "Leisbuehlbuckel", "latitude": 48.3028268, "longitude": 7.4093064, "elevation": null, "source": "osm", "_tags": {"name": "Leisbuehlbuckel", "natural": "peak", "source": "IGN - 2024-03-15"}}, {"name": "Tête de la Forêt du Lange", "latitude": 48.2038147, "longitude": 6.9935288, "elevation": 739.0, "source": "osm", "_tags": {"ele": "739", "name": "Tête de la Forêt du Lange", "natural": "peak"}}, {"name": "Wiedener Hörnle", "latitude": 47.855499, "longitude": 7.8735743, "elevation": 1187.0, "source": "osm", "_tags": {"ele": "1187", "name": "Wiedener Hörnle", "natural": "peak"}}, {"name": "Tête des Russiers (ou Steinkopf)", "latitude": 47.8949481, "longitude": 6.9108415, "elevation": 1187.0, "source": "osm", "_tags": {"ele": "1187", "name": "Tête des Russiers (ou Steinkopf)", "natural": "peak"}}, {"name": "Hasenkopf", "latitude": 47.9059673, "longitude": 6.925976, "elevation": 1188.0, "source": "osm", "_tags": {"ele": "1188", "name": "Hasenkopf", "natural": "peak"}}, {"name": "Haut de Taye", "latitude": 47.8714997, "longitude": 6.8848042, "elevation": 1161.0, "source": "osm", "_tags": {"ele": "1161", "name": "Haut de Taye", "natural": "peak"}}, {"name": "Large Tête", "latitude": 47.870154, "longitude": 6.8967749, "elevation": null, "source": "osm", "_tags": {"name": "Large Tête", "natural": "peak"}}, {"name": "Tête des Charbonniers", "latitude": 47.8358919, "longitude": 6.8975721, "elevation": 1138.0, "source": "osm", "_tags": {"ele": "1138", "name": "Tête des Charbonniers", "natural": "peak"}}, {"name": "Kuppelthannkopf", "latitude": 47.8074939, "longitude": 7.0508495, "elevation": 885.0, "source": "osm", "_tags": {"ele": "885", "name": "Kuppelthannkopf", "natural": "peak"}}, {"name": "Hochburg", "latitude": 47.8011626, "longitude": 7.0531757, "elevation": 751.0, "source": "osm", "_tags": {"ele": "751", "name": "Hochburg", "natural": "peak"}}, {"name": "Saegenkopf", "latitude": 47.7665565, "longitude": 7.0159096, "elevation": 565.0, "source": "osm", "_tags": {"ele": "565", "name": "Saegenkopf", "natural": "peak"}}, {"name": "Kuppen", "latitude": 47.8309027, "longitude": 7.0711091, "elevation": 497.0, "source": "osm", "_tags": {"ele": "497", "name": "Kuppen", "natural": "peak"}}, {"name": "Bannbergkopf", "latitude": 47.8319902, "longitude": 6.9943678, "elevation": 1081.0, "source": "osm", "_tags": {"ele": "1081", "name": "Bannbergkopf", "natural": "peak"}}, {"name": "Belackerkopf", "latitude": 47.8349677, "longitude": 6.9894541, "elevation": 1043.0, "source": "osm", "_tags": {"ele": "1043", "name": "Belackerkopf", "natural": "peak"}}, {"name": "Stiftkopf", "latitude": 47.8429617, "longitude": 6.9841609, "elevation": 1055.0, "source": "osm", "_tags": {"ele": "1055", "name": "Stiftkopf", "natural": "peak"}}, {"name": "Mittelrainkopf", "latitude": 47.8463738, "longitude": 6.9580382, "elevation": 1101.0, "source": "osm", "_tags": {"ele": "1101", "name": "Mittelrainkopf", "natural": "peak"}}, {"name": "Johanneskopf", "latitude": 47.8411749, "longitude": 6.9677585, "elevation": 1003.0, "source": "osm", "_tags": {"ele": "1003", "name": "Johanneskopf", "natural": "peak"}}, {"name": "", "latitude": 47.8438536, "longitude": 6.9613856, "elevation": 1071.0, "source": "osm", "_tags": {"ele": "1071", "natural": "peak"}}, {"name": "Rimbachkopf", "latitude": 47.8510367, "longitude": 6.9396643, "elevation": 1195.0, "source": "osm", "_tags": {"ele": "1195", "name": "Rimbachkopf", "natural": "peak"}}, {"name": "", "latitude": 47.8487546, "longitude": 6.9332812, "elevation": 1194.0, "source": "osm", "_tags": {"ele": "1194", "natural": "peak"}}, {"name": "", "latitude": 47.848299, "longitude": 6.9432936, "elevation": 1133.0, "source": "osm", "_tags": {"ele": "1133", "natural": "peak"}}, {"name": "", "latitude": 47.8470359, "longitude": 6.9497576, "elevation": 1065.0, "source": "osm", "_tags": {"ele": "1065", "natural": "peak"}}, {"name": "Essenbachkopf", "latitude": 47.8573965, "longitude": 6.946965, "elevation": 973.0, "source": "osm", "_tags": {"ele": "973", "name": "Essenbachkopf", "natural": "peak"}}, {"name": "", "latitude": 47.8587368, "longitude": 6.9514246, "elevation": 972.0, "source": "osm", "_tags": {"ele": "972", "natural": "peak"}}, {"name": "Eichkopf", "latitude": 47.8740745, "longitude": 6.9584696, "elevation": 593.0, "source": "osm", "_tags": {"ele": "593", "name": "Eichkopf", "natural": "peak"}}, {"name": "Le Chauvelin", "latitude": 47.8774668, "longitude": 6.9691267, "elevation": 683.0, "source": "osm", "_tags": {"ele": "683", "name": "Le Chauvelin", "natural": "peak"}}, {"name": "Brandkopf", "latitude": 47.8730619, "longitude": 6.9913515, "elevation": 704.0, "source": "osm", "_tags": {"ele": "704", "name": "Brandkopf", "natural": "peak"}}, {"name": "Grunenwaldkopf", "latitude": 47.859694, "longitude": 6.9811804, "elevation": 849.0, "source": "osm", "_tags": {"ele": "849", "name": "Grunenwaldkopf", "natural": "peak"}}, {"name": "Kohlgrubenkopf", "latitude": 47.8479426, "longitude": 6.9821671, "elevation": 955.0, "source": "osm", "_tags": {"ele": "955", "name": "Kohlgrubenkopf", "natural": "peak"}}, {"name": "Hirschbachkopf", "latitude": 47.8701242, "longitude": 7.0139273, "elevation": 602.0, "source": "osm", "_tags": {"ele": "602", "name": "Hirschbachkopf", "natural": "peak"}}, {"name": "", "latitude": 47.8369227, "longitude": 7.1061207, "elevation": 801.0, "source": "osm", "_tags": {"ele": "801", "natural": "peak"}}, {"name": "Hohneck", "latitude": 47.8751501, "longitude": 7.0966238, "elevation": 812.0, "source": "osm", "_tags": {"ele": "812", "name": "Hohneck", "natural": "peak"}}, {"name": "Geisskopf", "latitude": 47.9108174, "longitude": 7.164522, "elevation": 735.0, "source": "osm", "_tags": {"ele": "735", "name": "Geisskopf", "natural": "peak"}}, {"name": "Ospenkopf", "latitude": 47.9219201, "longitude": 7.1258924, "elevation": 910.0, "source": "osm", "_tags": {"ele": "910", "name": "Ospenkopf", "natural": "peak"}}, {"name": "Pfaffenkopf", "latitude": 47.9211262, "longitude": 6.9768261, "elevation": 718.0, "source": "osm", "_tags": {"ele": "718", "name": "Pfaffenkopf", "natural": "peak"}}, {"name": "", "latitude": 47.9127748, "longitude": 6.969858, "elevation": 554.0, "source": "osm", "_tags": {"ele": "554", "natural": "peak"}}, {"name": "", "latitude": 47.9053285, "longitude": 6.9770797, "elevation": 544.0, "source": "osm", "_tags": {"ele": "544", "natural": "peak"}}, {"name": "Haut de Falimont", "latitude": 48.0428769, "longitude": 7.0096992, "elevation": 1306.0, "source": "osm", "_tags": {"ele": "1306", "name": "Haut de Falimont", "natural": "peak"}}, {"name": "Kerbholzkopf", "latitude": 48.0766009, "longitude": 7.0686873, "elevation": 1105.0, "source": "osm", "_tags": {"ele": "1105", "name": "Kerbholzkopf", "natural": "peak"}}]