[{"name": "المستشفى المحلي لدوز", "latitude": 33.4751136, "longitude": 9.0218993, "source": "osm", "_tags": {"addr:street": "Route kebili C206", "amenity": "hospital", "check_date": "2025-02-28", "name": "المستشفى المحلي لدوز", "name:ar": "المستشفى المحلي لدوز", "name:fr": "Hôpital de Douz", "phone": "+216 75 470 012"}}, {"name": "Hôpital", "latitude": 33.6678843, "longitude": 9.0116366, "source": "osm", "_tags": {"amenity": "hospital", "healthcare": "hospital", "healthcare:speciality": "community", "name": "Hôpital"}}, {"name": "المستشفى المحلي بدوز", "latitude": 33.4754004, "longitude": 9.0217488, "source": "osm", "_tags": {"addr:street": "Route kebili C206", "amenity": "hospital", "barrier": "wall", "check_date": "2025-02-28", "emergency": "yes", "name": "المستشفى المحلي بدوز", "name:ar": "المستشفى المحلي بدوز", "name:fr": "Hôpital de Douz", "phone": "+216 75 470 323;+216 75 470 012"}}, {"name": "المستشفى الجهوي بقبلي", "latitude": 33.7185003, "longitude": 8.9732659, "source": "osm", "_tags": {"addr:postcode": "4200", "addr:street": "Route de Gabes", "amenity": "hospital", "barrier": "wall", "name": "المستشفى الجهوي بقبلي", "name:ar": "المستشفى الجهوي بقبلي", "name:fr": "Hôpital Régional de Kébili", "phone": "+216 75 490 210"}}, {"name": "", "latitude": 33.7818193, "longitude": 8.8356998, "source": "osm", "_tags": {"addr:city": "سوق الأحد", "amenity": "hospital", "healthcare": "hospital"}}]