[{"name": "عيادة نعوم مريق", "latitude": 33.7890491, "longitude": 3.138855, "source": "osm", "_tags": {"amenity": "hospital", "healthcare": "hospital", "name": "عيادة نعوم مريق", "name:ar": "عيادة نعوم مريق"}}, {"name": "عميرة عكوش", "latitude": 33.7501642, "longitude": 2.9988748, "source": "osm", "_tags": {"addr:housenumber": "92", "addr:postcode": "0332", "addr:street": "احمد فرحاة", "amenity": "hospital", "name": "عميرة عكوش", "name:ar": "ابو العتوه عميرة عكوش", "name:en": "Omar akkouche", "phone": "0555557180"}}, {"name": "", "latitude": 33.7778402, "longitude": 3.1469271, "source": "osm", "_tags": {"addr:street": "طريق قصر الحيران - حاسي الدلاعة", "amenity": "hospital", "name:fr": "Hôpital Houari Boumadiene (kasr El Hirane)"}}, {"name": "Hôpital Ben Adjila", "latitude": 33.8060764, "longitude": 2.8581161, "source": "osm", "_tags": {"amenity": "hospital", "emergency": "yes", "healthcare": "hospital", "name": "Hôpital Ben Adjila", "name:ar": "مستشفى احميدة بن عجيلة", "name:en": "Ahmaida Ben Adjila Hospital", "name:fr": "Hôpital Ahmaida Ben Adjila"}}, {"name": "المؤسسات الجزائرية المصغرة", "latitude": 33.8012457, "longitude": 2.8690665, "source": "osm", "_tags": {"addr:city": "الأغواط", "addr:city:ar": "الأغواط", "amenity": "hospital", "healthcare": "hospital", "name": "المؤسسات الجزائرية المصغرة", "name:ar": "المؤسسات الجزائرية المصغرة", "name:fr": "PME"}}, {"name": "Hopital Maternité", "latitude": 33.8035535, "longitude": 2.8731265, "source": "osm", "_tags": {"addr:postcode": "03000", "addr:street": "Av. Docteur Sadanne", "amenity": "hospital", "healthcare": "hospital", "name": "Hopital Maternité", "name:ar": "مستشفى الأمومة", "name:fr": "Hôpital Maternité", "opening_hours": "24/7"}}, {"name": "مستوصف الوئام", "latitude": 33.785009, "longitude": 2.8472297, "source": "osm", "_tags": {"amenity": "hospital", "name": "مستوصف الوئام", "name:ar": "مستوصف الوئام", "name:en": "Polyclinique El Wiam"}}, {"name": "مستشفى 240 سريـر بالأغواط العقيد لطفي", "latitude": 33.7912412, "longitude": 2.8499194, "source": "osm", "_tags": {"amenity": "hospital", "emergency": "yes", "healthcare": "hospital", "name": "مستشفى 240 سريـر بالأغواط العقيد لطفي", "name:ar": "مستشفى 240 سريـر بالأغواط", "name:en": "Hospital 240 beds Laghouat", "name:fr": "Hôpital 240 lits Laghouat"}}, {"name": "مركز مكافحة السرطان", "latitude": 33.7904379, "longitude": 2.8467579, "source": "osm", "_tags": {"addr:city": "Laghouat", "amenity": "hospital", "healthcare": "hospital", "name": "مركز مكافحة السرطان", "name:ar": "مركز مكافحة السرطان", "name:en": "anti-cancer center", "name:fr": "Centre anti-cancer"}}, {"name": "", "latitude": 33.7888831, "longitude": 3.1386337, "source": "osm", "_tags": {"amenity": "hospital", "healthcare": "hospital"}}, {"name": "عميرة عكوش", "latitude": 33.7502244, "longitude": 2.9988374, "source": "osm", "_tags": {"amenity": "hospital", "healthcare": "hospital", "name": "عميرة عكوش", "name:ar": "عميرة عكوش"}}]