[{"name": "Polyclinique", "latitude": 33.2840335, "longitude": -8.3539011, "source": "osm", "_tags": {"amenity": "hospital", "designation": "Polyclinique", "emergency": "yes", "healthcare": "hospital", "name": "Polyclinique"}}, {"name": "", "latitude": 33.2911223, "longitude": -8.3437285, "source": "osm", "_tags": {"amenity": "hospital", "healthcare": "hospital"}}, {"name": "", "latitude": 33.2985661, "longitude": -8.3309461, "source": "osm", "_tags": {"amenity": "hospital", "healthcare": "hospital"}}, {"name": "H么pital Mohamed V", "latitude": 33.250859, "longitude": -8.5092357, "source": "osm", "_tags": {"amenity": "hospital", "healthcare": "hospital", "name": "H么pital Mohamed V"}}, {"name": "Polyclinique CNSS", "latitude": 33.24657, "longitude": -8.5195555, "source": "osm", "_tags": {"amenity": "hospital", "healthcare": "hospital", "name": "Polyclinique CNSS"}}, {"name": "Croissant Rouge Marocain", "latitude": 33.2459395, "longitude": -8.5119542, "source": "osm", "_tags": {"amenity": "hospital", "healthcare": "hospital", "name": "Croissant Rouge Marocain"}}, {"name": "H么pital Essaada", "latitude": 33.2431155, "longitude": -8.5305848, "source": "osm", "_tags": {"amenity": "hospital", "healthcare": "hospital", "name": "H么pital Essaada"}}, {"name": "Clinique Doukkala", "latitude": 33.2491815, "longitude": -8.5080139, "source": "osm", "_tags": {"amenity": "hospital", "healthcare": "hospital", "name": "Clinique Doukkala"}}, {"name": "", "latitude": 33.2860662, "longitude": -8.3443484, "source": "osm", "_tags": {"amenity": "hospital", "healthcare": "hospital"}}, {"name": "Hopital Provincial Mohammed V", "latitude": 33.2354468, "longitude": -8.4793636, "source": "osm", "_tags": {"amenity": "hospital", "healthcare": "hospital", "name": "Hopital Provincial Mohammed V"}}]