[{"name": "مستشفى بن صميم", "latitude": 33.4980278, "longitude": -5.1681919, "source": "osm", "_tags": {"abandoned": "yes", "amenity": "hospital", "description": "الدمار و الخراب يسود المكان", "healthcare": "hospital", "name": "مستشفى بن صميم", "ruins:building": "yes"}}, {"name": "Hôpital Provincial 20 Août", "latitude": 33.4392031, "longitude": -5.2144338, "source": "osm", "_tags": {"amenity": "hospital", "healthcare": "hospital", "name": "Hôpital Provincial 20 Août"}}, {"name": "Centre de Santé Essalam", "latitude": 33.5199205, "longitude": -5.1194827, "source": "osm", "_tags": {"amenity": "hospital", "building": "yes", "healthcare": "hospital", "name": "Centre de Santé Essalam"}}, {"name": "Polyclinique Ahadaf", "latitude": 33.4427162, "longitude": -5.2227346, "source": "osm", "_tags": {"amenity": "hospital", "healthcare": "hospital", "name": "Polyclinique Ahadaf"}}, {"name": "", "latitude": 33.5361164, "longitude": -5.1167979, "source": "osm", "_tags": {"amenity": "hospital", "healthcare": "hospital"}}, {"name": "Hôpital Ahdav مستوصف أحداف", "latitude": 33.4427961, "longitude": -5.2286411, "source": "osm", "_tags": {"amenity": "hospital", "healthcare": "hospital", "name": "Hôpital Ahdav مستوصف أحداف", "name:ar": "مستوصف أحداف", "name:fr": "Hôpital Ahdav"}}, {"name": "", "latitude": 33.3863973, "longitude": -4.8341629, "source": "osm", "_tags": {"amenity": "hospital", "healthcare": "hospital"}}, {"name": "مستشفى إيموزار مرموشة - Imouzzer Marmoucha Hospital", "latitude": 33.4683163, "longitude": -4.3010944, "source": "osm", "_tags": {"addr:city": "Imouzzer Marmoucha إموزار مرموشة", "addr:postcode": "33152", "amenity": "hospital", "building:levels": "2", "healthcare": "hospital", "name": "مستشفى إيموزار مرموشة - Imouzzer Marmoucha Hospital"}}]