[{"name": "بوابة الامل", "latitude": 32.8710922, "longitude": 13.1439374, "source": "osm", "_tags": {"amenity": "hospital", "healthcare": "hospital", "name": "بوابة الامل", "name:ar": "قرجي", "name:en": "Qurji", "name:fr": "Qurji", "name:it": "Gurgi", "pcode": "LY-30-10782", "shabya_cd": "30", "source": "NGA;OCHA"}}, {"name": "مصرف الدم المركزي طرابلس", "latitude": 32.9055422, "longitude": 13.2275203, "source": "osm", "_tags": {"addr:street": "طريق الشط", "amenity": "hospital", "name": "مصرف الدم المركزي طرابلس", "name:ar": "مصرف الدم المركزي طرابلس", "name:en": "Tripoli Central Bank of Blood"}}, {"name": "مستشفى ذوي الهمم \"المعاقين\"", "latitude": 32.8305579, "longitude": 13.0415329, "source": "osm", "_tags": {"addr:street": "الطريق الدائري جنزور", "amenity": "hospital", "name": "مستشفى ذوي الهمم \"المعاقين\"", "name:ar": "مستشفى ذوي الاحتياجات الخاصة \"المعاقين\"", "name:en": "Special Needs Hospital"}}, {"name": "المجمع الصحي غوط الشعال", "latitude": 32.8506535, "longitude": 13.0986766, "source": "osm", "_tags": {"addr:street": "10 Street", "amenity": "hospital", "name": "المجمع الصحي غوط الشعال", "name:ar": "المجمع الصحي غوط الشعال", "name:en": "Health Complex, GOWT AL SHA’AL", "name:it": "Complesso di salute, GOWT AL SHA’AL"}}, {"name": "مصحة الضياء", "latitude": 32.8327649, "longitude": 13.0272713, "source": "osm", "_tags": {"amenity": "hospital", "name": "مصحة الضياء", "name:ar": "مصحة الضياء", "name:en": "Al-Deiaa Clinic"}}, {"name": "مستشفى الجلاء للأطفال", "latitude": 32.8842411, "longitude": 13.162686, "source": "osm", "_tags": {"addr:street": "Omar Almukhtar Rd/شارع عمر المختار", "amenity": "hospital", "name": "مستشفى الجلاء للأطفال", "name:ar": "مستشفى الجلاء للنساء والولادة", "name:en": "AL JALAA children’s Hospital"}}, {"name": "الليبي الأكر اني للعيون", "latitude": 32.8616797, "longitude": 13.2477776, "source": "osm", "_tags": {"amenity": "hospital", "name": "الليبي الأكر اني للعيون", "name:ar": "الليبي الأكر اني للعيون", "name:en": "Libyan Ukrainian eyes"}}, {"name": "الليبي الأوكراني للعيون", "latitude": 32.8616688, "longitude": 13.2477839, "source": "osm", "_tags": {"addr:street": "شارع 11 يوليو", "amenity": "hospital", "name": "الليبي الأوكراني للعيون", "name:ar": "الليبي الأوكراني للعيون", "name:en": "Libyan Ukrainian eyes", "name:it": "Occhi ucraini libici"}}, {"name": "مركز العلاج الطبيعي", "latitude": 32.851625, "longitude": 13.2503036, "source": "osm", "_tags": {"addr:street": "طريق الجامعة", "amenity": "hospital", "healthcare": "hospital", "name": "مركز العلاج الطبيعي", "name:ar": "مركز العلاج الطبيعي", "name:en": "Physiotherapy center"}}, {"name": "مستوصف فيلات الدريبي (الزئزة)", "latitude": 32.844199, "longitude": 13.1180363, "source": "osm", "_tags": {"addr:street": "فيلات الدريبي", "amenity": "hospital", "name": "مستوصف فيلات الدريبي (الزئزة)", "name:ar": "مستوصف فيلات الدريبي (الزئزة)", "name:en": "Local Clinic"}}, {"name": "مستوصف الحرية", "latitude": 32.8521156, "longitude": 13.2377684, "source": "osm", "_tags": {"amenity": "hospital", "name": "مستوصف الحرية", "name:ar": "مستوصف الحرية", "name:en": "Freedom Hospital"}}, {"name": "مستشفى الأبراج", "latitude": 32.9064107, "longitude": 13.2661537, "source": "osm", "_tags": {"amenity": "hospital", "name": "مستشفى الأبراج", "name:ar": "مستشفى الأبراج", "name:en": "ABRAJ Hospital"}}, {"name": "المركز الصحي كشلاف", "latitude": 32.8612465, "longitude": 13.1298459, "source": "osm", "_tags": {"addr:street": "كشلاف", "amenity": "hospital", "healthcare": "hospital", "name": "المركز الصحي كشلاف", "name:ar": "المركز الصحي كشلاف", "name:en": "Healthcare Keshlaf"}}, {"name": "مصحة الهلال الأحمر", "latitude": 32.8853078, "longitude": 13.18183, "source": "osm", "_tags": {"addr:city": "Tripoli", "addr:street": "شارع النصر", "amenity": "hospital", "healthcare": "hospital", "name": "مصحة الهلال الأحمر", "name:ar": "مصحة الهلال الأحمر", "name:en": "Red Crescent Clinic", "name:fr": "Clinique du Croissant-Rouge"}}, {"name": "مستوصف الشارع الغربي", "latitude": 32.8687291, "longitude": 13.1495428, "source": "osm", "_tags": {"addr:street": "الشارع الغربي", "amenity": "hospital", "healthcare": "hospital", "name": "مستوصف الشارع الغربي", "name:ar": "مستوصف الشارع الغربي", "name:en": "Hospital Western street"}}, {"name": "مستوصف طريق المطار", "latitude": 32.8509321, "longitude": 13.1620471, "source": "osm", "_tags": {"amenity": "hospital", "healthcare": "hospital", "name": "مستوصف طريق المطار", "name:ar": "مستوصف طريق المطار", "name:en": "Airport Road Infirmary"}}, {"name": "مستشفي إندير", "latitude": 32.9016926, "longitude": 13.2196608, "source": "osm", "_tags": {"addr:street": "طريق الشط", "amenity": "hospital", "name": "مستشفي إندير", "name:ar": "مستشفي إندير", "name:en": "ENDER Hospital"}}, {"name": "مركز طرابلس لأمراض الكلى", "latitude": 32.9052961, "longitude": 13.2276283, "source": "osm", "_tags": {"addr:street": "طريق الشط", "amenity": "hospital", "name": "مركز طرابلس لأمراض الكلى", "name:ar": "مركز طرابلس لأمراض الكلى", "name:en": "Tripoli Center for Kidney disease"}}, {"name": "مستوصف غوط الديس (حي الاسلامي)", "latitude": 32.8618422, "longitude": 13.1133731, "source": "osm", "_tags": {"addr:street": "طريق قرجي", "amenity": "hospital", "healthcare": "hospital", "name": "مستوصف غوط الديس (حي الاسلامي)", "name:ar": "مستوصف غوط الديس (حي الاسلامي)", "name:en": "hospital of Hay Islamy", "name:it": "Ospedale di Hay Islamy"}}, {"name": "مستشفى الجسر الجديد", "latitude": 32.8626687, "longitude": 13.2391445, "source": "osm", "_tags": {"addr:street": "طريق الحشان", "amenity": "hospital", "name": "مستشفى الجسر الجديد", "name:ar": "مستشفى الجسر الجديد", "name:en": "Hospital New Bridge"}}, {"name": "مستشفى الجسر الجديد", "latitude": 32.8637641, "longitude": 13.2385921, "source": "osm", "_tags": {"amenity": "hospital", "name": "مستشفى الجسر الجديد", "name:ar": "مستشفى الجسر الجديد", "name:en": "Hospital New Bridge"}}, {"name": "مشفى الكفاءة", "latitude": 32.8627077, "longitude": 13.2128003, "source": "osm", "_tags": {"addr:street": "طريق الجامعة", "amenity": "hospital", "name": "مشفى الكفاءة", "name:ar": "مشفى الكفاءة", "name:en": "Alkafaa Hospital"}}, {"name": "الهلال المنير", "latitude": 32.8163798, "longitude": 13.3481527, "source": "osm", "_tags": {"addr:postcode": "218", "addr:street": "طريق البواعيش", "amenity": "hospital", "name": "الهلال المنير", "name:ar": "الهلال المنير", "name:en": "Alhelal Almonear"}}, {"name": "مركز قدور الطبي", "latitude": 32.8489608, "longitude": 13.2930374, "source": "osm", "_tags": {"addr:street": "طريق المشتل", "amenity": "hospital", "healthcare": "hospital", "name": "مركز قدور الطبي", "name:ar": "مركز قدور الطبي", "name:en": "Gaddour Medical Center", "opening_hours": "24/7"}}, {"name": "مختبر السراي", "latitude": 32.8795825, "longitude": 13.1509747, "source": "osm", "_tags": {"addr:street": "طريق قرقارش الرئيسي", "amenity": "hospital", "healthcare": "hospital", "name": "مختبر السراي", "name:ar": "مختبر السراي", "name:en": "AL SARAYA LAB", "opening_hours": "24/7"}}, {"name": "مستوصف الهضبة الشرقية", "latitude": 32.8543914, "longitude": 13.2124841, "source": "osm", "_tags": {"addr:street": "طريق الهضبة الشرقية", "amenity": "hospital", "name": "مستوصف الهضبة الشرقية", "name:ar": "مستوصف الهضبة الشرقية", "name:en": "Al Hadba Hospital"}}, {"name": "مركز المستقبل المشرق", "latitude": 32.8571871, "longitude": 13.2344229, "source": "osm", "_tags": {"amenity": "hospital", "name": "مركز المستقبل المشرق", "name:ar": "مركز المستقبل المشرق", "name:en": "Bright Future Center"}}, {"name": "المجمع الصحي -الهاني", "latitude": 32.8759875, "longitude": 13.2204301, "source": "osm", "_tags": {"amenity": "hospital", "name": "المجمع الصحي -الهاني", "name:ar": "المجمع الصحي -الهاني", "name:en": "Health Complex - Alhani"}}, {"name": "قسم الأنف والأذن والحنجرة", "latitude": 32.8783929, "longitude": 13.1917588, "source": "osm", "_tags": {"amenity": "hospital", "healthcare": "hospital", "name": "قسم الأنف والأذن والحنجرة", "name:ar": "قسم الأنف والأذن والحنجرة", "name:en": "Department of ENT"}}, {"name": "Libyan Swiss Medical Center", "latitude": 32.8731302, "longitude": 13.20688, "source": "osm", "_tags": {"addr:city": "Tripoli", "addr:street": "شارع الجرابة", "amenity": "hospital", "healthcare": "hospital", "healthcare:speciality": "general;gynaecology;paediatrics;orthopaedics;ophthalmology;internal;dentist;dermatology;radiology;surgery;urology;cardiology;physiotherapy;neurology;clinic;plastic_surgery", "name": "Libyan Swiss Medical Center", "name:ar": "المركز الطبي الليبي السويسري"}}, {"name": "مركز البحوث الحيوية", "latitude": 32.8480678, "longitude": 13.2416955, "source": "osm", "_tags": {"addr:street": "طريق الفرناج - عين زارة", "amenity": "hospital", "healthcare": "hospital", "healthcare:speciality": "general", "name": "مركز البحوث الحيوية", "name:ar": "مركز البحوث الحيوية", "name:en": "Biological Research Center"}}, {"name": "مركز زكريا التخصصي", "latitude": 32.8270856, "longitude": 13.0087209, "source": "osm", "_tags": {"amenity": "hospital", "name": "مركز زكريا التخصصي", "name:en": "Zakaria Center"}}, {"name": "مركز إتقان للعلاج الطبيعي المكثف للأطفال", "latitude": 32.9059506, "longitude": 13.2307436, "source": "osm", "_tags": {"amenity": "hospital", "name": "مركز إتقان للعلاج الطبيعي المكثف للأطفال", "name:en": "Etqan Center for Condenser Physiotherapy for Children"}}, {"name": "مختبر الشرق حي الاندلس", "latitude": 32.8776832, "longitude": 13.1418984, "source": "osm", "_tags": {"amenity": "hospital", "healthcare": "hospital", "name": "مختبر الشرق حي الاندلس"}}, {"name": "م", "latitude": 32.8889541, "longitude": 13.3264451, "source": "osm", "_tags": {"amenity": "hospital", "name": "م", "name:ar": "مركز نفائس الحكمة", "name:en": "Nafays Hikma Center"}}, {"name": "عيادة بوابة الامل للجلدية والطب التجميلي", "latitude": 32.8716279, "longitude": 13.1413869, "source": "osm", "_tags": {"addr:city": "طرابلس", "addr:street": "طريق قرجي", "amenity": "hospital", "email": "intermohmmed@yahoo.com", "healthcare": "hospital", "name": "عيادة بوابة الامل للجلدية والطب التجميلي"}}, {"name": "مصحه دوام الصحة", "latitude": 32.8394911, "longitude": 13.1911348, "source": "osm", "_tags": {"amenity": "hospital", "name": "مصحه دوام الصحة"}}, {"name": "كلينك بوابة الامل للجدية والطب التجميلي", "latitude": 32.8716205, "longitude": 13.1413582, "source": "osm", "_tags": {"addr:city": "طرابلس", "addr:postcode": "021", "addr:street": "طريق قرجي", "amenity": "hospital", "email": "IMTERMOHMMED@YAHOO.COM", "healthcare": "hospital", "healthcare:speciality": "جلدية_وتجميل;cosmetic", "name": "كلينك بوابة الامل للجدية والطب التجميلي", "phone": "00217912117621"}}, {"name": "مستشفي الطب العسكري", "latitude": 32.825979, "longitude": 13.21667, "source": "osm", "_tags": {"amenity": "hospital", "healthcare": "hospital", "name": "مستشفي الطب العسكري", "name:en": "Military medicine hospital"}}, {"name": "عياده الدلفين للاسنان", "latitude": 32.8297402, "longitude": 13.0673777, "source": "osm", "_tags": {"amenity": "hospital", "name": "عياده الدلفين للاسنان"}}, {"name": "مركز الفردوس لخدمات الاسنان", "latitude": 32.8669546, "longitude": 13.1964994, "source": "osm", "_tags": {"amenity": "hospital", "healthcare": "hospital", "healthcare:speciality": "dentist", "name": "مركز الفردوس لخدمات الاسنان", "name:en": "Dentist", "wheelchair": "نعم"}}, {"name": "مستشفي زناتة التخصصي", "latitude": 32.8607257, "longitude": 13.2312672, "source": "osm", "_tags": {"amenity": "hospital", "name": "مستشفي زناتة التخصصي"}}, {"name": "المختبر الطبي المرجعي", "latitude": 32.881812, "longitude": 13.1871933, "source": "osm", "_tags": {"addr:street": "شارع الزاوية", "amenity": "hospital", "name": "المختبر الطبي المرجعي", "name:en": "Medical reference", "opening_hours": "Su-Th 07:00-13:00"}}, {"name": "مستشفى طرابلس المركزي", "latitude": 32.8802922, "longitude": 13.1901265, "source": "osm", "_tags": {"addr:street": "Az Zawiyah Street شارع الزاويه", "amenity": "hospital", "fixme": "name, name:ar mismatch.", "healthcare": "hospital", "internet_access": "wlan", "name": "مستشفى طرابلس المركزي", "name:ar": "مستشفى طرابلس المركزي - شارع الزاوية", "name:en": "Tripoli Central Hospital-TCH", "opening_hours": "24/7", "phone": "021-3605001", "website": "https://www.facebook.com/Tripoli-Central-Hospital-123524717747318/"}}, {"name": "مستشفي الخضراء", "latitude": 32.8545161, "longitude": 13.1919248, "source": "osm", "_tags": {"addr:street": "طريق الهضبة الخضراء", "amenity": "hospital", "barrier": "wall", "name": "مستشفي الخضراء", "name:ar": "مستشفي الخضراء", "name:en": "Elkhadra Hospital", "parking": "surface", "phone": "021-4900753"}}, {"name": "مصحة البشرى", "latitude": 32.8757344, "longitude": 13.2016379, "source": "osm", "_tags": {"amenity": "hospital", "healthcare": "hospital", "name": "مصحة البشرى", "name:ar": "مصحة البشرى", "name:de": "Masahat al Buschra", "name:en": "Albushra Clinic", "operator:type": "private"}}, {"name": "مستشفي أبوسليم للحوادث", "latitude": 32.8539049, "longitude": 13.1744642, "source": "osm", "_tags": {"addr:street": "الطريق الدائري الثاني", "alt_name": "Abu Slim Hospital", "amenity": "hospital", "barrier": "wall", "emergency": "yes", "healthcare": "hospital", "healthcare:speciality": "surgery", "name": "مستشفي أبوسليم للحوادث", "name:ar": "مستشفي أبوسليم للحوادث", "name:en": "Abu Slim Hospital", "operator:type": "government"}}, {"name": "مجمع غوط الشعال الصحي", "latitude": 32.8506369, "longitude": 13.0986831, "source": "osm", "_tags": {"amenity": "hospital", "name": "مجمع غوط الشعال الصحي", "name:ar": "مجمع غوط الشعال الصحي"}}, {"name": "مستشفي تاجوراء للعلاج الطبيعي", "latitude": 32.8966921, "longitude": 13.3078001, "source": "osm", "_tags": {"amenity": "hospital", "healthcare": "hospital", "healthcare:speciality": "psychiatry", "name": "مستشفي تاجوراء للعلاج الطبيعي", "name:ar": "مستشفي تاجوراء للعلاج الطبيعي", "name:en": "Tajoura Hospital for natural treatment", "operator:type": "public"}}, {"name": "مركز طرابلس الطبي", "latitude": 32.8530594, "longitude": 13.2296858, "source": "osm", "_tags": {"addr:street": "طريق الجامعة", "amenity": "hospital", "name": "مركز طرابلس الطبي", "name:ar": "مركز طرابلس الطبي", "name:en": "Tripoli Medical Center", "phone": "021-4623701"}}, {"name": "مستشفى الصفوة", "latitude": 32.8321827, "longitude": 13.1926244, "source": "osm", "_tags": {"addr:street": "الحي الدبلوماسي", "amenity": "hospital", "name": "مستشفى الصفوة", "name:ar": "مستشفى الصفوة", "name:en": "AL Safwa Hospital"}}, {"name": "عيادة أبوسليم المجمعة", "latitude": 32.851242, "longitude": 13.1702866, "source": "osm", "_tags": {"addr:street": "طريق أبوسليم", "amenity": "hospital", "area": "yes", "healthcare": "hospital", "name": "عيادة أبوسليم المجمعة", "name:ar": "عيادة أبوسليم المجمعة", "name:en": "Abu Salim Poly Clinic", "opening_hours": "Sa-Th 08:00-19:00"}}, {"name": "مصحة النفط", "latitude": 32.858067, "longitude": 13.1630361, "source": "osm", "_tags": {"addr:street": "طريق المطار", "amenity": "hospital", "area": "yes", "name": "مصحة النفط", "name:ar": "مصحة النفط", "name:en": "Oil Clinic"}}, {"name": "مستوصف عام طريق المطار", "latitude": 32.8629528, "longitude": 13.1727954, "source": "osm", "_tags": {"addr:street": "طريق المطار", "amenity": "hospital", "area": "yes", "name": "مستوصف عام طريق المطار", "name:ar": "مجمع الذهبي عام طريق المطار", "name:en": "Hospital General Airport Road"}}, {"name": "مستشفى امعيتيقة", "latitude": 32.9062074, "longitude": 13.2691761, "source": "osm", "_tags": {"addr:city": "Tripoli", "addr:street": "Al -Shat Rd", "amenity": "hospital", "area": "yes", "healthcare": "hospital", "name": "مستشفى امعيتيقة", "name:ar": "مستشفى امعيتيقة العسكري", "name:en": "MITIGA Hospital"}}, {"name": "مستشفى أبوستة للامراض الصدرية", "latitude": 32.8970318, "longitude": 13.2242568, "source": "osm", "_tags": {"amenity": "hospital", "name": "مستشفى أبوستة للامراض الصدرية", "name:ar": "مستشفى أبوستة للامراض الصدرية", "name:en": "Abu sitta Hospital for Chest Diseases"}}, {"name": "مستوصف زاوية الدهماني", "latitude": 32.8950268, "longitude": 13.2095706, "source": "osm", "_tags": {"amenity": "hospital", "emergency": "no", "healthcare": "hospital", "name": "مستوصف زاوية الدهماني", "name:ar": "مستوصف زاوية الدهماني", "name:en": "Hospital Zawia Al dehmani"}}, {"name": "مستشفي الرازي للأمراض العقلية", "latitude": 32.8745258, "longitude": 13.1374438, "source": "osm", "_tags": {"addr:street": "طريق قرقارش الرئيسي", "amenity": "hospital", "emergency": "yes", "healthcare": "hospital", "name": "مستشفي الرازي للأمراض العقلية", "name:ar": "مستشفي الرازي للأمراض العقلية", "name:en": "Elraze Mental Hospital"}}, {"name": "المجمع الصحي الحي الاسلامي", "latitude": 32.857448, "longitude": 13.1189095, "source": "osm", "_tags": {"addr:street": "الطريق الدائري الثاني", "amenity": "hospital", "area": "yes", "name": "المجمع الصحي الحي الاسلامي", "name:ar": "المجمع الصحي الحي الاسلامي", "name:en": "Health Complex, Hay Islamy", "name:it": "Complesso di salute, Hay Islamy"}}, {"name": "مستوصف شهداء عبدالجليل", "latitude": 32.8421136, "longitude": 13.0414926, "source": "osm", "_tags": {"amenity": "hospital", "healthcare": "hospital", "name": "مستوصف شهداء عبدالجليل", "name:ar": "مستوصف شهداء عبدالجليل", "name:en": "Hospital Abdualjalil", "name:it": "Ospedale Abdualjalil"}}, {"name": "مستشفى القلب تاجوراء", "latitude": 32.8771836, "longitude": 13.3961625, "source": "osm", "_tags": {"addr:street": "طريق الشط", "amenity": "hospital", "emergency": "yes", "healthcare:speciality": "surgery", "name": "مستشفى القلب تاجوراء", "name:ar": "مستشفى القلب تاجوراء", "name:en": "Heart Hospital Tajoura", "operator:type": "public", "wheelchair": "yes"}}, {"name": "مجمع عيادات البدري", "latitude": 32.8376922, "longitude": 13.211877, "source": "osm", "_tags": {"addr:street": "شارع البدري", "amenity": "hospital", "name": "مجمع عيادات البدري", "name:ar": "مجمع عيادات البدري", "name:en": "Complex Clinics AL BADRI"}}, {"name": "", "latitude": 32.8842814, "longitude": 13.1627491, "source": "osm", "_tags": {"amenity": "hospital", "healthcare": "hospital"}}, {"name": "مستشفى السكرى", "latitude": 32.8270557, "longitude": 13.2192708, "source": "osm", "_tags": {"addr:street": "صلاح الدين - قصر بن غشير", "amenity": "hospital", "healthcare": "hospital", "name": "مستشفى السكرى", "name:ar": "مستشفى السكرى", "name:en": "Diabetes Hospital"}}, {"name": "مستشفي جنزور لذوي الاحتياجات الخاصة", "latitude": 32.8304932, "longitude": 13.0404629, "source": "osm", "_tags": {"amenity": "hospital", "healthcare": "hospital", "name": "مستشفي جنزور لذوي الاحتياجات الخاصة", "name:ar": "مستشفي جنزور لذوي الاحتياجات الخاصة", "name:en": "Janzur Hospital for the Disabled"}}, {"name": "", "latitude": 32.8400855, "longitude": 13.0309318, "source": "osm", "_tags": {"amenity": "hospital", "healthcare": "hospital"}}, {"name": "", "latitude": 32.8618863, "longitude": 13.1134375, "source": "osm", "_tags": {"amenity": "hospital", "healthcare": "hospital"}}, {"name": "المركز الوطني لمكافحة الأمراض السارية (الدرن)", "latitude": 32.8666853, "longitude": 13.1384253, "source": "osm", "_tags": {"addr:street": "طريق قرجي", "amenity": "hospital", "healthcare": "hospital", "name": "المركز الوطني لمكافحة الأمراض السارية (الدرن)", "name:ar": "المركز الوطني لمكافحة الأمراض السارية (الدرن)", "name:en": "National Center for Control Directions Derivative", "opening_hours": "24/7"}}, {"name": "", "latitude": 32.8521104, "longitude": 13.2376271, "source": "osm", "_tags": {"healthcare": "hospital"}}, {"name": "", "latitude": 32.84417, "longitude": 13.1851569, "source": "osm", "_tags": {"amenity": "hospital", "healthcare": "hospital"}}, {"name": "مستشفى العيون", "latitude": 32.8951603, "longitude": 13.2008548, "source": "osm", "_tags": {"addr:street": "Al Matar Street", "amenity": "hospital", "emergency": "yes", "healthcare": "hospital", "healthcare:speciality": "ophthalmology", "name": "مستشفى العيون", "name:ar": "مستشفى العيون", "name:en": "Hospital of Eyes"}}, {"name": "ALsafa (Hospital)", "latitude": 32.8791661, "longitude": 13.1494989, "source": "osm", "_tags": {"addr:street": "طريق قرقارش الرئيسي", "amenity": "hospital", "building": "hospital", "emergency": "yes", "healthcare": "hospital", "name": "ALsafa (Hospital)", "name:ar": "مستشفي الصفاء", "name:en": "ALsafa Hospital"}}, {"name": "مستشفى نور الاسلام التخصصي لطب وجراحة الاعصاب", "latitude": 32.8608938, "longitude": 13.1978363, "source": "osm", "_tags": {"addr:city": "Tripoly طرابلس", "addr:street": "طريق الهضبة الخضراء", "amenity": "hospital", "healthcare": "hospital", "name": "مستشفى نور الاسلام التخصصي لطب وجراحة الاعصاب", "name:ar": "مستشفى نور الاسلام التخصصي لطب وجراحة الاعصاب", "name:en": "Nor Al-Islam Private Hospital for Neurosurgery"}}, {"name": "", "latitude": 32.9055476, "longitude": 13.2275087, "source": "osm", "_tags": {"addr:street": "طريق الشط", "amenity": "hospital", "healthcare": "hospital", "name:ar": "مركز طرابلس لأمراض الكلى", "name:en": "Tripoli Center for Kidney disease", "opening_hours": "24/7"}}, {"name": "المركز الصحي رأس حسن", "latitude": 32.8718687, "longitude": 13.2157291, "source": "osm", "_tags": {"addr:street": "شارع رأس حسن", "amenity": "hospital", "healthcare": "hospital", "name": "المركز الصحي رأس حسن", "name:ar": "المركز الصحي رأس حسن", "name:en": "Hospital RA’AS HASSAN", "opening_hours": "Mo-Su 09:00-14:00"}}, {"name": "مستشفى الجلاء للأطفال", "latitude": 32.884573, "longitude": 13.1635906, "source": "osm", "_tags": {"addr:street": "شارع عمر المختار", "amenity": "hospital", "healthcare": "hospital", "name": "مستشفى الجلاء للأطفال", "name:ar": "مستشفى الجلاء للأطفال", "name:en": "Hospital AL JALAA for children"}}, {"name": "مستشفى جنزور", "latitude": 32.8271361, "longitude": 13.0141643, "source": "osm", "_tags": {"amenity": "hospital", "healthcare": "hospital", "name": "مستشفى جنزور", "name:ar": "مستشفى جنزور", "name:en": "Janzour Hospital"}}, {"name": "مستوصف القادسية", "latitude": 32.8498693, "longitude": 13.0864933, "source": "osm", "_tags": {"addr:street": "Annaba Street", "amenity": "hospital", "healthcare": "hospital", "name": "مستوصف القادسية", "name:ar": "مستوصف القادسية", "name:en": "Hospital AL QADISYA", "name:it": "ospedale AL QADISYA"}}, {"name": "مشفي دار الحمد;مشفى دار الحمد", "latitude": 32.8365681, "longitude": 13.0375788, "source": "osm", "_tags": {"amenity": "hospital", "email": "Dar.Alhamd.Hospital@mail.com", "healthcare": "hospital", "name": "مشفي دار الحمد;مشفى دار الحمد", "name:ar": "مشفي دار الحمد;مشفى دار الحمد", "name:en": "Hospital of DAR AL HAMD", "name:it": "Ospedale di DAR AL HAMD", "phone": "0944444418"}}, {"name": "عيادة الوصال", "latitude": 32.8169898, "longitude": 12.9865649, "source": "osm", "_tags": {"amenity": "hospital", "healthcare": "hospital", "name": "عيادة الوصال", "name:ar": "عيادة الوصال", "name:en": "Al-Wesal Clinic"}}, {"name": "مستوصف الشط", "latitude": 32.8181255, "longitude": 12.9860097, "source": "osm", "_tags": {"amenity": "hospital", "healthcare": "hospital", "name": "مستوصف الشط", "name:ar": "مستوصف الشط", "name:en": "Al-Shat Clinic"}}, {"name": "المركز الصحي سي مسعود", "latitude": 32.8220484, "longitude": 13.023954, "source": "osm", "_tags": {"amenity": "hospital", "healthcare": "hospital", "name": "المركز الصحي سي مسعود", "name:ar": "المركز الصحي سي مسعود", "name:en": "Mr.Masoud Healthcare"}}, {"name": "مستوصف قرقارش", "latitude": 32.8647988, "longitude": 13.106585, "source": "osm", "_tags": {"addr:street": "طريق قرقارش الرئيسي", "amenity": "hospital", "healthcare": "hospital", "name": "مستوصف قرقارش", "name:ar": "مستوصف قرقارش", "name:en": "QIRQARISH hospital", "name:it": "QIRQARISH Ospedale"}}, {"name": "مصحة يشفين", "latitude": 32.893644, "longitude": 13.3667013, "source": "osm", "_tags": {"amenity": "hospital", "healthcare": "hospital", "name": "مصحة يشفين", "name:ar": "مصحة يشفين", "name:en": "Yashfen Hospital"}}, {"name": "مصحة اليشفين;مصحة يشفين;ياشفين", "latitude": 32.8935932, "longitude": 13.3669132, "source": "osm", "_tags": {"addr:street": "طريق الجلاء", "amenity": "hospital", "email": "info@yashfeen.ly", "healthcare": "hospital", "name": "مصحة اليشفين;مصحة يشفين;ياشفين", "name:ar": "مصحة اليشفين;مصحة يشفين;ياشفين", "name:en": "Yashfeen Clinic", "phone": "0213700155"}}, {"name": "مصحة المسرة", "latitude": 32.8772313, "longitude": 13.2118306, "source": "osm", "_tags": {"addr:street": "شارع الظل", "amenity": "hospital", "healthcare": "hospital", "name": "مصحة المسرة", "name:ar": "مصحة المسرة", "name:en": "AL MASSARAA Clinic"}}, {"name": "مستشفى الخليل التخصصي", "latitude": 32.8793305, "longitude": 13.1894185, "source": "osm", "_tags": {"addr:street": "شارع الزاوية", "amenity": "hospital", "healthcare": "hospital", "internet_access": "wlan", "name": "مستشفى الخليل التخصصي", "name:ar": "مستشفى الخليل التخصصي", "name:en": "Alkhalil hospital", "phone": "021-3612012", "website": "http://www.alkhalil.ly"}}, {"name": "مستشفى الأمراض الجلدية", "latitude": 32.8509909, "longitude": 13.3254395, "source": "osm", "_tags": {"amenity": "hospital", "healthcare": "hospital", "name": "مستشفى الأمراض الجلدية", "name:ar": "مستشفى الأمراض الجلدية", "name:en": "Leather Disease Hospital"}}, {"name": "مصحة الريادة", "latitude": 32.8530461, "longitude": 13.3258979, "source": "osm", "_tags": {"amenity": "hospital", "healthcare": "hospital", "name": "مصحة الريادة", "name:ar": "مصحة الريادة", "name:en": "Al Riyada Clinic"}}, {"name": "مشفى الريان", "latitude": 32.8299374, "longitude": 13.2115779, "source": "osm", "_tags": {"addr:street": "Salah Aldeen - Qaser Bin Ghashir Road", "amenity": "hospital", "healthcare": "hospital", "name": "مشفى الريان", "name:ar": "مشفى الريان", "name:en": "Hospital AL RAYYAN"}}, {"name": "مستوصف سيدي ابراهيم", "latitude": 32.8190024, "longitude": 13.0354619, "source": "osm", "_tags": {"amenity": "hospital", "healthcare": "hospital", "name": "مستوصف سيدي ابراهيم", "name:ar": "مستوصف سيدي ابراهيم", "name:en": "sidi Ibrahim Healthcare"}}, {"name": "مركز يحيى التخصصي للخدمات الطبية", "latitude": 32.8720257, "longitude": 13.1419819, "source": "osm", "_tags": {"addr:street": "طريق قرجي", "amenity": "hospital", "building": "yes", "healthcare": "hospital", "name": "مركز يحيى التخصصي للخدمات الطبية", "name:ar": "مركز يحيى التخصصي للخدمات الطبية", "name:en": "Yahya Center Medical", "opening_hours": "Sa-Th 09:30-21:00; Fr 16:30-21:00", "phone": "00218916310866"}}, {"name": "مستوصف الغيران الصحي", "latitude": 32.8424143, "longitude": 13.0800385, "source": "osm", "_tags": {"amenity": "hospital", "healthcare": "hospital", "name": "مستوصف الغيران الصحي", "name:ar": "مستوصف الغيران الصحي", "name:en": "hospital of AL GIRAN", "name:it": "ospedale di AL GIRAN"}}, {"name": "المركز الدولي للقلب والاوعية الدموية", "latitude": 32.8779421, "longitude": 13.1975514, "source": "osm", "_tags": {"addr:street": "طريق السكة", "amenity": "hospital", "healthcare": "hospital", "name": "المركز الدولي للقلب والاوعية الدموية", "name:ar": "المركز الدولي للقلب والاوعية الدموية", "name:en": "International Center for Cut and Circle", "opening_hours": "24/7"}}, {"name": "مخزن عيسى", "latitude": 32.895029, "longitude": 13.2132615, "source": "osm", "_tags": {"amenity": "hospital", "healthcare": "hospital", "name": "مخزن عيسى", "name:ar": "مخزن عيسى"}}, {"name": "مستوصف قدح", "latitude": 32.8514274, "longitude": 13.1328677, "source": "osm", "_tags": {"amenity": "hospital", "healthcare": "hospital", "name": "مستوصف قدح", "name:ar": "مستوصف قدح", "name:en": "Hospital GADDH"}}, {"name": "التطعيمات", "latitude": 32.8202467, "longitude": 13.012049, "source": "osm", "_tags": {"amenity": "hospital", "healthcare": "hospital", "name": "التطعيمات", "name:ar": "التطعيمات", "name:en": "Vaccinations"}}, {"name": "مستوصف خطين", "latitude": 32.8638512, "longitude": 13.1267764, "source": "osm", "_tags": {"amenity": "hospital", "healthcare": "hospital", "name": "مستوصف خطين", "name:ar": "مستوصف خطين", "name:en": "Hospital HITTEN"}}, {"name": "مصحة إيوان الجديدة 1", "latitude": 32.8520532, "longitude": 13.1898601, "source": "osm", "_tags": {"amenity": "hospital", "healthcare": "hospital", "name": "مصحة إيوان الجديدة 1", "name:ar": "مصحة إيوان الجديدة 1", "name:en": "New Ewan Clinic 1"}}, {"name": "مصحة ايوان الجديدة 2", "latitude": 32.8523394, "longitude": 13.189834, "source": "osm", "_tags": {"amenity": "hospital", "healthcare": "hospital", "name": "مصحة ايوان الجديدة 2", "name:ar": "مصحة ايوان الجديدة 2", "name:en": "New Ewan Clinic 2"}}, {"name": "مستوصف شهداء النوفليين", "latitude": 32.8881452, "longitude": 13.2211195, "source": "osm", "_tags": {"addr:street": "طريق السور", "amenity": "hospital", "healthcare": "hospital", "name": "مستوصف شهداء النوفليين", "name:ar": "مستوصف شهداء النوفليين", "name:en": "Hospital Al Nofelien"}}, {"name": "عيادة أبو هريرة الجراحية التخصصية", "latitude": 32.8797817, "longitude": 13.1765922, "source": "osm", "_tags": {"addr:street": "شارع أبو هريدة", "amenity": "hospital", "healthcare": "hospital", "name": "عيادة أبو هريرة الجراحية التخصصية", "name:ar": "عيادة أبو هريرة الجراحية التخصصية", "name:en": "Clinic Abu huraira special"}}, {"name": "مركز فرح للخصوبة", "latitude": 32.8723423, "longitude": 13.1207838, "source": "osm", "_tags": {"addr:street": "طريق قرقارش الرئيسي", "amenity": "hospital", "healthcare": "hospital", "name": "مركز فرح للخصوبة", "name:ar": "مركز فرح للخصوبة", "name:en": "Farah Fertility Center", "opening_hours": "Sa-Th 07:30-14:00"}}, {"name": "مستوصف عراده", "latitude": 32.8824171, "longitude": 13.2423525, "source": "osm", "_tags": {"addr:street": "طريق عرادة", "amenity": "hospital", "fixme": "name, name:ar mismatch.", "healthcare": "hospital", "name": "مستوصف عراده", "name:ar": "مستوصف عرادة", "name:en": "Hospital of Arada"}}, {"name": "الذهبية للعﻻج الطبيعي", "latitude": 32.8570579, "longitude": 13.0864117, "source": "osm", "_tags": {"amenity": "hospital", "healthcare": "hospital", "name": "الذهبية للعﻻج الطبيعي", "name:en": "Golden Physiotherapy", "name:it": "Ospedale, Fisioterapia"}}, {"name": "مستشفى النجاة", "latitude": 32.8660441, "longitude": 13.2326047, "source": "osm", "_tags": {"addr:street": "الطريق الدائري الثاني", "amenity": "hospital", "healthcare": "hospital", "name": "مستشفى النجاة", "name:ar": "مستشفى النجاة", "name:en": "Al-Najat Hospital", "opening_hours": "24/7"}}, {"name": "مصحة طرابلس الجديدة 2", "latitude": 32.8528108, "longitude": 13.1890427, "source": "osm", "_tags": {"amenity": "hospital", "healthcare": "hospital", "name": "مصحة طرابلس الجديدة 2", "name:ar": "مصحة طرابلس الجديدة 2", "name:en": "Clinic NEW TRIPOLI 2"}}, {"name": "مستشفي غوط الشعال", "latitude": 32.8503078, "longitude": 13.0822603, "source": "osm", "_tags": {"addr:street": "Elfegi", "amenity": "hospital", "healthcare": "hospital", "name": "مستشفي غوط الشعال", "name:ar": "مستشفي غوط الشعال", "name:en": "Ghout Al Shaal Hospital"}}, {"name": "مركز الاشراق للتصوير الطبي", "latitude": 32.8624403, "longitude": 13.2144343, "source": "osm", "_tags": {"addr:city": "طرابلس", "addr:street": "University Road", "amenity": "hospital", "healthcare": "hospital", "healthcare:speciality": "clinic", "name": "مركز الاشراق للتصوير الطبي", "name:ar": "مركز الاشراق للتصوير الطبي", "name:en": "Al - Ashraq Center for Medical Imaging", "phone": "00218918812707"}}, {"name": "مستوصف الحي الجامعي", "latitude": 32.8544007, "longitude": 13.2124632, "source": "osm", "_tags": {"addr:street": "طريق الهضبة الشرقية", "amenity": "hospital", "healthcare": "hospital", "name": "مستوصف الحي الجامعي", "name:ar": "مستوصف الحي الجامعي", "name:en": "University District Clinic"}}, {"name": "عيادة العلاج الطبيعي جنزور", "latitude": 32.8163204, "longitude": 13.0405864, "source": "osm", "_tags": {"amenity": "hospital", "healthcare": "hospital", "name": "عيادة العلاج الطبيعي جنزور", "name:ar": "عيادة العلاج الطبيعي جنزور", "name:en": "Natural Therapy Clinic -Janzur"}}, {"name": "Dm", "latitude": 32.8750024, "longitude": 13.2052405, "source": "osm", "_tags": {"amenity": "hospital", "healthcare": "hospital", "name": "Dm"}}, {"name": "", "latitude": 32.9051519, "longitude": 13.2274734, "source": "osm", "_tags": {"amenity": "hospital"}}, {"name": "", "latitude": 32.9063844, "longitude": 13.2662896, "source": "osm", "_tags": {"amenity": "hospital", "healthcare": "hospital"}}, {"name": "", "latitude": 32.8794904, "longitude": 13.1508072, "source": "osm", "_tags": {"amenity": "hospital", "building": "hospital", "healthcare": "hospital"}}, {"name": "", "latitude": 32.8489079, "longitude": 13.2929898, "source": "osm", "_tags": {"amenity": "hospital", "healthcare": "hospital"}}, {"name": "", "latitude": 32.8869105, "longitude": 13.2057149, "source": "osm", "_tags": {"amenity": "hospital", "healthcare": "hospital"}}, {"name": "مصحة النخبة", "latitude": 32.8222466, "longitude": 13.2219314, "source": "osm", "_tags": {"amenity": "hospital", "healthcare": "hospital", "name": "مصحة النخبة", "name:ar": "مصحة النخبة", "name:en": "Al Nokhba Clinic"}}, {"name": "مستشفي السراج", "latitude": 32.8335538, "longitude": 13.0727921, "source": "osm", "_tags": {"amenity": "hospital", "healthcare": "hospital", "name": "مستشفي السراج", "name:ar": "مستشفي السراج", "name:en": "Assarraj Hospital"}}, {"name": "مركز الامل لتأهيل البكم وضعاف السمع", "latitude": 32.8625335, "longitude": 13.1411282, "source": "osm", "_tags": {"amenity": "hospital", "healthcare": "hospital", "name": "مركز الامل لتأهيل البكم وضعاف السمع", "name:ar": "مركز الامل لتأهيل البكم وضعاف السمع", "name:en": "Hope Center for the Rehabilitation of the Dumb and Hard of Hearing"}}, {"name": "", "latitude": 32.8517108, "longitude": 13.2502746, "source": "osm", "_tags": {"amenity": "hospital", "healthcare": "hospital"}}, {"name": "مستشفي جراحة الحروق والتجميل", "latitude": 32.8773518, "longitude": 13.19227, "source": "osm", "_tags": {"amenity": "hospital", "healthcare": "hospital", "name": "مستشفي جراحة الحروق والتجميل", "name:ar": "مستشفي جراحة الحروق والتجميل", "name:en": "Surface and Beauty Surgery Hospital"}}, {"name": "مستوصف مرغم , شرفة الملاحة", "latitude": 32.8879235, "longitude": 13.2950951, "source": "osm", "_tags": {"amenity": "hospital", "healthcare": "hospital", "name": "مستوصف مرغم , شرفة الملاحة", "name:en": "Margham clinic"}}, {"name": "مستشفي الكلى جنزور", "latitude": 32.8203662, "longitude": 13.0324504, "source": "osm", "_tags": {"amenity": "hospital", "healthcare": "hospital", "name": "مستشفي الكلى جنزور", "name:en": "Kidney Hospital -Janzur", "operator:type": "government"}}, {"name": "", "latitude": 32.8673032, "longitude": 13.1901736, "source": "osm", "_tags": {"amenity": "hospital", "healthcare": "hospital"}}, {"name": "", "latitude": 32.8366456, "longitude": 13.0980612, "source": "osm", "_tags": {"amenity": "hospital", "healthcare": "hospital"}}, {"name": "مستشفي بوابة دمشق", "latitude": 32.8555362, "longitude": 13.2024727, "source": "osm", "_tags": {"amenity": "hospital", "name": "مستشفي بوابة دمشق", "name:en": "Damascus Gate Hospital"}}, {"name": "مركز العزل الصحي : سوق الثلاثاء", "latitude": 32.8740995, "longitude": 13.1601039, "source": "osm", "_tags": {"amenity": "hospital", "healthcare": "hospital", "name": "مركز العزل الصحي : سوق الثلاثاء", "name:en": "Health Insulation Center: Market Tuesday"}}, {"name": "", "latitude": 32.8411424, "longitude": 13.1740414, "source": "osm", "_tags": {"amenity": "hospital", "healthcare": "hospital"}}, {"name": "جهاز الاسعاف الطبي", "latitude": 32.8528685, "longitude": 13.2596271, "source": "osm", "_tags": {"amenity": "hospital", "healthcare": "hospital", "name": "جهاز الاسعاف الطبي", "name:en": "Medical Ambulance"}}, {"name": "مستوصف حي دمشق", "latitude": 32.8515005, "longitude": 13.1986026, "source": "osm", "_tags": {"amenity": "hospital", "healthcare": "hospital", "name": "مستوصف حي دمشق", "name:ar": "مستوصف حي دمشق", "name:en": "Damascus Town clinic"}}, {"name": "", "latitude": 32.8358442, "longitude": 13.1544322, "source": "osm", "_tags": {"amenity": "hospital", "healthcare": "hospital"}}, {"name": "Snow White  سنو وايت", "latitude": 32.8695826, "longitude": 13.1247001, "source": "osm", "_tags": {"addr:city": "طرابلس", "addr:housenumber": "12", "addr:street": "شارع ابراهيم الجهني", "amenity": "hospital", "contact:facebook": "https://www.facebook.com/profile.php?id=100082995409249&sk=about_contact_and_basic_info", "healthcare": "hospital", "healthcare:speciality": "dentistry", "name": "Snow White  سنو وايت"}}, {"name": "المركز الصحي شهداء أبومليانة", "latitude": 32.8735576, "longitude": 13.1806379, "source": "osm", "_tags": {"amenity": "hospital", "healthcare": "hospital", "healthcare:speciality": "general", "name": "المركز الصحي شهداء أبومليانة", "name:en": "Abu Miliana Martyrs Health Center"}}, {"name": "عيادة بوابة الامل للجلدية والتجميل", "latitude": 32.8716145, "longitude": 13.1413113, "source": "osm", "_tags": {"addr:street": "طريق قرجي", "amenity": "hospital", "building": "yes", "healthcare": "hospital", "name": "عيادة بوابة الامل للجلدية والتجميل", "opening_hours": "24/7", "source": "microsoft/BuildingFootprints"}}, {"name": "المركز الصحي طريق السور", "latitude": 32.8712074, "longitude": 13.1866349, "source": "osm", "_tags": {"amenity": "hospital", "healthcare": "hospital", "name": "المركز الصحي طريق السور", "name:en": "Healty-Care"}}, {"name": "", "latitude": 32.8148043, "longitude": 13.1206842, "source": "osm", "_tags": {"amenity": "hospital", "healthcare": "hospital"}}, {"name": "المركز الصحي شهداء بدر", "latitude": 32.8698302, "longitude": 13.1553173, "source": "osm", "_tags": {"amenity": "hospital", "healthcare": "hospital", "name": "المركز الصحي شهداء بدر"}}]