[{"name": "مركز الصحة الأساسية بتونكت", "latitude": 32.8749386, "longitude": 10.4852018, "source": "osm", "_tags": {"amenity": "hospital", "healthcare": "yes", "name": "مركز الصحة الأساسية بتونكت", "name:ar": "مركز الصحة الأساسية بتونكت", "name:fr": "Centre de santé de base de Tounket"}}, {"name": "مركز الصحة الأساسية بالدويرات", "latitude": 32.8567264, "longitude": 10.2889111, "source": "osm", "_tags": {"addr:city": "Douiret", "addr:postcode": "3232", "amenity": "hospital", "healthcare": "yes", "name": "مركز الصحة الأساسية بالدويرات", "name:ar": "مركز الصحة الأساسية بالدويرات", "name:fr": "Centre de santé de base à Duiret"}}, {"name": "مركز الصحة الأساسية بشنني", "latitude": 32.9105272, "longitude": 10.2605246, "source": "osm", "_tags": {"addr:city": "شنني", "addr:postcode": "3222", "addr:street": "chenini tataouine", "amenity": "hospital", "healthcare": "yes", "name": "مركز الصحة الأساسية بشنني", "name:ar": "مركز الصحة الأساسية بشنني", "name:fr": "Centre de santé de base à Chenini"}}, {"name": "المستشفى الجهوي الحبيب بورقيبة", "latitude": 33.3316428, "longitude": 10.487706, "source": "osm", "_tags": {"addr:city": "مدنين", "addr:postcode": "4100", "addr:street": "طريق تطاوين", "amenity": "hospital", "emergency": "yes", "name": "المستشفى الجهوي الحبيب بورقيبة", "name:ar": "المستشفى الجهوي الحبيب بورقيبة", "name:de": "Habib Bourguiba", "name:en": "Habib Bourguiba", "name:fr": "Hôpital Régional Habib Bourguiba", "name:pl": "Habib Bourguiba", "name:ru": "Habib Bourguiba", "name:zh": "哈比卜·布尔吉巴", "phone": "+216 75 640 044"}}, {"name": "مستشفى مارث", "latitude": 33.6274572, "longitude": 10.2804034, "source": "osm", "_tags": {"addr:city": "Mareth", "addr:street": "Avenue du 27 Octobre", "amenity": "hospital", "barrier": "wall", "emergency": "yes", "fax": "+216 75 321 192", "name": "مستشفى مارث", "name:ar": "مستشفى مارث", "name:en": "New Hospital", "name:fr": "Hôpital de Mareth", "phone": "+216 75 321 160"}}, {"name": "المستشفى", "latitude": 33.289684, "longitude": 10.3030646, "source": "osm", "_tags": {"addr:city": "Ksar Jedid", "addr:postcode": "4151", "amenity": "hospital", "barrier": "wall", "healthcare": "hospital", "name": "المستشفى", "name:ar": "المستشفى", "name:fr": "Hôpital 2", "source": "MedenineTech"}}, {"name": "مركز صحة أساسية الرقبة", "latitude": 32.9062981, "longitude": 10.4218308, "source": "osm", "_tags": {"amenity": "hospital", "healthcare": "hospital", "name": "مركز صحة أساسية الرقبة", "name:ar": "مركز صحة أساسية الرقبة", "name:fr": "centre de santé se base rogba"}}, {"name": "مركز صحة أساسية وادي القمح", "latitude": 32.9269555, "longitude": 10.458635, "source": "osm", "_tags": {"amenity": "hospital", "building:levels": "1", "building:min_level": "1", "healthcare": "hospital", "name": "مركز صحة أساسية وادي القمح", "name:ar": "مركز صحة أساسية وادي القمح", "name:fr": "Disponceur wad el gameh"}}, {"name": "Hopital Ksar El Mhadha", "latitude": 33.2110873, "longitude": 10.1880303, "source": "osm", "_tags": {"addr:city": "ksar El Mhadha", "amenity": "hospital", "building": "hospital", "emergency": "yes", "healthcare": "hospital", "name": "Hopital Ksar El Mhadha"}}, {"name": "Hôpital De Ghomrassen", "latitude": 33.0692629, "longitude": 10.3680693, "source": "osm", "_tags": {"addr:city": "Ghomrassen", "amenity": "hospital", "building": "hospital", "healthcare": "hospital", "name": "Hôpital De Ghomrassen", "name:fr": "Hôpital De Ghomrassen"}}, {"name": "Ancien Hôpital de Mareth", "latitude": 33.6160777, "longitude": 10.2875357, "source": "osm", "_tags": {"amenity": "hospital", "name": "Ancien Hôpital de Mareth", "name:fr": "Ancien Hôpital de Mareth"}}, {"name": "مركز صحة أساسية حي النزهة", "latitude": 32.9409885, "longitude": 10.454704, "source": "osm", "_tags": {"amenity": "hospital", "healthcare": "hospital", "name": "مركز صحة أساسية حي النزهة"}}, {"name": "مركز صحة أساسية حي  المهرجان", "latitude": 32.9465811, "longitude": 10.467119, "source": "osm", "_tags": {"amenity": "hospital", "healthcare": "hospital", "name": "مركز صحة أساسية حي  المهرجان", "name:ar": "مركز صحة أساسية حي  المهرجان", "name:fr": "centre de santé de base hay mahrajen"}}, {"name": "مركز صحة أساسية حي البر", "latitude": 32.918386, "longitude": 10.4325152, "source": "osm", "_tags": {"amenity": "hospital", "healthcare": "hospital", "name": "مركز صحة أساسية حي البر", "name:ar": "مركز صحة أساسية حي البر", "name:fr": "centre de santé de base hay elber"}}, {"name": "المستشفى الجهوي بتطاوين", "latitude": 32.9851614, "longitude": 10.4604795, "source": "osm", "_tags": {"amenity": "hospital", "healthcare": "hospital", "name": "المستشفى الجهوي بتطاوين"}}, {"name": "مركز صحة أساسية حي الرياض", "latitude": 32.9361681, "longitude": 10.4486773, "source": "osm", "_tags": {"amenity": "hospital", "healthcare": "hospital", "name": "مركز صحة أساسية حي الرياض", "name:ar": "مركز صحة أساسية حي الرياض", "name:fr": "centre de santé de base hay riyadh"}}, {"name": "مركز الصحة الأساسية بقصر أولاد دباب", "latitude": 32.8716948, "longitude": 10.3817295, "source": "osm", "_tags": {"addr:city": "قصر أولاد دباب", "addr:postcode": "3242", "addr:street": "نهج عمر إبن خطاب", "amenity": "hospital", "healthcare": "hospital", "name": "مركز الصحة الأساسية بقصر أولاد دباب", "name:ar": "مركز الصحة الأساسية بقصر أولاد دباب", "name:fr": "Centre de santé de base à Ksar Ouled Dabbeb"}}, {"name": "Hospital Mil. Tataouine", "latitude": 32.9268741, "longitude": 10.4442855, "source": "osm", "_tags": {"amenity": "hospital", "healthcare": "hospital", "name": "Hospital Mil. Tataouine"}}, {"name": "الحبيب بورقيبة", "latitude": 33.3316428, "longitude": 10.487706, "source": "osm", "_tags": {"addr:city": "مدنين", "addr:postcode": "4100", "addr:street": "طريق تطاوين", "amenity": "hospital", "building": "yes", "emergency": "yes", "name": "الحبيب بورقيبة", "name:ar": "الحبيب بورقيبة", "name:de": "Habib Bourguiba", "name:en": "Habib Bourguiba", "name:fr": "Habib Bourguiba", "name:pl": "Habib Bourguiba", "name:ru": "Habib Bourguiba", "name:zh": "哈比卜·布尔吉巴", "phone": "+216 75 64 00 44", "type": "multipolygon"}}]