[{"name": "", "latitude": 33.541006, "longitude": 11.088344, "source": "osm", "_tags": {"amenity": "hospital"}}, {"name": "المستشفى الجهوي ببن قردان", "latitude": 33.1352471, "longitude": 11.2187626, "source": "osm", "_tags": {"addr:city": "بن قردان", "addr:city:ar": "بنقردان", "addr:postcode": "4170", "alt_name": "مستشفى بن قردان الإقليمي", "alt_name:ar": "مستشفى بن قردان الإقليمي", "amenity": "hospital", "healthcare": "hospital", "language:ar": "main", "name": "المستشفى الجهوي ببن قردان", "name:ar": "المستشفى الجهوي ببن قردان", "name:de": "Regionalkrankenhaus Bin Qardān", "name:en": "Regional Hospital of Bin Qardān", "name:fr": "Hôpital Régional de Ben Guerdane", "phone": "+216 75 710 310"}}, {"name": "مستشفى", "latitude": 33.8132061, "longitude": 10.9914518, "source": "osm", "_tags": {"addr:city": "ميدون", "amenity": "hospital", "healthcare": "hospital", "name": "مستشفى", "name:ar": "مستشفى", "name:fr": "Hôpital"}}, {"name": "", "latitude": 33.5015633, "longitude": 11.1071886, "source": "osm", "_tags": {"amenity": "hospital", "building": "hospital", "healthcare": "hospital", "name:fr": "Hôpital"}}, {"name": "", "latitude": 32.828564, "longitude": 11.6328764, "source": "osm", "_tags": {"amenity": "hospital", "healthcare": "hospital"}}, {"name": "", "latitude": 32.9935552, "longitude": 10.8173679, "source": "osm", "_tags": {"amenity": "hospital", "healthcare": "hospital"}}, {"name": "المستشفي المحلي", "latitude": 33.0045564, "longitude": 10.8115391, "source": "osm", "_tags": {"amenity": "hospital", "healthcare": "hospital", "name": "المستشفي المحلي"}}]