[{"name": "hôpital guemar", "latitude": 33.4938707, "longitude": 6.7995497, "source": "osm", "_tags": {"amenity": "hospital", "name": "hôpital guemar", "name:ar": "مستوصف قمار"}}, {"name": "الأمومة المركزية الوادي", "latitude": 33.361762, "longitude": 6.8453794, "source": "osm", "_tags": {"addr:city": "الوادي", "addr:city:ar": "الوادي", "addr:place": "حي الأمير عبد القادر", "addr:place:ar": "حي الأمير عبد القادر", "addr:street": "شارع الأمير عبد القادر", "addr:street:ar": "شارع الأمير عبد القادر", "amenity": "hospital", "healthcare": "hospital", "name": "الأمومة المركزية الوادي", "name:ar": "الأمومة المركزية الوادي", "name:fr": "Maternité d'El Oued"}}, {"name": "ق ع حي الاستقلال", "latitude": 33.4742773, "longitude": 6.7888869, "source": "osm", "_tags": {"amenity": "hospital", "healthcare": "hospital", "name": "ق ع حي الاستقلال", "name:ar": "ق ع حي الاستقلال", "name:fr": "salle de soins istiklal"}}, {"name": "مستشفى كوينين", "latitude": 33.4036702, "longitude": 6.8260188, "source": "osm", "_tags": {"addr:postcode": "39014", "amenity": "hospital", "name": "مستشفى كوينين", "name:ar": "مستشفى كوينين", "name:en": "Hospital KOUININE", "name:fr": "Hôpital Kouinine", "opening_hours": "Su-Th 08:00-18:00"}}, {"name": "", "latitude": 33.3313991, "longitude": 6.8876927, "source": "osm", "_tags": {"addr:city": "البياضة", "addr:city:ar": "البياضة", "amenity": "hospital", "healthcare": "hospital"}}, {"name": "استعجالات طبية طواهرية", "latitude": 33.3319116, "longitude": 6.8864498, "source": "osm", "_tags": {"addr:city": "البياضة", "addr:city:ar": "البياضة", "amenity": "hospital", "healthcare": "hospital", "name": "استعجالات طبية طواهرية", "name:ar": "استعجالات طبية طواهرية", "name:fr": "Urgences médicales"}}, {"name": "عيادة صحية", "latitude": 33.4686854, "longitude": 6.8817541, "source": "osm", "_tags": {"addr:city": "حساني عبد الكريم", "addr:city:ar": "حساني عبد الكريم", "amenity": "hospital", "healthcare": "hospital", "name": "عيادة صحية", "name:ar": "عيادة صحية", "name:fr": "Clinique"}}, {"name": "خلف منير", "latitude": 33.368114, "longitude": 6.850159, "source": "osm", "_tags": {"addr:street": "حي المنظر الجميل بالقرب من نزل سي موسى", "amenity": "hospital", "email": "mounirkhelef@gmail.com", "healthcare": "hospital", "internet_access": "wlan", "name": "خلف منير", "name:ar": "خلف منير", "name:en": "Dr Mounir Khelrf", "name:fr": "Mounir Khelrf", "phone": "032110738"}}, {"name": "المؤسسة العمومية للصحة الجوارية", "latitude": 33.364773, "longitude": 6.8541875, "source": "osm", "_tags": {"addr:city": "الوادي", "addr:city:ar": "الوادي", "addr:place": "حي الأمير عبد القادر", "addr:place:ar": "حي الأمير عبد القادر", "addr:street": "شارع الأمير عبد القادر", "addr:street:ar": "شارع الأمير عبد القادر", "alt_name:fr": "Établissement public de la santé de proximité", "amenity": "hospital", "emergency": "yes", "healthcare": "hospital", "name": "المؤسسة العمومية للصحة الجوارية", "name:ar": "المؤسسة العمومية للصحة الجوارية", "name:fr": "EPSP"}}, {"name": "Centre hospitalier d'urgence le 8 mai 1945", "latitude": 33.3967289, "longitude": 6.8820426, "source": "osm", "_tags": {"addr:city": "El Oued", "addr:postcode": "39000", "amenity": "hospital", "emergency": "yes", "healthcare": "hospital", "healthcare:speciality": "emergency", "name": "Centre hospitalier d'urgence le 8 mai 1945", "name:ar": "المستشفى الإستعجالي 8 ماي", "name:fr": "Centre hospitalier d'urgence le 8 mai 1945", "opening_hours": "24/7"}}, {"name": "مستشفى طب العيون صداقة الجزائر كوبا", "latitude": 33.385875, "longitude": 6.8756436, "source": "osm", "_tags": {"addr:city": "الوادي", "addr:city:ar": "الوادي", "amenity": "hospital", "healthcare": "hospital", "healthcare:speciality": "ophthalmology", "name": "مستشفى طب العيون صداقة الجزائر كوبا", "name:ar": "مستشفى طب العيون صداقة الجزائر كوبا", "name:fr": "Hôpital Ophtalmologique Amitié Algérie - Cuba d'El Oued"}}, {"name": "مستشفي العمومي بشير بلال", "latitude": 33.310998, "longitude": 6.8997559, "source": "osm", "_tags": {"addr:city": "البياضة", "addr:suburb": "Lebama", "amenity": "hospital", "healthcare": "hospital", "name": "مستشفي العمومي بشير بلال", "name:ar": "مستشفي العمومي بشير بلال", "name:fr": "Hôpital communal Bachir Bilal"}}, {"name": "Hôpital de Robbah", "latitude": 33.2838441, "longitude": 6.9072868, "source": "osm", "_tags": {"addr:city": "الرباح ROBBAH", "addr:country": "DZ", "addr:state": "EL OUED", "agglomération": "الـربــــــاح", "amenity": "hospital", "name": "Hôpital de Robbah", "name:ar": "مستشفى الرباح", "name:fr": "Hôpital de Robbah", "source": "مكتب الدراسات -بوبكر إلياس- (الجزائر)"}}, {"name": "Hôpital Cité Chouhada", "latitude": 33.3423151, "longitude": 6.8721162, "source": "osm", "_tags": {"addr:city": "El Oued", "addr:postcode": "39000", "amenity": "hospital", "healthcare": "hospital", "name": "Hôpital Cité Chouhada", "name:ar": "مستشفى حي الشهداء", "name:fr": "Hôpital Cité Chouhada"}}, {"name": "المؤسسة العمومية للصحة الجوارية الطالب العربي", "latitude": 33.7294884, "longitude": 7.5172512, "source": "osm", "_tags": {"addr:city": "الطالب العربي", "addr:postcode": "39000", "amenity": "hospital", "healthcare": "hospital", "name": "المؤسسة العمومية للصحة الجوارية الطالب العربي", "name:ar": "المؤسسة العمومية للصحة الجوارية الطالب العربي", "phone": "+213 32 10 72 25"}}, {"name": "", "latitude": 33.403429, "longitude": 6.8264483, "source": "osm", "_tags": {"amenity": "hospital", "healthcare": "hospital"}}, {"name": "استعجالات طبية طواهرية", "latitude": 33.3318803, "longitude": 6.886525, "source": "osm", "_tags": {"amenity": "hospital", "healthcare": "hospital", "name": "استعجالات طبية طواهرية", "name:ar": "استعجالات طبية طواهرية", "name:fr": "Urgences médicales"}}, {"name": "polyclinique 19 mars ouest", "latitude": 33.3390487, "longitude": 6.8643987, "source": "osm", "_tags": {"addr:city": "El Oued", "addr:postcode": "39000", "amenity": "hospital", "emergency": "no", "healthcare": "hospital", "name": "polyclinique 19 mars ouest"}}, {"name": "عيادة متعددة الخدمات", "latitude": 33.4053259, "longitude": 6.8552407, "source": "osm", "_tags": {"building": "yes", "healthcare": "hospital", "healthcare:speciality": "general", "name": "عيادة متعددة الخدمات"}}, {"name": "المؤسسة العمومية الإستشفائية الجهوية لمعالجة مرض السرطان", "latitude": 33.3412089, "longitude": 6.8526214, "source": "osm", "_tags": {"addr:city": "El Oued", "addr:postcode": "39000", "addr:street": "بلدية الوادي", "amenity": "hospital", "healthcare": "hospital", "healthcare:speciality": "cancer", "name": "المؤسسة العمومية الإستشفائية الجهوية لمعالجة مرض السرطان", "name:ar": "المؤسسة العمومية الإستشفائية الجهوية لمعالجة مرض السرطان", "name:fr": "CENTRE HOSPITALIER DE CANCÉROLOGIE", "type": "multipolygon"}}]