[{"name": "مستشفى الرقيبة", "latitude": 33.5638007, "longitude": 6.7151779, "source": "osm", "_tags": {"amenity": "hospital", "name": "مستشفى الرقيبة", "name:ar": "مستشفى الرقيبة", "name:fr": "Hôpital Reguiba"}}, {"name": "", "latitude": 33.5791529, "longitude": 5.9927132, "source": "osm", "_tags": {"amenity": "hospital", "healthcare": "hospital"}}, {"name": "مستشفى سليمان عميرات", "latitude": 33.0995951, "longitude": 6.061674, "source": "osm", "_tags": {"addr:city": "تقرت", "addr:city:ar": "تقرت", "addr:postcode": "30002", "amenity": "hospital", "emergency": "yes", "healthcare": "hospital", "name": "مستشفى سليمان عميرات", "name:ar": "مستشفى سليمان عميرات", "name:en": "Slimen Amirat Hospital", "name:fr": "EPH Slimen Amirat"}}, {"name": "مستشفى الجديد تقرت", "latitude": 33.118108, "longitude": 6.0588858, "source": "osm", "_tags": {"addr:city": "تقرت", "addr:city:ar": "تقرت", "amenity": "hospital", "emergency": "yes", "healthcare": "hospital", "name": "مستشفى الجديد تقرت", "name:ar": "مستشفى الجديد تقرت", "name:fr": "Nouvel Hôpital de Touggourt", "owner": "Ministère de la santé"}}, {"name": "مستشفى الولادة تقرت", "latitude": 33.1108732, "longitude": 6.0747476, "source": "osm", "_tags": {"addr:city": "تقرت", "addr:city:ar": "تقرت", "amenity": "hospital", "emergency": "yes", "healthcare": "hospital", "name": "مستشفى الولادة تقرت", "name:ar": "مستشفى الولادة تقرت", "name:fr": "Hôpital de maternité E-H-S TGGT"}}, {"name": "Polyclinique", "latitude": 32.946021, "longitude": 5.9765776, "source": "osm", "_tags": {"addr:city": "بلدة عمر", "amenity": "hospital", "emergency": "no", "name": "Polyclinique", "name:ar": "العيادة متعددة الخدمات", "name:fr": "Polyclinique"}}, {"name": "الولادة الريفية", "latitude": 32.9474776, "longitude": 5.9813267, "source": "osm", "_tags": {"addr:city": "بلدة عمر", "amenity": "hospital", "emergency": "yes", "name": "الولادة الريفية", "name:ar": "الولادة الريفية", "name:fr": "Maternité rurale"}}, {"name": "EPH Taibet", "latitude": 33.0839193, "longitude": 6.3988748, "source": "osm", "_tags": {"amenity": "hospital", "healthcare": "hospital", "name": "EPH Taibet", "name:ar": "المؤسسة الاستشفائية العمومية الطيبات", "name:fr": "EPH Taibet"}}, {"name": "مستشفى لبدوات", "latitude": 33.1113597, "longitude": 6.0773575, "source": "osm", "_tags": {"addr:city": "تقرت", "addr:city:ar": "تقرت", "amenity": "hospital", "emergency": "yes", "healthcare": "hospital", "name": "مستشفى لبدوات", "name:ar": "مستشفى لبدوات", "name:fr": "Hôpital Lebdouat"}}, {"name": "مستشفى الرقيبة", "latitude": 33.5637415, "longitude": 6.7152088, "source": "osm", "_tags": {"amenity": "hospital", "healthcare": "hospital", "name": "مستشفى الرقيبة", "name:ar": "مستشفى الرقيبة", "name:fr": "Hôpital Reguiba"}}, {"name": "", "latitude": 33.5791786, "longitude": 5.9927427, "source": "osm", "_tags": {"amenity": "hospital", "healthcare": "hospital"}}]