[{"name": "", "latitude": 33.6140866, "longitude": -7.1264144, "source": "osm", "_tags": {"amenity": "hospital", "healthcare": "hospital"}}, {"name": "Centre d'Hémodialyse", "latitude": 33.6308643, "longitude": -7.1348526, "source": "osm", "_tags": {"amenity": "hospital", "healthcare": "hospital", "name": "Centre d'Hémodialyse"}}, {"name": "Centre Hospitalier Provincial de Benslimane", "latitude": 33.6304207, "longitude": -7.1346264, "source": "osm", "_tags": {"amenity": "hospital", "healthcare": "hospital", "healthcare:speciality": "general", "name": "Centre Hospitalier Provincial de Benslimane"}}, {"name": "HOPITAL DE JOUR", "latitude": 32.8917963, "longitude": -6.905217, "source": "osm", "_tags": {"addr:city": "CHP KHOURIBGA", "amenity": "hospital", "emergency": "yes", "healthcare": "hospital", "healthcare:speciality": "general", "name": "HOPITAL DE JOUR"}}, {"name": "Service des urgences", "latitude": 32.8924455, "longitude": -6.9055456, "source": "osm", "_tags": {"addr:city": "chp khouribga", "amenity": "hospital", "healthcare": "hospital", "healthcare:speciality": "emergency", "name": "Service des urgences"}}, {"name": "Hôpital Hassan II", "latitude": 32.8925762, "longitude": -6.9060318, "source": "osm", "_tags": {"amenity": "hospital", "healthcare": "hospital", "name": "Hôpital Hassan II", "name:es": "Hospital Hasán II"}}, {"name": "Hopital polyclinique cheikh zaid المركزالاستشفائي الشيخ زايد", "latitude": 32.8814293, "longitude": -6.9073889, "source": "osm", "_tags": {"amenity": "hospital", "healthcare": "hospital", "internet_access": "wlan", "name": "Hopital polyclinique cheikh zaid المركزالاستشفائي الشيخ زايد", "name:ar": "المركزالاستشفائي الشيخ زايد", "name:fr": "Hopital polyclinique cheikh zaid", "opening_hours": "24/7"}}, {"name": "Hopital Mohamed 5", "latitude": 32.8582311, "longitude": -6.556364, "source": "osm", "_tags": {"amenity": "hospital", "healthcare": "hospital", "name": "Hopital Mohamed 5"}}, {"name": "", "latitude": 32.8616633, "longitude": -6.5745951, "source": "osm", "_tags": {"amenity": "hospital", "healthcare": "hospital"}}, {"name": "", "latitude": 32.862013, "longitude": -6.5753414, "source": "osm", "_tags": {"amenity": "hospital", "healthcare": "hospital"}}, {"name": "Hopital El qorb", "latitude": 33.0702578, "longitude": -7.2438736, "source": "osm", "_tags": {"addr:city": "Ben Ahmed", "addr:postcode": "26050", "amenity": "hospital", "healthcare": "hospital", "healthcare:speciality": "general", "name": "Hopital El qorb"}}, {"name": "", "latitude": 33.068516, "longitude": -7.2457658, "source": "osm", "_tags": {"addr:city": "Ben Ahmed ⴱⵏ ⵃⵎⴷ بن أحمد", "addr:postcode": "26050", "addr:street": "Quartier ADM", "building": "yes", "healthcare": "hospital"}}]