[{"name": "مستشفي الجميل", "latitude": 32.8469196, "longitude": 12.0538034, "source": "osm", "_tags": {"amenity": "hospital", "name": "مستشفي الجميل", "name:ar": "مستشفي الجميل العام", "name:en": "Jamil General Hospital"}}, {"name": "مستشفي الكلي", "latitude": 32.8460044, "longitude": 12.0546815, "source": "osm", "_tags": {"amenity": "hospital", "name": "مستشفي الكلي", "name:ar": "مستشفي الكلي", "name:en": "Kidney hospital"}}, {"name": "مصحة الامان الايوائية", "latitude": 32.8515969, "longitude": 12.0593868, "source": "osm", "_tags": {"amenity": "hospital", "name": "مصحة الامان الايوائية", "name:ar": "مصحة الامان الايوائية", "name:en": "AMAN Clinic"}}, {"name": "مستشفي رقدالين", "latitude": 32.8890835, "longitude": 11.9848194, "source": "osm", "_tags": {"amenity": "hospital", "barrier": "wall", "healthcare": "hospital", "name": "مستشفي رقدالين", "name:ar": "مستشفي رقدالين", "name:en": "Riqdalin Hospital", "name:fr": "Hôpital de Regdaline"}}, {"name": "", "latitude": 32.8466586, "longitude": 12.0535954, "source": "osm", "_tags": {"amenity": "hospital", "healthcare": "hospital"}}, {"name": "مستشفي زوارة المركزي", "latitude": 32.9313789, "longitude": 12.0931381, "source": "osm", "_tags": {"amenity": "hospital", "emergency": "نعم", "healthcare": "hospital", "healthcare:speciality": "general", "name": "مستشفي زوارة المركزي", "name:ar": "مستشفي زوارة المركزي", "name:en": "Zuara Central Hospital", "operator:type": "public", "wheelchair": "yes"}}, {"name": "", "latitude": 32.8170949, "longitude": 12.0515372, "source": "osm", "_tags": {"amenity": "hospital", "healthcare": "hospital"}}, {"name": "Almarsa Hospital", "latitude": 32.9324662, "longitude": 12.0901882, "source": "osm", "_tags": {"amenity": "hospital", "emergency": "yes", "fixme": "name, name:en mismatch.", "healthcare": "hospital", "name": "Almarsa Hospital", "name:ar": "مستشفى زوارة المركزي", "name:en": "ZAUARA Central Hospital"}}, {"name": "مستوصف عرادة", "latitude": 32.8194542, "longitude": 12.0907367, "source": "osm", "_tags": {"amenity": "hospital", "healthcare": "hospital", "name": "مستوصف عرادة", "name:ar": "مستوصف عرادة", "name:en": "Arada Hospital"}}, {"name": "مستشفي السبخة القروي", "latitude": 32.8525492, "longitude": 11.9808585, "source": "osm", "_tags": {"amenity": "hospital", "healthcare": "hospital", "name": "مستشفي السبخة القروي", "name:en": "Al Sabkha Village Hospital"}}, {"name": "مستشفى الاوتاد القروي قسم النساء و الولادة والاطفال", "latitude": 32.9694184, "longitude": 11.8426867, "source": "osm", "_tags": {"amenity": "hospital", "healthcare": "hospital", "name": "مستشفى الاوتاد القروي قسم النساء و الولادة والاطفال"}}]