[{"name": "", "latitude": 33.685832, "longitude": -5.3765434, "source": "osm", "_tags": {"amenity": "hospital", "healthcare": "hospital"}}, {"name": "hopital de douar", "latitude": 32.9124129, "longitude": -5.7064525, "source": "osm", "_tags": {"amenity": "hospital", "healthcare": "hospital", "name": "hopital de douar"}}, {"name": "Dispensaire", "latitude": 33.6896185, "longitude": -5.3723615, "source": "osm", "_tags": {"amenity": "hospital", "healthcare": "hospital", "name": "Dispensaire"}}, {"name": "H么pital", "latitude": 33.6858803, "longitude": -5.3765791, "source": "osm", "_tags": {"amenity": "hospital", "healthcare": "hospital", "name": "H么pital"}}, {"name": "H么pital", "latitude": 33.679067, "longitude": -5.3768089, "source": "osm", "_tags": {"amenity": "hospital", "emergency": "yes", "healthcare": "hospital", "name": "H么pital"}}, {"name": "", "latitude": 32.9336006, "longitude": -5.6715077, "source": "osm", "_tags": {"amenity": "hospital", "healthcare": "hospital"}}, {"name": "", "latitude": 33.7497908, "longitude": -5.4871253, "source": "osm", "_tags": {"amenity": "hospital", "healthcare": "hospital"}}]