[{"name": "عيادة الصندوق الوطني للتوفير والاحتياط", "latitude": 33.6741295, "longitude": 1.025027, "source": "osm", "_tags": {"addr:city": "البيض", "addr:place": "حي الصندوق الوطني للتوفير والاحتياط", "addr:postcode": "32000", "amenity": "hospital", "healthcare": "hospital", "name": "عيادة الصندوق الوطني للتوفير والاحتياط", "name:ar": "عيادة الصندوق الوطني للتوفير والاحتياط", "name:fr": "Clinique CNEP"}}, {"name": "شوبان توفيق", "latitude": 33.673487, "longitude": 1.0136291, "source": "osm", "_tags": {"amenity": "hospital", "name": "شوبان توفيق", "name:fr": "Choban toufik", "phone": "049611264"}}, {"name": "", "latitude": 33.6721269, "longitude": 1.0165319, "source": "osm", "_tags": {"amenity": "hospital", "emergency": "yes", "name:ar": "مستشفى محمد بوضياف", "name:fr": "EPH Mohamed Boudiaf"}}, {"name": "عيادة الصندوق الوطني للتوفير والاحتياط", "latitude": 33.6741466, "longitude": 1.0249919, "source": "osm", "_tags": {"amenity": "hospital", "healthcare": "hospital", "name": "عيادة الصندوق الوطني للتوفير والاحتياط", "name:ar": "عيادة الصندوق الوطني للتوفير والاحتياط"}}]