[{"name": "Centre consultation et traitement dentaires", "latitude": 33.5730773, "longitude": -7.6206013, "source": "osm", "_tags": {"amenity": "hospital", "healthcare": "hospital", "name": "Centre consultation et traitement dentaires"}}, {"name": "Hôpital Sidi Othmane", "latitude": 33.5585424, "longitude": -7.5733008, "source": "osm", "_tags": {"amenity": "hospital", "healthcare": "hospital", "name": "Hôpital Sidi Othmane"}}, {"name": "Azzouzi صيدلية العزوزي", "latitude": 32.9980669, "longitude": -7.6187673, "source": "osm", "_tags": {"addr:city": "Fés", "addr:street": "47 LOT WAHDA NARJISSB", "amenity": "hospital", "emergency": "no", "healthcare": "hospital", "name": "Azzouzi صيدلية العزوزي", "name:ar": "صيدلية العزوزي", "name:fr": "Azzouzi", "operator": "AZZOUZI OMAR", "phone": "0535960428"}}, {"name": "Clinique les princes مصحة الأمراء", "latitude": 33.5878622, "longitude": -7.6195697, "source": "osm", "_tags": {"addr:street": "Rue Allal Al Fassi", "amenity": "hospital", "healthcare": "hospital", "name": "Clinique les princes مصحة الأمراء", "name:ar": "مصحة الأمراء", "name:fr": "Clinique les princes", "source": "Kaart Ground Survey 2018"}}, {"name": "Laboratory", "latitude": 33.5354999, "longitude": -7.7256209, "source": "osm", "_tags": {"amenity": "hospital", "healthcare": "hospital", "name": "Laboratory", "operator": "Laboratoire achifae"}}, {"name": "Hospital CNSS", "latitude": 33.6107521, "longitude": -7.5008035, "source": "osm", "_tags": {"amenity": "hospital", "healthcare": "hospital", "name": "Hospital CNSS"}}, {"name": "Urgences", "latitude": 33.549182, "longitude": -7.4852956, "source": "osm", "_tags": {"addr:city": "Tit Mellil تيط مليل", "addr:housenumber": "288", "addr:street": "Bd Attawhid", "amenity": "hospital", "emergency": "yes", "healthcare": "hospital", "healthcare:speciality": "general", "name": "Urgences", "operator": "Dr Benkhouja", "operator:type": "private", "phone": "0522331777"}}, {"name": "Clinical Les Fleurs", "latitude": 33.5815871, "longitude": -7.6220232, "source": "osm", "_tags": {"amenity": "hospital", "healthcare": "hospital", "name": "Clinical Les Fleurs"}}, {"name": "VITALIA MEDICAL", "latitude": 33.5802177, "longitude": -7.6216837, "source": "osm", "_tags": {"amenity": "hospital", "healthcare": "hospital", "name": "VITALIA MEDICAL"}}, {"name": "Medical 2000", "latitude": 33.5797991, "longitude": -7.6219663, "source": "osm", "_tags": {"amenity": "hospital", "healthcare": "hospital", "name": "Medical 2000"}}, {"name": "MEDIMED Matériel Médical", "latitude": 33.5785884, "longitude": -7.6214037, "source": "osm", "_tags": {"amenity": "hospital", "healthcare": "hospital", "name": "MEDIMED Matériel Médical"}}, {"name": "Kiné oum & co", "latitude": 33.5403113, "longitude": -7.5509901, "source": "osm", "_tags": {"addr:city": "Casablanca ⵜⴰⴷⴷⴰⵔⵜ ⵜⵓⵎⵍⵉⵍⵜ الدار البيضاء", "addr:street": "Rue 18 زنقة", "amenity": "hospital", "healthcare": "hospital", "healthcare:speciality": "physiotherapy", "name": "Kiné oum & co", "phone": "+212673240366"}}, {"name": "مستشفى مولاي الحسن", "latitude": 33.6046028, "longitude": -7.6340318, "source": "osm", "_tags": {"amenity": "hospital", "healthcare": "hospital", "name": "مستشفى مولاي الحسن", "name:ru": "Больница имени Мулай-эль-Хассана"}}, {"name": "Hôpital Privé International de Casablanca المستشفى الخاص الدولي للدار البيضاء", "latitude": 33.5819777, "longitude": -7.6403102, "source": "osm", "_tags": {"amenity": "hospital", "check_date": "2025-06-15", "healthcare": "hospital", "image": "https://static.lematin.ma/files/lematin/images/articles/2022/09/82b48d817e2b34d2600be8ada8a60f2b.jpg", "name": "Hôpital Privé International de Casablanca المستشفى الخاص الدولي للدار البيضاء", "name:ar": "المستشفى الخاص الدولي للدار البيضاء", "name:fr": "Hôpital Privé International de Casablanca", "operator:type": "private", "short_name:fr": "HPIC"}}, {"name": "Akdital oasis", "latitude": 33.5606808, "longitude": -7.6293283, "source": "osm", "_tags": {"addr:city": "casablanca", "amenity": "hospital", "emergency": "yes", "healthcare": "hospital", "healthcare:speciality": "emergency;radiology;intensive", "name": "Akdital oasis", "operator": "Clininique Akdital", "operator:type": "private", "wheelchair": "yes"}}, {"name": "Centre Hospitalier Universitaire Ibn Rochd المركز الإستشفائي الجامعي إبن رشد", "latitude": 33.5789091, "longitude": -7.6215532, "source": "osm", "_tags": {"amenity": "hospital", "emergency": "yes", "healthcare": "hospital", "name": "Centre Hospitalier Universitaire Ibn Rochd المركز الإستشفائي الجامعي إبن رشد", "name:ar": "المركز الإستشفائي الجامعي إبن رشد", "name:fr": "Centre Hospitalier Universitaire Ibn Rochd", "operator:type": "public", "short_name": "CHUIR;CHU Ibn Rochd", "url": "http://www.chuibnrochd.ma/", "website": "https://chuibnrochd.ma/"}}, {"name": "", "latitude": 33.5577301, "longitude": -7.6238544, "source": "osm", "_tags": {"amenity": "hospital", "building": "yes", "healthcare": "hospital"}}, {"name": "Polyclinique CNSS Ziraoui", "latitude": 33.594349, "longitude": -7.6356322, "source": "osm", "_tags": {"amenity": "hospital", "emergency": "yes", "healthcare": "hospital", "name": "Polyclinique CNSS Ziraoui", "operator": "CNSS", "operator:type": "public", "phone": "+21222203856"}}, {"name": "Clinique Le Littoral", "latitude": 33.5812437, "longitude": -7.6751812, "source": "osm", "_tags": {"amenity": "hospital", "building": "yes", "healthcare": "hospital", "name": "Clinique Le Littoral"}}, {"name": "Hopital 20 Aout", "latitude": 33.5751376, "longitude": -7.6210168, "source": "osm", "_tags": {"amenity": "hospital", "healthcare": "hospital", "name": "Hopital 20 Aout"}}, {"name": "Hopital 20 Aout", "latitude": 33.57463, "longitude": -7.619676, "source": "osm", "_tags": {"amenity": "hospital", "emergency": "yes", "healthcare": "hospital", "name": "Hopital 20 Aout"}}, {"name": "Polyclinique de la Sécurité sociale", "latitude": 33.5708495, "longitude": -7.6229618, "source": "osm", "_tags": {"amenity": "hospital", "healthcare": "hospital", "name": "Polyclinique de la Sécurité sociale"}}, {"name": "Clinique El Amine", "latitude": 33.5704148, "longitude": -7.6204878, "source": "osm", "_tags": {"amenity": "hospital", "emergency": "yes", "healthcare": "hospital", "name": "Clinique El Amine"}}, {"name": "Centre de Santé", "latitude": 33.3762433, "longitude": -7.993578, "source": "osm", "_tags": {"amenity": "hospital", "healthcare": "hospital", "name": "Centre de Santé"}}, {"name": "Hôpital du Cheikh Khalifa Ben Zayd Al-Nahyan", "latitude": 33.5523764, "longitude": -7.6683106, "source": "osm", "_tags": {"addr:city": "Casablanca", "addr:street": "Avenue Mohamed Taib Naciri", "alt_name": "Hôpital Cheikh Khalifa Bin Zayed Al Nahyan", "amenity": "hospital", "emergency": "yes", "healthcare": "hospital", "name": "Hôpital du Cheikh Khalifa Ben Zayd Al-Nahyan", "source": "Kaart Ground Survey 2018"}}, {"name": "Clinique Socrate", "latitude": 33.5788129, "longitude": -7.6472249, "source": "osm", "_tags": {"addr:street": "Rue Ibnou Majat", "amenity": "hospital", "building": "hospital", "healthcare": "hospital", "name": "Clinique Socrate", "source": "Kaart Ground Survey 2018"}}, {"name": "Clinique Attal", "latitude": 33.5586313, "longitude": -7.6376818, "source": "osm", "_tags": {"addr:street": "Boulevard Abderrahim Bouabid", "amenity": "hospital", "building": "hospital", "healthcare": "hospital", "name": "Clinique Attal", "source": "Kaart Ground Survey 2018"}}, {"name": "Clinique Californie", "latitude": 33.546665, "longitude": -7.6308526, "source": "osm", "_tags": {"addr:street": "Boulevard Panoramique", "amenity": "hospital", "building": "commercial", "healthcare": "hospital", "name": "Clinique Californie", "source": "Kaart Ground Survey 2018"}}, {"name": "", "latitude": 33.5585521, "longitude": -7.5730648, "source": "osm", "_tags": {"amenity": "hospital", "healthcare": "hospital"}}, {"name": "Hôpital Sekkat", "latitude": 33.5460467, "longitude": -7.5885967, "source": "osm", "_tags": {"amenity": "hospital", "healthcare": "hospital", "name": "Hôpital Sekkat"}}, {"name": "", "latitude": 33.5404957, "longitude": -7.5976591, "source": "osm", "_tags": {"amenity": "hospital", "healthcare": "hospital"}}, {"name": "Centre de Santé Derb el Kheir", "latitude": 33.5498334, "longitude": -7.5913748, "source": "osm", "_tags": {"amenity": "hospital", "healthcare": "hospital", "name": "Centre de Santé Derb el Kheir"}}, {"name": "Polyclinique ِCNSS Sidi Bernoussi", "latitude": 33.6107521, "longitude": -7.5007966, "source": "osm", "_tags": {"addr:city": "Casablanca", "addr:street": "Boulevard Bensaid Salah Mohamed", "amenity": "hospital", "emergency": "yes", "healthcare": "hospital", "name": "Polyclinique ِCNSS Sidi Bernoussi", "name:ar": "Polyclinique ِCNSS Sidi Bernoussi"}}, {"name": "Hopital provincial Errazi مستشفى الرازي", "latitude": 33.2601336, "longitude": -7.5840815, "source": "osm", "_tags": {"amenity": "hospital", "barrier": "fence", "healthcare": "hospital", "name": "Hopital provincial Errazi مستشفى الرازي", "name:ar": "مستشفى الرازي", "name:fr": "Hopital provincial Errazi"}}, {"name": "Hôpital Hassan 2", "latitude": 32.9929474, "longitude": -7.612642, "source": "osm", "_tags": {"amenity": "hospital", "healthcare": "hospital", "name": "Hôpital Hassan 2"}}, {"name": "Disponsaire Smaâla", "latitude": 32.9994945, "longitude": -7.622462, "source": "osm", "_tags": {"amenity": "hospital", "healthcare": "hospital", "name": "Disponsaire Smaâla"}}, {"name": "Dispensaire ElKheir", "latitude": 32.9888331, "longitude": -7.6080169, "source": "osm", "_tags": {"amenity": "hospital", "healthcare": "hospital", "name": "Dispensaire ElKheir"}}, {"name": "", "latitude": 33.0078532, "longitude": -7.6079152, "source": "osm", "_tags": {"amenity": "hospital", "healthcare": "hospital"}}, {"name": "Ajial Hôpital Pédiatrique", "latitude": 33.5521, "longitude": -7.6082648, "source": "osm", "_tags": {"addr:street": "Boulevard Panoramique", "amenity": "hospital", "building": "commercial", "healthcare": "hospital", "name": "Ajial Hôpital Pédiatrique", "source": "Kaart Ground Survey 2018"}}, {"name": "Polyclinique CNSS", "latitude": 33.7012169, "longitude": -7.3982014, "source": "osm", "_tags": {"addr:city": "Mohammedia", "amenity": "hospital", "healthcare": "hospital", "name": "Polyclinique CNSS"}}, {"name": "Centre Hospitalier Préfectoral de Ben M'Sick", "latitude": 33.5523382, "longitude": -7.5779945, "source": "osm", "_tags": {"amenity": "hospital", "healthcare": "hospital", "name": "Centre Hospitalier Préfectoral de Ben M'Sick"}}, {"name": "", "latitude": 33.5805795, "longitude": -7.544044, "source": "osm", "_tags": {"amenity": "hospital", "healthcare": "hospital"}}, {"name": "Polyclinique CNSS Hay Hassani مصحة الضمان الإجتماعي الحي الحسني", "latitude": 33.5669922, "longitude": -7.6685901, "source": "osm", "_tags": {"addr:city": "Casablanca ⵜⴰⴷⴷⴰⵔⵜ ⵜⵓⵎⵍⵉⵍⵜ الدار البيضاء", "addr:street": "Boulevard d'Oued Oum Rabia", "amenity": "hospital", "healthcare": "hospital", "name": "Polyclinique CNSS Hay Hassani مصحة الضمان الإجتماعي الحي الحسني", "name:ar": "مصحة الضمان الإجتماعي الحي الحسني", "name:fr": "Polyclinique CNSS Hay Hassani", "operator": "CNSS", "operator:type": "public"}}, {"name": "Clinique Al Amal", "latitude": 33.5725535, "longitude": -7.5531631, "source": "osm", "_tags": {"addr:street": "Boulevard des Forces Auxiliaires", "amenity": "hospital", "building": "yes", "healthcare": "hospital", "name": "Clinique Al Amal", "name:ar": "مصحة الأمل", "source": "Kaart Ground Survey 2018"}}, {"name": "Clinique Les Crêtes", "latitude": 33.5495136, "longitude": -7.624092, "source": "osm", "_tags": {"addr:street": "Boulevard Panoramique", "amenity": "hospital", "building": "commercial", "healthcare": "hospital", "name": "Clinique Les Crêtes", "source": "Kaart Ground Survey 2018"}}, {"name": "", "latitude": 33.5543489, "longitude": -7.6110289, "source": "osm", "_tags": {"addr:street": "Boulevard de l'Atlantide", "amenity": "hospital", "building": "commercial", "healthcare": "hospital", "source": "Kaart Ground Survey 2018"}}, {"name": "Clinique Green Town", "latitude": 33.4943367, "longitude": -7.5960642, "source": "osm", "_tags": {"amenity": "hospital", "healthcare": "hospital", "name": "Clinique Green Town"}}, {"name": "hopital d'errahma", "latitude": 33.531623, "longitude": -7.7326766, "source": "osm", "_tags": {"amenity": "hospital", "healthcare": "hospital", "healthcare:speciality": "general;paediatrics", "name": "hopital d'errahma"}}, {"name": "Clinique Mersultan", "latitude": 33.5806851, "longitude": -7.6138098, "source": "osm", "_tags": {"amenity": "hospital", "emergency": "yes", "healthcare": "hospital", "name": "Clinique Mersultan"}}, {"name": "hopital hassani", "latitude": 33.5584555, "longitude": -7.6873549, "source": "osm", "_tags": {"amenity": "hospital", "healthcare": "hospital", "name": "hopital hassani"}}, {"name": "Hôpital Mly abdellah", "latitude": 33.6977314, "longitude": -7.3854702, "source": "osm", "_tags": {"amenity": "hospital", "healthcare": "hospital", "name": "Hôpital Mly abdellah", "name:fr": "Hôpital Mly abdellah"}}, {"name": "ATLANTIC CLINIC CASABLANCA", "latitude": 33.5912926, "longitude": -7.5903533, "source": "osm", "_tags": {"addr:housenumber": "150", "addr:postcode": "20300", "addr:street": "Boulevard Bahmad", "amenity": "hospital", "contact:facebook": "cliniquecasablanca", "contact:instagram": "atlanticcliniccasablanca", "email": "contact@atlanticclinic.ma", "healthcare": "hospital", "internet_access": "wlan", "name": "ATLANTIC CLINIC CASABLANCA", "opening_hours": "24/7", "website": "https://www.atlanticclinic.ma/"}}, {"name": "Clinique Al Mouahhidine", "latitude": 33.580238, "longitude": -7.5666464, "source": "osm", "_tags": {"amenity": "hospital", "healthcare": "hospital", "name": "Clinique Al Mouahhidine"}}, {"name": "Clinique Taha مصحة طه", "latitude": 33.5559122, "longitude": -7.625772, "source": "osm", "_tags": {"amenity": "hospital", "healthcare": "hospital", "name": "Clinique Taha مصحة طه", "name:ar": "مصحة طه", "name:fr": "Clinique Taha"}}, {"name": "مستوصف ميمونة", "latitude": 33.0027888, "longitude": -7.626003, "source": "osm", "_tags": {"amenity": "hospital", "healthcare": "hospital", "name": "مستوصف ميمونة", "name:ar": "مستوصف ميمونة"}}, {"name": "مستشفى اهل الغلام الأزهر", "latitude": 33.5984149, "longitude": -7.4889641, "source": "osm", "_tags": {"amenity": "hospital", "healthcare": "hospital", "name": "مستشفى اهل الغلام الأزهر", "name:ar": "مستشفى اهل الغلام الأزهر", "name:en": "Hospital ahl elghlam al azhar"}}, {"name": "Hôpital AL mansour", "latitude": 33.6075203, "longitude": -7.5031634, "source": "osm", "_tags": {"amenity": "hospital", "healthcare": "hospital", "name": "Hôpital AL mansour"}}, {"name": "Hassan II Hospital", "latitude": 32.9951628, "longitude": -7.6157785, "source": "osm", "_tags": {"addr:city": "Settat", "addr:housenumber": "500000", "amenity": "hospital", "healthcare": "hospital", "name": "Hassan II Hospital", "name:zh": "塞塔特省哈桑二世医院"}}, {"name": "", "latitude": 33.5750419, "longitude": -7.5537357, "source": "osm", "_tags": {"amenity": "hospital", "healthcare": "hospital", "healthcare:speciality": "general;vaccination"}}, {"name": "", "latitude": 33.5725016, "longitude": -7.5469397, "source": "osm", "_tags": {"amenity": "hospital", "healthcare": "hospital"}}, {"name": "Hôpital Bouafi", "latitude": 33.5592237, "longitude": -7.6098386, "source": "osm", "_tags": {"amenity": "hospital", "healthcare": "hospital", "name": "Hôpital Bouafi"}}, {"name": "Centre de santé", "latitude": 33.269839, "longitude": -7.5741442, "source": "osm", "_tags": {"amenity": "hospital", "barrier": "wall", "healthcare": "hospital", "name": "Centre de santé"}}, {"name": "Centre de Sante Ain Harrouda", "latitude": 33.6400935, "longitude": -7.4486967, "source": "osm", "_tags": {"amenity": "hospital", "healthcare": "hospital", "name": "Centre de Sante Ain Harrouda"}}, {"name": "Hôpital Sidi El Mekki مستشفى سيدي المكي", "latitude": 33.2120174, "longitude": -7.7122637, "source": "osm", "_tags": {"amenity": "hospital", "barrier": "wall", "healthcare": "hospital", "name": "Hôpital Sidi El Mekki مستشفى سيدي المكي", "name:ar": "مستشفى سيدي المكي", "name:fr": "Hôpital Sidi El Mekki"}}, {"name": "Hôpital Moulay Youssef مستشفى مولاي يوسف", "latitude": 33.6026902, "longitude": -7.6323317, "source": "osm", "_tags": {"addr:city": "Casablanca ⵜⴰⴷⴷⴰⵔⵜ ⵜⵓⵎⵍⵉⵍⵜ الدار البيضاء", "addr:street": "Boulevard Moulay Youssef شارع مولاي يوسف", "amenity": "hospital", "check_date": "2025-02-14", "emergency": "yes", "healthcare": "hospital", "name": "Hôpital Moulay Youssef مستشفى مولاي يوسف", "name:ar": "مستشفى مولاي يوسف", "name:fr": "Hôpital Moulay Youssef", "operator": "Ministère de la Santé", "operator:type": "government"}}, {"name": "Hôpital Mohammed V مستشفى محمد الخامس", "latitude": 33.5893427, "longitude": -7.5515381, "source": "osm", "_tags": {"addr:city": "Casablanca", "addr:street": "Boulevard Abdelkhalek Torres", "amenity": "hospital", "healthcare": "hospital", "name": "Hôpital Mohammed V مستشفى محمد الخامس"}}, {"name": "Institut Pasteur معهد باستور", "latitude": 33.5739616, "longitude": -7.623506, "source": "osm", "_tags": {"amenity": "hospital", "healthcare": "hospital", "name": "Institut Pasteur معهد باستور", "name:ar": "معهد باستور", "name:fr": "Institut Pasteur"}}]