[{"name": "HopHôpitalital Ouled Ouhiba", "latitude": 34.6443874, "longitude": 9.0765782, "source": "osm", "_tags": {"amenity": "hospital", "emergency": "yes", "name": "HopHôpitalital Ouled Ouhiba"}}, {"name": "المستشفى المحلي بالسند", "latitude": 34.5361112, "longitude": 9.2533848, "source": "osm", "_tags": {"addr:city": "Sened", "addr:postcode": "2190", "addr:street": "Route de la Gare", "amenity": "hospital", "fax": "+216 76 290 131", "healthcare": "hospital", "name": "المستشفى المحلي بالسند", "name:ar": "المستشفى المحلي بالسند", "name:fr": "Hôpital de Sened", "phone": "+216 76 290 044"}}, {"name": "المستشفى الجهوي حسين بوزيان بقفصة", "latitude": 34.4197597, "longitude": 8.795981, "source": "osm", "_tags": {"addr:city": "Doualy Gafsa", "addr:postcode": "2100", "addr:street": "Rue Ibn Sina", "amenity": "hospital", "name": "المستشفى الجهوي حسين بوزيان بقفصة", "name:ar": "المستشفى الجهوي حسين بوزيان بقفصة", "name:fr": "Hôpital Régional Houcine Bouzayane de Gafsa", "phone": "+216 76 226 278"}}, {"name": "Hôpital Sidi Bou Yahia", "latitude": 34.4190312, "longitude": 8.7817228, "source": "osm", "_tags": {"addr:city": "قفصة", "addr:city:ar": "قفصة", "amenity": "hospital", "name": "Hôpital Sidi Bou Yahia"}}, {"name": "Hopital local de BIADHA", "latitude": 34.4783612, "longitude": 9.1718481, "source": "osm", "_tags": {"addr:city": "السند", "addr:city:ar": "السند", "addr:postcode": "2190", "addr:street": "Route de Tafertaset", "amenity": "hospital", "building": "hospital", "building:levels": "1", "name": "Hopital local de BIADHA"}}, {"name": "Clinique El Amen", "latitude": 34.4100648, "longitude": 8.7357524, "source": "osm", "_tags": {"amenity": "hospital", "healthcare": "hospital", "name": "Clinique El Amen"}}]