[{"name": "قاعة علاج كشيدة عمر", "latitude": 34.4213133, "longitude": 5.0529325, "source": "osm", "_tags": {"amenity": "hospital", "name": "قاعة علاج كشيدة عمر", "name:ar": "قاعة علاج كشيدة عمر", "name:en": "dispensary", "name:fr": "dispensaire"}}, {"name": "", "latitude": 34.5969047, "longitude": 5.1023613, "source": "osm", "_tags": {"addr:city": "الدوسن", "addr:city:ar": "الدوسن", "amenity": "hospital", "healthcare": "hospital"}}, {"name": "المستشفى القديم", "latitude": 34.3960709, "longitude": 4.9977127, "source": "osm", "_tags": {"addr:city": "سيدي خالد", "addr:city:ar": "سيدي خالد", "amenity": "hospital", "healthcare": "hospital", "name": "المستشفى القديم", "name:ar": "المستشفى القديم", "name:en": "The Old Hospital"}}, {"name": "المؤسسة الاستشفائية للصحة الجوارية (ليشانة)", "latitude": 34.7295665, "longitude": 5.4371823, "source": "osm", "_tags": {"amenity": "hospital", "name": "المؤسسة الاستشفائية للصحة الجوارية (ليشانة)", "name:ar": "المؤسسة الاستشفائية للصحة الجوارية (ليشانة)", "name:en": "Hospital", "name:fr": "Hôpital"}}, {"name": "مستشفى عاشور زيان", "latitude": 34.4285321, "longitude": 5.0599191, "source": "osm", "_tags": {"addr:city": "اولاد جلال", "addr:country": "DZ", "addr:postcode": "07400", "addr:street": "شارع العربي بن مهيدي", "amenity": "hospital", "barrier": "wall", "contact:fax": "+213 33 76 03 05", "contact:phone": "+213 33 76 03 29", "emergency": "yes", "name": "مستشفى عاشور زيان", "name:ar": "مستشفى عاشور زيان", "name:en": "Achour Ziane Hospital", "name:fr": "Hôpital Achour Ziane", "name:ru": "Ашур Сиань больницы"}}, {"name": "المؤسسة العمومية للصحة الجوارية", "latitude": 34.4294192, "longitude": 5.069443, "source": "osm", "_tags": {"addr:city": "اولاد جلال", "addr:country": "DZ", "addr:postcode": "07400", "addr:street": "شارع قاسمي براهيم", "amenity": "hospital", "emergency": "no", "name": "المؤسسة العمومية للصحة الجوارية", "name:ar": "المؤسسة العمومية للصحة الجوارية قاسمي ابراهيم", "name:en": "public institution nearby health", "name:fr": "établissement public de santé de proximité", "short_name": "EPSP"}}, {"name": "المركز النفسي البيداغوجي", "latitude": 34.4253901, "longitude": 5.0544371, "source": "osm", "_tags": {"amenity": "hospital", "emergency": "no", "name": "المركز النفسي البيداغوجي", "name:ar": "المركز النفسي البيداغوجي", "name:fr": "centre psychopédagogique"}}, {"name": "قاعة علاج مرغاد لخضر", "latitude": 34.4260677, "longitude": 5.0448133, "source": "osm", "_tags": {"amenity": "hospital", "building": "hospital", "building:levels": "1", "name": "قاعة علاج مرغاد لخضر", "name:ar": "قاعة علاج مرغاد لخضر", "name:fr": "dispensaire"}}, {"name": "", "latitude": 34.4212771, "longitude": 5.0528065, "source": "osm", "_tags": {"amenity": "hospital", "building:levels": "1", "healthcare": "hospital"}}, {"name": "قاعة علاج شبيرة معمر", "latitude": 34.4352237, "longitude": 5.073868, "source": "osm", "_tags": {"amenity": "hospital", "building": "hospital", "name": "قاعة علاج شبيرة معمر", "name:ar": "قاعة علاج شبيرة معمر", "name:en": "dispensary", "name:fr": "dispensaire"}}, {"name": "مستشفى سيدي خالد", "latitude": 34.4028626, "longitude": 4.9926539, "source": "osm", "_tags": {"amenity": "hospital", "emergency": "yes", "name": "مستشفى سيدي خالد", "name:ar": "مستشفى سيدي خالد", "name:en": "Hospital", "name:fr": "Hôpital"}}, {"name": "", "latitude": 34.3895361, "longitude": 4.9912208, "source": "osm", "_tags": {"addr:city": "سيدي خالد", "addr:city:ar": "سيدي خالد", "amenity": "hospital", "healthcare": "hospital"}}, {"name": "قاعة علاج", "latitude": 34.3993394, "longitude": 5.0099727, "source": "osm", "_tags": {"addr:city": "سيدي خالد", "addr:city:ar": "سيدي خالد", "amenity": "hospital", "healthcare": "hospital", "name": "قاعة علاج", "name:ar": "قاعة علاج", "name:en": "Treatment room", "name:fr": "Salle des soins"}}, {"name": "Hôpital Ziouchi Mohamed", "latitude": 34.7252945, "longitude": 5.3823757, "source": "osm", "_tags": {"amenity": "hospital", "emergency": "yes", "internet_access": "wlan", "name": "Hôpital Ziouchi Mohamed", "name:ar": "مستشفى زيوشي محمد", "name:fr": "Hôpital Ziouchi Mohamed"}}, {"name": "", "latitude": 34.3822894, "longitude": 4.9815399, "source": "osm", "_tags": {"amenity": "hospital"}}, {"name": "المؤسسة العمومية للصحة الجوارية", "latitude": 34.7877889, "longitude": 5.5945268, "source": "osm", "_tags": {"amenity": "hospital", "name": "المؤسسة العمومية للصحة الجوارية", "name:ar": "المؤسسة العمومية للصحة الجوارية", "name:fr": "Établissement public de la santé de proximité"}}, {"name": "", "latitude": 34.5101259, "longitude": 5.2693997, "source": "osm", "_tags": {"amenity": "hospital"}}, {"name": "المستشفى القديم", "latitude": 34.3958149, "longitude": 4.9977825, "source": "osm", "_tags": {"addr:city": "سيدي خالد", "addr:city:ar": "سيدي خالد", "amenity": "hospital", "healthcare": "hospital", "name": "المستشفى القديم", "name:ar": "المستشفى القديم"}}, {"name": "قاعة علاج لصطب عبد الحفيظ", "latitude": 34.434734, "longitude": 5.0556485, "source": "osm", "_tags": {"amenity": "hospital", "building": "yes", "healthcare": "hospital", "name": "قاعة علاج لصطب عبد الحفيظ", "name:ar": "قاعة علاج لصطب عبد الحفيظ", "name:fr": "dispensaire Lastab Abdelhafidh"}}, {"name": "العيادة متعددة الخدمات الشهيد نور خرخاش معمر", "latitude": 34.6387386, "longitude": 5.3887841, "source": "osm", "_tags": {"addr:city": "ليوة", "addr:city:ar": "ليوة", "amenity": "hospital", "barrier": "wall", "healthcare": "hospital", "name": "العيادة متعددة الخدمات الشهيد نور خرخاش معمر", "name:ar": "العيادة متعددة الخدمات الشهيد نور خرخاش معمر"}}, {"name": "عيادة متعددة الخدمات سلمي احمد", "latitude": 34.4483959, "longitude": 5.0623219, "source": "osm", "_tags": {"amenity": "hospital", "building": "hospital", "name": "عيادة متعددة الخدمات سلمي احمد", "name:ar": "عيادة متعددة الخدمات سلمي احمد", "name:fr": "dispensaire"}}, {"name": "Hôpital de Foughala", "latitude": 34.7296098, "longitude": 5.324115, "source": "osm", "_tags": {"addr:city": "Foughala", "amenity": "hospital", "healthcare": "hospital", "name": "Hôpital de Foughala", "opening_hours": "24/7"}}, {"name": "polyclénique mekhadma", "latitude": 34.6455257, "longitude": 5.4712112, "source": "osm", "_tags": {"addr:city": "mekhadma", "addr:postcode": "07034", "addr:street": "Rue Rahmoun Belkacem", "amenity": "hospital", "emergency": "no", "healthcare": "hospital", "healthcare:speciality": "general", "name": "polyclénique mekhadma"}}, {"name": "Polyclénique bent-essaleh", "latitude": 34.6502651, "longitude": 5.4718003, "source": "osm", "_tags": {"addr:city": "mekhadma", "addr:postcode": "07034", "amenity": "hospital", "emergency": "no", "healthcare": "hospital", "healthcare:speciality": "general", "name": "Polyclénique bent-essaleh"}}, {"name": "", "latitude": 34.5969025, "longitude": 5.102094, "source": "osm", "_tags": {"amenity": "hospital", "healthcare": "hospital"}}, {"name": "", "latitude": 34.4192971, "longitude": 5.0680559, "source": "osm", "_tags": {"amenity": "hospital", "building": "hospital", "name:en": "dispensary", "name:fr": "dispensaire"}}]