[{"name": "", "latitude": 34.755192, "longitude": 5.9062927, "source": "osm", "_tags": {"amenity": "hospital"}}, {"name": "مستشفى", "latitude": 33.9538279, "longitude": 5.9098044, "source": "osm", "_tags": {"addr:city": "المغير", "amenity": "hospital", "barrier": "wall", "emergency": "yes", "healthcare": "hospital", "name": "مستشفى", "name:ar": "مستشفى", "name:fr": "Hôpital Meghaier"}}, {"name": "Urgence médicale et chirurgicale", "latitude": 34.7501601, "longitude": 5.9091463, "source": "osm", "_tags": {"addr:city": "Sidi Okba", "amenity": "hospital", "emergency": "yes", "name": "Urgence médicale et chirurgicale"}}, {"name": "", "latitude": 34.7552446, "longitude": 5.9062481, "source": "osm", "_tags": {"amenity": "hospital", "healthcare": "hospital"}}, {"name": "ارض مشروع مسجد+مدرسة قرآنية", "latitude": 33.9443135, "longitude": 5.9160734, "source": "osm", "_tags": {"addr:city": "المغير", "addr:housenumber": "غرب الطرق الوطني رقم03", "addr:postcode": "39200", "amenity": "hospital", "emergency": "yes", "healthcare": "hospital", "healthcare:speciality": "general", "name": "ارض مشروع مسجد+مدرسة قرآنية", "operator": "جمعية دينية عبد المجيدحبة", "operator:type": "public"}}, {"name": "مدرسة ابتدائية", "latitude": 33.9445514, "longitude": 5.9145051, "source": "osm", "_tags": {"addr:city": "المغير", "addr:housenumber": "غرب الطريق الوطني رقم 03", "addr:postcode": "39200", "amenity": "hospital", "healthcare": "hospital", "healthcare:speciality": "general", "name": "مدرسة ابتدائية", "operator": "مدرية التربية", "operator:type": "government"}}, {"name": "قاعة علاج", "latitude": 34.2143421, "longitude": 5.7659536, "source": "osm", "_tags": {"amenity": "hospital", "building:levels": "1", "healthcare": "clinic", "healthcare:speciality": "general", "height": "3.5", "name": "قاعة علاج"}}, {"name": "futur Hôpital", "latitude": 34.7658359, "longitude": 5.8969072, "source": "osm", "_tags": {"amenity": "hospital", "healthcare": "hospital", "healthcare:speciality": "maternity", "name": "futur Hôpital", "note": "terrain de projet maternité", "operator": "maternité", "operator:type": "public"}}]