[{"name": "Polyclinique sidi chaib", "latitude": 34.5927437, "longitude": -0.5507738, "source": "osm", "_tags": {"amenity": "hospital", "name": "Polyclinique sidi chaib", "name:ar": "Polyclinique sidi chaib"}}, {"name": "المؤسسة العمومية للصحة الجوارية\"سايج يحي\"", "latitude": 34.7873444, "longitude": -0.5719594, "source": "osm", "_tags": {"addr:city": "تلاغ", "addr:street": "نهج العربي بن مهيدي", "amenity": "hospital", "healthcare": "hospital", "name": "المؤسسة العمومية للصحة الجوارية\"سايج يحي\"", "name:ar": "المؤسسة العمومية للصحة الجوارية\"سايج يحي\"", "name:fr": "EPSP SAIDJ YAHIA", "opening_hours": "24/7"}}, {"name": "مستشفى", "latitude": 34.4993608, "longitude": -0.8078268, "source": "osm", "_tags": {"amenity": "hospital", "name": "مستشفى", "name:ar": "مستشفى"}}, {"name": "مستشفى", "latitude": 34.4951978, "longitude": -0.8267119, "source": "osm", "_tags": {"amenity": "hospital", "name": "مستشفى", "name:ar": "مستشفى", "name:en": "Hopital"}}, {"name": "", "latitude": 34.7779417, "longitude": -0.4479773, "source": "osm", "_tags": {"amenity": "hospital"}}, {"name": "مستشفى حديد عيسى تلاغ", "latitude": 34.7793942, "longitude": -0.5644231, "source": "osm", "_tags": {"addr:city": "تلاغ", "amenity": "hospital", "healthcare": "hospital", "name": "مستشفى حديد عيسى تلاغ", "name:ar": "مستشفى تلاغ", "name:fr": "Hôpital de Telagh"}}, {"name": "المؤسسة العمومية للصحة الجوارية\"سايج يحي\"", "latitude": 34.7874554, "longitude": -0.5718621, "source": "osm", "_tags": {"amenity": "hospital", "healthcare": "hospital", "name": "المؤسسة العمومية للصحة الجوارية\"سايج يحي\"", "name:ar": "المؤسسة العمومية للصحة الجوارية\"سايج يحي\""}}, {"name": "Polyclinique sidi chaibq", "latitude": 34.5928905, "longitude": -0.5509522, "source": "osm", "_tags": {"amenity": "hospital", "healthcare": "hospital", "name": "Polyclinique sidi chaibq"}}]