[{"name": "Clinique Khlalfa", "latitude": 34.6695404, "longitude": -4.6212783, "source": "osm", "_tags": {"amenity": "hospital", "healthcare": "hospital", "name": "Clinique Khlalfa"}}, {"name": "Centre hospitalier universitaire Hassan II", "latitude": 34.0036766, "longitude": -4.9637961, "source": "osm", "_tags": {"amenity": "hospital", "healthcare": "hospital", "name": "Centre hospitalier universitaire Hassan II", "wheelchair": "yes"}}, {"name": "Cabinet de Rheumatologie", "latitude": 34.0369853, "longitude": -5.0019344, "source": "osm", "_tags": {"addr:city": "rue mohamed ZARKTOUNI FEZ", "amenity": "hospital", "healthcare": "hospital", "name": "Cabinet de Rheumatologie", "operator": "DR LAZRAK", "phone": "0535625099"}}, {"name": "مستشفى", "latitude": 34.6321673, "longitude": -4.9140958, "source": "osm", "_tags": {"amenity": "hospital", "healthcare": "hospital", "name": "مستشفى"}}, {"name": "University hospital Hassan II", "latitude": 34.0043481, "longitude": -4.9622857, "source": "osm", "_tags": {"amenity": "hospital", "emergency": "yes", "healthcare": "hospital", "name": "University hospital Hassan II", "note": "Fix french and arabic name"}}, {"name": "", "latitude": 34.6695391, "longitude": -4.6212776, "source": "osm", "_tags": {"amenity": "hospital", "healthcare": "hospital"}}, {"name": "Clinique de Taounate", "latitude": 34.5177814, "longitude": -4.6462989, "source": "osm", "_tags": {"amenity": "hospital", "designation": "Clinique de Taounate", "healthcare": "hospital", "name": "Clinique de Taounate"}}, {"name": "Hopital de Taounate", "latitude": 34.5219661, "longitude": -4.6408908, "source": "osm", "_tags": {"amenity": "hospital", "designation": "Hopital de Taounate", "emergency": "yes", "healthcare": "hospital", "name": "Hopital de Taounate"}}, {"name": "Clinique RAIS", "latitude": 34.0335173, "longitude": -5.006211, "source": "osm", "_tags": {"addr:city": "Fès", "addr:city:ar": "فاس", "addr:city:es": "Fez", "addr:city:fr": "Fès", "addr:district": "Fès", "addr:district:ar": "فاس", "addr:district:es": "Fez", "addr:district:fr": "Fès", "addr:housenumber": "16", "addr:street": "Avenue Allal Ben Abdallah", "amenity": "hospital", "healthcare": "hospital", "name": "Clinique RAIS", "phone": "0535621108"}}, {"name": "Croissant rouge marocain", "latitude": 34.0382154, "longitude": -5.0006078, "source": "osm", "_tags": {"addr:city": "rue mohamed el hansali fes", "amenity": "hospital", "healthcare": "hospital", "name": "Croissant rouge marocain", "phone": "0535624042"}}, {"name": "Hôpital Omar Drissi", "latitude": 34.0573836, "longitude": -4.9813786, "source": "osm", "_tags": {"addr:street": "Av Allal El Fassi Avenue de La Liberte, Fès, Maroc", "alt_name": "Hopital Bab Lahdid", "amenity": "hospital", "healthcare": "hospital", "name": "Hôpital Omar Drissi", "name:en": "Omar Drissi Hospital"}}, {"name": "L'Hôpital Mohamed V", "latitude": 33.8269203, "longitude": -4.8360052, "source": "osm", "_tags": {"amenity": "hospital", "healthcare": "hospital", "name": "L'Hôpital Mohamed V"}}, {"name": "مستشفى ابن البتطار", "latitude": 34.0425666, "longitude": -4.9847657, "source": "osm", "_tags": {"addr:city": "فاس", "amenity": "hospital", "healthcare": "hospital", "name": "مستشفى ابن البتطار", "name:ar": "مستشفى ابن البتطار"}}, {"name": "الكوثر", "latitude": 34.0143665, "longitude": -4.9998494, "source": "osm", "_tags": {"addr:city": "fez", "amenity": "hospital", "building": "yes", "healthcare": "hospital", "name": "الكوثر", "name:ar": "الكوثر"}}, {"name": "Hopital Ibn Alkhatib", "latitude": 34.0636488, "longitude": -4.9901604, "source": "osm", "_tags": {"addr:city": "Fès", "addr:city:ar": "فاس", "addr:city:es": "Fez", "addr:city:fr": "Fès", "addr:district": "Fès", "addr:district:ar": "فاس", "addr:district:es": "Fez", "addr:district:fr": "Fès", "amenity": "hospital", "healthcare": "hospital", "name": "Hopital Ibn Alkhatib"}}, {"name": "مستشفى الغساني", "latitude": 34.0446665, "longitude": -4.985025, "source": "osm", "_tags": {"addr:city": "فاس", "addr:street": "طريق مستشفى الغساني", "amenity": "hospital", "healthcare": "hospital", "name": "مستشفى الغساني", "name:ar": "مستشفى الغساني", "name:en": "Ghassani Hospital", "opening_hours": "24/7"}}, {"name": "Centre de santé adarissa المركز الصحي الادارسة", "latitude": 34.0173921, "longitude": -5.0136059, "source": "osm", "_tags": {"amenity": "hospital", "healthcare": "hospital", "name": "Centre de santé adarissa المركز الصحي الادارسة", "name:ar": "المركز الصحي الادارسة", "name:fr": "Centre de santé adarissa"}}, {"name": "dispenssaire ain zliten", "latitude": 34.0641064, "longitude": -4.9809569, "source": "osm", "_tags": {"addr:city": "Fes Médina ain zleten", "amenity": "hospital", "healthcare": "hospital", "name": "dispenssaire ain zliten"}}, {"name": "croissant rouge el batha الهلال الاحمر", "latitude": 34.0597948, "longitude": -4.9821199, "source": "osm", "_tags": {"addr:city": "Fes Médina batha", "amenity": "hospital", "healthcare": "hospital", "name": "croissant rouge el batha الهلال الاحمر", "name:ar": "الهلال الاحمر", "name:fr": "croissant rouge el batha"}}, {"name": "docteur Générale", "latitude": 34.0602977, "longitude": -4.9816195, "source": "osm", "_tags": {"addr:city": "Fes Médina batha", "amenity": "hospital", "healthcare": "hospital", "name": "docteur Générale", "operator": "Mohamed Bennis"}}, {"name": "", "latitude": 34.0530199, "longitude": -4.9882772, "source": "osm", "_tags": {"amenity": "hospital", "healthcare": "hospital"}}, {"name": "Hopital Ibn Khaldoun", "latitude": 34.06329, "longitude": -4.9907796, "source": "osm", "_tags": {"amenity": "hospital", "healthcare": "hospital", "name": "Hopital Ibn Khaldoun"}}, {"name": "", "latitude": 34.0451081, "longitude": -4.9852771, "source": "osm", "_tags": {"amenity": "hospital", "healthcare": "hospital"}}, {"name": "host", "latitude": 34.3170775, "longitude": -4.7963988, "source": "osm", "_tags": {"amenity": "hospital", "healthcare": "hospital", "name": "host"}}]