[{"name": "Centre de Santé et Maison d'accouchement", "latitude": 34.8139707, "longitude": -2.4096814, "source": "osm", "_tags": {"amenity": "hospital", "emergency": "yes", "healthcare": "hospital", "name": "Centre de Santé et Maison d'accouchement"}}, {"name": "centre hospitalier Ibn SINA", "latitude": 34.4011923, "longitude": -2.9095017, "source": "osm", "_tags": {"addr:district": "Taourirt", "amenity": "hospital", "emergency": "no", "healthcare": "hospital", "name": "centre hospitalier Ibn SINA"}}, {"name": "centre Hemodialyse", "latitude": 34.4028285, "longitude": -2.8884218, "source": "osm", "_tags": {"addr:district": "Taourirt", "amenity": "hospital", "emergency": "no", "healthcare": "hospital", "name": "centre Hemodialyse"}}, {"name": "clinique privé Arrahma", "latitude": 34.4152545, "longitude": -2.9159504, "source": "osm", "_tags": {"addr:district": "Taourirt", "amenity": "hospital", "emergency": "yes", "healthcare": "hospital", "name": "clinique privé Arrahma"}}, {"name": "centre de diagnostique polyvalent", "latitude": 34.4000945, "longitude": -2.8937858, "source": "osm", "_tags": {"addr:district": "Taourirt", "amenity": "hospital", "emergency": "no", "healthcare": "hospital", "name": "centre de diagnostique polyvalent"}}, {"name": "Moulay Ali Cherif", "latitude": 34.3997009, "longitude": -2.8937186, "source": "osm", "_tags": {"addr:district": "Taourirt", "amenity": "hospital", "emergency": "yes", "healthcare": "hospital", "name": "Moulay Ali Cherif"}}, {"name": "Hopital Provincial Taourirt", "latitude": 34.4131147, "longitude": -2.8905053, "source": "osm", "_tags": {"addr:city": "Taurirt", "addr:district": "Taourirt", "amenity": "hospital", "emergency": "yes", "healthcare": "hospital", "name": "Hopital Provincial Taourirt", "name:es": "Hospital Provincial de Taurirt"}}, {"name": "hopital Assalam", "latitude": 34.4007426, "longitude": -2.8816988, "source": "osm", "_tags": {"addr:district": "Taourirt", "amenity": "hospital", "emergency": "no", "healthcare": "hospital", "name": "hopital Assalam"}}, {"name": "centre médical Moukhtar soussi", "latitude": 34.406813, "longitude": -2.899355, "source": "osm", "_tags": {"addr:district": "Taourirt", "amenity": "hospital", "emergency": "no", "healthcare": "hospital", "name": "centre médical Moukhtar soussi"}}]