[{"name": "أم الأقصاب", "latitude": 34.7092626, "longitude": 8.3592423, "source": "osm", "_tags": {"amenity": "hospital", "name": "أم الأقصاب", "name:en": "om lagsab"}}, {"name": "المستشفى المحلي ماجل بلعباس", "latitude": 34.754686, "longitude": 8.5201173, "source": "osm", "_tags": {"addr:city": "ماجل بلعباس", "amenity": "hospital", "barrier": "wall", "healthcare": "hospital", "name": "المستشفى المحلي ماجل بلعباس", "name:ar": "المستشفى المحلي ماجل بلعباس", "name:fr": "Hôpital Régional de Majel Bel Abbès"}}, {"name": "المستشفى الجهوي بتوزر", "latitude": 33.9164495, "longitude": 8.1292039, "source": "osm", "_tags": {"addr:city": "Tozeur", "addr:postcode": "2200", "amenity": "hospital", "healthcare": "hospital", "name": "المستشفى الجهوي بتوزر", "name:ar": "المستشفى الجهوي بتوزر", "name:fr": "Hôpital Régional de Tozeur", "phone": "+216 76 453 400"}}, {"name": "Hôpital Tidjani Hadam", "latitude": 34.757034, "longitude": 8.0510037, "source": "osm", "_tags": {"addr:postcode": "12001", "amenity": "hospital", "healthcare": "hospital", "healthcare:speciality": "general", "name": "Hôpital Tidjani Hadam", "name:ar": "مستشفى التيجاني هدام", "name:en": "Tidjani Haddam Hospital", "operator": "Ministère de la santé", "operator:type": "public"}}, {"name": "المستشفى المحلي أم العرايس", "latitude": 34.4809593, "longitude": 8.2993589, "source": "osm", "_tags": {"amenity": "hospital", "healthcare": "hospital", "name": "المستشفى المحلي أم العرايس", "name:ar": "المستشفى المحلي أم العرايس", "operator": "Étatique"}}, {"name": "المستشفى المحلي بالرديف", "latitude": 34.3930377, "longitude": 8.1660163, "source": "osm", "_tags": {"building": "yes", "healthcare": "hospital", "name": "المستشفى المحلي بالرديف", "name:ar": "المستشفى المحلي بالرديف", "name:fr": "hopital de Redeyef"}}, {"name": "مستوصف", "latitude": 34.489235, "longitude": 8.2686698, "source": "osm", "_tags": {"addr:city": "أم العرائس", "healthcare": "hospital", "name": "مستوصف", "name:ar": "مستوصف"}}, {"name": "المستشفى الجهوي بالمتلوي", "latitude": 34.3124132, "longitude": 8.3918215, "source": "osm", "_tags": {"addr:city": "المتلوي", "amenity": "hospital", "healthcare": "hospital", "name": "المستشفى الجهوي بالمتلوي", "name:ar": "المستشفى الجهوي بالمتلوي"}}, {"name": "المستشفى الجهوي بدقاش", "latitude": 33.9900653, "longitude": 8.2037202, "source": "osm", "_tags": {"amenity": "hospital", "barrier": "wall", "healthcare": "yes", "name": "المستشفى الجهوي بدقاش", "name:ar": "المستشفى الجهوي بدقاش", "name:fr": "Hôpital Régional de Dgueche"}}, {"name": "مستوصف حي سيدي عبدالقادر", "latitude": 34.3775179, "longitude": 8.1422546, "source": "osm", "_tags": {"area": "yes", "healthcare": "hospital", "name": "مستوصف حي سيدي عبدالقادر"}}]