[{"name": "Hopital Ibn Sina /CHU Ibn SIna", "latitude": 33.9838968, "longitude": -6.8504077, "source": "osm", "_tags": {"amenity": "hospital", "designation": "Ibn sina General hospital for adults", "emergency": "yes", "healthcare": "hospital", "name": "Hopital Ibn Sina /CHU Ibn SIna"}}, {"name": "Hopital Moulay Youssef", "latitude": 34.0102418, "longitude": -6.8613729, "source": "osm", "_tags": {"amenity": "hospital", "healthcare": "hospital", "name": "Hopital Moulay Youssef"}}, {"name": "Cabinet Dr Siham BENALI OUMJOUD", "latitude": 34.0076276, "longitude": -6.5294678, "source": "osm", "_tags": {"addr:city": "Sidi Allal El Bahraoui ⵙⵉⴷⵉ ⵄⵍⵍⴰⵍ ⴰⴱⵃⵔⴰⵡⵉ سيدي علال البحراوي", "addr:housenumber": "134", "addr:street": "HAY ENNASSER", "amenity": "hospital", "ele": "34.01", "healthcare": "hospital", "healthcare:speciality": "general", "name": "Cabinet Dr Siham BENALI OUMJOUD", "operator": "Dr Siham BENALI OUMJOUD", "operator:type": "private", "website": "https://cabinet-docteur-siham-benali-oumjoud.business.site/website/cabinet-docteur-siham-benali-oumjoud/"}}, {"name": "", "latitude": 33.8551214, "longitude": -7.0339299, "source": "osm", "_tags": {"amenity": "hospital", "healthcare": "hospital"}}, {"name": "", "latitude": 33.8411937, "longitude": -7.0477275, "source": "osm", "_tags": {"amenity": "hospital", "healthcare": "hospital"}}, {"name": "المستعجلات", "latitude": 33.9698292, "longitude": -6.8707789, "source": "osm", "_tags": {"amenity": "hospital", "healthcare": "hospital", "name": "المستعجلات", "name:fr": "URGENCES"}}, {"name": "", "latitude": 34.224404, "longitude": -6.6262417, "source": "osm", "_tags": {"amenity": "hospital", "healthcare": "hospital"}}, {"name": "", "latitude": 33.976422, "longitude": -6.8700317, "source": "osm", "_tags": {"amenity": "hospital", "healthcare": "hospital", "name:fr": "rhumatologie"}}, {"name": "CHU Ibn Sina (Souissi)", "latitude": 33.9834625, "longitude": -6.8511983, "source": "osm", "_tags": {"amenity": "hospital", "healthcare": "hospital", "name": "CHU Ibn Sina (Souissi)"}}, {"name": "Hôpital Militaire Mohammed V - المستشفى العسكري محمد الخامس", "latitude": 33.9697158, "longitude": -6.8703091, "source": "osm", "_tags": {"addr:city": "Rabat ⵔⴱⴰⵟ الرباط", "amenity": "hospital", "emergency": "yes", "healthcare": "hospital", "name": "Hôpital Militaire Mohammed V - المستشفى العسكري محمد الخامس", "name:ar": "المستشفى العسكري الدراسي محمد الخامس", "name:en": "Mohammed V Military Hospital", "name:fr": "Hôpital Militaire Mohammed V"}}, {"name": "Hôpital Des Enfants Du CHU Ibn Sina", "latitude": 33.9864541, "longitude": -6.8542771, "source": "osm", "_tags": {"amenity": "hospital", "healthcare": "hospital", "name": "Hôpital Des Enfants Du CHU Ibn Sina"}}, {"name": "Maternite du Souissi / CHU Ibn SIna", "latitude": 33.9873368, "longitude": -6.855408, "source": "osm", "_tags": {"amenity": "hospital", "designation": "Gynecology & obstetrics hospital", "emergency": "yes", "healthcare": "hospital", "name": "Maternite du Souissi / CHU Ibn SIna"}}, {"name": "", "latitude": 33.997628, "longitude": -6.7462419, "source": "osm", "_tags": {"amenity": "hospital", "emergency": "no", "healthcare": "hospital"}}, {"name": "Centre de santé", "latitude": 34.0457237, "longitude": -6.7972527, "source": "osm", "_tags": {"amenity": "hospital", "building": "yes", "emergency": "no", "healthcare": "hospital", "name": "Centre de santé"}}, {"name": "Laboratoire analyse médicale Latifa Ouali", "latitude": 33.9934511, "longitude": -6.8469036, "source": "osm", "_tags": {"amenity": "hospital", "emergency": "no", "healthcare": "hospital", "name": "Laboratoire analyse médicale Latifa Ouali"}}, {"name": "Clinique Belvedere Centre De Cardiologie", "latitude": 34.0107422, "longitude": -6.8416074, "source": "osm", "_tags": {"amenity": "hospital", "healthcare": "hospital", "healthcare:speciality": "cardiology", "name": "Clinique Belvedere Centre De Cardiologie"}}, {"name": "Nouveau Hopital My Abdellah", "latitude": 34.0262886, "longitude": -6.753601, "source": "osm", "_tags": {"amenity": "hospital", "healthcare": "hospital", "name": "Nouveau Hopital My Abdellah"}}, {"name": "مستوصف القرية  hôpital d'El Karia", "latitude": 34.0232931, "longitude": -6.766881, "source": "osm", "_tags": {"addr:city": "سلا salé", "addr:postcode": "11004", "addr:street": "Avenue Moulay Abdellah", "building": "hospital", "healthcare": "hospital", "healthcare:speciality": "general", "name": "مستوصف القرية  hôpital d'El Karia", "operator": "مستشفى عمومي"}}, {"name": "La Capitale", "latitude": 34.0167844, "longitude": -6.8282204, "source": "osm", "_tags": {"amenity": "hospital", "building": "yes", "healthcare": "hospital", "name": "La Capitale"}}, {"name": "Hôpital Cheikh Zaid مستشفي الشيخ زايد بالرباط", "latitude": 33.9774766, "longitude": -6.8696998, "source": "osm", "_tags": {"addr:city": "Rabat ⵔⴱⴰⵟ الرباط", "addr:postcode": "10000", "addr:street": "Avenue Allal Fassi شارع علال الفاسي", "alt_name": "Hôpital Sheikh Zaid", "amenity": "hospital", "email": "contact@hcz.ma", "emergency": "yes", "healthcare": "hospital", "healthcare:speciality": "emergency;general;biology;orthopaedics;gynaecology;surgery;cardiology;oncology;radiology", "name": "Hôpital Cheikh Zaid مستشفي الشيخ زايد بالرباط", "name:ar": "مستشفي الشيخ زايد بالرباط", "name:en": "Cheikh Zaid Hospital", "name:fr": "Hôpital Cheikh Zaid", "operator": "Fondation Cheikh Zaïd", "operator:type": "private_non_profit", "phone": "+212(05) 37 68 38 48", "website": "https://www.hcz.ma/contact/"}}, {"name": "Clinique El Amal", "latitude": 34.0130329, "longitude": -6.8226153, "source": "osm", "_tags": {"amenity": "hospital", "building": "yes", "healthcare": "hospital", "name": "Clinique El Amal"}}, {"name": "Clinique Benjelloum", "latitude": 34.0151703, "longitude": -6.8238999, "source": "osm", "_tags": {"amenity": "hospital", "healthcare": "hospital", "name": "Clinique Benjelloum"}}, {"name": "Clinique Agdal", "latitude": 33.9956497, "longitude": -6.8510137, "source": "osm", "_tags": {"addr:street": "Avenue Ibn Sina", "amenity": "hospital", "building": "yes", "emergency": "yes", "healthcare": "hospital", "name": "Clinique Agdal"}}, {"name": "Hôpital EL IDRISSI", "latitude": 34.2483126, "longitude": -6.5782073, "source": "osm", "_tags": {"amenity": "hospital", "healthcare": "hospital", "name": "Hôpital EL IDRISSI", "phone": "+212 537 373111"}}, {"name": "Hopital", "latitude": 34.2544386, "longitude": -6.5432781, "source": "osm", "_tags": {"amenity": "hospital", "healthcare": "hospital", "name": "Hopital"}}, {"name": "Hopital Des Enfants/ CHU Ibn Sina", "latitude": 33.9867479, "longitude": -6.8545196, "source": "osm", "_tags": {"amenity": "hospital", "designation": "Pediatric hospital", "emergency": "yes", "healthcare": "hospital", "name": "Hopital Des Enfants/ CHU Ibn Sina"}}, {"name": "Cabinet Docteur Amar - Généraliste", "latitude": 34.0459802, "longitude": -6.7998223, "source": "osm", "_tags": {"addr:city": "Salé سلا", "addr:postcode": "11010", "addr:street": "Avenue Al Salwa", "amenity": "hospital", "healthcare": "hospital", "healthcare:speciality": "general", "name": "Cabinet Docteur Amar - Généraliste", "operator": "Dr.Fouad Amar"}}, {"name": "Hôpital Azzamouri", "latitude": 34.24635, "longitude": -6.5760036, "source": "osm", "_tags": {"amenity": "hospital", "building": "yes", "healthcare": "hospital", "name": "Hôpital Azzamouri"}}, {"name": "Hospital sidi lahcen", "latitude": 33.9044385, "longitude": -6.9383922, "source": "osm", "_tags": {"addr:city": "Témara تمارة", "amenity": "hospital", "emergency": "yes", "healthcare": "hospital", "healthcare:speciality": "general", "name": "Hospital sidi lahcen", "operator": "Public"}}, {"name": "", "latitude": 33.9751527, "longitude": -6.8186826, "source": "osm", "_tags": {"amenity": "hospital", "healthcare": "hospital"}}, {"name": "Hopital Des Spécialités / HCU Ibn Sina", "latitude": 33.9820234, "longitude": -6.8580191, "source": "osm", "_tags": {"amenity": "hospital", "designation": "Specialized hospital Head and neck", "emergency": "yes", "healthcare": "hospital", "name": "Hopital Des Spécialités / HCU Ibn Sina"}}, {"name": "Polyclinique", "latitude": 33.937353, "longitude": -6.9201872, "source": "osm", "_tags": {"amenity": "hospital", "healthcare": "hospital", "name": "Polyclinique"}}, {"name": "Hôpital Fath El Kheir", "latitude": 33.906378, "longitude": -6.9206231, "source": "osm", "_tags": {"addr:city": "TEMARA", "addr:postcode": "12000", "amenity": "hospital", "emergency": "no", "healthcare": "hospital", "name": "Hôpital Fath El Kheir", "name:fr": "Hôpital Fath El Kheir", "operator": "Public"}}, {"name": "Hopital Moulay Abdallah", "latitude": 34.0374682, "longitude": -6.8125956, "source": "osm", "_tags": {"amenity": "hospital", "healthcare": "hospital", "name": "Hopital Moulay Abdallah"}}, {"name": "مستشفي العياشي", "latitude": 34.0346468, "longitude": -6.8259071, "source": "osm", "_tags": {"amenity": "hospital", "emergency": "no", "healthcare": "hospital", "healthcare:speciality": "Rhumatologie_-_Médecine_physique_et_réadaptation", "name": "مستشفي العياشي", "name:ar": "مستشفي العياشي", "name:en": "Hopital AL AYACHI", "operator": "CHU Ibn Sina"}}, {"name": "Croix rouge", "latitude": 34.0352228, "longitude": -6.8242486, "source": "osm", "_tags": {"amenity": "hospital", "healthcare": "hospital", "name": "Croix rouge"}}, {"name": "مستودع الأموات", "latitude": 34.262942, "longitude": -6.5724598, "source": "osm", "_tags": {"amenity": "hospital", "healthcare": "hospital", "name": "مستودع الأموات", "name:ar": "مستودع الأموات"}}, {"name": "Hôpital Psychatrie Kenitra", "latitude": 34.246894, "longitude": -6.5800767, "source": "osm", "_tags": {"amenity": "hospital", "healthcare": "hospital", "name": "Hôpital Psychatrie Kenitra"}}, {"name": "Hopital de Proximite - Tiflet", "latitude": 33.8954291, "longitude": -6.3345311, "source": "osm", "_tags": {"amenity": "hospital", "healthcare": "hospital", "name": "Hopital de Proximite - Tiflet", "name:ar": "مستشفى القرب - تيفلت", "name:fr": "Hopital de Proximite - Tiflet"}}, {"name": "Centre de dialyse Guich Oudaya", "latitude": 33.94383, "longitude": -6.8848079, "source": "osm", "_tags": {"addr:city": "Témara تمارة", "addr:housenumber": "villa A48", "addr:postcode": "10160", "addr:street": "résidence Ouhoud Guich oudaya", "amenity": "hospital", "healthcare": "hospital", "healthcare:speciality": "nephrology", "name": "Centre de dialyse Guich Oudaya", "source": "streetlevel imagery"}}, {"name": "", "latitude": 34.2493162, "longitude": -6.5434548, "source": "osm", "_tags": {"amenity": "hospital", "building": "yes", "healthcare": "hospital"}}, {"name": "المعهد الوطني للانكولوجيا", "latitude": 33.9723284, "longitude": -6.8731815, "source": "osm", "_tags": {"addr:city": "الرباط", "addr:housenumber": "المعهد الوطني للانكلوجيا سيدي محمد بن عبد الله", "addr:postcode": "10000", "addr:street": "شارع علال الفاسي", "amenity": "hospital", "emergency": "yes", "healthcare": "hospital", "healthcare:speciality": "oncology", "name": "المعهد الوطني للانكولوجيا", "name:ar": "المعهد الوطني للانكلوجيا سيدي محمد بن عبد الله", "name:en": "National Institute of Oncology Sidi Mohamed Ben Abdallah", "name:fr": "Institut National d'Oncologie Sidi Mohamed Ben Abdallah"}}, {"name": "Moulay Hassan", "latitude": 34.2608894, "longitude": -6.5629662, "source": "osm", "_tags": {"amenity": "hospital", "healthcare": "hospital", "name": "Moulay Hassan"}}, {"name": "Centre De Sante Bouknadel", "latitude": 34.1208795, "longitude": -6.7404256, "source": "osm", "_tags": {"amenity": "hospital", "healthcare": "hospital", "name": "Centre De Sante Bouknadel", "source": "microsoft/BuildingFootprints"}}, {"name": "", "latitude": 34.0106763, "longitude": -6.8619786, "source": "osm", "_tags": {"amenity": "hospital", "healthcare": "hospital"}}, {"name": "", "latitude": 34.2471617, "longitude": -6.5754666, "source": "osm", "_tags": {"amenity": "hospital", "healthcare": "hospital"}}, {"name": "", "latitude": 34.2455329, "longitude": -6.5806192, "source": "osm", "_tags": {"amenity": "hospital", "healthcare": "hospital"}}, {"name": "", "latitude": 34.2582521, "longitude": -6.6121015, "source": "osm", "_tags": {"amenity": "hospital", "healthcare": "hospital"}}, {"name": "", "latitude": 34.2556913, "longitude": -6.6026304, "source": "osm", "_tags": {"amenity": "hospital", "healthcare": "hospital"}}, {"name": "", "latitude": 34.2562356, "longitude": -6.5896498, "source": "osm", "_tags": {"amenity": "hospital", "healthcare": "hospital"}}, {"name": "", "latitude": 34.2542603, "longitude": -6.5981906, "source": "osm", "_tags": {"amenity": "hospital", "healthcare": "hospital"}}, {"name": "", "latitude": 34.2515377, "longitude": -6.5218464, "source": "osm", "_tags": {"amenity": "hospital", "healthcare": "hospital"}}, {"name": "", "latitude": 34.2662411, "longitude": -6.5642481, "source": "osm", "_tags": {"amenity": "hospital", "healthcare": "hospital"}}, {"name": "", "latitude": 34.2421627, "longitude": -6.5399286, "source": "osm", "_tags": {"amenity": "hospital", "healthcare": "hospital"}}, {"name": "Hôpital wlad bennasser", "latitude": 33.928382, "longitude": -6.9023329, "source": "osm", "_tags": {"amenity": "hospital", "healthcare": "hospital", "name": "Hôpital wlad bennasser", "name:ar": "مستشفى ولاد بن ناصر"}}]