[{"name": "مستشفى تاجموت", "latitude": 33.8806483, "longitude": 2.5265751, "source": "osm", "_tags": {"addr:city": "تاجموت", "addr:city:ar": "تاجموت", "amenity": "hospital", "healthcare": "hospital", "name": "مستشفى تاجموت", "name:ar": "مستشفى تاجموت"}}, {"name": "مستشفى الدويس", "latitude": 34.3695899, "longitude": 2.7025322, "source": "osm", "_tags": {"addr:city": "الدويس", "addr:city:ar": "الدويس", "amenity": "hospital", "healthcare": "hospital", "name": "مستشفى الدويس", "name:ar": "مستشفى الدويس"}}, {"name": "مركز تصفية الدم", "latitude": 34.2963821, "longitude": 1.9494832, "source": "osm", "_tags": {"amenity": "hospital", "name": "مركز تصفية الدم"}}, {"name": "المؤسسة العمومية للصحة الجوارية قلتة سيدي سعد", "latitude": 34.2967632, "longitude": 1.94929, "source": "osm", "_tags": {"amenity": "hospital", "name": "المؤسسة العمومية للصحة الجوارية قلتة سيدي سعد"}}, {"name": "مستشفى الإدريسية", "latitude": 34.4564121, "longitude": 2.5311525, "source": "osm", "_tags": {"addr:city": "الإدريسية", "addr:city:ar": "الإدريسية", "amenity": "hospital", "barrier": "wall", "emergency": "yes", "healthcare": "hospital", "name": "مستشفى الإدريسية", "name:ar": "مستشفى الإدريسية", "name:fr": "Hôpital El Idrissia"}}, {"name": "مستشفى آفلو", "latitude": 34.1168677, "longitude": 2.0942763, "source": "osm", "_tags": {"addr:city": "آفلو", "amenity": "hospital", "emergency": "yes", "healthcare": "hospital", "name": "مستشفى آفلو", "name:ar": "مستشفى آفلو", "name:fr": "Hôpital"}}, {"name": "مستشفى تاجموت", "latitude": 33.8806037, "longitude": 2.5272309, "source": "osm", "_tags": {"amenity": "hospital", "healthcare": "hospital", "name": "مستشفى تاجموت", "name:ar": "مستشفى تاجموت"}}, {"name": "مستشفى الدويس", "latitude": 34.3699442, "longitude": 2.7022815, "source": "osm", "_tags": {"amenity": "hospital", "healthcare": "hospital", "name": "مستشفى الدويس", "name:ar": "مستشفى الدويس"}}, {"name": "مستشفى الأمومة والطفولة", "latitude": 34.1125826, "longitude": 2.0790172, "source": "osm", "_tags": {"amenity": "hospital", "healthcare": "hospital", "name": "مستشفى الأمومة والطفولة"}}]