[{"name": "", "latitude": 34.6731549, "longitude": -1.9235752, "source": "osm", "_tags": {"addr:housenumber": "Immeuble 2", "addr:postcode": "60000", "addr:street": "rue saad zaghloul", "amenity": "hospital", "healthcare": "hospital", "internet_access": "wlan"}}, {"name": "", "latitude": 34.4773788, "longitude": -2.2427964, "source": "osm", "_tags": {"amenity": "hospital", "healthcare": "hospital"}}, {"name": "Hôpital El Farabi", "latitude": 34.6755048, "longitude": -1.914488, "source": "osm", "_tags": {"amenity": "hospital", "healthcare": "hospital", "name": "Hôpital El Farabi", "name:fr": "Hôpital El Farabi"}}, {"name": "Centre Hospitalier Universitaire (CHU) Mohammed VI", "latitude": 34.6562534, "longitude": -1.9107389, "source": "osm", "_tags": {"amenity": "hospital", "healthcare": "hospital", "name": "Centre Hospitalier Universitaire (CHU) Mohammed VI", "name:fr": "Centre Hospitalier Universitaire (CHU) Mohammed VI"}}, {"name": "Hopital de Trone", "latitude": 34.4800253, "longitude": -1.7630063, "source": "osm", "_tags": {"addr:city": "TOUISSIT", "addr:district": "OUJDA", "addr:full": "Cité Economique 64852 TOUISSIT", "addr:place": "Cité Economique", "addr:postcode": "64852", "addr:province": "JERADA", "addr:suburb": "TOUISSIT", "amenity": "hospital", "comment": "Précision de 3 décimal", "fixme": "resurvey", "healthcare": "hospital", "name": "Hopital de Trone", "operator": "Ministère de la Santé", "post_office:type": "agence ABB", "ref:code_mecano": "4600.0", "source": "https://www.sante.gov.ma/", "website": "https://www.sante.gov.ma/"}}, {"name": "Centre de Santé Lamharchi", "latitude": 34.6778842, "longitude": -1.9356027, "source": "osm", "_tags": {"amenity": "hospital", "healthcare": "hospital", "name": "Centre de Santé Lamharchi"}}, {"name": "Polyclinique CNSS", "latitude": 34.6700246, "longitude": -1.9113664, "source": "osm", "_tags": {"amenity": "hospital", "healthcare": "hospital", "name": "Polyclinique CNSS"}}, {"name": "Clinique Isly", "latitude": 34.6729664, "longitude": -1.925882, "source": "osm", "_tags": {"addr:city": "Oujda", "addr:housenumber": "12", "addr:street": "Rue Abdelaziz Taalibi", "amenity": "hospital", "healthcare": "hospital", "name": "Clinique Isly", "phone": "+212 536700701"}}, {"name": "L'Hôpital des Maladies Psychiatriques", "latitude": 34.6800227, "longitude": -1.8906515, "source": "osm", "_tags": {"amenity": "hospital", "healthcare": "hospital", "name": "L'Hôpital des Maladies Psychiatriques"}}, {"name": "Centre Mehdi Ibn Toumart مركز المهدي ابن تومرت", "latitude": 34.7913823, "longitude": -1.9020136, "source": "osm", "_tags": {"amenity": "hospital", "health_facility_type": "health_center", "healthcare": "hospital", "name": "Centre Mehdi Ibn Toumart مركز المهدي ابن تومرت", "name:ar": "مركز المهدي ابن تومرت", "name:fr": "Centre Mehdi Ibn Toumart"}}, {"name": "Dispensaire El Aounia مستوصف العونية", "latitude": 34.6883068, "longitude": -1.9007217, "source": "osm", "_tags": {"amenity": "hospital", "health_facility:type": "dispensary", "healthcare": "hospital", "name": "Dispensaire El Aounia مستوصف العونية", "name:ar": "مستوصف العونية", "name:fr": "Dispensaire El Aounia"}}, {"name": "Hopital de Oncologie", "latitude": 34.6250716, "longitude": -1.9839779, "source": "osm", "_tags": {"amenity": "hospital", "healthcare": "hospital", "name": "Hopital de Oncologie"}}, {"name": "Hopital Dr. Benzardjeb Benaouda", "latitude": 34.6439728, "longitude": -1.3241357, "source": "osm", "_tags": {"addr:city": "Sebdou", "addr:postcode": "13006", "addr:street": "Rue Chahid Boubakkar Tahar", "amenity": "hospital", "emergency": "yes", "name": "Hopital Dr. Benzardjeb Benaouda", "operator": "Etablissement Public", "website": "http://www.eph-sebdou.dz/"}}, {"name": "dispensaire", "latitude": 34.7756745, "longitude": -1.5698673, "source": "osm", "_tags": {"amenity": "hospital", "name": "dispensaire"}}, {"name": "Centre régional d'Oncologie", "latitude": 34.6567405, "longitude": -1.9131286, "source": "osm", "_tags": {"addr:city": "Oujda", "addr:postcode": "60000", "addr:street": "Boulevard Oum Rabia", "amenity": "hospital", "healthcare": "hospital", "healthcare:speciality": "oncology;radiotherapy;chirurgie_oncologique;nuclear;chimiothérapie", "name": "Centre régional d'Oncologie", "operator": "CHU M-VI OUJDA", "operator:type": "public"}}]