[{"name": "مستشفى قابس العسكري", "latitude": 33.8838025, "longitude": 10.1126503, "source": "osm", "_tags": {"addr:city": "قابس", "addr:postcode": "6000", "addr:street": "شارع المنجي سليم", "amenity": "hospital", "fax": "+216 75 270 801", "name": "مستشفى قابس العسكري", "name:ar": "مستشفى قابس العسكري", "name:fr": "Hôpital militaire de Gabès", "phone": "+216 75 274 888", "wikidata": "Q16508251", "wikipedia": "ar:المستشفى العسكري بقابس"}}, {"name": "Service des consultations externes", "latitude": 34.5317902, "longitude": 10.496435, "source": "osm", "_tags": {"amenity": "hospital", "healthcare": "hospital", "name": "Service des consultations externes"}}, {"name": "مركز الرعاية الصحية بالحاجب", "latitude": 34.7180875, "longitude": 10.6463323, "source": "osm", "_tags": {"amenity": "hospital", "healthcare": "hospital", "name": "مركز الرعاية الصحية بالحاجب", "name:ar": "مركز الرعاية الصحية بالحاجب", "name:fr": "Centre de Santé El Hajeb", "opening_hours": "Mo-Fr 07:30-17:00; Sa 07:30-14:00"}}, {"name": "المستشفى الجهوي بقابس محمد بن ساسي", "latitude": 33.8632735, "longitude": 10.1148896, "source": "osm", "_tags": {"addr:city": "قابس", "addr:postcode": "6014", "addr:street": "Rue Ibn Khaldoun", "amenity": "hospital", "emergency": "yes", "name": "المستشفى الجهوي بقابس محمد بن ساسي", "name:ar": "المستشفى الجهوي بقابس محمد بن ساسي", "name:fr": "Hôpital Régional Mohamed Ben Sassi de Gabès", "phone": "+216 75 282 530"}}, {"name": "المستشفى المحلي بوذرف", "latitude": 33.9780502, "longitude": 9.9728453, "source": "osm", "_tags": {"amenity": "hospital", "barrier": "wall", "fax": "+216 75 366 000", "healthcare": "hospital", "name": "المستشفى المحلي بوذرف", "name:fr": "Hôpital Municipal de Oudref", "phone": "+216 75 365 388"}}, {"name": "", "latitude": 33.8838887, "longitude": 10.1126683, "source": "osm", "_tags": {"amenity": "hospital"}}, {"name": "Consultations externes Mahres", "latitude": 34.5316952, "longitude": 10.4964356, "source": "osm", "_tags": {"amenity": "hospital", "healthcare": "hospital", "name": "Consultations externes Mahres"}}, {"name": "SAMU 04 Garage", "latitude": 34.7378335, "longitude": 10.7063735, "source": "osm", "_tags": {"amenity": "hospital", "healthcare": "hospital", "name": "SAMU 04 Garage", "operator": "Ministry of health"}}, {"name": "المستشفى الجهوي بئر علي بن خليفة", "latitude": 34.7457448, "longitude": 10.1086227, "source": "osm", "_tags": {"amenity": "hospital", "healthcare": "hospital", "name": "المستشفى الجهوي بئر علي بن خليفة", "name:ar": "المستشفى الجهوي بئر علي بن خليفة", "name:fr": "Hôpital Régional Bir Ali Ben Khelifa"}}, {"name": "المستشفى المحلي عقارب", "latitude": 34.7416212, "longitude": 10.5271684, "source": "osm", "_tags": {"addr:city": "عقارب", "amenity": "hospital", "healthcare": "hospital", "name": "المستشفى المحلي عقارب", "name:ar": "المستشفى المحلي عقارب", "name:fr": "Hôpital Local de Agareb"}}, {"name": "Hôpital Militaire de Sfax", "latitude": 34.6609276, "longitude": 10.6604323, "source": "osm", "_tags": {"amenity": "hospital", "healthcare": "hospital", "landuse": "military", "name": "Hôpital Militaire de Sfax"}}]