[{"name": "Riyadh Al Qastani Hospital مستشفى رياض القسطاني", "latitude": 33.8974417, "longitude": -5.5640886, "source": "osm", "_tags": {"amenity": "hospital", "healthcare": "hospital", "name": "Riyadh Al Qastani Hospital مستشفى رياض القسطاني", "name:ar": "مستشفى رياض القسطاني", "name:fr": "Riyadh Al Qastani Hospital"}}, {"name": "مستشفى سيدي قاسم", "latitude": 34.2206173, "longitude": -5.6988963, "source": "osm", "_tags": {"amenity": "hospital", "healthcare": "hospital", "name": "مستشفى سيدي قاسم"}}, {"name": "طبيب النساء و التوليد", "latitude": 33.8589416, "longitude": -5.5717484, "source": "osm", "_tags": {"addr:housenumber": "E13", "addr:postcode": "50050", "addr:street": "Riad Azzaytoune B", "amenity": "hospital", "email": "nabil@gynecomeknes.ma", "healthcare": "hospital", "internet_access": "wlan", "name": "طبيب النساء و التوليد", "name:en": "Gynecologist", "name:fr": "Gynécologue Obstétricien", "opening_hours": "24/7", "phone": "0535468282", "website": "http://gynecomeknes.ma"}}, {"name": "المركز الصحي الحضري المستوى 1 الوحدة", "latitude": 33.8539401, "longitude": -5.5449476, "source": "osm", "_tags": {"amenity": "hospital", "healthcare": "hospital", "name": "المركز الصحي الحضري المستوى 1 الوحدة", "name:ar": "المركز الصحي الحضري المستوى 1 الوحدة", "name:ber": "ⴰⵎⵎⴰⵙ ⴰⴷⵓⵙⴰⵏ ⴰⵖⵔⵎⴰⵏ ⴰⵍ ⵡⴰⵃⴷⴰ", "name:fr": "Centre de Santé Urbain Niveau 1 Al Wahda"}}, {"name": "مستشفى بانيو", "latitude": 33.9032974, "longitude": -5.5146489, "source": "osm", "_tags": {"amenity": "hospital", "healthcare": "hospital", "name": "مستشفى بانيو"}}, {"name": "المركز الصحي ويسلان 2", "latitude": 33.9084211, "longitude": -5.4903978, "source": "osm", "_tags": {"amenity": "hospital", "healthcare": "hospital", "healthcare:speciality": "fertility", "name": "المركز الصحي ويسلان 2"}}, {"name": "Hospital moulay Ismail", "latitude": 33.893774, "longitude": -5.5463359, "source": "osm", "_tags": {"amenity": "hospital", "healthcare": "hospital", "name": "Hospital moulay Ismail"}}, {"name": "Projet Centre Hospitalier Provincial d'Ouezzane", "latitude": 34.8036143, "longitude": -5.5597105, "source": "osm", "_tags": {"addr:city": "Ouazzane ⵡⴰⵣⴰⵏ وزان", "amenity": "hospital", "emergency": "yes", "healthcare": "hospital", "healthcare:speciality": "general", "name": "Projet Centre Hospitalier Provincial d'Ouezzane"}}, {"name": "Centre de Santé Urbain المركز الصحي الحضري", "latitude": 34.7974555, "longitude": -5.5789704, "source": "osm", "_tags": {"addr:city": "Ouazzane ⵡⴰⵣⴰⵏ وزان", "addr:street": "QCXC+2F7, Ouazzane", "amenity": "hospital", "healthcare": "hospital", "healthcare:speciality": "general", "name": "Centre de Santé Urbain المركز الصحي الحضري", "operator": "Centre de santé", "operator:type": "public"}}, {"name": "Centre de Santé Urbain 9 Juillet", "latitude": 34.8017803, "longitude": -5.5767769, "source": "osm", "_tags": {"addr:city": "Ouazzane ⵡⴰⵣⴰⵏ وزان", "amenity": "hospital", "healthcare": "hospital", "healthcare:speciality": "general", "name": "Centre de Santé Urbain 9 Juillet", "operator": "Ministère de la Santé Maroc", "operator:type": "public"}}, {"name": "مصحة متعددة الاختصاصات وزان دار الضمانة", "latitude": 34.7965183, "longitude": -5.5644632, "source": "osm", "_tags": {"addr:city": "Ouazzane وزان", "amenity": "hospital", "healthcare": "hospital", "name": "مصحة متعددة الاختصاصات وزان دار الضمانة", "operator": "clinic", "operator:type": "private"}}, {"name": "Hôpital Abou El Kacem Zahraoui_Ouazzane مستشفى أبو القاسم الزهراوي وزان", "latitude": 34.7990076, "longitude": -5.5882348, "source": "osm", "_tags": {"addr:city": "Ouazzane ⵡⴰⵣⴰⵏ وزان", "amenity": "hospital", "healthcare": "hospital", "healthcare:speciality": "general", "name": "Hôpital Abou El Kacem Zahraoui_Ouazzane مستشفى أبو القاسم الزهراوي وزان", "operator": "hospital", "operator:type": "public"}}, {"name": "Abi Kacem Zehraoui أبي قاسم الزهراوي", "latitude": 34.7990181, "longitude": -5.5882554, "source": "osm", "_tags": {"addr:postcode": "16200", "amenity": "hospital", "building": "yes", "emergency": "yes", "healthcare": "hospital", "name": "Abi Kacem Zehraoui أبي قاسم الزهراوي", "name:ar": "أبي قاسم الزهراوي", "name:fr": "Abi Kacem Zehraoui"}}, {"name": "Hôpital Hay Salam مستشفى حي السلام", "latitude": 33.8954854, "longitude": -5.583789, "source": "osm", "_tags": {"amenity": "hospital", "healthcare": "hospital", "name": "Hôpital Hay Salam مستشفى حي السلام", "name:ar": "مستشفى حي السلام", "name:fr": "Hôpital Hay Salam"}}, {"name": "Hôpital Siid Baba مستشفى سيد بابا", "latitude": 33.912047, "longitude": -5.5774214, "source": "osm", "_tags": {"addr:city": "Meknès مكناس", "amenity": "hospital", "healthcare": "hospital", "name": "Hôpital Siid Baba مستشفى سيد بابا", "name:ar": "مستشفى سيد بابا", "name:fr": "Hôpital Siid Baba"}}, {"name": "La croix rouge", "latitude": 33.901974, "longitude": -5.5772462, "source": "osm", "_tags": {"amenity": "hospital", "healthcare": "hospital", "name": "La croix rouge"}}, {"name": "", "latitude": 33.9029552, "longitude": -5.5783818, "source": "osm", "_tags": {"amenity": "hospital", "healthcare": "hospital"}}, {"name": "", "latitude": 33.8974275, "longitude": -5.5640767, "source": "osm", "_tags": {"amenity": "hospital", "healthcare": "hospital"}}, {"name": "", "latitude": 34.220952, "longitude": -5.6987438, "source": "osm", "_tags": {"amenity": "hospital", "healthcare": "hospital"}}, {"name": "Hôpital Mechra Bel Ksiri", "latitude": 34.5702685, "longitude": -5.9559741, "source": "osm", "_tags": {"amenity": "hospital", "healthcare": "hospital", "name": "Hôpital Mechra Bel Ksiri", "name:fr": "Hôpital Mechra Bel Ksiri"}}, {"name": "Hôpital Militaire Moulay Ismail", "latitude": 33.8888423, "longitude": -5.5232409, "source": "osm", "_tags": {"amenity": "hospital", "healthcare": "hospital", "name": "Hôpital Militaire Moulay Ismail"}}, {"name": "hôpital Sidi Said مستشفى سيدي سعيد", "latitude": 33.8932731, "longitude": -5.577921, "source": "osm", "_tags": {"amenity": "hospital", "healthcare": "hospital", "layer": "-1", "name": "hôpital Sidi Said مستشفى سيدي سعيد", "name:ar": "مستشفى سيدي سعيد", "name:fr": "hôpital Sidi Said"}}, {"name": "Centre de santé - Takadoum", "latitude": 33.8840397, "longitude": -5.5768585, "source": "osm", "_tags": {"amenity": "hospital", "healthcare": "hospital", "name": "Centre de santé - Takadoum"}}, {"name": "Clinic El Menzah", "latitude": 33.9003174, "longitude": -5.554341, "source": "osm", "_tags": {"addr:city": "Meknès", "amenity": "hospital", "emergency": "yes", "healthcare": "hospital", "name": "Clinic El Menzah", "name:en": "Clinic El Menzah"}}, {"name": "Mohemed V", "latitude": 33.9038637, "longitude": -5.5403708, "source": "osm", "_tags": {"amenity": "hospital", "healthcare": "hospital", "name": "Mohemed V"}}, {"name": "Hospital moulay Ismail", "latitude": 33.8924307, "longitude": -5.5450323, "source": "osm", "_tags": {"amenity": "hospital", "healthcare": "hospital", "name": "Hospital moulay Ismail"}}]