[{"name": "المستشفى الجهوي بسيدي بوزيد", "latitude": 35.0240509, "longitude": 9.4652098, "source": "osm", "_tags": {"addr:city": "سيدي بوزيد", "addr:country": "TN", "amenity": "hospital", "emergency": "yes", "healthcare": "hospital", "name": "المستشفى الجهوي بسيدي بوزيد", "name:ar": "المستشفى الجهوي بسيدي بوزيد", "name:fr": "Hôpital Régional de Sidi Bouzid", "phone": "+216 76 632 500"}}, {"name": "مستوصف جبل الريحان", "latitude": 35.7716956, "longitude": 9.661965, "source": "osm", "_tags": {"amenity": "hospital", "name": "مستوصف جبل الريحان", "name:en": "jbal al reihan hospital", "opening_hours": "Tu 07:00-15:00"}}, {"name": "المستشفى الجهوي بسيدي بوزيد", "latitude": 35.024146, "longitude": 9.4658999, "source": "osm", "_tags": {"addr:city": "سيدي بوزيد", "addr:postcode": "9100", "amenity": "hospital", "barrier": "wall", "emergency": "yes", "healthcare": "hospital", "name": "المستشفى الجهوي بسيدي بوزيد", "name:ar": "المستشفى الجهوي بسيدي بوزيد", "name:fr": "Hôpital Régional de Sidi Bouzid", "phone": "+216 76 632 175"}}, {"name": "مركز الصحة الاساسية بالمكارم", "latitude": 35.2150982, "longitude": 9.6077895, "source": "osm", "_tags": {"amenity": "hospital", "emergency": "yes", "healthcare": "hospital", "name": "مركز الصحة الاساسية بالمكارم", "name:ar": "مركز الصحة الاساسية بالمكارم"}}, {"name": "المستشفى الجهوي بالقصرين", "latitude": 35.1760186, "longitude": 8.7923786, "source": "osm", "_tags": {"addr:city": "Kasserine", "amenity": "hospital", "healthcare": "hospital", "name": "المستشفى الجهوي بالقصرين", "name:ar": "المستشفى الجهوي بالقصرين", "name:fr": "Hôpital Régional de Kasserine", "phone": "+216 77 474 910"}}, {"name": "Hajeb El Oyoun Hospital", "latitude": 35.3909053, "longitude": 9.5530691, "source": "osm", "_tags": {"amenity": "hospital", "healthcare": "hospital", "name": "Hajeb El Oyoun Hospital", "name:ar": "مستشفى حاجب العيون", "name:en": "Hajeb El Oyoun Hospital", "name:it": "Ospedale di Hajeb El Oyoun"}}, {"name": "Sbeitla Regional Hospital", "latitude": 35.2458611, "longitude": 9.1059817, "source": "osm", "_tags": {"amenity": "hospital", "healthcare": "hospital", "name": "Sbeitla Regional Hospital"}}, {"name": "", "latitude": 35.2365464, "longitude": 9.1149861, "source": "osm", "_tags": {"amenity": "hospital", "healthcare": "hospital"}}, {"name": "مركز الصحة الأساسية حي الزهور", "latitude": 35.1558827, "longitude": 8.8374343, "source": "osm", "_tags": {"amenity": "hospital", "healthcare": "hospital", "name": "مركز الصحة الأساسية حي الزهور", "name:ar": "مركز الصحة الأساسية حي الزهور", "name:fr": "مركز الصحة الأساسية حي الزهور", "type": "multipolygon"}}]