[{"name": "Polyclinque d'Assa", "latitude": 35.0413484, "longitude": -1.7834565, "source": "osm", "_tags": {"amenity": "hospital", "name": "Polyclinque d'Assa"}}, {"name": "polyclinique Khouriba", "latitude": 35.0328899, "longitude": -1.7687651, "source": "osm", "_tags": {"addr:city": "Khouriba", "amenity": "hospital", "emergency": "no", "name": "polyclinique Khouriba"}}, {"name": "Centre de santé Souk El Tenine", "latitude": 35.2272191, "longitude": -1.5057249, "source": "osm", "_tags": {"addr:city": "ولهاصة", "amenity": "hospital", "healthcare": "hospital", "name": "Centre de santé Souk El Tenine", "name:ar": "سوق الإثنين", "name:en": "Suq al-Ithnain", "name:fr": "Centre de santé Souk el tenine"}}, {"name": "Hôpital de Bab El Assa", "latitude": 34.9608456, "longitude": -2.0307071, "source": "osm", "_tags": {"addr:city": "Bab El Assa", "addr:city:ar": "باب العسة", "addr:city:fr": "Bab El Assa", "amenity": "hospital", "healthcare": "hospital", "name": "Hôpital de Bab El Assa", "name:fr": "Hôpital de Bab El Assa"}}, {"name": "طبيبة بريكسي", "latitude": 34.8479339, "longitude": -1.7403039, "source": "osm", "_tags": {"addr:city": "مغنية", "addr:city:ar": "مغنية", "amenity": "hospital", "healthcare": "hospital", "name": "طبيبة بريكسي", "name:ar": "طبيبة بريكسي", "name:fr": "Medcin brikci"}}, {"name": "Sanatorium Lalla Setti مستشفى لالا ستي", "latitude": 34.863915, "longitude": -1.3030037, "source": "osm", "_tags": {"amenity": "hospital", "is_in:country": "Algeria الجزائر", "is_in:state": "Tlemcen تلمسان", "name": "Sanatorium Lalla Setti مستشفى لالا ستي", "name:ar": "مستشفى لالا ستي", "name:en": "Sanatorium Lalla Setti"}}, {"name": "Rajesh Deshmukh Consultant Eye Surgeon", "latitude": 34.9230433, "longitude": -1.3326404, "source": "osm", "_tags": {"addr:city": "London", "addr:housenumber": "50-52", "addr:postcode": "W1G8TL", "addr:street": "New Cavendish St", "amenity": "hospital", "description": "Mr Deshmukh is a consultant ophthalmologist and an expert Cataract Surgeon with world renowned Moorfields Eye Hospital in London. \nHe has supervised and trained many ophthalmologists in cataract surgery since 2013.", "healthcare": "hospital", "name": "Rajesh Deshmukh Consultant Eye Surgeon", "operator": "Rajesh Deshmukh, Eye Specialist & Surgeon", "operator:type": "private"}}, {"name": "مستوصف مرسى بن مهيدي", "latitude": 35.0814244, "longitude": -2.2019521, "source": "osm", "_tags": {"addr:city": "مرسى بن مهيدي", "amenity": "hospital", "healthcare": "hospital", "name": "مستوصف مرسى بن مهيدي", "name:ar": "مستوصف مرسى بن مهيدي", "name:fr": "Polyclinique Marsa Ben M'hidi", "opening_hours": "24/7"}}, {"name": "Hôpital Maalem Lahcen", "latitude": 35.0885931, "longitude": -1.8590612, "source": "osm", "_tags": {"addr:city": "Ghazaouet", "addr:street": "Ouled Ziri", "amenity": "hospital", "barrier": "wall", "name": "Hôpital Maalem Lahcen", "phone": "+213 (0)43 32 64 28"}}, {"name": "polyclinique Khouriba", "latitude": 35.0329331, "longitude": -1.7688127, "source": "osm", "_tags": {"amenity": "hospital", "building": "yes", "healthcare": "hospital", "name": "polyclinique Khouriba"}}, {"name": "Hôpital privé", "latitude": 35.0632377, "longitude": -1.4269539, "source": "osm", "_tags": {"addr:city": "Remchi", "amenity": "hospital", "name": "Hôpital privé"}}, {"name": "Hôpital de Beni Saf", "latitude": 35.3052659, "longitude": -1.3838154, "source": "osm", "_tags": {"addr:city": "Beni Saf", "addr:street": "Rue de la Falaise", "amenity": "hospital", "emergency": "yes", "healthcare": "hospital", "healthcare:speciality": "general", "name": "Hôpital de Beni Saf", "operator": "Ministère de la Santé", "operator:type": "government", "operator:wikidata": "Q17639127"}}, {"name": "Hôpital Ahfir", "latitude": 34.9501765, "longitude": -2.1028386, "source": "osm", "_tags": {"amenity": "hospital", "healthcare": "hospital", "name": "Hôpital Ahfir"}}, {"name": "EPH Nedroma", "latitude": 35.0178489, "longitude": -1.7593382, "source": "osm", "_tags": {"addr:city": "Nedroma", "addr:postcode": "13600", "addr:street": "N99", "amenity": "hospital", "emergency": "yes", "name": "EPH Nedroma"}}, {"name": "Hôpital de Maghnia", "latitude": 34.8389655, "longitude": -1.7344991, "source": "osm", "_tags": {"amenity": "hospital", "name": "Hôpital de Maghnia"}}, {"name": "Hôpital Dr Tidjani Damerdji", "latitude": 34.8755872, "longitude": -1.3272164, "source": "osm", "_tags": {"addr:city": "Tlemcen", "addr:postcode": "13000", "addr:street": "Boulevard de L'ALN", "alt_name": "centre hospitalo-universitaire Tlemcen", "amenity": "hospital", "emergency": "yes", "healthcare": "hospital", "name": "Hôpital Dr Tidjani Damerdji", "name:ar": "مستشفى دكتور دمرجي تيجاني", "name:en": "Dr Tidjani Damerdji Hospital", "name:fr": "Hôpital Dr Tidjani Damerdji", "operator": "Ministère de la Santé", "operator:wikidata": "Q17639127", "website": "https://www.chu-tlemcen.dz/"}}, {"name": "Centre Medical Oujlida", "latitude": 34.921601, "longitude": -1.3305244, "source": "osm", "_tags": {"amenity": "hospital", "name": "Centre Medical Oujlida"}}, {"name": "Polyclinique des consultations spécialisées Boudghène", "latitude": 34.8730379, "longitude": -1.3211314, "source": "osm", "_tags": {"amenity": "hospital", "name": "Polyclinique des consultations spécialisées Boudghène", "name:ar": "مستشفى بودغن", "name:fr": "Polyclinique des consultations spécialisées Boudghène"}}, {"name": "Clinique Les Dahlias", "latitude": 34.8904135, "longitude": -1.3296538, "source": "osm", "_tags": {"amenity": "hospital", "building": "yes", "healthcare": "clinic", "name": "Clinique Les Dahlias", "name:ar": "عيادة الدالية", "name:fr": "Clinique Les Dahlias"}}, {"name": "L'Hôpital de Saïdia مستشفى السعيدية", "latitude": 35.0880971, "longitude": -2.2400108, "source": "osm", "_tags": {"amenity": "hospital", "healthcare": "hospital", "name": "L'Hôpital de Saïdia مستشفى السعيدية", "name:ar": "مستشفى السعيدية", "name:en": "Saidia Hospital", "name:fr": "L'Hôpital de Saïdia"}}, {"name": "Centre anti-cancer de Chetouane", "latitude": 34.9159908, "longitude": -1.3010815, "source": "osm", "_tags": {"addr:city": "Chetouane", "amenity": "hospital", "barrier": "wall", "healthcare": "hospital", "name": "Centre anti-cancer de Chetouane", "name:fr": "Centre anti-cancer de Chetouane"}}, {"name": "Sanatorium Lalla Setti", "latitude": 34.8633415, "longitude": -1.3035279, "source": "osm", "_tags": {"amenity": "hospital", "name": "Sanatorium Lalla Setti"}}, {"name": "Polyclinique Agadir عيادة متعددة الخدمات أكادير", "latitude": 34.8873347, "longitude": -1.3024115, "source": "osm", "_tags": {"building": "yes", "healthcare": "hospital", "name": "Polyclinique Agadir عيادة متعددة الخدمات أكادير", "name:ar": "عيادة متعددة الخدمات أكادير", "name:fr": "Polyclinique Agadir"}}, {"name": "Polyclinque d'Assa", "latitude": 35.0413839, "longitude": -1.7834353, "source": "osm", "_tags": {"amenity": "hospital", "healthcare": "hospital", "name": "Polyclinque d'Assa"}}, {"name": "Centre de santé Souk El Tenine", "latitude": 35.2273355, "longitude": -1.5055831, "source": "osm", "_tags": {"amenity": "hospital", "healthcare": "hospital", "name": "Centre de santé Souk El Tenine"}}, {"name": "Hôpital EPH Remchi", "latitude": 35.047817, "longitude": -1.4260035, "source": "osm", "_tags": {"amenity": "hospital", "healthcare": "hospital", "name": "Hôpital EPH Remchi", "name:fr": "Hôpital EPH Remchi"}}, {"name": "عيادة المتعددة الخدمات المجاهد بن عبد الله يخلف", "latitude": 34.910264, "longitude": -1.3182231, "source": "osm", "_tags": {"amenity": "hospital", "building": "yes", "healthcare": "clinic", "name": "عيادة المتعددة الخدمات المجاهد بن عبد الله يخلف", "name:ar": "عيادة المتعددة الخدمات المجاهد بن عبد الله يخلف", "name:fr": "Polyclinique Mujahid Ben Abdoullah Yakhlaf", "opening_hours": "24/7"}}, {"name": "", "latitude": 34.9503173, "longitude": -1.3644796, "source": "osm", "_tags": {"amenity": "hospital", "healthcare": "clinic"}}, {"name": "Clinique Mimosa", "latitude": 34.8786886, "longitude": -1.3414783, "source": "osm", "_tags": {"addr:city": "Tlemcen", "addr:housenumber": "115", "addr:street": "Riath Lahoual", "addr:suburb": "Imama", "amenity": "hospital", "building": "hospital", "healthcare": "clinic", "name": "Clinique Mimosa", "name:ar": "عيادة ميموزة", "name:fr": "Clinique Mimosa"}}, {"name": "Clinique Ben Habib", "latitude": 34.8881829, "longitude": -1.3207202, "source": "osm", "_tags": {"amenity": "hospital", "building": "yes", "healthcare": "clinic", "name": "Clinique Ben Habib", "name:ar": "عيادة بن حبيب", "name:en": "Ben Habib Clinic", "name:fr": "Clinique Ben Habib"}}]