[{"name": "", "latitude": 35.8061298, "longitude": 10.600555, "source": "osm", "_tags": {"amenity": "hospital", "name:en": "مستوصف حي الرياض3"}}, {"name": "", "latitude": 34.849246, "longitude": 9.7885106, "source": "osm", "_tags": {"amenity": "hospital", "healthcare": "hospital"}}, {"name": "Hopital de circonscription de Bouhajla", "latitude": 35.3969702, "longitude": 10.0464551, "source": "osm", "_tags": {"amenity": "hospital", "barrier": "wall", "healthcare": "yes", "name": "Hopital de circonscription de Bouhajla"}}, {"name": "", "latitude": 35.7369186, "longitude": 10.573109, "source": "osm", "_tags": {"amenity": "hospital", "healthcare": "hospital"}}, {"name": "", "latitude": 35.7274707, "longitude": 10.5820345, "source": "osm", "_tags": {"amenity": "hospital", "healthcare": "hospital"}}, {"name": "", "latitude": 35.7221586, "longitude": 10.581318, "source": "osm", "_tags": {"amenity": "hospital", "healthcare": "hospital"}}, {"name": "مستشفى ابن الجزار", "latitude": 35.6839893, "longitude": 10.0952712, "source": "osm", "_tags": {"addr:city": "القيروان", "amenity": "hospital", "healthcare": "hospital", "name": "مستشفى ابن الجزار", "name:ar": "مستشفى ابن الجزار", "name:fr": "Hôpital Ibn El Jazzar"}}, {"name": "المستشفى الجهوي شربان", "latitude": 35.28842, "longitude": 10.3896164, "source": "osm", "_tags": {"addr:postcode": "5130", "amenity": "hospital", "fax": "+216 73 698 070", "healthcare": "hospital", "name": "المستشفى الجهوي شربان", "name:ar": "المستشفى الجهوي شربان", "name:fr": "Hôpital Régional de Chorbane", "phone": "+216 73 698 070"}}, {"name": "مستشفى الأطفال", "latitude": 34.8563885, "longitude": 9.7854728, "source": "osm", "_tags": {"amenity": "hospital", "healthcare": "hospital", "name": "مستشفى الأطفال", "name:ar": "مستشفى الأطفال", "name:fr": "Hôpital d'Enfants"}}, {"name": "مستشفى الأغالبة", "latitude": 35.6655809, "longitude": 10.1076724, "source": "osm", "_tags": {"amenity": "hospital", "building": "hospital", "name": "مستشفى الأغالبة", "name:ar": "مستشفى الأغالبة", "name:en": "Aghalba hospital", "name:fr": "Hôpital Aghalba"}}, {"name": "Csb nord msaken", "latitude": 35.7337082, "longitude": 10.5742252, "source": "osm", "_tags": {"amenity": "hospital", "healthcare": "hospital", "name": "Csb nord msaken", "name:ar": "", "name:fr": ""}}, {"name": "", "latitude": 35.726258, "longitude": 10.5833084, "source": "osm", "_tags": {"amenity": "hospital", "healthcare": "hospital"}}, {"name": "مستشفى أولاد حفوز", "latitude": 35.0826547, "longitude": 9.8715432, "source": "osm", "_tags": {"building": "yes", "healthcare": "hospital", "name": "مستشفى أولاد حفوز", "name:ar": "مستشفى أولاد حفوز", "name:fr": "Hôpital Ouled Haffouz"}}, {"name": "Polyclinique Okba", "latitude": 35.6902363, "longitude": 10.0778831, "source": "osm", "_tags": {"amenity": "hospital", "healthcare": "hospital", "name": "Polyclinique Okba"}}, {"name": "Centre Alwassit Médical", "latitude": 35.794227, "longitude": 10.5851938, "source": "osm", "_tags": {"amenity": "hospital", "healthcare": "hospital", "name": "Centre Alwassit Médical"}}]