[{"name": "", "latitude": 35.2577878, "longitude": 2.4901938, "source": "osm", "_tags": {"amenity": "hospital", "healthcare": "hospital"}}, {"name": "مستشفى محمد بوضياف", "latitude": 35.4332932, "longitude": 1.7687157, "source": "osm", "_tags": {"amenity": "hospital", "name": "مستشفى محمد بوضياف"}}, {"name": "l’Etablissement public hospitalier de Tissemsilt", "latitude": 35.601893, "longitude": 1.8210401, "source": "osm", "_tags": {"addr:city": "Tissemsilt", "addr:postcode": "38000", "amenity": "hospital", "name": "l’Etablissement public hospitalier de Tissemsilt"}}, {"name": "Hopital", "latitude": 35.2283623, "longitude": 2.3108019, "source": "osm", "_tags": {"amenity": "hospital", "healthcare": "hospital", "name": "Hopital"}}, {"name": "", "latitude": 35.4186809, "longitude": 2.4393528, "source": "osm", "_tags": {"amenity": "hospital", "building:levels": "1", "emergency": "yes"}}, {"name": "مستوصف", "latitude": 35.3639121, "longitude": 2.4456939, "source": "osm", "_tags": {"amenity": "hospital", "name": "مستوصف", "name:ar": "مستوصف", "name:fr": "Dispensaire"}}]