[{"name": "Centre de Soins", "latitude": 35.4566241, "longitude": 2.8922732, "source": "osm", "_tags": {"amenity": "hospital", "name": "Centre de Soins"}}, {"name": "Dispensaire Slimani slimane", "latitude": 35.4492373, "longitude": 2.894077, "source": "osm", "_tags": {"addr:housenumber": "17200", "addr:street": "Cité Slimani Slimane (52)", "amenity": "hospital", "emergency": "yes", "name": "Dispensaire Slimani slimane", "name:ar": "مستوصف سليماني سليمان", "name:fr": "Dispensaire Slimani slimane"}}, {"name": "", "latitude": 35.0876736, "longitude": 3.0223454, "source": "osm", "_tags": {"amenity": "hospital", "fixme": "Merci de préciser le nom exact.", "name:ar": "الاستعجالات", "name:fr": "Urgences"}}, {"name": "عيادة تصفية الدم", "latitude": 35.0881608, "longitude": 3.0221684, "source": "osm", "_tags": {"amenity": "hospital", "name": "عيادة تصفية الدم", "name:ar": "عيادة تصفية الدم", "name:en": "Clinique Hémodialyse", "name:fr": "Clinique Hémodialyse"}}, {"name": "مركز تصفية الدم", "latitude": 35.45599, "longitude": 2.9048785, "source": "osm", "_tags": {"amenity": "hospital", "name": "مركز تصفية الدم", "name:ar": "مركز تصفية الدم", "name:en": "hemodialysis center", "name:fr": "Centre d'hémodialyse"}}, {"name": "المركز الطبي البيداغوجي", "latitude": 35.4590664, "longitude": 2.892693, "source": "osm", "_tags": {"amenity": "hospital", "name": "المركز الطبي البيداغوجي", "name:ar": "المركز الطبي البيداغوجي", "name:en": "Pedagogic Medical Center", "name:fr": "centre de médecine pédagogique"}}, {"name": "الاستعجالات الطبية", "latitude": 35.4547572, "longitude": 2.9052217, "source": "osm", "_tags": {"amenity": "hospital", "name": "الاستعجالات الطبية", "name:ar": "الاستعجالات الطبية (المعاينة)", "name:en": "Emergency", "name:fr": "Urgences médicales (consultation )", "opening_hours": "24/7"}}, {"name": "الاستعجالات الطبية الجراحية", "latitude": 35.4549244, "longitude": 2.9055754, "source": "osm", "_tags": {"amenity": "hospital", "name": "الاستعجالات الطبية الجراحية", "name:ar": "الاستعجالات الطبية", "name:en": "Surgical medical emergencies", "name:fr": "Urgences Médicales Chirurgicale", "opening_hours": "24/7"}}, {"name": "Pédiatre", "latitude": 35.4559228, "longitude": 2.9051492, "source": "osm", "_tags": {"amenity": "hospital", "name": "Pédiatre", "name:ar": "مصلحة طب الأطفال", "name:fr": "Pédiatre"}}, {"name": "مصلحة الاشعة", "latitude": 35.4548321, "longitude": 2.9052516, "source": "osm", "_tags": {"amenity": "hospital", "name": "مصلحة الاشعة", "name:ar": "مصلحة الاشعة", "name:fr": "Centre d'imagerie"}}, {"name": "Hôpital Commandant Saâdaoui El Mokhtar", "latitude": 35.4554205, "longitude": 2.9050988, "source": "osm", "_tags": {"addr:city": "Aïn Oussara", "amenity": "hospital", "emergency": "yes", "name": "Hôpital Commandant Saâdaoui El Mokhtar", "name:ar": "مستشفى الرائد سعداوي المختار", "name:en": "Hospital commander Saadaoui El Mokhtar", "name:fr": "Hôpital Commandant Saâdaoui El Mokhtar"}}, {"name": "Hôpital Colonel Ahmed Bouguera", "latitude": 35.0870461, "longitude": 3.0238796, "source": "osm", "_tags": {"addr:city": "Hassi Bahbah", "addr:postcode": "17002", "amenity": "hospital", "emergency": "yes", "name": "Hôpital Colonel Ahmed Bouguera", "name:ar": "مستشفى العقيد احمد بوقرة"}}, {"name": "العيادة المتعددة الخدمات", "latitude": 35.6308346, "longitude": 3.2275073, "source": "osm", "_tags": {"addr:city": "البيرين", "addr:city:ar": "البيرين", "amenity": "hospital", "emergency": "yes", "healthcare": "hospital", "name": "العيادة المتعددة الخدمات", "name:ar": "العيادة المتعددة الخدمات", "name:fr": "Polyclinique de BIRINE"}}, {"name": "الإستعجالات الطبية الجراحية", "latitude": 35.6441241, "longitude": 3.2271126, "source": "osm", "_tags": {"addr:city": "البيرين", "addr:city:ar": "البيرين", "amenity": "hospital", "emergency": "yes", "healthcare": "hospital", "name": "الإستعجالات الطبية الجراحية", "name:ar": "الإستعجالات الطبية الجراحية", "name:en": "Emergency", "name:fr": "UMC BIRINE"}}, {"name": "", "latitude": 35.4565151, "longitude": 2.8921914, "source": "osm", "_tags": {"amenity": "hospital"}}, {"name": "", "latitude": 35.6208962, "longitude": 3.2123834, "source": "osm", "_tags": {"addr:city": "Birine", "amenity": "hospital", "name:ar": "مستشفى 60 سرير", "name:fr": "Hôpital de Birine"}}, {"name": "Hôpital", "latitude": 35.3544756, "longitude": 3.3655958, "source": "osm", "_tags": {"addr:city": "Had Sahary", "amenity": "hospital", "name": "Hôpital"}}, {"name": "Dispensaire Slimani slimane", "latitude": 35.4492058, "longitude": 2.8940397, "source": "osm", "_tags": {"amenity": "hospital", "building:levels": "2", "healthcare": "hospital", "name": "Dispensaire Slimani slimane"}}, {"name": "", "latitude": 35.4499483, "longitude": 2.9029027, "source": "osm", "_tags": {"amenity": "hospital", "healthcare": "hospital"}}, {"name": "", "latitude": 35.4420892, "longitude": 2.891861, "source": "osm", "_tags": {"amenity": "hospital", "healthcare": "hospital", "name:ar": "المؤسسة العمومية للصحة الجوارية غزال عمر", "name:fr": "EPSP Ghezal omar"}}, {"name": "عيادة تصفية الدم", "latitude": 35.0876953, "longitude": 3.0223611, "source": "osm", "_tags": {"amenity": "hospital", "healthcare": "hospital", "name": "عيادة تصفية الدم", "name:ar": "عيادة تصفية الدم"}}, {"name": "المركز الطبي البيداغوجي", "latitude": 35.4590772, "longitude": 2.8925861, "source": "osm", "_tags": {"amenity": "hospital", "healthcare": "hospital", "name": "المركز الطبي البيداغوجي", "name:ar": "المركز الطبي البيداغوجي"}}]