[{"name": "", "latitude": 35.6704096, "longitude": 8.0130463, "source": "osm", "_tags": {"addr:street": "rue sidi abdallah", "amenity": "hospital", "name:fr": "EPH MORSOTT", "phone": "037657224"}}, {"name": "مستشفى عبد العزبز خالدي", "latitude": 35.4022048, "longitude": 8.1172179, "source": "osm", "_tags": {"addr:city": "تبسة", "addr:city:ar": "تبسة", "amenity": "hospital", "healthcare": "hospital", "name": "مستشفى عبد العزبز خالدي", "name:ar": "مستشفى عبد العزبز خالدي", "name:fr": "Hôpital Khaldi Abdelaziz"}}, {"name": "الاستعجالات الطبية عاليا صالح", "latitude": 35.4013773, "longitude": 8.1042695, "source": "osm", "_tags": {"addr:city": "تبسة", "addr:city:ar": "تبسة", "amenity": "hospital", "emergency": "yes", "healthcare": "hospital", "name": "الاستعجالات الطبية عاليا صالح", "name:ar": "الاستعجالات الطبية عاليا صالح"}}, {"name": "مختبر النظافة", "latitude": 35.3944393, "longitude": 8.099801, "source": "osm", "_tags": {"addr:city": "تبسة", "addr:city:ar": "تبسة", "addr:postcode": "12000", "amenity": "hospital", "healthcare": "hospital", "name": "مختبر النظافة", "name:ar": "مختبر النظافة", "name:fr": "Laboratoire d'Hygiène"}}, {"name": "Polyclinique", "latitude": 35.206805, "longitude": 8.1705839, "source": "osm", "_tags": {"amenity": "hospital", "name": "Polyclinique"}}, {"name": "المؤسسة العمومية الاستشفائية", "latitude": 35.3669049, "longitude": 8.2435434, "source": "osm", "_tags": {"addr:city": "بكارية", "addr:city:ar": "بكارية", "alt_name": "المؤسسة الاستشفائية العمومية;مستشفى بكارية;مستشفى مصطفى بولعراس - بكارية", "alt_name:ar": "المؤسسة الاستشفائية العمومية;مستشفى بكارية;مستشفى مصطفى بولعراس - بكارية", "amenity": "hospital", "healthcare": "hospital", "name": "المؤسسة العمومية الاستشفائية", "name:ar": "المؤسسة العمومية الاستشفائية"}}, {"name": "Mohamed Echebouki", "latitude": 35.2610981, "longitude": 7.7478491, "source": "osm", "_tags": {"amenity": "hospital", "name": "Mohamed Echebouki"}}, {"name": "", "latitude": 35.4034219, "longitude": 8.1203779, "source": "osm", "_tags": {"addr:city": "تبسة", "amenity": "hospital", "healthcare": "hospital"}}, {"name": "", "latitude": 35.6703349, "longitude": 8.012997, "source": "osm", "_tags": {"amenity": "hospital", "healthcare": "hospital"}}, {"name": "Houam Ali hospital", "latitude": 35.6735411, "longitude": 8.0107525, "source": "osm", "_tags": {"amenity": "hospital", "name": "Houam Ali hospital", "name:ar": "مستشفى على هوام"}}]