[{"name": "Clinique Rif", "latitude": 35.5867664, "longitude": -5.3469081, "source": "osm", "_tags": {"amenity": "hospital", "healthcare": "hospital", "name": "Clinique Rif"}}, {"name": "Hôpital Espagnol", "latitude": 35.5723502, "longitude": -5.3877507, "source": "osm", "_tags": {"addr:city": "Tétouan", "addr:street": "Av. Moussa Ibn Noussair", "amenity": "hospital", "healthcare": "hospital", "name": "Hôpital Espagnol"}}, {"name": "Hôpital Mohammed V", "latitude": 35.1690506, "longitude": -5.2703159, "source": "osm", "_tags": {"amenity": "hospital", "healthcare": "hospital", "name": "Hôpital Mohammed V", "phone": "0539986228"}}, {"name": "", "latitude": 35.6842694, "longitude": -5.926075, "source": "osm", "_tags": {"amenity": "hospital", "healthcare": "hospital"}}, {"name": "APEX Dental Clinic", "latitude": 35.7757254, "longitude": -5.8046245, "source": "osm", "_tags": {"addr:city": "Tanger", "addr:housenumber": "Residence Zainab, num 8", "addr:street": "Place des Nations ساحة الأمم", "amenity": "hospital", "fax": "0666061666", "healthcare": "hospital", "healthcare:speciality": "dentist;orthodontics;dental_oral_maxillo_facial_surgery;clinic", "level": "0", "name": "APEX Dental Clinic"}}, {"name": "Hôpital Princesse Lalla Meriem", "latitude": 35.1857703, "longitude": -6.1568307, "source": "osm", "_tags": {"addr:city": "Larache", "addr:street": "Rue Moulay Mohammed Ben Abdallah", "amenity": "hospital", "fax": "0567890734", "healthcare": "hospital", "healthcare:speciality": "général", "name": "Hôpital Princesse Lalla Meriem", "operator:type": "public"}}, {"name": "Polyclinique Lixus", "latitude": 35.1806608, "longitude": -6.1463313, "source": "osm", "_tags": {"addr:city": "Larache", "addr:street": "Avenue Mehdi Ibn Toumert, Larache, Maroc", "amenity": "hospital", "fax": "05395-00403", "healthcare": "hospital", "name": "Polyclinique Lixus", "operator:type": "private"}}, {"name": "Hôpital", "latitude": 35.4647749, "longitude": -6.0269395, "source": "osm", "_tags": {"addr:city": "Assilah", "addr:street": "Avenue du 2 Mars", "amenity": "hospital", "healthcare": "hospital", "name": "Hôpital", "operator": "hopital", "operator:type": "public"}}, {"name": "Croissant Rouge Marocain_Asilah", "latitude": 35.4677114, "longitude": -6.0344082, "source": "osm", "_tags": {"addr:city": "Assilah", "addr:street": "Avenue Ibn Rochd شارع ابن رشد", "amenity": "hospital", "healthcare": "hospital", "name": "Croissant Rouge Marocain_Asilah", "operator": "hopital", "operator:type": "public"}}, {"name": "Clinique Tingis", "latitude": 35.7708912, "longitude": -5.8072381, "source": "osm", "_tags": {"addr:city": "Tanger", "addr:street": "Rue Aboubakr Razi", "amenity": "hospital", "fax": "0539340404", "healthcare": "hospital", "name": "Clinique Tingis", "operator": "clinic", "operator:type": "private"}}, {"name": "La Symphony Dental Centre", "latitude": 35.7493705, "longitude": -5.7989835, "source": "osm", "_tags": {"addr:city": "Tanger طنجة", "addr:postcode": "90000", "addr:street": "Avenue Al Quds شارع القدس", "amenity": "hospital", "emergency": "yes", "healthcare": "hospital", "healthcare:speciality": "dentist;dentistry", "loc_name": "La Symphony Dental Centre", "mobile": "+212668679811", "name": "La Symphony Dental Centre", "opening_hours": "Mo-Su 09:00-21:00", "website": "https://lasymphonydental.com/"}}, {"name": "Centre de Santé Said Noussairi", "latitude": 35.7706014, "longitude": -5.8146093, "source": "osm", "_tags": {"addr:city": "Tanger", "addr:postcode": "90060", "addr:street": "Rue de Fès", "amenity": "hospital", "emergency": "no", "healthcare": "hospital", "name": "Centre de Santé Said Noussairi", "name:ar": "المركز الصحي سعيد النصيري", "phone": "0663613242"}}, {"name": "Hôpital Mohammed V", "latitude": 35.7781906, "longitude": -5.8282592, "source": "osm", "_tags": {"addr:city": "Tanger", "addr:street": "Boulevard Moulay Rachid شارع مولاي رشيد", "amenity": "hospital", "fax": "0539930856", "healthcare": "hospital", "name": "Hôpital Mohammed V", "operator": "hopital", "operator:type": "public"}}, {"name": "Clinique rif", "latitude": 35.5868035, "longitude": -5.3468001, "source": "osm", "_tags": {"addr:city": "Tétouan", "addr:street": "Av. des FAR", "amenity": "hospital", "fax": "05399-99484", "healthcare": "hospital", "name": "Clinique rif"}}, {"name": "Centre de dialyse Arrayane", "latitude": 35.5844993, "longitude": -5.3467761, "source": "osm", "_tags": {"addr:city": "Tétouan", "addr:street": "Avenue Beyrout", "amenity": "hospital", "fax": "+212539990036", "healthcare": "hospital", "name": "Centre de dialyse Arrayane"}}, {"name": "Clinique an-Nakhil", "latitude": 35.5689951, "longitude": -5.3822046, "source": "osm", "_tags": {"addr:city": "Tétouan", "addr:street": "Av. Hassan II", "amenity": "hospital", "fax": "05399-62600", "healthcare": "hospital", "name": "Clinique an-Nakhil"}}, {"name": "Clinique Tétouan", "latitude": 35.5707363, "longitude": -5.3854731, "source": "osm", "_tags": {"addr:city": "Tétouan", "addr:street": "Av. Mohamed V", "amenity": "hospital", "fax": "05399-64252", "healthcare": "hospital", "name": "Clinique Tétouan"}}, {"name": "Hopital Mohamed 6", "latitude": 35.6917865, "longitude": -5.3299838, "source": "osm", "_tags": {"addr:city": "MDiq", "addr:street": "Avenue Annaser", "amenity": "hospital", "healthcare": "hospital", "name": "Hopital Mohamed 6", "operator": "hopital", "operator:type": "public"}}, {"name": "Hôpital Mohamed V", "latitude": 35.1686501, "longitude": -5.2708822, "source": "osm", "_tags": {"addr:city": "Chefchaouen", "addr:street": "AV Jamaleddine Al Afghani", "amenity": "hospital", "fax": "0539986244", "healthcare": "hospital", "name": "Hôpital Mohamed V"}}, {"name": "Hopital Mohamed V", "latitude": 35.1684934, "longitude": -5.2712294, "source": "osm", "_tags": {"addr:city": "Chefchaouen", "addr:street": "AV Jamaleddine Al Afghani", "amenity": "hospital", "fax": "0539986244", "healthcare": "hospital", "name": "Hopital Mohamed V"}}, {"name": "hôpital al kortobi", "latitude": 35.7894876, "longitude": -5.8183982, "source": "osm", "_tags": {"addr:city": "Tanger", "addr:street": "Rue Assad Ibn Al Farrat", "amenity": "hospital", "fax": "0539934242", "healthcare": "hospital", "name": "hôpital al kortobi", "operator": "hopital", "operator:type": "public"}}, {"name": "Hôpital psychiatrique", "latitude": 35.1750779, "longitude": -5.285553, "source": "osm", "_tags": {"amenity": "hospital", "healthcare": "hospital", "name": "Hôpital psychiatrique"}}, {"name": "", "latitude": 35.6832423, "longitude": -5.9218464, "source": "osm", "_tags": {"amenity": "hospital", "healthcare": "hospital"}}, {"name": "Hôpital Mohammed VI", "latitude": 35.7509724, "longitude": -5.8283569, "source": "osm", "_tags": {"addr:city": "Tanger", "addr:street": "Rue Indonesie", "amenity": "hospital", "fax": "0601419990", "healthcare": "hospital", "name": "Hôpital Mohammed VI", "operator": "hopital", "operator:type": "private"}}, {"name": "Hôpital Sanyat Rmel", "latitude": 35.5732887, "longitude": -5.3556967, "source": "osm", "_tags": {"addr:city": "Tétouan", "addr:street": "Av. Abdelkhalek Torres", "amenity": "hospital", "fax": "05359-98750", "healthcare": "hospital", "name": "Hôpital Sanyat Rmel"}}, {"name": "Polyclinique CNSS", "latitude": 35.7753803, "longitude": -5.770132, "source": "osm", "_tags": {"addr:city": "Tanger", "addr:street": "Rue 14 زنقة", "amenity": "hospital", "fax": "0649652995", "healthcare": "hospital", "name": "Polyclinique CNSS"}}, {"name": "Hôpital Espagnol", "latitude": 35.7782078, "longitude": -5.8225022, "source": "osm", "_tags": {"addr:city": "Tanger", "addr:street": "Rue Mahatma Gandi", "amenity": "hospital", "fax": "0690451176", "healthcare": "hospital", "name": "Hôpital Espagnol", "operator": "hopital", "operator:type": "public"}}, {"name": "Centre Ahmad Bin Zayed Al Nahyan De Traitement des Cancers", "latitude": 35.6829906, "longitude": -5.921976, "source": "osm", "_tags": {"addr:city": "Tanger", "addr:street": "Chraka", "amenity": "hospital", "building": "hospital", "healthcare": "hospital", "name": "Centre Ahmad Bin Zayed Al Nahyan De Traitement des Cancers", "operator": "hopital", "operator:type": "public", "source": "Kaart Ground Survey 2018"}}, {"name": "Centre De sante Saadina", "latitude": 35.6066966, "longitude": -5.4499269, "source": "osm", "_tags": {"addr:city": "Saadina", "addr:street": "Route principale de Saddina", "amenity": "hospital", "healthcare": "hospital", "name": "Centre De sante Saadina"}}, {"name": "Centre Médical Boujarrah", "latitude": 35.5901009, "longitude": -5.3517106, "source": "osm", "_tags": {"addr:city": "Tétouan", "addr:street": "Avenue Jbel Boukhafer", "amenity": "hospital", "healthcare": "hospital", "name": "Centre Médical Boujarrah"}}, {"name": "Centre de Sante Touila", "latitude": 35.5809744, "longitude": -5.3624421, "source": "osm", "_tags": {"addr:city": "Tétouan", "addr:street": "Av. Cheikh Ben Laarbi Alaoui", "amenity": "hospital", "healthcare": "hospital", "healthcare:speciality": "general", "name": "Centre de Sante Touila", "operator:type": "public"}}, {"name": "Hopital Italien المستشفى الإيطالي", "latitude": 35.7845305, "longitude": -5.8212436, "source": "osm", "_tags": {"addr:city": "Tanger", "addr:street": "Rue Sidi Bourqia", "amenity": "hospital", "fax": "0539931288", "healthcare": "hospital", "name": "Hopital Italien المستشفى الإيطالي", "operator": "hopital", "operator:type": "public"}}, {"name": "Croissant Rouge", "latitude": 35.7777167, "longitude": -5.8100344, "source": "osm", "_tags": {"addr:city": "Tanger", "addr:street": "Rue Allal Ben Abdallah", "amenity": "hospital", "fax": "0539946976", "healthcare": "hospital", "name": "Croissant Rouge", "operator": "hopital", "operator:type": "public"}}, {"name": "Clinique croissant Rouge", "latitude": 35.5715071, "longitude": -5.3874731, "source": "osm", "_tags": {"addr:city": "Tétouan", "addr:street": "HJC6+MX5", "amenity": "hospital", "fax": "05397-01310", "healthcare": "hospital", "name": "Clinique croissant Rouge"}}, {"name": "Centre de Santé Urbain \"Oulad Hmaid\"", "latitude": 34.9955192, "longitude": -5.9061766, "source": "osm", "_tags": {"addr:city": "Ksar-el-Kebir القصر الكبير", "addr:street": "Quartier Oulad Hmaid", "amenity": "hospital", "healthcare": "hospital", "name": "Centre de Santé Urbain \"Oulad Hmaid\""}}, {"name": "Hopital Provincial de Ksar El Kébir", "latitude": 34.993954, "longitude": -5.9029802, "source": "osm", "_tags": {"addr:city": "Ksar-el-Kebir القصر الكبير", "addr:street": "Avenue Hassan II, Route de Rabat", "amenity": "hospital", "fax": "+212 5 39 91 88 06", "healthcare": "hospital", "name": "Hopital Provincial de Ksar El Kébir"}}, {"name": "Centre De Sante Martil", "latitude": 35.6197939, "longitude": -5.2740769, "source": "osm", "_tags": {"addr:city": "Martil", "addr:street": "Avenue Al Masira Khadra", "amenity": "hospital", "fax": "0539979246", "healthcare": "hospital", "name": "Centre De Sante Martil", "operator": "hopital", "operator:type": "public"}}, {"name": "CHU de Tanger-Tétouan-Al Hoceima", "latitude": 35.6837521, "longitude": -5.9258114, "source": "osm", "_tags": {"addr:city": "Tanger", "addr:street": "chraka", "amenity": "hospital", "fax": "0539392465", "healthcare": "hospital", "name": "CHU de Tanger-Tétouan-Al Hoceima", "official_name": "Centre Hospitalier Universitaire de Tanger-Tétouan-Al Hoceima", "operator": "centre", "operator:type": "public", "short_name": "CHU TTA", "website": "https://chutanger.ma"}}, {"name": "International Clinic of Tangier", "latitude": 35.7715937, "longitude": -5.7853316, "source": "osm", "_tags": {"addr:city": "Tanger", "addr:street": "Route de Malabata", "amenity": "hospital", "fax": "0539309090", "healthcare": "hospital", "name": "International Clinic of Tangier", "operator": "clinic", "operator:type": "private"}}, {"name": "Hospital Ben Karrich", "latitude": 35.5104321, "longitude": -5.4231156, "source": "osm", "_tags": {"addr:city": "Bni Karrich بن قريش", "addr:street": "Rte de Ben Karrich", "amenity": "hospital", "healthcare": "hospital", "name": "Hospital Ben Karrich"}}, {"name": "AKDITAL : Hôpital Privé de Tanger", "latitude": 35.7444797, "longitude": -5.8618785, "source": "osm", "_tags": {"addr:city": "Tanger", "addr:street": "Boulevard Moulay Rachid شارع مولاي رشيد", "amenity": "hospital", "fax": "0539319898", "healthcare": "hospital", "name": "AKDITAL : Hôpital Privé de Tanger", "operator": "hopital", "operator:type": "private"}}]