[{"name": "centre ta3 l karia", "latitude": 35.654998, "longitude": 0.062499, "source": "osm", "_tags": {"amenity": "hospital", "emergency": "no", "name": "centre ta3 l karia"}}, {"name": "Centre médical", "latitude": 35.8094773, "longitude": 0.2098555, "source": "osm", "_tags": {"addr:city": "Touahria", "addr:postcode": "27013", "addr:street": "CW42", "amenity": "hospital", "name": "Centre médical"}}, {"name": "", "latitude": 35.7798071, "longitude": 0.1878288, "source": "osm", "_tags": {"amenity": "hospital"}}, {"name": "", "latitude": 35.5305111, "longitude": -0.1881833, "source": "osm", "_tags": {"addr:city": "سيق", "amenity": "hospital", "healthcare": "hospital"}}, {"name": "Hôpital de Bormadia", "latitude": 35.7062844, "longitude": 0.5743154, "source": "osm", "_tags": {"amenity": "hospital", "name": "Hôpital de Bormadia", "name:fr": "Hôpital de Bormadia"}}, {"name": "مركز صحي", "latitude": 35.7538241, "longitude": 0.5766999, "source": "osm", "_tags": {"amenity": "hospital", "name": "مركز صحي", "name:ar": "مركز صحي"}}, {"name": "Urgences", "latitude": 35.7330666, "longitude": 0.5509565, "source": "osm", "_tags": {"amenity": "hospital", "name": "Urgences", "name:fr": "Urgences"}}, {"name": "", "latitude": 35.2383026, "longitude": -0.2328704, "source": "osm", "_tags": {"addr:city": "سفيزف", "addr:city:ar": "سفيزف", "amenity": "hospital", "healthcare": "hospital"}}, {"name": "مؤسسة الإستشفائية مهر محي الدين", "latitude": 35.4024932, "longitude": 0.1367773, "source": "osm", "_tags": {"amenity": "hospital", "name": "مؤسسة الإستشفائية مهر محي الدين", "name:ar": "مؤسسة الإستشفائية مهر محي الدين", "name:fr": "S.M.U mascara mhor mhaydin"}}, {"name": "مستوصف", "latitude": 35.3727148, "longitude": 0.4900907, "source": "osm", "_tags": {"amenity": "hospital", "healthcare": "hospital", "name": "مستوصف", "name:ar": "مستوصف"}}, {"name": "العيادة المتعددة الخدمات غليزان", "latitude": 35.7321765, "longitude": 0.5604548, "source": "osm", "_tags": {"addr:city": "غليزان", "addr:city:ar": "غليزان", "amenity": "hospital", "healthcare": "hospital", "name": "العيادة المتعددة الخدمات غليزان", "name:ar": "العيادة المتعددة الخدمات غليزان", "name:en": "EPSP Relizane", "name:fr": "EPSP Relizane"}}, {"name": "مستشفى عمامرة الحبيب", "latitude": 35.4608616, "longitude": 0.6941959, "source": "osm", "_tags": {"amenity": "hospital", "name": "مستشفى عمامرة الحبيب", "name:ar": "مستشفى عمامرة الحبيب", "name:en": "hôpital AMAMRA HBIB", "name:fr": "hôpital AMAMRA HBIB"}}, {"name": "مجمع عيادات - أمومة", "latitude": 35.236135, "longitude": -0.2420719, "source": "osm", "_tags": {"addr:city": "سفيزف", "addr:city:ar": "سفيزف", "amenity": "hospital", "building": "yes", "healthcare": "hospital", "name": "مجمع عيادات - أمومة", "name:ar": "مجمع عيادات - أمومة", "name:fr": "Polyclinique - Maternité"}}, {"name": "Hôpital Dahaoua Dahou", "latitude": 35.5920054, "longitude": 0.081465, "source": "osm", "_tags": {"amenity": "hospital", "emergency": "yes", "healthcare": "hospital", "name": "Hôpital Dahaoua Dahou", "name:fr": "Hôpital Dahaoua Dahou"}}, {"name": "مستشفى محمد بوضياف", "latitude": 35.7327581, "longitude": 0.5510827, "source": "osm", "_tags": {"addr:city": "غليزان", "addr:city:ar": "غليزان", "addr:postcode": "48000", "amenity": "hospital", "emergency": "yes", "healthcare": "hospital", "name": "مستشفى محمد بوضياف", "name:ar": "مستشفى محمد بوضياف", "name:en": "Mohamed Boudiaf Hospital", "name:fr": "Hôpital Mohamed Boudiaf"}}, {"name": "Hôpital de Tighennif", "latitude": 35.4221327, "longitude": 0.32213, "source": "osm", "_tags": {"addr:city": "Tighennif", "amenity": "hospital", "emergency": "yes", "name": "Hôpital de Tighennif"}}, {"name": "Hôpital de Ghriss", "latitude": 35.2477436, "longitude": 0.1530131, "source": "osm", "_tags": {"addr:city": "Ghriss", "amenity": "hospital", "name": "Hôpital de Ghriss", "name:ar": "مستشفى غريس", "opening_hours": "24/7"}}, {"name": "", "latitude": 35.2329043, "longitude": -0.2450007, "source": "osm", "_tags": {"addr:city": "سفيزف", "addr:city:ar": "سفيزف", "amenity": "hospital", "healthcare": "hospital"}}, {"name": "EPH Bouguirat", "latitude": 35.7486537, "longitude": 0.2667516, "source": "osm", "_tags": {"amenity": "hospital", "name": "EPH Bouguirat"}}, {"name": "Hôpital-Maternité", "latitude": 34.8401697, "longitude": 0.1562157, "source": "osm", "_tags": {"addr:city": "Saida", "amenity": "hospital", "name": "Hôpital-Maternité", "name:ar": "حمدان بختة"}}, {"name": "EPH Ahmed MEDEGHRI", "latitude": 34.8293582, "longitude": 0.1601409, "source": "osm", "_tags": {"addr:city": "Saida", "amenity": "hospital", "emergency": "yes", "name": "EPH Ahmed MEDEGHRI", "name:ar": "Hôpital Ahmed Medeghri", "phone": "+213 48 47 16 56"}}, {"name": "", "latitude": 34.8273857, "longitude": 0.3213582, "source": "osm", "_tags": {"amenity": "hospital", "emergency": "yes"}}, {"name": "Hôpital de Bouhanifia", "latitude": 35.3001818, "longitude": -0.0598401, "source": "osm", "_tags": {"amenity": "hospital", "emergency": "yes", "name": "Hôpital de Bouhanifia"}}, {"name": "Hôpital Yessaad Khaled", "latitude": 35.398648, "longitude": 0.140492, "source": "osm", "_tags": {"addr:city": "Mascara", "addr:postcode": "29000", "amenity": "hospital", "emergency": "yes", "name": "Hôpital Yessaad Khaled", "name:ar": "مستشفى يسعد خالد", "name:fr": "Hôpital Yessaad Khaled"}}, {"name": "Hôpital Meslem Tayeb", "latitude": 35.4000902, "longitude": 0.1588845, "source": "osm", "_tags": {"addr:city": "Mascara", "amenity": "hospital", "healthcare": "hospital", "name": "Hôpital Meslem Tayeb", "name:ar": "مستشفى مسلم الطيب", "name:fr": "Hôpital Meslem Tayeb"}}, {"name": "Centre Hospitalier", "latitude": 35.6550335, "longitude": 0.0624792, "source": "osm", "_tags": {"amenity": "hospital", "healthcare": "hospital", "name": "Centre Hospitalier"}}, {"name": "Centre médical", "latitude": 35.8095057, "longitude": 0.2098315, "source": "osm", "_tags": {"amenity": "hospital", "healthcare": "hospital", "name": "Centre médical"}}, {"name": "", "latitude": 35.7798067, "longitude": 0.1876666, "source": "osm", "_tags": {"amenity": "hospital", "healthcare": "hospital"}}, {"name": "", "latitude": 35.5304624, "longitude": -0.1881108, "source": "osm", "_tags": {"amenity": "hospital", "healthcare": "hospital"}}, {"name": "Hôpital de Bormadia", "latitude": 35.7063541, "longitude": 0.5743677, "source": "osm", "_tags": {"amenity": "hospital", "healthcare": "hospital", "name": "Hôpital de Bormadia"}}, {"name": "مركز صحي", "latitude": 35.7538109, "longitude": 0.5767665, "source": "osm", "_tags": {"amenity": "hospital", "healthcare": "hospital", "name": "مركز صحي", "name:ar": "مركز صحي"}}, {"name": "", "latitude": 35.2382923, "longitude": -0.2328703, "source": "osm", "_tags": {"amenity": "hospital", "healthcare": "hospital"}}, {"name": "", "latitude": 35.4024101, "longitude": 0.136749, "source": "osm", "_tags": {"amenity": "hospital", "healthcare": "hospital"}}, {"name": "", "latitude": 35.3725035, "longitude": 0.4900775, "source": "osm", "_tags": {"amenity": "hospital", "healthcare": "hospital"}}, {"name": "العيادة المتعددة الخدمات غليزان", "latitude": 35.7320426, "longitude": 0.5605567, "source": "osm", "_tags": {"amenity": "hospital", "healthcare": "hospital", "name": "العيادة المتعددة الخدمات غليزان", "name:ar": "العيادة المتعددة الخدمات غليزان"}}, {"name": "", "latitude": 35.3313793, "longitude": -0.0547157, "source": "osm", "_tags": {"healthcare": "hospital"}}, {"name": "", "latitude": 35.3135444, "longitude": -0.046246, "source": "osm", "_tags": {"healthcare": "hospital"}}]