[{"name": "Cabinet Medical", "latitude": 34.9380644, "longitude": -3.5339388, "source": "osm", "_tags": {"addr:city": "midar", "addr:postcode": "62502", "addr:street": "Rue Al Jadida", "amenity": "hospital", "emergency": "yes", "healthcare": "hospital", "name": "Cabinet Medical"}}, {"name": "Centre Hospitalier Provincial Mohammed VI", "latitude": 35.1957408, "longitude": -3.8875079, "source": "osm", "_tags": {"addr:city": "Al Hoceima", "addr:street": "La Rocade Méditerranéenne الطريق الساحلية المتوسطية", "amenity": "hospital", "healthcare": "hospital", "name": "Centre Hospitalier Provincial Mohammed VI", "operator": "Ministère de la Santé", "operator:type": "public"}}, {"name": "Health Center Imzouren", "latitude": 35.1455755, "longitude": -3.8525583, "source": "osm", "_tags": {"addr:city": "Al Hoceima", "addr:street": "Imzouren", "amenity": "hospital", "healthcare": "hospital", "name": "Health Center Imzouren"}}, {"name": "C. d'oncologie d'Al Hoceima", "latitude": 35.2373441, "longitude": -3.928308, "source": "osm", "_tags": {"addr:city": "Al Hoceima", "addr:street": "Rue l'Egypte", "amenity": "hospital", "healthcare": "hospital", "name": "C. d'oncologie d'Al Hoceima"}}, {"name": "Clinique Bades", "latitude": 35.2338198, "longitude": -3.9255847, "source": "osm", "_tags": {"addr:city": "Al Hoceima", "addr:street": "Avenue Mohammed 5 شارع محمد الخامس", "amenity": "hospital", "fax": "0539840662", "healthcare": "hospital", "name": "Clinique Bades", "operator": "clinic", "operator:type": "private"}}, {"name": "Centre El Fath D`hemodialyse", "latitude": 34.9365928, "longitude": -3.5351867, "source": "osm", "_tags": {"addr:city": "midar", "addr:postcode": "62502", "addr:street": "avenue melouiya", "amenity": "hospital", "building": "hospital", "emergency": "no", "healthcare": "hospital", "name": "Centre El Fath D`hemodialyse"}}, {"name": "", "latitude": 34.9332274, "longitude": -3.5233745, "source": "osm", "_tags": {"addr:city": "Midar", "addr:postcode": "62502", "addr:street": "Avenue Espagne", "amenity": "hospital", "emergency": "yes", "healthcare": "hospital"}}, {"name": "", "latitude": 35.1037181, "longitude": -3.8405878, "source": "osm", "_tags": {"amenity": "hospital", "healthcare": "hospital"}}, {"name": "Cabinet Medical", "latitude": 34.9385895, "longitude": -3.5340123, "source": "osm", "_tags": {"addr:city": "midar", "addr:postcode": "62502", "addr:street": "Rue Al Jadida", "amenity": "hospital", "emergency": "yes", "healthcare": "hospital", "name": "Cabinet Medical"}}, {"name": "Cabinet Medical", "latitude": 34.9383842, "longitude": -3.5343032, "source": "osm", "_tags": {"addr:city": "midar", "addr:postcode": "62502", "addr:street": "Rue Berkane", "amenity": "hospital", "emergency": "yes", "healthcare": "hospital", "name": "Cabinet Medical", "phone": "+212536364200"}}, {"name": "Hôpital Mohamed V", "latitude": 35.238852, "longitude": -3.9390368, "source": "osm", "_tags": {"addr:city": "Al Hoceima", "addr:street": "Rue Irak", "amenity": "hospital", "healthcare": "hospital", "name": "Hôpital Mohamed V", "operator": "hopital", "operator:type": "public"}}, {"name": "Centre de santé Tafersit", "latitude": 35.0074096, "longitude": -3.5459293, "source": "osm", "_tags": {"amenity": "hospital", "emergency": "no", "healthcare": "hospital", "name": "Centre de santé Tafersit"}}, {"name": "", "latitude": 34.9759791, "longitude": -3.3844769, "source": "osm", "_tags": {"amenity": "hospital", "healthcare": "hospital"}}]