[{"name": "", "latitude": 35.8104299, "longitude": 5.1054722, "source": "osm", "_tags": {"amenity": "hospital"}}, {"name": "Hopital Selmane", "latitude": 35.6907907, "longitude": 4.7699016, "source": "osm", "_tags": {"amenity": "hospital", "name": "Hopital Selmane"}}, {"name": "العيادة المتعددة الخدمات", "latitude": 35.4389021, "longitude": 5.5604412, "source": "osm", "_tags": {"amenity": "hospital", "name": "العيادة المتعددة الخدمات", "name:ar": "العيادة المتعددة الخدمات"}}, {"name": "Polyclinique", "latitude": 35.758489, "longitude": 5.2147961, "source": "osm", "_tags": {"amenity": "hospital", "name": "Polyclinique", "name:ar": "Polyclinique"}}, {"name": "مستوصف", "latitude": 35.2101846, "longitude": 5.4643506, "source": "osm", "_tags": {"addr:street": "شارع عين الدفيلة", "amenity": "hospital", "name": "مستوصف", "name:ar": "مستوصف"}}, {"name": "", "latitude": 34.8500278, "longitude": 5.7191895, "source": "osm", "_tags": {"amenity": "hospital"}}, {"name": "المجمع الصحي بن باديس", "latitude": 34.8489451, "longitude": 5.7055732, "source": "osm", "_tags": {"addr:city": "biskra", "amenity": "hospital", "healthcare": "hospital", "name": "المجمع الصحي بن باديس", "name:ar": "المجمع الصحي بن باديس", "name:fr": "Polyclinique Abdelhamid Ibn Badis"}}, {"name": "", "latitude": 35.5690213, "longitude": 5.6183615, "source": "osm", "_tags": {"amenity": "hospital", "building": "yes"}}, {"name": "مستشفى يوسف يعلاوي", "latitude": 35.8070979, "longitude": 5.5057617, "source": "osm", "_tags": {"amenity": "hospital", "emergency": "yes", "name": "مستشفى يوسف يعلاوي", "name:ar": "مستشفى يوسف يعلاوي", "name:fr": "Hôpital Youcef Yaalaoui"}}, {"name": "EHP", "latitude": 35.5047361, "longitude": 5.2637315, "source": "osm", "_tags": {"addr:city": "Djezzar", "amenity": "hospital", "name": "EHP"}}, {"name": "Hôpital", "latitude": 35.3802037, "longitude": 5.3789467, "source": "osm", "_tags": {"addr:city": "Barika", "amenity": "hospital", "emergency": "yes", "name": "Hôpital", "name:ar": "المستشفى"}}, {"name": "Etablissement public hospitalier Slimane Amirat", "latitude": 35.3851414, "longitude": 5.3663655, "source": "osm", "_tags": {"addr:city": "Barika", "addr:postcode": "05400", "addr:street": "Rue 1er Novembre", "amenity": "hospital", "emergency": "yes", "name": "Etablissement public hospitalier Slimane Amirat", "name:ar": "مستشفى سليمان عميران", "phone": "033 89 95 28"}}, {"name": "Hôpital de Ras El Aioun", "latitude": 35.6780618, "longitude": 5.6494811, "source": "osm", "_tags": {"addr:city": "Ras El Aioun", "alt_name": "EPH Ras El Aioun", "amenity": "hospital", "emergency": "yes", "name": "Hôpital de Ras El Aioun"}}, {"name": "", "latitude": 35.6167894, "longitude": 5.0843525, "source": "osm", "_tags": {"addr:city": "مقرة", "addr:city:ar": "مقرة", "amenity": "hospital", "healthcare": "hospital"}}, {"name": "", "latitude": 35.2163966, "longitude": 5.7121099, "source": "osm", "_tags": {"amenity": "hospital", "healthcare": "hospital"}}, {"name": "عيادة متعددة الخدمات أحمد ساسي", "latitude": 35.8103182, "longitude": 5.1056423, "source": "osm", "_tags": {"amenity": "hospital", "healthcare": "hospital", "name": "عيادة متعددة الخدمات أحمد ساسي"}}, {"name": "Hopital Selmane", "latitude": 35.6909758, "longitude": 4.7700384, "source": "osm", "_tags": {"amenity": "hospital", "healthcare": "hospital", "name": "Hopital Selmane"}}, {"name": "مستوصف", "latitude": 35.122105, "longitude": 5.6157028, "source": "osm", "_tags": {"amenity": "hospital", "healthcare": "hospital", "name": "مستوصف", "name:ar": "مستوصف", "name:fr": "Dispensaire"}}, {"name": "Polyclinique", "latitude": 35.7586555, "longitude": 5.2142114, "source": "osm", "_tags": {"amenity": "hospital", "healthcare": "hospital", "name": "Polyclinique"}}, {"name": "", "latitude": 35.2161115, "longitude": 5.7105685, "source": "osm", "_tags": {"amenity": "hospital", "healthcare": "hospital"}}, {"name": "مشفى", "latitude": 35.0321472, "longitude": 5.5901477, "source": "osm", "_tags": {"addr:street": "Voie rapide Batna-Biskra", "amenity": "hospital", "healthcare": "hospital", "name": "مشفى", "name:ar": "مشفى", "name:en": "Hôpital", "name:fr": "Hôpital"}}, {"name": "", "latitude": 35.6535559, "longitude": 5.0399682, "source": "osm", "_tags": {"amenity": "hospital"}}]