[{"name": "EPH Sougueur", "latitude": 35.1866431, "longitude": 1.4915413, "source": "osm", "_tags": {"addr:street": "Boulevard 1er Novembre 1954", "amenity": "hospital", "internet_access": "wlan", "name": "EPH Sougueur", "name:ar": "مستشفى قرميط ناصر", "name:fr": "hôpital ghermit naseur", "phone": "046 439 343"}}, {"name": "عيادة بلفرحات", "latitude": 35.3696771, "longitude": 1.3188051, "source": "osm", "_tags": {"addr:city": "تيارت", "addr:city:ar": "تيارت", "amenity": "hospital", "healthcare": "hospital", "name": "عيادة بلفرحات", "name:ar": "عيادة بلفرحات", "name:fr": "Clinique BELFARHAT"}}, {"name": "Hopital Torki Noredine", "latitude": 35.4164158, "longitude": 1.4719241, "source": "osm", "_tags": {"amenity": "hospital", "name": "Hopital Torki Noredine", "office": "government"}}, {"name": "", "latitude": 35.2565245, "longitude": 1.2367499, "source": "osm", "_tags": {"amenity": "hospital"}}, {"name": "رلاينس الجزائر مندس", "latitude": 35.6560508, "longitude": 0.8654125, "source": "osm", "_tags": {"amenity": "hospital", "healthcare": "hospital", "name": "رلاينس الجزائر مندس", "name:ar": "رلاينس الجزائر مندس", "name:en": "Mendes Reliance Algeria", "name:zh": "Mendes 60床医院", "opening_hours": "24/7"}}, {"name": "عيادة مشرع الصفاء", "latitude": 35.3824172, "longitude": 1.0577834, "source": "osm", "_tags": {"addr:city": "مشرع الصفاء", "amenity": "hospital", "healthcare": "hospital", "name": "عيادة مشرع الصفاء", "name:ar": "عيادة مشرع الصفاء", "name:fr": "Polyclinique mechraa-sfa"}}, {"name": "مستشفى سوقر قرميط ناصر", "latitude": 35.1865102, "longitude": 1.491342, "source": "osm", "_tags": {"amenity": "hospital", "name": "مستشفى سوقر قرميط ناصر", "name:ar": "مستشفى سوقر قرميط ناصر", "name:fr": "eph sougueur guermit Nasseur"}}, {"name": "مستشفى الأمومة والطفولة", "latitude": 35.3476624, "longitude": 1.3430739, "source": "osm", "_tags": {"amenity": "hospital", "name": "مستشفى الأمومة والطفولة", "name:fr": "Maternite", "phone": "046 22 26 01", "wheelchair": "yes"}}, {"name": "polyclinique", "latitude": 35.0558025, "longitude": 0.8855166, "source": "osm", "_tags": {"addr:city": "Aïn El Hadid ⵄⵉⵏ ⵍⴻⵃⴷⵉⴷ عين الحديد", "addr:postcode": "14008", "addr:street": "حي اوكيل محمد", "amenity": "clinic", "building": "yes", "healthcare": "hospital", "healthcare:speciality": "general;paediatrics;dentistry;biology;gynaecology;radiology;orthodontics", "name": "polyclinique"}}, {"name": "Epsp ain dzarit - عيادة صحية", "latitude": 35.3543712, "longitude": 1.6688034, "source": "osm", "_tags": {"amenity": "hospital", "name": "Epsp ain dzarit - عيادة صحية"}}, {"name": "", "latitude": 35.3545894, "longitude": 1.5159104, "source": "osm", "_tags": {"amenity": "hospital"}}, {"name": "", "latitude": 35.416415, "longitude": 1.4719227, "source": "osm", "_tags": {"amenity": "hospital"}}, {"name": "Établissement public hospitalier Établissement public hospitalier Youcef Damerdji", "latitude": 35.3841967, "longitude": 1.3143845, "source": "osm", "_tags": {"addr:city": "Tiaret", "addr:postcode": "14000", "addr:street": "Cité Bouhenni", "amenity": "hospital", "emergency": "yes", "name": "Établissement public hospitalier Établissement public hospitalier Youcef Damerdji", "name:ar": "المستشفى العمومي يوسف دامرجي", "name:fr": "Établissement public hospitalier Youcef Damerdji"}}, {"name": "Hôpital Hichem Abdelkrim", "latitude": 34.8490244, "longitude": 1.5466639, "source": "osm", "_tags": {"amenity": "hospital", "name": "Hôpital Hichem Abdelkrim"}}, {"name": "مستشفى", "latitude": 35.784319, "longitude": 1.1322421, "source": "osm", "_tags": {"addr:city": "Aïn Tarek", "addr:postcode": "48015", "amenity": "hospital", "denomination": "catholic", "emergency": "yes", "healthcare": "hospital", "healthcare:speciality": "general", "name": "مستشفى", "name:en": "Hospital", "religion": "christian"}}, {"name": "Hopital Ibn sina", "latitude": 35.0623985, "longitude": 1.0537588, "source": "osm", "_tags": {"addr:city": "Frenda", "amenity": "hospital", "emergency": "yes", "healthcare": "hospital", "name": "Hopital Ibn sina", "name:ar": "مستشفى إبن سينا", "name:fr": "Hôpital Ibn Sina"}}, {"name": "", "latitude": 35.3824657, "longitude": 1.3375497, "source": "osm", "_tags": {"amenity": "hospital", "denomination": "sunni", "healthcare": "hospital"}}, {"name": "مستشفى ميموني الطاهر", "latitude": 35.1851796, "longitude": 1.4900213, "source": "osm", "_tags": {"amenity": "hospital", "name": "مستشفى ميموني الطاهر"}}, {"name": "", "latitude": 35.7199843, "longitude": 0.7577205, "source": "osm", "_tags": {"amenity": "hospital", "healthcare": "hospital"}}, {"name": "العيادة متعددة الخدمات مدريسة - الشهيد بوحفص محمود", "latitude": 34.8958043, "longitude": 1.2398664, "source": "osm", "_tags": {"amenity": "hospital", "building": "yes", "name": "العيادة متعددة الخدمات مدريسة - الشهيد بوحفص محمود", "name:ar": "مستشفى"}}, {"name": "", "latitude": 35.3951053, "longitude": 1.2547126, "source": "osm", "_tags": {"amenity": "hospital", "building": "yes"}}, {"name": "EPH Sougueur", "latitude": 35.1866152, "longitude": 1.4917559, "source": "osm", "_tags": {"amenity": "hospital", "healthcare": "hospital", "name": "EPH Sougueur"}}, {"name": "بلفرحات", "latitude": 35.3697872, "longitude": 1.318781, "source": "osm", "_tags": {"addr:city": "تيارت", "addr:city:ar": "تيارت", "amenity": "hospital", "healthcare": "hospital", "name": "بلفرحات", "name:ar": "بلفرحات"}}, {"name": "عيادة مشرع الصفاء", "latitude": 35.3821329, "longitude": 1.0569734, "source": "osm", "_tags": {"amenity": "hospital", "healthcare": "hospital", "name": "عيادة مشرع الصفاء", "name:ar": "عيادة مشرع الصفاء"}}, {"name": "مستشفى سوقر قرميط ناصر", "latitude": 35.1863283, "longitude": 1.4919147, "source": "osm", "_tags": {"amenity": "hospital", "healthcare": "hospital", "name": "مستشفى سوقر قرميط ناصر", "name:ar": "مستشفى سوقر قرميط ناصر"}}, {"name": "Hôpital Psychiatrique de Tiaret", "latitude": 35.3865863, "longitude": 1.3123631, "source": "osm", "_tags": {"addr:city": "Tiaret", "addr:postcode": "14000", "addr:street": "La route des pins", "amenity": "hospital", "barrier": "wall", "name": "Hôpital Psychiatrique de Tiaret", "name:ar": "مستشفى الامراض العقلية لتيارت"}}, {"name": "", "latitude": 35.6570009, "longitude": 0.8657062, "source": "osm", "_tags": {"amenity": "hospital", "healthcare": "hospital"}}, {"name": "", "latitude": 35.5328051, "longitude": 1.0177651, "source": "osm", "_tags": {"amenity": "hospital"}}]