[{"name": "المستشفى المحلي محمد سلامة", "latitude": 35.6810749, "longitude": 10.8524315, "source": "osm", "_tags": {"amenity": "hospital", "emergency": "no", "healthcare": "hospital", "healthcare:speciality": "general", "name": "المستشفى المحلي محمد سلامة", "name:ar": "المستشفى المحلي محمد سلامة", "name:fr": "Hôpital Régional Mohamed Slama", "operator": "Ministère de la santé publique", "operator:type": "government"}}, {"name": "مستشفى فطومة بورقيبة", "latitude": 35.7704011, "longitude": 10.8340063, "source": "osm", "_tags": {"addr:city": "المنستير", "addr:city:ar": "المنستير", "addr:postcode": "5000", "addr:street": "Rue du 1er juin 1995", "amenity": "hospital", "emergency": "yes", "healthcare": "hospital", "name": "مستشفى فطومة بورقيبة", "name:ar": "مستشفى فطومة بورقيبة", "name:fr": "Hôpital Fattouma Bourguiba", "phone": "+216 73 460 309", "wikidata": "Q30282397", "wikimedia_commons": "Category:Hôpital Fattouma Bourguiba"}}, {"name": "مركز طب الولدان و التوليد بالمنستير", "latitude": 35.7602118, "longitude": 10.8030722, "source": "osm", "_tags": {"amenity": "hospital", "barrier": "wall", "healthcare": "hospital", "name": "مركز طب الولدان و التوليد بالمنستير", "name:ar": "مركز طب الولدان و التوليد بالمنستير", "name:fr": "Centre de Néonatologie et Maternité deMonastir"}}, {"name": "المستشفى الجهوي الحاج علي صوة", "latitude": 35.6505654, "longitude": 10.8890548, "source": "osm", "_tags": {"addr:city": "Ksar Helal", "addr:postcode": "5070", "addr:street": "Avenue Haj Ali Soua", "amenity": "hospital", "emergency": "yes", "healthcare": "hospital", "name": "المستشفى الجهوي الحاج علي صوة", "name:ar": "المستشفى الجهوي الحاج علي صوة", "name:fr": "Hôpital Régional Haj Ali Soua", "phone": "+216 73 476 054"}}, {"name": "مستشفى الشابة", "latitude": 35.234635, "longitude": 11.1145448, "source": "osm", "_tags": {"addr:city": "الشابة", "addr:postcode": "5170", "addr:street": "شارع الهادي شاكر", "addr:street:ar": "شارع الهادي شاكر", "addr:street:fr": "Avenue Hedi Chaker", "amenity": "hospital", "emergency": "yes", "fax": "+216 73 683 522", "healthcare": "hospital", "name": "مستشفى الشابة", "name:ar": "مستشفى الشابة", "name:fr": "Hôpital La Chebba", "phone": "+216 73 683 522"}}, {"name": "Hôpital Téboulba", "latitude": 35.6414277, "longitude": 10.9693569, "source": "osm", "_tags": {"amenity": "hospital", "emergency": "yes", "name": "Hôpital Téboulba"}}, {"name": "مستوصف السكرين - الرحمة", "latitude": 35.6519269, "longitude": 10.9490526, "source": "osm", "_tags": {"amenity": "hospital", "name": "مستوصف السكرين - الرحمة", "name:ar": "مستوصف السكرين - الرحمة"}}, {"name": "مستوصف الفاضلين", "latitude": 35.6413449, "longitude": 10.9905104, "source": "osm", "_tags": {"amenity": "hospital", "healthcare": "hospital", "name": "مستوصف الفاضلين", "name:ar": "مستوصف الفاضلين"}}, {"name": "", "latitude": 35.6810815, "longitude": 10.8524031, "source": "osm", "_tags": {"addr:city": "Ksibet el mediouni", "amenity": "hospital", "emergency": "yes", "healthcare": "hospital", "healthcare:speciality": "general", "name:fr": "Hôpital Régional Mohamed Slama"}}, {"name": "مستشفى الدكتور إمحمد بن صالح", "latitude": 35.6335685, "longitude": 10.9095137, "source": "osm", "_tags": {"addr:city": "Moknine", "addr:postcode": "5050", "addr:street": "Rue Koubine", "amenity": "hospital", "name": "مستشفى الدكتور إمحمد بن صالح", "name:ar": "مستشفى الدكتور إمحمد بن صالح", "name:fr": "Hôpital Dr M'hamed BEN SALAH", "phone": "+216 73 476 508"}}, {"name": "Polyclinique l'Excellence", "latitude": 35.4992636, "longitude": 11.0585161, "source": "osm", "_tags": {"amenity": "hospital", "healthcare": "hospital", "name": "Polyclinique l'Excellence", "opening_hours": "24/7"}}, {"name": "Polyclinique", "latitude": 35.5271654, "longitude": 11.0323734, "source": "osm", "_tags": {"amenity": "hospital", "healthcare": "hospital", "name": "Polyclinique"}}, {"name": "مصحة السواني بالمنستير", "latitude": 35.7758914, "longitude": 10.8172716, "source": "osm", "_tags": {"addr:city": "Monastir", "addr:postcode": "5000", "amenity": "clinic", "fax": "+216 73 501 003", "healthcare": "hospital", "name": "مصحة السواني بالمنستير", "name:ar": "مصحة السواني بالمنستير", "name:fr": "Clinique Essouani", "phone": "+216 73 501 001"}}, {"name": "Clinique DEBBABI", "latitude": 35.7684955, "longitude": 10.8359759, "source": "osm", "_tags": {"addr:city": "Monastir", "addr:postcode": "5000", "addr:street": "Avenue Avicenne", "amenity": "clinic", "healthcare": "hospital", "internet_access": "wlan", "name": "Clinique DEBBABI", "phone": "+216 73 447 100"}}, {"name": "Clinique hospitalo-universitaire d'Odontologie", "latitude": 35.7649716, "longitude": 10.8285192, "source": "osm", "_tags": {"addr:city": "المنستير", "addr:city:ar": "المنستير", "addr:postcode": "5000", "addr:street": "Rue Avicenne", "amenity": "clinic", "fax": "+216 73 462 866", "healthcare": "hospital", "healthcare:speciality": "orthodontics;clinic;community", "name": "Clinique hospitalo-universitaire d'Odontologie", "phone": "+216 73 461 154;+216 73 461 155"}}, {"name": "University Hospital Tahar Sfar", "latitude": 35.5094872, "longitude": 11.0332983, "source": "osm", "_tags": {"amenity": "hospital", "healthcare": "hospital", "name": "University Hospital Tahar Sfar"}}]