[{"name": "Ahmed Ouroua", "latitude": 36.5369503, "longitude": 6.7154472, "source": "osm", "_tags": {"amenity": "hospital", "name": "Ahmed Ouroua"}}, {"name": "Centre d'Imagerie", "latitude": 36.4426101, "longitude": 6.2696414, "source": "osm", "_tags": {"amenity": "hospital", "name": "Centre d'Imagerie", "name:ar": "مصتوصف"}}, {"name": "Hôpital Chelghoum Laïd", "latitude": 36.1701847, "longitude": 6.1610625, "source": "osm", "_tags": {"amenity": "hospital", "name": "Hôpital Chelghoum Laïd"}}, {"name": "Polyclinique", "latitude": 36.1635614, "longitude": 6.1729266, "source": "osm", "_tags": {"amenity": "hospital", "name": "Polyclinique"}}, {"name": "Hôpital", "latitude": 36.1639184, "longitude": 6.166417, "source": "osm", "_tags": {"amenity": "hospital", "name": "Hôpital"}}, {"name": "EPH Belhi Abdelhamid", "latitude": 36.1199102, "longitude": 5.9801869, "source": "osm", "_tags": {"amenity": "hospital", "name": "EPH Belhi Abdelhamid", "name:ar": "مستشفى بلحي عبد الحميد", "opening_hours": "24/7"}}, {"name": "Hôpital", "latitude": 36.3980428, "longitude": 6.3261281, "source": "osm", "_tags": {"addr:postcode": "43016", "amenity": "hospital", "name": "Hôpital", "name:ar": "بوفلغط رمضان", "opening_hours": "Sa-Th 08:00-16:30"}}, {"name": "", "latitude": 36.3033904, "longitude": 6.0107718, "source": "osm", "_tags": {"amenity": "hospital"}}, {"name": "", "latitude": 36.3676384, "longitude": 6.6089917, "source": "osm", "_tags": {"addr:city": "قسنطينة", "addr:city:ar": "قسنطينة", "addr:street": "نهج زيغود يوسف", "addr:street:ar": "نهج زيغود يوسف", "amenity": "hospital", "healthcare": "hospital"}}, {"name": "", "latitude": 36.5209888, "longitude": 6.3290014, "source": "osm", "_tags": {"amenity": "hospital", "healthcare": "hospital"}}, {"name": "", "latitude": 36.1828549, "longitude": 6.3863753, "source": "osm", "_tags": {"amenity": "hospital", "healthcare": "hospital", "healthcare:speciality": "paediatrics"}}, {"name": "", "latitude": 36.37353, "longitude": 6.6183092, "source": "osm", "_tags": {"addr:city": "قسنطينة", "addr:city:ar": "قسنطينة", "amenity": "hospital", "healthcare": "hospital", "healthcare:speciality": "dermatology", "language:ar": "main"}}, {"name": "", "latitude": 36.3741467, "longitude": 6.625348, "source": "osm", "_tags": {"addr:street": "Boulevard Chihani Bachir", "amenity": "hospital", "healthcare": "hospital", "name:fr": "Consultation psychiatrique externe - Chihani Bachir"}}, {"name": "الحكيمة بوعروج", "latitude": 36.4482963, "longitude": 6.2648324, "source": "osm", "_tags": {"amenity": "hospital", "healthcare": "hospital", "name": "الحكيمة بوعروج", "name:ar": "الحكيمة بوعروج", "name:fr": "Bouaroudj"}}, {"name": "مشفى", "latitude": 36.1177623, "longitude": 5.9687414, "source": "osm", "_tags": {"amenity": "hospital", "healthcare": "hospital", "name": "مشفى", "name:ar": "مشفى", "name:en": "hospital", "name:fr": "hospital"}}, {"name": "Cabinet médical général Dr. Boulfous", "latitude": 36.4966756, "longitude": 6.059463, "source": "osm", "_tags": {"amenity": "hospital", "healthcare": "hospital", "healthcare:speciality": "general;acupuncture;traditional_chinese_medicine", "name": "Cabinet médical général Dr. Boulfous", "name:ar": "عيادة طبية عامة الدكتورة بولفوس"}}, {"name": "Dr BEKKOUCHE Dentiste", "latitude": 36.3913589, "longitude": 6.1283942, "source": "osm", "_tags": {"amenity": "hospital", "healthcare": "hospital", "name": "Dr BEKKOUCHE Dentiste"}}, {"name": "Hôpital de maternité", "latitude": 36.3629165, "longitude": 6.6391664, "source": "osm", "_tags": {"amenity": "hospital", "healthcare": "hospital", "name": "Hôpital de maternité", "name:en": "Maternity Hospital"}}, {"name": "Dispensaire", "latitude": 36.4096895, "longitude": 6.0442842, "source": "osm", "_tags": {"amenity": "hospital", "name": "Dispensaire"}}, {"name": "Polyclinique Lefilef Mohamed", "latitude": 36.4691227, "longitude": 6.1738265, "source": "osm", "_tags": {"amenity": "hospital", "name": "Polyclinique Lefilef Mohamed"}}, {"name": "Hôpital Militaire de Ali Mendjeli", "latitude": 36.245825, "longitude": 6.5903668, "source": "osm", "_tags": {"addr:city": "Ali Mendjeli", "amenity": "hospital", "healthcare": "hospital", "name": "Hôpital Militaire de Ali Mendjeli", "name:ar": "المستشفى العسكري علي منجلي", "name:fr": "Hôpital Militaire de Ali Mendjeli"}}, {"name": "Hopital Psychiatrique", "latitude": 36.3902208, "longitude": 6.6473658, "source": "osm", "_tags": {"amenity": "hospital", "healthcare": "hospital", "name": "Hopital Psychiatrique"}}, {"name": "Hôpital de Mila", "latitude": 36.443837, "longitude": 6.2622271, "source": "osm", "_tags": {"amenity": "hospital", "emergency": "yes", "healthcare": "hospital", "name": "Hôpital de Mila"}}, {"name": "Hôpital DU JOUR", "latitude": 36.4499365, "longitude": 6.2623992, "source": "osm", "_tags": {"addr:city": "Mila", "amenity": "hospital", "building:colour": "blue", "emergency": "yes", "healthcare": "hospital", "name": "Hôpital DU JOUR"}}, {"name": "Salle de Soins", "latitude": 36.4475866, "longitude": 6.1474562, "source": "osm", "_tags": {"amenity": "hospital", "building": "yes", "name": "Salle de Soins"}}, {"name": "Salle de Soins", "latitude": 36.4119178, "longitude": 6.1282039, "source": "osm", "_tags": {"amenity": "hospital", "building": "yes", "name": "Salle de Soins"}}, {"name": "Hôpital Mohamed Seddik Benyahia", "latitude": 36.8131637, "longitude": 5.7667399, "source": "osm", "_tags": {"addr:city": "Jijel", "addr:postcode": "18000", "addr:street": "Rue des Frères Bouketta", "amenity": "hospital", "emergency": "yes", "healthcare": "hospital", "name": "Hôpital Mohamed Seddik Benyahia", "name:ar": "مستشفى محمد صديق بن يحيى", "name:fr": "Hôpital Mohamed Seddik Benyahia"}}, {"name": "Hopital Mohamed Meddahi", "latitude": 36.4094767, "longitude": 5.9501928, "source": "osm", "_tags": {"amenity": "hospital", "name": "Hopital Mohamed Meddahi"}}, {"name": "مستشفى مجدوب سعيد", "latitude": 36.7892273, "longitude": 5.9074552, "source": "osm", "_tags": {"addr:city": "Taher", "addr:postcode": "18002", "amenity": "hospital", "beds": "236", "emergency": "yes", "healthcare": "hospital", "name": "مستشفى مجدوب سعيد", "name:ar": "مستشفى مجدوب سعيد", "name:en": "Hospital Madjdoub Saïd", "name:fr": "Hôpital Madjdoub Saïd", "phone": "+213 34 440989"}}, {"name": "مستشفى الاخوة بوخشم", "latitude": 36.2542246, "longitude": 6.2862111, "source": "osm", "_tags": {"amenity": "hospital", "healthcare": "hospital", "name": "مستشفى الاخوة بوخشم", "name:ar": "مستشفى الاخوة بوخشم", "name:en": "Brothers Boukhechem Hospital", "name:fr": "Hôpital frères Boukhechem", "opening_hours": "24/7"}}, {"name": "Salle de soins Al Arsa", "latitude": 36.4393814, "longitude": 6.1584314, "source": "osm", "_tags": {"amenity": "hospital", "building": "yes", "emergency": "no", "name": "Salle de soins Al Arsa"}}, {"name": "EPH Didouche Morad", "latitude": 36.4537713, "longitude": 6.6303218, "source": "osm", "_tags": {"amenity": "hospital", "emergency": "yes", "name": "EPH Didouche Morad", "wheelchair": "yes"}}, {"name": "Hôpital Slimane Amirat", "latitude": 36.0176972, "longitude": 6.5695258, "source": "osm", "_tags": {"amenity": "hospital", "name": "Hôpital Slimane Amirat", "name:ar": "Hôpital Slimane Amirat ( الباطوار)"}}, {"name": "Clinique d'Hémodialyse", "latitude": 36.0386016, "longitude": 6.5638792, "source": "osm", "_tags": {"amenity": "hospital", "name": "Clinique d'Hémodialyse"}}, {"name": "قاعة علاج الطاحونة", "latitude": 36.8032057, "longitude": 6.5160046, "source": "osm", "_tags": {"amenity": "hospital", "emergency": "yes", "name": "قاعة علاج الطاحونة", "name:en": "Health center"}}, {"name": "قاعة علاج عين رويبح", "latitude": 36.8068562, "longitude": 6.522578, "source": "osm", "_tags": {"amenity": "hospital", "emergency": "yes", "name": "قاعة علاج عين رويبح"}}, {"name": "", "latitude": 36.8032052, "longitude": 6.5159946, "source": "osm", "_tags": {"amenity": "hospital"}}, {"name": "CHU Ibn Badis", "latitude": 36.3734414, "longitude": 6.6166463, "source": "osm", "_tags": {"addr:city": "Constantine", "addr:postcode": "25000", "addr:street": "Rue Benseghir Abdelouahab", "amenity": "hospital", "emergency": "yes", "healthcare": "hospital", "name": "CHU Ibn Badis", "name:ar": "المستشفى الجامعي عبد الحميد بن باديس", "phone": "+213 31 64 16 07"}}, {"name": "Hopital El-Khroub", "latitude": 36.2603689, "longitude": 6.7082857, "source": "osm", "_tags": {"amenity": "hospital", "emergency": "yes", "name": "Hopital El-Khroub", "name:ar": "مستشفى الخروب", "name:fr": "EPH EL KHROUB"}}, {"name": "مركز صحي", "latitude": 36.3928903, "longitude": 6.1276276, "source": "osm", "_tags": {"amenity": "hospital", "name": "مركز صحي", "name:ar": "مركز صحي", "name:fr": "Centre de santé"}}, {"name": "", "latitude": 36.3033942, "longitude": 6.0107797, "source": "osm", "_tags": {"amenity": "hospital", "healthcare": "hospital"}}, {"name": "", "latitude": 36.1243349, "longitude": 6.3636172, "source": "osm", "_tags": {"amenity": "hospital"}}, {"name": "PHARMACIE", "latitude": 36.3447255, "longitude": 6.6036123, "source": "osm", "_tags": {"amenity": "hospital", "emergency": "no", "healthcare": "hospital", "name": "PHARMACIE", "operator": "AIT YAHIA", "operator:type": "private"}}, {"name": "Hôpital hafid boudjema", "latitude": 36.351585, "longitude": 6.5944741, "source": "osm", "_tags": {"amenity": "hospital", "name": "Hôpital hafid boudjema"}}, {"name": "Hôpital Pédiatrique", "latitude": 36.3682911, "longitude": 6.6345709, "source": "osm", "_tags": {"addr:city": "Constantine", "addr:postcode": "25000", "amenity": "hospital", "healthcare:speciality": "paediatrics", "name": "Hôpital Pédiatrique", "name:fr": "Hôpital Pédiatrique"}}, {"name": "مستوصف", "latitude": 35.9329274, "longitude": 5.8954353, "source": "osm", "_tags": {"amenity": "hospital", "name": "مستوصف", "name:ar": "مستوصف"}}, {"name": "", "latitude": 36.1699974, "longitude": 6.1606112, "source": "osm", "_tags": {"amenity": "hospital"}}, {"name": "centre d'hemodialyse maghreb", "latitude": 36.1693144, "longitude": 6.1745968, "source": "osm", "_tags": {"amenity": "hospital", "emergency": "yes", "name": "centre d'hemodialyse maghreb"}}, {"name": "Dispensaire Hamma Bouziane", "latitude": 36.4215603, "longitude": 6.5990848, "source": "osm", "_tags": {"amenity": "hospital", "name": "Dispensaire Hamma Bouziane"}}, {"name": "", "latitude": 36.7269546, "longitude": 5.8818581, "source": "osm", "_tags": {"amenity": "hospital", "emergency": "no", "healthcare": "hospital", "healthcare:speciality": "general"}}, {"name": "", "latitude": 36.3745834, "longitude": 6.6167589, "source": "osm", "_tags": {"building": "yes", "ele": "5", "healthcare": "hospital"}}, {"name": "Maternité", "latitude": 36.374694, "longitude": 6.6151254, "source": "osm", "_tags": {"building": "yes", "ele": "5", "healthcare": "hospital", "healthcare:speciality": "maternity", "name": "Maternité"}}, {"name": "Hôpital psychiatrique", "latitude": 36.2501465, "longitude": 6.2884679, "source": "osm", "_tags": {"amenity": "hospital", "healthcare": "hospital", "healthcare:speciality": "psychiatry", "name": "Hôpital psychiatrique", "name:ar": "مستشفى الأمراض العقلية", "name:fr": "Hôpital psychiatrique"}}, {"name": "مستشفى جراحة القلب الرياض بن شيكو", "latitude": 36.3560293, "longitude": 6.6532618, "source": "osm", "_tags": {"addr:city": "قسنطينة", "addr:city:ar": "قسنطينة", "addr:place": "حي الرياض", "addr:place:ar": "حي الرياض", "alt_name": "مستشفى جراحة القلب", "alt_name:ar": "مستشفى جراحة القلب", "amenity": "hospital", "emergency": "yes", "healthcare": "hospital", "healthcare:speciality": "cardiology", "language:ar": "main", "name": "مستشفى جراحة القلب الرياض بن شيكو", "name:ar": "مستشفى جراحة القلب الرياض بن شيكو", "name:fr": "Clinique Du Coeur EHS De Cardiologie Erriad Benchicou"}}, {"name": "Polyclinique", "latitude": 36.1636155, "longitude": 6.1729546, "source": "osm", "_tags": {"amenity": "hospital", "healthcare": "hospital", "name": "Polyclinique"}}, {"name": "EPH Belhi Abdelhamid", "latitude": 36.1200757, "longitude": 5.9803787, "source": "osm", "_tags": {"amenity": "hospital", "healthcare": "hospital", "name": "EPH Belhi Abdelhamid"}}, {"name": "Hôpital", "latitude": 36.3982047, "longitude": 6.3259149, "source": "osm", "_tags": {"amenity": "hospital", "healthcare": "hospital", "name": "Hôpital"}}, {"name": "مستشفى بشير منتوري - الميلية", "latitude": 36.7589102, "longitude": 6.2851121, "source": "osm", "_tags": {"amenity": "hospital", "healthcare": "hospital", "name": "مستشفى بشير منتوري - الميلية", "name:ar": "مستشفى بشير منتوري - الميلية", "name:fr": "Hôpital Bachir Mentouri;Hôpital Bachir Mentouri - El milia", "opening_hours": "24/7"}}, {"name": "", "latitude": 36.5207049, "longitude": 6.3287211, "source": "osm", "_tags": {"amenity": "hospital", "healthcare": "hospital"}}, {"name": "عيادة متعددة الخدمات", "latitude": 36.6662853, "longitude": 6.0219757, "source": "osm", "_tags": {"amenity": "hospital", "healthcare": "hospital", "name": "عيادة متعددة الخدمات", "name:ar": "عيادة متعددة الخدمات", "name:fr": "Polyclinique"}}, {"name": "", "latitude": 36.1829895, "longitude": 6.3865266, "source": "osm", "_tags": {"amenity": "hospital", "healthcare": "hospital"}}, {"name": "الحكيمة بوعروج", "latitude": 36.448365, "longitude": 6.2647433, "source": "osm", "_tags": {"amenity": "hospital", "healthcare": "hospital", "name": "الحكيمة بوعروج", "name:ar": "الحكيمة بوعروج", "name:fr": "Bouaroudj"}}, {"name": "مشفى", "latitude": 36.117753, "longitude": 5.9687955, "source": "osm", "_tags": {"amenity": "hospital", "healthcare": "hospital", "name": "مشفى", "name:ar": "مشفى", "name:fr": "Hôpital de Tadjenanet"}}, {"name": "ancienne urgence", "latitude": 36.169439, "longitude": 6.1777349, "source": "osm", "_tags": {"amenity": "hospital", "healthcare": "hospital", "name": "ancienne urgence"}}, {"name": "مركز علاج الإدمان", "latitude": 36.2591798, "longitude": 6.7082228, "source": "osm", "_tags": {"amenity": "hospital", "healthcare": "hospital", "name": "مركز علاج الإدمان", "name:en": "Centre de traitement de la toxicomanie"}}, {"name": "Ibn Ziad Centre Medical", "latitude": 36.3816795, "longitude": 6.4704152, "source": "osm", "_tags": {"amenity": "hospital", "name": "Ibn Ziad Centre Medical"}}, {"name": "Policlinique", "latitude": 36.4533669, "longitude": 6.049796, "source": "osm", "_tags": {"amenity": "hospital", "building:levels": "3", "healthcare": "hospital", "name": "Policlinique"}}, {"name": "", "latitude": 36.4532922, "longitude": 6.0497144, "source": "osm", "_tags": {"amenity": "hospital", "healthcare": "hospital"}}]