[{"name": "المؤسسة العمومية الاستشفائية هواري بومدين", "latitude": 36.131672, "longitude": 7.533409, "source": "osm", "_tags": {"amenity": "hospital", "name": "المؤسسة العمومية الاستشفائية هواري بومدين", "name:ar": "المؤسسة العمومية الاستشفائية هواري بومدين"}}, {"name": "المستشفى القديم", "latitude": 36.1324083, "longitude": 7.5301868, "source": "osm", "_tags": {"amenity": "hospital", "healthcare": "hospital", "name": "المستشفى القديم", "name:ar": "المستشفى القديم"}}, {"name": "صيدلية بوجاهم", "latitude": 36.370418, "longitude": 7.5298482, "source": "osm", "_tags": {"amenity": "hospital", "healthcare": "hospital", "name": "صيدلية بوجاهم", "name:ar": "صيدلية بوجاهم"}}, {"name": "Entree des Urgence", "latitude": 36.3160468, "longitude": 7.1613808, "source": "osm", "_tags": {"amenity": "hospital", "name": "Entree des Urgence"}}, {"name": "العيادة المتعددة الخدمات الجديدة", "latitude": 36.3670847, "longitude": 7.5212157, "source": "osm", "_tags": {"addr:postcode": "24016", "amenity": "hospital", "name": "العيادة المتعددة الخدمات الجديدة", "name:en": "New polyclinique", "name:fr": "Nouvelle polyclinique", "opening_hours": "24/7"}}, {"name": "مستشفى هواري بومدين", "latitude": 36.1319566, "longitude": 7.5338348, "source": "osm", "_tags": {"amenity": "hospital", "name": "مستشفى هواري بومدين", "name:en": "Houari boumedien Hospital", "name:fr": "EPH Houari boumedienne", "opening_hours": "24/7", "phone": "037776718"}}, {"name": "Hôpital d'El Harrouch", "latitude": 36.6551829, "longitude": 6.8383116, "source": "osm", "_tags": {"amenity": "hospital", "emergency": "yes", "name": "Hôpital d'El Harrouch"}}, {"name": "Centre médical", "latitude": 36.1231685, "longitude": 6.7849306, "source": "osm", "_tags": {"amenity": "hospital", "name": "Centre médical"}}, {"name": "Centre Hispitalier Hamouda Amer", "latitude": 35.9741643, "longitude": 6.8778575, "source": "osm", "_tags": {"amenity": "hospital", "emergency": "yes", "name": "Centre Hispitalier Hamouda Amer"}}, {"name": "Hopital", "latitude": 36.2339367, "longitude": 6.9459826, "source": "osm", "_tags": {"amenity": "hospital", "emergency": "yes", "name": "Hopital"}}, {"name": "", "latitude": 36.7222724, "longitude": 7.7258673, "source": "osm", "_tags": {"amenity": "hospital"}}, {"name": "مركز الصحة حجر الديس", "latitude": 36.786529, "longitude": 7.6161324, "source": "osm", "_tags": {"addr:city": "سيدي عمار", "addr:city:ar": "سيدي عمار", "addr:place": "حجر الديس", "addr:place:ar": "حجر الديس", "amenity": "hospital", "emergency": "yes", "healthcare": "hospital", "name": "مركز الصحة حجر الديس", "name:ar": "مركز الصحة حجر الديس", "name:fr": "Centre de santé Hadjar Eddis"}}, {"name": "Hôpital El Hakim Okbi", "latitude": 36.4558119, "longitude": 7.4355674, "source": "osm", "_tags": {"addr:city": "Guelma", "addr:postcode": "24000", "amenity": "hospital", "emergency": "yes", "healthcare": "hospital", "name": "Hôpital El Hakim Okbi"}}, {"name": "عيادة الولادة - سليمان عميرات", "latitude": 35.8752702, "longitude": 7.1109083, "source": "osm", "_tags": {"addr:city": "Oum El Bouaghi", "addr:postcode": "04000", "aeroway": "no", "amenity": "hospital", "emergency": "yes", "healthcare:speciality": "gynaecology;maternity;paediatrics", "name": "عيادة الولادة - سليمان عميرات", "name:ar": "عيادة الولادة - سليمان عميرات"}}, {"name": "", "latitude": 36.0268844, "longitude": 7.6058233, "source": "osm", "_tags": {"amenity": "hospital", "name:fr": "مستشفى"}}, {"name": "centre de santé", "latitude": 36.4457916, "longitude": 7.3092239, "source": "osm", "_tags": {"amenity": "hospital", "emergency": "yes", "name": "centre de santé"}}, {"name": "مستشفى بوضياف محمد", "latitude": 35.8704352, "longitude": 7.1124709, "source": "osm", "_tags": {"addr:city": "Oum El Bouaghi", "addr:postcode": "04000", "amenity": "hospital", "emergency": "yes", "healthcare": "hospital", "name": "مستشفى بوضياف محمد", "name:ar": "Hôpital mouhamed boudiaf", "name:fr": "Hôpital Mohammed Boudiaf"}}, {"name": "Hôpital de Bouchegouf", "latitude": 36.4720754, "longitude": 7.7253534, "source": "osm", "_tags": {"amenity": "hospital", "name": "Hôpital de Bouchegouf"}}, {"name": "Centre de sente", "latitude": 36.7222649, "longitude": 7.7259286, "source": "osm", "_tags": {"amenity": "hospital", "name": "Centre de sente"}}, {"name": "EPH de Oued Zenati", "latitude": 36.3148497, "longitude": 7.1619713, "source": "osm", "_tags": {"addr:city": "Oued Zenati", "amenity": "hospital", "emergency": "yes", "name": "EPH de Oued Zenati"}}, {"name": "مستشفى ابن زهر", "latitude": 36.4632911, "longitude": 7.4284369, "source": "osm", "_tags": {"addr:city": "قالمة", "addr:postcode": "24000", "amenity": "hospital", "healthcare": "hospital", "name": "مستشفى ابن زهر", "name:ar": "مستشفى ابن زهر", "name:fr": "Hôpital Ibn Zohr"}}, {"name": "Nouvel Hôpital de Guelma", "latitude": 36.4516763, "longitude": 7.4428076, "source": "osm", "_tags": {"addr:city": "Guelma", "addr:postcode": "24000", "amenity": "hospital", "healthcare": "hospital", "name": "Nouvel Hôpital de Guelma"}}, {"name": "Ibn Sina", "latitude": 35.8789831, "longitude": 7.1087326, "source": "osm", "_tags": {"addr:city": "Oum El Bouaghi", "addr:postcode": "04000", "addr:street": "نهج أول نوفمبر 1954", "amenity": "hospital", "building": "hospital", "height": "11.45", "name": "Ibn Sina", "operator": "Direction générale de santé", "roof:colour": "#dd7e6b", "roof:height": "2.62", "roof:shape": "hipped"}}, {"name": "Hopital De Ain Berda", "latitude": 36.6510644, "longitude": 7.5900377, "source": "osm", "_tags": {"amenity": "hospital", "healthcare": "hospital", "name": "Hopital De Ain Berda"}}, {"name": "المؤسسة العمومية الاستشفائية هواري بومدين", "latitude": 36.1319483, "longitude": 7.5335262, "source": "osm", "_tags": {"amenity": "hospital", "healthcare": "hospital", "name": "المؤسسة العمومية الاستشفائية هواري بومدين", "name:ar": "المؤسسة العمومية الاستشفائية هواري بومدين", "name:fr": "EPHP Houari Boumediene"}}, {"name": "المستشفى القديم", "latitude": 36.1323737, "longitude": 7.5301547, "source": "osm", "_tags": {"amenity": "hospital", "healthcare": "hospital", "name": "المستشفى القديم", "name:ar": "المستشفى القديم"}}, {"name": "صيدلية بوجاهم", "latitude": 36.3703813, "longitude": 7.5299193, "source": "osm", "_tags": {"amenity": "hospital", "healthcare": "hospital", "name": "صيدلية بوجاهم", "name:ar": "صيدلية بوجاهم"}}, {"name": "", "latitude": 35.879299, "longitude": 7.108983, "source": "osm", "_tags": {"addr:city": "Oum El Bouaghi", "addr:postcode": "04000", "addr:street": "نهج أول نوفمبر 1954", "amenity": "hospital", "building": "yes", "building:levels": "2", "height": "11.45", "roof:colour": "#dd7e6b", "roof:height": "2.62", "roof:shape": "hipped"}}, {"name": "", "latitude": 35.8795438, "longitude": 7.109122, "source": "osm", "_tags": {"addr:city": "Oum El Bouaghi", "addr:postcode": "04000", "addr:street": "نهج أول نوفمبر 1954", "amenity": "hospital", "building": "yes", "building:levels": "2", "height": "11.45", "roof:colour": "#dd7e6b", "roof:height": "2.62", "roof:shape": "hipped"}}, {"name": "", "latitude": 35.8794374, "longitude": 7.1091471, "source": "osm", "_tags": {"addr:city": "Oum El Bouaghi", "addr:postcode": "04000", "addr:street": "نهج أول نوفمبر 1954", "amenity": "hospital", "building": "yes", "building:levels": "2", "height": "11.45", "roof:colour": "#dd7e6b", "roof:height": "2.62", "roof:shape": "hipped"}}, {"name": "", "latitude": 35.8793347, "longitude": 7.1091827, "source": "osm", "_tags": {"addr:city": "Oum El Bouaghi", "addr:postcode": "04000", "addr:street": "نهج أول نوفمبر 1954", "amenity": "hospital", "building": "yes", "building:levels": "2", "height": "11.45", "roof:colour": "#dd7e6b", "roof:height": "2.62", "roof:shape": "hipped"}}, {"name": "", "latitude": 35.8790793, "longitude": 7.1084581, "source": "osm", "_tags": {"addr:city": "Oum El Bouaghi", "addr:postcode": "04000", "addr:street": "نهج أول نوفمبر 1954", "amenity": "hospital", "building": "yes", "building:levels": "2", "height": "11.45", "roof:colour": "#dd7e6b", "roof:height": "2.62", "roof:shape": "hipped", "start_date": "1980"}}, {"name": "", "latitude": 35.8791536, "longitude": 7.1087847, "source": "osm", "_tags": {"addr:city": "Oum El Bouaghi", "addr:postcode": "04000", "addr:street": "نهج أول نوفمبر 1954", "amenity": "hospital", "building": "yes", "building:levels": "2", "height": "11.45", "roof:colour": "#dd7e6b", "roof:height": "2.62", "roof:shape": "hipped"}}, {"name": "", "latitude": 35.8791466, "longitude": 7.1089238, "source": "osm", "_tags": {"addr:city": "Oum El Bouaghi", "addr:postcode": "04000", "addr:street": "نهج أول نوفمبر 1954", "amenity": "hospital", "building": "yes", "building:levels": "2", "height": "11.45", "roof:colour": "#dd7e6b", "roof:height": "2.62", "roof:shape": "hipped"}}, {"name": "", "latitude": 35.8792048, "longitude": 7.1089554, "source": "osm", "_tags": {"addr:city": "Oum El Bouaghi", "addr:postcode": "04000", "addr:street": "نهج أول نوفمبر 1954", "amenity": "hospital", "building": "yes", "building:levels": "2", "height": "11.45", "roof:colour": "#dd7e6b", "roof:height": "2.62", "roof:shape": "hipped"}}, {"name": "", "latitude": 35.8819839, "longitude": 7.0945427, "source": "osm", "_tags": {"addr:city": "Oum El Bouaghi", "addr:postcode": "04000", "amenity": "hospital", "building": "house", "building:levels": "2", "healthcare": "hospital", "height": "6", "start_date": "1998"}}, {"name": "مستشفى إبن سينا", "latitude": 35.8791593, "longitude": 7.1090798, "source": "osm", "_tags": {"addr:city": "Oum El Bouaghi", "addr:postcode": "04000", "addr:street": "نهج أول نوفمبر 1954", "amenity": "hospital", "barrier": "wall", "healthcare": "hospital", "healthcare:speciality": "emergency", "name": "مستشفى إبن سينا", "name:ar": "مستشفى إبن سينا", "name:en": "Iben Sina Hospital", "type": "multipolygon"}}]