[{"name": "Service d'Urgence Sahloul", "latitude": 35.8377222, "longitude": 10.5891304, "source": "osm", "_tags": {"amenity": "hospital", "name": "Service d'Urgence Sahloul"}}, {"name": "مستشفى الرابطة", "latitude": 36.8021425, "longitude": 10.1568023, "source": "osm", "_tags": {"amenity": "hospital", "building": "hospital", "name": "مستشفى الرابطة", "name:ar": "مستشفى الرابطة", "name:fr": "Hôpital La Rabta"}}, {"name": "Hôpital Sbikha", "latitude": 35.9292217, "longitude": 10.0214701, "source": "osm", "_tags": {"amenity": "hospital", "healthcare": "clinic", "name": "Hôpital Sbikha"}}, {"name": "Centre Amel", "latitude": 36.537361, "longitude": 10.0686408, "source": "osm", "_tags": {"amenity": "hospital", "healthcare": "hospital", "name": "Centre Amel"}}, {"name": "المستشفى الجهوي فوشانة", "latitude": 36.6974127, "longitude": 10.1696931, "source": "osm", "_tags": {"amenity": "hospital", "healthcare": "hospital", "name": "المستشفى الجهوي فوشانة", "name:ar": "المستشفى الجهوي فوشانة", "name:fr": "Hôpital régional de fouchana"}}, {"name": "Cabinet dentaire Dr Lina Attia", "latitude": 36.7923403, "longitude": 10.176895, "source": "osm", "_tags": {"addr:city": "Tunis", "addr:housenumber": "6", "addr:postcode": "1008", "addr:street": "Rue Sidi El Bechir", "amenity": "hospital", "contact:facebook": "https://www.facebook.com/profile.php?id=61566754815639&mibextid=LQQJ4d", "email": "attialina44@gmail.com", "healthcare": "hospital", "healthcare:speciality": "dentist", "level": "3", "name": "Cabinet dentaire Dr Lina Attia", "opening_hours": "Mo-Fr 09:00-18:00", "phone": "+21623422232"}}, {"name": "cantre de dyalise", "latitude": 35.8538177, "longitude": 10.6052634, "source": "osm", "_tags": {"addr:city": "سوسة", "addr:postcode": "4051", "addr:street": "شارع زهير بن أبي سلمى", "amenity": "hospital", "emergency": "yes", "healthcare": "hospital", "healthcare:speciality": "nephrology", "name": "cantre de dyalise"}}, {"name": "المستشفى الجامعي بسهلول", "latitude": 35.837203, "longitude": 10.5903678, "source": "osm", "_tags": {"addr:city": "Hammam Sousse", "addr:postcode": "4011", "addr:street": "Route de la Ceinture", "amenity": "hospital", "healthcare": "hospital", "name": "المستشفى الجامعي بسهلول", "name:ar": "المستشفى الجامعي بسهلول", "name:en": "Sahloul University Hospital", "name:fr": "Hôpital Universitaire Sahloul", "phone": "+216 73 241 411", "wheelchair": "yes", "wikidata": "Q30254035", "wikimedia_commons": "Category:Hôpital Sahloul"}}, {"name": "مستشفى الرازي", "latitude": 36.8108089, "longitude": 10.0830765, "source": "osm", "_tags": {"addr:city": "منوبة", "addr:country": "TN", "addr:governorate": "Manouba", "addr:housename": "Hôpital Razi", "addr:housenumber": "1", "addr:postcode": "2010", "addr:street": "نهج البرتقال", "amenity": "hospital", "barrier": "wall", "is_in:city": "Manouba", "is_in:country": "Tunisia", "is_in:governorate": "Manouba", "leisure": "garden", "name": "مستشفى الرازي", "name:ar": "مستشفى الرازي", "name:en": "AL RAZI Hospital", "name:fr": "Hôpital Razi", "wikidata": "Q30279976"}}, {"name": "مستشفى عزيزة عثمانة", "latitude": 36.7967248, "longitude": 10.1688067, "source": "osm", "_tags": {"amenity": "hospital", "healthcare": "hospital", "name": "مستشفى عزيزة عثمانة", "name:ar": "مستشفى عزيزة عثمانة", "name:fr": "Hôpital Aziza Othmana", "phone": "+216 71 151 300", "wikidata": "Q4027024", "wikimedia_commons": "Category:Hôpital Aziza Othmana"}}, {"name": "مستشفى شارل نيكول", "latitude": 36.8027158, "longitude": 10.1607361, "source": "osm", "_tags": {"addr:city": "تونس", "amenity": "hospital", "emergency": "yes", "healthcare": "hospital", "name": "مستشفى شارل نيكول", "name:ar": "مستشفى شارل نيكول", "name:en": "Charles Nicolle Hospital", "name:fr": "Hôpital Charles Nicolle", "wikidata": "Q3145149", "wikimedia_commons": "Category:Hôpital Charles Nicolle", "wikipedia": "ar:مستشفى شارل نيكول"}}, {"name": "مستشفى الرابطة", "latitude": 36.8022858, "longitude": 10.1550655, "source": "osm", "_tags": {"amenity": "hospital", "barrier": "wall", "name": "مستشفى الرابطة", "name:ar": "مستشفى الرابطة", "name:fr": "Hôpital La Rabta", "wikidata": "Q12242607"}}, {"name": "المستشفى العسكري الأصلي للتعليم بتونس", "latitude": 36.7859024, "longitude": 10.1785617, "source": "osm", "_tags": {"addr:city": "تونس", "addr:city:ar": "تونس", "amenity": "hospital", "name": "المستشفى العسكري الأصلي للتعليم بتونس", "name:ar": "المستشفى العسكري الأصلي للتعليم بتونس", "name:fr": "Hôpital Militaire Principal d'Instruction de Tunis", "opening_hours": "24/7", "phone": "+216 71 391 133", "website": "http://www.hopmil.defense.tn/", "wikidata": "Q16508249", "wikimedia_commons": "Category:Military hospital of Tunis", "wikipedia": "fr:Hôpital militaire de Tunis"}}, {"name": "المستشفى الجهوي برادس", "latitude": 36.7660492, "longitude": 10.2610136, "source": "osm", "_tags": {"amenity": "hospital", "healthcare": "hospital", "name": "المستشفى الجهوي برادس", "name:ar": "المستشفى الجهوي برادس", "name:fr": "Hôpital Régionale de Radès"}}, {"name": "", "latitude": 36.7693819, "longitude": 10.2325284, "source": "osm", "_tags": {"amenity": "hospital"}}, {"name": "Dispensaire Mégrine", "latitude": 36.7706414, "longitude": 10.2294866, "source": "osm", "_tags": {"amenity": "hospital", "name": "Dispensaire Mégrine"}}, {"name": "المستشفى الجامعي محمد الطاهر المعموري بنابل", "latitude": 36.4375334, "longitude": 10.6742811, "source": "osm", "_tags": {"addr:city": "نابل", "addr:city:ar": "نابل", "amenity": "hospital", "emergency": "yes", "healthcare": "hospital", "name": "المستشفى الجامعي محمد الطاهر المعموري بنابل", "name:ar": "المستشفى الجامعي محمد الطاهر المعموري بنابل", "name:fr": "Hôpital Régional Mohamed Taher Al Maamouri"}}, {"name": "Hôpital Ernest Conseil", "latitude": 36.8016946, "longitude": 10.1561283, "source": "osm", "_tags": {"amenity": "hospital", "building": "hospital", "healthcare": "hospital", "name": "Hôpital Ernest Conseil", "name:fr": "Hôpital Ernest Conseil"}}, {"name": "مستشفى الرابطة", "latitude": 36.8018656, "longitude": 10.1547409, "source": "osm", "_tags": {"amenity": "hospital", "building": "hospital", "name": "مستشفى الرابطة", "name:ar": "مستشفى الرابطة", "name:fr": "Hôpital La Rabta"}}, {"name": "مستشفى الرابطة", "latitude": 36.8021598, "longitude": 10.155596, "source": "osm", "_tags": {"amenity": "hospital", "building": "hospital", "healthcare": "hospital", "name": "مستشفى الرابطة", "name:ar": "مستشفى الرابطة", "name:fr": "Hôpital La Rabta"}}, {"name": "المعهد الوطني لأمراض الأعصاب", "latitude": 36.801038, "longitude": 10.1582164, "source": "osm", "_tags": {"amenity": "hospital", "building": "yes", "name": "المعهد الوطني لأمراض الأعصاب", "name:ar": "المعهد الوطني لأمراض الأعصاب", "name:fr": "Institut National de Neurobiologie"}}, {"name": "المعهد الوطني لأمراض الأعصاب", "latitude": 36.8055521, "longitude": 10.1569961, "source": "osm", "_tags": {"amenity": "hospital", "building": "yes", "name": "المعهد الوطني لأمراض الأعصاب", "name:ar": "المعهد الوطني لأمراض الأعصاب", "name:fr": "Centre Institut de l'Imagerie par Résonance Magnétique (IRM)"}}, {"name": "مستشفى الأطفال", "latitude": 36.806653, "longitude": 10.1589847, "source": "osm", "_tags": {"addr:city": "تونس", "addr:city:ar": "تونس", "amenity": "hospital", "building": "yes", "emergency": "yes", "healthcare": "hospital", "healthcare:speciality": "paediatrics;surgery_perdiatric;pediatric_reanimation", "language:ar": "main", "name": "مستشفى الأطفال", "name:ar": "مستشفى الأطفال", "name:fr": "Hôpital d'Enfants", "official_name": "مستشفى البشير حمزة للأطفال", "official_name:ar": "مستشفى البشير حمزة للأطفال", "wikidata": "Q12242590", "wikimedia_commons": "Category:Hôpital Béchir Hamza", "wikipedia": "ar:مستشفى البشير حمزة للأطفال", "wikipedia:ar": "مستشفى البشير حمزة للأطفال"}}, {"name": "معهد الهادي الرايس لأمراض العيون", "latitude": 36.8063091, "longitude": 10.1598061, "source": "osm", "_tags": {"addr:city": "Tunis", "addr:postcode": "1006", "addr:street": "شارع 9 أفريل 1938", "addr:street:ar": "شارع 9 أفريل 1938", "addr:street:fr": "Boulevard 9 Avril 1938", "amenity": "hospital", "building": "yes", "name": "معهد الهادي الرايس لأمراض العيون", "name:ar": "معهد الهادي الرايس لأمراض العيون", "name:fr": "Institut Hedi Raies D'ophtalmologie", "phone": "+216 71 263 701", "wheelchair": "yes", "wikidata": "Q12244333", "wikipedia": "ar:معهد الهادي الرايس لأمراض العيون"}}, {"name": "معهد صالح عزيز", "latitude": 36.8071912, "longitude": 10.1583476, "source": "osm", "_tags": {"addr:city": "تونس", "addr:city:ar": "تونس", "amenity": "hospital", "building": "yes", "healthcare": "hospital", "name": "معهد صالح عزيز", "name:ar": "معهد صالح عزيز", "name:fr": "Institut Salah-Azaïz", "website": "https://www.institutsalahazaiez.com", "wikidata": "Q3151812", "wikipedia": "ar:معهد صالح عزيز", "wikipedia:ar": "معهد صالح عزيز"}}, {"name": "Dispensaire de Zriba", "latitude": 36.3540258, "longitude": 10.2073752, "source": "osm", "_tags": {"amenity": "hospital", "barrier": "wall", "designation": "Dispensaire de Zriba", "emergency": "no", "name": "Dispensaire de Zriba"}}, {"name": "Maternité Farhat Hached", "latitude": 35.8295917, "longitude": 10.626108, "source": "osm", "_tags": {"amenity": "hospital", "building": "yes", "healthcare": "hospital", "name": "Maternité Farhat Hached"}}, {"name": "Hôpital Farhat hached;Service des Urgences Farhat hached", "latitude": 35.8300096, "longitude": 10.6288344, "source": "osm", "_tags": {"addr:city": "سوسة", "addr:city:ar": "سوسة", "addr:postcode": "4031", "addr:street": "Avenue Ibn Jazzar", "amenity": "hospital", "building": "yes", "emergency": "yes", "healthcare": "hospital", "layer": "1", "name": "Hôpital Farhat hached;Service des Urgences Farhat hached", "phone": "+216 73 222 293"}}, {"name": "Hôpital Circonscription Fattouma Limam - Menzel Bouzelfa", "latitude": 36.6912844, "longitude": 10.5885509, "source": "osm", "_tags": {"addr:postcode": "8010", "addr:street": "Rue Mongi Slim", "amenity": "hospital", "barrier": "wall", "fax": "+216 72 292 593", "healthcare": "hospital", "name": "Hôpital Circonscription Fattouma Limam - Menzel Bouzelfa", "phone": "+216 72 292 091"}}, {"name": "", "latitude": 36.7643555, "longitude": 10.2238955, "source": "osm", "_tags": {"amenity": "hospital", "barrier": "wall", "healthcare": "hospital"}}, {"name": "المستوصف المحلي", "latitude": 36.0307797, "longitude": 10.5084995, "source": "osm", "_tags": {"amenity": "hospital", "healthcare": "hospital", "name": "المستوصف المحلي", "name:ar": "المستوصف المحلي", "name:fr": ""}}, {"name": "المستشفى الجهوي ببن عروس", "latitude": 36.7325259, "longitude": 10.2478009, "source": "osm", "_tags": {"addr:city": "Nouvelle Médina", "addr:postcode": "2063", "addr:street": "Route de Mornag", "amenity": "hospital", "emergency": "yes", "healthcare": "hospital", "name": "المستشفى الجهوي ببن عروس", "name:ar": "المستشفى الجهوي ببن عروس", "name:fr": "Hôpital Régional de Ben Arous", "operator": "Ministère de la Santé publique", "operator:type": "public"}}, {"name": "مستشفى النفيضة", "latitude": 36.1342585, "longitude": 10.3676661, "source": "osm", "_tags": {"addr:city": "النفيضة", "amenity": "hospital", "healthcare": "hospital", "name": "مستشفى النفيضة", "name:ar": "مستشفى النفيضة", "name:fr": "Hôpital Enfidha"}}, {"name": "مستشفى الدندان", "latitude": 36.8018822, "longitude": 10.1101233, "source": "osm", "_tags": {"addr:city": "الدندان", "amenity": "hospital", "healthcare": "hospital", "name": "مستشفى الدندان", "name:ar": "مستشفى الدندان", "name:fr": "Hôpital Den Den"}}, {"name": "Hôpital d'Hammamet", "latitude": 36.3998828, "longitude": 10.6156199, "source": "osm", "_tags": {"amenity": "hospital", "emergency": "yes", "name": "Hôpital d'Hammamet"}}, {"name": "المركز العلاجي الوسيط لامروج 2", "latitude": 36.7419579, "longitude": 10.1970051, "source": "osm", "_tags": {"amenity": "hospital", "building": "hospital", "name": "المركز العلاجي الوسيط لامروج 2", "name:ar": "المركز العلاجي الوسيط لامروج 2", "name:fr": "Hopital intermediaire Mourouj 2"}}, {"name": "مستوصف", "latitude": 36.7452458, "longitude": 10.3066013, "source": "osm", "_tags": {"addr:city": "الزهراء", "addr:city:ar": "الزهراء", "addr:postcode": "2034", "addr:street": "شارع الحبيب بورقيبة", "addr:street:ar": "شارع الحبيب بورقيبة", "building": "yes", "healthcare": "hospital", "healthcare:speciality": "general", "name": "مستوصف", "name:ar": "مستوصف", "name:fr": "Dispensaire", "operator": "L'État"}}, {"name": "Clinique Amen Nabeul", "latitude": 36.4451761, "longitude": 10.7151305, "source": "osm", "_tags": {"addr:city": "Nabeul", "addr:street": "Avenue Hédi Nouira", "amenity": "clinic", "healthcare": "hospital", "name": "Clinique Amen Nabeul", "phone": "+216 70 130 320"}}, {"name": "Polyclinique Hammamet", "latitude": 36.4059671, "longitude": 10.5915454, "source": "osm", "_tags": {"amenity": "hospital", "healthcare": "hospital", "name": "Polyclinique Hammamet"}}, {"name": "مستشفى حبيب ثامر", "latitude": 36.7862613, "longitude": 10.1771182, "source": "osm", "_tags": {"addr:street": "Rue Ali Ben Ayed", "amenity": "hospital", "healthcare": "hospital", "name": "مستشفى حبيب ثامر", "name:ar": "مستشفى حبيب ثامر", "name:fr": "Hôpital Habib Thameur", "phone": "+216 71 492 773", "wikidata": "Q12242598", "wikimedia_commons": "Category:Hôpital Habib Thameur"}}, {"name": "مركز الإصابات والحروق البليغة", "latitude": 36.7473178, "longitude": 10.2142892, "source": "osm", "_tags": {"addr:city": "Ben Arous", "addr:postcode": "2013", "addr:street": "Rue du 1er Mai", "alt_name": "Hôpital Mohamed Bouazizi", "amenity": "hospital", "emergency": "yes", "healthcare": "hospital", "healthcare:speciality": "intensive;emergency;dermatology", "name": "مركز الإصابات والحروق البليغة", "name:ar": "مركز الإصابات والحروق البليغة", "name:fr": "Centre de traumatologie et des grands brûlés", "operator": "Ministère de la Santé publique", "operator:type": "public", "source:alt_name": "Wikipedia", "wikidata": "Q4026962", "wikipedia": "fr:Centre de traumatologie et des grands brûlés"}}, {"name": "SOS Animaux Tunisie", "latitude": 36.4835872, "longitude": 10.6998327, "source": "osm", "_tags": {"amenity": "hospital", "healthcare": "hospital", "name": "SOS Animaux Tunisie"}}, {"name": "", "latitude": 36.5949325, "longitude": 10.4951381, "source": "osm", "_tags": {"addr:city": "Grombalia", "addr:street": "Avenue Farhat Hached", "amenity": "hospital", "healthcare": "hospital", "name:fr": "Hôpital Régional de Grombalia", "operator": "Ministère de la Santé publique", "operator:type": "public", "phone": "+216 72 255 212"}}, {"name": "Hôpital de Soliman", "latitude": 36.7097823, "longitude": 10.4813737, "source": "osm", "_tags": {"amenity": "hospital", "healthcare": "hospital", "name": "Hôpital de Soliman", "name:fr": "Hôpital de Soliman"}}, {"name": "Polyclinique Hammam-Lif", "latitude": 36.7260173, "longitude": 10.3405286, "source": "osm", "_tags": {"amenity": "hospital", "healthcare": "hospital", "name": "Polyclinique Hammam-Lif"}}, {"name": "المستشفى الجهوي بزغوان", "latitude": 36.4166794, "longitude": 10.1322966, "source": "osm", "_tags": {"addr:street": "شارع البيئة", "addr:street:ar": "شارع البيئة", "addr:street:fr": "Avenue de l'Environnement", "amenity": "hospital", "healthcare": "hospital", "name": "المستشفى الجهوي بزغوان", "name:ar": "المستشفى الجهوي بزغوان", "name:fr": "Hôpital Régional de Zaghouan", "phone": "+216 72 676 700"}}, {"name": "المركز الطبي ابن خلدون", "latitude": 35.8455269, "longitude": 10.5914183, "source": "osm", "_tags": {"addr:city": "Hammam Sousse", "addr:postcode": "4011", "addr:street": "Avenue de la liberté", "amenity": "hospital", "email": "contact@cmik.tn", "fax": "+216 73 363 511", "healthcare": "hospital", "name": "المركز الطبي ابن خلدون", "name:ar": "المركز الطبي ابن خلدون", "name:fr": "Centre Médical Ibn Khaldoun", "phone": "+216 73 363 513;+216 73 363 500", "website": "https://www.cmik.tn/"}}, {"name": "مصحة الكرنيش", "latitude": 35.8370405, "longitude": 10.6314168, "source": "osm", "_tags": {"addr:city": "Sousse", "addr:housenumber": "1", "addr:postcode": "4000", "addr:street": "Boulevard Mongi Bali", "amenity": "clinic", "building": "yes", "email": "contact@clinique-lacorniche.com", "fax": "+216 73 222 800", "healthcare": "hospital", "name": "مصحة الكرنيش", "name:ar": "مصحة الكرنيش", "name:fr": "Clinique La Corniche", "phone": "+216 73 222 666", "website": "http://www.clinique-lacorniche.com/"}}, {"name": "جراحة التجميل د.كمال العربى", "latitude": 35.8304262, "longitude": 10.6401654, "source": "osm", "_tags": {"addr:city": "سوسة", "addr:housenumber": "5", "addr:postcode": "4000", "addr:street": "شارع الحبيب بورقيبة", "addr:street:ar": "شارع الحبيب بورقيبة", "amenity": "hospital", "email": "larbi@dr.com", "emergency": "no", "healthcare": "hospital", "healthcare:speciality": "anaesthetics;plastic_surgery", "name": "جراحة التجميل د.كمال العربى", "name:ar": "جراحة التجميل د.كمال العربى", "operator": "د كمال العربى", "phone": "+216 73 220 107"}}, {"name": "Hôpital Kondar", "latitude": 35.9323214, "longitude": 10.2991635, "source": "osm", "_tags": {"amenity": "hospital", "healthcare": "hospital", "name": "Hôpital Kondar"}}, {"name": "hopital Hergla", "latitude": 36.0288295, "longitude": 10.4950296, "source": "osm", "_tags": {"amenity": "hospital", "emergency": "no", "healthcare": "hospital", "name": "hopital Hergla"}}, {"name": "مركز رعاية الأم و الطفل بالملاسين", "latitude": 36.7900618, "longitude": 10.162069, "source": "osm", "_tags": {"amenity": "hospital", "healthcare": "hospital", "name": "مركز رعاية الأم و الطفل بالملاسين", "name:ar": "مركز رعاية الأم و الطفل بالملاسين", "name:fr": "Centre de protection maternelle et infantile Mellassine"}}, {"name": "مركز الصحة الأساسية بحي هلال", "latitude": 36.781654, "longitude": 10.1685527, "source": "osm", "_tags": {"amenity": "hospital", "healthcare": "hospital", "name": "مركز الصحة الأساسية بحي هلال", "name:ar": "مركز الصحة الأساسية بحي هلال", "name:fr": "Centre de santé de base Hay Hlel"}}, {"name": "Hospital F. Hached", "latitude": 35.8293228, "longitude": 10.6275001, "source": "osm", "_tags": {"amenity": "hospital", "healthcare": "hospital", "name": "Hospital F. Hached"}}, {"name": "مصحة قوات الأمن الداخلي", "latitude": 35.8225175, "longitude": 10.6334513, "source": "osm", "_tags": {"amenity": "hospital", "healthcare": "hospital", "landuse": "military", "name": "مصحة قوات الأمن الداخلي"}}, {"name": "مستشفى حبيب بيار القلعة الكبرى", "latitude": 35.8895431, "longitude": 10.5372826, "source": "osm", "_tags": {"amenity": "hospital", "healthcare": "hospital", "name": "مستشفى حبيب بيار القلعة الكبرى"}}, {"name": "Complex Sanitary Djebel Ouest", "latitude": 36.5365183, "longitude": 10.0694528, "source": "osm", "_tags": {"amenity": "hospital", "healthcare": "hospital", "name": "Complex Sanitary Djebel Ouest"}}, {"name": "Hôpital militaire Enfidha", "latitude": 36.0926755, "longitude": 10.3964814, "source": "osm", "_tags": {"amenity": "hospital", "healthcare": "hospital", "landuse": "military", "name": "Hôpital militaire Enfidha"}}, {"name": "Hopital Militaire", "latitude": 36.7855881, "longitude": 10.1781067, "source": "osm", "_tags": {"amenity": "hospital", "healthcare": "hospital", "name": "Hopital Militaire", "type": "multipolygon"}}, {"name": "المركز الوطني للزرع النخاع العظمي", "latitude": 36.8051039, "longitude": 10.1566976, "source": "osm", "_tags": {"amenity": "hospital", "building": "yes", "name": "المركز الوطني للزرع النخاع العظمي", "name:ar": "المركز الوطني للزرع النخاع العظمي", "name:fr": "Centre National de Greffe de Moelle Osseuse", "type": "multipolygon", "wikidata": "Q28961109"}}, {"name": "معهد محمد القصاب للجبر وتقويم الأعضاء", "latitude": 36.8139135, "longitude": 10.1030165, "source": "osm", "_tags": {"amenity": "hospital", "barrier": "wall", "emergency": "yes", "healthcare": "hospital", "healthcare:speciality": "orthopaedics;hand_surgery;plastic_surgery;anaesthetics;cosmetic_surgery;trauma;physiotherapy;rhumatology;radiology;diagnostic_radiology;intensive_care", "name": "معهد محمد القصاب للجبر وتقويم الأعضاء", "name:ar": "معهد محمد القصاب للجبر وتقويم الأعضاء", "name:fr": "Institut \"Mohamed T. Kassab\" d'Orthopedie", "operator": "Ministère de la santé", "type": "multipolygon", "wikidata": "Q12244357"}}, {"name": "مركز الصحة الاساسية بفوشانة", "latitude": 36.6973566, "longitude": 10.1696969, "source": "osm", "_tags": {"amenity": "hospital", "healthcare": "hospital", "name": "مركز الصحة الاساسية بفوشانة", "name:ar": "مركز الصحة الاساسية بفوشانة", "name:fr": "Hôpital régional de fouchana", "type": "multipolygon"}}, {"name": "عمادة أطباء الأسنان بتونس", "latitude": 36.7970581, "longitude": 10.1814537, "source": "osm", "_tags": {"addr:city": "تونس", "amenity": "hospital", "email": "cnomdt@gmail.com", "healthcare": "hospital", "height": "25'", "name": "عمادة أطباء الأسنان بتونس", "name:ar": "عمادة أطباء الأسنان بتونس", "name:fr": "Ordre des Médecins Dentistes de Tunisie", "phone": "0021671353638", "type": "multipolygon", "website": "https://www.cnomdt.tn/"}}]