[{"name": "Centre de Soin Illilten", "latitude": 36.5128583, "longitude": 4.4207923, "source": "osm", "_tags": {"amenity": "hospital", "name": "Centre de Soin Illilten"}}, {"name": "", "latitude": 36.3642284, "longitude": 4.2696792, "source": "osm", "_tags": {"amenity": "hospital", "emergency": "no"}}, {"name": "", "latitude": 36.3646711, "longitude": 4.2690335, "source": "osm", "_tags": {"amenity": "hospital", "emergency": "yes"}}, {"name": "", "latitude": 35.9256653, "longitude": 4.3782603, "source": "osm", "_tags": {"addr:city": "حمام الضلعة", "addr:city:ar": "حمام الضلعة", "amenity": "hospital", "healthcare": "hospital", "language:ar": "main"}}, {"name": "Centre de soin Afir", "latitude": 36.8099058, "longitude": 4.1694615, "source": "osm", "_tags": {"amenity": "hospital", "healthcare": "hospital", "name": "Centre de soin Afir", "name:ar": "مركز رعاية أعفير"}}, {"name": "", "latitude": 36.0665638, "longitude": 4.6233375, "source": "osm", "_tags": {"amenity": "hospital"}}, {"name": "الطب المدرسي", "latitude": 36.063401, "longitude": 4.6268336, "source": "osm", "_tags": {"amenity": "hospital", "name": "الطب المدرسي", "name:ar": "الطب المدرسي", "name:fr": "Médecine scolaire"}}, {"name": "Hôpital", "latitude": 36.3853436, "longitude": 4.3885898, "source": "osm", "_tags": {"amenity": "hospital", "name": "Hôpital"}}, {"name": "EPH", "latitude": 35.9182332, "longitude": 4.3783081, "source": "osm", "_tags": {"addr:postcode": "28005", "amenity": "hospital", "name": "EPH", "name:ar": "المؤسسة الاستشفائية للصحة الجوارية", "opening_hours": "24/7"}}, {"name": "Nouveau Centre de santé (non encore achevé)", "latitude": 36.257556, "longitude": 4.0370245, "source": "osm", "_tags": {"amenity": "hospital", "healthcare": "centre", "name": "Nouveau Centre de santé (non encore achevé)", "name:fr": "Nouveau Centre de santé (non encore achevé)"}}, {"name": "مستوصف تالة تقانة", "latitude": 36.7978511, "longitude": 4.2969111, "source": "osm", "_tags": {"amenity": "hospital", "name": "مستوصف تالة تقانة", "name:ar": "مستوصف تالة تقانة", "name:fr": "Disponsair"}}, {"name": "Centre d'imagerie médicale mahmoudi", "latitude": 36.700881, "longitude": 4.039308, "source": "osm", "_tags": {"addr:housenumber": "026112333", "addr:street": "Rue des Frères Belhadj", "amenity": "hospital", "name": "Centre d'imagerie médicale mahmoudi", "name:fr": "Centre d'imagerie médicale mahmoudi"}}, {"name": "مستشفى متعدد الخدمات", "latitude": 36.1208625, "longitude": 4.3738074, "source": "osm", "_tags": {"amenity": "hospital", "name": "مستشفى متعدد الخدمات", "name:ar": "عيادة متعددةالخدمات", "name:en": "عيادة متعددة الخدمات", "name:fr": "Polyclinique"}}, {"name": "", "latitude": 36.0004396, "longitude": 3.7541259, "source": "osm", "_tags": {"amenity": "hospital"}}, {"name": "", "latitude": 36.6833773, "longitude": 4.0075173, "source": "osm", "_tags": {"amenity": "hospital", "healthcare": "hospital"}}, {"name": "", "latitude": 35.9459876, "longitude": 4.6846687, "source": "osm", "_tags": {"amenity": "hospital"}}, {"name": "Maternité", "latitude": 36.5372167, "longitude": 3.9538842, "source": "osm", "_tags": {"amenity": "hospital", "healthcare": "hospital", "name": "Maternité"}}, {"name": "Adhkhchim", "latitude": 36.5036004, "longitude": 3.9175313, "source": "osm", "_tags": {"amenity": "hospital", "name": "Adhkhchim"}}, {"name": "Polyclinique", "latitude": 35.9574251, "longitude": 3.8487679, "source": "osm", "_tags": {"amenity": "hospital", "name": "Polyclinique"}}, {"name": "مركز تحقين الدم", "latitude": 36.7126975, "longitude": 4.0381155, "source": "osm", "_tags": {"amenity": "hospital", "healthcare": "hospital", "name": "مركز تحقين الدم", "name:ar": "مركز تحقين الدم", "name:fr": "Centre transfusion de sang"}}, {"name": "Centre de soins Azouza", "latitude": 36.6568445, "longitude": 3.7330109, "source": "osm", "_tags": {"healthcare": "hospital", "name": "Centre de soins Azouza", "name:en": "Azouza Medical Centre"}}, {"name": "Hôpital Akloul Ali", "latitude": 36.4588425, "longitude": 4.5258336, "source": "osm", "_tags": {"amenity": "hospital", "emergency": "yes", "name": "Hôpital Akloul Ali"}}, {"name": "Ancien Hopital", "latitude": 36.4651947, "longitude": 4.5320274, "source": "osm", "_tags": {"addr:city": "Akbou", "amenity": "hospital", "name": "Ancien Hopital"}}, {"name": "Hôpital Mohamed Boudiaf ⵙⵠⵉⵜⴰⵔ ⵎⵓⵀⴰⵎⴻⴷ ⴱⵓⵝⵖⴰⴼ مستشفى محمد بوضياف", "latitude": 36.3698517, "longitude": 3.8839042, "source": "osm", "_tags": {"addr:postcode": "10000", "amenity": "hospital", "emergency": "yes", "healthcare": "hospital", "name": "Hôpital Mohamed Boudiaf ⵙⵠⵉⵜⴰⵔ ⵎⵓⵀⴰⵎⴻⴷ ⴱⵓⵝⵖⴰⴼ مستشفى محمد بوضياف", "name:ar": "مستشفى محمد بوضياف", "name:fr": "Hôpital Mohamed Boudiaf", "name:kab": "ⵙⵠⵉⵜⴰⵔ ⵎⵓⵀⴰⵎⴻⴷ ⴱⵓⵝⵖⴰⴼ"}}, {"name": "Hôpital Rachid Belhocine", "latitude": 36.6144214, "longitude": 4.6989721, "source": "osm", "_tags": {"addr:city": "Sidi-Aïch", "amenity": "hospital", "building:levels": "4", "email": "epspsidiaich.dz@gmail.com", "emergency": "yes", "fax": "+21334860204", "healthcare": "hospital", "language:ar": "yes", "name": "Hôpital Rachid Belhocine", "name:ar": "مستشفى رشيد بلحسين", "name:fr": "Hôpital Rachid Belhocine", "name:kab": "Sbiṭar Racid Belḥusin (Buzerman)", "phone": "+21334860203"}}, {"name": "Hopital", "latitude": 36.3604458, "longitude": 4.3215519, "source": "osm", "_tags": {"amenity": "hospital", "name": "Hopital"}}, {"name": "Centre de Santé", "latitude": 36.4153248, "longitude": 4.3410009, "source": "osm", "_tags": {"amenity": "hospital", "name": "Centre de Santé"}}, {"name": "service des urgences", "latitude": 36.370095, "longitude": 3.8844209, "source": "osm", "_tags": {"addr:city": "Bouira", "addr:postcode": "10000", "addr:street": "Rue Henach Ahmed", "building": "yes", "building:levels": "2", "healthcare": "hospital", "healthcare:speciality": "emergency", "name": "service des urgences"}}, {"name": "clinique de oued edhous", "latitude": 36.3687725, "longitude": 3.9009877, "source": "osm", "_tags": {"addr:city": "Bouira", "addr:postcode": "10000", "amenity": "hospital", "building": "yes", "emergency": "yes", "healthcare": "clinic", "healthcare:speciality": "general", "name": "clinique de oued edhous"}}, {"name": "Centre de santé", "latitude": 36.2202299, "longitude": 3.8149362, "source": "osm", "_tags": {"amenity": "hospital", "emergency": "yes", "name": "Centre de santé"}}, {"name": "Hôpital Psychiatrique Fernan Hanafi", "latitude": 36.6990698, "longitude": 4.1141727, "source": "osm", "_tags": {"addr:city": "Oued Aissi Tizi Ouzou", "addr:housenumber": "RN12", "addr:postcode": "15191", "amenity": "hospital", "emergency": "yes", "hospital": "psychiatric", "name": "Hôpital Psychiatrique Fernan Hanafi"}}, {"name": "Dispensaire", "latitude": 36.4990928, "longitude": 3.9375585, "source": "osm", "_tags": {"amenity": "hospital", "name": "Dispensaire"}}, {"name": "Polyclinique de Boghni", "latitude": 36.5387347, "longitude": 3.9568888, "source": "osm", "_tags": {"amenity": "hospital", "healthcare": "hospital", "name": "Polyclinique de Boghni"}}, {"name": "Sbiṭaṛ n Vuɣni", "latitude": 36.5376129, "longitude": 3.9544889, "source": "osm", "_tags": {"amenity": "hospital", "healthcare": "hospital", "name": "Sbiṭaṛ n Vuɣni"}}, {"name": "Hôpital", "latitude": 36.0708147, "longitude": 4.4739894, "source": "osm", "_tags": {"amenity": "hospital", "healthcare": "hospital", "name": "Hôpital"}}, {"name": "", "latitude": 35.8923708, "longitude": 3.767395, "source": "osm", "_tags": {"amenity": "hospital", "emergency": "yes", "healthcare": "hospital", "name:ar": "المؤسسة العمومية الإستشفائية سيدي عيسى", "name:fr": "EPH Sidi Aissa", "short_name": "EPH"}}, {"name": "Établissement de santé public de proximité", "latitude": 35.8838839, "longitude": 3.7841812, "source": "osm", "_tags": {"amenity": "hospital", "name": "Établissement de santé public de proximité", "name:ar": "المؤسسة العمومية للصحة الجوارية", "name:fr": "Établissement de santé publique de proximité"}}, {"name": "Hôpital de Larbâa N'Aït Irathen", "latitude": 36.6446634, "longitude": 4.1993199, "source": "osm", "_tags": {"addr:city": "Larbaa N'Aït Irathen", "amenity": "hospital", "emergency": "yes", "name": "Hôpital de Larbâa N'Aït Irathen"}}, {"name": "EPSP Sidi Aich", "latitude": 36.6136141, "longitude": 4.6883612, "source": "osm", "_tags": {"amenity": "hospital", "contact:email": "epspsidiaich.dz@gmail.com", "contact:website": "http://www.epsp-sidiaich.dz/", "healthcare": "hospital", "name": "EPSP Sidi Aich", "name:ar": "المؤسسة العمومية للصحة الجوارية سيدي عيش", "name:fr": "Etablissement Public de Santé de proximité Sidi Aïch", "name:kab": "Sbitar Aqdim"}}, {"name": "Hôpital pour enfants cardiaques", "latitude": 36.7278521, "longitude": 3.9691108, "source": "osm", "_tags": {"amenity": "hospital", "emergency": "yes", "healthcare": "vaccination_centre", "healthcare:speciality": "cardiology;vaccination;covid19", "name": "Hôpital pour enfants cardiaques", "vaccination": "covid19"}}, {"name": "Hôpital Sidi Belloua Sanatorium", "latitude": 36.7268909, "longitude": 4.0652282, "source": "osm", "_tags": {"addr:city": "Redjaouna", "amenity": "hospital", "emergency": "yes", "name": "Hôpital Sidi Belloua Sanatorium"}}, {"name": "Hôpital Chahids Mahmoudi", "latitude": 36.7011814, "longitude": 4.0549472, "source": "osm", "_tags": {"addr:housenumber": "1", "addr:postcode": "15000", "amenity": "hospital", "emergency": "no", "healthcare": "hospital", "name": "Hôpital Chahids Mahmoudi", "name:ar": "مستشفى السهيد محمودي", "name:fr": "Hôpital Chahids Mahmoudi", "name:kab": "Sbiṭar Maḥmudi", "phone": "+213 (0) 26 11 00 38"}}, {"name": "Hôpital Nedir Mohamed", "latitude": 36.7085794, "longitude": 4.0546907, "source": "osm", "_tags": {"amenity": "hospital", "emergency": "yes", "healthcare": "hospital", "name": "Hôpital Nedir Mohamed", "name:ar": "مستشفى ندير محمد", "name:fr": "Hôpital Nedir Mohamed", "name:kab": "Sbiṭar Nadir Muḥamed", "phone": "026 21 13 16"}}, {"name": "Hôpital de Medjana", "latitude": 36.1303354, "longitude": 4.6667256, "source": "osm", "_tags": {"addr:city": "Medjana", "amenity": "hospital", "emergency": "yes", "name": "Hôpital de Medjana", "name:ar": "مستشفى مجانة", "name:fr": "Hôpital de Medjana"}}, {"name": "Polyclinique de Mekla", "latitude": 36.6856118, "longitude": 4.2679515, "source": "osm", "_tags": {"amenity": "hospital", "name": "Polyclinique de Mekla"}}, {"name": "", "latitude": 35.9209951, "longitude": 4.3762187, "source": "osm", "_tags": {"addr:city": "حمام الضلعة", "addr:city:ar": "حمام الضلعة", "amenity": "hospital", "healthcare": "hospital", "language:ar": "main"}}, {"name": "Centre de santé", "latitude": 36.3379053, "longitude": 4.1857555, "source": "osm", "_tags": {"amenity": "hospital", "healthcare": "hospital", "name": "Centre de santé"}}, {"name": "Hôpital Krim Belkacem", "latitude": 36.5318343, "longitude": 3.8304304, "source": "osm", "_tags": {"addr:city": "Draâ El Mizan", "addr:city:ar": "ذراع الميزان", "amenity": "hospital", "healthcare": "hospital", "name": "Hôpital Krim Belkacem", "name:ar": "مستشفى كريم بلقاسم"}}, {"name": "مستشفى", "latitude": 35.8766765, "longitude": 3.7768694, "source": "osm", "_tags": {"amenity": "hospital", "emergency": "yes", "healthcare": "hospital", "name": "مستشفى", "name:ar": "مستشفى"}}, {"name": "Ammas n Tujjya d Tazmert Gerib Mulud", "latitude": 36.6053047, "longitude": 4.1173015, "source": "osm", "_tags": {"amenity": "hospital", "healthcare": "hospital", "name": "Ammas n Tujjya d Tazmert Gerib Mulud"}}, {"name": "Centre médical de la police", "latitude": 36.3770573, "longitude": 3.8875107, "source": "osm", "_tags": {"amenity": "hospital", "building": "yes", "building:levels": "2", "name": "Centre médical de la police"}}, {"name": "Centre de santé", "latitude": 36.3759868, "longitude": 3.8827493, "source": "osm", "_tags": {"addr:city": "bouira", "amenity": "hospital", "emergency": "no", "healthcare": "dispensory", "healthcare:speciality": "general", "name": "Centre de santé"}}, {"name": "Etablissement public de santé de proximité", "latitude": 36.3812413, "longitude": 3.9005767, "source": "osm", "_tags": {"addr:city": "Bouira", "addr:street": "Rue Amirouche Mouloud", "amenity": "hospital", "building": "yes", "building:levels": "4", "name": "Etablissement public de santé de proximité", "operator": "public"}}, {"name": "Hôpital becheloul", "latitude": 36.3128114, "longitude": 4.0684552, "source": "osm", "_tags": {"amenity": "hospital", "building": "yes", "building:levels": "3", "name": "Hôpital becheloul", "operator": "public"}}, {"name": "Centre De Santé Aïn El Hadjar", "latitude": 36.3408463, "longitude": 3.8113091, "source": "osm", "_tags": {"amenity": "hospital", "healthcare": "hospital", "name": "Centre De Santé Aïn El Hadjar"}}, {"name": "", "latitude": 36.3815662, "longitude": 3.9014041, "source": "osm", "_tags": {"addr:city": "Bouira", "addr:street": "Avenue Khalfa Boukarou", "amenity": "hospital", "barrier": "wall", "healthcare": "hospital", "height": "2.3", "operator": "public", "wall": "noise_barrier"}}, {"name": "", "latitude": 36.3812922, "longitude": 3.9005412, "source": "osm", "_tags": {"amenity": "hospital", "barrier": "wall", "healthcare": "hospital", "height": "2.4", "wall": "noise_barrier"}}, {"name": "Centre Anti-Cancer", "latitude": 36.7292654, "longitude": 3.9698086, "source": "osm", "_tags": {"addr:city": "Draâ Ben Khedda", "addr:postcode": "15100", "amenity": "hospital", "healthcare": "hospital", "healthcare:speciality": "oncology", "name": "Centre Anti-Cancer"}}, {"name": "Ṣṣbiṭaṛ Meɣnem Lunes", "latitude": 36.7597063, "longitude": 4.3893341, "source": "osm", "_tags": {"amenity": "hospital", "healthcare": "hospital", "name": "Ṣṣbiṭaṛ Meɣnem Lunes", "name:ar": "مستشفى مغنم لونس", "name:kab": "Ṣṣbitar Meɣnem Lunes"}}, {"name": "", "latitude": 36.5515492, "longitude": 4.6864172, "source": "osm", "_tags": {"amenity": "hospital", "healthcare": "hospital"}}, {"name": "Centre de Santé", "latitude": 36.4644518, "longitude": 4.5362567, "source": "osm", "_tags": {"amenity": "hospital", "healthcare": "hospital", "name": "Centre de Santé"}}, {"name": "Centre de soins Tiliouacadi", "latitude": 36.6023927, "longitude": 4.631398, "source": "osm", "_tags": {"amenity": "hospital", "healthcare": "hospital", "name": "Centre de soins Tiliouacadi", "name:ar": "مركز رعاية ثلواقاضي", "name:kab": "Ammas n udawi n Telwaqaḍi"}}, {"name": "Centre de Soin Illilten", "latitude": 36.5128079, "longitude": 4.420723, "source": "osm", "_tags": {"amenity": "hospital", "healthcare": "hospital", "name": "Centre de Soin Illilten"}}, {"name": "", "latitude": 35.9256916, "longitude": 4.378259, "source": "osm", "_tags": {"amenity": "hospital", "healthcare": "hospital"}}, {"name": "Centre de soin Afir", "latitude": 36.8098895, "longitude": 4.1695394, "source": "osm", "_tags": {"amenity": "hospital", "healthcare": "hospital", "name": "Centre de soin Afir", "name:ar": "مركز رعاية أعفير"}}, {"name": "مستشفى تاوريرت آغيل", "latitude": 36.6997432, "longitude": 4.6966253, "source": "osm", "_tags": {"addr:city": "تاوريرت آغيل", "addr:city:ar": "تاوريرت آغيل", "amenity": "hospital", "healthcare": "hospital", "name": "مستشفى تاوريرت آغيل", "name:ar": "مستشفى تاوريرت آغيل", "name:en": "Taourirt Ighil Hospital", "name:fr": "Hôpital Taourirt Ighil"}}, {"name": "", "latitude": 36.0665888, "longitude": 4.6233738, "source": "osm", "_tags": {"amenity": "hospital", "healthcare": "hospital"}}, {"name": "Etablissement hospitalier privé les Amandiers", "latitude": 36.7026504, "longitude": 4.2394763, "source": "osm", "_tags": {"addr:city": "chaib mekla", "addr:street": "route CW150", "amenity": "hospital", "healthcare": "hospital", "name": "Etablissement hospitalier privé les Amandiers", "phone": "026 37 00 02"}}, {"name": "Nouveau Centre de santé (non encore achevé)", "latitude": 36.257423, "longitude": 4.0372967, "source": "osm", "_tags": {"amenity": "hospital", "healthcare": "hospital", "name": "Nouveau Centre de santé (non encore achevé)"}}, {"name": "Centre d'imagerie médicale mahmoudi", "latitude": 36.7008896, "longitude": 4.0393588, "source": "osm", "_tags": {"amenity": "hospital", "healthcare": "hospital", "name": "Centre d'imagerie médicale mahmoudi"}}, {"name": "مستشفى متعدد الخدمات", "latitude": 36.1209769, "longitude": 4.3739893, "source": "osm", "_tags": {"amenity": "hospital", "healthcare": "hospital", "name": "مستشفى متعدد الخدمات", "name:ar": "مستشفى متعدد الخدمات"}}, {"name": "", "latitude": 36.0005693, "longitude": 3.7542117, "source": "osm", "_tags": {"amenity": "hospital", "healthcare": "hospital"}}, {"name": "", "latitude": 35.9457075, "longitude": 4.6845749, "source": "osm", "_tags": {"amenity": "hospital", "healthcare": "hospital"}}, {"name": "Adhkhchim", "latitude": 36.5037136, "longitude": 3.9176922, "source": "osm", "_tags": {"amenity": "hospital", "healthcare": "hospital", "name": "Adhkhchim"}}, {"name": "Polyclinique", "latitude": 35.9574174, "longitude": 3.8488587, "source": "osm", "_tags": {"amenity": "hospital", "healthcare": "hospital", "name": "Polyclinique"}}, {"name": "مركز تحقين الدم", "latitude": 36.7127375, "longitude": 4.0382276, "source": "osm", "_tags": {"amenity": "hospital", "healthcare": "hospital", "name": "مركز تحقين الدم", "name:ar": "مركز تحقين الدم"}}, {"name": "Clinique", "latitude": 36.7462649, "longitude": 3.8983918, "source": "osm", "_tags": {"amenity": "hospital", "healthcare": "hospital", "name": "Clinique"}}, {"name": "laboratoire belkacem", "latitude": 36.7587958, "longitude": 4.3132592, "source": "osm", "_tags": {"addr:city": "Freha", "addr:postcode": "15012", "amenity": "hospital", "healthcare": "hospital", "healthcare:speciality": "biology;analyses_medicales", "name": "laboratoire belkacem", "operator": "dr belkacem", "operator:type": "private"}}, {"name": "AMG", "latitude": 36.3676041, "longitude": 4.4867397, "source": "osm", "_tags": {"amenity": "hospital", "healthcare": "hospital", "name": "AMG"}}, {"name": "مركز الصحة", "latitude": 36.4644551, "longitude": 4.5362815, "source": "osm", "_tags": {"addr:city": "أقبو", "addr:city:ar": "أقبو", "amenity": "hospital", "building": "yes", "healthcare": "hospital", "name": "مركز الصحة", "name:ar": "مركز الصحة", "name:en": "Health center", "name:fr": "Centre de Santé", "source": "microsoft/BuildingFootprints"}}, {"name": "HOPITAL AHMED ALI AMMAR", "latitude": 36.5707714, "longitude": 4.2895274, "source": "osm", "_tags": {"addr:city": "ain el hammam", "amenity": "hospital", "healthcare": "hospital", "name": "HOPITAL AHMED ALI AMMAR", "operator": "étatique"}}, {"name": "", "latitude": 36.5432602, "longitude": 4.1072134, "source": "osm", "_tags": {"amenity": "hospital", "healthcare": "hospital"}}]