[{"name": "Clinica Rincon", "latitude": 36.7126226, "longitude": -4.2660616, "source": "osm", "_tags": {"amenity": "hospital", "designation": "Hospital", "emergency": "yes", "name": "Clinica Rincon", "source": "Local knowledge"}}, {"name": "Clinica El Seranil-Hospital de Salud Mental", "latitude": 36.7157623, "longitude": -4.1990574, "source": "osm", "_tags": {"amenity": "hospital", "healthcare": "psychotherapist", "name": "Clinica El Seranil-Hospital de Salud Mental"}}, {"name": "Hospital Santa Ana", "latitude": 36.7551261, "longitude": -3.5205198, "source": "osm", "_tags": {"addr:city": "Motril", "addr:postcode": "18600", "addr:street": "Avenida Enrique Martín Cuevas", "amenity": "hospital", "emergency": "yes", "emergency:phone": "+34 958 02 88 27", "healthcare": "hospital", "name": "Hospital Santa Ana", "network": "Servicio Andaluz de Salud", "network:short": "SAS", "nohousenumber": "yes", "operator": "Servicio Andaluz de Salud", "operator:short": "SAS", "operator:type": "public", "operator:wikidata": "Q4753529", "phone": "+34 958 03 82 00", "ref": "16445", "source": "https://www.sspa.juntadeandalucia.es/servicioandaluzdesalud/el-sas/servicios-y-centros/informacion-por-centros/16445", "wikidata": "Q20748066", "wikipedia": "es:Hospital Santa Ana de Motril"}}, {"name": "Hospital Comarcal de La Axarquía", "latitude": 36.7512801, "longitude": -4.0895536, "source": "osm", "_tags": {"amenity": "hospital", "emergency": "yes", "healthcare": "hospital", "name": "Hospital Comarcal de La Axarquía", "network": "Servicio Andaluz de Salud", "network:short": "SAS", "operator:type": "public"}}]