[{"name": "Polyclinique Les Sources", "latitude": 36.733876, "longitude": 3.0582318, "source": "osm", "_tags": {"amenity": "hospital", "healthcare": "vaccination_centre", "healthcare:speciality": "vaccination;covid19", "name": "Polyclinique Les Sources", "name:ar": "مستوصف الينابيع", "name:en": "Polyclinique Les Sources conseils de l'ordre", "name:fr": "Polyclinique Les Sources conseils de l'ordre", "vaccination": "covid19"}}, {"name": "", "latitude": 36.1572027, "longitude": 3.1413919, "source": "osm", "_tags": {"amenity": "hospital"}}, {"name": "", "latitude": 36.2134069, "longitude": 3.1261091, "source": "osm", "_tags": {"amenity": "hospital"}}, {"name": "Cabinet medical", "latitude": 36.6896503, "longitude": 3.3609444, "source": "osm", "_tags": {"amenity": "hospital", "name": "Cabinet medical"}}, {"name": "", "latitude": 36.6745692, "longitude": 3.3350759, "source": "osm", "_tags": {"amenity": "hospital"}}, {"name": "Hôpital des brûlés", "latitude": 36.7721949, "longitude": 3.0567171, "source": "osm", "_tags": {"amenity": "hospital", "healthcare": "hospital", "name": "Hôpital des brûlés", "name:fr": "Hôpital des brûlés"}}, {"name": "Parnet", "latitude": 36.7366917, "longitude": 3.1038388, "source": "osm", "_tags": {"amenity": "hospital", "healthcare": "vaccination_centre", "healthcare:speciality": "vaccination;covid19", "name": "Parnet", "name:ar": "المستشفى الجامعي نفيسة حمود", "name:en": "Nafissa Hammoud (parnet)", "name:fr": "CHU Nafissa Hammoud (parnet)", "opening_hours": "24/7", "vaccination": "covid19"}}, {"name": "Clinique des Orchidées", "latitude": 36.7360825, "longitude": 3.0330002, "source": "osm", "_tags": {"amenity": "hospital", "name": "Clinique des Orchidées", "name:fr": "Clinique des Orchidées"}}, {"name": "", "latitude": 36.3599231, "longitude": 2.7662992, "source": "osm", "_tags": {"amenity": "hospital", "healthcare": "hospital"}}, {"name": "Rouchai Boualem", "latitude": 36.7521971, "longitude": 3.0670439, "source": "osm", "_tags": {"amenity": "hospital", "healthcare": "hospital", "name": "Rouchai Boualem", "operator": "DGSN"}}, {"name": "", "latitude": 35.9820602, "longitude": 2.9589118, "source": "osm", "_tags": {"amenity": "hospital"}}, {"name": "مصحة بلعرج", "latitude": 36.7427042, "longitude": 3.0649299, "source": "osm", "_tags": {"amenity": "hospital", "name": "مصحة بلعرج", "name:ar": "مصحة بلعرج", "name:en": "Polyclinique Belaaredj", "name:fr": "Polyclinique Belaaredj"}}, {"name": "", "latitude": 36.728821, "longitude": 3.2167671, "source": "osm", "_tags": {"amenity": "hospital"}}, {"name": "Les Glycines", "latitude": 36.7572824, "longitude": 3.0417245, "source": "osm", "_tags": {"amenity": "hospital", "healthcare": "hospital", "name": "Les Glycines"}}, {"name": "urgence chirurgicale", "latitude": 36.7790216, "longitude": 2.9819331, "source": "osm", "_tags": {"amenity": "hospital", "name": "urgence chirurgicale"}}, {"name": "Urgences pédiatrique et chirurgie pediatrique", "latitude": 36.7218361, "longitude": 3.1473409, "source": "osm", "_tags": {"amenity": "hospital", "name": "Urgences pédiatrique et chirurgie pediatrique"}}, {"name": "consultation d'hématologie", "latitude": 36.7798892, "longitude": 2.983977, "source": "osm", "_tags": {"amenity": "hospital", "name": "consultation d'hématologie"}}, {"name": "urgence pédiatriques", "latitude": 36.7803676, "longitude": 2.9833405, "source": "osm", "_tags": {"amenity": "hospital", "name": "urgence pédiatriques"}}, {"name": "Hôpital Ziroud Yousef", "latitude": 36.7864739, "longitude": 3.0260964, "source": "osm", "_tags": {"amenity": "hospital", "healthcare": "hospital", "name": "Hôpital Ziroud Yousef", "name:ar": "مستشفى زيرود يوسف"}}, {"name": "Polyclinique Douera", "latitude": 36.6685826, "longitude": 2.9395758, "source": "osm", "_tags": {"amenity": "hospital", "name": "Polyclinique Douera", "opening_hours": "24/7"}}, {"name": "Hôpital de rouiba les urgence", "latitude": 36.7354771, "longitude": 3.2867442, "source": "osm", "_tags": {"amenity": "hospital", "name": "Hôpital de rouiba les urgence"}}, {"name": "Hôpital de rouiba", "latitude": 36.7355846, "longitude": 3.2857356, "source": "osm", "_tags": {"amenity": "hospital", "name": "Hôpital de rouiba"}}, {"name": "Clinique d'accouchement", "latitude": 36.7412678, "longitude": 3.2844081, "source": "osm", "_tags": {"amenity": "hospital", "healthcare": "hospital", "name": "Clinique d'accouchement"}}, {"name": "", "latitude": 36.5371568, "longitude": 3.0958139, "source": "osm", "_tags": {"amenity": "hospital", "healthcare": "hospital"}}, {"name": "عيادة محند امقران", "latitude": 36.7677857, "longitude": 3.0016555, "source": "osm", "_tags": {"amenity": "hospital", "name": "عيادة محند امقران", "name:ar": "عيادة محند امقران", "name:fr": "EHS Dr. MAOUCHE MOHAND AMOKRANE", "opening_hours": "24/7"}}, {"name": "Polyclinique", "latitude": 35.8863361, "longitude": 2.7521002, "source": "osm", "_tags": {"amenity": "hospital", "healthcare": "hospital", "name": "Polyclinique", "name:fr": "Polyclinique."}}, {"name": "", "latitude": 36.5786358, "longitude": 3.0088862, "source": "osm", "_tags": {"amenity": "hospital", "opening_hours": "24/7"}}, {"name": "Hôpital Djilali Bounâama", "latitude": 36.6678856, "longitude": 2.9407469, "source": "osm", "_tags": {"amenity": "hospital", "healthcare": "hospital", "name": "Hôpital Djilali Bounâama", "name:ar": "جيلالي بونعامة", "name:fr": "Hôpital djilali bounâama"}}, {"name": "Polyclinique de Hraoua", "latitude": 36.774987, "longitude": 3.3042981, "source": "osm", "_tags": {"addr:city": "Hraoua", "amenity": "hospital", "healthcare": "vaccination_centre", "healthcare:speciality": "vaccination;covid19", "name": "Polyclinique de Hraoua", "name:ar": "مستوصف هراوة", "name:fr": "Polyclinique de Hraoua", "vaccination": "covid19"}}, {"name": "نادية بوجناح", "latitude": 36.7880307, "longitude": 3.0202952, "source": "osm", "_tags": {"amenity": "hospital", "name": "نادية بوجناح", "name:ar": "نادية بوجناح", "name:fr": "Nadia boujnah"}}, {"name": "", "latitude": 36.263088, "longitude": 3.0365692, "source": "osm", "_tags": {"amenity": "hospital"}}, {"name": "عروة", "latitude": 36.741079, "longitude": 3.039529, "source": "osm", "_tags": {"amenity": "hospital", "name": "عروة", "name:ar": "عروة", "name:en": "Aroua", "name:fr": "Aroua"}}, {"name": "قاعة العلاج الطاحونتين", "latitude": 36.8113647, "longitude": 3.0295017, "source": "osm", "_tags": {"amenity": "hospital", "healthcare": "hospital", "name": "قاعة العلاج الطاحونتين", "name:ar": "قاعة العلاج الطاحونتين", "name:en": "Salle de Soin Deux Moulins", "name:fr": "Salle de Soin Deux Moulins"}}, {"name": "Centre d'expertise Médicale (CNEMPN)", "latitude": 36.71939, "longitude": 3.0599525, "source": "osm", "_tags": {"amenity": "hospital", "name": "Centre d'expertise Médicale (CNEMPN)"}}, {"name": "", "latitude": 36.7563995, "longitude": 3.0629111, "source": "osm", "_tags": {"amenity": "hospital", "healthcare": "hospital", "name:ar": "مصحة بوشنافة", "name:en": "Polyclinique Bouchnafa"}}, {"name": "المصحة الكوبية الجزائرية لقرح القدم", "latitude": 36.7350305, "longitude": 3.0574631, "source": "osm", "_tags": {"amenity": "hospital", "name": "المصحة الكوبية الجزائرية لقرح القدم", "name:ar": "المصحة الكوبية الجزائرية لقرح القدم", "name:fr": "Clinique algéro-cubaine"}}, {"name": "", "latitude": 36.1332725, "longitude": 2.9288638, "source": "osm", "_tags": {"addr:city": "البرواقية", "addr:city:ar": "البرواقية", "amenity": "hospital", "healthcare": "hospital"}}, {"name": "دكتورة غلاتي أ", "latitude": 36.7251201, "longitude": 3.0527537, "source": "osm", "_tags": {"addr:housenumber": "N 12", "addr:street": "cité les Vergers 3", "amenity": "hospital", "internet_access": "wlan", "name": "دكتورة غلاتي أ", "name:ar": "دكتورة غلاتي أ", "name:fr": "Dr GUELLATI.A", "opening_hours": "Sa-Th 09:00-17:00", "phone": "0553071540"}}, {"name": "", "latitude": 36.5765624, "longitude": 3.6017012, "source": "osm", "_tags": {"amenity": "hospital", "name:fr": "EPH LAKHDARIA"}}, {"name": "مصحة مصطفى نقاش", "latitude": 36.7404035, "longitude": 3.0647532, "source": "osm", "_tags": {"amenity": "hospital", "healthcare": "hospital", "name": "مصحة مصطفى نقاش", "name:ar": "مصحة مصطفى نقاش", "name:en": "Polyclinique Mustapha Nakach", "name:fr": "Polyclinique Mustapha Nakach"}}, {"name": "", "latitude": 36.7674019, "longitude": 3.053517, "source": "osm", "_tags": {"addr:city": "Sidi M'Hamed", "addr:housenumber": "40 C", "addr:street": "Rue Didouche Mourad", "amenity": "hospital", "healthcare": "hospital", "healthcare:speciality": "Opticien"}}, {"name": "مخبر التحاليل الطبية", "latitude": 36.7364695, "longitude": 3.2859042, "source": "osm", "_tags": {"amenity": "hospital", "name": "مخبر التحاليل الطبية", "name:ar": "مخبر التحاليل الطبية", "name:fr": "Laboratoire d’analyse Médicale"}}, {"name": "مستوصف", "latitude": 36.6292618, "longitude": 2.9180313, "source": "osm", "_tags": {"amenity": "hospital", "name": "مستوصف", "name:ar": "مستوصف", "name:fr": "policlinique"}}, {"name": "Clinique de Bir morad rais", "latitude": 36.7348887, "longitude": 3.034632, "source": "osm", "_tags": {"amenity": "hospital", "name": "Clinique de Bir morad rais", "name:ar": "عيادة بئر مرادرايس"}}, {"name": "Centre médical Boudjemâa Moghni", "latitude": 36.7403747, "longitude": 3.0985284, "source": "osm", "_tags": {"amenity": "hospital", "healthcare": "hospital", "name": "Centre médical Boudjemâa Moghni", "name:fr": "Centre médical Boudjemâa Moghni"}}, {"name": "Epsp gynécologue pédiatrie", "latitude": 36.7679829, "longitude": 3.031899, "source": "osm", "_tags": {"amenity": "hospital", "healthcare": "hospital", "healthcare:speciality": "gynaecology;paediatrics", "name": "Epsp gynécologue pédiatrie"}}, {"name": "cabinet CARDIOLOGUE DR BELKHIR", "latitude": 36.2284391, "longitude": 3.3064486, "source": "osm", "_tags": {"amenity": "hospital", "name": "cabinet CARDIOLOGUE DR BELKHIR"}}, {"name": "قاعة علاج", "latitude": 36.2355667, "longitude": 3.6468799, "source": "osm", "_tags": {"amenity": "hospital", "healthcare": "hospital", "name": "قاعة علاج", "name:ar": "قاعة علاج"}}, {"name": "طبيبة عامة دحماني", "latitude": 36.2345134, "longitude": 3.6487243, "source": "osm", "_tags": {"amenity": "hospital", "healthcare": "doctor", "name": "طبيبة عامة دحماني", "name:ar": "طبيبة عامة دحماني"}}, {"name": "", "latitude": 36.6616155, "longitude": 2.8799767, "source": "osm", "_tags": {"amenity": "hospital", "healthcare": "hospital", "name:fr": "centre pour radiologie et chimiothérapie"}}, {"name": "طبيب الأسنان", "latitude": 36.2907305, "longitude": 3.6738962, "source": "osm", "_tags": {"amenity": "hospital", "name": "طبيب الأسنان", "name:ar": "طبيب الأسنان"}}, {"name": "", "latitude": 36.6431711, "longitude": 3.3196429, "source": "osm", "_tags": {"amenity": "hospital", "name:fr": "EPSP KHEMIS EL KHACHNA"}}, {"name": "clinic zohor عيادة زهور", "latitude": 36.7016323, "longitude": 3.0250966, "source": "osm", "_tags": {"addr:city": "Saoula السحاولة", "addr:country": "DZ", "addr:state": "algers", "amenity": "hospital", "name": "clinic zohor عيادة زهور", "name:ar": "عيادة زهور", "name:en": "clinic zohor"}}, {"name": "El Hamma", "latitude": 36.7443224, "longitude": 3.0758822, "source": "osm", "_tags": {"amenity": "hospital", "name": "El Hamma", "name:en": "Institut Pasteur d’Algérie"}}, {"name": "", "latitude": 36.7665051, "longitude": 3.2350318, "source": "osm", "_tags": {"amenity": "hospital", "name:ar": "اسحاق"}}, {"name": "", "latitude": 36.7190082, "longitude": 3.0649542, "source": "osm", "_tags": {"amenity": "hospital"}}, {"name": "قاعة علاج", "latitude": 36.680812, "longitude": 2.7712809, "source": "osm", "_tags": {"amenity": "hospital", "name": "قاعة علاج"}}, {"name": "", "latitude": 36.4837421, "longitude": 2.7950234, "source": "osm", "_tags": {"amenity": "hospital"}}, {"name": "", "latitude": 36.4838796, "longitude": 2.7949971, "source": "osm", "_tags": {"amenity": "hospital"}}, {"name": "Hôpital Ali Aït Idir", "latitude": 36.7874026, "longitude": 3.0584179, "source": "osm", "_tags": {"amenity": "hospital", "healthcare": "hospital", "name": "Hôpital Ali Aït Idir"}}, {"name": "", "latitude": 36.7730211, "longitude": 3.245227, "source": "osm", "_tags": {"amenity": "hospital", "healthcare": "hospital"}}, {"name": "Dispensaire Issers", "latitude": 36.7210059, "longitude": 3.6642005, "source": "osm", "_tags": {"amenity": "hospital", "healthcare": "hospital", "name": "Dispensaire Issers"}}, {"name": "Clinique du Val", "latitude": 36.7583064, "longitude": 3.0253798, "source": "osm", "_tags": {"addr:street": "Boulevard du 11 Décembre 1960", "amenity": "hospital", "email": "communication@cliniqueduval.org", "name": "Clinique du Val", "phone": "3301 021 98 31 60", "website": "https://clinique-du-val.com"}}, {"name": "مستشفى الهادي فليسي القطار", "latitude": 36.7851566, "longitude": 3.0516452, "source": "osm", "_tags": {"amenity": "hospital", "emergency": "yes", "healthcare": "hospital", "name": "مستشفى الهادي فليسي القطار", "name:ar": "مستشفى الهادي فليسي القطار", "name:fr": "Hôpital El Hadi Flici (El Kettar)"}}, {"name": "Hôpital Mohamed Lamine Debaghine", "latitude": 36.794844, "longitude": 3.0488245, "source": "osm", "_tags": {"addr:city": "Bab El Oued", "addr:postcode": "16009", "addr:street": "Boulevard Touati Saïd", "addr:suburb": "Bab El Oued", "amenity": "hospital", "emergency": "yes", "healthcare": "hospital", "name": "Hôpital Mohamed Lamine Debaghine", "name:ar": "مستشفى محمد لمين دباغين", "name:en": "Mohamed Lamine Debaghine Hospital", "name:fr": "Hôpital Mohamed Lamine Debaghine", "old_name": "Hôpital Maillot", "operator": "Ministère de la santé de la population et de la réforme hospitalière", "phone": "+213 21 96 42 53", "website": "https://www.chubabeloued.com/", "wikidata": "Q43896359"}}, {"name": "مستشفى الجامعي نفيسة حمود", "latitude": 36.7361663, "longitude": 3.1055043, "source": "osm", "_tags": {"addr:city": "Alger", "addr:postcode": "16040", "addr:street": "Rue Boudjemâa Moghni", "addr:suburb": "Hussein Dey", "amenity": "hospital", "emergency": "yes", "healthcare": "hospital", "name": "مستشفى الجامعي نفيسة حمود", "name:ar": "مستشفى الجامعي نفيسة حمود", "name:en": "Nafissa Hamoud Hospital", "name:fr": "Hôpital Nafissa Hamoud", "old_name": "Parnet", "phone": "+213 21 49 56 56"}}, {"name": "المستشفى الجامعي مصطفى باشا", "latitude": 36.7618021, "longitude": 3.0535847, "source": "osm", "_tags": {"addr:city": "Alger Centre", "addr:city:fr": "Alger Centre", "addr:postcode": "16000", "addr:street": "Place du 1er Mai 1945", "addr:street:fr": "Place du 1er Mai 1945", "addr:suburb": "Sidi M'hamed", "addr:suburb:fr": "Sidi M'hamed", "amenity": "hospital", "emergency": "yes", "healthcare": "hospital", "name": "المستشفى الجامعي مصطفى باشا", "name:ar": "المستشفى الجامعي مصطفى باشا", "name:fr": "Hôpital Mustapha Pacha", "operator": "Ministère de la Santé et de la Réforme hospitalière", "operator:fr": "Ministère de la Santé et de la Réforme hospitalière", "wikidata": "Q3145181", "wikimedia_commons": "Category:Mustapha Pacha Hospital", "wikipedia": "fr:Hôpital Mustapha Pacha"}}, {"name": "Hôpital Salim Zemirli", "latitude": 36.7032844, "longitude": 3.1236938, "source": "osm", "_tags": {"amenity": "hospital", "emergency": "yes", "name": "Hôpital Salim Zemirli", "name:ar": "مستشفى سليم زميرلي"}}, {"name": "المركز الاستشفائي الجامعي بني مسوس", "latitude": 36.7790264, "longitude": 2.9809669, "source": "osm", "_tags": {"addr:city": "Alger", "addr:postcode": "16044", "addr:street": "Boulevard Brahim Hadjeres", "addr:suburb": "Beni Messous", "amenity": "hospital", "emergency": "yes", "healthcare": "hospital", "healthcare:speciality": "general;psychiatry;chiropractic;paediatrics;dentistry;vaccination;biology;radiology;orthopaedics;ophthalmology;intensive;emergency;gynaecology;dialysis;cardiology;surgery;dermatology;orthodontics;oncology;community;osteopathy;internal;maternity;physiatry", "name": "المركز الاستشفائي الجامعي بني مسوس", "name:ar": "المركز الاستشفائي الجامعي بني مسوس", "name:en": "Beni Messous Hospital", "name:fr": "Hôpital de Beni Messous", "wheelchair": "yes"}}, {"name": "Hopital Douira", "latitude": 36.6674932, "longitude": 2.9404112, "source": "osm", "_tags": {"amenity": "hospital", "emergency": "yes", "name": "Hopital Douira"}}, {"name": "Hôpital de Birtraria", "latitude": 36.7737258, "longitude": 3.0404437, "source": "osm", "_tags": {"addr:street": "شارع دحمون محفوظ", "addr:street:ar": "شارع دحمون محفوظ", "amenity": "hospital", "emergency": "yes", "healthcare": "hospital", "name": "Hôpital de Birtraria", "name:ar": "مستشفى بئر طرارية", "name:fr": "Hôpital de Birtraria", "opening_hours": "24/7"}}, {"name": "Clinique BelAir", "latitude": 36.7717119, "longitude": 3.036999, "source": "osm", "_tags": {"amenity": "hospital", "emergency": "yes", "healthcare": "hospital", "name": "Clinique BelAir", "name:ar": "عيادة الأبيار"}}, {"name": "", "latitude": 36.7445319, "longitude": 3.0920139, "source": "osm", "_tags": {"amenity": "hospital", "healthcare": "hospital"}}, {"name": "Hôpital Frantz Fanon", "latitude": 36.4836652, "longitude": 2.7949731, "source": "osm", "_tags": {"addr:city": "Blida", "addr:postcode": "09000", "addr:street": "CW108", "addr:suburb": "Zabana", "alt_name": "Centre hospitalier universitaire de Blida", "amenity": "hospital", "emergency": "yes", "healthcare": "hospital", "healthcare:speciality": "neurosurgery;neurology;ophthalmology;otolaryngology;surgery;internal;cardiology;rehabiliation;radiology;anatomy;pathology;trauma;orthopaedics;oncology;cardiac_surgery;haematology;nephrology;transplant", "name": "Hôpital Frantz Fanon", "name:ar": "مستشفى فرانتز فانون", "name:en": "Frantz Fanon Hospital", "name:fr": "Hôpital Frantz Fanon", "operator": "Ministère de la Santé", "operator:wikidata": "Q17639127", "phone": "+213 25 41 29 82", "short_name": "CHU Blida"}}, {"name": "", "latitude": 36.1453811, "longitude": 3.6886973, "source": "osm", "_tags": {"addr:city": "سور الغزلان", "addr:city:ar": "سور الغزلان", "amenity": "hospital", "emergency": "yes", "healthcare": "hospital"}}, {"name": "Hôpital Dr Fares Yahia مستشفى دكتور فارس يحي", "latitude": 36.6352353, "longitude": 2.7720979, "source": "osm", "_tags": {"addr:city": "Koléa", "amenity": "hospital", "emergency": "yes", "healthcare": "hospital", "name": "Hôpital Dr Fares Yahia مستشفى دكتور فارس يحي", "name:ar": "مستشفى فارس يحيى", "name:fr": "Hôpital Dr Fares Yahia"}}, {"name": "Centre de Santé", "latitude": 35.8954442, "longitude": 2.7552496, "source": "osm", "_tags": {"amenity": "hospital", "healthcare": "hospital", "name": "Centre de Santé", "name:fr": "Polyclinique Romanette"}}, {"name": "Hôpital", "latitude": 35.8854551, "longitude": 2.7472512, "source": "osm", "_tags": {"addr:city": "Ksar el Boukhari", "addr:postcode": "26300", "amenity": "hospital", "healthcare": "hospital", "name": "Hôpital", "name:ar": "مستشفى قصر البخاري", "name:fr": "Hôpital EPH Ksar el Boukhari", "phone": "025692003"}}, {"name": "Clinique militaire les Oliviers", "latitude": 36.7262663, "longitude": 3.0590998, "source": "osm", "_tags": {"amenity": "hospital", "name": "Clinique militaire les Oliviers"}}, {"name": "المؤسسة العمومية الاستشفائية -البرواقية-", "latitude": 36.134973, "longitude": 2.9148073, "source": "osm", "_tags": {"addr:city": "البرواقية", "addr:city:ar": "البرواقية", "addr:postcode": "26200", "amenity": "hospital", "emergency": "yes", "healthcare": "hospital", "name": "المؤسسة العمومية الاستشفائية -البرواقية-", "name:ar": "المؤسسة العمومية الاستشفائية -البرواقية-", "name:fr": "Etablissement Public Hospitalier -Berrouaghia-"}}, {"name": "Hôpital Mohamed Boudiaf", "latitude": 36.2596728, "longitude": 2.7576301, "source": "osm", "_tags": {"addr:city": "Médéa", "addr:postcode": "26000", "amenity": "hospital", "emergency": "yes", "name": "Hôpital Mohamed Boudiaf"}}, {"name": "Dispensaire", "latitude": 36.2709269, "longitude": 2.7711739, "source": "osm", "_tags": {"amenity": "hospital", "healthcare": "hospital", "name": "Dispensaire", "name:ar": "مستوصف"}}, {"name": "Hôpital", "latitude": 36.7011263, "longitude": 3.0911615, "source": "osm", "_tags": {"amenity": "hospital", "healthcare": "hospital", "name": "Hôpital"}}, {"name": "Hôpital de Ben Aknoun", "latitude": 36.7547067, "longitude": 3.0007972, "source": "osm", "_tags": {"addr:city": "Ben Aknoun", "addr:street": "Chemin des Deux Bassins", "amenity": "hospital", "emergency": "yes", "name": "Hôpital de Ben Aknoun", "name:ar": "مستشفى بن عكنون", "name:en": "Ben Aknoun Hospital", "name:fr": "Hôpital de Ben Aknoun"}}, {"name": "Clinique Ophtalmologique", "latitude": 36.7374537, "longitude": 3.0321468, "source": "osm", "_tags": {"amenity": "hospital", "name": "Clinique Ophtalmologique"}}, {"name": "EHS Bachir Mentouri", "latitude": 36.7261077, "longitude": 3.0866472, "source": "osm", "_tags": {"amenity": "hospital", "healthcare": "hospital", "name": "EHS Bachir Mentouri"}}, {"name": "Hôpital de Chellalet El Adhaoura", "latitude": 35.9414298, "longitude": 3.4149021, "source": "osm", "_tags": {"addr:city": "Chellalet El Adhaoura", "amenity": "hospital", "emergency": "yes", "name": "Hôpital de Chellalet El Adhaoura"}}, {"name": "Hopital", "latitude": 36.1234592, "longitude": 3.2624638, "source": "osm", "_tags": {"amenity": "hospital", "name": "Hopital"}}, {"name": "Hopital EPH Said Omar", "latitude": 36.2234192, "longitude": 3.2991117, "source": "osm", "_tags": {"addr:city": "Beni Slimane", "addr:postcode": "26001", "amenity": "hospital", "emergency": "yes", "fax": "025 71 52 74", "name": "Hopital EPH Said Omar", "operator": "CHENAF GOUIDER", "phone": "025 71 41 84"}}, {"name": "Hôpital de Boufarik", "latitude": 36.5768733, "longitude": 2.9093395, "source": "osm", "_tags": {"addr:city": "Boufarik", "addr:postcode": "09001", "addr:street": "Rue des frères Hamadouch", "amenity": "hospital", "emergency": "yes", "healthcare:speciality": "internal;infectious_diseases;gynaecology;surgery;paediatrics;emergency;anaesthetics;intensive", "name": "Hôpital de Boufarik", "name:ar": "مستشفى بوفاريك", "name:en": "Boufarik Hospital", "name:fr": "Hôpital de Boufarik", "operator": "Ministère de la santé"}}, {"name": "Polyclinique Dar el bida", "latitude": 36.7208435, "longitude": 3.2133403, "source": "osm", "_tags": {"addr:city": "Dar El Beïda", "addr:street": "Cité Fatma Nsoumer", "amenity": "hospital", "emergency": "yes", "healthcare": "hospital", "name": "Polyclinique Dar el bida"}}, {"name": "Hôpital de Tixeraïne مستشفى تيقصراين", "latitude": 36.7243325, "longitude": 3.0218981, "source": "osm", "_tags": {"addr:city": "Tixeraïne", "amenity": "hospital", "emergency": "yes", "healthcare": "hospital", "name": "Hôpital de Tixeraïne مستشفى تيقصراين", "name:ar": "مستشفى تيقصراين", "name:en": "Tixeraïne Hospital", "name:fr": "Hôpital de Tixeraïne"}}, {"name": "EPSP Drid Hocine", "latitude": 36.7385509, "longitude": 3.0844263, "source": "osm", "_tags": {"amenity": "hospital", "name": "EPSP Drid Hocine", "name:ar": "مستشفى الامراض العقلية دريد الحسين( ا)", "name:fr": "EPSP Drid Hocine 1"}}, {"name": "", "latitude": 36.723312, "longitude": 3.1384823, "source": "osm", "_tags": {"amenity": "hospital"}}, {"name": "Centre Médicale Djenan Mabrouk", "latitude": 36.7244245, "longitude": 3.1248927, "source": "osm", "_tags": {"amenity": "hospital", "building": "yes", "name": "Centre Médicale Djenan Mabrouk"}}, {"name": "E.P.H Bordj Menaiel", "latitude": 36.744494, "longitude": 3.7227911, "source": "osm", "_tags": {"addr:city": "Bordj Menaïel", "amenity": "hospital", "emergency": "yes", "name": "E.P.H Bordj Menaiel"}}, {"name": "Cabinet medical", "latitude": 36.68964, "longitude": 3.3610032, "source": "osm", "_tags": {"amenity": "hospital", "healthcare": "hospital", "name": "Cabinet medical"}}, {"name": "Hôpital d'Aïn Taya", "latitude": 36.7896642, "longitude": 3.2954234, "source": "osm", "_tags": {"addr:city": "Aïn Taya", "amenity": "hospital", "emergency": "yes", "healthcare": "hospital", "name": "Hôpital d'Aïn Taya", "name:ar": "مستشفى عين طاية"}}, {"name": "Hôpital de Zéralda", "latitude": 36.7003707, "longitude": 2.8438522, "source": "osm", "_tags": {"amenity": "hospital", "healthcare": "hospital", "name": "Hôpital de Zéralda", "name:fr": "Hôpital de Zéralda"}}, {"name": "Centre de rééducation militaire", "latitude": 36.7319082, "longitude": 2.8871982, "source": "osm", "_tags": {"amenity": "hospital", "emergency": "yes", "name": "Centre de rééducation militaire", "name:fr": "Hôpital Bouchawi"}}, {"name": "Hôpital Militaire de Ain Naadja", "latitude": 36.7190289, "longitude": 3.0648811, "source": "osm", "_tags": {"addr:city": "Alger", "addr:postcode": "16205", "addr:suburb": "Aïn Naadja", "amenity": "hospital", "emergency": "yes", "healthcare": "hospital", "name": "Hôpital Militaire de Ain Naadja", "name:ar": "المستشفى العسكري عين النعجة", "name:en": "Aïn Naadja Military Hospital", "name:fr": "Hôpital Militaire de Ain Naadja", "opening_hours": "24/7", "phone": "+213 21 54 54 54", "wikidata": "Q63984787", "wikipedia": "ar:المستشفى المركزي للجيش بعين النعجة"}}, {"name": "EHS Psychiatrique Mahfoud Boucebsi", "latitude": 36.7650123, "longitude": 2.9540429, "source": "osm", "_tags": {"amenity": "hospital", "healthcare": "psychotherapist", "healthcare:speciality": "psychiatry", "name": "EHS Psychiatrique Mahfoud Boucebsi"}}, {"name": "Centre Médical Bachdjarah", "latitude": 36.7223038, "longitude": 3.119039, "source": "osm", "_tags": {"amenity": "hospital", "name": "Centre Médical Bachdjarah"}}, {"name": "Laboratoire médical Hussein Dey", "latitude": 36.734442, "longitude": 3.1040681, "source": "osm", "_tags": {"amenity": "hospital", "healthcare": "hospital", "name": "Laboratoire médical Hussein Dey"}}, {"name": "", "latitude": 36.7218978, "longitude": 3.1469956, "source": "osm", "_tags": {"addr:street": "Rue Houmri Noureddine", "amenity": "hospital", "building": "hospital", "name:ar": "مستشفى حسن بادي", "name:fr": "Hôpital Pédiatrique Hacen Badi"}}, {"name": "Polyclinique Les Sources", "latitude": 36.7338601, "longitude": 3.0580929, "source": "osm", "_tags": {"amenity": "hospital", "building": "yes", "healthcare": "hospital", "name": "Polyclinique Les Sources"}}, {"name": "مستوصف بوزريعة", "latitude": 36.7894608, "longitude": 3.017539, "source": "osm", "_tags": {"addr:street": "Route Neuve", "amenity": "hospital", "building": "yes", "emergency": "no", "name": "مستوصف بوزريعة", "name:ar": "مستوصف بوزريعة", "name:en": "Polyclinique Bouzareah", "name:fr": "Clinique Bouzareah"}}, {"name": "Hopital De Police", "latitude": 36.7575216, "longitude": 3.0416234, "source": "osm", "_tags": {"amenity": "hospital", "emergency": "yes", "healthcare": "hospital", "name": "Hopital De Police", "name:ar": "مستشفى الشرطة"}}, {"name": "Centre de santé de la Police", "latitude": 36.7521327, "longitude": 3.0669464, "source": "osm", "_tags": {"amenity": "hospital", "healthcare": "hospital", "name": "Centre de santé de la Police"}}, {"name": "", "latitude": 36.5370962, "longitude": 3.0958271, "source": "osm", "_tags": {"amenity": "hospital", "healthcare": "hospital"}}, {"name": "مستشفى الامراض العقلية دريد الحسين (ب)", "latitude": 36.7384243, "longitude": 3.0865012, "source": "osm", "_tags": {"amenity": "hospital", "name": "مستشفى الامراض العقلية دريد الحسين (ب)", "name:ar": "مستشفى الامراض العقلية دريد الحسين (ب)", "name:fr": "Hôpital psychiatrique Drid Hocine (B)"}}, {"name": "Centre de soins Bachir Laadjouz;Dispensaire Maison du diabétique", "latitude": 36.7470475, "longitude": 3.0787909, "source": "osm", "_tags": {"amenity": "hospital", "healthcare": "hospital", "healthcare:speciality": "general", "name": "Centre de soins Bachir Laadjouz;Dispensaire Maison du diabétique"}}, {"name": "Centre de soins Mourad Rachid", "latitude": 36.7255688, "longitude": 3.0253145, "source": "osm", "_tags": {"amenity": "hospital", "name": "Centre de soins Mourad Rachid"}}, {"name": "Hôpital Hassiba Ben Bouali", "latitude": 36.4855639, "longitude": 2.832235, "source": "osm", "_tags": {"addr:city": "Blida", "addr:postcode": "09000", "addr:street": "Boulevard Mohamed Boudiaf", "alt_name": "Hôpital de Ben Boulaid", "amenity": "hospital", "emergency": "yes", "healthcare:speciality": "paediatrics", "name": "Hôpital Hassiba Ben Bouali", "name:ar": "مستشفى حسيبة بن بوعلي", "name:en": "Hassiba Ben Bouali Hospital", "name:fr": "Hôpital Hassiba Ben Bouali", "note": "Ceci c'est un hôpital pédiatrique de Blida"}}, {"name": "Hôpital", "latitude": 36.7570512, "longitude": 3.4808721, "source": "osm", "_tags": {"amenity": "hospital", "emergency": "yes", "healthcare": "hospital", "name": "Hôpital", "name:ar": "مستشفى"}}, {"name": "Clinique des Orchidées", "latitude": 36.7360751, "longitude": 3.032989, "source": "osm", "_tags": {"amenity": "hospital", "healthcare": "hospital", "name": "Clinique des Orchidées"}}, {"name": "", "latitude": 36.6877243, "longitude": 2.9699426, "source": "osm", "_tags": {"amenity": "hospital", "building:levels": "10", "healthcare": "hospital"}}, {"name": "E.P.H Thenia", "latitude": 36.728464, "longitude": 3.5552309, "source": "osm", "_tags": {"addr:city": "Thenia", "amenity": "hospital", "emergency": "yes", "healthcare": "hospital", "name": "E.P.H Thenia", "name:ar": "المؤسسة العمومية الإستشفائية للثنية", "name:fr": "E.P.H Thenia", "opening_hours": "Mo-Su 08:00-24:00"}}, {"name": "Centre des asthmatiques", "latitude": 36.4312854, "longitude": 2.8802484, "source": "osm", "_tags": {"addr:city": "Chréa", "alt_name": "Sanatorium de Chréa", "amenity": "hospital", "emergency": "yes", "healthcare": "hospital", "healthcare:speciality": "pulmonology", "name": "Centre des asthmatiques", "name:ar": "مركز علاج الربو الشريعة", "name:fr": "Centre des asthmatiques"}}, {"name": "", "latitude": 36.7364716, "longitude": 3.2858507, "source": "osm", "_tags": {"amenity": "hospital", "healthcare": "hospital"}}, {"name": "polyclinique Ben Azouz عيادة متعددة الخدمات بن عزوز", "latitude": 36.644805, "longitude": 2.7688771, "source": "osm", "_tags": {"amenity": "hospital", "healthcare": "polyclinic", "name": "polyclinique Ben Azouz عيادة متعددة الخدمات بن عزوز", "name:ar": "عيادة متعددة الخدمات بن عزوز", "name:fr": "Polyclinique Ben Azouz"}}, {"name": "Croissant Rouge", "latitude": 36.714958, "longitude": 3.1072169, "source": "osm", "_tags": {"amenity": "hospital", "name": "Croissant Rouge", "office": "ngo"}}, {"name": "Hôpital Azur Plage", "latitude": 36.7363467, "longitude": 2.8452295, "source": "osm", "_tags": {"amenity": "hospital", "name": "Hôpital Azur Plage"}}, {"name": "", "latitude": 36.1614511, "longitude": 3.6744654, "source": "osm", "_tags": {"amenity": "hospital", "healthcare": "hospital"}}, {"name": "Hôpital Militaire de Blida", "latitude": 36.4658954, "longitude": 2.7952104, "source": "osm", "_tags": {"addr:city": "Blida", "addr:street": "Route de Chiffa", "amenity": "hospital", "emergency": "yes", "healthcare": "hospital", "name": "Hôpital Militaire de Blida", "name:ar": "المستشفى العسكري البليدة", "name:fr": "Hôpital Militaire de Blida"}}, {"name": "Hôpital M'Hamed Yazid", "latitude": 36.4772664, "longitude": 2.8097013, "source": "osm", "_tags": {"addr:city": "Blida", "addr:postcode": "09000", "amenity": "hospital", "emergency": "yes", "name": "Hôpital M'Hamed Yazid", "name:ar": "مستشفى امحمد يزيد", "name:fr": "Hôpital M'Hamed Yazid", "old_name": "Hôpital Ferroudja", "operator": "CHU Blida"}}, {"name": "Hôpital Brahim Tirichine", "latitude": 36.4769883, "longitude": 2.8333158, "source": "osm", "_tags": {"addr:city": "Blida", "addr:postcode": "09000", "addr:street": "Avenue Kritli Mokhtar", "amenity": "hospital", "emergency": "yes", "healthcare:speciality": "pulmonology;rheumatology;internal;surgery;gynaecology;paediatrics;emergency;radiology;anatomy;pathology", "name": "Hôpital Brahim Tirichine", "name:ar": "مستشفى ابراهيم تيريشين", "name:en": "Brahim Tirichine Hospital", "name:fr": "Hôpital Brahim Tirichine", "old_name": "Hôpital Faubourg"}}, {"name": "Hôpital de Rouiba", "latitude": 36.7350267, "longitude": 3.286182, "source": "osm", "_tags": {"addr:city": "Rouiba", "amenity": "hospital", "emergency": "yes", "name": "Hôpital de Rouiba", "name:ar": "مستشفى الرويبة", "name:en": "Rouiba Hospital", "name:fr": "Hôpital de Rouiba"}}, {"name": "Hôpital Bologhine Ibn Ziri", "latitude": 36.8104559, "longitude": 2.9790612, "source": "osm", "_tags": {"amenity": "hospital", "healthcare": "hospital", "name": "Hôpital Bologhine Ibn Ziri", "name:ar": "المؤسسة العمومية الاستشفائية بولوغين ابن زيري"}}, {"name": "", "latitude": 36.7198155, "longitude": 3.0966343, "source": "osm", "_tags": {"addr:city": "باش جراح", "addr:city:ar": "باش جراح", "amenity": "hospital", "building": "yes", "healthcare": "hospital"}}, {"name": "Hôpital de Meftah", "latitude": 36.5954212, "longitude": 3.2190782, "source": "osm", "_tags": {"addr:city": "Meftah", "amenity": "hospital", "emergency": "yes", "healthcare": "hospital", "name": "Hôpital de Meftah", "name:ar": "مستشفى مفتاح", "name:en": "Meftah hospital", "name:fr": "Hôpital de Meftah"}}, {"name": "", "latitude": 36.213398, "longitude": 3.1262093, "source": "osm", "_tags": {"amenity": "hospital", "healthcare": "hospital"}}, {"name": "", "latitude": 35.982041, "longitude": 2.9588187, "source": "osm", "_tags": {"amenity": "hospital", "healthcare": "hospital"}}, {"name": "عروة", "latitude": 36.7411793, "longitude": 3.0394813, "source": "osm", "_tags": {"amenity": "hospital", "building:levels": "5", "healthcare": "hospital", "name": "عروة", "name:ar": "عروة", "name:fr": "Urwa"}}, {"name": "EPH", "latitude": 35.8905781, "longitude": 3.1463753, "source": "osm", "_tags": {"addr:city": "Ain Boucif", "addr:postcode": "26500", "amenity": "hospital", "emergency": "yes", "name": "EPH", "opening_hours": "24/7"}}, {"name": "Clinique Zighout Amine", "latitude": 36.7863153, "longitude": 3.0262497, "source": "osm", "_tags": {"amenity": "hospital", "barrier": "wall", "healthcare": "hospital", "name": "Clinique Zighout Amine", "name:fr": "Clinique Zighout Amine", "wall": "noise_barrier"}}, {"name": "EPSP Hopital Saïd Hamiane", "latitude": 36.4075491, "longitude": 3.3076429, "source": "osm", "_tags": {"amenity": "hospital", "name": "EPSP Hopital Saïd Hamiane"}}, {"name": "", "latitude": 36.2865543, "longitude": 3.4930147, "source": "osm", "_tags": {"amenity": "hospital"}}, {"name": "Centre psychopédagogique Salim Slima", "latitude": 36.6694589, "longitude": 2.9479931, "source": "osm", "_tags": {"amenity": "hospital", "name": "Centre psychopédagogique Salim Slima"}}, {"name": "Maternité", "latitude": 36.6661425, "longitude": 2.9401528, "source": "osm", "_tags": {"amenity": "hospital", "healthcare": "hospital", "name": "Maternité"}}, {"name": "Hôpital Militaire Universitaire Spécialisé", "latitude": 36.7331461, "longitude": 2.8889614, "source": "osm", "_tags": {"amenity": "hospital", "name": "Hôpital Militaire Universitaire Spécialisé"}}, {"name": "Hôpital de Gériatrie de Zéralda", "latitude": 36.6977318, "longitude": 2.8450095, "source": "osm", "_tags": {"amenity": "hospital", "healthcare": "hospital", "name": "Hôpital de Gériatrie de Zéralda"}}, {"name": "Hôpital de Aïn Bessam", "latitude": 36.2966344, "longitude": 3.6759555, "source": "osm", "_tags": {"addr:city": "Aïn Bessam", "amenity": "hospital", "name": "Hôpital de Aïn Bessam"}}, {"name": "", "latitude": 36.2650509, "longitude": 3.5839117, "source": "osm", "_tags": {"amenity": "hospital"}}, {"name": "Polyclinique Rais", "latitude": 36.6113736, "longitude": 3.1261236, "source": "osm", "_tags": {"amenity": "hospital", "name": "Polyclinique Rais", "name:ar": "مستوصف رايس"}}, {"name": "Salle de soins", "latitude": 36.7214021, "longitude": 3.0506745, "source": "osm", "_tags": {"amenity": "hospital", "name": "Salle de soins", "name:ar": "قاعة العلاج"}}, {"name": "Polylinque Bali Mohamed", "latitude": 36.761564, "longitude": 2.9230245, "source": "osm", "_tags": {"amenity": "hospital", "name": "Polylinque Bali Mohamed"}}, {"name": "Polyclinique 66 lgts", "latitude": 36.7148538, "longitude": 2.8462302, "source": "osm", "_tags": {"amenity": "hospital", "name": "Polyclinique 66 lgts"}}, {"name": "EPSP Zéralda", "latitude": 36.7090928, "longitude": 2.8443378, "source": "osm", "_tags": {"addr:city": "Zéralda", "amenity": "hospital", "healthcare": "hospital", "name": "EPSP Zéralda", "name:fr": "EPSP Zéralda"}}, {"name": "Salle de soins Mazafran", "latitude": 36.6992703, "longitude": 2.8351983, "source": "osm", "_tags": {"amenity": "hospital", "name": "Salle de soins Mazafran"}}, {"name": "Salle de soin", "latitude": 36.6760124, "longitude": 2.8349642, "source": "osm", "_tags": {"amenity": "hospital", "healthcare": "hospital", "name": "Salle de soin"}}, {"name": "Salle de soin", "latitude": 36.6953639, "longitude": 2.8131359, "source": "osm", "_tags": {"amenity": "hospital", "name": "Salle de soin"}}, {"name": "Salle de Soin", "latitude": 36.7169905, "longitude": 2.9165682, "source": "osm", "_tags": {"amenity": "hospital", "name": "Salle de Soin"}}, {"name": "Salle de soins", "latitude": 36.6977256, "longitude": 2.9702294, "source": "osm", "_tags": {"amenity": "hospital", "name": "Salle de soins"}}, {"name": "", "latitude": 36.7311954, "longitude": 2.8883234, "source": "osm", "_tags": {"amenity": "hospital"}}, {"name": "Polyclinique de Sebbala", "latitude": 36.71496, "longitude": 3.013063, "source": "osm", "_tags": {"amenity": "hospital", "name": "Polyclinique de Sebbala"}}, {"name": "Centre Medicale", "latitude": 36.5664164, "longitude": 3.5956615, "source": "osm", "_tags": {"amenity": "hospital", "building": "yes", "building:levels": "6", "healthcare": "hospital", "name": "Centre Medicale"}}, {"name": "Hoplital Lakhdaria", "latitude": 36.5670942, "longitude": 3.5963773, "source": "osm", "_tags": {"amenity": "hospital", "building": "yes", "building:levels": "5", "healthcare": "hospital", "name": "Hoplital Lakhdaria"}}, {"name": "Hoplital Lakhdaria", "latitude": 36.5668594, "longitude": 3.5960602, "source": "osm", "_tags": {"amenity": "hospital", "building": "yes", "building:levels": "4", "healthcare": "hospital", "name": "Hoplital Lakhdaria"}}, {"name": "Hadiouch Saleh Polyclinic", "latitude": 36.2956248, "longitude": 3.6693993, "source": "osm", "_tags": {"amenity": "hospital", "building": "yes", "building:levels": "3", "healthcare:speciality": "polyclinic", "name": "Hadiouch Saleh Polyclinic"}}, {"name": "Polyclinique", "latitude": 36.2954699, "longitude": 3.6694024, "source": "osm", "_tags": {"amenity": "hospital", "healthcare": "hospital", "name": "Polyclinique"}}, {"name": "", "latitude": 36.6746289, "longitude": 3.3351013, "source": "osm", "_tags": {"amenity": "hospital", "healthcare": "hospital"}}, {"name": "Hôpital des brûlés", "latitude": 36.7722282, "longitude": 3.0564528, "source": "osm", "_tags": {"addr:city": "Alger-Centre", "addr:city:fr": "Alger-Centre", "amenity": "hospital", "healthcare": "hospital", "name": "Hôpital des brûlés", "name:fr": "Hôpital des brûlés"}}, {"name": "Hôpital", "latitude": 36.4157217, "longitude": 3.3096418, "source": "osm", "_tags": {"addr:city": "Tablat", "amenity": "hospital", "building": "hospital", "healthcare": "hospital", "name": "Hôpital"}}, {"name": "", "latitude": 36.3599346, "longitude": 2.7662587, "source": "osm", "_tags": {"amenity": "hospital", "healthcare": "hospital"}}, {"name": "مصحة بلعرج", "latitude": 36.7426837, "longitude": 3.0649343, "source": "osm", "_tags": {"amenity": "hospital", "healthcare": "hospital", "name": "مصحة بلعرج", "name:ar": "مصحة بلعرج", "name:fr": "Clinique Belaredj"}}, {"name": "Polyclinique Douera", "latitude": 36.6686226, "longitude": 2.9395905, "source": "osm", "_tags": {"amenity": "hospital", "healthcare": "hospital", "name": "Polyclinique Douera"}}, {"name": "Clinique Mouhannad Amqran", "latitude": 36.7678262, "longitude": 3.0014141, "source": "osm", "_tags": {"amenity": "hospital", "healthcare": "hospital", "name": "Clinique Mouhannad Amqran", "name:ar": "عيادة محند امقران", "name:fr": "Clinique Mouhannad Amqran"}}, {"name": "Maillot", "latitude": 36.7899631, "longitude": 3.0461873, "source": "osm", "_tags": {"amenity": "hospital", "healthcare": "hospital", "name": "Maillot"}}, {"name": "Polyclinique", "latitude": 35.8863252, "longitude": 2.7520036, "source": "osm", "_tags": {"amenity": "hospital", "healthcare": "hospital", "name": "Polyclinique"}}, {"name": "", "latitude": 36.5786686, "longitude": 3.0087918, "source": "osm", "_tags": {"amenity": "hospital", "healthcare": "hospital"}}, {"name": "", "latitude": 36.7748688, "longitude": 3.3041742, "source": "osm", "_tags": {"amenity": "hospital", "healthcare": "hospital"}}, {"name": "Larbi tebssi", "latitude": 36.7544279, "longitude": 3.0574894, "source": "osm", "_tags": {"addr:street": "Rue Larbi Tebessi", "amenity": "hospital", "building": "hospital", "healthcare": "hospital", "name": "Larbi tebssi", "name:ar": "العربي التبسي"}}, {"name": "مستوصف", "latitude": 36.2623457, "longitude": 3.0347114, "source": "osm", "_tags": {"amenity": "hospital", "healthcare": "hospital", "name": "مستوصف", "name:ar": "مستوصف", "name:fr": "Clinique"}}, {"name": "", "latitude": 36.2630091, "longitude": 3.0364888, "source": "osm", "_tags": {"amenity": "hospital", "healthcare": "hospital"}}, {"name": "قاعة العلاج الطاحونتين", "latitude": 36.8115761, "longitude": 3.0294931, "source": "osm", "_tags": {"amenity": "hospital", "healthcare": "hospital", "name": "قاعة العلاج الطاحونتين", "name:ar": "قاعة العلاج الطاحونتين", "name:fr": "Salle de Soin Deux Moulins"}}, {"name": "المصحة الكوبية الجزائرية لقرح القدم", "latitude": 36.7350419, "longitude": 3.0573726, "source": "osm", "_tags": {"amenity": "hospital", "healthcare": "hospital", "name": "المصحة الكوبية الجزائرية لقرح القدم", "name:ar": "المصحة الكوبية الجزائرية لقرح القدم", "name:fr": "Clinique cubaine algérienne des ulcères du pied"}}, {"name": "hopital", "latitude": 36.1330701, "longitude": 2.9287998, "source": "osm", "_tags": {"amenity": "hospital", "healthcare": "hospital", "name": "hopital"}}, {"name": "دكتورة غلاتي أ", "latitude": 36.7252357, "longitude": 3.0527444, "source": "osm", "_tags": {"amenity": "hospital", "healthcare": "hospital", "name": "دكتورة غلاتي أ", "name:ar": "دكتورة غلاتي أ", "name:fr": "Ghalati A"}}, {"name": "", "latitude": 36.5766093, "longitude": 3.6016347, "source": "osm", "_tags": {"amenity": "hospital", "healthcare": "hospital"}}, {"name": "مستوصف", "latitude": 36.6292377, "longitude": 2.9181084, "source": "osm", "_tags": {"amenity": "hospital", "healthcare": "hospital", "name": "مستوصف", "name:ar": "مستوصف", "name:fr": "Polyclinique"}}, {"name": "Clinique de Bir morad rais", "latitude": 36.7347425, "longitude": 3.0344027, "source": "osm", "_tags": {"amenity": "hospital", "healthcare": "hospital", "name": "Clinique de Bir morad rais"}}, {"name": "Centre médical Boudjemâa Moghni", "latitude": 36.7403263, "longitude": 3.0983849, "source": "osm", "_tags": {"amenity": "hospital", "healthcare": "hospital", "name": "Centre médical Boudjemâa Moghni", "name:fr": "Centre médical Boudjemâa Moghni"}}, {"name": "Epsp gynécologue pédiatrie", "latitude": 36.7680324, "longitude": 3.0320951, "source": "osm", "_tags": {"amenity": "hospital", "healthcare": "hospital", "name": "Epsp gynécologue pédiatrie"}}, {"name": "cabinet CARDIOLOGUE DR BELKHIR", "latitude": 36.2285059, "longitude": 3.3066404, "source": "osm", "_tags": {"amenity": "hospital", "healthcare": "hospital", "name": "cabinet CARDIOLOGUE DR BELKHIR"}}, {"name": "قاعة علاج", "latitude": 36.235597, "longitude": 3.646895, "source": "osm", "_tags": {"amenity": "hospital", "healthcare": "hospital", "name": "قاعة علاج", "name:ar": "قاعة علاج"}}, {"name": "طبيبة عامة دحماني", "latitude": 36.2345038, "longitude": 3.6488644, "source": "osm", "_tags": {"amenity": "hospital", "healthcare": "hospital", "name": "طبيبة عامة دحماني", "name:ar": "طبيبة عامة دحماني"}}, {"name": "Dr BEKHTARI  pédiatre", "latitude": 36.5696173, "longitude": 2.9159127, "source": "osm", "_tags": {"addr:city": "Boufarik", "addr:postcode": "09001", "addr:street": "Cite dallas (Soummam)", "email": "redouanebekhtari@yahoo.fr", "emergency": "yes", "healthcare": "hospital", "healthcare:speciality": "paediatrics;allergology", "name": "Dr BEKHTARI  pédiatre", "opening_hours": "Mo-Fr 08:00-17:00", "operator:type": "private", "phone": "025482417", "source": "FB: Algerie Mapper Team : (Superadlen)"}}, {"name": "مستشفى شعبة العامر", "latitude": 36.6358582, "longitude": 3.6936184, "source": "osm", "_tags": {"addr:postcode": "35008", "addr:street": "lot freres hamani", "amenity": "hospital", "building": "yes", "healthcare": "hospital", "name": "مستشفى شعبة العامر", "name:ar": "مستشفى شعبة العامر", "name:en": "Hopital chabet el ameur", "name:fr": "Hospital chabet el ameur", "opening_hours": "24/7", "source": "FB: Algerie Mapper Team : (Superadlen)"}}, {"name": "", "latitude": 36.738053, "longitude": 3.1769296, "source": "osm", "_tags": {"amenity": "hospital", "healthcare": "hospital"}}, {"name": "Centre d'imagerie scintigraphique", "latitude": 36.4881356, "longitude": 2.7889304, "source": "osm", "_tags": {"addr:city": "Blida", "addr:postcode": "09000", "addr:street": "Cité 17 Juin, Zabana.", "amenity": "hospital", "emergency": "no", "fax": "025 32 89 73", "healthcare": "centre", "healthcare:speciality": "nuclear", "image": "http://www.scintigraphies.com/wp-content/uploads/2020/01/hero-dark.png", "mobile": "05 59 50 80 17", "name": "Centre d'imagerie scintigraphique", "opening_hours": "Dim-jud: 8h00-16h00/ sam: 8h00-12h00/ ven: fermé", "operator": "Dr Naili", "operator:type": "private", "phone": "025 32 87 37", "website": "http://www.scintigraphies.com/#hero"}}, {"name": "Mother and Child Military Hospital", "latitude": 36.7695964, "longitude": 2.9733006, "source": "osm", "_tags": {"amenity": "hospital", "emergency": "yes", "healthcare": "hospital", "name": "Mother and Child Military Hospital", "operator": "Algerian People's National Army", "operator:type": "military"}}, {"name": "Service Médecine Interne d'Hôpital Birtraria", "latitude": 36.7684522, "longitude": 3.0258433, "source": "osm", "_tags": {"amenity": "hospital", "emergency": "yes", "healthcare": "hospital", "healthcare:speciality": "internal", "name": "Service Médecine Interne d'Hôpital Birtraria", "name:ar": "مصلحة الطب الداخلي بطرارية", "name:fr": "Service Médecine Interne d'Hôpital Birtraria"}}, {"name": "Zouje Aayoun", "latitude": 36.7879097, "longitude": 3.0610072, "source": "osm", "_tags": {"amenity": "hospital", "building": "hospital", "emergency": "no", "healthcare": "hospital", "name": "Zouje Aayoun", "name:ar": "مصحة زوج عيون", "name:fr": "Zouje Aayoun", "type": "multipolygon"}}]