[{"name": "Xanit International Hospital", "latitude": 36.5980902, "longitude": -4.5584686, "source": "osm", "_tags": {"amenity": "hospital", "designation": "Xanit Hospital", "email": "info.xanit@vithas.es", "healthcare": "hospital", "name": "Xanit International Hospital", "opening_hours": "Mo-Su 08:30-21:00", "phone": "+34 952 367 190", "website": "https://www.vithas.es/Benalmadena/detalle-centro/vithas-xanit-internacional/37"}}, {"name": "Policlinica Lacibis Cartama", "latitude": 36.735299, "longitude": -4.61127, "source": "osm", "_tags": {"amenity": "hospital", "name": "Policlinica Lacibis Cartama", "phone": "+34 952 42 17 69", "website": "https://www.policlinicalacibis.com/"}}, {"name": "Hospital Valle del Guadalhorce", "latitude": 36.7218449, "longitude": -4.6710606, "source": "osm", "_tags": {"amenity": "hospital", "emergency": "yes", "healthcare": "hospital", "name": "Hospital Valle del Guadalhorce", "network": "Servicio Andaluz de Salud", "network:short": "SAS", "operator:type": "public", "wikidata": "Q87762200"}}, {"name": "Hospital Clínico Universitario Virgen de la Victoria", "latitude": 36.7180713, "longitude": -4.4779726, "source": "osm", "_tags": {"addr:city": "Málaga", "addr:place": "Teatinos-Universidad", "addr:postcode": "29010", "amenity": "hospital", "designation": "Hospital Universitario Virgen de la Victoria", "emergency": "yes", "healthcare": "hospital", "name": "Hospital Clínico Universitario Virgen de la Victoria", "network": "Servicio Andaluz de Salud", "network:short": "SAS", "operator:type": "public", "phone": "+34 951 03 20 00", "website": "http://www.huv.es", "wikidata": "Q5902584", "wikimedia_commons": "Category:Hospital Universitario Virgen de la Victoria (Málaga)", "wikipedia": "es:Hospital Virgen de la Victoria (Málaga)"}}, {"name": "Hospital Vithas Parque San Antonio", "latitude": 36.7227555, "longitude": -4.3972673, "source": "osm", "_tags": {"addr:city": "Málaga", "addr:country": "ES", "addr:housenumber": "2", "addr:postcode": "29016", "addr:street": "Avenida Pintor Joaquín Sorolla", "amenity": "hospital", "healthcare": "hospital", "name": "Hospital Vithas Parque San Antonio", "operator": "Vithas Hospitales", "website": "https://www.vithas.es/", "wheelchair": "limited", "wikidata": "Q87762152"}}, {"name": "Hospital Civil", "latitude": 36.7279086, "longitude": -4.4325295, "source": "osm", "_tags": {"addr:place": "Plaza Hospital Civil", "addr:postcode": "29009", "amenity": "hospital", "emergency": "yes", "healthcare": "hospital", "name": "Hospital Civil", "nohousenumber": "yes", "operator:type": "public", "wikidata": "Q87762147"}}, {"name": "Hospital Regional Universitario de Málaga", "latitude": 36.7231299, "longitude": -4.4497428, "source": "osm", "_tags": {"addr:postcode": "29010", "addr:street": "Avenida Carlos de Haya", "amenity": "hospital", "emergency": "yes", "healthcare": "hospital", "name": "Hospital Regional Universitario de Málaga", "name:en": "University Regional Hospital of Málaga", "nohousenumber": "yes", "old_name": "Hospital Carlos de Haya", "operator:type": "public", "wikidata": "Q6444828", "wikipedia": "es:Hospital Universitario Regional de Málaga"}}, {"name": "Hospital Materno Infantil", "latitude": 36.730009, "longitude": -4.432384, "source": "osm", "_tags": {"addr:postcode": "29011", "addr:street": "Avenida Arroyo de los Ángeles", "amenity": "hospital", "healthcare": "hospital", "name": "Hospital Materno Infantil", "nohousenumber": "yes", "wikidata": "Q30280204"}}, {"name": "Hospital de La Serranía", "latitude": 36.7222199, "longitude": -5.1468324, "source": "osm", "_tags": {"amenity": "hospital", "email": "ciudadanos.hsr.sspa@juntadeandalucia.es", "emergency": "yes", "healthcare": "hospital", "name": "Hospital de La Serranía", "network": "Servicio Andaluz de Salud", "network:short": "SAS", "operator:type": "public", "phone": "+34 951065001", "website": "https://www.sspa.juntadeandalucia.es/servicioandaluzdesalud/el-sas/servicios-y-centros/informacion-por-centros/16476", "wikidata": "Q20748112"}}, {"name": "Clínica Santa Elena", "latitude": 36.6456918, "longitude": -4.4879984, "source": "osm", "_tags": {"amenity": "hospital", "emergency": "yes", "name": "Clínica Santa Elena", "phone": "+34 952385555", "website": "https://santaelenahospital.com/"}}, {"name": "Hospital Doctor Gálvez", "latitude": 36.7209251, "longitude": -4.4194585, "source": "osm", "_tags": {"addr:city": "Málaga", "addr:country": "ES", "addr:housenumber": "1", "addr:postcode": "29015", "addr:street": "Calle San Agustín", "alt_name": "Hospital Gálvez", "amenity": "hospital", "building": "hospital", "building:levels": "5", "building:levels:underground": "1", "emergency": "yes", "healthcare": "hospital", "name": "Hospital Doctor Gálvez", "phone": "+24 952224295", "short_name": "Hospital Dr. Gálvez", "website": "http://www.hospitalgalvez.com", "wheelchair": "yes", "wikidata": "Q87762155"}}, {"name": "Hospital Quironsalud Marbella", "latitude": 36.5086939, "longitude": -4.8742789, "source": "osm", "_tags": {"addr:city": "Marbella", "amenity": "hospital", "building": "yes", "check_date": "2024-12-25", "healthcare": "hospital", "name": "Hospital Quironsalud Marbella", "operator": "Quironsalud", "wheelchair": "yes", "wikidata": "Q87762165"}}, {"name": "Ambulatorio de Nueva Andalucia.", "latitude": 36.5011609, "longitude": -4.9749153, "source": "osm", "_tags": {"amenity": "hospital", "healthcare": "hospital", "name": "Ambulatorio de Nueva Andalucia."}}, {"name": "Hospital Hospiten de Estepona", "latitude": 36.4528265, "longitude": -5.0842368, "source": "osm", "_tags": {"amenity": "hospital", "emergency": "yes", "name": "Hospital Hospiten de Estepona", "wikidata": "Q87762182"}}, {"name": "Hospital Recoletas Salud Marbella", "latitude": 36.5167762, "longitude": -4.8967149, "source": "osm", "_tags": {"amenity": "hospital", "healthcare": "hospital", "name": "Hospital Recoletas Salud Marbella", "phone": "+34 952899350", "website": "https://recoletasmarbella.com/es/"}}, {"name": "Hospital San Francisco de Asís", "latitude": 36.7288653, "longitude": -4.3689278, "source": "osm", "_tags": {"amenity": "hospital", "healthcare": "hospital", "healthcare:speciality": "neuropsychiatry", "name": "Hospital San Francisco de Asís", "wikidata": "Q87762159"}}, {"name": "Barbarela", "latitude": 36.7120907, "longitude": -4.4460666, "source": "osm", "_tags": {"amenity": "hospital", "healthcare": "hospital", "name": "Barbarela"}}, {"name": "Hospital Marítimo de Torremolinos", "latitude": 36.6370776, "longitude": -4.4874551, "source": "osm", "_tags": {"addr:city": "Torremolinos", "addr:housenumber": "5", "addr:postcode": "29620", "addr:street": "Calle del Sanatorio", "amenity": "hospital", "emergency": "yes", "healthcare": "hospital", "name": "Hospital Marítimo de Torremolinos", "network": "Servicio Andaluz de Salud", "network:short": "SAS", "operator:type": "public", "phone": "+34 951032000", "toilets:wheelchair": "yes", "website": "https://www.huvv.es/hospital/centros-del-area-hospitalaria/hospital-maritimo-de-torremolinos", "wheelchair": "yes", "wikidata": "Q5902741"}}, {"name": "Hospital HLA El Ángel", "latitude": 36.715457, "longitude": -4.4532959, "source": "osm", "_tags": {"addr:city": "Málaga", "addr:housenumber": "16", "addr:postcode": "29007", "addr:street": "Calle Corregidor Nicolás Isidro", "alt_name": "Hospital El Ángel", "amenity": "hospital", "fax": "+34 952348100", "healthcare": "hospital", "name": "Hospital HLA El Ángel", "old_name": "Clínica El Ángel", "phone": "+34 952045000", "website": "https://www.grupohla.com/hospitales-clinicas/hospital-el-angel", "wikidata": "Q87762153"}}, {"name": "Hospital Málaga Chip Wellness", "latitude": 36.7232163, "longitude": -4.4541397, "source": "osm", "_tags": {"addr:city": "Málaga", "addr:housenumber": "121", "addr:postcode": "29010", "addr:street": "Avenida Carlos de Haya", "amenity": "hospital", "description": "Complejo hospitalario integral privado.", "emergency": "yes", "healthcare": "hospital", "name": "Hospital Málaga Chip Wellness"}}, {"name": "Génesis Care", "latitude": 36.7356376, "longitude": -4.3820527, "source": "osm", "_tags": {"addr:housenumber": "20", "addr:postcode": "29018", "addr:street": "Calle Meridiana", "amenity": "hospital", "check_date": "2025-05-11", "healthcare": "hospital", "name": "Génesis Care", "website": "https://www.genesiscare.com"}}, {"name": "Hospital Universitario Costa del Sol", "latitude": 36.50794, "longitude": -4.8279689, "source": "osm", "_tags": {"amenity": "hospital", "check_date": "2024-12-25", "emergency": "yes", "healthcare": "hospital", "name": "Hospital Universitario Costa del Sol", "network": "Servicio Andaluz de Salud", "network:short": "SAS", "operator": "Consejería de Salud de la Junta de Andalucía", "operator:type": "public", "wheelchair": "yes", "wikidata": "Q5902605"}}, {"name": "Hospital de Alta Resolución de Benalmádena", "latitude": 36.599524, "longitude": -4.5577567, "source": "osm", "_tags": {"addr:city": "Benalmádena", "addr:postcode": "29639", "addr:street": "Avenida Arroyo Hondo", "amenity": "hospital", "building": "hospital", "emergency": "yes", "healthcare": "hospital", "layer": "1", "name": "Hospital de Alta Resolución de Benalmádena", "operator:type": "public", "source": "PNOA", "source:date": "2019", "wikidata": "Q64443844"}}, {"name": "Hospital de Día Quirónsalud", "latitude": 36.6850218, "longitude": -4.4571989, "source": "osm", "_tags": {"amenity": "hospital", "healthcare": "hospital", "name": "Hospital de Día Quirónsalud", "operator": "Quirónsalud", "operator:type": "private"}}, {"name": "Hospital de Alta Resolución de Estepona", "latitude": 36.4115765, "longitude": -5.197596, "source": "osm", "_tags": {"addr:city": "Estepona", "addr:housenumber": "9", "addr:postcode": "29680", "addr:street": "Calle Irene Villa González", "amenity": "hospital", "emergency": "yes", "healthcare": "hospital", "name": "Hospital de Alta Resolución de Estepona", "operator": "Junta de Andalucía", "operator:type": "public"}}, {"name": "HC Marbella International Hospital", "latitude": 36.4849703, "longitude": -4.9704856, "source": "osm", "_tags": {"addr:housenumber": "11", "addr:street": "Ventura del Mar", "amenity": "hospital", "healthcare": "hospital", "name": "HC Marbella International Hospital", "opening_hours": "24/7", "phone": "+34 952 90 86 28", "wikidata": "Q87762175"}}, {"name": "", "latitude": 36.4937542, "longitude": -4.9509749, "source": "osm", "_tags": {"amenity": "hospital", "healthcare": "hospital"}}, {"name": "Hospital Quirón", "latitude": 36.684377, "longitude": -4.4575568, "source": "osm", "_tags": {"addr:city": "Málaga", "amenity": "hospital", "healthcare": "hospital", "name": "Hospital Quirón", "operator": "Quirón", "operator:type": "private", "type": "multipolygon"}}]