[{"name": "policlinique Diar Zarga", "latitude": 36.2871513, "longitude": 7.9713974, "source": "osm", "_tags": {"amenity": "hospital", "name": "policlinique Diar Zarga", "name:fr": "policlinique Diar Zarga"}}, {"name": "Hôpital bouteldja", "latitude": 36.7891198, "longitude": 8.1954677, "source": "osm", "_tags": {"amenity": "hospital", "name": "Hôpital bouteldja"}}, {"name": "", "latitude": 36.7066201, "longitude": 7.8508323, "source": "osm", "_tags": {"amenity": "hospital", "healthcare": "hospital"}}, {"name": "Hopital Mohamed BOUDIAF", "latitude": 36.5099468, "longitude": 8.1010758, "source": "osm", "_tags": {"amenity": "hospital", "emergency": "no", "name": "Hopital Mohamed BOUDIAF"}}, {"name": "المستشفى الجهوية سوق أهراس", "latitude": 36.2818424, "longitude": 7.9643212, "source": "osm", "_tags": {"addr:city": "سوق أهراس", "addr:city:ar": "سوق أهراس", "amenity": "hospital", "emergency": "yes", "healthcare": "hospital", "name": "المستشفى الجهوية سوق أهراس", "name:ar": "المستشفى الجهوية سوق أهراس", "name:fr": "Hôpital régional de Souk-ahras"}}, {"name": "", "latitude": 36.7044522, "longitude": 7.8330529, "source": "osm", "_tags": {"addr:city": "Besbes", "amenity": "hospital", "name:fr": "Hôpital de Besbes"}}, {"name": "Hôpital d'El Aouinet", "latitude": 35.8609414, "longitude": 7.8901071, "source": "osm", "_tags": {"addr:postcode": "12005", "amenity": "hospital", "emergency": "yes", "healthcare": "hospital", "name": "Hôpital d'El Aouinet", "name:ar": "مستثفى العوينات"}}, {"name": "المستشفى المحلي بغار الدماء", "latitude": 36.4445155, "longitude": 8.4372186, "source": "osm", "_tags": {"addr:city": "غار الدماء", "addr:postcode": "8160", "addr:street": "نهج الحبيب ثامر", "addr:street:ar": "نهج الحبيب ثامر", "addr:street:fr": "Rue Habib Thameur", "amenity": "hospital", "fax": "+216 78 662 300", "healthcare": "hospital", "name": "المستشفى المحلي بغار الدماء", "name:ar": "المستشفى المحلي بغار الدماء", "name:fr": "Hôpital local Ghardimaou", "opening_hours": "24/7", "phone": "+216 78 660 013"}}, {"name": "Hôpital Ibn Rochd", "latitude": 36.2628355, "longitude": 7.9519595, "source": "osm", "_tags": {"addr:city": "Souk Ahras", "addr:postcode": "41000", "amenity": "hospital", "emergency": "yes", "name": "Hôpital Ibn Rochd", "name:ar": "مستشفى ابن رشد", "name:fr": "Hôpital Ibn Rochd"}}, {"name": "Hopital d'El-hadjar", "latitude": 36.8044617, "longitude": 7.7443252, "source": "osm", "_tags": {"amenity": "hospital", "name": "Hopital d'El-hadjar", "operator": "مستشفى الحجار", "phone": "038 89 29 94"}}, {"name": "مستشفى الطارف", "latitude": 36.7631968, "longitude": 8.3243946, "source": "osm", "_tags": {"addr:city": "الطارف", "addr:city:ar": "الطارف", "addr:postcode": "36000", "amenity": "hospital", "healthcare": "hospital", "name": "مستشفى الطارف", "name:ar": "مستشفى الطارف", "name:fr": "Hôpital d'El Tarf"}}, {"name": "Hôpital de Taoura", "latitude": 36.1692304, "longitude": 8.0344618, "source": "osm", "_tags": {"addr:city": "Taoura", "amenity": "hospital", "name": "Hôpital de Taoura"}}, {"name": "مستشفى ساقية سيدي يوسف", "latitude": 36.2248935, "longitude": 8.3583527, "source": "osm", "_tags": {"addr:city": "ساقية سيدي يوسف", "amenity": "hospital", "healthcare": "hospital", "name": "مستشفى ساقية سيدي يوسف", "name:ar": "مستشفى ساقية سيدي يوسف", "name:fr": "Hôpital Sakiet Sidi Youssef"}}, {"name": "policlinique Diar Zarga", "latitude": 36.2873276, "longitude": 7.9713787, "source": "osm", "_tags": {"amenity": "hospital", "healthcare": "hospital", "name": "policlinique Diar Zarga"}}, {"name": "", "latitude": 36.1644476, "longitude": 8.0479385, "source": "osm", "_tags": {"amenity": "hospital", "healthcare": "hospital"}}, {"name": "Hôpital bouteldja", "latitude": 36.7888438, "longitude": 8.1952008, "source": "osm", "_tags": {"amenity": "hospital", "healthcare": "hospital", "name": "Hôpital bouteldja"}}, {"name": "", "latitude": 36.7066126, "longitude": 7.850772, "source": "osm", "_tags": {"amenity": "hospital", "healthcare": "hospital"}}, {"name": "مركز العتيق للاشعة", "latitude": 36.2820925, "longitude": 7.9585357, "source": "osm", "_tags": {"addr:city": "سوق أهراس", "addr:city:ar": "سوق أهراس", "amenity": "hospital", "building": "yes", "healthcare": "hospital", "name": "مركز العتيق للاشعة", "name:ar": "مركز العتيق للاشعة", "name:fr": "centre de radiologie ATIK", "source": "FB: Algerie Mapper Team (Adlen)"}}]