[{"name": "St Bernard's Hospital", "latitude": 36.1432246, "longitude": -5.3594905, "source": "osm", "_tags": {"addr:city": "Gibraltar", "amenity": "hospital", "emergency": "yes", "healthcare": "hospital", "name": "St Bernard's Hospital", "name:es": "Hospital de San Bernardo", "wikidata": "Q36207", "wikipedia": "en:St Bernard's Hospital", "wikipedia:es": "Hospital de San Bernardo (Gibraltar)"}}, {"name": "Cruz Roja", "latitude": 36.1567269, "longitude": -5.4567803, "source": "osm", "_tags": {"amenity": "hospital", "healthcare": "hospital", "name": "Cruz Roja", "operator": "Cruz Roja", "operator:type": "ngo", "operator:wikidata": "Q7178"}}, {"name": "Hospital San Carlos", "latitude": 36.4799527, "longitude": -6.1950774, "source": "osm", "_tags": {"addr:city": "San Fernando", "addr:housenumber": "2", "addr:postcode": "11100", "addr:street": "Calle Juan Sebastián Elcano", "amenity": "hospital", "building": "yes", "emergency": "yes", "healthcare": "hospital", "name": "Hospital San Carlos", "network": "Servicio Andaluz de Salud", "network:short": "SAS", "operator": "Servicio Andaluz de Salud", "operator:short": "SAS", "operator:type": "public", "operator:wikidata": "Q4753529", "website": "https://www.sspa.juntadeandalucia.es/servicioandaluzdesalud/el-sas/servicios-y-centros/informacion-por-centros/31415"}}, {"name": "Hospital Viamed Bahía de Cádiz", "latitude": 36.4208846, "longitude": -6.1500839, "source": "osm", "_tags": {"addr:city": "Chiclana de la Frontera", "addr:housenumber": "7", "addr:postcode": "11130", "addr:street": "Calle Ayala", "amenity": "hospital", "emergency": "yes", "healthcare": "hospital", "name": "Hospital Viamed Bahía de Cádiz", "wikidata": "Q87761680"}}, {"name": "Hospital de Jerez", "latitude": 36.699046, "longitude": -6.1490564, "source": "osm", "_tags": {"amenity": "hospital", "emergency": "yes", "healthcare": "hospital", "name": "Hospital de Jerez", "network": "Servicio Andaluz de Salud", "network:short": "SAS", "operator": "Servicio Andaluz de Salud", "operator:type": "public"}}, {"name": "Hospital de Santa María del Puerto", "latitude": 36.5982369, "longitude": -6.2379934, "source": "osm", "_tags": {"addr:street": "Avenida de La Libertad", "amenity": "hospital", "building": "yes", "check_date": "2024-07-02", "emergency": "yes", "healthcare": "hospital", "layer": "1", "name": "Hospital de Santa María del Puerto", "phone": "+34 956017000", "website": "https://www.josemanuelpascualpascual.es/index.php/nuestros-hospitales/hospital-santa-maria-del-puerto", "wikidata": "Q87761677"}}, {"name": "Antiguo Hospital de La Línea de la Concepción", "latitude": 36.170193, "longitude": -5.3409969, "source": "osm", "_tags": {"abandoned:amenity": "hospital", "addr:city": "La Línea de la Concepción", "addr:postcode": "11300", "amenity": "hospital", "emergency": "no", "healthcare": "hospital", "name": "Antiguo Hospital de La Línea de la Concepción", "operator": "Junta de Andalucía", "operator:type": "public"}}, {"name": "Hospital San Juan Grande", "latitude": 36.6914571, "longitude": -6.149534, "source": "osm", "_tags": {"addr:city": "Jerez", "addr:housenumber": "1", "addr:street": "Glorieta Félix Rodríguez de la Fuente", "amenity": "hospital", "emergency": "yes", "healthcare": "hospital", "name": "Hospital San Juan Grande", "operator": "Orden de San Juan de Dios", "website": "http://www.hospitalsanjuangrande.es/", "wikidata": "Q87761673"}}, {"name": "Hospital Universitario de Ceuta", "latitude": 35.8804231, "longitude": -5.3418244, "source": "osm", "_tags": {"addr:postcode": "51003", "addr:street": "Loma Colmenar", "amenity": "hospital", "emergency": "yes", "healthcare": "hospital", "name": "Hospital Universitario de Ceuta", "name:fr": "Hôpital universitaire de Ceuta", "operator": "Ingesa", "operator:type": "public", "phone": "+34 856907000", "website": "http://www.areasanitariaceuta.es", "wikidata": "Q87762692"}}, {"name": "Urgencias hospital San Carlos", "latitude": 36.4802935, "longitude": -6.1954057, "source": "osm", "_tags": {"amenity": "hospital", "building": "yes", "emergency": "yes", "healthcare": "hospital", "layer": "1", "name": "Urgencias hospital San Carlos", "operator": "Junta de Andalucía", "operator:type": "public", "website": "https://www.sspa.juntadeandalucia.es/servicioandaluzdesalud/el-sas/servicios-y-centros/informacion-por-centros/31415", "wikidata": "Q3277335", "wikipedia": "es:Hospital Militar de San Carlos"}}, {"name": "Cruz Roja", "latitude": 36.4546795, "longitude": -5.9268218, "source": "osm", "_tags": {"amenity": "hospital", "building": "yes", "check_date": "2025-01-12", "healthcare": "hospital", "name": "Cruz Roja", "operator": "Cruz Roja", "operator:wikidata": "Q7178", "operator:wikipedia": "es:Cruz Roja"}}, {"name": "Hospital de Vejer La Janda", "latitude": 36.2507344, "longitude": -5.9813808, "source": "osm", "_tags": {"amenity": "hospital", "emergency": "yes", "healthcare": "hospital", "name": "Hospital de Vejer La Janda", "network": "Servicio Andaluz de Salud", "network:short": "SAS", "operator:type": "public"}}, {"name": "Cruz Roja", "latitude": 36.0108582, "longitude": -5.6056337, "source": "osm", "_tags": {"addr:housenumber": "5", "addr:street": "Calle Alcalde Juan Núñez", "amenity": "hospital", "building": "yes", "building:colour": "white", "check_date": "2024-12-30", "healthcare": "hospital", "name": "Cruz Roja", "operator": "Cruz Roja", "operator:wikidata": "Q7178", "wheelchair": "yes"}}, {"name": "Hospital Universitario de La Línea de la Concepción", "latitude": 36.1748044, "longitude": -5.3535598, "source": "osm", "_tags": {"addr:city": "La Línea de la Concepción", "addr:housenumber": "101", "addr:postcode": "11300", "addr:street": "Calle Gabriel Miró", "amenity": "hospital", "emergency": "yes", "healthcare": "hospital", "name": "Hospital Universitario de La Línea de la Concepción", "network": "Servicio Andaluz de Salud", "network:short": "SAS", "operator": "Servicio Andaluz de Salud", "operator:short": "SAS", "operator:type": "public", "operator:wikidata": "Q4753529", "wikidata": "Q87761688", "wikipedia": "es:Hospital de La Línea de la Concepción"}}, {"name": "Centro de Salud Levante", "latitude": 36.1799239, "longitude": -5.3373562, "source": "osm", "_tags": {"addr:city": "La Línea de la Concepción", "addr:postcode": "11300", "addr:street": "Avenida del Puerto", "amenity": "hospital", "healthcare": "hospital", "name": "Centro de Salud Levante", "operator": "Junta de Andalucía", "operator:type": "public", "operator:wikidata": "Q2743342"}}, {"name": "", "latitude": 36.3032242, "longitude": -5.2920777, "source": "osm", "_tags": {"addr:city": "San Enrique de Guadiaro", "addr:postcode": "11312", "addr:street": "Avenida de San Enrique", "amenity": "hospital", "healthcare": "hospital", "operator": "Junta de Andalucía", "operator:type": "public", "operator:wikidata": "Q2743342"}}, {"name": "Hospital Universitario de Puerto Real", "latitude": 36.5202058, "longitude": -6.1518123, "source": "osm", "_tags": {"addr:street": "Autovía del Sur", "amenity": "hospital", "emergency": "yes", "healthcare": "hospital", "name": "Hospital Universitario de Puerto Real", "network": "Servicio Andaluz de Salud", "network:short": "SAS", "operator": "Servicio Andaluz de Salud", "operator:type": "public", "wikidata": "Q5902963", "wikipedia": "es:Hospital Universitario Puerto Real"}}, {"name": "Hospital Punta Europa", "latitude": 36.1109074, "longitude": -5.443741, "source": "osm", "_tags": {"amenity": "hospital", "emergency": "yes", "healthcare": "hospital", "name": "Hospital Punta Europa", "network": "Servicio Andaluz de Salud", "network:short": "SAS", "operator": "Junta de Andalucía", "operator:type": "public", "wikidata": "Q5908562"}}, {"name": "", "latitude": 36.6735646, "longitude": -6.1123493, "source": "osm", "_tags": {"amenity": "hospital", "healthcare": "hospital"}}, {"name": "Centro de Salud Poniente-El Junquillo", "latitude": 36.166051, "longitude": -5.3581769, "source": "osm", "_tags": {"addr:city": "La Línea de la Concepción", "addr:postcode": "11300", "addr:street": "Calle Andalucía", "amenity": "hospital", "healthcare": "hospital", "name": "Centro de Salud Poniente-El Junquillo", "name:ca": "Centre de Salut Poniente-El Junquillo", "name:es": "Centro de Salud Poniente-El Junquillo", "operator": "Servicio Andaluz de Salud", "operator:short": "SAS", "operator:type": "public", "operator:wikidata": "Q4753529"}}, {"name": "Centro de Salud La Velada (La Línea Centro)", "latitude": 36.1661939, "longitude": -5.3479162, "source": "osm", "_tags": {"addr:city": "La Línea de la Concepción", "addr:postcode": "11300", "addr:street": "Calle Feria", "amenity": "hospital", "healthcare": "hospital", "name": "Centro de Salud La Velada (La Línea Centro)", "operator": "Servicio Andaluz de Salud", "operator:short": "SAS", "operator:type": "public", "operator:wikidata": "Q4753529"}}, {"name": "Centro de Salud Juan Batanero", "latitude": 36.2133114, "longitude": -5.3823433, "source": "osm", "_tags": {"addr:city": "San Roque", "addr:housenumber": "4", "addr:postcode": "11360", "addr:street": "Avenida Carlos Pacheco Perujo", "amenity": "hospital", "healthcare": "hospital", "name": "Centro de Salud Juan Batanero", "operator": "Servicio Andaluz de Salud", "operator:short": "SAS", "operator:type": "public", "operator:wikidata": "Q4753529"}}, {"name": "Centro de Salud Evaristo Domínguez (San Roque Sur)", "latitude": 36.2093711, "longitude": -5.3939851, "source": "osm", "_tags": {"addr:city": "San Roque", "addr:postcode": "11360", "addr:street": "Calle de la Ermita", "amenity": "hospital", "healthcare": "hospital", "name": "Centro de Salud Evaristo Domínguez (San Roque Sur)", "operator": "Servicio Andaluz de Salud", "operator:short": "SAS", "operator:type": "public", "operator:wikidata": "Q4753529"}}, {"name": "Hospital Quirónsalud Campo de Gibraltar", "latitude": 36.1854281, "longitude": -5.4308947, "source": "osm", "_tags": {"addr:city": "Palmones", "addr:postcode": "11379", "addr:street": "Avenida de los Empresarios", "amenity": "hospital", "emergency": "yes", "healthcare": "hospital", "name": "Hospital Quirónsalud Campo de Gibraltar", "operator": "Quirónsalud", "operator:type": "public", "operator:wikidata": "Q5886225", "website": "https://www.quironsalud.es/campo-gibraltar"}}]