[{"name": "Hamadou Hocine", "latitude": 36.0966948, "longitude": 0.4099403, "source": "osm", "_tags": {"amenity": "hospital", "name": "Hamadou Hocine"}}, {"name": "المؤسسة الصحة العامة حجاج", "latitude": 36.0958771, "longitude": 0.3250874, "source": "osm", "_tags": {"addr:city": "حجاج", "addr:city:ar": "حجاج", "amenity": "hospital", "healthcare": "hospital", "name": "المؤسسة الصحة العامة حجاج", "name:ar": "المؤسسة الصحة العامة حجاج", "name:fr": "Entreprise publique de la santé publique Hadjadj"}}, {"name": "Maternité", "latitude": 35.9248464, "longitude": 0.0962475, "source": "osm", "_tags": {"amenity": "hospital", "healthcare": "hospital", "name": "Maternité", "name:fr": "Maternité"}}, {"name": "13 - hospital", "latitude": 35.9545878, "longitude": 0.0978456, "source": "osm", "_tags": {"amenity": "hospital", "name": "13 - hospital"}}, {"name": "مستشفى العجال أبو الأطرش", "latitude": 36.00071, "longitude": 0.2885151, "source": "osm", "_tags": {"addr:city": "عين تادلس", "addr:city:ar": "عين تادلس", "amenity": "hospital", "emergency": "yes", "healthcare": "hospital", "name": "مستشفى العجال أبو الأطرش", "name:ar": "مستشفى العجال أبو الأطرش", "name:fr": "Hôpital Adjel Bellatrach"}}, {"name": "Hôpital psychiatrique", "latitude": 35.9449685, "longitude": 0.0990699, "source": "osm", "_tags": {"addr:city": "Mostaganem", "amenity": "hospital", "healthcare:speciality": "psychiatry", "name": "Hôpital psychiatrique", "name:ar": "مستشفى الأمراض العقلية", "name:fr": "Hôpital psychiatrique"}}, {"name": "Urgences", "latitude": 35.9452883, "longitude": 0.0974939, "source": "osm", "_tags": {"addr:postcode": "27000", "amenity": "hospital", "emergency": "yes", "healthcare": "hospital", "healthcare:speciality": "emergency", "name": "Urgences", "name:ar": "الإستعجالات الطبية", "name:fr": "Urgences", "opening_hours": "24/7"}}, {"name": "", "latitude": 36.0966773, "longitude": 0.4095818, "source": "osm", "_tags": {"amenity": "hospital"}}, {"name": "Hôpital Ernesto Che Guevara", "latitude": 35.9346415, "longitude": 0.0941617, "source": "osm", "_tags": {"addr:city": "Mostaganem", "addr:postcode": "27000", "amenity": "hospital", "emergency": "yes", "healthcare": "hospital", "name": "Hôpital Ernesto Che Guevara"}}, {"name": "Hôpital de Kharouba", "latitude": 35.9626168, "longitude": 0.1045488, "source": "osm", "_tags": {"addr:city": "Mostaganem", "amenity": "hospital", "healthcare": "hospital", "name": "Hôpital de Kharouba", "name:ar": "مستشفى خروبة", "name:fr": "Hôpital de Kharouba"}}, {"name": "المؤسسة الصحة العامة حجاج", "latitude": 36.0961042, "longitude": 0.3251296, "source": "osm", "_tags": {"addr:city": "حجاج", "addr:city:ar": "حجاج", "amenity": "hospital", "healthcare": "hospital", "name": "المؤسسة الصحة العامة حجاج", "name:ar": "المؤسسة الصحة العامة حجاج", "name:fr": "Entreprise publique de la santé publique Hadjadj"}}, {"name": "Maternité", "latitude": 35.9247826, "longitude": 0.096135, "source": "osm", "_tags": {"amenity": "hospital", "healthcare": "hospital", "name": "Maternité"}}]