[{"name": "Hopital", "latitude": 36.6055809, "longitude": 2.1884059, "source": "osm", "_tags": {"amenity": "hospital", "healthcare": "hospital", "name": "Hopital", "name:ar": "مستشفى", "name:fr": "Hopital"}}, {"name": "Hôpital Neurologie cherchell", "latitude": 36.5967601, "longitude": 2.1752232, "source": "osm", "_tags": {"amenity": "hospital", "name": "Hôpital Neurologie cherchell"}}, {"name": "", "latitude": 36.2599684, "longitude": 1.954616, "source": "osm", "_tags": {"amenity": "hospital", "name:ar": "تحاليل طبية", "name:fr": "Analyses médicales"}}, {"name": "", "latitude": 35.8742847, "longitude": 2.0277527, "source": "osm", "_tags": {"amenity": "hospital"}}, {"name": "Centre du sang de Tipaza", "latitude": 36.5873594, "longitude": 2.4388187, "source": "osm", "_tags": {"addr:city": "Tipaza", "amenity": "hospital", "healthcare": "hospital", "name": "Centre du sang de Tipaza", "name:ar": "مركز التبرع بالدم", "name:en": "Tipaza Blood Centre", "name:fr": "Centre du sang de Tipaza"}}, {"name": "Ex-Centre des insuffisants respiratoires مستشفى الأمراض التنفسية والصدرية", "latitude": 36.3458164, "longitude": 2.2464439, "source": "osm", "_tags": {"amenity": "hospital", "healthcare": "hospital", "healthcare:speciality": "pulmonology", "name": "Ex-Centre des insuffisants respiratoires مستشفى الأمراض التنفسية والصدرية", "name:ar": "مستشفى الأمراض التنفسية والصدرية", "name:fr": "Centre des insuffisants respiratoires"}}, {"name": "Clinique de chirurgie cardio-infantile", "latitude": 36.63748, "longitude": 2.6860506, "source": "osm", "_tags": {"addr:city": "Bou Ismaïl", "addr:postcode": "42004", "amenity": "hospital", "name": "Clinique de chirurgie cardio-infantile", "name:ar": "عيادة جراحة القلب للأطفال"}}, {"name": "Hôpital d'El Affroun", "latitude": 36.4716194, "longitude": 2.6285475, "source": "osm", "_tags": {"addr:city": "El Affroun", "amenity": "hospital", "emergency": "yes", "name": "Hôpital d'El Affroun"}}, {"name": "Dispensaire", "latitude": 36.1962763, "longitude": 2.2806963, "source": "osm", "_tags": {"amenity": "hospital", "name": "Dispensaire"}}, {"name": "EPSP", "latitude": 36.2006954, "longitude": 2.0784456, "source": "osm", "_tags": {"addr:city": "Djelida", "addr:postcode": "44100", "amenity": "hospital", "name": "EPSP"}}, {"name": "CHU Makour Hamou", "latitude": 36.2651999, "longitude": 1.9636267, "source": "osm", "_tags": {"addr:city": "Aïn Defla", "addr:postcode": "44000", "addr:street": "Bd Emir Abdelkader", "amenity": "hospital", "emergency": "yes", "healthcare": "hospital", "name": "CHU Makour Hamou", "name:ar": "المؤسسة العمومية الاستشفائية مكور حمو", "name:en": "Makour Hamou Hospital", "name:fr": "EPH Makour Hamou", "phone": "+213 27 60 34 24"}}, {"name": "Hôpital de Hadjout", "latitude": 36.5097958, "longitude": 2.4122686, "source": "osm", "_tags": {"addr:city": "Hadjout", "addr:postcode": "42001", "amenity": "hospital", "emergency": "yes", "name": "Hôpital de Hadjout", "name:ar": "مستشفى حجوط", "name:en": "Hadjout Hospital", "name:fr": "Hôpital de Hadjout"}}, {"name": "Annexe maternité", "latitude": 36.5732429, "longitude": 1.9053958, "source": "osm", "_tags": {"amenity": "hospital", "emergency": "yes", "healthcare": "hospital", "name": "Annexe maternité", "name:ar": "مصلحة الأمومة"}}, {"name": "Hôpital", "latitude": 36.572394, "longitude": 1.9059303, "source": "osm", "_tags": {"addr:city": "Gouraya", "amenity": "hospital", "emergency": "yes", "healthcare": "hospital", "name": "Hôpital", "name:ar": "مستشفى", "name:fr": "Hôpital"}}, {"name": "Centre d'acceuil pour enfants à besoins particuliers", "latitude": 36.3332358, "longitude": 2.1569961, "source": "osm", "_tags": {"addr:city": "Ben Allel", "addr:postcode": "44210", "amenity": "hospital", "healthcare": "hospital", "name": "Centre d'acceuil pour enfants à besoins particuliers"}}, {"name": "", "latitude": 35.8646923, "longitude": 2.2580385, "source": "osm", "_tags": {"amenity": "hospital", "building": "yes"}}, {"name": "", "latitude": 35.8657623, "longitude": 2.2659644, "source": "osm", "_tags": {"amenity": "hospital", "building": "yes", "healthcare": "hospital"}}, {"name": "", "latitude": 35.8649304, "longitude": 2.267854, "source": "osm", "_tags": {"amenity": "hospital", "building": "yes"}}, {"name": "Hôpital Lakhdar Bouchemaa", "latitude": 36.5839779, "longitude": 2.1280451, "source": "osm", "_tags": {"amenity": "hospital", "emergency": "yes", "name": "Hôpital Lakhdar Bouchemaa", "wheelchair": "yes"}}, {"name": "EPH Theniet El Had", "latitude": 35.8785646, "longitude": 2.0196394, "source": "osm", "_tags": {"addr:city": "Theniet El Had", "amenity": "hospital", "emergency": "yes", "healthcare": "hospital", "name": "EPH Theniet El Had", "name:ar": "المؤسسة العمومية الاستشفائية لثنية الحد"}}, {"name": "salle de soins", "latitude": 36.5900995, "longitude": 2.5457498, "source": "osm", "_tags": {"amenity": "hospital", "name": "salle de soins"}}, {"name": "Hôpital", "latitude": 36.270497, "longitude": 1.9795597, "source": "osm", "_tags": {"amenity": "hospital", "construction": "hospital", "healthcare": "hospital", "name": "Hôpital", "name:ar": "مستشفى المجاهد المرحوم ماجن بن ميرة"}}, {"name": "Hôpital psychiatrique", "latitude": 36.571003, "longitude": 2.3873309, "source": "osm", "_tags": {"amenity": "hospital", "healthcare": "hospital", "healthcare:speciality": "psychiatry", "name": "Hôpital psychiatrique"}}, {"name": "Hôpital Neurologie cherchell", "latitude": 36.5968961, "longitude": 2.1752953, "source": "osm", "_tags": {"amenity": "hospital", "building:levels": "3", "healthcare": "hospital", "name": "Hôpital Neurologie cherchell"}}, {"name": "Centre de Santé", "latitude": 35.8270466, "longitude": 2.4553081, "source": "osm", "_tags": {"amenity": "hospital", "emergency": "yes", "healthcare": "hospital", "name": "Centre de Santé"}}, {"name": "Centre Médical", "latitude": 35.8245282, "longitude": 2.4519429, "source": "osm", "_tags": {"amenity": "hospital", "barrier": "wall", "name": "Centre Médical"}}, {"name": "Hôpital de Tipaza", "latitude": 36.5865753, "longitude": 2.4621748, "source": "osm", "_tags": {"addr:city": "Tipaza", "addr:postcode": "42000", "amenity": "hospital", "emergency": "yes", "healthcare": "hospital", "name": "Hôpital de Tipaza", "name:ar": "مستشفى تيبازة", "name:fr": "Hôpital de Tipaza"}}, {"name": "Sbitar", "latitude": 36.6056306, "longitude": 2.1884336, "source": "osm", "_tags": {"amenity": "hospital", "healthcare": "hospital", "name": "Sbitar"}}, {"name": "", "latitude": 36.2598463, "longitude": 1.9546052, "source": "osm", "_tags": {"amenity": "hospital", "healthcare": "hospital"}}, {"name": "Hopital de Khemis Miliana", "latitude": 36.2577634, "longitude": 2.2329014, "source": "osm", "_tags": {"addr:city": "Khemis Miliana", "addr:postcode": "44001", "addr:street": "Rue national 4", "amenity": "hospital", "emergency": "yes", "healthcare": "hospital", "healthcare:speciality": "orthopaedics;paediatrics;emergency;internal", "name": "Hopital de Khemis Miliana", "operator": "DSP Ain Defla", "operator:type": "public"}}, {"name": "Hôpital Fares Yahia", "latitude": 36.3018974, "longitude": 2.2243137, "source": "osm", "_tags": {"addr:city": "Miliana", "addr:postcode": "44003", "addr:street": "Boulevard du 1er Novembre", "amenity": "hospital", "emergency": "yes", "healthcare": "hospital", "name": "Hôpital Fares Yahia", "name:ar": "مستشفى مليانة", "type": "multipolygon"}}]