[{"name": "Immeuble City Center", "latitude": 36.450657, "longitude": 10.7356077, "source": "osm", "_tags": {"addr:city": "نابل", "addr:housenumber": "37", "addr:postcode": "8000", "addr:street": "شارع الحبيب بورقيبة", "amenity": "hospital", "healthcare": "doctor", "healthcare:speciality": "general", "name": "Immeuble City Center"}}, {"name": "CSB", "latitude": 36.4680179, "longitude": 10.7472075, "source": "osm", "_tags": {"amenity": "hospital", "healthcare": "hospital", "name": "CSB"}}, {"name": "Hôpital de Nabeul", "latitude": 36.4536442, "longitude": 10.7317892, "source": "osm", "_tags": {"amenity": "hospital", "barrier": "wall", "emergency": "yes", "name": "Hôpital de Nabeul"}}, {"name": "المستشفى الجهوي بمنزل تميم", "latitude": 36.7782263, "longitude": 10.9975643, "source": "osm", "_tags": {"addr:street": "Rue de la Plage", "amenity": "hospital", "barrier": "fence", "emergency": "yes", "fence_type": "metal", "healthcare": "hospital", "name": "المستشفى الجهوي بمنزل تميم", "name:ar": "المستشفى الجهوي بمنزل تميم", "name:fr": "Hôpital Régional de Menzel Temine", "phone": "+216 72 344 155;+216 72 344 167"}}, {"name": "مستشفى قربة", "latitude": 36.5699301, "longitude": 10.8536811, "source": "osm", "_tags": {"addr:city": "قربة", "amenity": "hospital", "healthcare": "hospital", "name": "مستشفى قربة", "name:ar": "مستشفى قربة", "name:fr": "Hôpital de Korba"}}, {"name": "Polyclinique El Hakim", "latitude": 36.5542034, "longitude": 10.8477558, "source": "osm", "_tags": {"amenity": "hospital", "healthcare": "hospital", "name": "Polyclinique El Hakim"}}, {"name": "مستوصف دار شعبان الفهري البلدي", "latitude": 36.4680101, "longitude": 10.7472208, "source": "osm", "_tags": {"amenity": "hospital", "barrier": "wall", "emergency": "no", "healthcare": "hospital", "name": "مستوصف دار شعبان الفهري البلدي", "name:ar": "مستوصف دار شعبان الفهري البلدي", "name:fr": "Hôpital Municipal Dar Chaabane Al Fehri"}}, {"name": "", "latitude": 36.4660717, "longitude": 10.8083804, "source": "osm", "_tags": {"amenity": "hospital", "healthcare": "hospital"}}, {"name": "Polyclinique du Cap Bon", "latitude": 36.7861024, "longitude": 11.009095, "source": "osm", "_tags": {"addr:city": "", "addr:street": "Route De Kelibia", "amenity": "hospital", "healthcare": "hospital", "name": "Polyclinique du Cap Bon", "phone": "+216 31 346 000"}}, {"name": "Clinique Menzel Horr", "latitude": 36.7270499, "longitude": 10.9553316, "source": "osm", "_tags": {"amenity": "hospital", "emergency": "no", "healthcare": "hospital", "healthcare:speciality": "general", "name": "Clinique Menzel Horr", "wheelchair": "yes"}}]