[{"name": "", "latitude": 36.4076992, "longitude": 4.8917133, "source": "osm", "_tags": {"amenity": "hospital"}}, {"name": "Hôpital Arassa", "latitude": 36.4249006, "longitude": 4.8240446, "source": "osm", "_tags": {"amenity": "hospital", "name": "Hôpital Arassa", "name:ar": "مستشفى عراسة", "name:fr": "Hôpital Arassa"}}, {"name": "établissements publics de santé de proximité المؤسسة العموممية للصحة الجوارية", "latitude": 35.9241676, "longitude": 5.2930364, "source": "osm", "_tags": {"amenity": "hospital", "name": "établissements publics de santé de proximité المؤسسة العموممية للصحة الجوارية", "name:ar": "المؤسسة العموممية للصحة الجوارية", "name:fr": "établissements publics de santé de proximité", "short_name:fr": "EPSP"}}, {"name": "Hôpital Mohammed Boudiaf", "latitude": 35.9134849, "longitude": 5.2880555, "source": "osm", "_tags": {"amenity": "hospital", "emergency": "yes", "name": "Hôpital Mohammed Boudiaf", "name:ar": "مستشفى محمد بوضياف", "name:fr": "Hôpital Mohammed Boudiaf"}}, {"name": "", "latitude": 35.8829135, "longitude": 5.0229101, "source": "osm", "_tags": {"amenity": "hospital"}}, {"name": "dr kermali", "latitude": 36.1782792, "longitude": 5.4027943, "source": "osm", "_tags": {"amenity": "hospital", "name": "dr kermali"}}, {"name": "EPSP", "latitude": 35.9167115, "longitude": 5.2931623, "source": "osm", "_tags": {"addr:city": "Ain Oulmane", "addr:country": "DZ", "addr:postcode": "19200", "amenity": "hospital", "fixme": "Nom officiel manquant", "name": "EPSP"}}, {"name": "médecine du travail", "latitude": 36.1809403, "longitude": 5.4042201, "source": "osm", "_tags": {"amenity": "hospital", "name": "médecine du travail"}}, {"name": "polyclinique Souk El Tenine", "latitude": 36.6263104, "longitude": 5.3360406, "source": "osm", "_tags": {"amenity": "hospital", "name": "polyclinique Souk El Tenine", "name:en": "Polyclinique"}}, {"name": "المركز الصحي الجواري 5 جويلية", "latitude": 36.0723275, "longitude": 4.7444714, "source": "osm", "_tags": {"amenity": "hospital", "name": "المركز الصحي الجواري 5 جويلية", "name:ar": "المركز الصحي الجواري 5 جويلية", "name:fr": "EPSP"}}, {"name": "العربي سلامي", "latitude": 36.2722259, "longitude": 5.127404, "source": "osm", "_tags": {"amenity": "hospital", "name": "العربي سلامي", "name:ar": "العربي سلامي", "name:fr": "Larbi Salami"}}, {"name": "Hôpital orthopédique", "latitude": 36.6694469, "longitude": 4.7674742, "source": "osm", "_tags": {"amenity": "hospital", "name": "Hôpital orthopédique"}}, {"name": "عيادة متعددة الخدمات أيث شبانة", "latitude": 36.4689527, "longitude": 4.8672682, "source": "osm", "_tags": {"addr:housenumber": "36404214", "addr:postcode": "19031", "amenity": "hospital", "internet_access": "wlan", "name": "عيادة متعددة الخدمات أيث شبانة", "name:ar": "عيادة متعددة الخدمات بني شبانة", "name:fr": "Polyclinique Ait Chebana", "phone": "0364404217"}}, {"name": "بوصيدة كسال", "latitude": 35.9023313, "longitude": 4.8891376, "source": "osm", "_tags": {"amenity": "hospital", "name": "بوصيدة كسال", "name:ar": "بوصيدة كسال"}}, {"name": "المركز الصحي شيمينو", "latitude": 36.1915202, "longitude": 5.4208297, "source": "osm", "_tags": {"amenity": "hospital", "name": "المركز الصحي شيمينو", "name:ar": "المركز الصحي شيمينو", "name:en": "Centre de santè Cheminot", "name:fr": "Centre de santè Cheminot"}}, {"name": "Oued achalal", "latitude": 36.758808, "longitude": 5.0817569, "source": "osm", "_tags": {"addr:city": "Béjaïa", "addr:city:ar": "بجاية", "addr:city:ber": "ⴲⴳⴰⵢⴻⵝ", "addr:city:fr": "Béjaïa", "addr:city:kab": "Bgayet", "amenity": "hospital", "healthcare": "hospital", "language:ar": "yes", "name": "Oued achalal", "name:ar": "وادي الشلال", "name:fr": "Oued achalal"}}, {"name": "المركز الصحي المنكوبين", "latitude": 36.163683, "longitude": 5.694079, "source": "osm", "_tags": {"amenity": "hospital", "name": "المركز الصحي المنكوبين", "name:ar": "المركز الصحي المنكوبين", "name:fr": "Centre de santé", "opening_hours": "Su-Th 08:00-16:00"}}, {"name": "عيادة متعددة الخدمات الصحية محفوظي العمري", "latitude": 36.1304673, "longitude": 5.0795389, "source": "osm", "_tags": {"amenity": "hospital", "name": "عيادة متعددة الخدمات الصحية محفوظي العمري", "name:ar": "عيادة متعددة الخدمات الصحية محفوظي العمري", "name:en": "Polyclinique Mahfoudi Lamri", "name:fr": "Polyclinique Mahfoudi Lamri"}}, {"name": "Hôpital Souk El Tenine مستشفى سوق الاثنين", "latitude": 36.6288242, "longitude": 5.339233, "source": "osm", "_tags": {"addr:city": "سوق الاثنين", "addr:city:ar": "سوق الاثنين", "amenity": "hospital", "healthcare": "hospital", "language:ar": "main", "name": "Hôpital Souk El Tenine مستشفى سوق الاثنين", "name:ar": "مستشفى سوق الاثنين", "name:en": "Souk El Tenine Hospital", "name:fr": "Hôpital Souk El Tenine"}}, {"name": "مصحة نابتي", "latitude": 36.1759794, "longitude": 5.407536, "source": "osm", "_tags": {"amenity": "hospital", "name": "مصحة نابتي", "name:ar": "مصحة نابتي", "name:fr": "Clinique NABTI", "opening_hours": "24/7"}}, {"name": "مستشفى عموشة", "latitude": 36.3760495, "longitude": 5.4112672, "source": "osm", "_tags": {"amenity": "hospital", "name": "مستشفى عموشة", "name:fr": "hôpital amoucha"}}, {"name": "", "latitude": 36.06878, "longitude": 4.7817111, "source": "osm", "_tags": {"amenity": "hospital", "healthcare": "hospital"}}, {"name": "CHU Saâdna-Abdenour المستشفى الجامعي سعادنة عبد النور", "latitude": 36.1921945, "longitude": 5.4013815, "source": "osm", "_tags": {"addr:city": "Sérif", "amenity": "hospital", "emergency": "yes", "name": "CHU Saâdna-Abdenour المستشفى الجامعي سعادنة عبد النور", "name:ar": "المركز الاستشفائي الجامعي سعادنة عبد النور", "name:fr": "CHU Saâdna-Abdenour", "wheelchair": "yes"}}, {"name": "Hôpital Khelil Amrane", "latitude": 36.7544322, "longitude": 5.0498111, "source": "osm", "_tags": {"addr:city": "Béjaïa", "amenity": "hospital", "emergency": "yes", "healthcare": "hospital", "name": "Hôpital Khelil Amrane", "name:ar": "مستشفى خليل عمران", "name:fr": "Hôpital Khelil Amrane", "website": "http://www.chubejaia.dz/", "wikidata": "Q23021568", "wikipedia": "fr:Hôpital Khelil Amrane"}}, {"name": "Hôpital Frantz Fanon", "latitude": 36.7564211, "longitude": 5.0835519, "source": "osm", "_tags": {"addr:city": "Béjaïa", "addr:city:ar": "بجاية", "addr:city:ber": "ⴲⴳⴰⵢⴻⵝ", "addr:city:fr": "Béjaïa", "addr:city:kab": "Bgayet", "alt_name:ar": "مستشفى بجاية;مستشفى بقايث;مستشفى فرانتز فانون", "amenity": "hospital", "emergency": "yes", "healthcare": "hospital", "name": "Hôpital Frantz Fanon", "name:ar": "مستشفى فرانز فانون", "name:en": "Frantz Fanon Hospital", "name:etymology": "فرانز فانون", "name:etymology:wikidata": "Q193670", "name:etymology:wikipedia": "ar:فرانز فانون", "name:fr": "Hôpital Frantz Fanon", "website": "http://www.chubejaia.dz/HopitalFrantz", "wikidata": "Q23021567"}}, {"name": "Hôpital Saroub El Khatir", "latitude": 36.1491282, "longitude": 5.6833662, "source": "osm", "_tags": {"amenity": "hospital", "emergency": "yes", "healthcare": "hospital", "layer": "1", "name": "Hôpital Saroub El Khatir"}}, {"name": "Maternité", "latitude": 36.1565708, "longitude": 5.6844565, "source": "osm", "_tags": {"amenity": "hospital", "name": "Maternité"}}, {"name": "EPSP", "latitude": 36.1529096, "longitude": 5.684881, "source": "osm", "_tags": {"amenity": "hospital", "emergency": "yes", "name": "EPSP"}}, {"name": "Centres de Santé", "latitude": 36.2001996, "longitude": 5.4294547, "source": "osm", "_tags": {"amenity": "hospital", "healthcare": "hospital", "name": "Centres de Santé"}}, {"name": "Kaab.ilot 06-1 Maternité", "latitude": 36.2020292, "longitude": 5.4058989, "source": "osm", "_tags": {"amenity": "hospital", "healthcare": "hospital", "name": "Kaab.ilot 06-1 Maternité", "wheelchair": "yes"}}, {"name": "Hôpital Bouzidi Lakhdar", "latitude": 36.0622373, "longitude": 4.7710786, "source": "osm", "_tags": {"addr:city": "Bordj Bou Arréridj", "addr:postcode": "34000", "amenity": "hospital", "emergency": "yes", "name": "Hôpital Bouzidi Lakhdar", "name:ar": "مستشفى بوزيدي لخضر", "name:fr": "Hôpital Bouzidi Lakhdar"}}, {"name": "Hôpital Mère et Enfant", "latitude": 36.2021242, "longitude": 5.3577349, "source": "osm", "_tags": {"addr:city": "Sétif", "amenity": "hospital", "emergency": "yes", "name": "Hôpital Mère et Enfant"}}, {"name": "Centre anti-cancer", "latitude": 36.2027923, "longitude": 5.3595832, "source": "osm", "_tags": {"addr:city": "Sétif", "amenity": "hospital", "emergency": "no", "name": "Centre anti-cancer"}}, {"name": "centre de santé", "latitude": 36.1952124, "longitude": 5.4284641, "source": "osm", "_tags": {"amenity": "hospital", "name": "centre de santé", "name:ar": "طبيبة خلود"}}, {"name": "Hopital Said Aouamri", "latitude": 36.3380698, "longitude": 5.0928952, "source": "osm", "_tags": {"amenity": "hospital", "name": "Hopital Said Aouamri"}}, {"name": "Hôpital Psychiatrique", "latitude": 36.304457, "longitude": 5.3061496, "source": "osm", "_tags": {"amenity": "hospital", "healthcare:speciality": "psychiatry", "name": "Hôpital Psychiatrique"}}, {"name": "Hôpital", "latitude": 36.464333, "longitude": 5.6462269, "source": "osm", "_tags": {"amenity": "hospital", "name": "Hôpital"}}, {"name": "المستوصف", "latitude": 35.8159658, "longitude": 5.5022224, "source": "osm", "_tags": {"amenity": "hospital", "building": "yes", "emergency": "yes", "name": "المستوصف", "name:ar": "المستوصف", "name:fr": "Polyclinique"}}, {"name": "Hôpital Mouhammed Bennani", "latitude": 35.9406011, "longitude": 5.0401806, "source": "osm", "_tags": {"addr:city": "Ras El Oued", "amenity": "hospital", "emergency": "yes", "name": "Hôpital Mouhammed Bennani"}}, {"name": "Centre De Sante 1044", "latitude": 36.0814213, "longitude": 4.7910137, "source": "osm", "_tags": {"amenity": "hospital", "name": "Centre De Sante 1044"}}, {"name": "Centre De Sante 1008", "latitude": 36.0826042, "longitude": 4.7704235, "source": "osm", "_tags": {"amenity": "hospital", "name": "Centre De Sante 1008"}}, {"name": "Hôpital d'orthopédie", "latitude": 36.0573743, "longitude": 4.7896319, "source": "osm", "_tags": {"amenity": "hospital", "healthcare": "hospital", "name": "Hôpital d'orthopédie"}}, {"name": "Centre de transfusion sanguine publique", "latitude": 36.7530837, "longitude": 5.0776025, "source": "osm", "_tags": {"amenity": "hospital", "healthcare": "hospital", "name": "Centre de transfusion sanguine publique", "name:fr": "Centre de transfusion sanguine publique"}}, {"name": "Maternité", "latitude": 35.9643369, "longitude": 5.4343221, "source": "osm", "_tags": {"amenity": "hospital", "name": "Maternité"}}, {"name": "Établissement Hospitalier Spécialisé en Rééducation Fonctionnelle à Ras Elma", "latitude": 36.1191726, "longitude": 5.5362371, "source": "osm", "_tags": {"amenity": "hospital", "healthcare": "hospital", "name": "Établissement Hospitalier Spécialisé en Rééducation Fonctionnelle à Ras Elma", "name:ar": "المؤسسة الإستشفائية المختصة في التأهيل و التكييف الوظيفي"}}, {"name": "Cabinet médical Hamadache.H", "latitude": 36.1909626, "longitude": 5.4183098, "source": "osm", "_tags": {"addr:city": "Sétif", "addr:postcode": "19000", "addr:street": "Rue des Frères Djemili", "amenity": "hospital", "description": "Medecine générale.\nGyneco-obstetrique.\nSuivi des femmes enceintes.\nEchographie abdomino-pelvienne", "emergency": "no", "name": "Cabinet médical Hamadache.H", "operator": "Hamadache.H"}}, {"name": "centre medical", "latitude": 36.2623073, "longitude": 5.7161383, "source": "osm", "_tags": {"amenity": "hospital", "name": "centre medical"}}, {"name": "Hôpital Ben Merad El Meki", "latitude": 36.6411738, "longitude": 4.8944789, "source": "osm", "_tags": {"addr:city": "Amizour", "addr:postcode": "06300", "amenity": "hospital", "healthcare": "hospital", "name": "Hôpital Ben Merad El Meki", "name:ar": "مستشفى بن مَرّاد المَكِّي", "name:fr": "Hôpital Ben Merad El Meki", "name:kab": "Sbitar Ben Merad Lmeki"}}, {"name": "Hopital Cheghoub Abdellah", "latitude": 36.3657124, "longitude": 5.4965122, "source": "osm", "_tags": {"amenity": "hospital", "healthcare": "hospital", "name": "Hopital Cheghoub Abdellah"}}, {"name": "médecine du travail", "latitude": 36.1810451, "longitude": 5.4047235, "source": "osm", "_tags": {"amenity": "hospital", "healthcare": "hospital", "name": "médecine du travail"}}, {"name": "Hôpital d'Aokas", "latitude": 36.6375979, "longitude": 5.2404963, "source": "osm", "_tags": {"addr:postcode": "06007", "amenity": "hospital", "healthcare": "hospital", "language:ar": "main", "name": "Hôpital d'Aokas", "name:ar": "مستشفى أوقاس"}}, {"name": "", "latitude": 36.4076614, "longitude": 4.8916201, "source": "osm", "_tags": {"amenity": "hospital", "description": "Hospital", "healthcare": "hospital"}}, {"name": "Hôpital Arassa", "latitude": 36.4246109, "longitude": 4.8242014, "source": "osm", "_tags": {"amenity": "hospital", "healthcare": "hospital", "name": "Hôpital Arassa"}}, {"name": "", "latitude": 35.8829527, "longitude": 5.022896, "source": "osm", "_tags": {"amenity": "hospital", "healthcare": "hospital"}}, {"name": "EPSP", "latitude": 35.9167765, "longitude": 5.2931877, "source": "osm", "_tags": {"amenity": "hospital", "healthcare": "hospital", "name": "EPSP"}}, {"name": "Polyclinique Souk El Tenine", "latitude": 36.6262547, "longitude": 5.3361529, "source": "osm", "_tags": {"amenity": "hospital", "healthcare": "hospital", "name": "Polyclinique Souk El Tenine", "name:fr": "Polyclinique Souk-El-Tenine"}}, {"name": "المركز الصحي الجواري 5 جويلية", "latitude": 36.0721605, "longitude": 4.7443789, "source": "osm", "_tags": {"amenity": "hospital", "healthcare": "hospital", "name": "المركز الصحي الجواري 5 جويلية", "name:ar": "المركز الصحي الجواري 5 جويلية", "name:fr": "EPSP"}}, {"name": "العربي سلامي", "latitude": 36.2722227, "longitude": 5.1271948, "source": "osm", "_tags": {"amenity": "hospital", "healthcare": "hospital", "name": "العربي سلامي", "name:ar": "العربي سلامي", "name:fr": "Larbi Sellami"}}, {"name": "", "latitude": 36.5478992, "longitude": 5.2761375, "source": "osm", "_tags": {"amenity": "hospital", "healthcare": "hospital", "healthcare:speciality": "multi_speciality", "language:ar": "yes"}}, {"name": "عيادة متعددة الخدمات بني شبانة", "latitude": 36.4688501, "longitude": 4.8671597, "source": "osm", "_tags": {"amenity": "hospital", "healthcare": "hospital", "name": "عيادة متعددة الخدمات بني شبانة", "name:ar": "عيادة متعددة الخدمات بني شبانة", "name:fr": "Polyclinique Beni Chebana"}}, {"name": "", "latitude": 36.6149609, "longitude": 5.1635792, "source": "osm", "_tags": {"amenity": "hospital", "emergency": "yes", "healthcare": "hospital", "language:ar": "main"}}, {"name": "بوصيدة كسال", "latitude": 35.9027194, "longitude": 4.8896716, "source": "osm", "_tags": {"amenity": "hospital", "healthcare": "hospital", "name": "بوصيدة كسال", "name:ar": "بوصيدة كسال"}}, {"name": "المركز الصحي شيمينو", "latitude": 36.191487, "longitude": 5.4207502, "source": "osm", "_tags": {"amenity": "hospital", "healthcare": "hospital", "name": "المركز الصحي شيمينو", "name:ar": "المركز الصحي شيمينو", "name:fr": "Centre de santé Cheminot"}}, {"name": "Salle de soins Aberouak", "latitude": 36.6992209, "longitude": 5.0006724, "source": "osm", "_tags": {"amenity": "hospital", "healthcare": "hospital", "name": "Salle de soins Aberouak", "name:ar": "قاعة العلاج ابرواق", "name:en": "Aberouak treatment room", "name:fr": "Salle de soins Aberouak"}}, {"name": "مستشفى بليليطة", "latitude": 35.8524102, "longitude": 5.2824228, "source": "osm", "_tags": {"addr:city": "صالح باي", "addr:city:ar": "صالح باي", "addr:postcode": "19013", "amenity": "hospital", "healthcare": "hospital", "language:ar": "yes", "name": "مستشفى بليليطة", "name:ar": "مستشفى بليليطة", "name:fr": "Hôpital Blilita"}}, {"name": "", "latitude": 36.1635286, "longitude": 5.6939883, "source": "osm", "_tags": {"amenity": "hospital", "healthcare": "hospital"}}, {"name": "عيادة متعددة الخدمات الصحية محفوظي العمري", "latitude": 36.1304933, "longitude": 5.0794081, "source": "osm", "_tags": {"amenity": "hospital", "healthcare": "hospital", "name": "عيادة متعددة الخدمات الصحية محفوظي العمري", "name:ar": "عيادة متعددة الخدمات الصحية محفوظي العمري"}}, {"name": "عيادة شياد حمزة للعلاج الطبيعي", "latitude": 35.8173511, "longitude": 5.5167348, "source": "osm", "_tags": {"addr:city": "Aïn Azel", "addr:postcode": "19007", "amenity": "hospital", "healthcare": "hospital", "healthcare:speciality": "physiotherapy", "name": "عيادة شياد حمزة للعلاج الطبيعي", "name:ar": "عيادة شياد حمزة للعلاج الطبيعي", "name:en": "Physiotherapist", "name:fr": "Cabinet de rééducation fonctionnelle CHIAD", "phone": "00213772779636"}}, {"name": "عيادة بني موحلي", "latitude": 36.5169232, "longitude": 4.9065768, "source": "osm", "_tags": {"addr:housenumber": "036404815", "amenity": "hospital", "healthcare": "hospital", "name": "عيادة بني موحلي", "name:ar": "عيادة بني موحلي", "name:fr": "polyclinique Béni Mouhli", "opening_hours": "24/7", "phone": "036404815"}}, {"name": "", "latitude": 36.6289608, "longitude": 5.3390171, "source": "osm", "_tags": {"amenity": "hospital"}}, {"name": "Clinique Nabti", "latitude": 36.1758795, "longitude": 5.4074833, "source": "osm", "_tags": {"amenity": "hospital", "healthcare": "hospital", "name": "Clinique Nabti"}}, {"name": "Hopital Merouaha المركز الصحي مرواحة", "latitude": 36.4513651, "longitude": 5.3061134, "source": "osm", "_tags": {"amenity": "hospital", "healthcare": "hospital", "name": "Hopital Merouaha المركز الصحي مرواحة", "name:ar": "المركز الصحي مرواحة"}}, {"name": "المؤسسة العمومية للصحة الجوارية خراطة", "latitude": 36.4918438, "longitude": 5.277096, "source": "osm", "_tags": {"amenity": "hospital", "healthcare": "hospital", "name": "المؤسسة العمومية للصحة الجوارية خراطة"}}, {"name": "", "latitude": 35.9780594, "longitude": 4.877007, "source": "osm", "_tags": {"amenity": "hospital"}}]