[{"name": "Hospital Doctor López Cano", "latitude": 36.5019053, "longitude": -6.2734207, "source": "osm", "_tags": {"addr:street": "Plaza de Madrid", "amenity": "hospital", "check_date": "2025-08-09", "email": "info@gmlopezcano.com", "healthcare": "hospital", "name": "Hospital Doctor López Cano", "nohousenumber": "yes", "phone": "+34 956 20 58 54;+34 956 20 58 55", "website": "https://www.gmlopezcano.com"}}, {"name": "U.S. Naval Hospital - Rota, Spain", "latitude": 36.6343787, "longitude": -6.3507401, "source": "osm", "_tags": {"addr:city": "Rota", "amenity": "hospital", "contact:fax": "+34 956 82 33 06", "contact:phone": "+34 956 82 33 05", "contact:website": "http://www.med.navy.mil/sites/nhrota/", "healthcare": "hospital", "name": "U.S. Naval Hospital - Rota, Spain"}}, {"name": "Hospital Virgen del Camino", "latitude": 36.7680432, "longitude": -6.3600674, "source": "osm", "_tags": {"amenity": "hospital", "building": "yes", "emergency": "yes", "healthcare": "hospital", "name": "Hospital Virgen del Camino", "phone": "+34 956 048 000", "wikidata": "Q87829744"}}, {"name": "Hospital Universitario Puerta del Mar", "latitude": 36.5090481, "longitude": -6.2778596, "source": "osm", "_tags": {"addr:city": "Cádiz", "addr:housenumber": "21", "addr:postcode": "11009", "addr:street": "Avenida Ana de Viya", "amenity": "hospital", "emergency": "yes", "healthcare": "hospital", "name": "Hospital Universitario Puerta del Mar", "network": "Servicio Andaluz de Salud", "network:short": "SAS", "operator": "Servicio Andaluz de Salud", "operator:short": "SAS", "operator:type": "public", "operator:wikidata": "Q4753529", "phone": "+34 956002040", "wheelchair": "yes", "wikidata": "Q5489257"}}, {"name": "Cruz Roja", "latitude": 36.7351937, "longitude": -6.43976, "source": "osm", "_tags": {"amenity": "hospital", "brand": "Cruz Roja Española", "brand:wikidata": "Q5792382", "emergency": "ambulance_station", "healthcare": "hospital", "name": "Cruz Roja", "operator": "Cruz Roja", "operator:type": "ngo", "operator:wikidata": "Q7178"}}, {"name": "", "latitude": 36.6346593, "longitude": -6.3506742, "source": "osm", "_tags": {"addr:city": "Rota", "amenity": "hospital", "building": "hospital", "healthcare": "hospital", "type": "multipolygon", "website": "https://rota.tricare.mil/"}}, {"name": "Clínica San Rafael", "latitude": 36.5331489, "longitude": -6.3024607, "source": "osm", "_tags": {"amenity": "hospital", "building": "yes", "emergency": "yes", "healthcare": "hospital", "name": "Clínica San Rafael", "type": "multipolygon", "website": "http://www.josemanuelpascualpascual.com/index.php?option=com_content&view=article&id=29&Itemid=23&lang=en"}}]