[{"name": "regional hospital oueslatia", "latitude": 35.8455144, "longitude": 9.5966014, "source": "osm", "_tags": {"amenity": "hospital", "name": "regional hospital oueslatia"}}, {"name": "regional hospital oueslatia", "latitude": 35.8455144, "longitude": 9.5966014, "source": "osm", "_tags": {"amenity": "hospital", "name": "regional hospital oueslatia"}}, {"name": "المستشفى الجهوي بجندوبة", "latitude": 36.5138929, "longitude": 8.7579019, "source": "osm", "_tags": {"addr:city": "جندوبة", "addr:governorate": "Jendouba", "addr:postcode": "8100", "addr:street": "Rue du Grand Mahgreb", "amenity": "hospital", "barrier": "wall", "healthcare": "hospital", "is_in": "Jendouba;Jendouba;Tunisia;Africa", "is_in:city": "Jendouba", "is_in:country": "Tunisia", "is_in:governorate": "Jendouba", "name": "المستشفى الجهوي بجندوبة", "name:ar": "المستشفى الجهوي بجندوبة", "name:fr": "Hôpital Régional de Jendouba", "phone": "+216 78 630 110"}}, {"name": "المستشفى الجهوي بسليانة", "latitude": 36.0806528, "longitude": 9.3753166, "source": "osm", "_tags": {"amenity": "hospital", "emergency": "yes", "healthcare": "hospital", "name": "المستشفى الجهوي بسليانة", "name:ar": "المستشفى الجهوي بسليانة"}}, {"name": "المستشفى الجهوي بمجاز الباب Hôpital Régional de Mejez El Bab 1", "latitude": 36.6442809, "longitude": 9.5981795, "source": "osm", "_tags": {"building": "construction", "healthcare": "hospital", "name": "المستشفى الجهوي بمجاز الباب Hôpital Régional de Mejez El Bab 1", "name:ar": "1 المستشفى الجهوي بمجاز الباب", "name:fr": "Hôpital Régional de Mejez El Bab 1", "operator": "Ministère de la Santé publique", "operator:type": "public"}}, {"name": "المستشفى الجهوي بمجاز الباب", "latitude": 36.644943, "longitude": 9.6339023, "source": "osm", "_tags": {"amenity": "hospital", "barrier": "wall", "emergency": "yes", "healthcare": "hospital", "healthcare:speciality": "general", "name": "المستشفى الجهوي بمجاز الباب", "name:ar": "المستشفى الجهوي بمجاز الباب", "name:fr": "Hôpital Régional de Medjez el Bab", "operator": "Ministère de la santé publique", "operator:type": "public", "wheelchair": "yes"}}, {"name": "ETAWLID", "latitude": 36.726344, "longitude": 9.1946824, "source": "osm", "_tags": {"amenity": "hospital", "name": "ETAWLID"}}, {"name": "Dispensaire", "latitude": 36.7548306, "longitude": 9.7186461, "source": "osm", "_tags": {"amenity": "hospital", "healthcare": "hospital", "name": "Dispensaire"}}, {"name": "مستشفى بوسالم", "latitude": 36.6073541, "longitude": 8.9673816, "source": "osm", "_tags": {"addr:city": "بوسالم", "addr:housenumber": "1", "addr:postcode": "8170", "addr:street": "Rue Avicenne", "amenity": "hospital", "healthcare": "hospital", "name": "مستشفى بوسالم", "name:ar": "مستشفى بوسالم", "name:en": "Bou Salem Hospital", "name:fr": "Hôpital de Bou Salem"}}, {"name": "", "latitude": 36.6448125, "longitude": 9.6340275, "source": "osm", "_tags": {"amenity": "hospital", "healthcare": "hospital"}}]