[{"name": "Hospital de Día de Salud Mental", "latitude": 37.471781, "longitude": -4.4278493, "source": "osm", "_tags": {"amenity": "hospital", "emergency": "no", "name": "Hospital de Día de Salud Mental"}}, {"name": "Hospital Comarcal de la Merced", "latitude": 37.2322589, "longitude": -5.0958464, "source": "osm", "_tags": {"addr:city": "Osuna", "addr:housenumber": "2", "addr:postcode": "41640", "addr:street": "Avenida de la Constitución", "amenity": "hospital", "emergency": "yes", "healthcare": "hospital", "name": "Hospital Comarcal de la Merced", "operator:type": "public", "wheelchair": "limited"}}, {"name": "Hospital Infanta Margarita", "latitude": 37.4683821, "longitude": -4.424691, "source": "osm", "_tags": {"addr:street": "Avenida de Góngora", "amenity": "hospital", "emergency": "yes", "healthcare": "hospital", "name": "Hospital Infanta Margarita", "operator:type": "public", "wikidata": "Q5902701", "wikipedia": "es:Hospital Infanta Margarita"}}, {"name": "Hospital de Alta Resolución de Puente Genil", "latitude": 37.399095, "longitude": -4.7507652, "source": "osm", "_tags": {"amenity": "hospital", "emergency": "yes", "emergency:phone": "+34 957 00 17 37", "healthcare": "hospital", "name": "Hospital de Alta Resolución de Puente Genil", "operator:type": "public", "phone": "+34 957 61 50 00", "source": "https://www.sspa.juntadeandalucia.es/servicioandaluzdesalud/el-sas/servicios-y-centros/informacion-por-centros/25490", "wikidata": "Q87761723"}}, {"name": "Hospital Comarcal de Antequera", "latitude": 37.0306957, "longitude": -4.5282263, "source": "osm", "_tags": {"addr:city": "Antequera", "addr:housename": "Hospital Comarcal de Antequera", "addr:postcode": "29200", "addr:street": "Avenida Muñoz Rojas", "amenity": "hospital", "emergency": "yes", "healthcare": "hospital", "name": "Hospital Comarcal de Antequera", "operator": "Junta de Andalucía", "operator:type": "public", "operator:wikidata": "Q2743342", "phone": "+34 951 061 600", "website": "http://www.juntadeandalucia.es/servicioandaluzdesalud/hantequera", "wheelchair": "yes"}}, {"name": "Hospital de Alta Resolución de Ecija", "latitude": 37.5492192, "longitude": -5.0816624, "source": "osm", "_tags": {"addr:city": "Écija", "addr:housenumber": "1", "addr:postcode": "41400", "addr:street": "Calle Sor Cándida Saiz", "amenity": "hospital", "building": "hospital", "name": "Hospital de Alta Resolución de Ecija"}}, {"name": "Hospital de Alta Resolución de Ecija", "latitude": 37.532354, "longitude": -5.0921777, "source": "osm", "_tags": {"addr:city": "Écija", "addr:postcode": "41400", "addr:street": "Avenida Dr. Sánchez Malo", "amenity": "hospital", "emergency": "yes", "healthcare": "hospital", "name": "Hospital de Alta Resolución de Ecija", "operator:type": "public", "wikidata": "Q87762530"}}, {"name": "Ambulatorio de la luisiana", "latitude": 37.5267677, "longitude": -5.2459035, "source": "osm", "_tags": {"amenity": "hospital", "healthcare": "hospital", "name": "Ambulatorio de la luisiana"}}, {"name": "Hospital Público de Montilla", "latitude": 37.5650481, "longitude": -4.6488653, "source": "osm", "_tags": {"amenity": "hospital", "emergency": "yes", "healthcare": "hospital", "name": "Hospital Público de Montilla", "operator:type": "public"}}, {"name": "Hospital de Palma del Río", "latitude": 37.7015174, "longitude": -5.2692805, "source": "osm", "_tags": {"addr:city": "Palma del Río", "addr:postcode": "14700", "addr:street": "Avenida del V Califa", "amenity": "hospital", "emergency": "yes", "healthcare": "hospital", "healthcare:speciality": "general", "name": "Hospital de Palma del Río", "operator": "Servicio Andaluz de Salud", "operator:short": "SAS", "operator:type": "public", "operator:wikidata": "Q4753529"}}]