[{"name": "Ospedale Garibaldi Centro", "latitude": 37.5111274, "longitude": 15.0769125, "source": "osm", "_tags": {"amenity": "hospital", "healthcare": "hospital", "name": "Ospedale Garibaldi Centro", "operator": "Azienda ospedaliera di rilievo nazionale e di alta specializzazione Garibaldi", "website": "https://www.ao-garibaldi.catania.it/presidio-osp-garibaldi/"}}, {"name": "Ospedale Garibaldi Nesima", "latitude": 37.5114964, "longitude": 15.0430937, "source": "osm", "_tags": {"amenity": "hospital", "healthcare": "hospital", "name": "Ospedale Garibaldi Nesima", "operator": "Azienda ospedaliera di rilievo nazionale e di alta specializzazione Garibaldi", "website": "https://www.ao-garibaldi.catania.it/presidio-osp-nesima/", "wikidata": "Q30280424"}}, {"name": "Ospedale Cannizzaro", "latitude": 37.5428271, "longitude": 15.1168243, "source": "osm", "_tags": {"amenity": "hospital", "emergency": "yes", "healthcare": "hospital", "name": "Ospedale Cannizzaro", "official_name": "Azienda ospedaliera per l'emergenza Cannizzaro", "website": "https://www.ospedale-cannizzaro.it/"}}, {"name": "NAS Sigonella Hospital", "latitude": 37.4589941, "longitude": 14.9617372, "source": "osm", "_tags": {"amenity": "hospital", "building": "hospital", "emergency": "yes", "name": "NAS Sigonella Hospital"}}, {"name": "Ospedale Maria Santissima Addolorata", "latitude": 37.6465465, "longitude": 14.8712988, "source": "osm", "_tags": {"amenity": "hospital", "healthcare": "hospital", "name": "Ospedale Maria Santissima Addolorata", "operator": "Azienda Sanitaria Provinciale di Catania", "website": "https://www.aspct.it/azienda/presidi-ospedalieri/biancavilla/"}}, {"name": "Ospedale Gaspare Rodolico", "latitude": 37.5300887, "longitude": 15.0703346, "source": "osm", "_tags": {"amenity": "hospital", "healthcare": "hospital", "name": "Ospedale Gaspare Rodolico", "operator": "Azienda ospedaliera universitaria Policlinico Gaspare Rodolico-San Marco", "ref:vatin": "IT04721290874", "website": "https://www.policlinicorodolicosanmarco.it/g-rodolico/"}}, {"name": "Casa di cura Villa Aurelia", "latitude": 37.1010465, "longitude": 15.2689633, "source": "osm", "_tags": {"amenity": "hospital", "healthcare": "hospital", "name": "Casa di cura Villa Aurelia"}}, {"name": "Ospedale Maria Paternò Arezzo", "latitude": 36.9222698, "longitude": 14.7424568, "source": "osm", "_tags": {"amenity": "hospital", "healthcare": "hospital", "name": "Ospedale Maria Paternò Arezzo", "operator": "Azienda Sanitaria Provinciale di Ragusa", "phone": "+39 0932 600111", "short_name": "Ospedale Paternò Arezzo", "toilets:wheelchair": "yes", "wheelchair": "yes"}}, {"name": "Presidi Ospedalieri Umberto I e Alessandro Rizza - ospedale Alessandro Rizza", "latitude": 37.0829344, "longitude": 15.2705005, "source": "osm", "_tags": {"amenity": "hospital", "emergency": "no", "name": "Presidi Ospedalieri Umberto I e Alessandro Rizza - ospedale Alessandro Rizza", "operator": "Azienda Sanitaria Provinciale di Siracusa", "phone": "+39 0931 724111", "short_name": "Ospedale Alessandro Rizza"}}, {"name": "Ospedale Santissimo Salvatore", "latitude": 37.5721669, "longitude": 14.8984023, "source": "osm", "_tags": {"amenity": "hospital", "emergency": "yes", "healthcare": "hospital", "name": "Ospedale Santissimo Salvatore", "operator": "Azienda Sanitaria Provinciale di Catania", "website": "https://www.aspct.it/azienda/presidi-ospedalieri/patern/"}}, {"name": "Presidi Ospedalieri Umberto I e Alessandro Rizza - ospedale Umberto I", "latitude": 37.0738474, "longitude": 15.2830275, "source": "osm", "_tags": {"amenity": "hospital", "emergency": "yes", "healthcare": "hospital", "name": "Presidi Ospedalieri Umberto I e Alessandro Rizza - ospedale Umberto I", "operator": "Azienda Sanitaria Provinciale di Siracusa", "phone": "+39 0931 724111", "short_name": "Ospedale Umberto I"}}, {"name": "Ospedale Unico Avola-Noto - presidio Giuseppe Di Maria", "latitude": 36.9265804, "longitude": 15.1584524, "source": "osm", "_tags": {"amenity": "hospital", "emergency": "yes", "name": "Ospedale Unico Avola-Noto - presidio Giuseppe Di Maria", "operator": "Azienda Sanitaria Provinciale di Siracusa", "phone": "+39 0931 582111", "short_name": "Ospedale Di Maria"}}, {"name": "Ospedale Maggiore Nino Baglieri", "latitude": 36.83926, "longitude": 14.7652072, "source": "osm", "_tags": {"amenity": "hospital", "emergency": "yes", "healthcare": "hospital", "name": "Ospedale Maggiore Nino Baglieri", "note": "intitolato con delibera GM n. 58/2022", "operator": "Azienda Sanitaria Provinciale di Ragusa", "phone": "+39 0932 448111", "short_name": "Ospedale Maggiore"}}, {"name": "Casa di cura Santa Lucia", "latitude": 37.0803662, "longitude": 15.2978999, "source": "osm", "_tags": {"amenity": "hospital", "healthcare": "hospital", "name": "Casa di cura Santa Lucia"}}, {"name": "Casa di cura Villa Azzurra", "latitude": 37.1019912, "longitude": 15.2688324, "source": "osm", "_tags": {"amenity": "hospital", "healthcare": "hospital", "name": "Casa di cura Villa Azzurra"}}, {"name": "Casa di cura Villa Mauritius", "latitude": 37.10048, "longitude": 15.2695207, "source": "osm", "_tags": {"amenity": "hospital", "healthcare": "hospital", "name": "Casa di cura Villa Mauritius"}}, {"name": "Clinica Villa Rizzo", "latitude": 37.0793003, "longitude": 15.2783932, "source": "osm", "_tags": {"amenity": "hospital", "healthcare": "hospital", "name": "Clinica Villa Rizzo"}}, {"name": "Ospedale Emanuele Muscatello", "latitude": 37.2456312, "longitude": 15.2345022, "source": "osm", "_tags": {"amenity": "hospital", "emergency": "yes", "healthcare": "hospital", "name": "Ospedale Emanuele Muscatello", "operator": "Azienda Sanitaria Provinciale di Siracusa", "phone": "+39 0931 989111", "short_name": "Ospedale Muscatello", "wheelchair": "yes"}}, {"name": "Ospedale Unico Avola-Noto - presidio Raffaele Trigona", "latitude": 36.9044146, "longitude": 15.0696983, "source": "osm", "_tags": {"amenity": "hospital", "emergency": "yes", "healthcare": "hospital", "name": "Ospedale Unico Avola-Noto - presidio Raffaele Trigona", "operator": "Azienda Sanitaria Provinciale di Siracusa", "phone": "+39 0931 890111", "short_name": "Ospedale Trigona", "wheelchair": "yes"}}, {"name": "Ospedale di Lentini", "latitude": 37.2851288, "longitude": 14.9827038, "source": "osm", "_tags": {"amenity": "hospital", "emergency": "yes", "healthcare": "hospital", "name": "Ospedale di Lentini", "operator": "Azienda Sanitaria Provinciale di Siracusa", "phone": "+39 0931 909111"}}, {"name": "Infermeria Presidiaria di Augusta", "latitude": 37.2203567, "longitude": 15.2231164, "source": "osm", "_tags": {"amenity": "hospital", "building": "hospital", "building:levels": "3", "check_date": "2024-06-27", "name": "Infermeria Presidiaria di Augusta", "roof:levels": "0", "roof:shape": "flat", "wheelchair": "yes"}}, {"name": "Ospedale San Marco", "latitude": 37.4799972, "longitude": 15.0383501, "source": "osm", "_tags": {"amenity": "hospital", "emergency": "yes", "healthcare": "hospital", "name": "Ospedale San Marco", "operator": "Azienda ospedaliera universitaria Policlinico Gaspare Rodolico-San Marco", "website": "https://www.policlinicorodolicosanmarco.it/san-marco/"}}, {"name": "Centro Cuore Morgagni", "latitude": 37.6172105, "longitude": 15.0523933, "source": "osm", "_tags": {"amenity": "hospital", "emergency": "no", "healthcare": "hospital", "healthcare:speciality": "cardiology", "name": "Centro Cuore Morgagni"}}, {"name": "Casa di cura Villa Salus", "latitude": 37.1097186, "longitude": 15.2312596, "source": "osm", "_tags": {"amenity": "hospital", "healthcare": "hospital", "name": "Casa di cura Villa Salus"}}, {"name": "Humanitas Istituto Clinico Catanese", "latitude": 37.4886585, "longitude": 15.0050906, "source": "osm", "_tags": {"amenity": "hospital", "name": "Humanitas Istituto Clinico Catanese"}}, {"name": "Ospedale San Giovanni Di Dio e Sant'Isidoro", "latitude": 37.7241438, "longitude": 15.1702292, "source": "osm", "_tags": {"amenity": "hospital", "healthcare": "hospital", "healthcare:speciality": "general", "name": "Ospedale San Giovanni Di Dio e Sant'Isidoro", "operator": "Azienda Sanitaria Provinciale di Catania", "website": "https://www.aspct.it/azienda/presidi-ospedalieri/caltagirone/"}}, {"name": "Ospedale Mario Basso Ragusa", "latitude": 37.277613, "longitude": 14.7959188, "source": "osm", "_tags": {"amenity": "hospital", "healthcare": "hospital", "name": "Ospedale Mario Basso Ragusa", "operator": "Azienda Sanitaria Provinciale di Catania", "short_name": "Ospedale Basso Ragusa", "website": "https://www.aspct.it/azienda/presidi-ospedalieri/militello/"}}, {"name": "Ospedale Santa Marta e Santa Venera", "latitude": 37.6156779, "longitude": 15.1432311, "source": "osm", "_tags": {"amenity": "hospital", "healthcare": "hospital", "name": "Ospedale Santa Marta e Santa Venera", "operator": "Azienda Sanitaria Provinciale di Catania", "website": "https://www.aspct.it/azienda/presidi-ospedalieri/p-o-s-marta-e-s-venera-acireale/"}}, {"name": "Ospedale Castiglione-Prestianni", "latitude": 37.7889942, "longitude": 14.8362258, "source": "osm", "_tags": {"amenity": "hospital", "healthcare": "hospital", "name": "Ospedale Castiglione-Prestianni", "operator": "Azienda Sanitaria Provinciale di Catania", "phone": "+39 095 7746111", "website": "https://www.aspct.it/azienda/presidi-ospedalieri/bronte/"}}, {"name": "Centro clinico diagnostico Giovanni Battista Morgagni - Presidio di Catania", "latitude": 37.5337328, "longitude": 15.0806473, "source": "osm", "_tags": {"amenity": "hospital", "emergency": "no", "healthcare": "hospital", "name": "Centro clinico diagnostico Giovanni Battista Morgagni - Presidio di Catania", "phone": "+39 095 238111", "type": "multipolygon", "website": "https://www.policlinicomorgagni.it/it/"}}]