[{"name": "المركز المندمج للشباب والطفولة بالخضراء", "latitude": 36.8300388, "longitude": 10.1921935, "source": "osm", "_tags": {"amenity": "hospital", "healthcare": "hospital", "name": "المركز المندمج للشباب والطفولة بالخضراء", "name:ar": "المركز المندمج للشباب والطفولة بالخضراء", "name:fr": "Centre d'Enfants Bourguiba"}}, {"name": "حالة طوارئ", "latitude": 36.8667257, "longitude": 10.2895844, "source": "osm", "_tags": {"addr:postcode": "2046", "amenity": "hospital", "healthcare": "hospital", "name": "حالة طوارئ", "name:ar": "حالة طوارئ", "name:en": "Emergency", "name:fr": "Urgences"}}, {"name": "parapharmacie", "latitude": 36.8525991, "longitude": 10.1685548, "source": "osm", "_tags": {"amenity": "hospital", "healthcare": "hospital", "name": "parapharmacie"}}, {"name": "Laboratoire d'analyses médicales Atf Kamoun", "latitude": 36.833963, "longitude": 10.1510901, "source": "osm", "_tags": {"amenity": "hospital", "name": "Laboratoire d'analyses médicales Atf Kamoun"}}, {"name": "Carthagene قرطاجنة", "latitude": 36.8454573, "longitude": 10.2001733, "source": "osm", "_tags": {"amenity": "hospital", "name": "Carthagene قرطاجنة"}}, {"name": "Centre médical AHLEM", "latitude": 36.8272095, "longitude": 10.1200428, "source": "osm", "_tags": {"addr:city": "التحرير", "addr:postcode": "2000", "addr:street": "شارع المنجي سليم", "amenity": "hospital", "healthcare": "hospital", "name": "Centre médical AHLEM"}}, {"name": "مركز الصحة بحي إنسيم", "latitude": 36.8767262, "longitude": 10.1990583, "source": "osm", "_tags": {"addr:city": "ariana", "addr:postcode": "1001", "addr:street": "نهج جبران خليل جبران", "amenity": "hospital", "healthcare": "hospital", "name": "مركز الصحة بحي إنسيم", "name:aeb": "مركز الصحة بحي إنسيم", "name:fr": "centre de santé de base cité Nassim", "operator": "centre", "operator:type": "public"}}, {"name": "مستشفى الرازي", "latitude": 36.8108089, "longitude": 10.0830765, "source": "osm", "_tags": {"addr:city": "منوبة", "addr:country": "TN", "addr:governorate": "Manouba", "addr:housename": "Hôpital Razi", "addr:housenumber": "1", "addr:postcode": "2010", "addr:street": "نهج البرتقال", "amenity": "hospital", "barrier": "wall", "is_in:city": "Manouba", "is_in:country": "Tunisia", "is_in:governorate": "Manouba", "leisure": "garden", "name": "مستشفى الرازي", "name:ar": "مستشفى الرازي", "name:en": "AL RAZI Hospital", "name:fr": "Hôpital Razi", "wikidata": "Q30279976"}}, {"name": "مستشفى المنجي سليم", "latitude": 36.8670591, "longitude": 10.291253, "source": "osm", "_tags": {"amenity": "hospital", "emergency": "yes", "healthcare": "hospital", "healthcare:speciality": "surgery;paediatrics;radiology;psychiatry;internal_medicine;intensive_care;orthopaedics;trauma;rhumatology;acupuncture;gastroenterology;cardiology", "name": "مستشفى المنجي سليم", "name:ar": "مستشفى المنجي سليم", "name:en": "Hospital Mongi Slim", "name:fr": "CHU Mongi Slim", "wikidata": "Q12242626", "wikipedia": "ar:مستشفى المنجي سليم بالمرسى"}}, {"name": "مستشفى خير الدين", "latitude": 36.8291495, "longitude": 10.3156622, "source": "osm", "_tags": {"addr:city": "تونس", "addr:city:ar": "تونس", "amenity": "hospital", "name": "مستشفى خير الدين", "name:ar": "مستشفى خير الدين", "name:en": "Kheireddine Hospital", "name:fr": "Hôpital Kheireddine"}}, {"name": "Polyclinique Les Berges du Lac", "latitude": 36.8319366, "longitude": 10.2309188, "source": "osm", "_tags": {"addr:city": "Tunis-Les Berges du Lac", "addr:country": "TN", "addr:housename": "Polyclinique Les Berges du Lac", "addr:neighbourhood": "Les Berges du Lac", "addr:postcode": "1053", "addr:street": "Rue du Lac de Constance", "alt_name": "Clinique Les Berges du Lac", "amenity": "hospital", "email": "polyclinique.lac@gnet.tn", "fax": "+216 71 960 309", "name": "Polyclinique Les Berges du Lac", "name:fr": "Polyclinique Les Berges du Lac", "phone": "+216 71 960 000", "website": "http://www.polyclinique-lac.com/"}}, {"name": "المركز المندمج للشباب والطفولة بالخضراء", "latitude": 36.8299282, "longitude": 10.1922241, "source": "osm", "_tags": {"amenity": "hospital", "healthcare": "hospital", "name": "المركز المندمج للشباب والطفولة بالخضراء", "name:ar": "المركز المندمج للشباب والطفولة بالخضراء", "name:fr": "Centre d'Enfants Bourguiba"}}, {"name": "مصحة التوفيق", "latitude": 36.8319442, "longitude": 10.1557946, "source": "osm", "_tags": {"addr:city": "El Omrane", "addr:street": "Boulevard Mohamed Bouazizi", "alt_name": "Clinique Taoufik", "amenity": "hospital", "barrier": "fence", "name": "مصحة التوفيق", "name:ar": "مصحة التوفيق", "name:fr": "Polyclinique Taoufik", "phone": "+216 71 848 211"}}, {"name": "مركز الطب الرياضي", "latitude": 36.8407088, "longitude": 10.1914372, "source": "osm", "_tags": {"amenity": "hospital", "name": "مركز الطب الرياضي", "name:ar": "مركز الطب الرياضي", "name:fr": "Centre de Médecine du Sport"}}, {"name": "الصيدلية المركزية", "latitude": 36.83338, "longitude": 10.1812123, "source": "osm", "_tags": {"addr:city": "تونس", "addr:city:ar": "تونس", "amenity": "hospital", "healthcare": "hospital", "language:ar": "main", "name": "الصيدلية المركزية", "name:ar": "الصيدلية المركزية", "name:fr": "Pharmacie Centrale"}}, {"name": "مصحة المنار", "latitude": 36.8352462, "longitude": 10.1508853, "source": "osm", "_tags": {"addr:street": "Rue Habib Echatti", "amenity": "clinic", "building": "hospital", "fax": "+216 71 883 100", "healthcare": "hospital", "name": "مصحة المنار", "name:ar": "مصحة المنار", "name:en": "El Manar Clinic", "name:fr": "Clinique El Manar", "phone": "+216 71 885 000"}}, {"name": "Hôpital Ibn Nafis", "latitude": 36.8677531, "longitude": 10.1776358, "source": "osm", "_tags": {"amenity": "hospital", "barrier": "wall", "check_date": "2025-05-24", "name": "Hôpital Ibn Nafis"}}, {"name": "مستشفى محمود الماطري بأريانة", "latitude": 36.8678364, "longitude": 10.1829009, "source": "osm", "_tags": {"amenity": "hospital", "check_date": "2025-05-24", "name": "مستشفى محمود الماطري بأريانة", "name:ar": "مستشفى محمود الماطري بأريانة", "name:fr": "Hôpital Mahmoud El Matri"}}, {"name": "معهد باستور", "latitude": 36.8234552, "longitude": 10.1792225, "source": "osm", "_tags": {"addr:city": "تونس", "addr:city:ar": "تونس", "amenity": "hospital", "healthcare": "hospital", "name": "معهد باستور", "name:ar": "معهد باستور", "name:fr": "Institut Pasteur", "phone": "+216 71783 022", "website": "http://www.pasteur.tn/"}}, {"name": "المستشفى الجهوي بمنزل بورقيبة", "latitude": 37.1612865, "longitude": 9.7969174, "source": "osm", "_tags": {"addr:city": "Menzel Bourguiba", "addr:street": "Rue de Haïfa", "amenity": "hospital", "emergency": "no", "healthcare": "hospital", "name": "المستشفى الجهوي بمنزل بورقيبة", "name:ar": "المستشفى الجهوي بمنزل بورقيبة", "name:fr": "Hôpital Régional de Menzel Bourguiba", "phone": "+216 72 460 284"}}, {"name": "", "latitude": 36.8426438, "longitude": 10.1655623, "source": "osm", "_tags": {"amenity": "hospital", "healthcare": "hospital", "name:fr": "Analyse centre masmoudi", "parking": "surface"}}, {"name": "Polyclinique el Farabi", "latitude": 36.8482963, "longitude": 10.1678033, "source": "osm", "_tags": {"addr:city": "El Menzah VI", "addr:housenumber": "3", "addr:street": "Rue Zaghouani", "amenity": "hospital", "barrier": "wall", "check_date": "2025-05-25", "name": "Polyclinique el Farabi", "phone": "+216 71 750 500;+216 71 233 916"}}, {"name": "Hannibal Medical Center", "latitude": 36.8455508, "longitude": 10.2846667, "source": "osm", "_tags": {"amenity": "hospital", "building": "yes", "name": "Hannibal Medical Center"}}, {"name": "Hospital des Forces de Securité Interieures (F.S.I)", "latitude": 36.8791068, "longitude": 10.3250055, "source": "osm", "_tags": {"amenity": "hospital", "name": "Hospital des Forces de Securité Interieures (F.S.I)", "name:fr": "Hôpital des Forces de Securité Interieures (F.S.I)"}}, {"name": "المستشفى المحلي حسان بلخوجة براس الجبل", "latitude": 37.2107996, "longitude": 10.1251345, "source": "osm", "_tags": {"addr:city": "Ras Jebel", "addr:postcode": "7070", "amenity": "hospital", "check_date": "2024-11-02", "emergency": "yes", "name": "المستشفى المحلي حسان بلخوجة براس الجبل", "name:ar": "المستشفى المحلي حسان بلخوجة براس الجبل", "name:fr": "Hôpital Hassen Belkhouja de Ras Jebel", "phone": "+216 72 449 299", "wheelchair": "yes"}}, {"name": "مصحة المنار", "latitude": 36.8352984, "longitude": 10.151085, "source": "osm", "_tags": {"amenity": "hospital", "healthcare": "hospital", "name": "مصحة المنار", "name:ar": "مصحة المنار", "name:en": "Elmanar", "name:fr": "Elmanara"}}, {"name": "مستشفى التّضامن", "latitude": 36.8329352, "longitude": 10.0966626, "source": "osm", "_tags": {"addr:city": "ariana", "addr:postcode": "2041", "addr:street": "Avenue des Martyrs", "amenity": "hospital", "name": "مستشفى التّضامن", "name:ar": "مستشفى التّضامن", "name:fr": "Hopital Etadhamen"}}, {"name": "", "latitude": 36.9000249, "longitude": 10.1912732, "source": "osm", "_tags": {"amenity": "hospital"}}, {"name": "مصحة باستور", "latitude": 36.8492, "longitude": 10.1986852, "source": "osm", "_tags": {"addr:street": "الشرقية 1", "amenity": "hospital", "building": "hospital", "height": "32", "name": "مصحة باستور", "name:ar": "مصحة باستور", "name:en": "Clinic Pasteur", "name:fr": "Pasteur;Polyclinique pasteur"}}, {"name": "صيدلية الليل", "latitude": 36.824732, "longitude": 10.1395882, "source": "osm", "_tags": {"addr:city": "تونس", "addr:city:ar": "تونس", "addr:street": "شارع ابن الخطيب", "amenity": "hospital", "healthcare": "hospital", "name": "صيدلية الليل", "name:ar": "صيدلية الليل", "name:fr": "Pharmacie de nuit"}}, {"name": "صيدلية اليوم", "latitude": 36.8249191, "longitude": 10.1394206, "source": "osm", "_tags": {"addr:city": "تونس", "addr:city:ar": "تونس", "addr:street": "شارع ابن الخطيب", "amenity": "hospital", "healthcare": "hospital", "name": "صيدلية اليوم", "name:ar": "صيدلية اليوم", "name:fr": "Pharmacie du jour"}}, {"name": "centre de santé de base", "latitude": 36.8313162, "longitude": 10.0912749, "source": "osm", "_tags": {"amenity": "hospital", "name": "centre de santé de base", "operator": ""}}, {"name": "centre de santé de base", "latitude": 36.8314124, "longitude": 10.0914279, "source": "osm", "_tags": {"amenity": "hospital", "name": "centre de santé de base", "operator": ""}}, {"name": "", "latitude": 37.2699119, "longitude": 9.8606593, "source": "osm", "_tags": {"addr:city": "Bizerte", "addr:postcode": "7000", "addr:street": "Rue Pasteur", "amenity": "hospital", "healthcare": "hospital", "name:fr": "Hôpital Régional Habib Bougatfa", "phone": "+216 72 460 284"}}, {"name": "Hôpital Militaire de Bizerte", "latitude": 37.2717371, "longitude": 9.8619446, "source": "osm", "_tags": {"amenity": "hospital", "healthcare": "hospital", "landuse": "military", "name": "Hôpital Militaire de Bizerte", "wikidata": "Q16039686", "wikipedia": "ar:المستشفى العسكري ببنزرت"}}, {"name": "Unité De Diagnostic Anténatal UDANB", "latitude": 37.2750094, "longitude": 9.8632926, "source": "osm", "_tags": {"amenity": "hospital", "healthcare": "hospital", "name": "Unité De Diagnostic Anténatal UDANB"}}, {"name": "", "latitude": 36.8695849, "longitude": 10.1777869, "source": "osm", "_tags": {"amenity": "hospital", "healthcare": "hospital"}}, {"name": "centre hospitalier cite Nassime", "latitude": 36.8767268, "longitude": 10.199058, "source": "osm", "_tags": {"addr:city": "ariana", "addr:postcode": "1001", "addr:street": "نهج جبران خليل جبران", "amenity": "hospital", "healthcare": "hospital", "healthcare:speciality": "community", "name": "centre hospitalier cite Nassime", "operator": "centre", "operator:type": "public"}}, {"name": "معهد محمد القصاب للجبر وتقويم الأعضاء", "latitude": 36.8139135, "longitude": 10.1030165, "source": "osm", "_tags": {"amenity": "hospital", "barrier": "wall", "emergency": "yes", "healthcare": "hospital", "healthcare:speciality": "orthopaedics;hand_surgery;plastic_surgery;anaesthetics;cosmetic_surgery;trauma;physiotherapy;rhumatology;radiology;diagnostic_radiology;intensive_care", "name": "معهد محمد القصاب للجبر وتقويم الأعضاء", "name:ar": "معهد محمد القصاب للجبر وتقويم الأعضاء", "name:fr": "Institut \"Mohamed T. Kassab\" d'Orthopedie", "operator": "Ministère de la santé", "type": "multipolygon", "wikidata": "Q12244357"}}]