[{"name": "", "latitude": 36.8584766, "longitude": 7.2934883, "source": "osm", "_tags": {"amenity": "hospital", "healthcare": "hospital"}}, {"name": "", "latitude": 36.8338193, "longitude": 7.4603361, "source": "osm", "_tags": {"amenity": "hospital", "healthcare": "hospital", "name:fr": "Hôpital"}}, {"name": "Polyclinique Lessak Abdelmajid", "latitude": 36.8648843, "longitude": 6.9211232, "source": "osm", "_tags": {"amenity": "hospital", "emergency": "no", "name": "Polyclinique Lessak Abdelmajid"}}, {"name": "Nouvel Hôpital Abderezzak Bouhara", "latitude": 36.8624113, "longitude": 6.8975747, "source": "osm", "_tags": {"amenity": "hospital", "emergency": "yes", "name": "Nouvel Hôpital Abderezzak Bouhara"}}, {"name": "Hôpital de Skikda", "latitude": 36.8822669, "longitude": 6.9085399, "source": "osm", "_tags": {"addr:city": "سكيكدة", "amenity": "hospital", "emergency": "yes", "healthcare": "hospital", "name": "Hôpital de Skikda", "name:ar": "مستشفى سكيكدة", "name:en": "Skikda Hospital", "name:fr": "Hôpital de Skikda"}}, {"name": "Polyclinique 700 Logements", "latitude": 36.8670424, "longitude": 6.9008135, "source": "osm", "_tags": {"amenity": "hospital", "emergency": "no", "healthcare": "hospital", "name": "Polyclinique 700 Logements", "name:ar": "مستوصف 700 مسكن"}}, {"name": "Clinique Abu Al-Quassim", "latitude": 36.8697387, "longitude": 6.9143478, "source": "osm", "_tags": {"amenity": "hospital", "emergency": "yes", "name": "Clinique Abu Al-Quassim", "name:ar": "Clinique Abu Al-Quassim ( Hammani )", "name:fr": "مصحة أبو القاسم (حماني)"}}, {"name": "Hôpital psychiatrique Aboubaker Errazi", "latitude": 36.8984189, "longitude": 7.7248659, "source": "osm", "_tags": {"addr:city": "Annaba", "addr:postcode": "23000", "addr:street": "Boulevard Belaid Belkacem", "amenity": "hospital", "barrier": "wall", "healthcare:speciality": "psychiatry", "name": "Hôpital psychiatrique Aboubaker Errazi", "phone": "+213 38 84 97 52"}}, {"name": "EHS Seraïdi", "latitude": 36.9094797, "longitude": 7.6767212, "source": "osm", "_tags": {"amenity": "hospital", "name": "EHS Seraïdi"}}, {"name": "مستشفى أحمد قواسمي", "latitude": 37.0665604, "longitude": 7.3780062, "source": "osm", "_tags": {"addr:city": "شطايبي", "addr:city:ar": "شطايبي", "addr:postcode": "23014", "addr:street": "نهج حفصاوي عمار", "addr:street:ar": "نهج حفصاوي عمار", "amenity": "hospital", "healthcare": "hospital", "name": "مستشفى أحمد قواسمي", "name:ar": "مستشفى أحمد قواسمي", "name:fr": "Hôpital Ahmed Gouasmi"}}, {"name": "Hôpital Dorban Annaba", "latitude": 36.9093599, "longitude": 7.7300736, "source": "osm", "_tags": {"addr:city": "Annaba", "addr:postcode": "23000", "addr:street": "Rue Bicha Youcef", "amenity": "hospital", "name": "Hôpital Dorban Annaba", "name:ar": "مستشفى ضربان - عنابة", "phone": "038 83 46 76"}}, {"name": "", "latitude": 36.8584326, "longitude": 7.2935634, "source": "osm", "_tags": {"amenity": "hospital", "healthcare": "hospital"}}, {"name": "", "latitude": 36.8337168, "longitude": 7.4604417, "source": "osm", "_tags": {"amenity": "hospital", "healthcare": "hospital"}}]