[{"name": "Centro de salud, Viñuela", "latitude": 36.8655459, "longitude": -4.142385, "source": "osm", "_tags": {"amenity": "hospital", "name": "Centro de salud, Viñuela", "name:en": "Health center, Viñuela"}}, {"name": "Hospital de Alta resolución", "latitude": 37.4541208, "longitude": -3.9314535, "source": "osm", "_tags": {"amenity": "hospital", "building": "yes", "emergency": "yes", "healthcare": "hospital", "name": "Hospital de Alta resolución", "operator:type": "public"}}, {"name": "Hospital HLA Inmaculada", "latitude": 37.1641966, "longitude": -3.608053, "source": "osm", "_tags": {"addr:city": "Granada", "addr:housenumber": "8", "addr:postcode": "18004", "addr:street": "Calle Doctor Alejandro Otero", "alt_name": "Clínica La Inmaculada", "amenity": "hospital", "check_date": "2025-07-21", "emergency": "yes", "healthcare": "hospital", "name": "Hospital HLA Inmaculada", "operator": "Grupo Hospitalario HLA", "operator:type": "private", "phone": "+34 958 18 77 00", "website": "https://www.grupohla.com", "wikidata": "Q87761812"}}, {"name": "Hospital Universitario Clínico San Cecilio", "latitude": 37.1464506, "longitude": -3.6053995, "source": "osm", "_tags": {"addr:city": "Granada", "addr:housenumber": "2", "addr:postcode": "18016", "addr:street": "Avenida Doctor Jesús Candel Fábregas", "amenity": "hospital", "emergency": "yes", "emergency:phone": "+34 958 02 88 27;958 84 06 60", "healthcare": "hospital", "name": "Hospital Universitario Clínico San Cecilio", "network": "Servicio Andaluz de Salud", "network:short": "SAS", "official_name": "Hospital Universitario Clínico San Cecilio", "old_name": "Hospital del PTS;Hospital Universitario Campus de la Salud Alejandro Otero;Hospital Campus de la Salud", "operator": "Servicio Andaluz de Salud", "operator:short": "SAS", "operator:type": "public", "operator:wikidata": "Q4753529", "phone": "+34 958 02 30 00", "phone:pediatrics": "+34 958 02 18 78", "ref": "16442", "source": "https://www.sspa.juntadeandalucia.es/servicioandaluzdesalud/el-sas/servicios-y-centros/informacion-por-centros/16442", "website": "https://www.husc.es", "wheelchair": "yes"}}, {"name": "Hospital General del Hospital Universitario Virgen de las Nieves", "latitude": 37.1881745, "longitude": -3.6096598, "source": "osm", "_tags": {"addr:housenumber": "2", "addr:street": "Avenida de las Fuerzas Armadas", "amenity": "hospital", "emergency": "yes", "emergency:phone": "+34 958 02 88 27", "healthcare": "hospital", "healthcare:speciality": "general;emergency", "name": "Hospital General del Hospital Universitario Virgen de las Nieves", "old_name": "Ruiz de Alda", "old_name:etymology:wikidata": "Q1382670", "operator": "Servicio Andaluz de Salud", "operator:short": "SAS", "operator:type": "public", "operator:wikidata": "Q4753529", "phone": "+34 958 02 00 00", "ref": "16436", "source": "https://www.sspa.juntadeandalucia.es/servicioandaluzdesalud/el-sas/servicios-y-centros/informacion-por-centros/16436", "wikidata": "Q97604237"}}, {"name": "Hospital Universitario Virgen de las Nieves", "latitude": 37.1928961, "longitude": -3.6072293, "source": "osm", "_tags": {"addr:city": "Granada", "addr:postcode": "18012", "addr:street": "Avenida Juan Pablo II", "amenity": "hospital", "emergency": "yes", "healthcare": "hospital", "healthcare:speciality": "neurology;emergency;chiropractic", "name": "Hospital Universitario Virgen de las Nieves", "operator": "Servicio Andaluz de Salud", "operator:type": "public"}}, {"name": "Complejo Hospitalario de Jaén", "latitude": 37.7756923, "longitude": -3.7932015, "source": "osm", "_tags": {"addr:city": "Jaén", "amenity": "hospital", "emergency": "yes", "healthcare": "hospital", "name": "Complejo Hospitalario de Jaén", "operator:type": "public"}}, {"name": "Hospital Metropolitano", "latitude": 37.7838819, "longitude": -3.827114, "source": "osm", "_tags": {"addr:city": "Jaén", "addr:street": "Carretera de Córdoba", "amenity": "hospital", "building": "hospital", "contact:facebook": "https://www.facebook.com/HospitalMetropolitanoJaen", "contact:instagram": "https://www.instagram.com/metropolitanodejaen/", "contact:linkedin": "https://www.linkedin.com/company/hospital-metropolitano-de-ja%C3%A9n/", "contact:phone": "+34 953 27 55 65", "healthcare": "hospital", "name": "Hospital Metropolitano", "old_name": "Hotel La Imora", "start_date": "2023-05", "website": "https://hospitalmetropolitano.es/"}}, {"name": "Centro de Consultas Externas", "latitude": 37.1892481, "longitude": -3.6090749, "source": "osm", "_tags": {"amenity": "hospital", "healthcare": "hospital", "name": "Centro de Consultas Externas"}}, {"name": "Hospital de Neurotraumatología y Rehabilitación", "latitude": 37.1930103, "longitude": -3.6074065, "source": "osm", "_tags": {"addr:city": "Granada", "addr:postcode": "18012", "amenity": "hospital", "building": "hospital", "building:levels": "9", "building:levels:underground": "2", "emergency": "yes", "healthcare": "hospital", "name": "Hospital de Neurotraumatología y Rehabilitación", "network": "Servicio Andaluz de Salud", "network:short": "SAS", "operator:type": "public", "wikidata": "Q87761809"}}, {"name": "Hospital de San Juan de Dios", "latitude": 37.1804499, "longitude": -3.6033242, "source": "osm", "_tags": {"addr:street": "Calle San Juan de Dios", "amenity": "hospital", "emergency": "no", "healthcare": "hospital", "name": "Hospital de San Juan de Dios", "operator": "Servicio Andaluz de Salud - Junta de Andalucía", "wikidata": "Q30603279"}}, {"name": "Hospital de San Rafael", "latitude": 37.1809954, "longitude": -3.6031085, "source": "osm", "_tags": {"addr:housenumber": "19", "addr:street": "Calle San Juan de Dios", "amenity": "hospital", "email": "granada1.sanrafael@sjd.es", "fax": "+34 958209110", "healthcare": "hospital", "name": "Hospital de San Rafael", "operator": "Orden Hospitalaria de San Juan de Dios", "operator:type": "religious", "operator:website": "https://www.sjdgranada.es", "phone": "+34 958275700", "source": "https://www.sjdgranada.es/hospital-san-rafael", "wikidata": "Q43896504"}}, {"name": "Vithas Granada", "latitude": 37.1646963, "longitude": -3.5727364, "source": "osm", "_tags": {"addr:housenumber": "6", "addr:street": "Avenida Santa María de la Alhambra", "amenity": "hospital", "email": "international.granada@vithas.es", "healthcare": "hospital", "name": "Vithas Granada", "phone": "+34 958 80 88 80", "source": "https://vithas.es/Granada/home", "website": "https://vithas.es", "wikidata": "Q87761817"}}, {"name": "Hospital Neurotraumatológico", "latitude": 37.7949773, "longitude": -3.7779783, "source": "osm", "_tags": {"addr:city": "Jaén", "amenity": "hospital", "emergency": "yes", "healthcare": "hospital", "name": "Hospital Neurotraumatológico", "operator": "Servicio Andaluz de Salud", "operator:short": "SAS", "operator:type": "public", "operator:wikidata": "Q4753529"}}, {"name": "Hospital Doctor Sagaz", "latitude": 37.7706225, "longitude": -3.817956, "source": "osm", "_tags": {"alt_name": "El Neveral", "amenity": "hospital", "emergency": "no", "healthcare": "hospital", "name": "Hospital Doctor Sagaz", "wikidata": "Q87761906"}}, {"name": "Hospital Materno-Infantil del Hospital Universitario Virgen de las Nieves", "latitude": 37.18884, "longitude": -3.6107606, "source": "osm", "_tags": {"addr:city": "Granada", "addr:housenumber": "2", "addr:postcode": "18014", "addr:street": "Avenida de las Fuerzas Armadas", "amenity": "hospital", "emergency": "yes", "emergency:phone": "+34 958 02 88 27", "healthcare": "hospital", "healthcare:speciality": "maternity", "name": "Hospital Materno-Infantil del Hospital Universitario Virgen de las Nieves", "network": "Servicio Andaluz de Salud", "network:short": "SAS", "old_name": "Ruiz de Alda", "old_name:etymology:wikidata": "Q1382670", "operator": "Servicio Andaluz de Salud", "operator:short": "SAS", "operator:type": "public", "operator:wikidata": "Q4753529", "phone": "+34 958 02 00 00", "ref": "16438", "source": "https://www.sspa.juntadeandalucia.es/servicioandaluzdesalud/el-sas/servicios-y-centros/informacion-por-centros/16438", "wikidata": "Q87761819"}}, {"name": "Hospital de Alta Resolución de Loja", "latitude": 37.1709277, "longitude": -4.1544995, "source": "osm", "_tags": {"addr:street": "Avenida María del Carmen Romero Avellaneda", "amenity": "hospital", "check_date": "2025-02-28", "emergency": "yes", "emergency:phone": "+34 958 02 88 27", "healthcare": "hospital", "name": "Hospital de Alta Resolución de Loja", "network": "Servicio Andaluz de Salud", "network:short": "SAS", "operator:type": "public", "phone": "+34 958 33 81 00", "ref": "25561", "source": "https://www.sspa.juntadeandalucia.es/servicioandaluzdesalud/el-sas/servicios-y-centros/informacion-por-centros/25561", "wikidata": "Q87761816"}}, {"name": "Hospital Doctor Olóriz", "latitude": 37.1877777, "longitude": -3.6054511, "source": "osm", "_tags": {"addr:city": "Granada", "addr:housenumber": "16", "addr:postcode": "18012", "addr:street": "Avenida Doctor Olóriz", "amenity": "hospital", "healthcare": "hospital", "name": "Hospital Doctor Olóriz", "operator:type": "public", "source": "https://www.huvn.es/el_hospital/centros/hospital_dr_oloriz"}}, {"name": "", "latitude": 37.7851629, "longitude": -3.7838943, "source": "osm", "_tags": {"amenity": "hospital", "healthcare": "hospital"}}]