[{"name": "Centro Médico Virgen de la Caridad", "latitude": 37.6153286, "longitude": -0.9877215, "source": "osm", "_tags": {"amenity": "hospital", "check_date": "2024-01-04", "healthcare": "hospital", "name": "Centro Médico Virgen de la Caridad", "operator:type": "private", "wheelchair": "yes", "wikidata": "Q87762236", "wikimedia_commons": "Category:Hospital Centro Médico Virgen de la Caridad"}}, {"name": "Hospital General Universitario Sta. María del Rosell", "latitude": 37.6081888, "longitude": -0.9761543, "source": "osm", "_tags": {"addr:city": "Cartagena", "addr:housenumber": "61", "addr:postcode": "30203", "addr:street": "Paseo de Alfonso XIII", "amenity": "hospital", "check_date": "2024-01-04", "emergency": "yes", "healthcare": "hospital", "name": "Hospital General Universitario Sta. María del Rosell", "operator:type": "public"}}, {"name": "Hospital Perpetuo Socorro 2", "latitude": 37.6082119, "longitude": -0.9915947, "source": "osm", "_tags": {"amenity": "hospital", "name": "Hospital Perpetuo Socorro 2"}}, {"name": "Hospital Perpetuo Socorro", "latitude": 37.6143344, "longitude": -0.996901, "source": "osm", "_tags": {"amenity": "hospital", "building": "yes", "emergency": "yes", "healthcare": "hospital", "name": "Hospital Perpetuo Socorro", "wikidata": "Q87762217", "wikimedia_commons": "Category:Hospital Perpetuo Socorro Cartagena"}}, {"name": "Santo y Real Hospital de Caridad", "latitude": 37.6271688, "longitude": -0.9945401, "source": "osm", "_tags": {"alt_name": "Hospital de los Pinos", "amenity": "hospital", "healthcare": "hospital", "name": "Santo y Real Hospital de Caridad", "wikidata": "Q87762215", "wikimedia_commons": "Category:Santo y Real Hospital de la Caridad"}}, {"name": "Centro de Rehabilitación de Salud Mental de Cartagena", "latitude": 37.6105888, "longitude": -0.9768919, "source": "osm", "_tags": {"amenity": "hospital", "building": "yes", "healthcare": "hospital", "name": "Centro de Rehabilitación de Salud Mental de Cartagena"}}, {"name": "Hospital General Universitario Santa Lucía", "latitude": 37.6017782, "longitude": -0.9617145, "source": "osm", "_tags": {"amenity": "hospital", "emergency": "yes", "healthcare": "hospital", "name": "Hospital General Universitario Santa Lucía", "operator:type": "public", "wikidata": "Q16576145", "wikimedia_commons": "Category:Hospital General Universitario Santa Lucía", "wikipedia": "es:Hospital General Universitario Santa Lucía"}}, {"name": "Centro Sociosanitario 'Cristo de los Mineros'", "latitude": 37.6384202, "longitude": -0.9044218, "source": "osm", "_tags": {"amenity": "hospital", "barrier": "wall", "name": "Centro Sociosanitario 'Cristo de los Mineros'"}}, {"name": "Complejo Hospitalario Cartagena", "latitude": 37.604231, "longitude": -0.9687883, "source": "osm", "_tags": {"amenity": "hospital", "emergency": "yes", "idee:name": "Complejo Hospitalario Cartagena", "name": "Complejo Hospitalario Cartagena", "type": "site"}}]