[{"name": "Ospedale dei Bianchi Vittorio Emanuele Terzo", "latitude": 37.8114273, "longitude": 13.302137, "source": "osm", "_tags": {"amenity": "hospital", "name": "Ospedale dei Bianchi Vittorio Emanuele Terzo"}}, {"name": "Presidio Ospedaliero Vittorio Emanuele II", "latitude": 37.6741848, "longitude": 12.796632, "source": "osm", "_tags": {"amenity": "hospital", "contact:phone": "+39 0924 930111", "name": "Presidio Ospedaliero Vittorio Emanuele II"}}, {"name": "Ospedale San Giovanni di Dio", "latitude": 37.351753, "longitude": 13.6078249, "source": "osm", "_tags": {"amenity": "hospital", "emergency": "yes", "name": "Ospedale San Giovanni di Dio"}}, {"name": "Ospedale Giovanni Paolo II", "latitude": 37.525982, "longitude": 13.0738699, "source": "osm", "_tags": {"amenity": "hospital", "emergency": "yes", "name": "Ospedale Giovanni Paolo II"}}, {"name": "Cittadella Sanitaria", "latitude": 37.3020387, "longitude": 13.6008477, "source": "osm", "_tags": {"amenity": "hospital", "healthcare": "hospital", "name": "Cittadella Sanitaria", "operator": "Azienda Sanitaria Provinciale di Agrigento", "operator:type": "public"}}, {"name": "", "latitude": 37.6295695, "longitude": 13.6289574, "source": "osm", "_tags": {"amenity": "hospital"}}, {"name": "Presidio ospedaliero Fratelli Parlapiano", "latitude": 37.4925341, "longitude": 13.2686713, "source": "osm", "_tags": {"amenity": "hospital", "healthcare": "hospital", "name": "Presidio ospedaliero Fratelli Parlapiano"}}]