[{"name": "Urgences médicale", "latitude": 36.8920953, "longitude": 4.1264919, "source": "osm", "_tags": {"amenity": "hospital", "name": "Urgences médicale", "name:ar": "ثيڤزيرث", "name:fr": "Tigzirt", "opening_hours": "24/7"}}, {"name": "Hôpital Dellys", "latitude": 36.9168697, "longitude": 3.8952259, "source": "osm", "_tags": {"amenity": "hospital", "name": "Hôpital Dellys", "operator": "EPH"}}, {"name": "Urgences", "latitude": 36.9171742, "longitude": 3.8948262, "source": "osm", "_tags": {"amenity": "hospital", "name": "Urgences", "operator": "Polyclinique"}}, {"name": "", "latitude": 36.9164971, "longitude": 3.8955502, "source": "osm", "_tags": {"amenity": "hospital", "name:fr": "dellys"}}, {"name": "dispensaire", "latitude": 36.8432286, "longitude": 3.98773, "source": "osm", "_tags": {"amenity": "hospital", "name": "dispensaire"}}, {"name": "", "latitude": 36.8923759, "longitude": 4.1264974, "source": "osm", "_tags": {"amenity": "hospital", "name:fr": "Hôpital de Tigzirt"}}, {"name": "Dr LOUAHCHI Gynecologue", "latitude": 36.917622, "longitude": 3.8941501, "source": "osm", "_tags": {"addr:city": "dellys", "addr:housenumber": "17", "addr:street": "cite 92 logts les jardins", "amenity": "hospital", "emergency": "no", "healthcare": "hospital", "healthcare:speciality": "gynaecology", "name": "Dr LOUAHCHI Gynecologue", "phone": "024762825"}}, {"name": "Hopital Azzefoune", "latitude": 36.8912359, "longitude": 4.4229936, "source": "osm", "_tags": {"addr:postcode": "15010", "addr:street": "vers lycée", "amenity": "hospital", "email": "epspazeffoun@yahoo.fr", "name": "Hopital Azzefoune", "name:ar": "مستشفى أزفون", "name:fr": "EPSP Azeffoun", "opening_hours": "24/7", "phone": "026450604", "website": "https://epsp-azeffoun.forumactif.com/"}}, {"name": "Hôpital", "latitude": 36.8858539, "longitude": 4.4266505, "source": "osm", "_tags": {"amenity": "hospital", "healthcare": "hospital", "name": "Hôpital"}}, {"name": "Hôpital Dellys", "latitude": 36.9166966, "longitude": 3.8951593, "source": "osm", "_tags": {"amenity": "hospital", "healthcare": "hospital", "name": "Hôpital Dellys"}}, {"name": "Urgences", "latitude": 36.9171594, "longitude": 3.8948525, "source": "osm", "_tags": {"amenity": "hospital", "healthcare": "hospital", "name": "Urgences"}}, {"name": "Hôpital Dellys", "latitude": 36.916762, "longitude": 3.8951899, "source": "osm", "_tags": {"amenity": "hospital", "healthcare": "hospital", "name": "Hôpital Dellys"}}, {"name": "dispensaire", "latitude": 36.8432973, "longitude": 3.9876429, "source": "osm", "_tags": {"amenity": "hospital", "healthcare": "hospital", "name": "dispensaire"}}, {"name": "Urgences médicale", "latitude": 36.8922865, "longitude": 4.1266275, "source": "osm", "_tags": {"amenity": "hospital", "healthcare": "hospital", "name": "Urgences médicale"}}, {"name": "Dr LOUAHCHI Gynecologue", "latitude": 36.9176274, "longitude": 3.8942038, "source": "osm", "_tags": {"amenity": "hospital", "healthcare": "hospital", "name": "Dr LOUAHCHI Gynecologue"}}]