[{"name": "Hospital Terras do Infante", "latitude": 37.0978863, "longitude": -8.6820705, "source": "osm", "_tags": {"addr:housenumber": "129", "addr:street": "Avenida Dom Sebastião", "amenity": "hospital", "building": "yes", "check_date": "2024-08-19", "contact:phone": "+351 282 770 100", "contact:website": "https://www.chualgarve.min-saude.pt/contactos/", "emergency": "yes", "healthcare": "hospital", "name": "Hospital Terras do Infante", "operator:type": "public"}}, {"name": "Hospital de São Camilo", "latitude": 37.1387314, "longitude": -8.5453557, "source": "osm", "_tags": {"amenity": "hospital", "healthcare": "hospital", "name": "Hospital de São Camilo"}}, {"name": "Hospital Particular do Algarve - Alvor", "latitude": 37.1306662, "longitude": -8.5821737, "source": "osm", "_tags": {"addr:housenumber": "27", "addr:postcode": "8500-322", "addr:street": "Sitio Cruz da Bota Lote", "amenity": "hospital", "building": "yes", "contact:facebook": "grupohpasaude", "email": "callcenter@grupohpa.com", "healthcare": "hospital", "name": "Hospital Particular do Algarve - Alvor", "operator": "HPA Saúde", "phone": "282 42 04 00", "website": "https://www.grupohpa.com/en/units/algarve/hospitals/hospital-particular-do-algarve-alvor/"}}, {"name": "Centro Hospitalar e Universitário do Algarve-Hospital de Portimão", "latitude": 37.1553911, "longitude": -8.5393979, "source": "osm", "_tags": {"addr:postcode": "8500-338", "addr:street": "Estrada do Poço Seco", "amenity": "hospital", "building": "yes", "emergency": "yes", "healthcare": "hospital", "name": "Centro Hospitalar e Universitário do Algarve-Hospital de Portimão", "phone": "282450300", "type": "multipolygon"}}]