[{"name": "Presidio ospedaliero Abele Ajello", "latitude": 37.6571979, "longitude": 12.6004486, "source": "osm", "_tags": {"amenity": "hospital", "emergency": "yes", "healthcare": "hospital", "name": "Presidio ospedaliero Abele Ajello", "wheelchair": "yes", "wikidata": "Q3886661", "wikipedia": "it:Ospedale di Mazara del Vallo"}}, {"name": "Poliambulatorio Lo Re", "latitude": 37.6436711, "longitude": 12.6148488, "source": "osm", "_tags": {"amenity": "hospital", "building": "yes", "healthcare": "hospital", "name": "Poliambulatorio Lo Re"}}, {"name": "Ospedale Bernardo Nagar", "latitude": 36.8347305, "longitude": 11.9449572, "source": "osm", "_tags": {"addr:city": "Pantelleria", "addr:postcode": "91017", "amenity": "hospital", "contact:alt_phone": "+39 0923 910288", "contact:fax": "+39 0923 911337", "contact:phone": "+39 0923 910234", "healthcare": "hospital", "name": "Ospedale Bernardo Nagar", "website": "https://www.asptrapani.it/servizi/notizie/notizie_homepage.aspx"}}, {"name": "Ospedale Paolo Borsellino", "latitude": 37.7946628, "longitude": 12.4985668, "source": "osm", "_tags": {"amenity": "hospital", "name": "Ospedale Paolo Borsellino"}}]