[{"name": "مركز أم الطبول الصحي", "latitude": 36.8814704, "longitude": 8.5647338, "source": "osm", "_tags": {"addr:city": "السوارخ", "addr:city:ar": "السوارخ", "addr:place": "أم الطبول", "addr:place:ar": "أم الطبول", "amenity": "hospital", "healthcare": "hospital", "name": "مركز أم الطبول الصحي", "name:ar": "مركز أم الطبول الصحي", "name:fr": "Centre de santé Oum Theboul"}}, {"name": "مستشفى ابن رشد", "latitude": 36.9107362, "longitude": 7.746547, "source": "osm", "_tags": {"addr:postcode": "23000", "amenity": "hospital", "healthcare": "hospital", "name": "مستشفى ابن رشد", "name:ar": "مستشفى ابن رشد", "name:en": "Ibn Rochd Hospital", "name:fr": "Hôpital Ibn Rochd"}}, {"name": "المؤسسة الاستشفائية المتخصصة عبد الله نواورية البوني أمراض النساء والتوليد جراحة الأطفال جراحة التوليد", "latitude": 36.8562889, "longitude": 7.7372108, "source": "osm", "_tags": {"amenity": "hospital", "emergency": "Généco-obstetrique", "healthcare": "hospital", "healthcare:speciality": "gynaecology;paediatrics", "name": "المؤسسة الاستشفائية المتخصصة عبد الله نواورية البوني أمراض النساء والتوليد جراحة الأطفال جراحة التوليد", "name:ar": "المؤسسة الاستشفائية المتخصصة عبد الله نواورية البوني أمراض النساء والتوليد جراحة الأطفال جراحة التوليد", "name:fr": "Abdellah Nouaria El-Bouni"}}, {"name": "مستشفى ابن سينا", "latitude": 36.9042439, "longitude": 7.7667381, "source": "osm", "_tags": {"amenity": "hospital", "name": "مستشفى ابن سينا", "name:ar": "مستشفى ابن سينا", "name:en": "Ibn Sina Hospital", "name:fr": "Hôpital Ibn Sina (ex Caroubier)"}}, {"name": "CHU Ibn Rochd", "latitude": 36.9107529, "longitude": 7.7465599, "source": "osm", "_tags": {"amenity": "hospital", "emergency": "yes", "healthcare": "hospital", "name": "CHU Ibn Rochd"}}, {"name": "Hôpital de El Bouni", "latitude": 36.856035, "longitude": 7.7372582, "source": "osm", "_tags": {"addr:city": "El Bouni", "amenity": "hospital", "emergency": "yes", "name": "Hôpital de El Bouni"}}, {"name": "", "latitude": 36.8581387, "longitude": 7.7840698, "source": "osm", "_tags": {"amenity": "hospital"}}, {"name": "Hôpital Frantz Fanon", "latitude": 36.903458, "longitude": 7.7661068, "source": "osm", "_tags": {"addr:city": "Annaba", "addr:postcode": "23000", "amenity": "hospital", "emergency": "yes", "name": "Hôpital Frantz Fanon"}}, {"name": "Centre Sanitaire", "latitude": 36.9039598, "longitude": 7.7577703, "source": "osm", "_tags": {"amenity": "hospital", "healthcare": "hospital", "name": "Centre Sanitaire"}}, {"name": "مركز الصحي أم الطبول", "latitude": 36.8814488, "longitude": 8.5647182, "source": "osm", "_tags": {"addr:city": "السوارخ", "addr:city:ar": "السوارخ", "addr:place": "أم الطبول", "addr:place:ar": "أم الطبول", "amenity": "hospital", "building": "hospital", "healthcare": "hospital", "name": "مركز الصحي أم الطبول", "name:ar": "مركز الصحي أم الطبول", "name:fr": "Centre de santé Oum Theboul"}}, {"name": "Hôpital Dorban Annaba", "latitude": 36.9093599, "longitude": 7.7300736, "source": "osm", "_tags": {"addr:city": "Annaba", "addr:postcode": "23000", "addr:street": "Rue Bicha Youcef", "amenity": "hospital", "name": "Hôpital Dorban Annaba", "name:ar": "مستشفى ضربان - عنابة", "phone": "038 83 46 76"}}, {"name": "المؤسسة الاستشفائية للصحة الجوارية عمار بوزيد القالة", "latitude": 36.8955648, "longitude": 8.4434873, "source": "osm", "_tags": {"addr:city": "القالة", "addr:city:ar": "القالة", "addr:postcode": "36002", "amenity": "hospital", "healthcare": "hospital", "name": "المؤسسة الاستشفائية للصحة الجوارية عمار بوزيد القالة", "name:ar": "المؤسسة الاستشفائية للصحة الجوارية عمار بوزيد القالة", "name:fr": "EPH Bouzid Ammar El Kala"}}, {"name": "مستشفى أمراض الأطفال سان تيراس", "latitude": 36.9189504, "longitude": 7.7604144, "source": "osm", "_tags": {"addr:city": "عنابة", "addr:city:ar": "عنابة", "addr:postcode": "23000", "amenity": "hospital", "healthcare": "hospital", "healthcare:speciality": "paediatrics", "name": "مستشفى أمراض الأطفال سان تيراس", "name:ar": "مستشفى أمراض الأطفال سان تيراس", "name:fr": "Hôpital Pediatrique Sainte Thérèse"}}, {"name": "مصحة المنظر الجميل", "latitude": 36.9081847, "longitude": 7.7469129, "source": "osm", "_tags": {"amenity": "hospital", "healthcare": "hospital", "name": "مصحة المنظر الجميل", "name:ar": "مصحة المنظر الجميل", "name:fr": "Clinique Bellevue"}}]