[{"name": "Hospital Lusíadas Albufeira", "latitude": 37.1029751, "longitude": -8.2333047, "source": "osm", "_tags": {"addr:city": "Albufeira", "addr:postcode": "8200-112", "addr:street": "Avenida da Correeira", "alt_name": "Hospital Lusíadas Albufeira", "amenity": "hospital", "emergency": "yes", "healthcare": "hospital", "healthcare:speciality": "general;paediatrics;ophthalmology;cardiology;dermatology;internal;gastroenterology;urology;plastic_surgery", "name": "Hospital Lusíadas Albufeira", "operator": "Lusíadas Saúde", "operator:type": "private", "phone": "+351 289 892 040", "website": "https://www.lusiadas.pt"}}, {"name": "Centro Hospitalar e Universitário do Algarve-Hospital de Faro", "latitude": 37.0246982, "longitude": -7.9287978, "source": "osm", "_tags": {"amenity": "hospital", "emergency": "yes", "healthcare": "hospital", "name": "Centro Hospitalar e Universitário do Algarve-Hospital de Faro", "wheelchair": "yes"}}, {"name": "Hospital dos Lusíadas", "latitude": 37.0206823, "longitude": -7.9392199, "source": "osm", "_tags": {"amenity": "hospital", "healthcare": "hospital", "name": "Hospital dos Lusíadas", "operator:type": "private"}}, {"name": "Centro de Saúde de Salir", "latitude": 37.2405438, "longitude": -8.0455626, "source": "osm", "_tags": {"addr:city": "Salir", "addr:housenumber": "7", "addr:postcode": "8100-202", "addr:street": "Rua José Viegas Gregório", "amenity": "clinic", "emergency": "no", "healthcare": "hospital", "name": "Centro de Saúde de Salir"}}, {"name": "Hospital Particular do Algarve - Gambelas", "latitude": 37.0452107, "longitude": -7.9680755, "source": "osm", "_tags": {"amenity": "hospital", "check_date": "2025-02-04", "emergency": "yes", "healthcare": "hospital", "name": "Hospital Particular do Algarve - Gambelas", "wheelchair": "yes"}}, {"name": "Clinica Cidade Real", "latitude": 37.1924268, "longitude": -7.4197853, "source": "osm", "_tags": {"addr:street": "Rua do Moinho da Água", "amenity": "hospital", "healthcare": "hospital", "healthcare:speciality": "fisioterapia", "name": "Clinica Cidade Real"}}, {"name": "Hospital de Loulé", "latitude": 37.1371977, "longitude": -8.021586, "source": "osm", "_tags": {"amenity": "hospital", "healthcare": "hospital", "name": "Hospital de Loulé", "name:de": "Loulé Krankenhaus", "name:en": "Loulé Hospital", "name:es": "Hospital de Loulé", "name:fr": "Hôpital de Loulé", "name:nl": "Loulé Ziekenhuis", "name:pt": "Hospital de Loulé", "type": "multipolygon"}}]