[{"name": "Hospital de Riotinto", "latitude": 37.6933198, "longitude": -6.5978406, "source": "osm", "_tags": {"addr:city": "Minas de Riotinto", "addr:housenumber": "5", "addr:postcode": "21660", "addr:street": "Avenida de la Esquila", "amenity": "hospital", "building": "hospital", "emergency": "yes", "healthcare": "hospital", "name": "Hospital de Riotinto", "network": "Servicio Andaluz de Salud", "network:short": "SAS", "operator:type": "public", "source": "PNOA", "source:date": "2010", "wikidata": "Q5902870", "wikipedia": "es:Hospital de Riotinto"}}, {"name": "Hospital Virgen de la Bella", "latitude": 37.2604561, "longitude": -7.1942078, "source": "osm", "_tags": {"amenity": "hospital", "emergency": "yes", "healthcare": "hospital", "name": "Hospital Virgen de la Bella", "phone": "+34 959 18 05 50", "website": "https://www.josemanuelpascualpascual.es/index.php/nuestros-hospitales/hospital-virgen-de-la-bella", "wikidata": "Q87761892", "wikipedia": "es:Hospital Virgen de la Bella"}}, {"name": "Hospital Vázquez Díaz", "latitude": 37.2795872, "longitude": -6.9211327, "source": "osm", "_tags": {"amenity": "hospital", "healthcare": "hospital", "name": "Hospital Vázquez Díaz", "phone": "+34 959014620", "wikidata": "Q87761885"}}, {"name": "", "latitude": 37.2701009, "longitude": -7.264814, "source": "osm", "_tags": {"amenity": "hospital", "healthcare": "hospital"}}, {"name": "Cruz Roja", "latitude": 37.2044207, "longitude": -7.0281344, "source": "osm", "_tags": {"amenity": "hospital", "building": "yes", "building:levels": "1", "emergency": "lifeguard", "healthcare": "hospital", "lifeguard": "base", "name": "Cruz Roja", "operator": "Cruz Roja", "operator:wikidata": "Q7178", "operator:wikipedia": "es:Cruz Roja"}}, {"name": "Hospital Sanyres Aljaraque", "latitude": 37.2861441, "longitude": -7.0047258, "source": "osm", "_tags": {"amenity": "hospital", "name": "Hospital Sanyres Aljaraque"}}, {"name": "Cruz Roja", "latitude": 37.2137047, "longitude": -6.939598, "source": "osm", "_tags": {"building": "yes", "emergency": "ambulance_station", "healthcare": "hospital", "name": "Cruz Roja", "office": "ngo"}}, {"name": "Hospital Juan Ramón Jiménez", "latitude": 37.2797496, "longitude": -6.9264569, "source": "osm", "_tags": {"addr:city": "Huelva", "addr:postcode": "21005", "addr:street": "Ronda Exterior Norte", "amenity": "hospital", "emergency": "yes", "healthcare": "hospital", "healthcare:speciality": "psychiatry;orthopaedics;gynaecology;emergency;maternity;surgery;cardiology;oncology;dermatology", "name": "Hospital Juan Ramón Jiménez", "network": "Servicio Andaluz de Salud", "network:short": "SAS", "nohousenumber": "yes", "operator:type": "public", "phone": "+34 959 01 60 00", "start_date": "1993", "wikidata": "Q30280284"}}, {"name": "Hospital Infanta Elena", "latitude": 37.2804383, "longitude": -6.9123998, "source": "osm", "_tags": {"amenity": "hospital", "emergency": "yes", "healthcare": "hospital", "name": "Hospital Infanta Elena", "network": "Servicio Andaluz de Salud", "network:short": "SAS", "operator:type": "public", "phone": "+34 959 01 51 00", "website": "https://www.hospital-infantaelena.es/", "wikidata": "Q87828386"}}]