[{"name": "قاعة علاج برج القائد", "latitude": 36.8218184, "longitude": 6.5056775, "source": "osm", "_tags": {"amenity": "hospital", "name": "قاعة علاج برج القائد", "name:ar": "قاعة علاج برج القائد", "name:en": "Health center"}}, {"name": "AMG", "latitude": 36.8770365, "longitude": 6.6086063, "source": "osm", "_tags": {"amenity": "hospital", "healthcare": "hospital", "name": "AMG", "name:fr": "AMG"}}, {"name": "PSP Kerkera", "latitude": 36.9296473, "longitude": 6.5889453, "source": "osm", "_tags": {"amenity": "hospital", "healthcare": "hospital", "name": "PSP Kerkera", "name:ar": "العيادة المتعددة الخدمات كركرة", "name:fr": "PSP Kerkera"}}, {"name": "bloc opératoire", "latitude": 36.8391011, "longitude": 6.6408143, "source": "osm", "_tags": {"amenity": "hospital", "internet_access": "wlan", "name": "bloc opératoire", "name:fr": "bloc opératoire"}}, {"name": "Hôpital Psychiatrique", "latitude": 36.8156549, "longitude": 5.7651341, "source": "osm", "_tags": {"amenity": "hospital", "emergency": "no", "name": "Hôpital Psychiatrique"}}, {"name": "", "latitude": 36.9054005, "longitude": 6.5509145, "source": "osm", "_tags": {"amenity": "hospital", "opening_hours": "Su-Th 08:00-12:00"}}, {"name": "", "latitude": 36.8770242, "longitude": 6.6086085, "source": "osm", "_tags": {"amenity": "hospital", "designation": "Infirmerie", "emergency": "no", "healthcare": "hospital"}}, {"name": "Hôpital de Tamalous", "latitude": 36.8392143, "longitude": 6.6403976, "source": "osm", "_tags": {"addr:city": "tamalous", "addr:housename": "cite mohamed rahouadj", "addr:postcode": "21005", "addr:street": "Cite Mohamed Rahouadj", "amenity": "hospital", "emergency": "yes", "name": "Hôpital de Tamalous"}}, {"name": "Clinique obstétrique", "latitude": 36.8348335, "longitude": 6.6431468, "source": "osm", "_tags": {"amenity": "hospital", "name": "Clinique obstétrique", "name:ar": "مستشفى التوليد"}}, {"name": "Hôpital de Collo", "latitude": 37.0097207, "longitude": 6.558361, "source": "osm", "_tags": {"addr:city": "Collo", "amenity": "hospital", "emergency": "yes", "healthcare": "hospital", "name": "Hôpital de Collo"}}, {"name": "قاعة علاج", "latitude": 37.0044201, "longitude": 6.5576491, "source": "osm", "_tags": {"amenity": "hospital", "healthcare": "hospital", "name": "قاعة علاج", "name:ar": "قاعة علاج"}}, {"name": "Infirmerie", "latitude": 36.8177061, "longitude": 5.8966977, "source": "osm", "_tags": {"healthcare": "hospital", "name": "Infirmerie"}}, {"name": "Hôpital Psychiatrique", "latitude": 36.8154767, "longitude": 5.7650093, "source": "osm", "_tags": {"amenity": "hospital", "healthcare": "hospital", "name": "Hôpital Psychiatrique"}}, {"name": "", "latitude": 36.9054166, "longitude": 6.5507616, "source": "osm", "_tags": {"amenity": "hospital", "healthcare": "hospital"}}, {"name": "عيادة متعددة الخدمات", "latitude": 36.9304476, "longitude": 6.4824285, "source": "osm", "_tags": {"amenity": "hospital", "name": "عيادة متعددة الخدمات", "name:ar": "عيادة متعددة الخدمات"}}]