[{"name": "Hospital de Alta Resolución de Sierra Norte", "latitude": 37.8623308, "longitude": -5.6192381, "source": "osm", "_tags": {"amenity": "hospital", "emergency": "yes", "healthcare": "hospital", "name": "Hospital de Alta Resolución de Sierra Norte", "operator:type": "public", "source": "PNOA", "wikidata": "Q87762526"}}, {"name": "Hospital de Alta Resolución Valle del Guadiato", "latitude": 38.3085899, "longitude": -5.2709654, "source": "osm", "_tags": {"amenity": "hospital", "emergency": "yes", "healthcare": "hospital", "name": "Hospital de Alta Resolución Valle del Guadiato", "operator:type": "public", "wikidata": "Q87761725"}}, {"name": "", "latitude": 38.6524709, "longitude": -5.6553164, "source": "osm", "_tags": {"amenity": "hospital", "healthcare": "hospital"}}, {"name": "Hospital General de Llerena", "latitude": 38.2425142, "longitude": -6.0128432, "source": "osm", "_tags": {"addr:housenumber": "1", "addr:postcode": "06900", "addr:street": "Avenida de Badajoz", "amenity": "hospital", "emergency": "yes", "healthcare": "hospital", "name": "Hospital General de Llerena", "operator": "Servicio Extremeño de Salud", "operator:type": "public", "phone": "+34 924 87 70 00", "wikidata": "Q87761446"}}]