[{"name": "Centro Hospitalario de Alicante-Psiquiatrico", "latitude": 38.3500732, "longitude": -0.563469, "source": "osm", "_tags": {"addr:city": "Alicante", "addr:postcode": "03113", "addr:street": "Polígono de la Vallonga", "amenity": "hospital", "contact:phone": "+34 \t965102222", "healthcare": "hospital", "name": "Centro Hospitalario de Alicante-Psiquiatrico", "nohousenumber": "yes", "website": "https://www.institucionpenitenciaria.es/es/establecimientos-penitenciarios/localizar-un-establecimiento-penitenciario"}}, {"name": "Consultori Mèdic de Busot", "latitude": 38.4844659, "longitude": -0.4161927, "source": "osm", "_tags": {"amenity": "hospital", "name": "Consultori Mèdic de Busot", "name:ca": "Consultori Mèdic de Busot", "name:es": "Consultorio Médico de Busot"}}, {"name": "Metge", "latitude": 38.7815553, "longitude": -0.7842386, "source": "osm", "_tags": {"amenity": "hospital", "emergency": "no", "healthcare": "hospital", "name": "Metge"}}, {"name": "Centro de Salud San Luis", "latitude": 38.0138889, "longitude": -0.6918137, "source": "osm", "_tags": {"addr:street": "Calle Pujol", "amenity": "hospital", "name": "Centro de Salud San Luis", "name:en": "San Luis health centre", "phone": "+34 965 290 270", "website": "http://torrevieja-salud.com"}}, {"name": "Centro de Salud Francisco Palao Molina", "latitude": 38.6127194, "longitude": -1.1258927, "source": "osm", "_tags": {"amenity": "hospital", "healthcare": "hospital", "name": "Centro de Salud Francisco Palao Molina"}}, {"name": "Dua Clinic", "latitude": 38.3701775, "longitude": -0.4144339, "source": "osm", "_tags": {"addr:city": "Alicante", "addr:housenumber": "21", "addr:postcode": "03540", "addr:street": "Avinguda de Santander / Avenida de Santander", "addr:unit": "3", "amenity": "hospital", "email": "info@duaclinic.es", "healthcare": "hospital", "healthcare:speciality": "blood_check;general;depth;emergency;family_medicine", "internet_access": "wlan", "mobile": "+34 611559150", "name": "Dua Clinic", "opening_hours": "Mo-Fr 08:00-20:00; Sa 10:00.13:30; Su,PH off", "website": "https://www.duaclinic.es/", "wheelchair": "yes"}}, {"name": "Hospital General Universitario de Alicante", "latitude": 38.3633856, "longitude": -0.4861161, "source": "osm", "_tags": {"amenity": "hospital", "emergency": "yes", "healthcare": "hospital", "layer": "-1", "name": "Hospital General Universitario de Alicante", "name:ca": "Hospital General Universitari d'Alacant", "name:en": "University Hospital General de Alicante", "wikidata": "Q16576057", "wikimedia_commons": "Category:Hospital General Universitari d'Alacant", "wikipedia": "es:Hospital General Universitario de Alicante"}}, {"name": "Clínica HLA Vistahermosa", "latitude": 38.3630706, "longitude": -0.4638787, "source": "osm", "_tags": {"addr:housenumber": "103", "addr:street": "Avinguda de Dénia / Avenida de Denia", "amenity": "hospital", "building": "hospital", "building:levels": "5", "healthcare": "hospital", "name": "Clínica HLA Vistahermosa", "phone": "+34 966 709312", "website": "https://www.grupohla.com/es/hospitales-clinicas/clinica-vistahermosa/"}}, {"name": "Vithas hospital", "latitude": 38.3526067, "longitude": -0.4762089, "source": "osm", "_tags": {"addr:city": "Alicant", "addr:housenumber": "15", "addr:postcode": "03013", "addr:street": "Plaza doctor Gómez Ulla", "amenity": "hospital", "building": "yes", "building:levels": "5", "email": "infoperpetuo@vithas.es", "healthcare": "hospital", "name": "Vithas hospital", "old_name": "Hospital Perpetuo Socorro", "phone": "+34965201100", "website": "https://vithas.es/centro/vithas-hospital-alicante/", "wikidata": "Q30254181"}}, {"name": "Hospital Internacional Vithas Medimar I", "latitude": 38.3584803, "longitude": -0.4673824, "source": "osm", "_tags": {"amenity": "hospital", "building": "yes", "building:levels": "5", "healthcare": "hospital", "name": "Hospital Internacional Vithas Medimar I", "source": "field_work"}}, {"name": "Hospital San Vicente del Raspeig", "latitude": 38.403245, "longitude": -0.5306785, "source": "osm", "_tags": {"amenity": "hospital", "healthcare": "hospital", "name": "Hospital San Vicente del Raspeig"}}, {"name": "Centro de Parálisis Cerebral Infanta Elena", "latitude": 38.414578, "longitude": -0.4151208, "source": "osm", "_tags": {"amenity": "hospital", "name": "Centro de Parálisis Cerebral Infanta Elena"}}, {"name": "Hospital HLA La Vega", "latitude": 37.9928683, "longitude": -1.1334248, "source": "osm", "_tags": {"addr:street": "Calle doctor Román Alberca", "amenity": "hospital", "building": "yes", "healthcare": "hospital", "name": "Hospital HLA La Vega", "old_name": "Hospital Virgen de La Vega", "operator": "HLA", "phone": "+34 968 27 81 00", "website": "https://www.grupohla.com/es/hospitales-clinicas/hospital-la-vega/", "wikidata": "Q87762204"}}, {"name": "Hospital Quirón Murcia", "latitude": 37.9779912, "longitude": -1.1194244, "source": "osm", "_tags": {"addr:city": "Murcia", "addr:housenumber": "12", "addr:postcode": "30011", "addr:street": "Calle Miguel Hernández", "amenity": "hospital", "name": "Hospital Quirón Murcia", "operator": "Quirón", "phone": "+34 968 36 50 00", "website": "https://www.quironsalud.es/"}}, {"name": "Hospital General Universitario Reina Sofía", "latitude": 37.9828273, "longitude": -1.1209196, "source": "osm", "_tags": {"addr:city": "Murcia", "addr:housenumber": "1", "addr:postcode": "30003", "addr:street": "Avenida Intendente Jorge Palacios", "amenity": "hospital", "emergency": "yes", "healthcare": "hospital", "name": "Hospital General Universitario Reina Sofía", "operator": "SMS - Servicio Murciano de Salud", "operator:type": "public", "wikidata": "Q5902867", "wikimedia_commons": "Category:Hospital General Universitario Reina Sofía", "wikipedia": "es:Hospital General Universitario Reina Sofía"}}, {"name": "Hospital Clínico Universitario Virgen de la Arrixaca", "latitude": 37.9329297, "longitude": -1.162796, "source": "osm", "_tags": {"amenity": "hospital", "emergency": "yes", "healthcare": "hospital", "layer": "2", "name": "Hospital Clínico Universitario Virgen de la Arrixaca", "name:en": "University Hospital Virgen de la Arrixaca", "operator:type": "public", "wikidata": "Q5902977", "wikipedia": "es:Hospital Clínico Universitario Virgen de la Arrixaca"}}, {"name": "Clinica HLA Belén", "latitude": 37.9987449, "longitude": -1.1304758, "source": "osm", "_tags": {"amenity": "hospital", "healthcare": "hospital", "name": "Clinica HLA Belén", "phone": "+34 968233500", "website": "https://www.grupohla.com/es/clinica-belen"}}, {"name": "Hospital General Universitari d'Elx", "latitude": 38.2598687, "longitude": -0.6854202, "source": "osm", "_tags": {"amenity": "hospital", "emergency": "yes", "name": "Hospital General Universitari d'Elx", "name:ca": "Hospital General Universitari d'Elx", "name:es": "Hospital General Universitario de Elche", "wheelchair": "no", "wheelchair:description": "Los ascensores tienen los pulsadores tan altos que no se pueden utilizar para la mitad de pisos. Los pacientes ingresados no disponen de cuarto de baño accesible. Los pacientes de consultas externas no disponen de una balanza para saber cuál es su peso c", "wikidata": "Q5902659", "wikipedia": "es:Hospital General Universitario de Elche"}}, {"name": "Hospital Vega Baja", "latitude": 38.0879527, "longitude": -0.8538954, "source": "osm", "_tags": {"amenity": "hospital", "healthcare": "hospital", "name": "Hospital Vega Baja", "wikidata": "Q30254319"}}, {"name": "Hospital de San Vicente", "latitude": 38.4033895, "longitude": -0.5307223, "source": "osm", "_tags": {"amenity": "hospital", "building": "yes", "emergency": "yes", "name": "Hospital de San Vicente"}}, {"name": "Hospital Román Alberca", "latitude": 37.9426771, "longitude": -1.1672759, "source": "osm", "_tags": {"addr:housenumber": "58", "addr:postcode": "30120", "addr:street": "Calle Lorca", "amenity": "hospital", "barrier": "fence", "name": "Hospital Román Alberca", "opening_hours": "24/7", "phone": "968 36 58 00", "website": "https://www.murciasalud.es/seccion.php?idsec=1003", "wikidata": "Q87762201"}}, {"name": "Hospital General Universitario de Elda Virgen de la Salud", "latitude": 38.4935424, "longitude": -0.8057173, "source": "osm", "_tags": {"amenity": "hospital", "designation": "Hospital General Universitario de Elda Virgen de la Salud", "emergency": "yes", "name": "Hospital General Universitario de Elda Virgen de la Salud", "name:ca": "Hospital General Universitari d'Elda, Mare de Déu de la Salut", "wikidata": "Q5902666", "wikimedia_commons": "Category:Hospital General Universitario de Elda Virgen de la Salud", "wikipedia": "ca:Hospital General d'Elda"}}, {"name": "Hospital Virgen del Castillo", "latitude": 38.6157179, "longitude": -1.1078538, "source": "osm", "_tags": {"addr:city": "Yecla", "addr:postcode": "30510", "addr:street": "Avenida de la Feria", "amenity": "hospital", "emergency": "yes", "healthcare": "hospital", "name": "Hospital Virgen del Castillo", "operator:type": "public", "wikidata": "Q87762219"}}, {"name": "Cruz Roja", "latitude": 38.2546961, "longitude": -0.5167687, "source": "osm", "_tags": {"amenity": "hospital", "emergency": "lifeguard_base", "name": "Cruz Roja", "seasonal": "summer"}}, {"name": "Hospital del Vinalopó", "latitude": 38.2554593, "longitude": -0.7161519, "source": "osm", "_tags": {"addr:housenumber": "14", "addr:street": "calle Tonico Sansano Mora", "amenity": "hospital", "building": "hospital", "emergency": "yes", "name": "Hospital del Vinalopó", "name:ca": "Hospital del Vinalopó", "wikidata": "Q43896421", "wikipedia": "es:Hospital Universitario del Vinalopó"}}, {"name": "Hospital Virgen de los Lirios", "latitude": 38.7050287, "longitude": -0.466069, "source": "osm", "_tags": {"amenity": "hospital", "emergency": "yes", "healthcare": "hospital", "name": "Hospital Virgen de los Lirios", "name:ca": "Hospital Verge dels Lliris", "name:es": "Hospital Virgen de los Lirios", "name:etymology:wikidata": "Q11935374", "operator": "Generalitat Valenciana", "operator:type": "public", "operator:wikidata": "Q2477285", "wheelchair": "yes", "wikidata": "Q30254325"}}, {"name": "Hospital General Universitario Los Arcos del Mar Menor", "latitude": 37.8191455, "longitude": -0.8598086, "source": "osm", "_tags": {"addr:city": "San Javier", "addr:housenumber": "54", "addr:postcode": "30739", "addr:street": "Paraje Torre Octavio", "amenity": "hospital", "emergency": "yes", "healthcare": "hospital", "name": "Hospital General Universitario Los Arcos del Mar Menor", "operator:type": "public", "wikidata": "Q30269957", "wikipedia": "es:Hospital General Universitario Los Arcos del Mar Menor"}}, {"name": "Hospital de Molina", "latitude": 38.0597833, "longitude": -1.2148638, "source": "osm", "_tags": {"amenity": "hospital", "building": "yes", "healthcare": "hospital", "name": "Hospital de Molina", "wikidata": "Q87762226"}}, {"name": "Hospital Internacional Vithas Medimar - II", "latitude": 38.3583351, "longitude": -0.4657879, "source": "osm", "_tags": {"amenity": "hospital", "building": "yes", "building:levels": "5", "healthcare": "hospital", "name": "Hospital Internacional Vithas Medimar - II", "source": "catastro;field_work", "source:date": "2014"}}, {"name": "IMED San Jorge", "latitude": 38.6928151, "longitude": -0.4859392, "source": "osm", "_tags": {"addr:city": "Alcoi", "addr:housenumber": "55", "addr:postcode": "03802", "addr:street": "Carrer Oliver", "amenity": "hospital", "building": "hospital", "emergency": "yes", "healthcare": "hospital", "healthcare:speciality": "gynaecology;urology;otolaryngology;emergency;internal;general;pathology;radiology;plastic_surgery;pulmonology;trauma;anaesthetics;gastroenterology;fertility;haematology;cardiology;rheumatology", "name": "IMED San Jorge", "old_name": "Sanatori San Jordi", "old_name:ca": "Sanatori Sant Jordi", "old_name:es": "Sanatorio San Jorge", "operator": "IMED", "phone": "+34 965 33 04 00", "website": "https://www.imedhospitales.com/es/alcoy-san-jorge", "wikidata": "Q87761420"}}, {"name": "Hospital Imed Elche", "latitude": 38.2880636, "longitude": -0.6158624, "source": "osm", "_tags": {"amenity": "hospital", "building": "yes", "healthcare": "hospital", "name": "Hospital Imed Elche", "phone": "+34965503030", "website": "http://www.imedelche.com/es/", "wikidata": "Q87761432"}}, {"name": "Hospital Mesa del Castillo", "latitude": 37.9693968, "longitude": -1.128068, "source": "osm", "_tags": {"addr:city": "Murcia", "addr:housenumber": "20", "addr:postcode": "30010", "addr:street": "Ronda Sur", "amenity": "hospital", "emergency": "no", "healthcare": "hospital", "healthcare:speciality": "general", "name": "Hospital Mesa del Castillo", "operator": "Hospital Mesa del Castillo, S.L.", "phone": "+34 968 246 116", "website": "https://www.mesadelcastillo.com/", "wikidata": "Q87762207"}}, {"name": "Centro de Salud de Benijófar", "latitude": 38.0783687, "longitude": -0.7368568, "source": "osm", "_tags": {"amenity": "hospital", "building": "yes", "building:levels": "1", "healthcare": "hospital", "name": "Centro de Salud de Benijófar"}}, {"name": "Hospital General Universitario Morales Meseguer", "latitude": 37.9947594, "longitude": -1.1295258, "source": "osm", "_tags": {"addr:city": "Murcia", "addr:postcode": "30008", "addr:street": "Avenida Marqués de los Vélez", "amenity": "hospital", "emergency": "yes", "healthcare": "hospital", "name": "Hospital General Universitario Morales Meseguer", "operator": "Servicio Murciano de Salud", "operator:type": "public", "wikidata": "Q30253897"}}, {"name": "", "latitude": 38.0007909, "longitude": -1.1405758, "source": "osm", "_tags": {"amenity": "hospital", "healthcare": "hospital"}}, {"name": "", "latitude": 38.7062957, "longitude": -0.9802195, "source": "osm", "_tags": {"amenity": "hospital", "healthcare": "hospital"}}, {"name": "Hospital General d'Ontinyent", "latitude": 38.8103483, "longitude": -0.6074178, "source": "osm", "_tags": {"amenity": "hospital", "emergency": "yes", "healthcare": "hospital", "name": "Hospital General d'Ontinyent", "operator": "Generalitat Valenciana", "operator:type": "public", "operator:wikidata": "Q2477285", "phone": "+34 961 629 260"}}, {"name": "Hospital Universitari de Sant Joan D'Alacant", "latitude": 38.3886896, "longitude": -0.4347404, "source": "osm", "_tags": {"addr:city": "Sant Joan d'Alacant", "amenity": "hospital", "building": "yes", "emergency": "yes", "healthcare": "hospital", "name": "Hospital Universitari de Sant Joan D'Alacant", "name:ca": "Hospital Universitari de Sant Joan D'Alacant", "name:es": "Hospital Universitario de San Juan de Alicante", "operator": "Consellería de Sanitat. Generalitat Valenciana", "operator:type": "government", "phone": "+34 965169472", "type": "multipolygon", "wheelchair": "yes", "wikidata": "Q30253915"}}, {"name": "Hospital Universitario de Torrevieja", "latitude": 37.9635229, "longitude": -0.7154964, "source": "osm", "_tags": {"amenity": "hospital", "email": "info@torreviejasalud.com", "healthcare": "hospital", "name": "Hospital Universitario de Torrevieja", "phone": "+34 965721200", "type": "multipolygon", "website": "https://www.torrevieja-salud.com/", "wikidata": "Q87761428"}}, {"name": "Hospital Quirón/USP Hospital San Jaime", "latitude": 38.0065577, "longitude": -0.6735104, "source": "osm", "_tags": {"amenity": "hospital", "emergency": "yes", "healthcare": "hospital", "name": "Hospital Quirón/USP Hospital San Jaime", "payment:cash": "yes", "payment:visa": "yes", "phone": "+34 966 92 13 13", "type": "multipolygon", "website": "https://www.quironsalud.es/torrevieja"}}]