[{"name": "Entrada a Úrgencias", "latitude": 38.0397805, "longitude": -4.0303425, "source": "osm", "_tags": {"amenity": "hospital", "emergency": "emergency_ward_entrance", "healthcare": "hospital", "name": "Entrada a Úrgencias"}}, {"name": "Centro de Salud de Villargordo", "latitude": 37.9409696, "longitude": -3.7271918, "source": "osm", "_tags": {"amenity": "hospital", "emergency": "yes", "healthcare": "hospital", "name": "Centro de Salud de Villargordo", "operator": "Consejería de Salud - Junta de Andalucía", "operator:type": "public"}}, {"name": "Centro de salud y urgencias", "latitude": 38.4653567, "longitude": -4.0708706, "source": "osm", "_tags": {"amenity": "hospital", "healthcare": "hospital", "name": "Centro de salud y urgencias"}}, {"name": "Hospital San Juan de la Cruz", "latitude": 38.0194697, "longitude": -3.3851189, "source": "osm", "_tags": {"addr:city": "Úbeda", "addr:housenumber": "41", "addr:postcode": "23400", "addr:street": "Avenida de la Ciudad de Linares", "amenity": "hospital", "emergency": "yes", "healthcare": "hospital", "healthcare:speciality": "general;emergency;ophthalmology;gynaecology;radiology;oncology;surgery;orthopaedics;paediatrics;maternity;neurology;otolaryngology", "name": "Hospital San Juan de la Cruz", "operator": "Servicio Andaluz de Salud", "operator:type": "public", "wikidata": "Q5841682", "wikipedia": "es:Hospital San Juan de la Cruz"}}, {"name": "Hospital General de Valdepeñas", "latitude": 38.7709493, "longitude": -3.392347, "source": "osm", "_tags": {"addr:city": "Valdepeñas", "addr:postcode": "13300", "addr:street": "Avenida de los Estudiantes", "amenity": "hospital", "emergency": "yes", "healthcare": "hospital", "name": "Hospital General de Valdepeñas", "nohousenumber": "yes", "old_name": "Hospital Público Gutiérrez Ortega", "operator:type": "public", "wikidata": "Q87761709"}}, {"name": "Hospital San Agustin", "latitude": 38.0885457, "longitude": -3.6434022, "source": "osm", "_tags": {"addr:city": "Linares", "addr:postcode": "23700", "amenity": "hospital", "emergency": "yes", "healthcare": "hospital", "healthcare:speciality": "general", "name": "Hospital San Agustin", "operator": "Servicio Andaluz de Salud", "operator:type": "public"}}, {"name": "Hospital Alto Guadalquivir", "latitude": 38.0407487, "longitude": -4.0308226, "source": "osm", "_tags": {"addr:city": "Andújar", "addr:postcode": "23740", "addr:street": "Avenida Blas Infante", "amenity": "hospital", "emergency": "yes", "healthcare": "hospital", "healthcare:speciality": "general;ophthalmology;vaccination;paediatrics;gynaecology;cardiology;surgery;oncology;radiology;internal;maternity;emergency;intensive", "name": "Hospital Alto Guadalquivir", "operator:type": "public", "wikidata": "Q30260264"}}, {"name": "consultorio medico", "latitude": 38.6147832, "longitude": -4.1409023, "source": "osm", "_tags": {"addr:city": "Hinojosas de Calatrava", "addr:postcode": "13590", "addr:street": "Avenida Plaza del Pilar", "amenity": "hospital", "healthcare": "hospital", "name": "consultorio medico"}}, {"name": "Centro de Salud 'Virgen del Gavellar'", "latitude": 38.0135165, "longitude": -3.3746379, "source": "osm", "_tags": {"addr:city": "Úbeda", "addr:housenumber": "37", "addr:postcode": "23400", "addr:street": "Calle Explanada", "amenity": "hospital", "healthcare": "hospital", "healthcare:speciality": "emergency;general;vaccination;blood_check", "name": "Centro de Salud 'Virgen del Gavellar'"}}, {"name": "Hospital Santa Bárbara", "latitude": 38.7052911, "longitude": -4.1115639, "source": "osm", "_tags": {"addr:city": "Puertollano", "addr:postcode": "13500", "addr:street": "Calle Malagón", "amenity": "hospital", "emergency": "yes", "healthcare": "hospital", "name": "Hospital Santa Bárbara", "operator:type": "public", "wall": "yes", "wikidata": "Q87761707"}}]