[{"name": "", "latitude": 38.7451485, "longitude": -2.8750398, "source": "osm", "_tags": {"amenity": "hospital", "healthcare": "hospital"}}, {"name": "Hospital de Alta Resolución Sierra de Segura", "latitude": 38.3602619, "longitude": -2.7873443, "source": "osm", "_tags": {"amenity": "hospital", "emergency": "yes", "healthcare": "hospital", "name": "Hospital de Alta Resolución Sierra de Segura", "operator:type": "public", "wikidata": "Q5903010"}}, {"name": "Consultorio Local", "latitude": 38.7577925, "longitude": -2.451734, "source": "osm", "_tags": {"amenity": "clinic", "building": "yes", "healthcare": "hospital", "name": "Consultorio Local"}}, {"name": "Consultorio Local", "latitude": 38.4307806, "longitude": -2.5057923, "source": "osm", "_tags": {"addr:city": "Cotillas", "addr:street": "Calle Sahúco", "amenity": "clinic", "building": "yes", "healthcare": "hospital", "healthcare:speciality": "general", "name": "Consultorio Local"}}, {"name": "Consultorio Médico", "latitude": 38.7010755, "longitude": -2.6017357, "source": "osm", "_tags": {"amenity": "clinic", "building": "yes", "healthcare": "hospital", "name": "Consultorio Médico"}}, {"name": "Consultorio Local", "latitude": 38.7179689, "longitude": -2.316203, "source": "osm", "_tags": {"amenity": "clinic", "building": "yes", "healthcare": "hospital", "name": "Consultorio Local"}}, {"name": "", "latitude": 38.5979564, "longitude": -2.3464116, "source": "osm", "_tags": {"amenity": "clinic", "building": "yes", "healthcare": "hospital"}}, {"name": "Consultorio Local El Bellotar", "latitude": 38.4733316, "longitude": -2.5493276, "source": "osm", "_tags": {"amenity": "hospital", "healthcare": "hospital", "name": "Consultorio Local El Bellotar"}}, {"name": "Cruz Roja", "latitude": 38.1638617, "longitude": -3.0055737, "source": "osm", "_tags": {"amenity": "hospital", "healthcare": "hospital", "name": "Cruz Roja", "operator": "Cruz Roja", "operator:wikidata": "Q7178"}}, {"name": "Hospital de Alta Resolución de Cazorla", "latitude": 37.9153, "longitude": -3.0144475, "source": "osm", "_tags": {"amenity": "hospital", "building": "yes", "emergency": "yes", "healthcare": "hospital", "name": "Hospital de Alta Resolución de Cazorla", "operator:type": "public", "wikidata": "Q88071154"}}, {"name": "Cruz Roja", "latitude": 38.6941643, "longitude": -2.6964957, "source": "osm", "_tags": {"amenity": "hospital", "healthcare": "hospital", "name": "Cruz Roja", "operator": "Cruz Roja", "operator:type": "ngo", "operator:wikidata": "Q7178"}}]