[{"name": "Casa de Saúde do Telhal", "latitude": 38.8079068, "longitude": -9.3075898, "source": "osm", "_tags": {"addr:city": "Mem Martins", "addr:housenumber": "55", "addr:postcode": "2725-588", "addr:street": "Estrada do Telhal", "amenity": "hospital", "email": "cst.telhal@isjd.pt", "healthcare": "hospital", "healthcare:speciality": "Psiquiatria;psicogeriatria;alcoologia", "name": "Casa de Saúde do Telhal", "operator": "Ordem Hospitaleira de S. João de Deus", "phone": "+351 219179200", "website": "https://www.isjd.pt/cst.telhal"}}, {"name": "", "latitude": 38.7738794, "longitude": -9.2761801, "source": "osm", "_tags": {"amenity": "hospital"}}, {"name": "", "latitude": 38.7063494, "longitude": -9.4111323, "source": "osm", "_tags": {"amenity": "hospital", "healthcare": "hospital"}}, {"name": "Ortodontia e Medicina Dentária Guiga ortodontics  Clinica Tratamentos medicinais", "latitude": 38.6997856, "longitude": -9.4412418, "source": "osm", "_tags": {"amenity": "dentist", "healthcare": "hospital", "name": "Ortodontia e Medicina Dentária Guiga ortodontics  Clinica Tratamentos medicinais"}}, {"name": "Hospital de Sant'Ana", "latitude": 38.6838484, "longitude": -9.3487597, "source": "osm", "_tags": {"addr:city": "Carcavelos e Parede", "addr:housenumber": "231", "addr:postcode": "2779-501", "addr:street": "Rua de Benguela", "amenity": "hospital", "healthcare": "hospital", "healthcare:speciality": "orthopaedics", "name": "Hospital de Sant'Ana", "operator": "Santa Casa da Misericórdia de Lisboa", "wikidata": "Q66814223", "wikimedia_commons": "Category:Hospital de Sant'Ana"}}, {"name": "Centro de Medicina de Reabilitação de Alcoitão", "latitude": 38.7334808, "longitude": -9.4009355, "source": "osm", "_tags": {"amenity": "hospital", "barrier": "fence", "emergency": "no", "healthcare": "hospital", "name": "Centro de Medicina de Reabilitação de Alcoitão", "wheelchair": "yes", "wikidata": "Q96901148"}}, {"name": "Casa de Saúde da Idanha", "latitude": 38.7739602, "longitude": -9.2761972, "source": "osm", "_tags": {"amenity": "hospital", "emergency": "no", "name": "Casa de Saúde da Idanha"}}, {"name": "Hospital de Cascais Dr. José de Almeida", "latitude": 38.7300826, "longitude": -9.418456, "source": "osm", "_tags": {"addr:city": "Alcabideche", "addr:postcode": "2755-009", "addr:street": "Avenida Brigadeiro Victor Novais Gonçalves", "alt_name": "HPP Hospital de Cascais Doutor José de Almeida;Hospital de Cascais", "amenity": "hospital", "contact:phone": "+351 214653000", "contact:website": "http://www.hppcascais.pt/", "emergency": "yes", "healthcare": "hospital", "name": "Hospital de Cascais Dr. José de Almeida"}}, {"name": "Serviço de Urgência Básica (SUB)", "latitude": 38.7902148, "longitude": -9.3518078, "source": "osm", "_tags": {"addr:city": "Mem Martins", "amenity": "hospital", "building": "yes", "building:levels": "1", "healthcare": "hospital", "name": "Serviço de Urgência Básica (SUB)", "operator": "Hospital Fernando Fonseca (Amadora/Sintra)", "phone": "21434 5535", "website": "http://www.hff.min-saude.pt/index.php/conteudo/servico-de-urgencia-basica-algueirao-mem-martins_99"}}, {"name": "Centro de Apoio Social do Pisão", "latitude": 38.7405827, "longitude": -9.4242651, "source": "osm", "_tags": {"amenity": "hospital", "emergency": "no", "healthcare": "hospital", "name": "Centro de Apoio Social do Pisão", "short_name": "CASP"}}, {"name": "CUF Sintra", "latitude": 38.7813941, "longitude": -9.3529073, "source": "osm", "_tags": {"amenity": "hospital", "architect": "Saraiva+Associados", "architect:wikidata": "Q132247398", "healthcare": "hospital", "name": "CUF Sintra"}}, {"name": "Hospital de Sintra", "latitude": 38.8095084, "longitude": -9.3540714, "source": "osm", "_tags": {"amenity": "hospital", "healthcare": "hospital", "name": "Hospital de Sintra"}}, {"name": "Centro de Saúde de Cascais", "latitude": 38.702711, "longitude": -9.4211617, "source": "osm", "_tags": {"amenity": "hospital", "building": "yes", "name": "Centro de Saúde de Cascais", "type": "multipolygon"}}, {"name": "Hospital de Cascais", "latitude": 38.7301335, "longitude": -9.4182777, "source": "osm", "_tags": {"amenity": "hospital", "building": "yes", "emergency": "yes", "healthcare": "hospital", "name": "Hospital de Cascais", "type": "multipolygon"}}]