[{"name": "Hospital da Misericórdia de Évora", "latitude": 38.5633397, "longitude": -7.914578, "source": "osm", "_tags": {"amenity": "hospital", "emergency": "no", "healthcare": "hospital", "name": "Hospital da Misericórdia de Évora"}}, {"name": "Hospital José Joaquim Fernandes", "latitude": 38.0138056, "longitude": -7.8697547, "source": "osm", "_tags": {"addr:city": "Beja", "addr:postcode": "7801-849", "addr:street": "Rua Doutor António Fernando Covas Lima", "alt_name": "Unidade Local de Saúde do Baixo Alentejo (ULSBA)", "amenity": "hospital", "emergency": "yes", "healthcare": "hospital", "name": "Hospital José Joaquim Fernandes", "official_name": "Unidade Local de Saúde do Baixo Alentejo, EPE - Hospital José Joaquim Fernandes", "opening_hours": "24/7", "wheelchair": "yes"}}, {"name": "Hospital São João de Deus", "latitude": 38.6512196, "longitude": -8.2139988, "source": "osm", "_tags": {"amenity": "hospital", "emergency": "no", "healthcare": "hospital", "name": "Hospital São João de Deus"}}, {"name": "Hospital de São Paulo", "latitude": 37.9442391, "longitude": -7.5956383, "source": "osm", "_tags": {"addr:city": "Serpa", "addr:postcode": "7830-386", "addr:street": "Largo de São Paulo", "alt_name": "Hospital de S. Paulo", "amenity": "hospital", "building": "hospital", "emergency": "yes", "healthcare": "hospital", "mobile": "+351 284 544 747", "name": "Hospital de São Paulo", "opening_hours:emergency": "08:00-24:00", "operator": "Santa Casa da Misericórdia de Serpa", "phone": "+351 284 540 210", "website": "https://scmserpa.pt/index.php?option=com_content&view=category&id=18&Itemid=235"}}, {"name": "Hospital de São Paulo - Unidade Médico-Cirúrgica", "latitude": 37.9356624, "longitude": -7.6047494, "source": "osm", "_tags": {"addr:city": "Serpa", "addr:postcode": "7830-361", "addr:street": "Avenida Simon Bolivar", "amenity": "hospital", "building": "hospital", "emergency": "no", "healthcare:speciality": "surgery", "name": "Hospital de São Paulo - Unidade Médico-Cirúrgica", "operator": "União das Misericórdias Portuguesas"}}, {"name": "Hospital da Misericórdia", "latitude": 38.6452662, "longitude": -8.2129205, "source": "osm", "_tags": {"alt_name": "Recolhimento do Santíssimo Sacramento de Nossa Senhora da Luz", "amenity": "hospital", "building": "yes", "emergency": "no", "healthcare": "hospital", "name": "Hospital da Misericórdia", "type": "multipolygon", "wikidata": "Q110864214"}}, {"name": "Hospital do Espírito Santo", "latitude": 38.56919, "longitude": -7.9020634, "source": "osm", "_tags": {"addr:city": "Évora", "addr:postcode": "7000-811", "addr:street": "Largo Senhor da Pobreza", "amenity": "hospital", "emergency": "yes", "healthcare": "hospital", "name": "Hospital do Espírito Santo", "operator": "Unidade Local de Saúde do Alentejo Central, E.P.E.", "operator:type": "government", "short_name": "HESE", "type": "multipolygon"}}]