[{"name": "Center of Medical Specialties", "latitude": 38.4734694, "longitude": -1.3326647, "source": "osm", "_tags": {"amenity": "hospital", "healthcare": "hospital", "name": "Center of Medical Specialties"}}, {"name": "Centro De Salud Mental De Jumilla", "latitude": 38.4735543, "longitude": -1.3330247, "source": "osm", "_tags": {"amenity": "hospital", "healthcare": "hospital", "name": "Centro De Salud Mental De Jumilla"}}, {"name": "Hospital de Hellín", "latitude": 38.5044096, "longitude": -1.6892782, "source": "osm", "_tags": {"amenity": "hospital", "emergency": "yes", "name": "Hospital de Hellín", "operator": "SESCAM", "wikidata": "Q29559520", "wikipedia": "es:Hospital de Hellín"}}, {"name": "Hospital Comarcal del Noroeste", "latitude": 38.1037491, "longitude": -1.8673859, "source": "osm", "_tags": {"amenity": "hospital", "building": "yes", "emergency": "yes", "healthcare": "hospital", "name": "Hospital Comarcal del Noroeste", "operator:type": "public", "wikidata": "Q87762211", "wikipedia": "es:Hospital Comarcal del Noroeste"}}, {"name": "Hospital de la Vega Lorenzo Guirao", "latitude": 38.2293955, "longitude": -1.4090468, "source": "osm", "_tags": {"amenity": "hospital", "emergency": "yes", "healthcare": "hospital", "name": "Hospital de la Vega Lorenzo Guirao", "operator:type": "public", "wikidata": "Q87762224"}}, {"name": "", "latitude": 38.7854898, "longitude": -1.3297876, "source": "osm", "_tags": {"amenity": "clinic", "healthcare": "hospital"}}, {"name": "Centro de Salud", "latitude": 38.3311307, "longitude": -1.9814485, "source": "osm", "_tags": {"amenity": "clinic", "healthcare": "hospital", "name": "Centro de Salud"}}, {"name": "Consultorio", "latitude": 38.3545486, "longitude": -2.0091218, "source": "osm", "_tags": {"amenity": "clinic", "building": "yes", "healthcare": "hospital", "name": "Consultorio"}}, {"name": "Consultorio Local", "latitude": 38.3065804, "longitude": -1.9069613, "source": "osm", "_tags": {"amenity": "clinic", "building": "yes", "healthcare": "hospital", "name": "Consultorio Local"}}, {"name": "Centro de Salud", "latitude": 38.6922717, "longitude": -1.4336448, "source": "osm", "_tags": {"amenity": "clinic", "healthcare": "hospital", "name": "Centro de Salud"}}, {"name": "Consultorio Local", "latitude": 38.717972, "longitude": -1.9117633, "source": "osm", "_tags": {"amenity": "clinic", "building": "yes", "healthcare": "hospital", "name": "Consultorio Local"}}, {"name": "Consultorio Local", "latitude": 38.8016964, "longitude": -1.7329532, "source": "osm", "_tags": {"amenity": "clinic", "building": "yes", "healthcare": "hospital", "name": "Consultorio Local"}}, {"name": "Consultorio Local", "latitude": 38.5520885, "longitude": -2.0709776, "source": "osm", "_tags": {"amenity": "clinic", "building": "yes", "healthcare": "hospital", "name": "Consultorio Local"}}, {"name": "Consultorio Local", "latitude": 38.5401509, "longitude": -1.9535708, "source": "osm", "_tags": {"amenity": "clinic", "building": "yes", "healthcare": "hospital", "name": "Consultorio Local"}}, {"name": "Centro de Salud", "latitude": 38.5825631, "longitude": -2.2130837, "source": "osm", "_tags": {"amenity": "clinic", "building": "yes", "emergency": "yes", "healthcare": "hospital", "name": "Centro de Salud"}}, {"name": "Centro de Salud", "latitude": 38.5871858, "longitude": -1.6905828, "source": "osm", "_tags": {"amenity": "clinic", "healthcare": "hospital", "name": "Centro de Salud"}}]