[{"name": "Cruz Roja Española", "latitude": 38.4266504, "longitude": -6.4086512, "source": "osm", "_tags": {"amenity": "hospital", "healthcare": "hospital", "name": "Cruz Roja Española", "operator": "Cruz Roja", "operator:type": "ngo", "operator:wikidata": "Q7178"}}, {"name": "área de ambulacias", "latitude": 38.6112071, "longitude": -6.625321, "source": "osm", "_tags": {"amenity": "hospital", "healthcare": "hospital", "healthcare:speciality": "emergency", "name": "área de ambulacias"}}, {"name": "área de emergencias", "latitude": 38.6111547, "longitude": -6.6253156, "source": "osm", "_tags": {"amenity": "hospital", "healthcare": "hospital", "healthcare:speciality": "emergency", "name": "área de emergencias"}}, {"name": "información", "latitude": 38.6110079, "longitude": -6.6254792, "source": "osm", "_tags": {"amenity": "hospital", "healthcare": "hospital", "name": "información"}}, {"name": "Tanatorio", "latitude": 38.5089726, "longitude": -6.8531587, "source": "osm", "_tags": {"amenity": "hospital", "healthcare": "hospital", "name": "Tanatorio"}}, {"name": "Cruz Roja Española", "latitude": 38.6882961, "longitude": -7.094693, "source": "osm", "_tags": {"amenity": "hospital", "healthcare": "hospital", "name": "Cruz Roja Española", "operator": "Cruz Roja", "operator:wikidata": "Q7178", "operator:wikipedia": "es:Cruz Roja"}}, {"name": "Hospital de Zafra", "latitude": 38.430436, "longitude": -6.4219783, "source": "osm", "_tags": {"addr:city": "Zafra", "addr:postcode": "06300", "addr:street": "N-432", "amenity": "hospital", "building": "yes", "emergency": "yes", "healthcare": "hospital", "name": "Hospital de Zafra", "operator": "Servicio Extremeño de Salud", "operator:type": "public", "wheelchair": "yes", "wikidata": "Q87761452"}}, {"name": "Hospital Parque Vía de la Plata", "latitude": 38.4268284, "longitude": -6.4082371, "source": "osm", "_tags": {"amenity": "hospital", "building": "hospital", "healthcare": "hospital", "name": "Hospital Parque Vía de la Plata", "phone": "+34 924552755", "website": "https://www.hospitalesparque.es/zafra"}}, {"name": "Hospital Tierra de Barros", "latitude": 38.6557858, "longitude": -6.3770168, "source": "osm", "_tags": {"amenity": "hospital", "emergency": "yes", "healthcare": "hospital", "lit": "yes", "name": "Hospital Tierra de Barros", "operator:type": "public", "phone": "+34 924 699 200", "website": "https://www.areadesaludmerida.es/hospital-tierra-de-barros/", "wheelchair": "yes", "wikidata": "Q87761455"}}, {"name": "Centro de Salud \"Víctor Caballero Núñez\"", "latitude": 38.6110012, "longitude": -6.6254773, "source": "osm", "_tags": {"amenity": "hospital", "emergency": "yes", "healthcare": "hospital", "healthcare:speciality": "paediatrics;emergency;radiology;maternity;physiatry;consultas_externas;aparcamiento", "name": "Centro de Salud \"Víctor Caballero Núñez\"", "wheelchair": "yes"}}, {"name": "Centro de día", "latitude": 38.5576306, "longitude": -6.3394442, "source": "osm", "_tags": {"amenity": "social_facility", "description": "Dedicado al cuidado de mayores dependientes", "healthcare": "hospital", "name": "Centro de día", "social_facility": "nursing_home"}}, {"name": "casa chalet", "latitude": 38.8113613, "longitude": -7.031833, "source": "osm", "_tags": {"amenity": "hospital", "healthcare": "hospital", "name": "casa chalet"}}]