[{"name": "", "latitude": 37.9277391, "longitude": 14.3530665, "source": "osm", "_tags": {"amenity": "hospital", "healthcare": "hospital", "operator": "ASL", "operator:wikidata": "Q3631467", "operator:wikipedia": "it:Azienda sanitaria locale"}}, {"name": "", "latitude": 38.0661694, "longitude": 14.6275781, "source": "osm", "_tags": {"amenity": "hospital", "healthcare": "hospital"}}, {"name": "Ospedale Santissimo Salvatore", "latitude": 37.9283183, "longitude": 14.3575988, "source": "osm", "_tags": {"addr:housenumber": "95", "addr:postcode": "98073", "addr:street": "Via Anna Salamone", "amenity": "hospital", "building": "hospital", "healthcare": "hospital", "name": "Ospedale Santissimo Salvatore", "phone": "+39 0921 389111", "website": "https://www.asp.messina.it/?page_id=650"}}, {"name": "Fondazione Istituto Giuseppe Giglio", "latitude": 38.0278595, "longitude": 14.0127558, "source": "osm", "_tags": {"amenity": "hospital", "healthcare": "hospital", "name": "Fondazione Istituto Giuseppe Giglio", "old_name": "Fondazione Istituto San Raffaele - Giuseppe Giglio"}}, {"name": "Ospedale Madonna dell'Alto", "latitude": 37.8188336, "longitude": 14.0909813, "source": "osm", "_tags": {"amenity": "hospital", "emergency": "yes", "healthcare": "hospital", "name": "Ospedale Madonna dell'Alto"}}]