[{"name": "Hospital Quirónsalud Córdoba", "latitude": 37.8723309, "longitude": -4.8019351, "source": "osm", "_tags": {"addr:city": "Córdoba", "addr:postcode": "14004", "addr:street": "Avenida del Aeropuerto", "amenity": "hospital", "emergency": "yes", "healthcare": "hospital", "healthcare:speciality": "general", "name": "Hospital Quirónsalud Córdoba", "nohousenumber": "yes", "operator": "Quirónsalud", "phone": "+34 957 410 000", "website": "https://www.quironsalud.es/cordoba", "wikidata": "Q87761728"}}, {"name": "Hospital San Juan de Dios", "latitude": 37.9094727, "longitude": -4.7926819, "source": "osm", "_tags": {"amenity": "hospital", "emergency": "yes", "healthcare": "hospital", "name": "Hospital San Juan de Dios", "opening_hours": "24/7", "wikidata": "Q87761715"}}, {"name": "Hospital Provincial", "latitude": 37.8688256, "longitude": -4.7917227, "source": "osm", "_tags": {"amenity": "hospital", "emergency": "yes", "healthcare": "hospital", "name": "Hospital Provincial", "operator:type": "public", "wikidata": "Q17374361"}}, {"name": "Hospital Universitario Reina Sofía", "latitude": 37.8685051, "longitude": -4.7971923, "source": "osm", "_tags": {"amenity": "hospital", "emergency": "yes", "healthcare": "hospital", "name": "Hospital Universitario Reina Sofía", "name:en": "University Hospital Reina Sofía", "name:es": "Hospital Universitario Reina Sofía", "operator:type": "public", "website": "http://www.sspa.juntadeandalucia.es/servicioandaluzdesalud/hrs3", "wikidata": "Q5902864"}}, {"name": "Hospital Los Morales", "latitude": 37.9341521, "longitude": -4.8048306, "source": "osm", "_tags": {"amenity": "hospital", "building": "yes", "emergency": "yes", "healthcare": "hospital", "name": "Hospital Los Morales", "operator:type": "public", "phone": "+34 957 010 422", "wikidata": "Q87761712"}}, {"name": "Cruz Roja", "latitude": 37.880178, "longitude": -4.7845096, "source": "osm", "_tags": {"amenity": "hospital", "building": "hospital", "building:levels": "5", "building:levels:underground": "1", "healthcare": "hospital", "name": "Cruz Roja", "operator": "Cruz Roja", "operator:type": "ngo", "operator:wikidata": "Q7178", "wikidata": "Q64443007"}}, {"name": "Hospital de Alta Resolución Valle del Guadiato", "latitude": 38.3085899, "longitude": -5.2709654, "source": "osm", "_tags": {"amenity": "hospital", "emergency": "yes", "healthcare": "hospital", "name": "Hospital de Alta Resolución Valle del Guadiato", "operator:type": "public", "wikidata": "Q87761725"}}, {"name": "Hospital Comarcal Valle de los Pedroches", "latitude": 38.3835435, "longitude": -4.8492241, "source": "osm", "_tags": {"amenity": "hospital", "emergency": "yes", "healthcare": "hospital", "name": "Hospital Comarcal Valle de los Pedroches", "operator:type": "public"}}, {"name": "Centro de Atención a Minusválidos Físicos", "latitude": 38.3789716, "longitude": -4.8395829, "source": "osm", "_tags": {"amenity": "hospital", "healthcare": "hospital", "name": "Centro de Atención a Minusválidos Físicos"}}, {"name": "Centro de Salud", "latitude": 38.4946725, "longitude": -5.1415453, "source": "osm", "_tags": {"amenity": "hospital", "building": "hospital", "building:levels": "2", "healthcare": "hospital", "healthcare:speciality": "emergency;general", "name": "Centro de Salud"}}]