[{"name": "Centro Hospitalar - Reabilitação", "latitude": 38.7286351, "longitude": -9.230181, "source": "osm", "_tags": {"amenity": "hospital", "emergency": "no", "name": "Centro Hospitalar - Reabilitação"}}, {"name": "Hospital do Mar", "latitude": 38.8030496, "longitude": -9.0980312, "source": "osm", "_tags": {"amenity": "hospital", "emergency": "yes", "healthcare": "hospital", "name": "Hospital do Mar"}}, {"name": "Hospital da Luz Torres de Lisboa", "latitude": 38.7566926, "longitude": -9.174861, "source": "osm", "_tags": {"addr:city": "Lisboa", "addr:hamlet": "Torres de Lisboa", "addr:housename": "Edifício F", "addr:postcode": "1600-209", "addr:street": "Rua Tomás da Fonseca", "amenity": "hospital", "contact:email": "geral.torreslisboa@hospitaldaluz.pt", "contact:phone": "+351 217 104 600", "contact:website": "https://www.hospitaldaluz.pt/", "healthcare": "hospital", "name": "Hospital da Luz Torres de Lisboa", "note": "o hospital está instalado em 2 edifícios das Torres de Lisboa, o Edifício B e F", "ownership": "private", "wheelchair": "yes"}}, {"name": "Hospital da Luz Torres de Lisboa", "latitude": 38.7567214, "longitude": -9.1757319, "source": "osm", "_tags": {"addr:city": "Lisboa", "addr:hamlet": "Torres de Lisboa", "addr:housename": "Edifício B", "addr:postcode": "1600-209", "addr:street": "Rua Tomás da Fonseca", "amenity": "hospital", "contact:email": "geral.torreslisboa@hospitaldaluz.pt", "contact:phone": "+351 217 104 600", "contact:website": "https://www.hospitaldaluz.pt/", "healthcare": "hospital", "name": "Hospital da Luz Torres de Lisboa", "note": "o hospital está instalado em 2 edifícios das Torres de Lisboa, o Edifício B e F", "ownership": "private", "wheelchair": "yes"}}, {"name": "Hospital Júlio de Matos", "latitude": 38.7570476, "longitude": -9.1460979, "source": "osm", "_tags": {"addr:city": "Lisboa", "addr:housename": "Pavilhão 11", "addr:housenumber": "53-53D", "addr:postcode": "1749-002", "addr:street": "Avenida do Brasil", "alt_name": "Centro Hospitalar Psiquiátrico de Lisboa", "amenity": "hospital", "contact:email": "administracao@chpl.min-saude.pt", "contact:phone": "+351 217 917 000", "contact:website": "http://www.hjmatos.min-saude.pt/", "healthcare": "hospital", "name": "Hospital Júlio de Matos", "ownership": "national", "wheelchair": "yes", "wikidata": "Q10298412", "wikimedia_commons": "Category:Hospital Júlio de Matos"}}, {"name": "Clínica Walk'in® Telheiras", "latitude": 38.7677684, "longitude": -9.1730833, "source": "osm", "_tags": {"addr:city": "Lisboa", "addr:postcode": "1600-776", "addr:street": "Azinhaga dos Ulmeiros", "amenity": "clinic", "emergency": "yes", "healthcare": "hospital", "healthcare:speciality": "general;cardiology;physiotherapy;internal_medicine;psychiatry", "name": "Clínica Walk'in® Telheiras", "operator": "Walk'in Clinics"}}, {"name": "Urgência Pediátrica", "latitude": 38.5285123, "longitude": -8.8799254, "source": "osm", "_tags": {"emergency": "emergency_ward_entrance", "entrance": "yes", "healthcare": "hospital", "name": "Urgência Pediátrica", "opening_hours": "24/7"}}, {"name": "Urgência Geral", "latitude": 38.5285044, "longitude": -8.8797723, "source": "osm", "_tags": {"emergency": "emergency_ward_entrance", "entrance": "yes", "healthcare": "hospital", "name": "Urgência Geral", "opening_hours": "24/7"}}, {"name": "Instituto das Irmãs Hospitaleiras do Sagrado Coração de Jesus - Casa de Saúde de Santa Rosa de Lima", "latitude": 38.7759662, "longitude": -9.2636639, "source": "osm", "_tags": {"amenity": "hospital", "healthcare": "hospital", "name": "Instituto das Irmãs Hospitaleiras do Sagrado Coração de Jesus - Casa de Saúde de Santa Rosa de Lima"}}, {"name": "Sosvet Hospital Veterinário", "latitude": 38.6709772, "longitude": -9.1609629, "source": "osm", "_tags": {"amenity": "veterinary", "check_date": "2024-11-17", "email": "geral@sosvet.pt", "healthcare": "hospital", "name": "Sosvet Hospital Veterinário", "opening_hours": "Mo-Sa 10:00-13:00,14:00-19:00", "phone": "+351 21 272 3338"}}, {"name": "Centro de Ambulatório", "latitude": 38.7476841, "longitude": -9.1614683, "source": "osm", "_tags": {"amenity": "hospital", "description": "Hospital de Dia de Imuno-Hemoterapia\nUnidade Multidisciplinar de Dor\nUnidade de Medicina Paliativa", "healthcare": "hospital", "name": "Centro de Ambulatório"}}, {"name": "Consultas Externas Hospital Ambulatório", "latitude": 38.7473338, "longitude": -9.1618892, "source": "osm", "_tags": {"amenity": "hospital", "healthcare": "hospital", "name": "Consultas Externas Hospital Ambulatório"}}, {"name": "Centro de Ambulatório", "latitude": 38.7476653, "longitude": -9.1610581, "source": "osm", "_tags": {"amenity": "hospital", "description": "Hospital de Dia de Hematologia\nHospital de Dia de Imuno Alergologia\nHospital de Dia de Reumatologia", "healthcare": "hospital", "name": "Centro de Ambulatório"}}, {"name": "Serviço de Imagiologia", "latitude": 38.7479863, "longitude": -9.1612966, "source": "osm", "_tags": {"healthcare": "hospital", "healthcare:speciality": "diagnostic_radiology", "level": "2", "name": "Serviço de Imagiologia"}}, {"name": "Análises Clínicas Affidea Laboratórios - Olivais Norte", "latitude": 38.7751447, "longitude": -9.1133227, "source": "osm", "_tags": {"addr:city": "Lisboa", "addr:housenumber": "144", "addr:postcode": "1800-050", "addr:street": "Rua Capitão-Tenente Oliveira e Carmo", "addr:unit": "cave", "amenity": "hospital", "healthcare": "hospital", "healthcare:speciality": "blood_check", "name": "Análises Clínicas Affidea Laboratórios - Olivais Norte"}}, {"name": "Cellulem Block", "latitude": 38.7640846, "longitude": -9.0969209, "source": "osm", "_tags": {"amenity": "hospital", "healthcare": "clinic", "name": "Cellulem Block"}}, {"name": "Kids & Nits", "latitude": 38.7640782, "longitude": -9.0968396, "source": "osm", "_tags": {"amenity": "hospital", "healthcare": "clinic", "healthcare:speciality": "piolhos_e_lêndeas", "name": "Kids & Nits"}}, {"name": "Cuf Infante Santo", "latitude": 38.7063191, "longitude": -9.1675263, "source": "osm", "_tags": {"amenity": "hospital", "healthcare": "hospital", "name": "Cuf Infante Santo"}}, {"name": "Hospital de São José - Consultas Externas", "latitude": 38.7167068, "longitude": -9.1375638, "source": "osm", "_tags": {"addr:postcode": "1150-199", "addr:street": "Rua José António Serrano", "amenity": "hospital", "healthcare": "hospital", "name": "Hospital de São José - Consultas Externas", "opening_hours": "Mo-Fr 08:00-20:00", "operator": "Serviço Nacional de Saúde", "operator:type": "government", "operator:wikidata": "Q1299901", "phone": "218841000", "website": "https://www.chlc.min-saude.pt/"}}, {"name": "Hospital Pulido Valente", "latitude": 38.7651332, "longitude": -9.160506, "source": "osm", "_tags": {"addr:city": "Lisboa", "addr:housenumber": "117", "addr:postcode": "1769-001", "addr:street": "Alameda das Linhas de Torres", "amenity": "hospital", "barrier": "wall", "contact:email": "consadm@hpv.min-saude.pt", "contact:phone": "+351 217 548 000", "contact:website": "http://www.chln.min-saude.pt", "emergency": "no", "healthcare": "hospital", "name": "Hospital Pulido Valente", "ownership": "national", "toilets:wheelchair": "yes", "wheelchair": "yes", "wikidata": "Q90332537"}}, {"name": "Hospital dos Lusíadas", "latitude": 38.7491526, "longitude": -9.1778593, "source": "osm", "_tags": {"addr:city": "Lisboa", "addr:postcode": "1500-458", "addr:street": "Rua Abílio Mendes", "amenity": "hospital", "contact:email": "contact.center@hppsaude.pt", "contact:phone": "+351 217 704 040", "contact:website": "http://www.hpplusiadas.pt", "healthcare": "hospital", "healthcare:speciality": "general", "name": "Hospital dos Lusíadas", "ownership": "private"}}, {"name": "Hospital da Cruz Vermelha Portuguesa", "latitude": 38.7462108, "longitude": -9.1750985, "source": "osm", "_tags": {"addr:city": "Lisboa", "addr:housenumber": "54", "addr:postcode": "1549-008", "addr:street": "Rua Duarte Galvão", "alt_name": "Hospital Cruz Vermelha", "amenity": "hospital", "barrier": "wall", "contact:email": "callcenter@hcvp.com.pt", "contact:phone": "+351 217 714 000", "contact:website": "http://www.hospitalcruzvermelha.pt/", "email": "callcenter@hcvp.com.pt", "emergency": "yes", "healthcare": "hospital", "name": "Hospital da Cruz Vermelha Portuguesa", "name:de": "Krankenhaus vom Portugiesischen Roten Kreuz", "name:en": "Portuguese Red Cross Hospital", "operator": "Cruz Vermelha", "ownership": "private", "phone": "+351 217 714 000", "website": "http://www.hospitalcruzvermelha.pt/"}}, {"name": "Hospital Santa Maria", "latitude": 38.7478704, "longitude": -9.1609619, "source": "osm", "_tags": {"addr:city": "Lisboa", "addr:housename": "Hospital de Santa Maria", "addr:postcode": "1649-035", "addr:street": "Avenida Professor Egas Moniz", "amenity": "hospital", "contact:email": "hsm.casns@hsm.min-saude.pt", "contact:phone": "+351 217 805 000", "contact:website": "http://www.hsm.pt", "emergency": "yes", "healthcare": "hospital", "name": "Hospital Santa Maria", "owner": "Centro Hospitalar de Lisboa Norte, EPE.", "ownership": "national", "wikidata": "Q10298545", "wikimedia_commons": "Category:Hospital de Santa Maria (Lisbon)", "wikipedia": "pt:Hospital de Santa Maria"}}, {"name": "Hospital de Santo António dos Capuchos", "latitude": 38.7221964, "longitude": -9.1424343, "source": "osm", "_tags": {"addr:city": "Lisboa", "addr:postcode": "1169-050", "addr:street": "Alameda de Santo António dos Capuchos", "amenity": "hospital", "contact:email": "sec.adm.capuchos@chlc.min-saude.pt", "contact:phone": "+351 213 136 300", "contact:website": "www.chlc.min-saude.pt", "healthcare": "hospital", "name": "Hospital de Santo António dos Capuchos", "owner": "Centro Hospitalar Lisboa Central", "ownership": "national", "wikidata": "Q10298469", "wikimedia_commons": "Category:Hospital de Santo António dos Capuchos", "wikipedia": "en:Hospital de Santo António dos Capuchos"}}, {"name": "Hospital de São José", "latitude": 38.7181776, "longitude": -9.1380021, "source": "osm", "_tags": {"addr:city": "Lisboa", "addr:postcode": "1150-199", "addr:street": "Rua José António Serrano", "amenity": "hospital", "contact:email": "sec.ca@chlc.min-saude.pt", "contact:phone": "+351 218 841 000", "contact:website": "http://www.chlc.min-saude.pt", "emergency": "yes", "healthcare": "hospital", "name": "Hospital de São José", "name:de": "Krankenhaus São José", "old_name": "Colégio de Santo Antão-o-Novo;Hospital de Todos-os-Santos;Hospital Real de São José", "owner": "Centro Hospitalar Lisboa Central", "ownership": "national", "wikidata": "Q10298548", "wikimedia_commons": "Category:Hospital São José (Lisboa)", "wikipedia": "en:Hospital de São José"}}, {"name": "Hospital Dona Estefânia", "latitude": 38.728746, "longitude": -9.1390683, "source": "osm", "_tags": {"addr:city": "Lisboa", "addr:postcode": "1169-045", "addr:street": "Rua Jacinta Marto", "alt_name": "Maternidade Magalhães Coutinho", "amenity": "hospital", "contact:email": "sec.adm.hde@chlc.min-saude.pt", "contact:phone": "+351 213 126 600", "contact:website": "http://www.chlc.min-saude.pt", "healthcare": "hospital", "healthcare:speciality": "paediatrics;paediatric_surgery", "name": "Hospital Dona Estefânia", "operator": "Centro Hospitalar Lisboa Central", "owner": "Centro Hospitalar Lisboa Central", "ownership": "national", "wikidata": "Q10298538", "wikimedia_commons": "Category:Hospital de D. Estefânia (Lisbon)", "wikipedia": "en:Hospital de Dona Estefânia"}}, {"name": "Parque de Saúde de Lisboa", "latitude": 38.758504, "longitude": -9.1466472, "source": "osm", "_tags": {"addr:housenumber": "53", "addr:street": "Avenida do Brasil", "amenity": "hospital", "healthcare": "hospital", "name": "Parque de Saúde de Lisboa", "wheelchair": "yes"}}, {"name": "Hospital da Luz - Setúbal", "latitude": 38.5333582, "longitude": -8.9095143, "source": "osm", "_tags": {"amenity": "hospital", "healthcare": "hospital", "name": "Hospital da Luz - Setúbal", "name:pt": "Hospital da Luz - Setúbal", "phone": "+351 21 710 4424", "source": "Bing", "website": "https://www.hospitaldaluz.pt/setubal/pt/"}}, {"name": "Unisana Hospitais - Hospital de Almada", "latitude": 38.6735727, "longitude": -9.1544786, "source": "osm", "_tags": {"addr:housenumber": "85", "addr:street": "Rua Manuel Febrero", "amenity": "hospital", "building": "yes", "check_date": "2025-05-15", "contact:phone": "+351 21 272 3680", "contact:website": "https://unisanahospitais.pt", "emergency": "yes", "healthcare": "hospital", "name": "Unisana Hospitais - Hospital de Almada", "opening_hours": "Mo-Fr 08:00-21:00; Sa 08:00-13:00"}}, {"name": "Centro Hospitalar de Setúbal, EPE - Departamento de Psiquiatria e Saúde Mental", "latitude": 38.5330354, "longitude": -8.9116396, "source": "osm", "_tags": {"amenity": "hospital", "healthcare": "psychotherapist", "name": "Centro Hospitalar de Setúbal, EPE - Departamento de Psiquiatria e Saúde Mental"}}, {"name": "Centro Hospitalar Barreiro-Montijo, EPE - Hospital de Nossa Senhora do Rosário", "latitude": 38.6548204, "longitude": -9.0572051, "source": "osm", "_tags": {"amenity": "hospital", "emergency": "yes", "healthcare": "hospital", "name": "Centro Hospitalar Barreiro-Montijo, EPE - Hospital de Nossa Senhora do Rosário"}}, {"name": "Hospital São Francisco Xavier", "latitude": 38.7074037, "longitude": -9.2176964, "source": "osm", "_tags": {"addr:postcode": "1449-005", "addr:street": "Estrada Forte do Alto Duque", "amenity": "hospital", "contact:email": "chlo@chlo.min-saude.pt", "contact:phone": "+351 210 433 000", "contact:website": "http://www.chlo.min-saude.pt", "emergency": "yes", "healthcare": "hospital", "name": "Hospital São Francisco Xavier", "opening_hours": "24/7", "owner": "Centro Hospitalar de Lisboa Ocidental, EPE.", "ownership": "national", "wikidata": "Q10298547", "wikipedia": "pt:Hospital de São Francisco Xavier"}}, {"name": "Hospital Curry Cabral", "latitude": 38.7410272, "longitude": -9.1521013, "source": "osm", "_tags": {"addr:city": "Lisboa", "addr:housenumber": "6-8", "addr:postcode": "1069-166", "addr:street": "Rua da Beneficência", "amenity": "hospital", "contact:email": "cadm@hccabral.min-saude.pt", "contact:phone": "+351 217 924 200", "contact:website": "http://www.chlc.min-saude.pt/hospital.aspx?menuid=480", "healthcare": "hospital", "name": "Hospital Curry Cabral", "owner": "Centro Hospitalar de Lisboa Central, EPE", "ownership": "national", "wikidata": "Q1630433", "wikimedia_commons": "Category:Hospital Curry Cabral", "wikipedia": "en:Hospital Curry Cabral"}}, {"name": "Hospital de Santa Cruz", "latitude": 38.7267471, "longitude": -9.2329071, "source": "osm", "_tags": {"addr:city": "Santa Cruz", "addr:housenumber": "921", "addr:postcode": "2790-134", "addr:street": "Avenida Errázuriz", "amenity": "hospital", "emergency": "yes", "healthcare": "hospital", "name": "Hospital de Santa Cruz", "wikidata": "Q10298544", "wikipedia": "pt:Hospital de Santa Cruz"}}, {"name": "Fundação Dona Anna de Sommer Champalimaud e Doutor Carlos Montez Champalimaud", "latitude": 38.6933631, "longitude": -9.2222526, "source": "osm", "_tags": {"amenity": "hospital", "building": "yes", "healthcare": "hospital", "name": "Fundação Dona Anna de Sommer Champalimaud e Doutor Carlos Montez Champalimaud"}}, {"name": "Centro Hospitalar de Setúbal, EPE- Hospital Ortopédico Santiago d'Outão", "latitude": 38.4882751, "longitude": -8.9351779, "source": "osm", "_tags": {"amenity": "hospital", "boundary": "protected_area", "healthcare": "hospital", "healthcare:speciality": "orthopaedics", "heritage": "2", "heritage:operator": "dgpc", "heritage:ref": "IIP", "heritage:since": "1977", "heritage:website": "https://servicos.dgpc.gov.pt/pesquisapatrimonioimovel/detalhes.php?code=74258", "heritage:website:sipa": "http://monumentos.pt/Site/APP_PagesUser/SIPA.aspx?id=2140", "name": "Centro Hospitalar de Setúbal, EPE- Hospital Ortopédico Santiago d'Outão", "operator": "Ministério da Saúde", "operator:wikidata": "Q4294357", "protect_class": "22", "protection_title": "Imóvel de Interesse Público", "ref:dgpc": "74258", "ref:ipa": "2140", "site_status": "Classificado", "source:ref": "https://dre.pt/pdf1sdip/1977/09/22600/23902396.pdf", "start_date": "1390-"}}, {"name": "Hospital Garcia de Orta", "latitude": 38.67386, "longitude": -9.1767783, "source": "osm", "_tags": {"amenity": "hospital", "emergency": "yes", "healthcare": "hospital", "name": "Hospital Garcia de Orta", "name:etymology:wikidata": "Q1493994", "wikidata": "Q10298390", "wikipedia": "pt:Hospital Garcia de Orta"}}, {"name": "Instituto Português Oncologia de Lisboa Francisco Gentil", "latitude": 38.7396026, "longitude": -9.1619088, "source": "osm", "_tags": {"addr:city": "Lisboa", "addr:housename": "IPO", "addr:postcode": "1099-023", "addr:street": "Rua Professor Lima Basto", "addr:unit": "Pavilhão Central", "amenity": "hospital", "contact:email": "ipofg@ipolisboa.min-saude.pt", "contact:phone": "+351 217 229 800", "contact:website": "http://www.ipolisboa.min-saude.pt", "emergency": "no", "healthcare": "hospital", "name": "Instituto Português Oncologia de Lisboa Francisco Gentil", "ownership": "national", "short_name": "IPO Lisboa", "wikidata": "Q90315026", "wikimedia_commons": "Category:Instituto Português de Oncologia (Lisboa)"}}, {"name": "Hospital do Mar", "latitude": 38.8028752, "longitude": -9.0979298, "source": "osm", "_tags": {"addr:city": "Bobadela", "addr:housenumber": "6", "addr:postcode": "2695-458", "addr:street": "Rua dos Girassóis", "amenity": "hospital", "email": "geral.lisboa@hospitaldomar.pt", "healthcare": "hospital", "name": "Hospital do Mar", "operator": "Luz Saúde", "operator:type": "private", "phone": "+351 219 948 660", "website": "https://www.hospitaldomar.pt/lisboa/en/"}}, {"name": "Hospital do Litoral Alentejano", "latitude": 38.0402078, "longitude": -8.7324848, "source": "osm", "_tags": {"amenity": "hospital", "emergency": "yes", "healthcare": "hospital", "name": "Hospital do Litoral Alentejano", "official_name": "Unidade Local de Saúde do Litoral Alentejano, EPE"}}, {"name": "Hospital Saint Louis", "latitude": 38.7136239, "longitude": -9.1457263, "source": "osm", "_tags": {"addr:city": "Lisboa", "addr:housenumber": "182", "addr:postcode": "1200-249", "addr:street": "Rua Luz Soriano", "alt_name": "Hospital St. Louis", "amenity": "hospital", "building": "hospital", "castle_type": "palace", "contact:email": "geral@hslouis.pt", "contact:fax": "+351 213 460 221", "contact:phone": "+351 213 216 500", "contact:website": "http://www.hslouis.pt", "description": "Palácio construído no séc. XVI por um judeu abastado,subsistindo da sua construção primitiva dois cunhais incompletos com decoração de pedra relevada em meias esferas,no sentido de representar pomos de ouro...", "historic": "castle", "name": "Hospital Saint Louis", "old_name": "Palácio do Cunhal das Bolas", "ownership": "private", "source": "dadosabertos.cm-lisboa.pt", "website": "https://www.hslouis.pt/", "wikidata": "Q17390180", "wikimedia_commons": "Category:Palácio do Cunhal das Bolas"}}, {"name": "Hospital CUF Infante Santo", "latitude": 38.7053581, "longitude": -9.168897, "source": "osm", "_tags": {"addr:city": "Lisboa", "addr:housenumber": "3", "addr:postcode": "1350-070", "addr:street": "Travessa do Castro", "amenity": "hospital", "contact:email": "geral.hcis@jmello.pt", "contact:phone": "+351 213 926 100", "contact:website": "www.hospitalcufinfantesanto.pt", "healthcare": "hospital", "name": "Hospital CUF Infante Santo", "opening_hours": "24/7", "website": "https://www.hospitalcufinfantesanto.pt/"}}, {"name": "Unidade de Cuidados de Saúde Personalizados Caneças", "latitude": 38.8145629, "longitude": -9.2264897, "source": "osm", "_tags": {"addr:city": "Caneças", "addr:street": "Rua Júlia Escrivaniz", "amenity": "hospital", "name": "Unidade de Cuidados de Saúde Personalizados Caneças"}}, {"name": "Centro Hospitalar Barreiro-Montijo, EPE - Hospital Distrital do Montijo", "latitude": 38.7074622, "longitude": -8.9712369, "source": "osm", "_tags": {"addr:city": "Montijo", "addr:housenumber": "54", "addr:postcode": "2870-351", "addr:street": "Rua Machado Santos", "amenity": "hospital", "emergency": "yes", "healthcare": "hospital", "name": "Centro Hospitalar Barreiro-Montijo, EPE - Hospital Distrital do Montijo", "operator": "SNS", "website": "http://www.chbm.min-saude.pt/"}}, {"name": "Maternidade Doutor Alfredo da Costa", "latitude": 38.7326278, "longitude": -9.1474537, "source": "osm", "_tags": {"addr:city": "Lisboa", "addr:country": "PT", "addr:postcode": "1069-089", "addr:street": "Rua Viriato", "amenity": "hospital", "architect": "Miguel Ventura Terra", "architect:wikidata": "Q3313019", "healthcare": "hospital", "name": "Maternidade Doutor Alfredo da Costa", "owner": "Centro Hospitalar de Lisboa Central, EPE.", "ownership": "national", "phone": "+351 213 184 000", "start_date": "1932", "website": "https://www.chlc.min-saude.pt/hospital.aspx?menuid=481", "wikidata": "Q10327315", "wikipedia": "pt:Maternidade Alfredo da Costa"}}, {"name": "Hospital do SAMS", "latitude": 38.7681874, "longitude": -9.1146698, "source": "osm", "_tags": {"addr:city": "Lisboa", "addr:country": "PT", "addr:housenumber": "1", "addr:postcode": "1849-017", "addr:street": "Rua Cidade de Gabela", "amenity": "hospital", "contact:email": "cg@sams.pt", "contact:fax": "+351 218 422 290", "contact:phone": "+351 210 499 999", "contact:website": "http://pics.sams.pt/UnidadesSaude/Paginas/HospitalSAMS.aspx", "healthcare": "hospital", "name": "Hospital do SAMS", "owner": "Sindicato dos Bancários do Sul e Ilhas", "ownership": "private"}}, {"name": "Hospital das Forças Armadas - Pólo de Lisboa", "latitude": 38.7672131, "longitude": -9.1751711, "source": "osm", "_tags": {"addr:city": "Lisboa", "addr:postcode": "1649-020", "addr:street": "Azinhaga dos Ulmeiros", "alt_name": "Hospital Militar", "amenity": "hospital", "barrier": "wall", "check_date": "2024-05-28", "contact:phone": "+351 217 519 777", "emergency": "yes", "healthcare": "hospital", "height": "5", "landuse": "military", "material": "brick", "name": "Hospital das Forças Armadas - Pólo de Lisboa", "short_name": "HFAR/PL"}}, {"name": "Hospital da Ordem Terceira", "latitude": 38.7086568, "longitude": -9.141662, "source": "osm", "_tags": {"addr:city": "Lisboa", "addr:country": "PT", "addr:housenumber": "7", "addr:postcode": "1249-203", "addr:street": "Rua Serpa Pinto", "amenity": "hospital", "contact:email": "mail@hospitaldaordemterceira.pt", "contact:phone": "+351 213 230 300 / 98", "contact:website": "www.hospitaldaordemterceira.pt", "healthcare": "hospital", "name": "Hospital da Ordem Terceira", "ownership": "private"}}, {"name": "Hospital Amadora-Sintra", "latitude": 38.7431648, "longitude": -9.2464737, "source": "osm", "_tags": {"amenity": "hospital", "emergency": "yes", "healthcare": "hospital", "name": "Hospital Amadora-Sintra"}}, {"name": "Instituto de Oftalmologia Doutor Gama Pinto", "latitude": 38.7221773, "longitude": -9.1443225, "source": "osm", "_tags": {"addr:city": "Lisboa", "addr:housenumber": "2", "addr:postcode": "1169-019", "addr:street": "Travessa Larga", "amenity": "hospital", "contact:email": "administracao@igpinto.min-saude.pt", "contact:phone": "+351 213 553 060", "contact:website": "http://institutogamapinto.com/", "healthcare": "hospital", "name": "Instituto de Oftalmologia Doutor Gama Pinto", "ownership": "national"}}, {"name": "Hospital Nossa Senhora da Arrábida", "latitude": 38.5468712, "longitude": -9.0292484, "source": "osm", "_tags": {"addr:city": "Azeitão", "addr:housenumber": "11", "addr:postcode": "2925-061", "addr:street": "Rua Ary dos Santos", "amenity": "hospital", "building": "hospital", "building:levels": "3", "emergency": "no", "healthcare": "hospital", "healthcare:speciality": "cardiology;surgery;vascular_surgery;general;endocrinology;audiometria;consulta_do_viajante;consulta_da_dor;physiatry;gynaecology;dentistry;internal;neurology;nutrição;ortopedia;otolaryngology;podiatry;humanistic;psychiatry;rheumatology;urology", "name": "Hospital Nossa Senhora da Arrábida", "operator": "ORPEA Residências", "operator:type": "private", "phone": "+351 210 495 672", "website": "https://www.hnsa.pt/"}}, {"name": "Hospital Nossa Senhora da Arrábida", "latitude": 38.5464844, "longitude": -9.0290828, "source": "osm", "_tags": {"addr:city": "Azeitão", "addr:housenumber": "11", "addr:postcode": "2925-061", "addr:street": "Rua Ary dos Santos", "amenity": "hospital", "emergency": "no", "healthcare": "hospital", "healthcare:speciality": "cardiology;surgery;vascular_surgery;general;endocrinology;audiometria;consulta_do_viajante;consulta_da_dor;physiatry;gynaecology;dentistry;internal;neurology;nutrição;ortopedia;otolaryngology;podiatry;humanistic;psychiatry;rheumatology;urology", "name": "Hospital Nossa Senhora da Arrábida", "operator": "ORPEA Residências", "operator:type": "private", "phone": "+351 210 495 672", "website": "https://www.hnsa.pt/"}}, {"name": "Hospital CUF Tejo", "latitude": 38.7034671, "longitude": -9.1731544, "source": "osm", "_tags": {"amenity": "hospital", "check_date": "2025-05-17", "healthcare": "hospital", "internet_access": "wlan", "internet_access:fee": "no", "internet_access:ssid": "CUF-GUEST", "name": "Hospital CUF Tejo", "operator:type": "private", "wheelchair": "yes"}}, {"name": "Unidade de Saúde Familiar Descobertas", "latitude": 38.6951977, "longitude": -9.2205675, "source": "osm", "_tags": {"amenity": "clinic", "building": "yes", "emergency": "no", "healthcare": "hospital", "name": "Unidade de Saúde Familiar Descobertas"}}, {"name": "Hospital da Luz Lisboa", "latitude": 38.7561587, "longitude": -9.1924438, "source": "osm", "_tags": {"addr:city": "Lisboa", "addr:housenumber": "100", "addr:postcode": "1500-650", "addr:street": "Avenida Lusíada", "amenity": "hospital", "contact:email": "geral@hospitaldaluz.pt", "contact:fax": "+351 217 104 409", "contact:phone": "+351 217 104 400", "contact:website": "www.hospitaldaluz.pt/lisboa", "healthcare": "hospital", "name": "Hospital da Luz Lisboa", "ownership": "private", "wikidata": "Q30280032", "wikimedia_commons": "Category:Hospital da Luz"}}, {"name": "Hospital Lusíadas Amadora", "latitude": 38.7486699, "longitude": -9.2302604, "source": "osm", "_tags": {"addr:street": "Avenida dos Hospitais Civis de Lisboa", "building": "hospital", "check_date": "2024-10-28", "healthcare": "hospital", "name": "Hospital Lusíadas Amadora", "operator": "Lusíadas"}}, {"name": "Hospital Lusíadas Amadora", "latitude": 38.7487271, "longitude": -9.2310001, "source": "osm", "_tags": {"addr:street": "Avenida dos Hospitais Civis de Lisboa", "building": "hospital", "check_date": "2024-10-28", "healthcare": "hospital", "name": "Hospital Lusíadas Amadora", "operator": "Lusíadas"}}, {"name": "Hospital de Egas Moniz", "latitude": 38.699528, "longitude": -9.1880327, "source": "osm", "_tags": {"addr:city": "Lisboa", "addr:housenumber": "126", "addr:postcode": "1349-019", "addr:street": "Rua da Junqueira", "amenity": "hospital", "contact:email": "hem@chlo.min-saude.pt", "contact:phone": "+351 210 431 000", "contact:website": "http://www.chlo.min-saude.pt/", "healthcare": "hospital", "name": "Hospital de Egas Moniz", "owner": "Centro Hospitalar de Lisboa Ocidental, EPE.", "ownership": "national", "wikidata": "Q10298537", "wikimedia_commons": "Category:Hospital de Egas Moniz"}}, {"name": "GHVS - Hospital Veterinário", "latitude": 38.6404317, "longitude": -9.1751624, "source": "osm", "_tags": {"addr:housenumber": "81", "addr:postcode": "2815-848", "addr:street": "Rua General Humberto Delgado", "amenity": "hospital", "barrier": "wall", "healthcare": "hospital", "name": "GHVS - Hospital Veterinário"}}, {"name": "", "latitude": 38.5375672, "longitude": -8.897759, "source": "osm", "_tags": {"amenity": "hospital", "healthcare": "dialysis"}}, {"name": "UCCI Almada Saúde", "latitude": 38.6331009, "longitude": -9.1821813, "source": "osm", "_tags": {"addr:city": "Charneca de Caparica e Sobreda", "addr:housenumber": "52", "addr:postcode": "2820-163", "addr:street": "Estrada da Bela Vista", "amenity": "hospital", "barrier": "wall", "healthcare": "hospital", "name": "UCCI Almada Saúde"}}, {"name": "", "latitude": 38.6394045, "longitude": -9.0973099, "source": "osm", "_tags": {"amenity": "hospital", "healthcare": "hospital"}}, {"name": "", "latitude": 38.7286346, "longitude": -9.2301873, "source": "osm", "_tags": {"amenity": "hospital", "healthcare": "hospital"}}, {"name": "UCSP Montijo Rural - Polo Canha", "latitude": 38.765601, "longitude": -8.6267413, "source": "osm", "_tags": {"building": "yes", "healthcare": "hospital", "name": "UCSP Montijo Rural - Polo Canha"}}, {"name": "Centro Clínico de Lisboa do SAMS", "latitude": 38.7342357, "longitude": -9.1580776, "source": "osm", "_tags": {"addr:city": "Lisboa", "addr:street": "Rua Fialho de Almeida", "amenity": "hospital", "emergency": "no", "healthcare": "hospital", "name": "Centro Clínico de Lisboa do SAMS", "operator": "SAMS", "operator:type": "private"}}, {"name": "Hospital de Jesus", "latitude": 38.7125908, "longitude": -9.1509171, "source": "osm", "_tags": {"addr:city": "Lisboa", "addr:housenumber": "2", "addr:postcode": "1200-032", "addr:street": "Travessa Arrochela", "amenity": "hospital", "check_date": "2024-06-17", "contact:email": "geral@hospitaldejesus.pt", "contact:phone": "+351 213 934 700", "contact:website": "www.hospitaldejesus.pt", "healthcare": "hospital", "name": "Hospital de Jesus", "name:pt": "Hospital de Jesus", "operator:type": "private", "ownership": "private"}}, {"name": "", "latitude": 38.707333, "longitude": -8.9627694, "source": "osm", "_tags": {"amenity": "hospital", "healthcare": "hospital"}}, {"name": "Hospital Santa Marta", "latitude": 38.7240326, "longitude": -9.1447278, "source": "osm", "_tags": {"addr:city": "Lisboa", "addr:housenumber": "50-50 I", "addr:postcode": "1169-024", "addr:street": "Rua de Santa Marta", "amenity": "hospital", "contact:email": "administracao@hsmarta.min-saude.pt", "contact:phone": "+351 213 594 000", "contact:website": "www.hsmarta.min-saude.pt", "healthcare": "hospital", "name": "Hospital Santa Marta", "owner": "Centro Hospitalar Lisboa Central", "ownership": "national", "type": "multipolygon", "wikidata": "Q10298546"}}, {"name": "Hospital CUF Descobertas", "latitude": 38.7580531, "longitude": -9.0989996, "source": "osm", "_tags": {"addr:city": "Lisboa", "addr:hamlet": "Parque das Nações", "addr:postcode": "1998-018", "addr:street": "Rua Mário Botas", "amenity": "hospital", "contact:email": "geral.hcd@jmellosaude.pt", "contact:phone": "+351 210 025 200", "emergency": "yes", "healthcare": "hospital", "internet_access": "yes", "name": "Hospital CUF Descobertas", "operator": "CUF", "operator:type": "private", "ownership": "private", "payment:cash": "yes", "payment:credit_cards": "yes", "payment:debit_cards": "yes", "payment:multibanco": "yes", "type": "multipolygon", "website": "https://www.cuf.pt/hospitais-e-clinicas/hospital-cuf-descobertas"}}, {"name": "Trofa Saúde", "latitude": 38.7754152, "longitude": -9.2190596, "source": "osm", "_tags": {"amenity": "hospital", "building": "hospital", "healthcare": "hospital", "name": "Trofa Saúde", "type": "multipolygon"}}, {"name": "Centro Hospitalar de Setúbal, EPE - Hospital de São Bernardo", "latitude": 38.5288629, "longitude": -8.8804507, "source": "osm", "_tags": {"amenity": "hospital", "emergency": "yes", "healthcare": "hospital", "name": "Centro Hospitalar de Setúbal, EPE - Hospital de São Bernardo", "type": "multipolygon"}}]