[{"name": "Consultas Externas", "latitude": 39.2999491, "longitude": -7.4281575, "source": "osm", "_tags": {"healthcare": "hospital", "name": "Consultas Externas"}}, {"name": "Centro de Saúde de Rio Moinhos", "latitude": 39.4756355, "longitude": -8.244358, "source": "osm", "_tags": {"addr:city": "Rio de Moinhos", "addr:housenumber": "1", "addr:postcode": "2200-798", "addr:street": "Rua Fernando Ferreira", "amenity": "hospital", "emergency": "no", "healthcare": "hospital", "healthcare:speciality": "general", "name": "Centro de Saúde de Rio Moinhos"}}, {"name": "Centro de Saúde de Alferrarede", "latitude": 39.4741626, "longitude": -8.1910775, "source": "osm", "_tags": {"amenity": "clinic", "healthcare": "hospital", "name": "Centro de Saúde de Alferrarede"}}, {"name": "Unidade Local de Saúde do Norte Alentejano, EPE - Hospital Doutor José Maria Grande", "latitude": 39.3002175, "longitude": -7.4278683, "source": "osm", "_tags": {"amenity": "hospital", "healthcare": "hospital", "name": "Unidade Local de Saúde do Norte Alentejano, EPE - Hospital Doutor José Maria Grande"}}, {"name": "Cruz Vermelha Portuguesa", "latitude": 38.8479891, "longitude": -7.5839139, "source": "osm", "_tags": {"amenity": "clinic", "healthcare": "hospital", "name": "Cruz Vermelha Portuguesa"}}, {"name": "Hospital Doutor Manuel Constâncio", "latitude": 39.4561325, "longitude": -8.1986391, "source": "osm", "_tags": {"alt_name": "Hospital de Abrantes", "amenity": "hospital", "emergency": "yes", "healthcare": "hospital", "name": "Hospital Doutor Manuel Constâncio", "operator": "Centro Hospitalar do Médio Tejo, EPE", "operator:type": "public", "wikidata": "Q98713449"}}]