[{"name": "Centro de Alta Resolución (CAR) de Trujillo", "latitude": 39.4543066, "longitude": -5.8831114, "source": "osm", "_tags": {"addr:city": "Trujillo", "addr:housenumber": "2", "addr:postcode": "10200", "addr:street": "Plaza del Molinillo", "amenity": "hospital", "building": "hospital", "building:levels": "2", "building:levels:underground": "1", "emergency": "yes", "fax": "+34 927 322 156", "healthcare": "hospital", "name": "Centro de Alta Resolución (CAR) de Trujillo", "name:en": "Trujillo high resolution center", "name:pt": "Centro de alta resolução de Trujillo", "note": "Junta de Extremadura - Consejeria de Sanidad y Servicios Sociales", "opening_hours": "Mo-Fr 08:00-15:00", "operator": "Servicio Extremeño de Salud", "phone": "+34 927320769;+34 927322363;+34 927320089", "source": "https://www.areasaludcaceres.es/organigrama/centros/72-car-de-trujillo/153-centro-de-alta-resolucion-de-trujillo.html", "start_date": "2009-01-19", "website": "https://www.areasaludcaceres.es/organigrama/servicios/30-centro-de-alta-resolucion/216-centro-de-alta-resolucion-car-de-trujillo-servicios-asistenciales.html"}}, {"name": "Centro de Salud", "latitude": 38.8189024, "longitude": -6.2162348, "source": "osm", "_tags": {"addr:city": "La Zarza", "addr:housenumber": "26", "addr:postcode": "06830", "addr:street": "Calle Cerratos", "addr:unit": "1", "amenity": "hospital", "building": "yes", "emergency": "yes", "fax": "+34 924 36 72 19", "healthcare": "hospital", "healthcare:speciality": "general;paediatrics;emergency", "internet_access": "yes", "name": "Centro de Salud", "operator": "Teléfono de Consulta y citas: 924 36 72 62", "operator:type": "public", "phone": "+34 924 36 72 62", "website": "https://lazarza.net/categoria/la-zarza/instalaciones-municipales-1/centro-de-salud/", "wheelchair": "yes"}}, {"name": "Centro de Salud de Zorita", "latitude": 39.279117, "longitude": -5.7034988, "source": "osm", "_tags": {"addr:city": "Zorita", "addr:housenumber": "106", "addr:postcode": "10130", "addr:street": "Avenida de la Constitución", "amenity": "hospital", "emergency": "yes", "fax": "+34 927 340 009", "healthcare": "hospital", "healthcare:speciality": "general", "name": "Centro de Salud de Zorita", "phone": "+34 927 340 801", "source": "https://www.areasaludcaceres.es/organigrama/centros/81-centros-de-salud/43-centro-de-salud-de-zorita.html"}}, {"name": "Hospital Don Benito-Villanueva", "latitude": 38.9626997, "longitude": -5.8274938, "source": "osm", "_tags": {"addr:city": "Don Benito", "addr:postcode": "06400", "addr:street": "Avenida de las Vegas Altas", "amenity": "hospital", "email": "gerent.hdbv@ses.juntaex.es", "emergency": "yes", "fax": "+34 924 38 68 01", "healthcare": "hospital", "name": "Hospital Don Benito-Villanueva", "network": "Servicio Extremeño de Salud", "network:short": "SES", "operator": "Servicio Extremeño de Salud-SES", "operator:type": "public", "phone": "+34 924 38 68 00", "wikidata": "Q87761445"}}, {"name": "Hospital Parque Vegas Altas", "latitude": 38.9626717, "longitude": -5.8562838, "source": "osm", "_tags": {"addr:city": "Don Benito", "addr:housenumber": "12", "addr:postcode": "06400", "addr:street": "Avenida de Madrid", "amenity": "hospital", "building": "hospital", "emergency": "yes", "healthcare": "hospital", "name": "Hospital Parque Vegas Altas", "operator:type": "private", "phone": "+34924805050", "website": "https://www.hospitalesparque.es/don-benito", "wikidata": "Q87761460"}}, {"name": "Hospita Comarcall Don Benito-Villanueva de la Serena", "latitude": 38.9691567, "longitude": -5.8205545, "source": "osm", "_tags": {"addr:city": "Don Benito", "addr:postcode": "06400", "addr:street": "Carretera de Don Benito-Villanueva de la Serena", "amenity": "hospital", "beds": "277", "emergency": "yes", "name": "Hospita Comarcall Don Benito-Villanueva de la Serena", "phone": "+34 924 38 68 00", "short_name": "HDBV"}}]