[{"name": "Hospital de Torres Vedras", "latitude": 39.0861652, "longitude": -9.2571445, "source": "osm", "_tags": {"alt_name": "Centro Hospitalar do Oeste", "amenity": "hospital", "emergency": "yes", "healthcare": "hospital", "name": "Hospital de Torres Vedras", "wheelchair": "limited"}}, {"name": "Hospital da Misericórdia de Rio Maior", "latitude": 39.336888, "longitude": -8.9318718, "source": "osm", "_tags": {"amenity": "hospital", "healthcare": "hospital", "name": "Hospital da Misericórdia de Rio Maior"}}, {"name": "Laços de Sangue - Associação Benévola de Dadores de Sangue", "latitude": 39.2108901, "longitude": -8.9967996, "source": "osm", "_tags": {"amenity": "hospital", "emergency": "no", "name": "Laços de Sangue - Associação Benévola de Dadores de Sangue"}}, {"name": "CUF Santarém Hospital", "latitude": 39.2424079, "longitude": -8.7038672, "source": "osm", "_tags": {"addr:housenumber": "66", "addr:street": "Zeferino Silva", "amenity": "hospital", "emergency": "yes", "healthcare": "hospital", "name": "CUF Santarém Hospital", "operator": "CUF", "operator:type": "private"}}, {"name": "", "latitude": 39.0218978, "longitude": -8.9769799, "source": "osm", "_tags": {"amenity": "hospital", "healthcare": "hospital"}}, {"name": "Hospital Doutor José Maria Antunes Júnior", "latitude": 39.0642309, "longitude": -9.2618221, "source": "osm", "_tags": {"amenity": "hospital", "name": "Hospital Doutor José Maria Antunes Júnior", "old_name": "Sanatório do Barro"}}, {"name": "", "latitude": 39.4340149, "longitude": -9.2276901, "source": "osm", "_tags": {"addr:city": "Foz do Arelho", "addr:postcode": "2500-487", "addr:street": "Rotunda do mar", "amenity": "hospital", "emergency": "yes"}}, {"name": "Laboratório Analises Beatriz Godinho", "latitude": 39.4046655, "longitude": -9.1469273, "source": "osm", "_tags": {"addr:city": "Caldas da Rainha", "addr:postcode": "2500-256", "addr:street": "Rotunda do Cencal", "amenity": "hospital", "name": "Laboratório Analises Beatriz Godinho"}}, {"name": "Hospital da Misericórdia", "latitude": 39.6020087, "longitude": -8.4144133, "source": "osm", "_tags": {"amenity": "hospital", "healthcare": "hospital", "name": "Hospital da Misericórdia"}}, {"name": "Unidade de Cuidados Continuados da Santa Casa da Misericórdia do Entroncamento", "latitude": 39.4787635, "longitude": -8.4727696, "source": "osm", "_tags": {"addr:city": "Nossa Senhora de Fátima", "addr:postcode": "2330", "addr:street": "Rua da Barroca", "amenity": "hospital", "emergency": "no", "healthcare": "hospital", "name": "Unidade de Cuidados Continuados da Santa Casa da Misericórdia do Entroncamento", "operator": "Sta. Casa da Misericórdia do Entroncamento"}}, {"name": "Hospital São João Baptista", "latitude": 39.4628743, "longitude": -8.4624886, "source": "osm", "_tags": {"amenity": "hospital", "healthcare": "hospital", "name": "Hospital São João Baptista", "operator": "Santa Casa da Misericordia do Entroncamento"}}, {"name": "Parque do Chocapalhas", "latitude": 39.6058662, "longitude": -8.3591566, "source": "osm", "_tags": {"healthcare": "hospital", "name": "Parque do Chocapalhas", "tourism": "picnic_site"}}, {"name": "Casa de Saúde do Montepio Rainha Dona Leonor", "latitude": 39.4064058, "longitude": -9.1343218, "source": "osm", "_tags": {"addr:city": "Caldas da Rainha", "addr:postcode": "2500-253", "addr:street": "Rua Montepio Rainha Dona Leonor", "amenity": "hospital", "building": "residential", "emergency": "yes", "healthcare": "hospital", "name": "Casa de Saúde do Montepio Rainha Dona Leonor"}}, {"name": "Hospital São João Baptista", "latitude": 39.4628057, "longitude": -8.4625534, "source": "osm", "_tags": {"amenity": "hospital", "building": "hospital", "name": "Hospital São João Baptista"}}, {"name": "Hospital de Santo André", "latitude": 39.7436123, "longitude": -8.7950975, "source": "osm", "_tags": {"amenity": "hospital", "emergency": "yes", "healthcare": "hospital", "name": "Hospital de Santo André", "official_name": "Centro Hospitalar de Leiria", "operator": "Ministério da Saúde", "operator:type": "government", "operator:wikidata": "Q4294357", "operator:wikipedia": "pt:Ministério da Saúde (Portugal)", "phone": "+351 244 817 000", "website": "http://www.chleiria.pt"}}, {"name": "Hospital Nossa Senhora da Graça - Tomar (Centro Hospitalar Médio Tejo, EPE)", "latitude": 39.6097867, "longitude": -8.3955845, "source": "osm", "_tags": {"amenity": "hospital", "emergency": "yes", "healthcare": "hospital", "name": "Hospital Nossa Senhora da Graça - Tomar (Centro Hospitalar Médio Tejo, EPE)"}}, {"name": "Hospital de Vila Franca de Xira", "latitude": 38.9774161, "longitude": -8.9851631, "source": "osm", "_tags": {"amenity": "hospital", "architect": "Mörschel Arquitectos", "emergency": "yes", "healthcare": "hospital", "name": "Hospital de Vila Franca de Xira", "note": "localização aproximada.", "wikidata": "Q30269927"}}, {"name": "Hospital Dom Manuel de Aguiar", "latitude": 39.7439319, "longitude": -8.8049184, "source": "osm", "_tags": {"addr:housenumber": "8", "amenity": "hospital", "building": "yes", "building:levels": "3", "email": "geral@misericordiadeleiria.pt", "healthcare": "hospital", "healthcare:speciality": "orthopaedics;surgery;cardiology;physiatry", "name": "Hospital Dom Manuel de Aguiar", "operator": "Santa Casa da Misericórdia", "phone": "+351 244 106 201", "wikidata": "Q109462549"}}, {"name": "Centro Hospitalar de Nossa Senhora da Conceição", "latitude": 39.6381946, "longitude": -8.8171181, "source": "osm", "_tags": {"addr:city": "Batalha", "addr:housenumber": "26", "addr:postcode": "2440-090", "addr:street": "Rua Principal", "amenity": "hospital", "emergency": "no", "healthcare": "hospital", "healthcare:speciality": "psychiatry", "name": "Centro Hospitalar de Nossa Senhora da Conceição", "phone": "+351 244 769 430", "website": "http://www.misericordiabatalha.com/portal/"}}, {"name": "Hospital Bernardino Lopes de Oliveira", "latitude": 39.5506164, "longitude": -8.972626, "source": "osm", "_tags": {"amenity": "hospital", "emergency": "yes", "healthcare": "hospital", "name": "Hospital Bernardino Lopes de Oliveira", "wheelchair": "limited", "wikidata": "Q114742341"}}, {"name": "Hospital de Caldas da Rainha", "latitude": 39.4044029, "longitude": -9.130116, "source": "osm", "_tags": {"addr:city": "Caldas da Rainha", "addr:postcode": "2500-176", "addr:street": "Rua Diário de Notícias", "amenity": "hospital", "check_date": "2025-06-30", "name": "Hospital de Caldas da Rainha", "wheelchair": "yes"}}, {"name": "Centro Hospitalar Oeste Norte", "latitude": 39.4045324, "longitude": -9.1298615, "source": "osm", "_tags": {"addr:city": "Nossa Senhora do Pópulo, Coto e São Gregório", "addr:street": "Rua Diário de Notícias", "amenity": "hospital", "building": "yes", "emergency": "yes", "healthcare": "hospital", "healthcare:speciality": "emergency;gynaecology;intensive;paediatrics;orthopaedics;psychiatry;cardiology;surgery;radiology;internal;maternity", "internet_access": "wlan", "name": "Centro Hospitalar Oeste Norte", "operator": "Serviço Nacional de Saúde", "operator:type": "public", "wheelchair": "yes"}}, {"name": "Hospital Termal Fisioterapia", "latitude": 39.4028142, "longitude": -9.1327132, "source": "osm", "_tags": {"addr:city": "Caldas da Rainha", "addr:postcode": "2500-798", "addr:street": "Largo Rainha Dona Leonor", "amenity": "hospital", "building:levels": "2", "check_date": "2024-11-12", "emergency": "no", "healthcare": "hospital", "healthcare:speciality": "chiropractic;physiatry", "name": "Hospital Termal Fisioterapia", "wheelchair": "yes"}}, {"name": "Hospital Termal", "latitude": 39.4032526, "longitude": -9.1324081, "source": "osm", "_tags": {"amenity": "hospital", "check_date": "2024-11-12", "name": "Hospital Termal", "wheelchair": "yes"}}, {"name": "Unidade de Cuidados de Saúde Personalizados Caneças", "latitude": 38.8145629, "longitude": -9.2264897, "source": "osm", "_tags": {"addr:city": "Caneças", "addr:street": "Rua Júlia Escrivaniz", "amenity": "hospital", "name": "Unidade de Cuidados de Saúde Personalizados Caneças"}}, {"name": "CUF Torres Vedras", "latitude": 39.0801633, "longitude": -9.2586693, "source": "osm", "_tags": {"amenity": "hospital", "building": "yes", "building:levels": "4", "healthcare": "hospital", "name": "CUF Torres Vedras"}}, {"name": "Hospital de Santa Casa da Misericórdia de Arruda dos Vinhos", "latitude": 38.982365, "longitude": -9.0784239, "source": "osm", "_tags": {"addr:city": "Arruda dos Vinhos", "addr:housenumber": "10", "addr:postcode": "2630-248", "addr:street": "Largo José Vaz Monteiro", "amenity": "hospital", "name": "Hospital de Santa Casa da Misericórdia de Arruda dos Vinhos", "operator": "Santa Casa da Misericórdia Arruda dos Vinhos", "operator:type": "private"}}, {"name": "Centro de Saúde de Arruda dos Vinhos", "latitude": 38.9815767, "longitude": -9.0814252, "source": "osm", "_tags": {"addr:city": "Arruda dos Vinhos", "addr:housenumber": "6", "addr:postcode": "2630-242", "addr:street": "Avenida Engenheiro Adriano Brito da Conceição", "amenity": "hospital", "building": "yes", "emergency": "no", "healthcare": "centre", "healthcare:speciality": "general", "name": "Centro de Saúde de Arruda dos Vinhos", "operator": "ARSLVT", "operator:type": "public"}}, {"name": "Hospital Beatriz Ângelo", "latitude": 38.8215177, "longitude": -9.1764478, "source": "osm", "_tags": {"addr:city": "Loures", "addr:housenumber": "3", "addr:postcode": "2674-514", "addr:street": "Avenida Carlos Teixeira", "alt_name": "Hospital de Loures", "amenity": "hospital", "architect": "Saraiva+Associados", "architect:wikidata": "Q132247398", "emergency": "yes", "healthcare": "hospital", "name": "Hospital Beatriz Ângelo", "operator": "SGHL - Sociedade Gestora do Hospital de Loures, SA", "toilets:wheelchair": "yes", "wheelchair": "yes", "wikidata": "Q10298349"}}, {"name": "Centro Hospitalar Santa Casa de Misericórdia de Porto de Mós", "latitude": 39.606108, "longitude": -8.8065018, "source": "osm", "_tags": {"addr:city": "Porto de Mós", "addr:housenumber": "370", "addr:postcode": "2480-158", "addr:street": "Rua de São João", "amenity": "hospital", "building": "yes", "emergency": "no", "healthcare": "hospital", "healthcare:speciality": "geriatrics", "name": "Centro Hospitalar Santa Casa de Misericórdia de Porto de Mós", "phone": "244 471 318"}}, {"name": "Hospital Termal Rainha D. Leonor", "latitude": 39.4032526, "longitude": -9.1323544, "source": "osm", "_tags": {"addr:city": "Nossa Senhora do Pópulo, Coto e São Gregório", "addr:street": "Largo Rainha Dona Leonor", "amenity": "hospital", "check_date": "2024-11-12", "emergency": "no", "healthcare": "hospital", "healthcare:speciality": "physiatry;thermalism;Reumathology", "name": "Hospital Termal Rainha D. Leonor", "operator": "Serviço Nacional de Saúde", "operator:type": "public", "wheelchair": "yes", "wikidata": "Q99244194"}}, {"name": "Centro Hospitalar de São Francisco", "latitude": 39.7491259, "longitude": -8.8157974, "source": "osm", "_tags": {"amenity": "hospital", "email": "leiria@chsf.pt", "emergency": "yes", "healthcare": "hospital", "healthcare:speciality": "physiatry;surgery;cardiology;dentistry;gynaecology;psychiatry;radiology;urology", "name": "Centro Hospitalar de São Francisco", "operator": "Grupo Sanfil Medicina", "operator:type": "private", "phone": "+351 244 819 300", "website": "https://www.sanfil.pt/centro-hospitalar-sao-francisco-leiria/", "wheelchair": "yes"}}, {"name": "Centro de Saúde da Carregueira", "latitude": 39.4171364, "longitude": -8.4140794, "source": "osm", "_tags": {"amenity": "clinic", "emergency": "no", "healthcare": "hospital", "healthcare:speciality": "general", "name": "Centro de Saúde da Carregueira", "phone": "249740478", "wheelchair": "yes"}}, {"name": "Hospital Distrital de Santarém", "latitude": 39.2410592, "longitude": -8.6966911, "source": "osm", "_tags": {"amenity": "hospital", "check_date": "2025-02-19", "emergency": "yes", "healthcare": "hospital", "name": "Hospital Distrital de Santarém", "wheelchair": "yes"}}, {"name": "", "latitude": 39.3369316, "longitude": -8.931737, "source": "osm", "_tags": {"amenity": "hospital", "healthcare": "hospital"}}, {"name": "Hospital Rainha Santa Isabel", "latitude": 39.468324, "longitude": -8.5362861, "source": "osm", "_tags": {"amenity": "hospital", "emergency": "yes", "healthcare": "hospital", "name": "Hospital Rainha Santa Isabel", "operator": "CHMT - Centro Hospitalar do Médio Tejo", "operator:type": "public", "wikidata": "Q124819617"}}, {"name": "Hospital CUF Santarém", "latitude": 39.2424625, "longitude": -8.7037939, "source": "osm", "_tags": {"amenity": "hospital", "healthcare": "hospital", "name": "Hospital CUF Santarém", "operator": "CUF", "operator:type": "private"}}, {"name": "Centro Hospitalar Nossa Senhora da Nazaré", "latitude": 39.6053261, "longitude": -9.0776254, "source": "osm", "_tags": {"amenity": "hospital", "building": "yes", "contact:website": "http://www.cnsn.pt/portal/index.php?id=1376", "emergency": "no", "healthcare": "hospital", "name": "Centro Hospitalar Nossa Senhora da Nazaré", "opening_hours": "Mo-Fr 09:00-19:00, Sa 09:00-13:00", "operator": "Confraria de Nossa Senhora da Nazaré", "start_date": "1878", "type": "multipolygon"}}, {"name": "Soerad - Hospital Privado", "latitude": 39.0944869, "longitude": -9.255357, "source": "osm", "_tags": {"amenity": "hospital", "building": "yes", "healthcare": "hospital", "name": "Soerad - Hospital Privado", "type": "multipolygon"}}]