[{"name": "Urgencias", "latitude": 39.1752161, "longitude": -3.006453, "source": "osm", "_tags": {"addr:street": "Vereda de Socuéllamos", "amenity": "hospital", "healthcare": "hospital", "name": "Urgencias", "nohousenumber": "yes"}}, {"name": "Entrada General", "latitude": 39.1739699, "longitude": -3.0064128, "source": "osm", "_tags": {"amenity": "hospital", "healthcare": "hospital", "name": "Entrada General"}}, {"name": "Hospital de Villarrobledo", "latitude": 39.2800481, "longitude": -2.6027067, "source": "osm", "_tags": {"amenity": "hospital", "building": "hospital", "name": "Hospital de Villarrobledo", "wikidata": "Q5902675"}}, {"name": "Hospital General de Tomelloso", "latitude": 39.1742271, "longitude": -3.0059706, "source": "osm", "_tags": {"addr:street": "Vereda de Socuéllamos", "amenity": "hospital", "emergency": "yes", "healthcare": "hospital", "name": "Hospital General de Tomelloso", "operator:type": "public", "phone": "+34  926 525800", "start_date": "2007-03-09", "website": "http://www.hgcr.es/2013/01/16/hospital-de-tomelloso/"}}, {"name": "Hospital Universitario Mancha Centro", "latitude": 39.396472, "longitude": -3.2193792, "source": "osm", "_tags": {"addr:city": "Alcázar de San Juan", "addr:housenumber": "3", "addr:postcode": "13600", "addr:street": "Avenida de la Constitución", "amenity": "hospital", "building": "hospital", "emergency": "yes", "healthcare": "hospital", "name": "Hospital Universitario Mancha Centro", "operator:type": "public"}}, {"name": "Centro de Salud", "latitude": 38.9655183, "longitude": -2.7427924, "source": "osm", "_tags": {"addr:city": "Ossa de Montiel", "addr:housenumber": "2", "addr:postcode": "02611", "addr:street": "Calle Aldonza", "amenity": "clinic", "building": "yes", "healthcare": "hospital", "healthcare:speciality": "general", "name": "Centro de Salud", "opening_hours": "24/7", "operator": "SESCAM", "operator:type": "public", "phone": "+34967377126"}}, {"name": "Centro de Salud de La Solana", "latitude": 38.9446, "longitude": -3.2244278, "source": "osm", "_tags": {"addr:city": "La Solana", "addr:postcode": "13240", "addr:street": "Calle del Campero", "amenity": "hospital", "emergency": "yes", "healthcare": "hospital", "name": "Centro de Salud de La Solana", "operator": "SESCAM", "operator:type": "public", "phone": "+34926633900"}}]