[{"name": "Hospital Universitario La Fe", "latitude": 39.4837878, "longitude": -0.3904493, "source": "osm", "_tags": {"amenity": "hospital", "healthcare": "hospital", "name": "Hospital Universitario La Fe"}}, {"name": "Clinica Dental Nord", "latitude": 39.4651856, "longitude": -0.350731, "source": "osm", "_tags": {"addr:street": "Avinguda del Port", "amenity": "hospital", "healthcare": "hospital", "name": "Clinica Dental Nord"}}, {"name": "Hospital Malva-rosa", "latitude": 39.4752239, "longitude": -0.3253542, "source": "osm", "_tags": {"addr:city": "València", "addr:housenumber": "2", "addr:postcode": "46011", "addr:street": "Carrer d'Isabel de Villena", "amenity": "hospital", "contact:phone": "+34 96 192 54 00", "healthcare": "hospital", "healthcare:speciality": "gynaecology;ophthalmology;plastic_surgery;surgery", "name": "Hospital Malva-rosa", "name:es": "Hospital Malvarrosa", "operator": "Generalitat Valenciana", "website": "http://clinicomalvarrosa.san.gva.es/ca/hospital-malvarrosa", "wikidata": "Q64443013"}}, {"name": "Centro de salud de Sollana", "latitude": 39.2796262, "longitude": -0.383911, "source": "osm", "_tags": {"addr:city": "Sollana", "addr:postcode": "46430", "addr:street": "Avinguda de la Ribera Alta", "amenity": "clinic", "healthcare": "hospital", "name": "Centro de salud de Sollana", "nohousenumber": "yes"}}, {"name": "", "latitude": 39.2952112, "longitude": -0.412878, "source": "osm", "_tags": {"amenity": "clinic", "healthcare": "hospital"}}, {"name": "Residencia La Llum", "latitude": 39.2263936, "longitude": -0.5262795, "source": "osm", "_tags": {"addr:city": "Carlet", "addr:housenumber": "2", "addr:postcode": "46240", "addr:street": "Camí de Villarrubia", "amenity": "social_facility", "emergency": "no", "healthcare": "hospital", "healthcare:speciality": "internal;psychiatry", "name": "Residencia La Llum", "name:ca": "Residència La Llum", "social_facility": "nursing_home"}}, {"name": "Unidad Basica de Salud", "latitude": 39.4261832, "longitude": -0.7850464, "source": "osm", "_tags": {"addr:city": "Buñol", "addr:housenumber": "17", "addr:street": "Avenida de Rafael Ridaura", "amenity": "hospital", "healthcare": "hospital", "healthcare:speciality": "general", "name": "Unidad Basica de Salud"}}, {"name": "Centro de Especialidades El Grao", "latitude": 39.460095, "longitude": -0.335667, "source": "osm", "_tags": {"amenity": "hospital", "healthcare": "centre", "name": "Centro de Especialidades El Grao", "opening_hours": "Mo, We-Fr 08:00-15:00, 08:00-18:30", "phone": "+34 963469560", "website": "http://clinicomalvarrosa.san.gva.es/centro-de-especialidades-el-grao"}}, {"name": "Centro Salud Polinyà de Xúquer", "latitude": 39.1984292, "longitude": -0.3668908, "source": "osm", "_tags": {"amenity": "hospital", "healthcare": "hospital", "name": "Centro Salud Polinyà de Xúquer"}}, {"name": "Cruz Roja", "latitude": 39.1466852, "longitude": -0.4398372, "source": "osm", "_tags": {"amenity": "hospital", "healthcare": "hospital", "name": "Cruz Roja", "operator": "Cruz Roja", "operator:wikidata": "Q7178", "operator:wikipedia": "es:Cruz Roja"}}, {"name": "Asisa", "latitude": 39.4712282, "longitude": -0.3740804, "source": "osm", "_tags": {"amenity": "hospital", "check_date": "2024-10-17", "name": "Asisa"}}, {"name": "Hospital IMED Colón", "latitude": 39.4687393, "longitude": -0.3706641, "source": "osm", "_tags": {"addr:city": "València", "addr:city:ca": "València", "addr:country": "ES", "addr:district": "l'Eixample", "addr:housenumber": "12", "addr:postcode": "46004", "addr:street": "Carrer d'Isabel la Catòlica", "amenity": "hospital", "emergency": "yes", "healthcare": "hospital", "name": "Hospital IMED Colón", "operator": "IMED", "operator:type": "private", "phone": "+34 963 00 30 02", "website": "https://www.imedhospitales.com/es/valencia-colon/"}}, {"name": "Hospital Quirón Salud Valencia", "latitude": 39.4780196, "longitude": -0.3641796, "source": "osm", "_tags": {"amenity": "hospital", "building": "hospital", "healthcare": "hospital", "name": "Hospital Quirón Salud Valencia", "phone": "+34 900301013;+34 963690600", "website": "https://www.quironsalud.es/valencia", "wikidata": "Q87688092"}}, {"name": "Hospital de Manises", "latitude": 39.4856514, "longitude": -0.4526179, "source": "osm", "_tags": {"amenity": "hospital", "emergency": "yes", "healthcare": "hospital", "name": "Hospital de Manises", "name:ca": "Hospital de Manises", "wikidata": "Q21065593"}}, {"name": "Hospital General", "latitude": 39.4884146, "longitude": -1.0893361, "source": "osm", "_tags": {"amenity": "hospital", "building": "yes", "emergency": "yes", "healthcare": "hospital", "name": "Hospital General"}}, {"name": "Hospital Vithas Valencia 9 de Octubre", "latitude": 39.4778874, "longitude": -0.4014071, "source": "osm", "_tags": {"addr:housenumber": "59", "addr:street": "Carrer de la Vall de la Ballestera", "amenity": "hospital", "emergency": "yes", "healthcare": "hospital", "name": "Hospital Vithas Valencia 9 de Octubre", "name:ca": "Hospital Vithas València 9 d'Octubre", "name:etymology:wikidata": "Q7799249", "old_name": "Hospital 9 de Octubre", "operator": "Vithas", "operator:type": "private", "phone": "+34 963179100", "website": "https://vithas.es/centro/vithas-hospital-valencia-9-de-octubre/", "wheelchair": "yes", "wikidata": "Q64442852"}}, {"name": "Hospital Universitari i Politècnic La Fe", "latitude": 39.4434632, "longitude": -0.3761223, "source": "osm", "_tags": {"alt_name": "Hospital Universitari i Politècnic La Fe de Valencia", "alt_name:es": "Hospital Universitario y Politécnico La Fe de Valencia", "amenity": "hospital", "emergency": "yes", "healthcare": "hospital", "name": "Hospital Universitari i Politècnic La Fe", "name:ca": "Hospital Universitari i Politècnic La Fe", "name:es": "Hospital Universitario y Politécnico La Fe", "short_name": "Hospital La Fe", "wikidata": "Q11926108", "wikipedia": "ca:Hospital Universitari i Politècnic La Fe"}}, {"name": "Hospital General Universitari", "latitude": 39.4683778, "longitude": -0.408367, "source": "osm", "_tags": {"addr:street": "Avenida de las Tres Cruces", "amenity": "hospital", "emergency": "yes", "healthcare": "hospital", "name": "Hospital General Universitari", "name:ca": "Hospital General Universitari", "name:es": "Hospital General Universitario", "name:etymology:wikidata": "Q5555028", "phone": "+34 963131800", "wikidata": "Q5555028", "wikipedia": "es:Hospital General Universitario (Valencia)"}}, {"name": "Hospital Arnau de Vilanova", "latitude": 39.4907207, "longitude": -0.4036041, "source": "osm", "_tags": {"addr:housenumber": "12", "addr:street": "Calle San Clemente", "amenity": "hospital", "emergency": "yes", "healthcare": "hospital", "name": "Hospital Arnau de Vilanova", "name:ca": "Hospital Arnau de Vilanova", "name:etymology:wikidata": "Q356568", "wikidata": "Q50562360"}}, {"name": "Hospital Vithas Nisa Valencia al Mar", "latitude": 39.4771428, "longitude": -0.330817, "source": "osm", "_tags": {"addr:housenumber": "1", "addr:street": "Carrer del Riu Tajo", "amenity": "hospital", "emergency": "yes", "healthcare": "hospital", "healthcare:speciality": "psychiatry", "name": "Hospital Vithas Nisa Valencia al Mar", "operator": "Hospitales Nisa", "phone": "+34 963 35 25 00", "website": "https://www.hospitales.nisa.es/hospital-nisa-valencia-al-mar_2_H.aspx"}}, {"name": "Hospital Universitari Doctor Peset", "latitude": 39.4532478, "longitude": -0.3943501, "source": "osm", "_tags": {"addr:housenumber": "90", "addr:street": "Avinguda de Gaspar Aguilar", "amenity": "hospital", "healthcare": "hospital", "name": "Hospital Universitari Doctor Peset", "name:ca": "Hospital Universitari Doctor Peset", "name:etymology:wikidata": "Q10996436", "wikidata": "Q10996436", "wikipedia": "ca:Hospital Doctor Peset"}}, {"name": "Hospital General de Almansa", "latitude": 38.8793762, "longitude": -1.0938215, "source": "osm", "_tags": {"amenity": "hospital", "healthcare": "hospital", "name": "Hospital General de Almansa", "wikidata": "Q18286002"}}, {"name": "Hospital Casa de la Salud", "latitude": 39.4697908, "longitude": -0.3505723, "source": "osm", "_tags": {"amenity": "hospital", "healthcare": "hospital", "name": "Hospital Casa de la Salud", "name:ca": "Hospital Casa de la Salud", "wikidata": "Q30280018"}}, {"name": "Instituto Social de la Marina - Casa del Mar", "latitude": 39.4607305, "longitude": -0.3364444, "source": "osm", "_tags": {"amenity": "hospital", "building": "yes", "healthcare": "hospital", "name": "Instituto Social de la Marina - Casa del Mar"}}, {"name": "Centro de Recuperación y Rehabilitación de Levante", "latitude": 39.5531056, "longitude": -0.4810872, "source": "osm", "_tags": {"amenity": "hospital", "name": "Centro de Recuperación y Rehabilitación de Levante"}}, {"name": "Hospital Lluís Alcanyís", "latitude": 39.0066489, "longitude": -0.5095862, "source": "osm", "_tags": {"amenity": "hospital", "emergency": "yes", "healthcare": "hospital", "name": "Hospital Lluís Alcanyís", "name:ca": "Hospital Lluís Alcanyís", "wikidata": "Q30280286"}}, {"name": "", "latitude": 38.8702166, "longitude": -1.0920393, "source": "osm", "_tags": {"amenity": "clinic", "building": "yes", "healthcare": "hospital"}}, {"name": "Hospital Doctor Moliner", "latitude": 39.6558712, "longitude": -0.4742944, "source": "osm", "_tags": {"alt_name": "Hospital Dr. Moliner", "alt_name:ca": "Hospital Dr. Moliner", "amenity": "hospital", "emergency": "no", "healthcare": "hospital", "healthcare:speciality": "physiotherapy", "name": "Hospital Doctor Moliner", "name:ca": "Hospital Doctor Moliner", "operator": "Generalitat Valenciana", "operator:type": "public", "operator:wikidata": "Q2477285", "wikidata": "Q87762624"}}, {"name": "Sermesa", "latitude": 39.4758274, "longitude": -0.418346, "source": "osm", "_tags": {"addr:city": "Mislata", "addr:housenumber": "3. Edif B", "addr:postcode": "46920", "addr:street": "Carrer de l'Emparrat", "amenity": "hospital", "emergency": "no", "healthcare": "hospital", "name": "Sermesa", "phone": "+34 96 313 41 11", "website": "https://sermesa.es/"}}, {"name": "Hospital Vithas Aguas Vivas", "latitude": 39.0880936, "longitude": -0.3549545, "source": "osm", "_tags": {"amenity": "hospital", "healthcare": "hospital", "name": "Hospital Vithas Aguas Vivas", "phone": "+34 96 258 88 00", "website": "https://www.hospitales.nisa.es/hospital-nisa-aguas-vivas_4_H.aspx", "wikidata": "Q87762631"}}, {"name": "Hospital de Llíria", "latitude": 39.6413053, "longitude": -0.6193224, "source": "osm", "_tags": {"amenity": "hospital", "name": "Hospital de Llíria", "name:ca": "Hospital de Llíria"}}, {"name": "Hospital Romelo Escoleta", "latitude": 39.0561629, "longitude": -0.3047719, "source": "osm", "_tags": {"building": "yes", "healthcare": "hospital", "name": "Hospital Romelo Escoleta"}}, {"name": "Hospital Universitario de la Ribera", "latitude": 39.1595408, "longitude": -0.4173269, "source": "osm", "_tags": {"amenity": "hospital", "emergency": "yes", "healthcare": "hospital", "healthcare:speciality": "cardiac_surgery;emergency;thoracic_surgery;neurosurgery;oncology", "name": "Hospital Universitario de la Ribera", "name:ca": "Hospital Universitari de la Ribera", "operator": "RiberaSalud", "phone": "+34 962458100", "website": "https://laribera.riberasalud.com/"}}, {"name": "", "latitude": 39.6408794, "longitude": -0.6183233, "source": "osm", "_tags": {"amenity": "clinic", "building": "yes", "healthcare": "hospital"}}, {"name": "Hospital de Llíria", "latitude": 39.6411009, "longitude": -0.6193576, "source": "osm", "_tags": {"amenity": "hospital", "building": "yes", "healthcare": "hospital", "name": "Hospital de Llíria", "name:ca": "Hospital de Llíria"}}, {"name": "Consultorio Local", "latitude": 39.2220921, "longitude": -1.2601716, "source": "osm", "_tags": {"amenity": "clinic", "building": "yes", "healthcare": "hospital", "name": "Consultorio Local"}}, {"name": "Centro de Salud de Chelva", "latitude": 39.7495102, "longitude": -0.9967961, "source": "osm", "_tags": {"amenity": "clinic", "building": "yes", "healthcare": "hospital", "name": "Centro de Salud de Chelva"}}, {"name": "", "latitude": 39.4883681, "longitude": -1.0894239, "source": "osm", "_tags": {"amenity": "clinic", "healthcare": "hospital"}}, {"name": "Hospital IMED-Valencia", "latitude": 39.5020612, "longitude": -0.408381, "source": "osm", "_tags": {"addr:housenumber": "1", "addr:street": "Avenida de la Ilustración", "amenity": "hospital", "emergency": "yes", "healthcare": "hospital", "name": "Hospital IMED-Valencia", "name:ca": "Hospital IMED-València", "operator": "IMED", "phone": "+34 963 00 30 03", "website": "http://www.imedvalencia.com/", "wikidata": "Q87762641"}}, {"name": "Centre de Salut de Mislata", "latitude": 39.4786254, "longitude": -0.4149829, "source": "osm", "_tags": {"amenity": "hospital", "check_date": "2024-12-30", "healthcare": "hospital", "name": "Centre de Salut de Mislata", "name:ca": "Centre de Salut de Mislata", "name:es": "Centro de Salud de Mislata", "operator": "Generalitat Valenciana", "operator:type": "public", "operator:wikidata": "Q2477285"}}, {"name": "Hospital Vithas Valencia Consuelo", "latitude": 39.4606478, "longitude": -0.3874098, "source": "osm", "_tags": {"amenity": "hospital", "building": "hospital", "building:levels": "9", "building:levels:underground": "1", "healthcare": "hospital", "name": "Hospital Vithas Valencia Consuelo", "phone": "+34 963 42 33 82"}}, {"name": "Centro de Especialidades l'Espanyoleto", "latitude": 38.9874052, "longitude": -0.5234687, "source": "osm", "_tags": {"amenity": "hospital", "healthcare": "hospital", "name": "Centro de Especialidades l'Espanyoleto", "operator": "Generalitat Valenciana", "operator:type": "public", "operator:wikidata": "Q2477285"}}, {"name": "Hospital General d'Ontinyent", "latitude": 38.8201241, "longitude": -0.6031254, "source": "osm", "_tags": {"amenity": "hospital", "barrier": "wall", "healthcare": "hospital", "name": "Hospital General d'Ontinyent", "name:ca": "Hospital General d'Ontinyent"}}, {"name": "Hospital ISMKE", "latitude": 39.4534831, "longitude": -0.3367799, "source": "osm", "_tags": {"addr:city": "València", "addr:housenumber": "11", "addr:postcode": "46024", "addr:street": "Carrer de Suïssa", "amenity": "hospital", "building": "hospital", "healthcare": "hospital", "healthcare:speciality": "trauma;physiatry;rheumatology", "name": "Hospital ISMKE", "operator": "Ribera Salud", "operator:type": "private", "phone": "+34 963 69 00 00", "rooms": "18", "website": "https://www.imske.com"}}, {"name": "Centre de Salut", "latitude": 39.5351082, "longitude": -0.3523793, "source": "osm", "_tags": {"amenity": "hospital", "healthcare": "hospital", "name": "Centre de Salut", "name:ca": "Centre de Salut"}}, {"name": "Hospital Vithas València Túria", "latitude": 39.4462349, "longitude": -0.3707358, "source": "osm", "_tags": {"amenity": "hospital", "healthcare": "hospital", "name": "Hospital Vithas València Túria", "operator": "Vithas", "operator:type": "private"}}, {"name": "Hospital Psiquátrico de Bétera", "latitude": 39.5765166, "longitude": -0.4438543, "source": "osm", "_tags": {"amenity": "hospital", "healthcare": "hospital", "name": "Hospital Psiquátrico de Bétera", "name:ca": "Hospital Psiquiàtric de Bétera"}}, {"name": "el Raval", "latitude": 39.678016, "longitude": -0.2718135, "source": "osm", "_tags": {"addr:city": "Sagunt", "addr:postcode": "46500", "addr:street": "Plaça de Blasco Ibáñez", "amenity": "clinic", "healthcare": "hospital", "healthcare:speciality": "general", "name": "el Raval", "name:ca": "el Raval", "opening_hours": "Mo-Fr 08:00-15:00", "wheelchair": "yes"}}, {"name": "Hospital Clínic Universitari", "latitude": 39.4789781, "longitude": -0.3616837, "source": "osm", "_tags": {"addr:city": "València", "addr:housenumber": "17", "addr:street": "Avinguda de Blasco Ibáñez", "amenity": "hospital", "building": "hospital", "emergency": "yes", "healthcare": "hospital", "healthcare:speciality": "general;emergency;gynaecology;psychiatry;paediatrics;surgery", "layer": "1", "name": "Hospital Clínic Universitari", "name:ca": "Hospital Clínic Universitari", "name:es": "Hospital Clínico Universitario", "name:etymology:wikidata": "Q9004870", "operator": "Generalitat Valenciana", "operator:type": "public", "operator:wikidata": "Q2477285", "type": "multipolygon", "wikidata": "Q9004870", "wikipedia": "ca:Hospital Clínic Universitari (València)"}}, {"name": "Hospital Pare Jofré", "latitude": 39.4532475, "longitude": -0.394728, "source": "osm", "_tags": {"addr:street": "Carrer de Sant Llàtzer", "amenity": "hospital", "building": "hospital", "building:levels": "10", "healthcare": "hospital", "name": "Hospital Pare Jofré", "name:ca": "Hospital Pare Jofré", "name:etymology:wikidata": "Q87762637", "operator": "Generalitat Valenciana", "operator:type": "public", "operator:wikidata": "Q2477285", "type": "multipolygon", "wikidata": "Q87762637"}}, {"name": "", "latitude": 39.4884146, "longitude": -1.0893361, "source": "osm", "_tags": {"amenity": "hospital", "healthcare": "hospital", "type": "multipolygon"}}, {"name": "Instituto Valenciano de Oncología", "latitude": 39.4819464, "longitude": -0.3905247, "source": "osm", "_tags": {"amenity": "hospital", "building": "yes", "healthcare": "hospital", "name": "Instituto Valenciano de Oncología", "name:ca": "Institut Valencià d'Oncologia", "type": "multipolygon", "wheelchair": "yes", "wikidata": "Q5561364"}}]