[{"name": "Pronto Soccorso Ospedale Sirai", "latitude": 39.1849387, "longitude": 8.5073124, "source": "osm", "_tags": {"addr:city": "Carbonia", "addr:postcode": "09013", "amenity": "hospital", "emergency": "yes", "healthcare": "hospital", "name": "Pronto Soccorso Ospedale Sirai", "wheelchair": "yes"}}, {"name": "Pronto Soccorso Ospedale C.T.O", "latitude": 39.3104826, "longitude": 8.5243461, "source": "osm", "_tags": {"addr:city": "Iglesias", "amenity": "hospital", "emergency": "yes", "healthcare": "hospital", "name": "Pronto Soccorso Ospedale C.T.O"}}, {"name": "Croce Azzurra", "latitude": 39.3987597, "longitude": 8.4003816, "source": "osm", "_tags": {"amenity": "hospital", "healthcare": "hospital", "name": "Croce Azzurra"}}, {"name": "AVIS", "latitude": 39.2061819, "longitude": 8.3836451, "source": "osm", "_tags": {"amenity": "hospital", "healthcare": "hospital", "name": "AVIS"}}, {"name": "Ospedale Fratelli Crobu", "latitude": 39.3266254, "longitude": 8.5309252, "source": "osm", "_tags": {"amenity": "hospital", "emergency": "no", "name": "Ospedale Fratelli Crobu"}}, {"name": "Ospedale Santa Barbara", "latitude": 39.3150713, "longitude": 8.5384679, "source": "osm", "_tags": {"amenity": "hospital", "emergency": "yes", "name": "Ospedale Santa Barbara"}}, {"name": "Ospedale C.T.O.", "latitude": 39.3100711, "longitude": 8.5248459, "source": "osm", "_tags": {"amenity": "hospital", "emergency": "yes", "name": "Ospedale C.T.O."}}, {"name": "Ospedale Sirai", "latitude": 39.1858405, "longitude": 8.5076631, "source": "osm", "_tags": {"amenity": "hospital", "healthcare": "hospital", "name": "Ospedale Sirai", "wikidata": "Q30280732"}}]