[{"name": "Hospital de Mérida", "latitude": 38.9122351, "longitude": -6.3635321, "source": "osm", "_tags": {"addr:city": "Mérida", "addr:postcode": "06800", "addr:street": "Polígono Nueva Ciudad", "amenity": "hospital", "email": "antonio.sanz@ses.juntadeextremadura.net", "emergency": "yes", "fax": "+34 924 38 10 12", "healthcare": "hospital", "healthcare:speciality": "gynaecology;dermatology;cardiology;surgery;digestive;endocrinology;anesthesia;nursing;pharmacy;management;hematology;homotherapy;neurology;otolaryngology;paediatrics;psychiatry;radiology;ophthalmology;urology;trauma;rheumatology;emergency", "internet_access": "wlan", "name": "Hospital de Mérida", "operator": "Servicio Extremeño de Salud", "operator:type": "public", "phone": "+924 38 10 00", "website": "https://clinicahospital.com/badajoz/hospital-de-merida", "wheelchair": "yes", "wikidata": "Q21901245"}}, {"name": "Urgencias 'Hospital Nuestra Señor de la Montaña'", "latitude": 39.473037, "longitude": -6.3779559, "source": "osm", "_tags": {"amenity": "hospital", "healthcare": "hospital", "name": "Urgencias 'Hospital Nuestra Señor de la Montaña'", "wheelchair": "yes"}}, {"name": "Hospital de Día", "latitude": 39.4762476, "longitude": -6.3287364, "source": "osm", "_tags": {"amenity": "hospital", "healthcare": "hospital", "name": "Hospital de Día", "operator": "Servicio Extremeño de Salud (SES)"}}, {"name": "Urgencias Hospital Universitario de Cáceres", "latitude": 39.476676, "longitude": -6.3285653, "source": "osm", "_tags": {"amenity": "hospital", "emergency": "yes", "healthcare": "hospital", "name": "Urgencias Hospital Universitario de Cáceres", "operator": "Servicio Extremeño de SAlud (SES)"}}, {"name": "Centro de salud de Alcazaba", "latitude": 38.952974, "longitude": -6.7404889, "source": "osm", "_tags": {"addr:city": "Alcazaba", "addr:postcode": "06182", "addr:street": "Calle Plaza Mayor", "amenity": "hospital", "fax": "+34 924474852", "healthcare": "hospital", "healthcare:speciality": "general", "name": "Centro de salud de Alcazaba", "nohousenumber": "yes", "operator": "SES", "operator:type": "public", "phone": "+34 924474100"}}, {"name": "Centro de Salud Zona Centro", "latitude": 39.4731666, "longitude": -6.3772066, "source": "osm", "_tags": {"amenity": "hospital", "healthcare": "hospital", "name": "Centro de Salud Zona Centro"}}, {"name": "Hospital Nuestra Señora de la Montaña", "latitude": 39.4728402, "longitude": -6.377523, "source": "osm", "_tags": {"amenity": "hospital", "building": "yes", "healthcare": "hospital", "name": "Hospital Nuestra Señora de la Montaña", "operator": "Junta de Extremadura"}}, {"name": "Hospital San Pedro de Alcántara", "latitude": 39.4655559, "longitude": -6.368213, "source": "osm", "_tags": {"addr:postcode": "10003", "addr:street": "Ronda de San Francisco", "amenity": "hospital", "building": "yes", "emergency": "yes", "healthcare": "hospital", "name": "Hospital San Pedro de Alcántara", "network": "Servicio Extremeño de Salud", "network:short": "SES", "operator": "Junta de Extremadura", "operator:type": "public", "wikidata": "Q30254264"}}, {"name": "Clínica Quirúrgica Cacereña San Francisco", "latitude": 39.4688406, "longitude": -6.3682558, "source": "osm", "_tags": {"amenity": "hospital", "building": "yes", "name": "Clínica Quirúrgica Cacereña San Francisco", "phone": "+34 927 01 22 40", "website": "https://www.cqcsanfrancisco.es/", "wheelchair": "yes", "wikidata": "Q87761662"}}, {"name": "Centro de Salud San Antonio", "latitude": 39.4557116, "longitude": -6.3772261, "source": "osm", "_tags": {"addr:city": "Cáceres", "addr:housenumber": "1", "addr:postcode": "10005", "addr:street": "Calle Juan Solano Pedrero", "building": "hospital", "healthcare": "hospital", "name": "Centro de Salud San Antonio"}}, {"name": "Hospital Perpetuo Socorro", "latitude": 38.866501, "longitude": -6.9715031, "source": "osm", "_tags": {"addr:city": "Badajoz", "addr:postcode": "06010", "addr:street": "Avenida Damián Téllez Lafuente", "amenity": "hospital", "building": "yes", "emergency": "yes", "healthcare": "hospital", "name": "Hospital Perpetuo Socorro", "operator:type": "public", "wikidata": "Q87828923"}}, {"name": "Hospital Materno Infantil", "latitude": 38.865979, "longitude": -6.9714332, "source": "osm", "_tags": {"addr:city": "Badajoz", "addr:housenumber": "1", "addr:postcode": "06010", "addr:street": "Calle La Violeta", "amenity": "hospital", "building": "yes", "emergency": "yes", "healthcare": "hospital", "name": "Hospital Materno Infantil", "operator:type": "public", "wikidata": "Q87828810"}}, {"name": "Ciudad de la Salud y la Innovación", "latitude": 39.4754716, "longitude": -6.3301833, "source": "osm", "_tags": {"amenity": "hospital", "healthcare": "hospital", "name": "Ciudad de la Salud y la Innovación"}}, {"name": "Hospital Quirónsalud Cáceres", "latitude": 39.4822134, "longitude": -6.3636873, "source": "osm", "_tags": {"addr:city": "Cáceres", "addr:country": "ES", "addr:housenumber": "5", "addr:street": "Avenida de la Universidad", "amenity": "hospital", "building": "hospital", "name": "Hospital Quirónsalud Cáceres", "phone": "+34 927181360", "website": "https://www.quironsalud.com/caceres", "wikidata": "Q87761660"}}, {"name": "Complejo Hospitalario Perpetuo Socorro - Materno Infantil", "latitude": 38.8665824, "longitude": -6.9706687, "source": "osm", "_tags": {"amenity": "hospital", "healthcare": "hospital", "name": "Complejo Hospitalario Perpetuo Socorro - Materno Infantil"}}, {"name": "Quironsalud Clideba", "latitude": 38.8712013, "longitude": -6.9903053, "source": "osm", "_tags": {"addr:city": "Badajoz", "addr:housenumber": "6", "addr:postcode": "06011", "addr:street": "Calle Eladio Salinero Santos", "amenity": "hospital", "healthcare": "hospital", "name": "Quironsalud Clideba", "operator": "Quironsalud", "phone": "+34 924 22 90 50", "website": "https://www.quironsalud.com/clideba", "wikidata": "Q87761449"}}, {"name": "Hospital Casa Verde", "latitude": 38.9072746, "longitude": -6.3688809, "source": "osm", "_tags": {"amenity": "hospital", "building": "hospital", "name": "Hospital Casa Verde", "phone": "+34 924380330", "website": "https://casaverdeneuro.com/"}}, {"name": "Unidade Local de Saúde do Norte Alentejano, EPE - Hospital de Santa Luzia", "latitude": 38.8754257, "longitude": -7.1630774, "source": "osm", "_tags": {"amenity": "hospital", "emergency": "yes", "healthcare": "hospital", "name": "Unidade Local de Saúde do Norte Alentejano, EPE - Hospital de Santa Luzia", "wheelchair": "yes"}}, {"name": "Hospital Universitario de Badajoz", "latitude": 38.8844678, "longitude": -7.0010389, "source": "osm", "_tags": {"addr:city": "Badajoz", "addr:postcode": "06080", "addr:street": "Avenida de Elvas", "amenity": "hospital", "building": "yes", "building:levels": "7", "description": "Anteriormente conocido como Hospital Infanta Cristina", "emergency": "yes", "healthcare": "hospital", "name": "Hospital Universitario de Badajoz", "operator": "Servicio Extremeño de Salud", "operator:type": "public", "roof:shape": "many", "type": "multipolygon", "wikidata": "Q87761443"}}]