[{"name": "Guardia Medica", "latitude": 39.1566811, "longitude": 9.3996763, "source": "osm", "_tags": {"amenity": "hospital", "emergency": "yes", "healthcare": "hospital", "name": "Guardia Medica", "note": "Presidio estivo guardia medica.", "opening_hours": "Jun-Sep"}}, {"name": "Pronto Soccorso", "latitude": 39.2216396, "longitude": 9.1126439, "source": "osm", "_tags": {"amenity": "hospital", "healthcare": "hospital", "name": "Pronto Soccorso", "name:it": "Pronto Soccorso San Giovanni di Dio", "wheelchair": "yes"}}, {"name": "Pronto Soccorso Ospedale \"Nostra Signora di Bonaria\"", "latitude": 39.5577695, "longitude": 8.7938478, "source": "osm", "_tags": {"addr:city": "San Gavino Monreale", "amenity": "hospital", "emergency": "yes", "healthcare": "hospital", "name": "Pronto Soccorso Ospedale \"Nostra Signora di Bonaria\""}}, {"name": "Pronto Soccorso Ospedale \"Santissima Trinità\"", "latitude": 39.2356224, "longitude": 9.1084996, "source": "osm", "_tags": {"addr:city": "Cagliari", "addr:postcode": "09121", "check_date": "2025-02-23", "emergency": "emergency_ward_entrance", "healthcare": "hospital", "name": "Pronto Soccorso Ospedale \"Santissima Trinità\""}}, {"name": "Pronto Soccorso", "latitude": 39.213699, "longitude": 9.1745657, "source": "osm", "_tags": {"addr:city": "Cagliari", "amenity": "hospital", "emergency": "yes", "healthcare": "hospital", "name": "Pronto Soccorso", "toilets:wheelchair": "yes", "wheelchair": "yes"}}, {"name": "Pronto Soccorso Ospedale \"San Giuseppe\"", "latitude": 39.7425766, "longitude": 9.1096328, "source": "osm", "_tags": {"addr:city": "Isili", "amenity": "hospital", "emergency": "yes", "healthcare": "hospital", "name": "Pronto Soccorso Ospedale \"San Giuseppe\""}}, {"name": "Pronto Soccorso Ospedale \"San Marcellino\"", "latitude": 39.4207473, "longitude": 9.569774, "source": "osm", "_tags": {"addr:city": "Muravera", "addr:postcode": "09043", "emergency": "emergency_ward_entrance", "entrance": "yes", "healthcare": "hospital", "name": "Pronto Soccorso Ospedale \"San Marcellino\""}}, {"name": "Pronto Soccorso", "latitude": 39.2487857, "longitude": 9.1076515, "source": "osm", "_tags": {"addr:city": "Cagliari", "addr:postcode": "09121", "amenity": "hospital", "emergency": "yes", "healthcare": "hospital", "name": "Pronto Soccorso"}}, {"name": "AVIS", "latitude": 39.4639342, "longitude": 8.7465259, "source": "osm", "_tags": {"addr:city": "Villacidro", "addr:postcode": "09039", "addr:street": "Via Guido Rossa", "amenity": "hospital", "healthcare": "hospital", "healthcare_1": "blood_donation", "name": "AVIS"}}, {"name": "", "latitude": 39.4635957, "longitude": 8.7463779, "source": "osm", "_tags": {"addr:city": "Villacidro", "addr:postcode": "09039", "addr:street": "Via Guido Rossa", "amenity": "doctors", "emergency": "yes", "healthcare": "hospital"}}, {"name": "ADMO", "latitude": 39.4639988, "longitude": 8.7465555, "source": "osm", "_tags": {"addr:city": "Villacidro", "addr:postcode": "09039", "addr:street": "Via Guido Rossa", "amenity": "hospital", "healthcare": "hospital", "name": "ADMO"}}, {"name": "Policlinico Universitario Duilio Casula", "latitude": 39.2711219, "longitude": 9.1258787, "source": "osm", "_tags": {"alt_name": "Policlinico Universitario", "amenity": "hospital", "emergency": "yes", "healthcare": "hospital", "name": "Policlinico Universitario Duilio Casula", "short_name": "Policlinico", "toilets:wheelchair": "yes", "wheelchair": "yes"}}, {"name": "Ospedale Militare \"Amerigo Demurtas\"", "latitude": 39.2195111, "longitude": 9.1108675, "source": "osm", "_tags": {"alt_name": "Dipartimento Militare di Medicina Legale", "amenity": "hospital", "healthcare": "hospital", "military": "hospital", "name": "Ospedale Militare \"Amerigo Demurtas\""}}, {"name": "Ospedale \"San Giovanni di Dio\"", "latitude": 39.2210486, "longitude": 9.1119986, "source": "osm", "_tags": {"alt_name": "Ospedale Civile", "amenity": "hospital", "emergency": "yes", "healthcare": "hospital", "name": "Ospedale \"San Giovanni di Dio\"", "wheelchair": "no", "wikidata": "Q3886638", "wikimedia_commons": "Category:Ospedale San Giovanni di Dio", "wikipedia": "it:Ospedale San Giovanni di Dio (Cagliari)"}}, {"name": "Ospedale San Marcellino", "latitude": 39.4208989, "longitude": 9.5696877, "source": "osm", "_tags": {"amenity": "hospital", "emergency": "yes", "healthcare": "hospital", "name": "Ospedale San Marcellino"}}, {"name": "", "latitude": 39.2328208, "longitude": 9.1847349, "source": "osm", "_tags": {"amenity": "hospital", "wheelchair": "yes"}}, {"name": "Korian", "latitude": 39.2413715, "longitude": 9.1755351, "source": "osm", "_tags": {"amenity": "hospital", "name": "Korian", "wheelchair": "yes"}}, {"name": "Clinica Villa S.Elena", "latitude": 39.2263884, "longitude": 9.1255887, "source": "osm", "_tags": {"amenity": "hospital", "building": "hospital", "name": "Clinica Villa S.Elena"}}, {"name": "Ospedale Marino", "latitude": 39.2138029, "longitude": 9.1730721, "source": "osm", "_tags": {"amenity": "hospital", "healthcare": "hospital", "name": "Ospedale Marino", "wheelchair": "yes"}}, {"name": "Ospedale Microcitemico", "latitude": 39.2469661, "longitude": 9.1137398, "source": "osm", "_tags": {"amenity": "hospital", "healthcare": "hospital", "name": "Ospedale Microcitemico", "operator": "Azienda Ospedaliera Giuseppe Brotzu", "toilets:wheelchair": "yes", "wheelchair": "yes"}}, {"name": "Ospedale Oncologico \"Armando Businco\"", "latitude": 39.2457704, "longitude": 9.1143249, "source": "osm", "_tags": {"amenity": "hospital", "healthcare": "hospital", "name": "Ospedale Oncologico \"Armando Businco\"", "operator": "Azienda Ospedaliera Giuseppe Brotzu", "toilets:wheelchair": "yes", "wheelchair": "yes"}}, {"name": "Casa di cura Sant'Anna", "latitude": 39.2261916, "longitude": 9.1173598, "source": "osm", "_tags": {"amenity": "hospital", "building": "hospital", "check_date": "2025-03-11", "name": "Casa di cura Sant'Anna"}}, {"name": "Consultorio Familiare", "latitude": 39.5485997, "longitude": 8.7867646, "source": "osm", "_tags": {"amenity": "hospital", "building": "yes", "healthcare": "hospital", "name": "Consultorio Familiare"}}, {"name": "", "latitude": 39.6981387, "longitude": 9.5778894, "source": "osm", "_tags": {"addr:city": "Tertenia", "addr:postcode": "08047", "addr:street": "Via Casula", "amenity": "doctors", "building": "yes", "healthcare": "hospital"}}, {"name": "Ospedale Nostra Signora di Bonaria", "latitude": 39.5580578, "longitude": 8.7936539, "source": "osm", "_tags": {"amenity": "hospital", "name": "Ospedale Nostra Signora di Bonaria"}}, {"name": "Ospedale Santissima Trinità", "latitude": 39.2356307, "longitude": 9.1068373, "source": "osm", "_tags": {"amenity": "hospital", "healthcare": "hospital", "name": "Ospedale Santissima Trinità", "wheelchair": "yes"}}, {"name": "Ospedale \"Roberto Binaghi\"", "latitude": 39.2113124, "longitude": 9.1371139, "source": "osm", "_tags": {"addr:city": "Cagliari", "addr:housenumber": "2", "addr:postcode": "09126", "addr:street": "Via Is Guadazzonis", "amenity": "hospital", "healthcare": "hospital", "name": "Ospedale \"Roberto Binaghi\"", "operator": "ASSL Cagliari", "operator:type": "public"}}, {"name": "Ospedale San Michele", "latitude": 39.2494489, "longitude": 9.1091055, "source": "osm", "_tags": {"addr:city": "Cagliari", "addr:housenumber": "1", "addr:postcode": "09121", "addr:street": "Piazzale Alessandro Ricchi", "alt_name": "Azienda Ospedaliera Giuseppe Brotzu", "amenity": "hospital", "healthcare": "hospital", "name": "Ospedale San Michele", "operator": "Azienda Ospedaliera Giuseppe Brotzu"}}, {"name": "Fraternità di Misericordia Sinnai", "latitude": 39.3036885, "longitude": 9.1978453, "source": "osm", "_tags": {"addr:city": "Sinnai", "addr:housenumber": "20", "addr:postcode": "09048", "addr:street": "Via Giambattista Tiepolo", "amenity": "hospital", "healthcare": "hospital", "healthcare:speciality": "emergency", "name": "Fraternità di Misericordia Sinnai", "operator": "118"}}, {"name": "", "latitude": 39.4638406, "longitude": 8.7464084, "source": "osm", "_tags": {"addr:city": "Villacidro", "addr:postcode": "09039", "addr:street": "Via Guido Rossa", "amenity": "hospital", "healthcare": "hospital", "healthcare_1": "blood_donation", "operator": "A.S.L. Sanluri"}}, {"name": "Nuova Casa di Cura S.r.l.", "latitude": 39.3112691, "longitude": 8.9760436, "source": "osm", "_tags": {"amenity": "hospital", "healthcare": "hospital", "name": "Nuova Casa di Cura S.r.l."}}, {"name": "A.I.A.S.", "latitude": 39.3110385, "longitude": 8.9740655, "source": "osm", "_tags": {"amenity": "hospital", "healthcare": "hospital", "name": "A.I.A.S."}}, {"name": "Cittadella della Salute", "latitude": 39.2317072, "longitude": 9.1177572, "source": "osm", "_tags": {"amenity": "hospital", "healthcare": "hospital", "name": "Cittadella della Salute"}}, {"name": "Farmacia SORESI", "latitude": 39.2012981, "longitude": 9.1459243, "source": "osm", "_tags": {"addr:housenumber": "9 / A", "addr:street": "Via Favonio", "amenity": "hospital", "healthcare": "hospital", "name": "Farmacia SORESI"}}, {"name": "", "latitude": 39.7427424, "longitude": 9.1101941, "source": "osm", "_tags": {"amenity": "hospital", "healthcare": "hospital"}}, {"name": "Guardia medica", "latitude": 39.1822401, "longitude": 8.9682631, "source": "osm", "_tags": {"amenity": "hospital", "healthcare": "hospital", "name": "Guardia medica"}}, {"name": "ASL di Sanluri", "latitude": 39.5562392, "longitude": 8.9006739, "source": "osm", "_tags": {"amenity": "hospital", "healthcare": "hospital", "name": "ASL di Sanluri", "operator": "ASL", "operator:type": "public", "operator:wikidata": "Q3631467"}}]