[{"name": "Nossa Senhora da Assunção", "latitude": 40.4213308, "longitude": -7.6955084, "source": "osm", "_tags": {"amenity": "hospital", "emergency": "yes", "healthcare": "hospital", "name": "Nossa Senhora da Assunção"}}, {"name": "Fundação Aurélio Amaro Dinis", "latitude": 40.3585594, "longitude": -7.8554929, "source": "osm", "_tags": {"amenity": "hospital", "healthcare": "hospital", "name": "Fundação Aurélio Amaro Dinis"}}, {"name": "Unidade Local de Saúde da Guarda", "latitude": 40.5306059, "longitude": -7.2755376, "source": "osm", "_tags": {"addr:city": "Guarda", "addr:postcode": "6300-749", "addr:street": "Avenida Rainha Dona Amélia", "amenity": "hospital", "healthcare": "hospital", "name": "Unidade Local de Saúde da Guarda"}}, {"name": "", "latitude": 40.6756111, "longitude": -7.6990811, "source": "osm", "_tags": {"amenity": "hospital"}}, {"name": "Hospital CUF Viseu", "latitude": 40.6452362, "longitude": -7.9113839, "source": "osm", "_tags": {"addr:city": "Viseu", "addr:housenumber": "12 e 14", "addr:postcode": "3500-612", "addr:street": "Rua Belo Horizonte", "amenity": "hospital", "healthcare": "hospital", "name": "Hospital CUF Viseu", "operator": "José de Mello Saúde", "operator:type": "private"}}, {"name": "Evidente - Clínica Médica de Trancoso", "latitude": 40.7758913, "longitude": -7.3481447, "source": "osm", "_tags": {"amenity": "hospital", "healthcare": "hospital", "name": "Evidente - Clínica Médica de Trancoso"}}, {"name": "A Toca do Urso", "latitude": 40.6665707, "longitude": -7.9160316, "source": "osm", "_tags": {"addr:city": "Viseu", "addr:housenumber": "Lote H", "addr:postcode": "3515-146", "addr:street": "Avenida da Europa", "addr:unit": "Fração A", "amenity": "hospital", "description": "A Toca do Urso é uma clínica Pediátrica, com diversos serviços relacionados com o desenvolvimento Infantil.\n\nPara além de diversas especialidades, dispõe de um Estúdio de Pilates Clínico, Spa para Bebés e Hidroterapia.", "email": "geral@atocadourso.pt", "healthcare": "hospital", "healthcare:speciality": "paediatrics;psychiatry;osteopathy;general;physiatry;hydrotherapy;depth", "mobile": "+351928148070", "name": "A Toca do Urso", "payment:cash": "yes", "payment:credit_cards": "yes", "payment:debit_cards": "yes", "payment:visa": "yes", "phone": "+351928148070", "website": "https://atocadourso.pt", "wheelchair": "yes"}}, {"name": "", "latitude": 40.4924829, "longitude": -7.597049, "source": "osm", "_tags": {"amenity": "hospital"}}, {"name": "Hospital Nossa Senhora da Assunção", "latitude": 40.4208829, "longitude": -7.6957099, "source": "osm", "_tags": {"amenity": "hospital", "healthcare": "hospital", "name": "Hospital Nossa Senhora da Assunção"}}, {"name": "Unidade Local de Saúde de Castelo Branco, EPE - Hospital Amato Lusitano", "latitude": 39.8228284, "longitude": -7.4999151, "source": "osm", "_tags": {"amenity": "hospital", "emergency": "yes", "healthcare": "hospital", "name": "Unidade Local de Saúde de Castelo Branco, EPE - Hospital Amato Lusitano", "operator": "SNS"}}, {"name": "Casa de Saúde São Mateus Hospital", "latitude": 40.6566426, "longitude": -7.9047796, "source": "osm", "_tags": {"amenity": "hospital", "emergency": "yes", "healthcare": "hospital", "name": "Casa de Saúde São Mateus Hospital"}}, {"name": "Unidade de Cuidados Continuados", "latitude": 40.6135845, "longitude": -8.016742, "source": "osm", "_tags": {"addr:city": "Farminhão", "addr:postcode": "3510-643", "addr:street": "Rua da Escola", "amenity": "hospital", "name": "Unidade de Cuidados Continuados"}}, {"name": "Departamento de Psiquiatria e Saúde Mental", "latitude": 40.2666114, "longitude": -7.4940213, "source": "osm", "_tags": {"amenity": "hospital", "email": "info@chcbeira.min-saude.pt", "healthcare": "hospital", "healthcare:speciality": "psychiatry;child_psychiatry", "healthcare_facility:type": "department", "name": "Departamento de Psiquiatria e Saúde Mental", "old_name": "Centro de Saúde Mental da Covilhã;Departamento de Saúde Mental da Covilhã", "operator": "Centro Hospitalar Universitário da Cova da Beira, E. P. E.", "operator:type": "public", "phone": "+351 275 330 000"}}, {"name": "Hospital Pêro da Covilhã", "latitude": 40.2665694, "longitude": -7.4923933, "source": "osm", "_tags": {"amenity": "hospital", "email": "info@chcbeira.min-saude.pt", "emergency": "yes", "healthcare": "hospital", "healthcare:speciality": "general", "name": "Hospital Pêro da Covilhã", "old_name": "Hospital Distrital da Covilhã;Hospital da Misericórdia da Covilhã", "operator": "Centro Hospitalar Universitário da Cova da Beira, E. P. E.", "operator:type": "public", "phone": "+351 275 330 000"}}, {"name": "Extensão de Saúde de Cambra", "latitude": 40.6865453, "longitude": -8.1585515, "source": "osm", "_tags": {"amenity": "hospital", "building": "yes", "emergency": "no", "healthcare": "centre", "name": "Extensão de Saúde de Cambra"}}, {"name": "Hospital de São Teotónio", "latitude": 40.6503244, "longitude": -7.9063603, "source": "osm", "_tags": {"addr:city": "União das Freguesias de Viseu", "addr:postcode": "3504-509", "addr:street": "Avenida Rei Dom Duarte", "amenity": "hospital", "emergency": "yes", "healthcare": "hospital", "healthcare:speciality": "general;chiropractic;paediatrics;orthopaedics;gynaecology;ophthalmology", "name": "Hospital de São Teotónio", "operator": "Unidade Local de Saúde de Viseu Dão-Lafões, E.P.E.", "operator:type": "public"}}, {"name": "Centro de Saúde da Lousã", "latitude": 40.1243749, "longitude": -8.2346635, "source": "osm", "_tags": {"amenity": "clinic", "healthcare": "hospital", "name": "Centro de Saúde da Lousã", "operator": "Sistema Nacional de Saúde"}}, {"name": "Centro Hospitalar Tondela-Viseu (Psiquiatria)", "latitude": 40.6810953, "longitude": -7.9185932, "source": "osm", "_tags": {"amenity": "hospital", "healthcare": "hospital", "name": "Centro Hospitalar Tondela-Viseu (Psiquiatria)"}}, {"name": "", "latitude": 40.1147492, "longitude": -8.2478769, "source": "osm", "_tags": {"amenity": "hospital", "emergency": "no", "healthcare": "hospital"}}, {"name": "Centro de Saúde de Viseu III", "latitude": 40.6450639, "longitude": -7.914384, "source": "osm", "_tags": {"amenity": "clinic", "healthcare": "hospital", "name": "Centro de Saúde de Viseu III"}}, {"name": "Hospital da Misericórdia de Tábua - Centro de Cuidados Continuados", "latitude": 40.3585831, "longitude": -8.0228319, "source": "osm", "_tags": {"amenity": "hospital", "healthcare": "hospital", "name": "Hospital da Misericórdia de Tábua - Centro de Cuidados Continuados", "operator": "Santa Casa da Misericórdia", "wheelchair": "yes"}}, {"name": "Unidade de Cuidados Continuados de Vouzela", "latitude": 40.721676, "longitude": -8.1144287, "source": "osm", "_tags": {"amenity": "hospital", "emergency": "no", "healthcare": "hospital", "name": "Unidade de Cuidados Continuados de Vouzela", "operator": "Santa Casa da Misericórdia de Vouzela", "operator:type": "community"}}, {"name": "Hospital Doutor Fernando Valle", "latitude": 40.2164187, "longitude": -8.0541909, "source": "osm", "_tags": {"addr:city": "Arganil", "addr:postcode": "3300-034", "addr:street": "Rua Comendador da Cruz Pereira", "amenity": "hospital", "building": "yes", "healthcare": "hospital", "healthcare:speciality": "geriatrics", "name": "Hospital Doutor Fernando Valle", "official_name": "Unidade de Cuidados Continuados Integrados Hospital Doutor Fernando Valle", "operator": "Santa Casa da Misericórdia de Arganil", "phone": "235 200 110"}}, {"name": "", "latitude": 40.7757857, "longitude": -7.3478538, "source": "osm", "_tags": {"amenity": "hospital", "healthcare": "hospital"}}, {"name": "Hospital Cândido de Figueiredo - Unidade Local de Saúde de Viseu Dão-Lafões", "latitude": 40.5170143, "longitude": -8.0830129, "source": "osm", "_tags": {"amenity": "hospital", "healthcare": "hospital", "name": "Hospital Cândido de Figueiredo - Unidade Local de Saúde de Viseu Dão-Lafões", "operator": "Unidade Local de Saúde de Viseu Dão-Lafões, E.P.E."}}, {"name": "Hospital do Fundão", "latitude": 40.1351183, "longitude": -7.5014572, "source": "osm", "_tags": {"amenity": "hospital", "email": "info@chcbeira.min-saude.pt", "healthcare": "hospital", "healthcare:speciality": "general", "name": "Hospital do Fundão", "old_name": "Hospital Distrital do Fundão", "operator": "Centro Hospitalar Universitário da Cova da Beira, E. P. E.", "operator:type": "public", "phone": "+351 275 330 000"}}, {"name": "Parque da Saúde da Guarda", "latitude": 40.5317469, "longitude": -7.276186, "source": "osm", "_tags": {"alt_name": "Hospital Sousa Martins;Hospital da Guarda", "amenity": "hospital", "emergency": "yes", "healthcare": "hospital", "name": "Parque da Saúde da Guarda", "type": "multipolygon"}}]