[{"name": "Ospedale Civile Albano Francescano", "latitude": 40.7605783, "longitude": 14.020801, "source": "osm", "_tags": {"amenity": "hospital", "name": "Ospedale Civile Albano Francescano"}}, {"name": "Ospedale della costa", "latitude": 40.6383861, "longitude": 14.6122789, "source": "osm", "_tags": {"amenity": "hospital", "emergency": "yes", "healthcare": "hospital", "name": "Ospedale della costa", "name:en": "Amalfi Coast Hospital"}}, {"name": "Guardia Medica", "latitude": 40.6305121, "longitude": 14.5402099, "source": "osm", "_tags": {"amenity": "hospital", "name": "Guardia Medica"}}, {"name": "Ospedale Civile Gaetanina Scotto", "latitude": 40.7497699, "longitude": 14.0130908, "source": "osm", "_tags": {"amenity": "hospital", "healthcare": "hospital", "name": "Ospedale Civile Gaetanina Scotto", "operator": "ASL Napoli 2 Nord", "operator:type": "public"}}, {"name": "Guardia Medica Pagani", "latitude": 40.7474524, "longitude": 14.6226951, "source": "osm", "_tags": {"amenity": "hospital", "healthcare": "hospital", "name": "Guardia Medica Pagani"}}, {"name": "", "latitude": 40.7451202, "longitude": 14.6513205, "source": "osm", "_tags": {"amenity": "hospital", "building": "yes", "emergency": "yes"}}, {"name": "Ospedale Umberto I", "latitude": 40.7450803, "longitude": 14.6510755, "source": "osm", "_tags": {"addr:street": "Via Alfonso De Nicola", "amenity": "hospital", "healthcare": "hospital", "name": "Ospedale Umberto I", "opening_hours": "24/7"}}, {"name": "Presidio Ospedaliero Santa Maria dell'Olmo", "latitude": 40.6945811, "longitude": 14.7108099, "source": "osm", "_tags": {"amenity": "hospital", "emergency": "yes", "healthcare": "hospital", "name": "Presidio Ospedaliero Santa Maria dell'Olmo"}}, {"name": "Ospedale Mauro Scarlato", "latitude": 40.7548762, "longitude": 14.5261996, "source": "osm", "_tags": {"addr:city": "Scafati", "addr:housenumber": "1", "addr:postcode": "84018", "addr:street": "Via Passanti", "amenity": "hospital", "healthcare": "hospital", "name": "Ospedale Mauro Scarlato"}}, {"name": "Ospedale San Leonardo", "latitude": 40.702341, "longitude": 14.4900747, "source": "osm", "_tags": {"addr:city": "Castellammare di Stabia", "addr:postcode": "80053", "addr:street": "Viale Europa", "amenity": "hospital", "emergency": "yes", "healthcare": "hospital", "name": "Ospedale San Leonardo", "operator": "ASL Napoli 3 Sud", "operator:type": "public"}}, {"name": "Clinica Villa Stabia", "latitude": 40.7032068, "longitude": 14.4898848, "source": "osm", "_tags": {"amenity": "hospital", "emergency": "no", "healthcare": "hospital", "name": "Clinica Villa Stabia"}}, {"name": "Ospedale De Luca e Rossano", "latitude": 40.6607989, "longitude": 14.4261576, "source": "osm", "_tags": {"amenity": "hospital", "name": "Ospedale De Luca e Rossano"}}, {"name": "Ospedale Martiri di Villa Malta", "latitude": 40.8118017, "longitude": 14.6009277, "source": "osm", "_tags": {"amenity": "hospital", "building": "hospital", "emergency": "yes", "healthcare": "hospital", "name": "Ospedale Martiri di Villa Malta"}}, {"name": "Villa Chiarugi", "latitude": 40.741128, "longitude": 14.6319911, "source": "osm", "_tags": {"addr:housenumber": "283", "addr:street": "Via Giuseppe Atzori", "amenity": "hospital", "check_date": "2025-03-14", "name": "Villa Chiarugi"}}, {"name": "ASL Salerno - Distretto Sanitario 61", "latitude": 40.731464, "longitude": 14.5609537, "source": "osm", "_tags": {"addr:city": "Angri", "addr:street": "Via dei Goti", "amenity": "hospital", "building": "yes", "building:levels": "4", "healthcare": "hospital", "name": "ASL Salerno - Distretto Sanitario 61", "operator": "ASL", "operator:wikidata": "Q3631467", "operator:wikipedia": "it:Azienda sanitaria locale"}}, {"name": "Azienda Sanitaria-Ex Ospedale Civile", "latitude": 40.7579408, "longitude": 14.4450038, "source": "osm", "_tags": {"addr:city": "Torre Annunziata", "addr:housenumber": "26", "addr:postcode": "80058", "addr:street": "Piazza Ernesto Cesaro", "amenity": "hospital", "building": "hospital", "building:levels": "3", "emergency": "no", "healthcare": "hospital", "healthcare:speciality": "psychiatry", "layer": "1", "name": "Azienda Sanitaria-Ex Ospedale Civile", "operator": "Azienda Sanitaria Locale Napoli 3 Sud", "source": "survey", "source:geometry": "bing"}}, {"name": "Presidio Ospedaliero Pausillipon", "latitude": 40.8125955, "longitude": 14.2060473, "source": "osm", "_tags": {"amenity": "hospital", "emergency": "no", "healthcare": "hospital", "healthcare:speciality": "oncology", "name": "Presidio Ospedaliero Pausillipon"}}, {"name": "Distretto Sanitario 59", "latitude": 40.6322422, "longitude": 14.3985187, "source": "osm", "_tags": {"amenity": "hospital", "name": "Distretto Sanitario 59", "operator": "ASL Napoli 3 Sud"}}, {"name": "Ospedale Civile di Boscotrecase", "latitude": 40.766619, "longitude": 14.4522089, "source": "osm", "_tags": {"addr:city": "Boscotrecase", "addr:street": "Via Lenze", "alt_name": "Ospedale Sant'Anna e Maria S.S. della Neve", "amenity": "hospital", "emergency": "yes", "healthcare": "hospital", "healthcare:speciality": "general", "name": "Ospedale Civile di Boscotrecase", "operator": "asl napoli 3 sud", "phone": "+39 081 535 21 11", "website": "http://www.chirurgiaboscotrecase.it"}}, {"name": "P.O. Maresca", "latitude": 40.8018182, "longitude": 14.3845807, "source": "osm", "_tags": {"amenity": "hospital", "emergency": "yes", "name": "P.O. Maresca"}}, {"name": "Ospedale Capilupi", "latitude": 40.5499038, "longitude": 14.2365656, "source": "osm", "_tags": {"amenity": "hospital", "healthcare": "hospital", "name": "Ospedale Capilupi"}}, {"name": "Ospedale Andrea Tortora", "latitude": 40.7479206, "longitude": 14.6213825, "source": "osm", "_tags": {"amenity": "hospital", "check_date": "2023-07-18", "healthcare": "hospital", "name": "Ospedale Andrea Tortora"}}, {"name": "Distretto Sanitario", "latitude": 40.6438624, "longitude": 14.4142068, "source": "osm", "_tags": {"amenity": "hospital", "building": "yes", "emergency": "no", "name": "Distretto Sanitario"}}, {"name": "Ospedale Nuovo di Gragnano", "latitude": 40.6954334, "longitude": 14.5225965, "source": "osm", "_tags": {"addr:city": "Gragnano", "addr:postcode": "80054", "addr:street": "Via Marianna Spagnuolo", "amenity": "hospital", "healthcare": "hospital", "name": "Ospedale Nuovo di Gragnano", "operator": "ASL Napoli 3 Sud"}}, {"name": "Casa di Cura di Riabilitazione G. F. Montesano", "latitude": 40.7652367, "longitude": 14.6926328, "source": "osm", "_tags": {"amenity": "hospital", "emergency": "no", "healthcare": "hospital", "name": "Casa di Cura di Riabilitazione G. F. Montesano"}}, {"name": "Ospedale di Sorrento", "latitude": 40.6248316, "longitude": 14.3688242, "source": "osm", "_tags": {"addr:city": "Sorrento", "addr:country": "IT", "addr:housenumber": "2", "addr:postcode": "80067", "addr:street": "Corso Italia", "amenity": "hospital", "check_date": "2025-05-31", "emergency": "yes", "healthcare": "hospital", "name": "Ospedale di Sorrento", "official_name": "Presidio Ospedaliero Santa Maria Della Misericordia"}}, {"name": "Ospedale A. Rizzoli", "latitude": 40.7503463, "longitude": 13.8957785, "source": "osm", "_tags": {"amenity": "hospital", "healthcare": "hospital", "name": "Ospedale A. Rizzoli", "type": "multipolygon"}}, {"name": "Villa dei Fiori", "latitude": 40.7367556, "longitude": 14.626375, "source": "osm", "_tags": {"addr:city": "Nocera Inferiore", "addr:street": "Via Poggio San Pantaleone", "amenity": "hospital", "name": "Villa dei Fiori", "type": "multipolygon"}}]