[{"name": "118", "latitude": 39.9263311, "longitude": 8.5275371, "source": "osm", "_tags": {"amenity": "doctors", "emergency": "ambulance_station", "healthcare": "hospital", "name": "118"}}, {"name": "Pronto Soccorso Ospedale \"San Martino\"", "latitude": 39.8985053, "longitude": 8.5845613, "source": "osm", "_tags": {"addr:city": "Oristano", "addr:housenumber": "1a", "addr:postcode": "09170", "addr:street": "Viale Fondazione Rockefeller", "amenity": "hospital", "emergency": "yes", "healthcare": "hospital", "name": "Pronto Soccorso Ospedale \"San Martino\""}}, {"name": "", "latitude": 40.718204, "longitude": 8.554714, "source": "osm", "_tags": {"addr:city": "Sassari", "addr:postcode": "07100", "emergency": "emergency_ward_entrance", "emergency_ward_entrance": "all", "entrance": "yes", "healthcare": "hospital"}}, {"name": "Reparto Medicina", "latitude": 39.8974668, "longitude": 8.5849558, "source": "osm", "_tags": {"addr:city": "Oristano", "addr:housenumber": "1a", "addr:postcode": "09170", "addr:street": "Viale Fondazione Rockefeller", "amenity": "hospital", "healthcare": "hospital", "healthcare:speciality": "internal", "name": "Reparto Medicina"}}, {"name": "Reparto Radiologia", "latitude": 39.8984587, "longitude": 8.5849471, "source": "osm", "_tags": {"addr:city": "Oristano", "addr:housenumber": "1a", "addr:postcode": "09170", "addr:street": "Viale Fondazione Rockefeller", "amenity": "hospital", "healthcare": "laboratory", "healthcare:speciality": "diagnostic_radiology", "name": "Reparto Radiologia"}}, {"name": "Ospedale Civile Santissima Annunziata", "latitude": 40.718587, "longitude": 8.5541306, "source": "osm", "_tags": {"amenity": "hospital", "emergency": "yes", "healthcare": "hospital", "landuse": "healthcare", "name": "Ospedale Civile Santissima Annunziata", "operator": "Azienda Ospedaliera Universitaria Sassari", "operator:short": "AOU Sassari"}}, {"name": "Struttura sanitaria San Camillo", "latitude": 40.7623474, "longitude": 8.569086, "source": "osm", "_tags": {"addr:city": "Sassari", "addr:postcode": "07100", "addr:street": "Strada Statale 200 dell'Anglona", "amenity": "hospital", "emergency": "no", "healthcare": "hospital", "landuse": "healthcare", "name": "Struttura sanitaria San Camillo", "operator": "ASL Sassari"}}, {"name": "Ospedale civile San Martino", "latitude": 39.8978602, "longitude": 8.5854333, "source": "osm", "_tags": {"amenity": "hospital", "healthcare": "hospital", "name": "Ospedale civile San Martino", "wheelchair": "yes"}}, {"name": "Italian Red Cross volunteers", "latitude": 40.289186, "longitude": 8.48366, "source": "osm", "_tags": {"amenity": "doctors", "emergency": "no", "healthcare": "hospital", "name": "Italian Red Cross volunteers", "operator": "Italian Red Cross"}}, {"name": "Ospedale G.A. Alivesi", "latitude": 40.5999701, "longitude": 8.5656999, "source": "osm", "_tags": {"amenity": "hospital", "healthcare": "hospital", "name": "Ospedale G.A. Alivesi"}}, {"name": "Guardia Medica", "latitude": 40.3962798, "longitude": 8.6575684, "source": "osm", "_tags": {"amenity": "doctors", "building": "yes", "emergency": "no", "healthcare": "hospital", "name": "Guardia Medica"}}, {"name": "Ospedale Civile di Thiesi", "latitude": 40.522978, "longitude": 8.7141908, "source": "osm", "_tags": {"amenity": "hospital", "name": "Ospedale Civile di Thiesi"}}, {"name": "Ospedale Marino Regina Margherita", "latitude": 40.5802575, "longitude": 8.3112031, "source": "osm", "_tags": {"addr:city": "Alghero", "addr:housenumber": "2", "addr:postcode": "07041", "addr:street": "Viale Primo Maggio", "amenity": "hospital", "emergency": "yes", "healthcare": "hospital", "healthcare:speciality": "orthopaedics", "name": "Ospedale Marino Regina Margherita", "operator": "ATS Sardegna"}}, {"name": "Ospedale Civile", "latitude": 40.5801577, "longitude": 8.3198522, "source": "osm", "_tags": {"amenity": "hospital", "check_date": "2025-07-01", "emergency": "yes", "healthcare": "hospital", "name": "Ospedale Civile", "operator": "ATS Sardegna"}}, {"name": "Ospedale A. G. Mastino", "latitude": 40.3008483, "longitude": 8.4958282, "source": "osm", "_tags": {"amenity": "hospital", "healthcare": "hospital", "name": "Ospedale A. G. Mastino"}}]