[{"name": "Hospital de La Magdalena", "latitude": 40.0043875, "longitude": -0.0728965, "source": "osm", "_tags": {"amenity": "hospital", "healthcare": "hospital", "name": "Hospital de La Magdalena", "operator": "Generalitat Valenciana", "operator:type": "public", "wikidata": "Q87761691"}}, {"name": "Mutua Universal", "latitude": 40.8037029, "longitude": 0.5213739, "source": "osm", "_tags": {"amenity": "hospital", "emergency": "no", "healthcare": "hospital", "healthcare:speciality": "general", "name": "Mutua Universal"}}, {"name": "Hospital de Día de Salud Mental Cardenal Costa", "latitude": 39.9899471, "longitude": -0.0462162, "source": "osm", "_tags": {"amenity": "hospital", "healthcare": "hospital", "name": "Hospital de Día de Salud Mental Cardenal Costa", "phone": "+34 964 253 976", "social_facility": "day_care", "website": "https://hospitalprovincial.es/es/salud-mental/hospitales-de-dia/cardenal-costa"}}, {"name": "Hospital General Universitari de Castelló", "latitude": 40.0029371, "longitude": -0.0417556, "source": "osm", "_tags": {"addr:city": "Castelló de la Plana", "addr:housenumber": "123", "addr:postcode": "12004", "addr:street": "Avinguda de Benicàssim / Avenida Benicasim", "email": "sugerencias_dscs@gva.es", "emergency": "yes", "healthcare": "hospital", "loc_name": "La Residència", "name": "Hospital General Universitari de Castelló", "name:ca": "Hospital General Universitari de Castelló", "name:es": "Hospital General Universitario de Castellón", "operator": "Departament de Salut de Castelló", "phone": "+34 964 725 000", "smoking": "no", "start_date": "08-05-1967", "website": "http://castellon.san.gva.es/hospital-general", "wheelchair": "yes", "wikidata": "Q22004342", "wikipedia": "ca:Hospital General de Castelló"}}, {"name": "Hospital Vithas Castellón", "latitude": 39.9972777, "longitude": -0.0364355, "source": "osm", "_tags": {"addr:city": "Castellón de la Plana", "addr:housenumber": "25", "addr:postcode": "12004", "addr:street": "Calle de Santa María Rosa Molas", "amenity": "hospital", "email": "infocastellon@vithas.es", "emergency": "yes", "healthcare": "hospital", "name": "Hospital Vithas Castellón", "old_name": "Hospital Rey Don Jaime", "operator": "Vithas Sanidad", "operator:type": "private", "phone": "+34964726000", "website": "https://vithas.es/centro/vithas-hospital-castellon/", "wikidata": "Q87761696"}}, {"name": "Hospital Provincial de Castelló", "latitude": 39.9840763, "longitude": -0.0463793, "source": "osm", "_tags": {"amenity": "hospital", "healthcare": "hospital", "name": "Hospital Provincial de Castelló", "name:ca": "Hospital Provincial de Castelló", "name:es": "Hospital Provincial de Castellón", "operator": "Consorci Hospitalari Provincial de Castelló", "website": "https://www.hospitalprovincial.es"}}, {"name": "Hospital de Tortosa Verge de la Cinta", "latitude": 40.8111476, "longitude": 0.5242702, "source": "osm", "_tags": {"amenity": "hospital", "building": "public", "building:levels": "6", "building:levels:underground": "1", "emergency": "yes", "name": "Hospital de Tortosa Verge de la Cinta", "name:ca": "Hospital de Tortosa Verge de la Cinta", "phone": "+34977519100", "wikidata": "Q19257349", "wikipedia": "ca:Residència Sanitària Verge de la Cinta"}}, {"name": "Hospital Comarcal d'Amposta", "latitude": 40.7089471, "longitude": 0.5783117, "source": "osm", "_tags": {"amenity": "hospital", "healthcare": "hospital", "healthcare:speciality": "general", "name": "Hospital Comarcal d'Amposta", "operator": "ICS", "operator:type": "public", "wikidata": "Q87762574"}}, {"name": "Hospital Comarcal de Vinaròs", "latitude": 40.4640782, "longitude": 0.450081, "source": "osm", "_tags": {"amenity": "hospital", "emergency": "yes", "healthcare": "hospital", "name": "Hospital Comarcal de Vinaròs", "name:es": "Hospital Comarcal de Vinaroz", "wikidata": "Q87761692"}}, {"name": "Hospital Universitari La Plana", "latitude": 39.9245097, "longitude": -0.0971721, "source": "osm", "_tags": {"amenity": "hospital", "healthcare": "hospital", "name": "Hospital Universitari La Plana", "name:ca": "Hospital Universitari La Plana", "wikidata": "Q64442936"}}]