[{"name": "Hospital Recoletas Salud Cuenca", "latitude": 40.0669973, "longitude": -2.1453161, "source": "osm", "_tags": {"addr:city": "Cuenca", "addr:street": "Avenida de San Julián", "amenity": "hospital", "emergency": "yes", "healthcare": "hospital", "name": "Hospital Recoletas Salud Cuenca", "nohousenumber": "yes", "operator": "recoletas salud", "operator:type": "private", "phone": "+34 969 232 500", "website": "https://www.gruporecoletas.com/hospitales/hospital-recoletas-cuenca/"}}, {"name": "Instituto Valenciano de Oncologia Cuenca", "latitude": 40.0812734, "longitude": -2.1500619, "source": "osm", "_tags": {"amenity": "hospital", "healthcare": "hospital", "name": "Instituto Valenciano de Oncologia Cuenca", "phone": "+34 969 22 10 00", "short_name": "Ivo Cuenca", "website": "https://www.ivo.es/atencion-al-paciente/complejo-hospitalario-y-unidades/unidad-de-radioterapia-de-cuenca/"}}, {"name": "Doctora Beatriz Valero", "latitude": 40.0687354, "longitude": -2.1352178, "source": "osm", "_tags": {"addr:city": "Cuenca", "addr:housenumber": "1", "addr:postcode": "16004", "addr:street": "Calle Teruel", "addr:unit": "Bajo", "amenity": "hospital", "email": "beatriz@drabeatrizvalero.com", "healthcare": "hospital", "healthcare:speciality": "cirugía_capilar;medicina_estética;medicina_regenerativa;dietética;antienvejecimiento;alopecia", "name": "Doctora Beatriz Valero", "operator": "Beatriz Valero Serrano", "operator:type": "clínica_privada", "phone": "+34 969 69 25 33", "website": "https://www.drabeatrizvalero.com/", "wheelchair": "yes"}}, {"name": "", "latitude": 40.0767005, "longitude": -2.1480086, "source": "osm", "_tags": {"amenity": "hospital", "building": "yes", "healthcare": "hospital", "source": "PNOA", "source:date": "2009"}}, {"name": "Policlínico hospital Virgen de la Luz", "latitude": 40.0762643, "longitude": -2.1486086, "source": "osm", "_tags": {"amenity": "hospital", "building": "hospital", "building:levels": "4", "healthcare": "hospital", "name": "Policlínico hospital Virgen de la Luz", "nohousenumber": "yes", "source": "PNOA", "source:date": "2009", "wheelchair": "yes"}}, {"name": "Hospital Virgen de la Luz", "latitude": 40.0759399, "longitude": -2.1478263, "source": "osm", "_tags": {"addr:city": "Cuenca", "addr:housenumber": "1", "addr:postcode": "06002", "addr:street": "Calle Hermandad de Donantes de Sangre", "amenity": "hospital", "emergency": "yes", "healthcare": "hospital", "name": "Hospital Virgen de la Luz", "phone": "+34 969 179 900", "website": "http://www.hvluz.es", "wheelchair": "yes", "wikidata": "Q30254320"}}, {"name": "Hospital Universitario de Cuenca", "latitude": 40.0609953, "longitude": -2.1644648, "source": "osm", "_tags": {"amenity": "hospital", "landuse": "residential", "name": "Hospital Universitario de Cuenca", "phone": "+34 969 224 510", "short_name": "HUCU", "website": "https://gaihucu.es/", "wikidata": "Q114352120"}}]