[{"name": "DESA", "latitude": 40.2378569, "longitude": -6.596159, "source": "osm", "_tags": {"amenity": "hospital", "healthcare": "hospital", "name": "DESA"}}, {"name": "Caurium", "latitude": 39.988912, "longitude": -6.5306565, "source": "osm", "_tags": {"addr:city": "Coria", "addr:housenumber": "1", "addr:postcode": "10800", "addr:street": "Calle Brasil", "amenity": "hospital", "building:levels": "3", "healthcare": "hospital", "name": "Caurium"}}, {"name": "Hospital Doutor Aprigio Meireles", "latitude": 39.9250138, "longitude": -7.2406923, "source": "osm", "_tags": {"amenity": "hospital", "building": "yes", "name": "Hospital Doutor Aprigio Meireles"}}, {"name": "Hospital Ciudad de Coria", "latitude": 39.9910301, "longitude": -6.5423893, "source": "osm", "_tags": {"addr:city": "Coria", "addr:housenumber": "75", "addr:postcode": "10800", "addr:street": "Calle Cervantes", "amenity": "hospital", "emergency": "yes", "healthcare": "hospital", "image": "https://commons.wikimedia.org/wiki/File:20221105_180937_Hospital_Coria.jpg", "name": "Hospital Ciudad de Coria", "network": "Serviio Extremeño de Salud", "network:short": "SES", "operator:type": "public", "wikidata": "Q87761649", "wikimedia_commons": "File:20221105_180937_Hospital_Coria.jpg"}}, {"name": "ASTA - Associação Sócio Terapêutica De Almeida", "latitude": 40.5714636, "longitude": -7.0118029, "source": "osm", "_tags": {"addr:city": "Cabreira do Côa", "addr:housenumber": "81", "addr:postcode": "6355-030", "addr:street": "Alto da Fonte Salgueira", "amenity": "hospital", "email": "info@assterapeutica.com", "emergency": "no", "healthcare": "hospital", "name": "ASTA - Associação Sócio Terapêutica De Almeida", "operator": "Maria José Dinis da Fonseca", "operator:type": "private"}}, {"name": "Unidade de Cuidadps Continuados de Almeida", "latitude": 40.7228394, "longitude": -6.9016174, "source": "osm", "_tags": {"amenity": "hospital", "building": "yes", "name": "Unidade de Cuidadps Continuados de Almeida", "type": "multipolygon"}}]