[{"name": "Distretto ASL SA3 di Roccadaspide", "latitude": 40.4256661, "longitude": 15.1921281, "source": "osm", "_tags": {"amenity": "hospital", "healthcare": "hospital", "name": "Distretto ASL SA3 di Roccadaspide"}}, {"name": "Santa Maria della Speranza", "latitude": 40.6150379, "longitude": 14.9726498, "source": "osm", "_tags": {"amenity": "hospital", "healthcare": "hospital", "name": "Santa Maria della Speranza"}}, {"name": "Campolongo Hospital", "latitude": 40.5241118, "longitude": 14.9216431, "source": "osm", "_tags": {"amenity": "hospital", "name": "Campolongo Hospital"}}, {"name": "Guardia Medica", "latitude": 40.0948555, "longitude": 15.4056887, "source": "osm", "_tags": {"amenity": "hospital", "name": "Guardia Medica"}}, {"name": "Guardia Medica Torchiara", "latitude": 40.3179104, "longitude": 15.0609385, "source": "osm", "_tags": {"amenity": "hospital", "emergency": "no", "healthcare": "hospital", "name": "Guardia Medica Torchiara"}}, {"name": "Guardia medica", "latitude": 40.5327462, "longitude": 15.3732292, "source": "osm", "_tags": {"amenity": "hospital", "emergency": "no", "name": "Guardia medica"}}, {"name": "Guardia Medica di Albanella", "latitude": 40.477916, "longitude": 15.1157929, "source": "osm", "_tags": {"addr:city": "Albanella", "addr:housenumber": "116", "addr:postcode": "84044", "addr:street": "Via Roma", "amenity": "hospital", "description": "Punto importante donde puede pedir consejo m√©dico", "healthcare": "hospital", "healthcare:speciality": "general", "name": "Guardia Medica di Albanella"}}, {"name": "Pietra del Sole", "latitude": 40.4930955, "longitude": 15.4148184, "source": "osm", "_tags": {"amenity": "hospital", "healthcare": "hospital", "name": "Pietra del Sole"}}, {"name": "P.S.A.U.T. Capaccio ASL SA3", "latitude": 40.454478, "longitude": 15.004606, "source": "osm", "_tags": {"addr:city": "Capaccio Scalo", "addr:street": "Piazza Santini Carlo", "alt_name": "Guardia Medica di Capaccio", "amenity": "hospital", "healthcare": "hospital", "name": "P.S.A.U.T. Capaccio ASL SA3", "official_name": "Guardia Medica di Capaccio", "operator": "ASL", "operator:wikidata": "Q3631467", "operator:wikipedia": "it:Azienda sanitaria locale"}}, {"name": "", "latitude": 40.6145263, "longitude": 14.9728533, "source": "osm", "_tags": {"amenity": "hospital", "healthcare": "hospital"}}, {"name": "Presidio Ospedaliero \"Maria SS. Addolorata\"", "latitude": 40.6188296, "longitude": 15.050459, "source": "osm", "_tags": {"addr:city": "Eboli", "addr:country": "IT", "addr:street": "Piazza Scuola medica Salernitana", "amenity": "hospital", "email": "poeboli@pec.aslsalerno.it", "healthcare": "hospital", "name": "Presidio Ospedaliero \"Maria SS. Addolorata\"", "phone": "+39 0828 362111"}}, {"name": "Azienda Sanitaria Locale", "latitude": 40.6032323, "longitude": 15.0477993, "source": "osm", "_tags": {"amenity": "hospital", "building": "yes", "healthcare": "hospital", "name": "Azienda Sanitaria Locale", "operator": "ASL", "operator:wikidata": "Q3631467"}}, {"name": "Azienda Sanitaria Locale", "latitude": 40.6677773, "longitude": 15.1014896, "source": "osm", "_tags": {"amenity": "hospital", "building": "yes", "name": "Azienda Sanitaria Locale"}}, {"name": "O.O. R.R. S. Giovanni di Dio e Ruggi D'Aragona", "latitude": 40.6820253, "longitude": 14.7660647, "source": "osm", "_tags": {"amenity": "hospital", "healthcare": "hospital", "name": "O.O. R.R. S. Giovanni di Dio e Ruggi D'Aragona"}}, {"name": "A.S.L.", "latitude": 40.6467504, "longitude": 14.8751889, "source": "osm", "_tags": {"amenity": "hospital", "healthcare": "hospital", "name": "A.S.L.", "operator": "ASL", "operator:wikidata": "Q3631467"}}, {"name": "Presidio ospedaliero Agropoli", "latitude": 40.3412435, "longitude": 14.9970222, "source": "osm", "_tags": {"amenity": "hospital", "building": "yes", "emergency": "yes", "healthcare": "hospital", "name": "Presidio ospedaliero Agropoli", "official_name": "PSAUT di Agropoli", "operator": "PSAUT di Agropoli", "wheelchair": "yes"}}, {"name": "Azienda Sanitaria Locale", "latitude": 40.6148926, "longitude": 15.0673872, "source": "osm", "_tags": {"amenity": "hospital", "building": "yes", "healthcare": "hospital", "name": "Azienda Sanitaria Locale", "operator": "ASL", "operator:wikidata": "Q3631467"}}, {"name": "Ospedale San Luca", "latitude": 40.2258134, "longitude": 15.2624825, "source": "osm", "_tags": {"addr:city": "Vallo della Lucania", "addr:housename": "Ospedale San Luca", "addr:housenumber": "1", "addr:postcode": "84078", "addr:street": "Via Francesco Cammarota", "amenity": "hospital", "building": "yes", "building:levels": "11", "emergency": "yes", "name": "Ospedale San Luca", "phone": "+39 0974 7111111", "wheelchair": "yes"}}, {"name": "Guardia Medica", "latitude": 40.2322165, "longitude": 15.2704829, "source": "osm", "_tags": {"amenity": "hospital", "building": "yes", "name": "Guardia Medica"}}, {"name": "Casa di Cura Cobellis", "latitude": 40.231332, "longitude": 15.2428487, "source": "osm", "_tags": {"addr:city": "Vallo della Lucania", "addr:country": "IT", "addr:place": "Badia", "addr:postcode": "84078", "addr:province": "Salerno", "addr:street": "Contrada Badia", "amenity": "hospital", "building": "hospital", "building:levels": "5", "email": "info@clinicacobellis.it", "fax": "+39 0974 75042", "name": "Casa di Cura Cobellis", "phone": "+39 0974 75888", "website": "https://www.clinicacobellis.it/"}}, {"name": "Asl Salerno Via Leucosia", "latitude": 40.6530475, "longitude": 14.8076828, "source": "osm", "_tags": {"amenity": "hospital", "building": "yes", "emergency": "no", "healthcare": "hospital", "healthcare:speciality": "general", "name": "Asl Salerno Via Leucosia", "operator": "ASL", "operator:type": "public", "operator:wikidata": "Q3631467"}}, {"name": "ASL SA Distretto Sanitario Primario", "latitude": 40.4550869, "longitude": 15.0108504, "source": "osm", "_tags": {"amenity": "hospital", "building": "yes", "healthcare": "hospital", "name": "ASL SA Distretto Sanitario Primario", "operator": "ASL", "operator:wikidata": "Q3631467", "operator:wikipedia": "it:Azienda sanitaria locale"}}, {"name": "Poliambulatorio di Muro Lucano", "latitude": 40.7559039, "longitude": 15.4953032, "source": "osm", "_tags": {"addr:city": "Muro Lucano", "addr:housenumber": "116", "addr:postcode": "85054", "addr:street": "Via San Biagio", "amenity": "hospital", "emergency": "yes", "name": "Poliambulatorio di Muro Lucano"}}, {"name": "Casa di Cura Tortorella", "latitude": 40.6813191, "longitude": 14.7685911, "source": "osm", "_tags": {"addr:city": "Salerno", "addr:housenumber": "1", "addr:postcode": "84124", "addr:street": "Via Nicola Aversano", "amenity": "hospital", "building": "yes", "email": "amministrazione@casadicuratortorella.it", "fax": "+39 089 237081", "name": "Casa di Cura Tortorella", "phone": "+39 089 2578111", "website": "https://www.tortorellaspa.com/"}}, {"name": "San Giovanni di Dio Ruggi d'Aragona", "latitude": 40.6490182, "longitude": 14.8277734, "source": "osm", "_tags": {"alt_name": "Ospedali Riuniti San Giovanni di Dio e Ruggi d'Aragona", "amenity": "hospital", "emergency": "yes", "healthcare": "hospital", "long_name": "OO.RR. San Giovanni di Dio Ruggi d'Aragona - Scuola Medica Salernitana", "name": "San Giovanni di Dio Ruggi d'Aragona", "website": "https://www.sangiovannieruggi.it/", "wikidata": "Q3886686", "wikipedia": "it:Ospedali Riuniti San Giovanni di Dio e Ruggi d'Aragona"}}, {"name": "Villa del Sole - Casa di Cura", "latitude": 40.7001478, "longitude": 14.7755557, "source": "osm", "_tags": {"addr:city": "Salerno", "addr:housenumber": "1", "addr:postcode": "84135", "addr:street": "Via dei Greci", "amenity": "hospital", "healthcare": "hospital", "name": "Villa del Sole - Casa di Cura"}}, {"name": "San Francesco D'Assisi", "latitude": 40.6910424, "longitude": 15.2365623, "source": "osm", "_tags": {"amenity": "hospital", "name": "San Francesco D'Assisi"}}, {"name": "Distretto Santario Vallo della Lucania/Agropoli", "latitude": 40.343896, "longitude": 14.9970173, "source": "osm", "_tags": {"addr:city": "Agropoli", "addr:street": "Via Salvo D'Acquisto", "amenity": "hospital", "healthcare": "hospital", "name": "Distretto Santario Vallo della Lucania/Agropoli", "operator": "ASL", "operator:wikidata": "Q3631467", "operator:wikipedia": "it:Azienda sanitaria locale", "wheelchair": "yes"}}, {"name": "", "latitude": 40.3468094, "longitude": 14.9907592, "source": "osm", "_tags": {"amenity": "hospital", "healthcare": "hospital"}}, {"name": "", "latitude": 40.5176438, "longitude": 15.5000172, "source": "osm", "_tags": {"amenity": "hospital", "healthcare": "hospital"}}, {"name": "Presidio Ospedaliero Polla Sant'Arsenio", "latitude": 40.4653431, "longitude": 15.4786122, "source": "osm", "_tags": {"amenity": "hospital", "name": "Presidio Ospedaliero Polla Sant'Arsenio"}}, {"name": "Ospedale Luigi Curto", "latitude": 40.5176209, "longitude": 15.4999205, "source": "osm", "_tags": {"addr:city": "Polla", "addr:housename": "Ospedale Luigi Curto", "addr:housenumber": "84035", "addr:street": "Via Luigi Curto", "amenity": "hospital", "building": "hospital", "emergency": "yes", "healthcare": "hospital", "name": "Ospedale Luigi Curto", "phone": "+39 0975 373111", "type": "multipolygon"}}]