[{"name": "Centro de especialidades Emigrantes", "latitude": 40.4685882, "longitude": -3.6364048, "source": "osm", "_tags": {"amenity": "hospital", "healthcare": "hospital", "name": "Centro de especialidades Emigrantes", "wheelchair": "yes"}}, {"name": "Hospital Provincial de la Misericordia", "latitude": 39.8603465, "longitude": -4.0139837, "source": "osm", "_tags": {"amenity": "hospital", "healthcare": "hospital", "name": "Hospital Provincial de la Misericordia"}}, {"name": "Centro de Especialidades", "latitude": 40.4645362, "longitude": -3.4728958, "source": "osm", "_tags": {"amenity": "hospital", "emergency": "no", "name": "Centro de Especialidades"}}, {"name": "Centro de salud primaria El Zulema", "latitude": 40.4491236, "longitude": -3.3759529, "source": "osm", "_tags": {"amenity": "hospital", "emergency": "no", "name": "Centro de salud primaria El Zulema", "wheelchair": "yes"}}, {"name": "Gerencia SERMAS", "latitude": 40.4681204, "longitude": -3.7267737, "source": "osm", "_tags": {"amenity": "hospital", "healthcare": "hospital", "name": "Gerencia SERMAS"}}, {"name": "Clínica Dental Dionisio", "latitude": 39.8604991, "longitude": -4.0211326, "source": "osm", "_tags": {"addr:city": "Toledo", "addr:housenumber": "17", "addr:postcode": "45001", "addr:street": "Calle de las Armas", "amenity": "hospital", "emergency": "no", "name": "Clínica Dental Dionisio", "phone": "+34925216425"}}, {"name": "Urgencias", "latitude": 40.4648143, "longitude": -3.4727526, "source": "osm", "_tags": {"amenity": "hospital", "emergency": "yes", "name": "Urgencias"}}, {"name": "Centro médico Costa Rica", "latitude": 40.4592666, "longitude": -3.6689294, "source": "osm", "_tags": {"addr:city": "Madrid", "addr:housenumber": "7", "addr:postcode": "28016", "addr:street": "Plaza de José María Soler", "alt_name": "Milenium Centro Médico Costa Rica", "amenity": "hospital", "healthcare": "hospital", "name": "Centro médico Costa Rica", "operator": "Sanitas", "website": "https://centromedicomilenium-costarica.sanitas.es/"}}, {"name": "Instituto Anatómico Forense", "latitude": 40.4437878, "longitude": -3.7229335, "source": "osm", "_tags": {"addr:housenumber": "9", "addr:street": "Calle del Doctor Severo Ochoa", "amenity": "hospital", "contact:fax": "+34 915 495 474", "contact:phone": "+34 915 441 131", "entrance": "yes", "name": "Instituto Anatómico Forense", "source": "survey", "wheelchair": "no"}}, {"name": "Hospital HM Vallés", "latitude": 40.4829946, "longitude": -3.367335, "source": "osm", "_tags": {"addr:city": "Alcalá de Henares (Madrid)", "addr:housenumber": "14", "addr:street": "Calle de Santiago", "amenity": "hospital", "check_date": "2025-08-29", "healthcare": "hospital", "name": "Hospital HM Vallés", "phone": "+34 91 737 43 53", "website": "https://www.hmhospitales.com/sobre-hm/hospitales-madrid-galicia/hospital-valles-alcala-de-henares", "wikidata": "Q87762133"}}, {"name": "SUMMA112 - SUAP Colmenar Viejo Sur", "latitude": 40.660293, "longitude": -3.7617935, "source": "osm", "_tags": {"amenity": "hospital", "healthcare": "hospital", "name": "SUMMA112 - SUAP Colmenar Viejo Sur"}}, {"name": "Hermanas Hospitalarias", "latitude": 40.2844789, "longitude": -3.9087598, "source": "osm", "_tags": {"addr:city": "Arroyomolinos", "addr:housenumber": "2", "addr:postcode": "28939", "addr:street": "Calle de la Guardia", "amenity": "hospital", "name": "Hermanas Hospitalarias"}}, {"name": "Farmacia Carmen Chacón", "latitude": 40.1582052, "longitude": -3.8768949, "source": "osm", "_tags": {"addr:city": "Ugena", "addr:housenumber": "13", "addr:postcode": "45217", "addr:street": "Calle del Puerto", "amenity": "pharmacy", "healthcare": "hospital", "name": "Farmacia Carmen Chacón"}}, {"name": "Centro de Especialidades González Bueno", "latitude": 40.4234652, "longitude": -3.6271467, "source": "osm", "_tags": {"addr:city": "Madrid", "addr:housenumber": "89", "addr:postcode": "28037", "addr:street": "Calle de los Hermanos García Noblejas", "amenity": "hospital", "healthcare": "hospital", "name": "Centro de Especialidades González Bueno", "operator": "Comunidad de Madrid", "operator:type": "government", "operator:wikidata": "Q578788", "wheelchair": "yes"}}, {"name": "Clínica del Dolor de Madrid", "latitude": 40.4325782, "longitude": -3.7086334, "source": "osm", "_tags": {"addr:city": "Madrid", "addr:country": "ES", "addr:housenumber": "26", "addr:postcode": "28015", "addr:street": "Calle de Vallehermoso", "addr:unit": "bajo derecha", "amenity": "hospital", "healthcare": "hospital", "name": "Clínica del Dolor de Madrid"}}, {"name": "Urgencias Severo Ochoa", "latitude": 40.3194528, "longitude": -3.7691763, "source": "osm", "_tags": {"addr:city": "Leganés", "amenity": "hospital", "healthcare": "hospital", "name": "Urgencias Severo Ochoa"}}, {"name": "Urgencias (Infantil) Severo Ochoa", "latitude": 40.3196696, "longitude": -3.7702062, "source": "osm", "_tags": {"addr:city": "Leganés", "amenity": "hospital", "healthcare": "hospital", "name": "Urgencias (Infantil) Severo Ochoa"}}, {"name": "Consultorio Médico de Camarma de Esteruelas", "latitude": 40.548336, "longitude": -3.378612, "source": "osm", "_tags": {"amenity": "hospital", "healthcare": "hospital", "name": "Consultorio Médico de Camarma de Esteruelas"}}, {"name": "Clínica del Pie Argüelles", "latitude": 40.4320277, "longitude": -3.7180067, "source": "osm", "_tags": {"addr:city": "Madrid", "addr:housenumber": "5", "addr:postcode": "28008", "addr:street": "Calle de Benito Gutiérrez", "amenity": "hospital", "healthcare": "podiatrist", "healthcare:speciality": "podiatrist;podologist", "name": "Clínica del Pie Argüelles", "website": "https://www.clinicadelpiearguelles.es/", "wheelchair": "yes"}}, {"name": "Clínica Madrid Vascular", "latitude": 40.424623, "longitude": -3.6739591, "source": "osm", "_tags": {"addr:city": "Madrid", "addr:housenumber": "16", "addr:postcode": "28009", "addr:street": "Avenida de Felipe II", "amenity": "hospital", "description": "Clínica Madrid Vascular cuenta con unidad vascular, unidad láser y unidad médico estética. Especialistas en tratamientos de varices y tratamientos médico estéticos corporales y faciales.", "healthcare": "centre", "healthcare:speciality": "cirujano_vascular;tratamiento_varices;tratamiento_ulceras_varicoas;tratamientos_estéticos;estética_médica_facial_y_corporal;angiologia", "name": "Clínica Madrid Vascular", "operator": "Clínica Vascular y Médico Estética", "operator:type": "private"}}, {"name": "Centro de Vacunación Internacional", "latitude": 40.4287642, "longitude": -3.6719726, "source": "osm", "_tags": {"check_date": "2025-07-01", "email": "msconsultadelviajero@madrid.es", "healthcare": "hospital", "healthcare:speciality": "vaccination", "name": "Centro de Vacunación Internacional", "website": "https://www.madrid.es/portales/munimadrid/es/Inicio/Servicios-sociales-y-salud/Direcciones-y-telefonos/Centro-Madrid-Salud-Internacional-Centro-de-Vacunacion-Internacional"}}, {"name": "Cruz Roja Ofic. Territorial Hortaleza-Madrid", "latitude": 40.4622031, "longitude": -3.6291778, "source": "osm", "_tags": {"amenity": "hospital", "healthcare": "hospital", "name": "Cruz Roja Ofic. Territorial Hortaleza-Madrid", "operator": "Cruz Roja", "operator:type": "ngo", "operator:wikidata": "Q7178", "operator:wikipedia": "es:Cruz Roja"}}, {"name": "Unidad de donación de sangre del Hospital Puerta de Hierro Majadahonda", "latitude": 40.4499988, "longitude": -3.8722667, "source": "osm", "_tags": {"addr:city": "Majadahonda", "addr:housenumber": "1", "addr:postcode": "28222", "addr:street": "Calle Manuel de Falla", "check_date": "2025-07-21", "healthcare": "hospital", "name": "Unidad de donación de sangre del Hospital Puerta de Hierro Majadahonda", "operator": "Comunidad de Madrid", "phone": "+34 911916428", "website": "https://www.comunidad.madrid/hospital/puertadehierro/"}}, {"name": "Rehabilitación unidad del dolor", "latitude": 40.4499213, "longitude": -3.8757921, "source": "osm", "_tags": {"addr:city": "Majadahonda", "addr:housenumber": "1", "addr:postcode": "28222", "addr:street": "Calle Joaquín Rodrigo", "check_date": "2025-07-21", "description": "El Servicio de Rehabilitación del Hospital Universitario Puerta de Hierro inició su andadura en 1964. Tiene como objetivo devolver a las personas el máximo grado posible de capacidad funcional e independencia, mediante el diagnóstico, evaluación...", "healthcare": "hospital", "name": "Rehabilitación unidad del dolor", "operator": "Comunidad de Madrid", "phone": "+34 911916428", "website": "https://www.comunidad.madrid/hospital/puertadehierro/profesionales/area-medica/rehabilitacion"}}, {"name": "RB Dental", "latitude": 39.8823109, "longitude": -4.0301911, "source": "osm", "_tags": {"addr:city": "Toledo", "addr:housenumber": "24", "addr:postcode": "45005", "addr:street": "Avenida de Irlanda", "amenity": "hospital", "healthcare": "dentist", "healthcare:speciality": "dentist", "name": "RB Dental", "opening_hours": "Mo-Fr 10:00-14:00,16:00-20:00", "operator": "Rb Dental", "operator:type": "private", "phone": "+34 925 28 10 08", "website": "https://www.rbdental.es/clinica-toledo"}}, {"name": "Hospital Policlínico La Paloma", "latitude": 40.4595028, "longitude": -3.4783586, "source": "osm", "_tags": {"amenity": "hospital", "name": "Hospital Policlínico La Paloma", "source": "survey"}}, {"name": "", "latitude": 40.4441592, "longitude": -3.7139113, "source": "osm", "_tags": {"addr:housenumber": "8", "amenity": "hospital"}}, {"name": "Centro de salud Segre", "latitude": 40.4512567, "longitude": -3.6853522, "source": "osm", "_tags": {"amenity": "hospital", "healthcare": "hospital", "name": "Centro de salud Segre", "operator": "Comunidad de Madrid", "operator:type": "government", "operator:wikidata": "Q578788"}}, {"name": "Centro de Salud Mental Majadahonda", "latitude": 40.4764191, "longitude": -3.8680057, "source": "osm", "_tags": {"addr:city": "Majadahonda", "addr:housenumber": "1", "addr:postcode": "28220", "addr:street": "Calle Costa Rica", "amenity": "clinic", "check_date:opening_hours": "2025-05-20", "healthcare": "hospital", "healthcare:speciality": "psychiatry", "mapillary": "2040137816478941", "name": "Centro de Salud Mental Majadahonda", "opening_hours:signed": "no", "operator": "Comunidad de Madrid", "operator:type": "government", "operator:wikidata": "Q578788", "phone": "+34 91 634 71 54", "website": "https://www.comunidad.madrid/centros/centro-salud-mental-majadahonda", "wheelchair": "yes", "wikidata": "Q578788"}}, {"name": "HOSPITAL SOLIMAT", "latitude": 39.8693797, "longitude": -4.040736, "source": "osm", "_tags": {"addr:city": "Toledo", "addr:housenumber": "35", "addr:postcode": "45004", "addr:street": "Calle de San Pedro el Verde", "amenity": "hospital", "emergency": "yes", "healthcare": "hospital", "name": "HOSPITAL SOLIMAT", "operator": "Mutua Colaboradora", "wheelchair": "yes"}}, {"name": "Villafranca dental", "latitude": 40.4656639, "longitude": -3.9494963, "source": "osm", "_tags": {"addr:city": "Villanueva de la Cañada", "addr:housenumber": "1", "addr:postcode": "28692", "addr:street": "Calle del Valle de Esteribar", "amenity": "hospital", "currency:ETH": "yes", "currency:USDT": "yes", "currency:XBT": "yes", "description": "Dentista en Villafranca del Castillo. Clinica dental en Villafranca del Castillo. Ortodoncia, Estetica dental, Endodoncia e Implantologia dental.", "emergency": "yes", "healthcare": "hospital", "healthcare:speciality": "dentist;orthodontics;general", "internet_access": "wlan", "name": "Villafranca dental", "opening_hours": "Mo-Su 10:00-22:00", "payment:american_express": "yes", "payment:cash": "yes", "payment:coins": "yes", "payment:contactless": "yes", "payment:credit_cards": "yes", "payment:cryptocurrencies": "yes", "payment:debit_cards": "yes", "payment:lightning": "yes", "payment:maestro": "yes", "payment:mastercard": "yes", "payment:mastercard_contactless": "yes", "payment:onchain": "yes", "payment:visa": "yes", "payment:visa_debit": "yes", "payment:visa_electron": "yes", "phone": "+34918102628", "survey:date": "2025-02-19", "website": "https://www.villafrancadental.es", "wheelchair": "yes"}}, {"name": "Hospital Sanitas Valdebebas", "latitude": 40.4928222, "longitude": -3.606016, "source": "osm", "_tags": {"addr:housenumber": "66", "addr:postcode": "28055", "addr:street": "Calle de Gustavo Pérez Puig", "amenity": "hospital", "name": "Hospital Sanitas Valdebebas", "opening_hours": "24/7", "website": "https://sanitas.es"}}, {"name": "Centro de salud Los Alpes", "latitude": 40.4279038, "longitude": -3.6041263, "source": "osm", "_tags": {"amenity": "clinic", "healthcare": "hospital", "name": "Centro de salud Los Alpes"}}, {"name": "Hospital Carlos III", "latitude": 40.4750989, "longitude": -3.6963786, "source": "osm", "_tags": {"amenity": "hospital", "healthcare": "hospital", "name": "Hospital Carlos III", "operator": "Comunidad de Madrid", "operator:type": "government", "phone": "+34 91 453 25 00", "website": "https://www.comunidad.madrid/hospital/lapaz/nosotros/hospital-carlos-iii", "wikidata": "Q18200522", "wikipedia": "es:Hospital Carlos III"}}, {"name": "Clínica Ruber Internacional", "latitude": 40.489705, "longitude": -3.7155905, "source": "osm", "_tags": {"amenity": "hospital", "healthcare": "hospital", "name": "Clínica Ruber Internacional"}}, {"name": "Clínica Cemtro", "latitude": 40.4939962, "longitude": -3.7169567, "source": "osm", "_tags": {"amenity": "hospital", "healthcare": "hospital", "name": "Clínica Cemtro", "wikidata": "Q87762112"}}, {"name": "Hospital de la Zarzuela", "latitude": 40.4625907, "longitude": -3.7851664, "source": "osm", "_tags": {"amenity": "hospital", "healthcare": "hospital", "name": "Hospital de la Zarzuela"}}, {"name": "Hospital Montepríncipe", "latitude": 40.414349, "longitude": -3.8449123, "source": "osm", "_tags": {"amenity": "hospital", "barrier": "fence", "healthcare": "hospital", "name": "Hospital Montepríncipe", "toilets:wheelchair": "yes", "wheelchair": "yes"}}, {"name": "Hospital San Rafael", "latitude": 40.45246, "longitude": -3.6818172, "source": "osm", "_tags": {"amenity": "hospital", "building": "hospital", "healthcare": "hospital", "name": "Hospital San Rafael", "name:etymology:wikidata": "Q5902892", "phone": "+34 915 649 944", "website": "https://www.hospitalsanrafael.es/", "wikidata": "Q5902892", "wikipedia": "es:Hospital San Rafael (Madrid)"}}, {"name": "Hospital Universitario 12 de Octubre", "latitude": 40.3762219, "longitude": -3.6984678, "source": "osm", "_tags": {"amenity": "hospital", "emergency": "yes", "healthcare": "hospital", "name": "Hospital Universitario 12 de Octubre", "operator": "Comunidad de Madrid", "operator:type": "government", "operator:wikidata": "Q578788", "wikidata": "Q5902531", "wikipedia": "es:Hospital 12 de Octubre"}}, {"name": "CHUMED - Hospital Universitario de la UCJC", "latitude": 40.4151079, "longitude": -3.8436986, "source": "osm", "_tags": {"amenity": "hospital", "barrier": "fence", "name": "CHUMED - Hospital Universitario de la UCJC", "wheelchair": "yes"}}, {"name": "Centro de Salud Mejorada del Campo", "latitude": 40.396861, "longitude": -3.4822982, "source": "osm", "_tags": {"addr:housenumber": "22", "addr:street": "Calle de la Ciudad de París", "amenity": "hospital", "building": "yes", "name": "Centro de Salud Mejorada del Campo", "opening_hours": "Mo-Fr 08:30-20:30; Sa-Su", "source": "PNOA"}}, {"name": "Hospital Universitario de Getafe", "latitude": 40.3126577, "longitude": -3.7426086, "source": "osm", "_tags": {"amenity": "hospital", "healthcare": "hospital", "name": "Hospital Universitario de Getafe", "operator": "Comunidad de Madrid", "wikidata": "Q5903026", "wikipedia": "es:Hospital de Getafe"}}, {"name": "Centro de Salud San Juan de la Cruz", "latitude": 40.4305663, "longitude": -3.8144506, "source": "osm", "_tags": {"addr:postcode": "28223", "addr:street": "Calle San Juan de la Cruz", "amenity": "hospital", "healthcare": "hospital", "name": "Centro de Salud San Juan de la Cruz", "opening_hours": "Mo-Fr 08:00-21:00", "phone": "+34 913 52 47 47", "source": "PNOA", "source:date": "2009", "website": "http://madrid.org/", "wheelchair": "yes"}}, {"name": "Ambulatorio de Aguacate", "latitude": 40.372557, "longitude": -3.7479305, "source": "osm", "_tags": {"amenity": "hospital", "healthcare": "clinic", "name": "Ambulatorio de Aguacate", "wheelchair": "yes"}}, {"name": "Fundación Instituto San José", "latitude": 40.3633029, "longitude": -3.773536, "source": "osm", "_tags": {"addr:city": "Madrid", "addr:housenumber": "98", "addr:postcode": "28054", "addr:street": "Calle del Pinar de San José", "amenity": "hospital", "healthcare": "hospital", "healthcare:speciality": "geriatrics;psychiatry", "name": "Fundación Instituto San José", "url": "http://www.fundacioninstitutosanjose.es/", "wikidata": "Q87762040"}}, {"name": "Clínica Ruber Juan Bravo", "latitude": 40.4330232, "longitude": -3.6760599, "source": "osm", "_tags": {"amenity": "hospital", "building": "hospital", "healthcare": "hospital", "name": "Clínica Ruber Juan Bravo", "phone": "+34 910 68 79 99", "website": "https://www.ruber.es/", "wheelchair": "yes"}}, {"name": "Hospital Universitario de Móstoles", "latitude": 40.3158052, "longitude": -3.8775275, "source": "osm", "_tags": {"amenity": "hospital", "emergency": "yes", "healthcare": "hospital", "name": "Hospital Universitario de Móstoles", "operator": "Comunidad de Madrid", "operator:type": "government", "operator:wikidata": "Q578788", "url": "http://www.madrid.org/cs/Satellite?pagename=HospitalMostoles/Page/HMOS_home", "wheelchair": "yes", "wikidata": "Q120484359"}}, {"name": "Centro de Salud de Paracuellos de Jarama", "latitude": 40.5065002, "longitude": -3.5320642, "source": "osm", "_tags": {"addr:country": "ES", "amenity": "hospital", "emergency": "yes", "emergency_telephone_code": "112", "healthcare": "hospital", "name": "Centro de Salud de Paracuellos de Jarama", "wheelchair": "yes"}}, {"name": "Hospital Universitario Príncipe de Asturias", "latitude": 40.510273, "longitude": -3.3475898, "source": "osm", "_tags": {"amenity": "hospital", "barrier": "fence", "emergency": "yes", "healthcare": "hospital", "name": "Hospital Universitario Príncipe de Asturias", "name:etymology:wikidata": "Q5902957", "operator": "Comunidad de Madrid", "operator:type": "government", "source": "PNOA", "source:date": "2009", "wikidata": "Q5902957", "wikipedia": "es:Hospital Universitario Príncipe de Asturias"}}, {"name": "Centro de Salud Miguel Servet", "latitude": 40.3476728, "longitude": -3.8337749, "source": "osm", "_tags": {"amenity": "hospital", "building": "yes", "emergency": "no", "healthcare": "hospital", "name": "Centro de Salud Miguel Servet"}}, {"name": "Hospital de Majadahonda FREMAP", "latitude": 40.4506228, "longitude": -3.8508908, "source": "osm", "_tags": {"addr:city": "Majadahonda", "addr:housenumber": "61", "addr:postcode": "28221", "addr:street": "Carretera de Pozuelo a Majadahonda", "amenity": "hospital", "emergency": "yes", "healthcare": "hospital", "name": "Hospital de Majadahonda FREMAP", "opening_hours": "24/7", "operator": "FREMAP", "operator:type": "private", "phone": "+34 91 626 56 80", "website": "https://www.fremap.es/Conocenos/CentrosInstalaciones/Paginas/DetalleCentro.aspx?idCentro=1057", "wheelchair": "yes"}}, {"name": "Hospital Universitario de Fuenlabrada.", "latitude": 40.2870104, "longitude": -3.8160024, "source": "osm", "_tags": {"addr:city": "Fuenlabrada", "addr:country": "ES", "addr:housenumber": "2", "addr:street": "Camino del Molino", "amenity": "hospital", "barrier": "fence", "emergency": "yes", "healthcare": "hospital", "name": "Hospital Universitario de Fuenlabrada.", "operator": "Comunidad de Madrid.", "source": "PNOA", "source:date": "2009", "wikidata": "Q30253911"}}, {"name": "Centro de Salud Cerro del Aire", "latitude": 40.4768223, "longitude": -3.8681379, "source": "osm", "_tags": {"amenity": "clinic", "building": "yes", "check_date": "2024-07-25", "description": "Presta atención continuada como centro de continuidad de cuidados de enfermería sábados, domingos y festivos de 9 a 21 horas. El centro está autorizado para el otorgamiento y solicitud de registro del documento de Instrucciones Previas.", "healthcare": "hospital", "healthcare:speciality": "general;psychiatry;paediatrics;blood_check", "mapillary": "2236190063504124", "name": "Centro de Salud Cerro del Aire", "opening_hours": "Mo-Fr 08:00-21:00; Sa-Su off", "operator": "Comunidad de Madrid", "operator:type": "government", "operator:wikidata": "Q578788", "phone": "+34 91 639 03 19", "website": "https://www.comunidad.madrid/centros/centro-salud-cerro-aire", "wheelchair": "yes", "wikidata": "Q578788"}}, {"name": "Clínica MAZ", "latitude": 40.4345238, "longitude": -3.629822, "source": "osm", "_tags": {"addr:city": "Madrid", "addr:country": "ES", "addr:housenumber": "25", "addr:postcode": "28037", "addr:street": "Calle de Julián Camarillo", "amenity": "hospital", "building": "hospital", "healthcare": "hospital", "name": "Clínica MAZ"}}, {"name": "Hospital de la Venerable Orden Tercera de San Francisco", "latitude": 40.4087477, "longitude": -3.7140882, "source": "osm", "_tags": {"amenity": "hospital", "healthcare": "hospital", "name": "Hospital de la Venerable Orden Tercera de San Francisco"}}, {"name": "Ciudad Sanitaria La Paz", "latitude": 40.4814638, "longitude": -3.6873012, "source": "osm", "_tags": {"addr:city": "Madrid", "addr:housenumber": "261", "addr:postcode": "28046", "addr:street": "Paseo de la Castellana", "alt_name": "Hospital Universitario La Paz", "amenity": "hospital", "emergency": "yes", "healthcare": "hospital", "name": "Ciudad Sanitaria La Paz", "operator": "Comunidad de Madrid", "operator:type": "government", "operator:wikidata": "Q578788", "phone": "+34 91 727 70 00", "website": "https://www.comunidad.madrid/hospital/lapaz/", "wikidata": "Q5902951", "wikipedia": "es:Hospital Universitario La Paz"}}, {"name": "Centro de Salud Sánchez Morate", "latitude": 40.3131693, "longitude": -3.7228613, "source": "osm", "_tags": {"amenity": "hospital", "emergency": "no", "healthcare": "hospital", "name": "Centro de Salud Sánchez Morate"}}, {"name": "Centro de Cuidados paliativos Laguna", "latitude": 40.400721, "longitude": -3.7471455, "source": "osm", "_tags": {"amenity": "hospital", "healthcare": "hospital", "name": "Centro de Cuidados paliativos Laguna"}}, {"name": "Centro de Especialidades Avenida de Portugal", "latitude": 40.4109266, "longitude": -3.7379254, "source": "osm", "_tags": {"alt_name": "Ambulatorio Avda. Portugal", "amenity": "hospital", "healthcare": "hospital", "name": "Centro de Especialidades Avenida de Portugal", "website": "https://www.comunidad.madrid/centros/centro-especialidades-periferico-avenida-portugal"}}, {"name": "Hospital Infanta Elena", "latitude": 40.1991997, "longitude": -3.6977082, "source": "osm", "_tags": {"amenity": "hospital", "designation": "Public hospital", "emergency": "yes", "healthcare": "hospital", "name": "Hospital Infanta Elena", "operator": "Comunidad de Madrid.", "url": "http://www.capiosanidad.es/centros/valdemoro/", "wikidata": "Q5902699", "wikipedia": "es:Hospital Infanta Elena (Valdemoro)"}}, {"name": "Hospital Madrid - Torrelodones", "latitude": 40.5705564, "longitude": -3.9260981, "source": "osm", "_tags": {"amenity": "hospital", "building": "hospital", "building:levels": "4", "emergency": "yes", "healthcare": "hospital", "name": "Hospital Madrid - Torrelodones", "operator": "HM Hospitales", "operator:type": "private", "operator:wikidata": "Q30287140", "wikidata": "Q5903040", "wikipedia": "es:Hospital de Madrid Torrelodones"}}, {"name": "Centro de Salud Loranca-Nuevos Versalles", "latitude": 40.2972862, "longitude": -3.8363381, "source": "osm", "_tags": {"amenity": "hospital", "emergency": "no", "healthcare": "hospital", "name": "Centro de Salud Loranca-Nuevos Versalles"}}, {"name": "Hospital Universitario de Toledo", "latitude": 39.8594495, "longitude": -3.9608333, "source": "osm", "_tags": {"amenity": "hospital", "healthcare": "hospital", "name": "Hospital Universitario de Toledo", "wikidata": "Q88372754"}}, {"name": "Clínica Asepeyo", "latitude": 40.4361658, "longitude": -3.5314989, "source": "osm", "_tags": {"amenity": "hospital", "building": "yes", "emergency": "yes", "name": "Clínica Asepeyo"}}, {"name": "Hospital Rey Juan Carlos I", "latitude": 40.339198, "longitude": -3.8702237, "source": "osm", "_tags": {"addr:city": "Móstoles", "addr:postcode": "28933", "addr:street": "Calle Gladiolo", "amenity": "hospital", "emergency": "yes", "healthcare": "hospital", "name": "Hospital Rey Juan Carlos I", "operator": "Comunidad de Madrid", "operator:type": "government", "operator:wikidata": "Q578788"}}, {"name": "Hospital Virgen del Valle", "latitude": 39.8436211, "longitude": -4.0212666, "source": "osm", "_tags": {"amenity": "hospital", "building": "yes", "emergency": "yes", "healthcare": "hospital", "name": "Hospital Virgen del Valle", "wikidata": "Q30254330"}}, {"name": "Sanatorio Psiquiátrico Esquerdo", "latitude": 40.3818534, "longitude": -3.7593246, "source": "osm", "_tags": {"amenity": "hospital", "barrier": "fence", "healthcare": "hospital", "healthcare:speciality": "psychiatry", "name": "Sanatorio Psiquiátrico Esquerdo", "website": "http://www.sanatorioesquerdo.com/", "wheelchair": "yes"}}, {"name": "Hospital Universitario HM Madrid", "latitude": 40.4312748, "longitude": -3.7066322, "source": "osm", "_tags": {"addr:housenumber": "16", "addr:street": "Plaza del Conde del Valle de Suchil", "amenity": "hospital", "building": "hospital", "healthcare": "hospital", "name": "Hospital Universitario HM Madrid", "old_name": "Hospital de San Pedro", "website": "https://www.hmmadrid.com/"}}, {"name": "Hospital de Guadarrama.", "latitude": 40.6694125, "longitude": -4.0860551, "source": "osm", "_tags": {"addr:city": "Guadarrama", "addr:housenumber": "2", "addr:postcode": "28440", "addr:street": "Paseo Molino del Rey", "amenity": "hospital", "barrier": "fence", "healthcare": "hospital", "name": "Hospital de Guadarrama.", "operator": "Comunidad de Madrid.", "operator:type": "government", "phone": "+34 918 56 20 03", "website": "https://www.comunidad.madrid/hospital/guadarrama/", "wikidata": "Q28735075"}}, {"name": "Centro de Salud Oficios", "latitude": 40.6063845, "longitude": -3.712478, "source": "osm", "_tags": {"addr:city": "Tres Cantos", "addr:housenumber": "12", "addr:postcode": "28760", "addr:street": "Sector Oficios", "amenity": "hospital", "healthcare": "hospital", "name": "Centro de Salud Oficios", "wheelchair": "yes"}}, {"name": "Hospital Universitario HM Sanchinarro", "latitude": 40.4905558, "longitude": -3.6671613, "source": "osm", "_tags": {"amenity": "hospital", "healthcare": "hospital", "name": "Hospital Universitario HM Sanchinarro", "phone": "+34 91 756 78 00", "website": "https://www.hmhospitales.com/sobre-hm/hospitales-madrid-galicia/hospital-sanchinarro-madrid", "wikidata": "Q43896419"}}, {"name": "Centro de Salud Arroyo de la Vega", "latitude": 40.5379458, "longitude": -3.631183, "source": "osm", "_tags": {"amenity": "hospital", "healthcare": "hospital", "name": "Centro de Salud Arroyo de la Vega", "source": "Catastro"}}, {"name": "Sede Cruz Roja Española", "latitude": 40.4475574, "longitude": -3.709241, "source": "osm", "_tags": {"addr:city": "Madrid", "addr:country": "ES", "addr:postcode": "28003", "addr:street": "Avenida de la Reina Victoria", "amenity": "hospital", "check_date": "2024-09-19", "healthcare": "hospital", "name": "Sede Cruz Roja Española", "operator": "Cruz Roja Española", "source": "local_knowledge"}}, {"name": "Centro de Salud Marqués de la Valdavia", "latitude": 40.5447967, "longitude": -3.6457966, "source": "osm", "_tags": {"amenity": "hospital", "healthcare": "hospital", "name": "Centro de Salud Marqués de la Valdavia"}}, {"name": "Hospital Universitario San Rafael", "latitude": 40.4511129, "longitude": -3.6801174, "source": "osm", "_tags": {"addr:city": "Madrid", "addr:country": "ES", "addr:housenumber": "199", "addr:postcode": "28016", "addr:street": "Calle de Serrano", "amenity": "hospital", "disused:amenity": "school", "healthcare": "hospital", "name": "Hospital Universitario San Rafael", "old_name": "Colegio Alemán de Madrid", "old_name:de": "Deutsche Schule Madrid", "operator": "Orden Hospitalaria de San Juan de Dios", "operator:type": "private_non_profit", "operator:wikidata": "Q808386", "phone": "+34 91 564 99 43", "website": "https://www.hospitalsanrafael.es/", "wikidata": "Q5902892", "wikipedia": "es:Hospital San Rafael (Madrid)"}}, {"name": "Instituto Psiquiátrico José Germain.", "latitude": 40.3269939, "longitude": -3.7669083, "source": "osm", "_tags": {"amenity": "hospital", "healthcare": "hospital", "name": "Instituto Psiquiátrico José Germain.", "operator": "Comunidad de Madrid", "operator:type": "government", "operator:wikidata": "Q578788", "wikidata": "Q87762140", "wikipedia": "es:Hospital psiquiátrico de Leganés"}}, {"name": "Centro de Salud de Torrejón de Velasco", "latitude": 40.1870877, "longitude": -3.7803151, "source": "osm", "_tags": {"addr:city": "Torrejón de Velasco", "addr:country": "ES", "addr:postcode": "28990", "addr:street": "Calle del Hospital", "amenity": "hospital", "building": "yes", "name": "Centro de Salud de Torrejón de Velasco", "nohousenumber": "yes"}}, {"name": "Instituto Galene de Psicoterapia", "latitude": 40.4594075, "longitude": -3.6536821, "source": "osm", "_tags": {"addr:city": "Madrid", "addr:housenumber": "17", "addr:postcode": "28043", "addr:street": "Calle del Alba", "amenity": "hospital", "building": "yes", "healthcare": "hospital", "name": "Instituto Galene de Psicoterapia", "phone": "+34 913 000 645"}}, {"name": "Hospital Beata María Ana", "latitude": 40.4181212, "longitude": -3.6679977, "source": "osm", "_tags": {"amenity": "hospital", "barrier": "wall", "healthcare": "hospital", "name": "Hospital Beata María Ana", "operator": "Hermanas Hospitalarias", "wikidata": "Q87762029"}}, {"name": "Hospital La Luz", "latitude": 40.4441425, "longitude": -3.7137323, "source": "osm", "_tags": {"addr:city": "Madrid", "addr:housenumber": "8", "addr:postcode": "28003", "addr:street": "Calle del Maestro Ángel Llorca", "addr:ward": "Vallehermoso", "alt_name": "Clínica La Luz;Hospital Universitario La Luz", "amenity": "hospital", "building": "hospital", "emergency": "yes", "name": "Hospital La Luz", "phone": "+34 91 453 03 03", "website": "https://www.quironsalud.es/hospital-la-luz", "wheelchair": "yes", "wikidata": "Q30280196"}}, {"name": "Hospital General Universitario Gregorio Marañón.", "latitude": 40.4196605, "longitude": -3.6711734, "source": "osm", "_tags": {"amenity": "hospital", "emergency": "yes", "healthcare": "hospital", "name": "Hospital General Universitario Gregorio Marañón.", "old_name": "Ciudad Sanitaria Provincial Francisco Franco", "operator": "Comunidad de Madrid", "wikidata": "Q30253672", "wikipedia": "es:Hospital General Universitario Gregorio Marañón"}}, {"name": "Hospital Infantil Universitario del Niño Jesús.", "latitude": 40.4142916, "longitude": -3.676131, "source": "osm", "_tags": {"amenity": "hospital", "healthcare": "hospital", "name": "Hospital Infantil Universitario del Niño Jesús.", "name:etymology:wikidata": "Q5902707", "operator": "Comunidad de Madrid", "website": "https://www.comunidad.madrid/hospital/ninojesus/", "wikidata": "Q5902707", "wikipedia": "es:Hospital Infantil Universitario Niño Jesús"}}, {"name": "Centro de Salud El Greco", "latitude": 40.298488, "longitude": -3.7368132, "source": "osm", "_tags": {"amenity": "hospital", "healthcare": "hospital", "name": "Centro de Salud El Greco", "wikidata": "Q5761974", "wikipedia": "es:Centro de Salud El Greco (Getafe)"}}, {"name": "Centro San Juan de Dios", "latitude": 40.1617975, "longitude": -3.6145099, "source": "osm", "_tags": {"amenity": "hospital", "name": "Centro San Juan de Dios", "wikidata": "Q87762069"}}, {"name": "Complejo Asistencial Benito Menni", "latitude": 40.1565332, "longitude": -3.6175432, "source": "osm", "_tags": {"amenity": "hospital", "healthcare": "hospital", "name": "Complejo Asistencial Benito Menni", "wikidata": "Q28733411"}}, {"name": "Centro de Salud Dos de Mayo", "latitude": 40.3189566, "longitude": -3.8718407, "source": "osm", "_tags": {"amenity": "hospital", "building": "hospital", "emergency": "no", "healthcare": "hospital", "name": "Centro de Salud Dos de Mayo", "opening_hours": "Mo-Fr 08:30-20:00; Sa,Su 08:00-15:00; PH off"}}, {"name": "Centro de Especialidades Coronel de Palma", "latitude": 40.318747, "longitude": -3.87173, "source": "osm", "_tags": {"amenity": "hospital", "building": "hospital", "emergency": "no", "healthcare": "hospital", "name": "Centro de Especialidades Coronel de Palma", "opening_hours": "Mo-Fr 08:30-20:00; Sa,Su 08:00-15:00; PH off"}}, {"name": "Hospital Central de la Cruz Roja San José y Santa Adela", "latitude": 40.4479879, "longitude": -3.7076708, "source": "osm", "_tags": {"addr:city": "Madrid", "addr:country": "ES", "addr:housenumber": "22", "addr:postcode": "28003", "addr:street": "Avenida de la Reina Victoria", "amenity": "hospital", "healthcare": "hospital", "name": "Hospital Central de la Cruz Roja San José y Santa Adela", "name:etymology:wikidata": "Q12176313", "operator": "Comunidad de Madrid", "operator:type": "government", "phone": "+34 914538300", "website": "https://www.comunidad.madrid/hospital/cruzroja/", "wikidata": "Q12176313", "wikipedia": "es:Hospital Central de la Cruz Roja San José y Santa Adela"}}, {"name": "Complejo Hopitaliario Provincial de Toledo", "latitude": 39.8604645, "longitude": -4.0132739, "source": "osm", "_tags": {"amenity": "hospital", "emergency": "yes", "healthcare": "hospital", "name": "Complejo Hopitaliario Provincial de Toledo"}}, {"name": "Hospital Universitario La Moraleja Sanitas", "latitude": 40.4923127, "longitude": -3.6630331, "source": "osm", "_tags": {"addr:city": "Madrid", "addr:housenumber": "81", "addr:postcode": "28050", "addr:street": "Avenida de Francisco Pi y Margall", "amenity": "hospital", "check_date": "2024-09-19", "emergency": "yes", "healthcare": "hospital", "name": "Hospital Universitario La Moraleja Sanitas", "operator": "Sanitas", "operator:type": "private", "website": "https://www.hospitallamoraleja.es/es/"}}, {"name": "Hospital de Cantoblanco", "latitude": 40.5395105, "longitude": -3.6931283, "source": "osm", "_tags": {"amenity": "hospital", "barrier": "wall", "healthcare": "hospital", "height": "3", "name": "Hospital de Cantoblanco", "operator": "Comunidad de Madrid", "operator:type": "government", "phone": "+34 91 586 75 56", "website": "https://www.comunidad.madrid/hospital/lapaz/hospital-cantoblanco", "wikidata": "Q87762013"}}, {"name": "Centro de Salud Miraflores", "latitude": 40.5476252, "longitude": -3.6372184, "source": "osm", "_tags": {"amenity": "hospital", "healthcare": "hospital", "name": "Centro de Salud Miraflores"}}, {"name": "Centro de Salud \"La Chopera\"", "latitude": 40.5406135, "longitude": -3.6397977, "source": "osm", "_tags": {"alt_name": "Centro de Salud La Chopera", "amenity": "hospital", "building": "yes", "healthcare": "hospital", "name": "Centro de Salud \"La Chopera\""}}, {"name": "Centro de Salud \"Rosa Luxemburgo\"", "latitude": 40.5591286, "longitude": -3.6324298, "source": "osm", "_tags": {"amenity": "hospital", "check_date": "2024-07-15", "healthcare": "hospital", "name": "Centro de Salud \"Rosa Luxemburgo\""}}, {"name": "Quirón San José", "latitude": 40.4402708, "longitude": -3.6744495, "source": "osm", "_tags": {"addr:city": "Madrid", "addr:housenumber": "111", "addr:postcode": "28002", "addr:street": "Calle de Cartagena", "amenity": "hospital", "building": "hospital", "check_date": "2024-04-16", "healthcare": "hospital", "name": "Quirón San José", "operator": "Quirónsalud", "operator:wikidata": "Q5886225", "phone": "+34 902 02 47 47", "website": "http://www.quiron.es/es/madrid_san_jose"}}, {"name": "Hospital Ruber Juan Bravo", "latitude": 40.432746, "longitude": -3.6776665, "source": "osm", "_tags": {"addr:housenumber": "39", "addr:street": "Calle de Juan Bravo", "amenity": "hospital", "building": "hospital", "building:levels": "8", "healthcare": "hospital", "name": "Hospital Ruber Juan Bravo", "phone": "+34 914 026 100", "website": "https://www.ruber.es/", "wheelchair": "yes"}}, {"name": "Centro de Salud de Serranillos del Valle", "latitude": 40.2043687, "longitude": -3.880796, "source": "osm", "_tags": {"amenity": "hospital", "healthcare": "hospital", "name": "Centro de Salud de Serranillos del Valle"}}, {"name": "Hospital Vithas Madrid Aravaca", "latitude": 40.4671554, "longitude": -3.7837398, "source": "osm", "_tags": {"addr:city": "Madrid", "addr:housenumber": "12", "addr:postcode": "28023", "addr:street": "Calle de la Salle", "amenity": "hospital", "barrier": "fence", "emergency": "yes", "healthcare": "hospital", "name": "Hospital Vithas Madrid Aravaca", "operator": "Vithas", "operator:type": "private", "wheelchair": "yes"}}, {"name": "Asepeyo", "latitude": 40.4365555, "longitude": -3.6771195, "source": "osm", "_tags": {"amenity": "hospital", "building": "yes", "healthcare": "hospital", "name": "Asepeyo", "wheelchair": "yes"}}, {"name": "Hospital Universitario HM Puerta del Sur", "latitude": 40.3150012, "longitude": -3.8598804, "source": "osm", "_tags": {"addr:city": "Móstoles", "addr:housenumber": "70", "addr:postcode": "28938", "addr:street": "Avenida de Carlos V", "amenity": "hospital", "emergency": "yes", "healthcare": "hospital", "name": "Hospital Universitario HM Puerta del Sur", "operator": "HM hospitales", "operator:type": "private", "toilets:wheelchair": "yes", "wheelchair": "yes", "wikidata": "Q43896364"}}, {"name": "Consultorio Local", "latitude": 40.587582, "longitude": -3.2989176, "source": "osm", "_tags": {"addr:city": "Villanueva de la Torre", "addr:housenumber": "2", "addr:postcode": "19209", "addr:street": "Calle Acacias", "amenity": "clinic", "healthcare": "hospital", "name": "Consultorio Local", "operator": "Sescam", "phone": "+34 949265533", "website": "http://sescam.castillalamancha.es/ciudadanos/centros/villanueva-de-la-torre"}}, {"name": "", "latitude": 40.4401828, "longitude": -3.6965448, "source": "osm", "_tags": {"amenity": "hospital", "healthcare": "hospital"}}, {"name": "Clínica López Ibor", "latitude": 40.4688122, "longitude": -3.7250759, "source": "osm", "_tags": {"amenity": "hospital", "healthcare": "hospital", "name": "Clínica López Ibor"}}, {"name": "Hospital San Francisco de Asís", "latitude": 40.4426392, "longitude": -3.6837791, "source": "osm", "_tags": {"addr:city": "Madrid", "addr:housenumber": "28", "addr:postcode": "28002", "addr:street": "Calle de Joaquín Costa", "amenity": "hospital", "healthcare": "hospital", "name": "Hospital San Francisco de Asís", "wikidata": "Q87798347"}}, {"name": "Clínica Fuensanta", "latitude": 40.4400668, "longitude": -3.6402773, "source": "osm", "_tags": {"addr:city": "Madrid", "addr:country": "ES", "addr:housenumber": "17", "addr:street": "Calle de Arturo Soria", "alt_name": "Hospital Viamed Fuensanta", "amenity": "hospital", "healthcare": "hospital", "name": "Clínica Fuensanta", "website": "https://www.viamedsalud.com/hospital-fuensanta/"}}, {"name": "Instituto Provincial de Oftalmología", "latitude": 40.4321232, "longitude": -3.6930276, "source": "osm", "_tags": {"addr:city": "Madrid", "addr:housenumber": "17", "addr:postcode": "28010", "addr:street": "Calle del General Arrando", "amenity": "hospital", "building": "hospital", "emergency": "yes", "healthcare": "hospital", "healthcare:speciality": "ophthalmology", "name": "Instituto Provincial de Oftalmología", "operator": "Hospital General Universitario Gregorio Marañón", "operator:type": "government"}}, {"name": "Clinica Mutualidad Deportiva", "latitude": 40.7884354, "longitude": -4.0023375, "source": "osm", "_tags": {"amenity": "hospital", "building": "hospital", "building:levels": "2", "healthcare": "hospital", "name": "Clinica Mutualidad Deportiva"}}, {"name": "Hospital Ambulatorio Virgen del Mar", "latitude": 40.4645289, "longitude": -3.6851488, "source": "osm", "_tags": {"addr:city": "Madrid", "addr:housenumber": "10", "addr:postcode": "28036", "addr:street": "Calle del General López Pozas", "amenity": "hospital", "building": "yes", "health_facility:type": "office", "healthcare": "hospital", "name": "Hospital Ambulatorio Virgen del Mar", "opening_hours": "Mo-Fr 08:00-22:00", "phone": "+34 91 353 95 00", "website": "https://www.hospitalvirgendelmar.es/pacientes-consultas-externas"}}, {"name": "Hospital Virgen de la Paloma", "latitude": 40.4453417, "longitude": -3.7162157, "source": "osm", "_tags": {"amenity": "hospital", "building": "hospital", "name": "Hospital Virgen de la Paloma", "phone": "+34 915 34 82 07", "website": "https://www.hospitalvpaloma.com/", "wikidata": "Q87762050"}}, {"name": "Hospital Universitario Infanta Leonor", "latitude": 40.3863562, "longitude": -3.6176778, "source": "osm", "_tags": {"addr:housenumber": "80", "addr:postcode": "28031", "addr:street": "Avenida de la Gran Vía del Este", "amenity": "hospital", "healthcare": "hospital", "name": "Hospital Universitario Infanta Leonor", "opening_hours": "24/7", "phone": "+34 911 91 80 00", "website": "http://www.madrid.org/cs/Satellite?language=es&pagename=HospitalInfantaLeonor%2FPage%2FHVLL_home", "wheelchair": "yes", "wikidata": "Q30280177"}}, {"name": "Hospital Universitario Ramón y Cajal.", "latitude": 40.487355, "longitude": -3.693846, "source": "osm", "_tags": {"amenity": "hospital", "emergency": "yes", "healthcare": "hospital", "name": "Hospital Universitario Ramón y Cajal.", "operator": "Comunidad de Madrid", "operator:type": "government", "operator:wikidata": "Q578788", "phone": "+34  91 336 80 00", "website": "https://www.comunidad.madrid/hospital/ramonycajal/", "wikidata": "Q5902966", "wikipedia": "es:Hospital Universitario Ramón y Cajal"}}, {"name": "Hospital Dr. Rodríguez Lafora (Psiquiátrico)", "latitude": 40.5318173, "longitude": -3.6912632, "source": "osm", "_tags": {"amenity": "hospital", "healthcare": "hospital", "healthcare:speciality": "psychiatry", "name": "Hospital Dr. Rodríguez Lafora (Psiquiátrico)", "operator": "Comunidad de Madrid", "operator:type": "government", "operator:wikidata": "Q578788", "phone": "+34 91 586 75 00", "website": "https://www.comunidad.madrid/hospital/rlafora/"}}, {"name": "Hospital Universitario Infanta Sofía", "latitude": 40.5578403, "longitude": -3.6105529, "source": "osm", "_tags": {"amenity": "hospital", "healthcare": "hospital", "name": "Hospital Universitario Infanta Sofía", "operator": "Comunidad de Madrid", "phone": "+34 91 191 40 00", "website": "https://www.comunidad.madrid/hospital/infantasofia/", "wikidata": "Q2892251", "wikipedia": "es:Hospital Infanta Sofía"}}, {"name": "Hospital Infanta Cristina.", "latitude": 40.2181567, "longitude": -3.7829913, "source": "osm", "_tags": {"amenity": "hospital", "emergency": "yes", "healthcare": "hospital", "name": "Hospital Infanta Cristina.", "operator": "Comunidad de Madrid", "operator:type": "government", "phone": "+34 91 191 30 00", "website": "https://www.comunidad.madrid/hospital/infantacristina/", "wikidata": "Q5902694", "wikipedia": "es:Hospital Infanta Cristina (Parla)"}}, {"name": "Hospital del Sureste", "latitude": 40.2970137, "longitude": -3.456786, "source": "osm", "_tags": {"amenity": "hospital", "emergency": "yes", "healthcare": "hospital", "name": "Hospital del Sureste", "operator": "Comunidad de Madrid", "wikidata": "Q43896420"}}, {"name": "Hospital del Henares", "latitude": 40.4185224, "longitude": -3.5328963, "source": "osm", "_tags": {"addr:city": "Coslada", "addr:housenumber": "0", "addr:postcode": "28822", "addr:street": "Avenida de Marie Curie", "amenity": "hospital", "healthcare": "hospital", "name": "Hospital del Henares", "operator": "Comunidad de Madrid.", "phone": "+34 911912000", "website": "http://www.madrid.org/cs/Satellite?pagename=HospitalHenares/Page/HHEN_home", "wheelchair": "yes", "wikidata": "Q5903185", "wikipedia": "es:Hospital del Henares"}}, {"name": "Hospital Fundación Jiménez Díaz", "latitude": 40.4389164, "longitude": -3.7191824, "source": "osm", "_tags": {"addr:city": "Madrid", "addr:housenumber": "2", "addr:postcode": "28040", "addr:street": "Avenida de los Reyes Católicos", "amenity": "hospital", "healthcare": "hospital", "name": "Hospital Fundación Jiménez Díaz", "operator": "Quirón Salud", "website": "http://www.fjd.es/", "wheelchair": "yes", "wikidata": "Q10946560", "wikipedia": "es:Hospital Universitario Fundación Jiménez Díaz"}}, {"name": "Hospital Universitario Clínico San Carlos", "latitude": 40.4406677, "longitude": -3.7200099, "source": "osm", "_tags": {"addr:city": "Madrid", "addr:postcode": "28040", "addr:street": "Calle Profesor Martín Lagos", "amenity": "hospital", "emergency": "yes", "healthcare": "hospital", "name": "Hospital Universitario Clínico San Carlos", "operator": "Comunidad de Madrid", "phone": "+34 913 30 30 00; +34 913 30 30 01", "wikidata": "Q6673106", "wikipedia": "es:Hospital Clínico San Carlos"}}, {"name": "Hospital Virgen de la Torre", "latitude": 40.3810134, "longitude": -3.6192683, "source": "osm", "_tags": {"addr:city": "Madrid", "addr:housenumber": "5", "addr:postcode": "28031", "addr:street": "Calle del Puerto de Lumbreras", "amenity": "hospital", "check_date": "2024-08-22", "healthcare": "hospital", "name": "Hospital Virgen de la Torre", "operator": "Comunidad de Madrid", "operator:type": "government", "operator:wikidata": "Q578788", "website": "http://www.madrid.org/cs/Satellite?pagename=HospitalVirgenTorre/Page/HVTO_home", "wikidata": "Q30254322"}}, {"name": "Hospital Universitario de la Princesa", "latitude": 40.4340327, "longitude": -3.6757552, "source": "osm", "_tags": {"amenity": "hospital", "healthcare": "hospital", "name": "Hospital Universitario de la Princesa", "operator": "Comunidad de Madrid", "wheelchair": "yes", "wikidata": "Q29024890"}}, {"name": "Hospital General de Collado Villalba.", "latitude": 40.6543094, "longitude": -4.0013911, "source": "osm", "_tags": {"amenity": "hospital", "emergency": "yes", "healthcare": "hospital", "name": "Hospital General de Collado Villalba.", "operator": "Comunidad de Madrid.", "operator:type": "government", "phone": "+34 91 090 81 02", "phone_1": "+34 900 606 058", "website": "http://www.hgvillalba.es/"}}, {"name": "Hospital de El Escorial", "latitude": 40.6083239, "longitude": -4.1208218, "source": "osm", "_tags": {"amenity": "hospital", "healthcare": "hospital", "name": "Hospital de El Escorial", "operator": "Comunidad de Madrid", "operator:type": "government", "operator:wikidata": "Q578788", "phone": "+34 918973000 ; +34 918973066", "website": "https://www.comunidad.madrid/hospital/elescorial/", "wikidata": "Q5688366", "wikipedia": "es:Hospital de El Escorial"}}, {"name": "Hospital de la Fuenfría", "latitude": 40.7599106, "longitude": -4.0739808, "source": "osm", "_tags": {"addr:city": "Las Dehesas", "addr:postcode": "28479", "addr:street": "Camino de los Campamentos", "alt_name": "Hospital La Fuenfría", "amenity": "hospital", "check_date": "2024-05-17", "emergency": "no", "healthcare": "hospital", "image": "https://upload.wikimedia.org/wikipedia/commons/3/3a/Atervaperdines_Sierte_de_la_Fuenfr%C3%ADa.jpg", "name": "Hospital de la Fuenfría", "old_name": "Hotel-Sanatorio de la Fuenfría;Sanatorio de la Fuenfría", "operator": "Servicio Madrileño de Salud", "operator:type": "government", "wheelchair": "yes", "wikidata": "Q87762066", "wikimedia_commons": "File:Atervaperdines_Sierte_de_la_Fuenfría.jpg", "wikipedia": "es:Hospital de la Fuenfría"}}, {"name": "Hospital Fundación Alcorcón", "latitude": 40.3488659, "longitude": -3.8374118, "source": "osm", "_tags": {"amenity": "hospital", "healthcare": "hospital", "name": "Hospital Fundación Alcorcón", "operator": "Comunidad de Madrid", "operator:type": "government", "operator:wikidata": "Q578788"}}, {"name": "Hospital Severo Ochoa", "latitude": 40.3207341, "longitude": -3.7698934, "source": "osm", "_tags": {"amenity": "hospital", "healthcare": "hospital", "name": "Hospital Severo Ochoa", "operator": "Comunidad de Madrid", "operator:type": "government", "operator:wikidata": "Q578788", "wikidata": "Q30253926"}}, {"name": "Instituto Provincial de Rehabilitación", "latitude": 40.433284, "longitude": -3.6725207, "source": "osm", "_tags": {"addr:city": "Madrid", "addr:country": "ES", "addr:housenumber": "40", "addr:postcode": "28028", "addr:street": "Calle de Francisco Silvela", "amenity": "hospital", "building": "civic", "healthcare": "hospital", "name": "Instituto Provincial de Rehabilitación", "wikidata": "Q87762018"}}, {"name": "Hospital del Tajo", "latitude": 40.0575951, "longitude": -3.6103539, "source": "osm", "_tags": {"amenity": "hospital", "emergency": "yes", "healthcare": "hospital", "name": "Hospital del Tajo", "opening_hours": "24/7", "operator": "Comunidad de Madrid", "operator:wikidata": "Q578788", "source": "catastro", "source:date": "2015-01", "wikidata": "Q5903194", "wikipedia": "es:Hospital del Tajo"}}, {"name": "Centro de Especialidades de Peñagrande.", "latitude": 40.4746263, "longitude": -3.725308, "source": "osm", "_tags": {"addr:street": "Calle de la Isla de Cerdeña", "amenity": "hospital", "healthcare": "hospital", "name": "Centro de Especialidades de Peñagrande."}}, {"name": "SUMA 112. Centro Urgencias Extrahospitalarias El Molar", "latitude": 40.7379356, "longitude": -3.5821913, "source": "osm", "_tags": {"amenity": "hospital", "emergency": "yes", "healthcare": "hospital", "name": "SUMA 112. Centro Urgencias Extrahospitalarias El Molar", "operator": "Comunidad de Madrid", "operator:type": "government", "operator:wikidata": "Q578788", "phone": "+34 91 841 11 11", "short_name": "CUE El Molar", "website": "https://www.comunidad.madrid/hospital/summa112/ciudadanos/centro-urgencias-extrahospitalarias-molar"}}, {"name": "Clínica San Miguel (Hermanas Hospitalarias)", "latitude": 40.4600755, "longitude": -3.6601449, "source": "osm", "_tags": {"addr:city": "Madrid", "addr:country": "ES", "addr:housenumber": "204", "addr:street": "Calle de Arturo Soria", "amenity": "hospital", "description": "Hospitalización de personas con enfermedad mental", "healthcare": "hospital", "name": "Clínica San Miguel (Hermanas Hospitalarias)", "website": "http://www.lrhbhsc.org/opencms/opencms/menu_vertical/hospitalizacion/nuestro_centro.html"}}, {"name": "Hospital Virgen del Mar", "latitude": 40.4593464, "longitude": -3.678591, "source": "osm", "_tags": {"addr:city": "Madrid", "addr:housenumber": "14", "addr:street": "Calle de Honduras", "amenity": "hospital", "emergency": "yes", "healthcare": "hospital", "name": "Hospital Virgen del Mar", "wikidata": "Q87762042"}}, {"name": "Sanitas Mirasierra", "latitude": 40.4932047, "longitude": -3.7067316, "source": "osm", "_tags": {"addr:city": "Madrid", "addr:housenumber": "40", "addr:street": "Calle de Nuria", "amenity": "hospital", "healthcare": "hospital", "name": "Sanitas Mirasierra", "operator": "Sanitas"}}, {"name": "Clínica Santa Elena", "latitude": 40.4456438, "longitude": -3.7166534, "source": "osm", "_tags": {"addr:city": "Madrid", "addr:country": "ES", "addr:housenumber": "8", "addr:postcode": "28003", "addr:street": "Calle de la Granja", "amenity": "hospital", "name": "Clínica Santa Elena", "wikidata": "Q87762031"}}, {"name": "Quirón Hospital Universitario", "latitude": 40.4027249, "longitude": -3.7833792, "source": "osm", "_tags": {"addr:city": "Madrid", "addr:housenumber": "1", "addr:postcode": "28223", "addr:street": "Calle Diego de Velázquez", "alt_name": "Quirónsalud", "amenity": "hospital", "healthcare": "hospital", "internet_access": "wlan", "name": "Quirón Hospital Universitario", "opening_hours": "Mo-Su 08:00-22:00", "phone": "+34 902 151 016", "website": "http://www.quironsalud.es/", "wheelchair": "yes"}}, {"name": "", "latitude": 40.3822514, "longitude": -3.7772282, "source": "osm", "_tags": {"amenity": "hospital", "healthcare": "hospital"}}, {"name": "Hospital Quironsalud Sur", "latitude": 40.3431512, "longitude": -3.8491064, "source": "osm", "_tags": {"amenity": "hospital", "healthcare": "hospital", "name": "Hospital Quironsalud Sur", "phone": "+34 91 649 66 00", "website": "https://www.quironsalud.es/hospital-sur", "wikidata": "Q87762118"}}, {"name": "", "latitude": 40.4320128, "longitude": -3.6803013, "source": "osm", "_tags": {"amenity": "hospital", "emergency": "yes", "healthcare": "hospital"}}, {"name": "Hospital de Día Pio XII", "latitude": 40.4659825, "longitude": -3.670635, "source": "osm", "_tags": {"addr:housenumber": "4", "addr:street": "Cuesta del Sagrado Corazón", "amenity": "hospital", "building": "yes", "healthcare": "hospital", "name": "Hospital de Día Pio XII"}}, {"name": "Centro Clínico ATAM", "latitude": 40.4433537, "longitude": -3.8279734, "source": "osm", "_tags": {"amenity": "hospital", "healthcare": "hospital", "name": "Centro Clínico ATAM", "operator": "ATAM", "website": "https://equipoclinico.atam.es/"}}, {"name": "Centro de Salud Las Ciudades", "latitude": 40.3143996, "longitude": -3.7141888, "source": "osm", "_tags": {"amenity": "hospital", "emergency": "yes", "healthcare": "hospital", "name": "Centro de Salud Las Ciudades"}}, {"name": "Residencia Casa Quinta", "latitude": 40.1604824, "longitude": -3.61161, "source": "osm", "_tags": {"amenity": "hospital", "healthcare": "hospital", "name": "Residencia Casa Quinta"}}, {"name": "Centro de Protonterapia de Quirónsalud", "latitude": 40.3970226, "longitude": -3.7905932, "source": "osm", "_tags": {"amenity": "hospital", "healthcare": "hospital", "healthcare:speciality": "radiology;radiotherapy", "man_made": "particle_accelerator", "name": "Centro de Protonterapia de Quirónsalud", "name:en": "Quirónsalud Proton Therapy Center", "particle_accelerator": "circular", "phone": "+34 914 52 19 00", "substance": "proton", "website": "https://www.quironsalud.es/es/protonterapia"}}, {"name": "Centro de Salud La Paz", "latitude": 40.3645006, "longitude": -3.5494115, "source": "osm", "_tags": {"addr:city": "Rivas-Vaciamadrid", "addr:postcode": "28523", "addr:street": "Avenida del Parque de Asturias", "amenity": "hospital", "building": "hospital", "healthcare": "hospital", "name": "Centro de Salud La Paz", "phone": "+34 91 666 17 11;+34 91 666 18 12"}}, {"name": "Hospital HM Rivas", "latitude": 40.3431019, "longitude": -3.5249872, "source": "osm", "_tags": {"amenity": "hospital", "healthcare": "hospital", "name": "Hospital HM Rivas", "operator": "HM Hospitales", "phone": "+34 800 088 050", "website": "https://www.hmrivas.com/"}}, {"name": "Mini-residencia Cobeña", "latitude": 40.5612042, "longitude": -3.5086272, "source": "osm", "_tags": {"addr:postcode": "28863", "addr:street": "Camino de Madrid", "amenity": "social_facility", "barrier": "fence", "healthcare": "hospital", "name": "Mini-residencia Cobeña", "nohousenumber": "yes", "old_name": "CETEVA", "operator": "Grupo 5", "operator:type": "private", "social_facility": "assisted_living", "social_facility:for": "mental_health"}}, {"name": "", "latitude": 40.3643395, "longitude": -3.5494683, "source": "osm", "_tags": {"amenity": "hospital", "building:levels": "1", "healthcare": "hospital"}}, {"name": "Hospital Quirónsalud Toledo", "latitude": 39.8837769, "longitude": -4.0416562, "source": "osm", "_tags": {"addr:city": "Toledo", "addr:country": "ES", "addr:hamlet": "Urbanización Tres Culturas", "addr:postcode": "45005", "addr:province": "Toledo", "amenity": "hospital", "name": "Hospital Quirónsalud Toledo", "phone": "+34 925 26 61 00", "website": "https://www.quironsalud.es/toledo", "wikidata": "Q87762599"}}, {"name": "Hospital Nacional de Parapléjicos de Toledo", "latitude": 39.8746062, "longitude": -4.0530526, "source": "osm", "_tags": {"addr:city": "Toledo", "addr:street": "Carretera de la Peraleda", "amenity": "hospital", "healthcare": "hospital", "healthcare:speciality": "orthopaedics;osteopathy", "name": "Hospital Nacional de Parapléjicos de Toledo", "wikidata": "Q9004896"}}, {"name": "Centro Salud Portillo", "latitude": 40.0650161, "longitude": -4.2292324, "source": "osm", "_tags": {"addr:city": "Portillo de Toledo", "addr:housenumber": "7", "addr:postcode": "45512", "addr:street": "Calle del Prado", "amenity": "hospital", "building": "yes", "healthcare": "hospital", "healthcare:speciality": "general", "name": "Centro Salud Portillo", "phone": "+34 925 73 06 72"}}, {"name": "Centro De Salud Parque Miraflores", "latitude": 40.3139091, "longitude": -3.8384528, "source": "osm", "_tags": {"amenity": "hospital", "building": "apartments", "emergency": "no", "healthcare": "hospital", "name": "Centro De Salud Parque Miraflores"}}, {"name": "", "latitude": 40.4659652, "longitude": -3.6706395, "source": "osm", "_tags": {"amenity": "hospital", "healthcare": "hospital"}}, {"name": "Cruz Roja", "latitude": 40.047204, "longitude": -4.2103607, "source": "osm", "_tags": {"amenity": "hospital", "healthcare": "hospital", "name": "Cruz Roja", "operator": "Cruz Roja", "operator:wikidata": "Q7178", "operator:wikipedia": "es:Cruz Roja"}}, {"name": "Hospital Los Madroños", "latitude": 40.3987802, "longitude": -3.9991359, "source": "osm", "_tags": {"amenity": "hospital", "healthcare": "hospital", "name": "Hospital Los Madroños", "wikidata": "Q87762121"}}, {"name": "Centro Médico Quirónsalud Valle del Henares", "latitude": 40.4976103, "longitude": -3.3855815, "source": "osm", "_tags": {"addr:city": "Alcalá de Henares", "addr:housenumber": "6", "addr:postcode": "28806", "addr:street": "Calle de la República Dominicana", "amenity": "hospital", "building": "yes", "healthcare": "hospital", "name": "Centro Médico Quirónsalud Valle del Henares", "phone": "+34 918 77 57 80", "website": "https://www.quironsalud.es/alcala-henares"}}, {"name": "Hospital Universitario Puerta de Hierro Majadahonda", "latitude": 40.4502608, "longitude": -3.8738374, "source": "osm", "_tags": {"addr:city": "Majadahonda", "addr:housenumber": "1", "addr:postcode": "28222", "addr:street": "Calle Joaquín Rodrigo", "amenity": "hospital", "description": "El Hospital Universitario Puerta de Hierro está situado en la calle Manuel de Falla nº 1 del municipio de Majadahonda, 28222 de Madrid. Es el hospital de referencia de Atención Especializada del Área 6 de Salud de la Comunidad de Madrid.", "emergency": "yes", "healthcare": "hospital", "internet_access": "yes", "name": "Hospital Universitario Puerta de Hierro Majadahonda", "operator": "Comunidad de Madrid", "operator:type": "government", "operator:wikidata": "Q578788", "website": "https://www.comunidad.madrid/hospital/puertadehierro/", "wheelchair": "yes"}}, {"name": "Hospital Universitario La Moraleja - Ana de Austria", "latitude": 40.4928118, "longitude": -3.6672775, "source": "osm", "_tags": {"addr:city": "Madrid", "addr:housenumber": "5", "addr:postcode": "28050", "addr:street": "Calle del Arroyo de Valdebebas", "amenity": "hospital", "emergency": "no", "healthcare": "hospital", "name": "Hospital Universitario La Moraleja - Ana de Austria", "phone": "+34 917 679 470", "website": "https://www.hospitallamoraleja.es/es/"}}, {"name": "Hospital Universitario Vithas Madrid Arturo Soria", "latitude": 40.4496542, "longitude": -3.6520719, "source": "osm", "_tags": {"addr:city": "Madrid", "addr:country": "ES", "addr:housenumber": "103", "addr:street": "Calle de Arturo Soria", "amenity": "hospital", "healthcare": "hospital", "name": "Hospital Universitario Vithas Madrid Arturo Soria", "phone": "+34 914 130 061", "website": "https://www.vithas.es/Madrid/detalle-centro/vithas-madrid-arturo-soria-/20", "wikidata": "Q87762048"}}, {"name": "", "latitude": 40.4928306, "longitude": -3.606025, "source": "osm", "_tags": {"amenity": "hospital", "healthcare": "hospital"}}, {"name": "Centro de Salud Embarcaciones", "latitude": 40.5991377, "longitude": -3.7035624, "source": "osm", "_tags": {"amenity": "hospital", "emergency": "yes", "healthcare": "hospital", "name": "Centro de Salud Embarcaciones"}}, {"name": "Hospital de Día Puerta de Hierro", "latitude": 40.4767221, "longitude": -3.3821288, "source": "osm", "_tags": {"amenity": "hospital", "barrier": "fence", "emergency": "no", "healthcare": "hospital", "name": "Hospital de Día Puerta de Hierro", "phone": "+34 918 77 15 06", "type": "multipolygon", "website": "https://www.comunidad.madrid/centros/centro-salud-mental-alcala-henares-iii-puerta-madrid"}}, {"name": "Centro de Salud Doctor Aguilar", "latitude": 40.1868134, "longitude": -3.838945, "source": "osm", "_tags": {"amenity": "hospital", "building": "hospital", "healthcare": "hospital", "name": "Centro de Salud Doctor Aguilar", "type": "multipolygon"}}, {"name": "Asamblea Comarcal de Cruz Roja Española en Corredor del Henares Sur (sede Coslada)", "latitude": 40.4200409, "longitude": -3.5666881, "source": "osm", "_tags": {"addr:city": "Coslada", "addr:housenumber": "3", "addr:postcode": "28821", "addr:street": "Calle del Océano Pacífico", "amenity": "hospital", "building": "yes", "healthcare": "hospital", "name": "Asamblea Comarcal de Cruz Roja Española en Corredor del Henares Sur (sede Coslada)", "operator": "Cruz Roja", "operator:wikidata": "Q7178", "phone": "+34 913609607", "type": "multipolygon", "website": "http://cruzroja.es", "wheelchair": "yes"}}, {"name": "Hospital Universitario Santa Cristina", "latitude": 40.4217993, "longitude": -3.6710207, "source": "osm", "_tags": {"amenity": "hospital", "healthcare": "hospital", "name": "Hospital Universitario Santa Cristina", "name:etymology:wikidata": "Q5902906", "type": "multipolygon", "wikidata": "Q5902906", "wikipedia": "es:Hospital Santa Cristina"}}, {"name": "Hospital HLA Universitario Moncloa", "latitude": 40.433108, "longitude": -3.7343745, "source": "osm", "_tags": {"addr:city": "Madrid", "addr:country": "ES", "addr:housenumber": "83", "addr:postcode": "28008", "addr:street": "Avenida de Valladolid", "amenity": "hospital", "building": "hospital", "emergency": "yes", "healthcare": "hospital", "layer": "1", "name": "Hospital HLA Universitario Moncloa", "phone": "+34 917 581 196", "type": "multipolygon", "website": "https://www.grupohla.com/es/hospitales-clinicas/hospital-moncloa", "wheelchair": "yes", "wikidata": "Q87762110"}}, {"name": "Antiguo Hospital Benéfico de Nuestra Señora de la Misericordia", "latitude": 40.4824688, "longitude": -3.3668732, "source": "osm", "_tags": {"addr:city": "Alcalá de Henares", "addr:housenumber": "46", "addr:postcode": "28801", "addr:street": "Calle Mayor", "amenity": "hospital", "building": "yes", "building:levels": "2", "emergency": "no", "healthcare": "hospital", "historic": "yes", "name": "Antiguo Hospital Benéfico de Nuestra Señora de la Misericordia", "operator": "Fundación de Antezana", "tourism": "attraction", "type": "multipolygon", "wikidata": "Q5903017", "wikipedia": "es:Hospital de Antezana"}}, {"name": "Hospital La Milagrosa", "latitude": 40.4370779, "longitude": -3.6956893, "source": "osm", "_tags": {"addr:housenumber": "14", "addr:postcode": "28010", "addr:street": "Calle de Modesto Lafuente", "alt_name": "Clínica La Milagrosa", "amenity": "hospital", "contact:fax": "+34 91 447 34 49", "contact:phone": "+34 91 447 21 00", "healthcare": "hospital", "name": "Hospital La Milagrosa", "type": "multipolygon", "website": "http://www.lamilagrosa.com/index.php", "wheelchair": "yes", "wikidata": "Q87762055"}}, {"name": "Hospital Universitario de Torrejón", "latitude": 40.4650943, "longitude": -3.435444, "source": "osm", "_tags": {"amenity": "hospital", "building": "hospital", "building:levels": "3", "contact:phone": "+34 91 626 26 00", "emergency": "yes", "healthcare": "hospital", "name": "Hospital Universitario de Torrejón", "nohousenumber": "yes", "operator": "Comunidad de Madrid", "operator:type": "government", "type": "multipolygon", "website": "https://www.hospitaldetorrejon.es/", "wikidata": "Q5903127", "wikipedia": "es:Hospital de Torrejón"}}, {"name": "Hospital Quirónsalud Valle del Henares", "latitude": 40.4663614, "longitude": -3.4407021, "source": "osm", "_tags": {"addr:housenumber": "249", "addr:street": "Avenida de la Constitución", "amenity": "hospital", "building": "hospital", "email": "torrejon.vallehenares@quironsalud.es", "healthcare": "hospital", "name": "Hospital Quirónsalud Valle del Henares", "phone": "+34 913 333 444", "start_date": "2021-10-04", "type": "multipolygon", "website": "https://www.quironsalud.es/valle-henares/es/centro"}}, {"name": "Instituto Psiquiátrico José Germain - Complejo de Santa Teresa", "latitude": 40.330311, "longitude": -3.7764902, "source": "osm", "_tags": {"amenity": "hospital", "healthcare": "hospital", "healthcare:speciality": "psychiatry", "landuse": "forest", "name": "Instituto Psiquiátrico José Germain - Complejo de Santa Teresa", "operator": "Salud Madrid", "type": "multipolygon", "website": "http://www.madrid.org/cs/Satellite?language=es&pagename=HospitalJoseGermain%2FPage%2FHGER_home"}}, {"name": "Hospital Fraternidad-Muprespa Habana", "latitude": 40.4569697, "longitude": -3.6816739, "source": "osm", "_tags": {"addr:city": "Madrid", "addr:housenumber": "83-85", "addr:postcode": "28036", "addr:street": "Paseo de La Habana", "amenity": "hospital", "building": "hospital", "building:levels": "4", "healthcare": "hospital", "name": "Hospital Fraternidad-Muprespa Habana", "phone": "+34 914 183 240", "source:geometry": "Imagen de Catastro de España", "type": "multipolygon", "website": "https://www.fraternidad.com/hospital-habana"}}, {"name": "Hospital de Emergencias Enfermera Isabel Zendal", "latitude": 40.4835178, "longitude": -3.6062934, "source": "osm", "_tags": {"addr:city": "Madrid", "addr:housenumber": "2", "addr:postcode": "28055", "addr:street": "Avenida de Manuel Fraga Iribarne", "amenity": "hospital", "beds": "1056", "emergency": "yes", "healthcare": "hospital", "name": "Hospital de Emergencias Enfermera Isabel Zendal", "name:etymology": "Isabel Zendal Gómez", "name:etymology:wikidata": "Q20536263", "name:etymology:wikipedia": "gl:Isabel Zendal", "official_name": "Hospital de Emergencias \"Enfermera Isabel Zendal\"", "operator": "Comunidad de Madrid", "operator:type": "government", "phone": "+34 91 799 63 00", "short_name": "Zendal", "type": "multipolygon", "website": "https://www.comunidad.madrid/centros/hospital-emergencias-enfermera-isabel-zendal", "wikidata": "Q103190997", "wikipedia": "es:Hospital de Emergencias Enfermera Isabel Zendal"}}]