[{"name": "Comunità Alloggio San Francesco", "latitude": 40.6521201, "longitude": 9.3208446, "source": "osm", "_tags": {"amenity": "social_facility", "healthcare": "hospital", "name": "Comunità Alloggio San Francesco", "social_facility": "nursing_home"}}, {"name": "Pronto Soccorso Ospedale \"Antonio Segni\"", "latitude": 40.5806732, "longitude": 9.0012982, "source": "osm", "_tags": {"addr:city": "Ozieri", "amenity": "hospital", "emergency": "yes", "healthcare": "hospital", "name": "Pronto Soccorso Ospedale \"Antonio Segni\""}}, {"name": "Pronto Soccorso Ospedale \"San Francesco\"", "latitude": 40.3244306, "longitude": 9.3158377, "source": "osm", "_tags": {"addr:city": "Nuoro", "amenity": "hospital", "emergency": "yes", "healthcare": "hospital", "name": "Pronto Soccorso Ospedale \"San Francesco\""}}, {"name": "", "latitude": 39.8773179, "longitude": 9.5487503, "source": "osm", "_tags": {"addr:city": "Lanusei", "amenity": "hospital", "emergency": "yes", "healthcare": "hospital", "operator": "Pronto Soccorso Ospedale \"Nostra Signora della Mercede\""}}, {"name": "Pronto Soccorso Ospedale \"G.P. Delogu\"", "latitude": 40.1206415, "longitude": 8.8349166, "source": "osm", "_tags": {"addr:city": "Ilartzi/Ghilarza", "amenity": "hospital", "emergency": "yes", "healthcare": "hospital", "name": "Pronto Soccorso Ospedale \"G.P. Delogu\""}}, {"name": "Ospedale San Francesco", "latitude": 40.324826, "longitude": 9.31647, "source": "osm", "_tags": {"addr:city": "Nuoro", "addr:postcode": "08100", "addr:street": "Via Salvatore Mannironi", "amenity": "hospital", "emergency": "yes", "healthcare": "hospital", "name": "Ospedale San Francesco", "phone": "+39 0784 240237", "website": "http://www.aslnuoro.it/index.php?xsl=21&s=3&v=9&c=625&esn=Primo+piano&na=1&n=50"}}, {"name": "Ospedale Cesare Zonchello", "latitude": 40.3217355, "longitude": 9.3181166, "source": "osm", "_tags": {"amenity": "hospital", "check_date": "2025-01-04", "emergency": "no", "healthcare": "hospital", "leisure": "park", "name": "Ospedale Cesare Zonchello", "phone": "+39 0784 240237", "website": "http://www.aslnuoro.it/index.php?xsl=21&s=3&v=9&c=626&esn=Primo+piano&na=1&n=50"}}, {"name": "Ospedale Antonio Segni", "latitude": 40.5807587, "longitude": 9.0023015, "source": "osm", "_tags": {"amenity": "hospital", "emergency": "yes", "healthcare": "hospital", "name": "Ospedale Antonio Segni"}}, {"name": "Ospedale Gian Pietro Delogu", "latitude": 40.1204945, "longitude": 8.8344729, "source": "osm", "_tags": {"addr:housenumber": "176", "addr:street": "Corso Umberto Primo", "amenity": "hospital", "healthcare": "hospital", "name": "Ospedale Gian Pietro Delogu"}}, {"name": "Ospedale San Camillo", "latitude": 40.0215139, "longitude": 9.0999124, "source": "osm", "_tags": {"addr:city": "Sorgono", "amenity": "hospital", "building": "yes", "emergency": "yes", "healthcare": "hospital", "name": "Ospedale San Camillo"}}, {"name": "Ospedale Nostra Signora della Mercede", "latitude": 39.8770534, "longitude": 9.549052, "source": "osm", "_tags": {"amenity": "hospital", "name": "Ospedale Nostra Signora della Mercede"}}, {"name": "", "latitude": 39.9269594, "longitude": 9.673905, "source": "osm", "_tags": {"amenity": "hospital", "building": "yes", "emergency": "yes", "healthcare": "hospital"}}, {"name": "", "latitude": 39.9269938, "longitude": 9.6739524, "source": "osm", "_tags": {"amenity": "hospital", "healthcare": "hospital"}}, {"name": "Presidio ospedaliero di Macomer", "latitude": 40.2761431, "longitude": 8.7707108, "source": "osm", "_tags": {"addr:city": "Macomer", "addr:postcode": "08015", "alt_name": "Ospedale Macomer", "amenity": "hospital", "healthcare": "hospital", "name": "Presidio ospedaliero di Macomer", "wikidata": "Q30262673"}}, {"name": "", "latitude": 40.0214416, "longitude": 9.0999068, "source": "osm", "_tags": {"amenity": "hospital", "emergency": "yes", "healthcare": "hospital"}}, {"name": "Ospedaletto", "latitude": 40.5696435, "longitude": 9.6853556, "source": "osm", "_tags": {"amenity": "hospital", "healthcare": "hospital", "name": "Ospedaletto", "type": "multipolygon"}}]