[{"name": "Hospital Complementario de Segorbe", "latitude": 39.8482269, "longitude": -0.4917584, "source": "osm", "_tags": {"amenity": "hospital", "check_date": "2024-03-23", "name": "Hospital Complementario de Segorbe"}}, {"name": "Residencia de ancianos", "latitude": 40.1422517, "longitude": -0.8110565, "source": "osm", "_tags": {"amenity": "hospital", "healthcare": "hospital", "name": "Residencia de ancianos"}}, {"name": "Delegació de Creu Roja en Llucena", "latitude": 40.1356514, "longitude": -0.2791544, "source": "osm", "_tags": {"healthcare": "hospital", "name": "Delegació de Creu Roja en Llucena", "name:ca": "Delegació de Creu Roja en Llucena", "name:es": "Delegación de Vruz Roja en Lucena del Cid", "office": "association", "opening_hours": "Th 18:00-20:00; Fr-We,PH off", "operator": "Cruz Roja", "operator:wikidata": "Q7178"}}, {"name": "Hospital Obispo Polanco", "latitude": 40.3330986, "longitude": -1.107251, "source": "osm", "_tags": {"amenity": "hospital", "check_date": "2024-05-11", "emergency": "yes", "healthcare": "hospital", "name": "Hospital Obispo Polanco", "wheelchair": "yes"}}, {"name": "Clínica", "latitude": 40.0560554, "longitude": -0.8323324, "source": "osm", "_tags": {"amenity": "hospital", "name": "Clínica"}}, {"name": "Hospital San Jose", "latitude": 40.3477068, "longitude": -1.1152782, "source": "osm", "_tags": {"amenity": "hospital", "building": "yes", "building:levels": "3", "designation": "Hospital San Jose", "name": "Hospital San Jose", "wikidata": "Q64576252"}}, {"name": "Centro de Rehabilitación San Juan de Dios", "latitude": 40.345359, "longitude": -1.1133155, "source": "osm", "_tags": {"amenity": "hospital", "building": "yes", "name": "Centro de Rehabilitación San Juan de Dios"}}, {"name": "Centro Médico", "latitude": 40.3710468, "longitude": -0.717077, "source": "osm", "_tags": {"amenity": "hospital", "building": "yes", "healthcare": "hospital", "name": "Centro Médico"}}]