[{"name": "Unidade Cuidados Continuados Integrados", "latitude": 41.3397228, "longitude": -6.7141246, "source": "osm", "_tags": {"addr:postcode": "5200-000", "amenity": "hospital", "healthcare": "hospital", "internet_access": "wlan", "name": "Unidade Cuidados Continuados Integrados", "opening_hours": "24/7", "operator": "Santa Casa da Misericórida de Mogadouro", "website": "https://misericordiamogadouro.pt/"}}, {"name": "Urgências", "latitude": 41.3432168, "longitude": -6.712261, "source": "osm", "_tags": {"addr:city": "Mogadouro", "addr:postcode": "5200-207", "addr:street": "Rua das Eiras", "amenity": "hospital", "email": "geral@csmogadouro.min-saude.pt", "emergency": "no", "healthcare": "hospital", "name": "Urgências", "name:en": "Emergency Departament", "opening_hours": "24/7", "operator": "Serviço Nacional de Saúde", "phone": "+351 279 340 300", "website": "http://ulsne.pt/pt/ms/ms/cs-mogadouro-5300-108-braganca/ms-90062414-p-22/", "wheelchair": "yes"}}, {"name": "Cruz Vermelha", "latitude": 41.3415443, "longitude": -6.7138005, "source": "osm", "_tags": {"addr:street": "Avenida Nossa Senhora do Caminho", "amenity": "hospital", "healthcare": "hospital", "name": "Cruz Vermelha", "name:en": "Red Cross", "name:pt": "Cruz Vermelha", "opening_hours": "Mo-Fr 10:00-18:00"}}, {"name": "Unidade Local de Saúde do Nordeste", "latitude": 41.8029444, "longitude": -6.7673769, "source": "osm", "_tags": {"addr:city": "Bragança", "addr:postcode": "5300-068", "addr:street": "Avenida Abade de Baçal", "amenity": "clinic", "emergency": "yes", "healthcare": "hospital", "name": "Unidade Local de Saúde do Nordeste", "official_name": "Unidade Local de Saúde do Nordeste, EPE", "phone": "+351 273 310 800"}}, {"name": "Hospital Privado de Bragança - Clínica", "latitude": 41.8090533, "longitude": -6.7712068, "source": "osm", "_tags": {"amenity": "hospital", "healthcare": "hospital", "name": "Hospital Privado de Bragança - Clínica"}}, {"name": "Hospital de Mirandela", "latitude": 41.4850946, "longitude": -7.189729, "source": "osm", "_tags": {"addr:city": "Mirandela", "addr:postcode": "5370-210", "addr:street": "Avenida Nossa Senhora do Amparo", "amenity": "hospital", "emergency": "yes", "healthcare": "hospital", "name": "Hospital de Mirandela"}}, {"name": "Hospital Terra Quente", "latitude": 41.4808677, "longitude": -7.1796512, "source": "osm", "_tags": {"amenity": "hospital", "building": "hospital", "healthcare": "hospital", "name": "Hospital Terra Quente"}}, {"name": "ULS do Nordeste - Unidade Hospitalar de Macedo de Cavaleiros", "latitude": 41.5350294, "longitude": -6.960374, "source": "osm", "_tags": {"amenity": "hospital", "healthcare": "hospital", "name": "ULS do Nordeste - Unidade Hospitalar de Macedo de Cavaleiros", "official_name": "Unidade Local de Saúde do Nordeste, EPE - Unidade Hospitalar de Macedo de Cavaleiros"}}]