[{"name": "", "latitude": 41.513907, "longitude": 15.3318254, "source": "osm", "_tags": {"amenity": "hospital", "fixme": "should be turned into an area", "healthcare": "hospital"}}, {"name": "Misericordia di Montella", "latitude": 40.8401872, "longitude": 15.0269671, "source": "osm", "_tags": {"addr:city": "Montella", "addr:housenumber": "12", "addr:postcode": "83048", "addr:street": "Via Scipione Capone", "emergency": "ambulance_station", "healthcare": "hospital", "name": "Misericordia di Montella", "operator": "Fraternita di Misericordia di Montella"}}, {"name": "Ortopedia D'Avena", "latitude": 41.6893657, "longitude": 15.3837803, "source": "osm", "_tags": {"amenity": "hospital", "description": "Titolare Cristina D'Avena", "healthcare": "hospital", "name": "Ortopedia D'Avena"}}, {"name": "Pronto Soccorso", "latitude": 41.6904206, "longitude": 15.3865688, "source": "osm", "_tags": {"amenity": "hospital", "healthcare": "hospital", "name": "Pronto Soccorso"}}, {"name": "Punto vaccinale", "latitude": 41.0674372, "longitude": 15.0585824, "source": "osm", "_tags": {"addr:city": "Grottaminarda", "addr:postcode": "83035", "addr:street": "Via Flammia", "amenity": "hospital", "healthcare": "hospital", "healthcare:speciality": "vaccination", "image": "https://www.aslavellino.it/images/2019/12/03/presidio-sanitario-di-grottaminarda-.png", "name": "Punto vaccinale", "operator": "ASL", "operator:type": "public"}}, {"name": "Azienda Sanitaria Locale Bn 1-Sportello C.U.P.", "latitude": 41.1196996, "longitude": 14.7746608, "source": "osm", "_tags": {"addr:city": "Benevento", "addr:postcode": "82100", "addr:street": "Via Marco Minghetti", "amenity": "hospital", "healthcare": "hospital", "name": "Azienda Sanitaria Locale Bn 1-Sportello C.U.P.", "operator": "ASL", "operator:wikidata": "Q3631467"}}, {"name": "Ospedali Riuniti di Foggia", "latitude": 41.455593, "longitude": 15.5243654, "source": "osm", "_tags": {"addr:city": "Foggia", "addr:housenumber": "1", "addr:postcode": "71122", "addr:street": "Viale Luigi Pinto", "amenity": "hospital", "email": "direzionegenerale.segreteria@ospedaliriunitifoggia.it", "healthcare": "hospital", "healthcare:speciality": "general;paediatrics;nephrology;dermatology;emergency;orthodontics;radiology;cardiology;biology;surgery;oncology;community;intensive;biochemistry;orthopaedics;maternity;physiatry;vaccination;haematology;diabetology;fertility;dialysis;internal;neurology;chi", "name": "Ospedali Riuniti di Foggia", "opening_hours": "24/7", "phone": "0881 731111;+390881732441 (segreteria)", "ref:vatin": "02218910715", "website": "https://www.sanita.puglia.it/web/ospedaliriunitifoggia", "wheelchair": "yes", "wikidata": "Q30270204"}}, {"name": "Ospedali Riuniti di Foggia", "latitude": 41.4579087, "longitude": 15.5233868, "source": "osm", "_tags": {"amenity": "hospital", "emergency": "yes", "healthcare": "hospital", "name": "Ospedali Riuniti di Foggia", "website": "https://www.sanita.puglia.it/web/ospedaliriunitifoggia/", "wikidata": "Q30270204"}}, {"name": "Azienda Ospedialiera San Carlo", "latitude": 40.8345145, "longitude": 15.3946969, "source": "osm", "_tags": {"amenity": "hospital", "name": "Azienda Ospedialiera San Carlo", "name:it": "Azienda Ospedialiera San Carlo"}}, {"name": "Casa della Divina Provvidenza Ospedale \"Don Uva\"", "latitude": 41.4696406, "longitude": 15.5278252, "source": "osm", "_tags": {"amenity": "hospital", "healthcare": "hospital", "name": "Casa della Divina Provvidenza Ospedale \"Don Uva\""}}, {"name": "Casa di Cura Montevergine", "latitude": 40.9224208, "longitude": 14.7461017, "source": "osm", "_tags": {"amenity": "hospital", "building": "yes", "healthcare": "hospital", "name": "Casa di Cura Montevergine"}}, {"name": "Ospedale Teresa Masselli Mascia", "latitude": 41.690307, "longitude": 15.3848945, "source": "osm", "_tags": {"amenity": "hospital", "healthcare": "hospital", "name": "Ospedale Teresa Masselli Mascia"}}, {"name": "Ospedale Gaetano Rummo-San Pio", "latitude": 41.1196587, "longitude": 14.7963239, "source": "osm", "_tags": {"addr:city": "Benevento", "addr:housenumber": "53", "addr:postcode": "82100", "addr:street": "Via Pacevecchia", "amenity": "hospital", "email": "protocollo@pec.ao-rummo.it", "emergency": "yes", "fax": "0824.312439", "healthcare": "hospital", "healthcare:speciality": "chiropractic;orthodontics;emergency;psychiatry;dermatology;nephrology;radiology;biology;cardiology;surgery;paediatrics;oncology;general;internal;vaccination;intensive;ophthalmology;abortion;osteopathy;physiatry;acupuncture;angiology;allergology;orthopaedi", "name": "Ospedale Gaetano Rummo-San Pio", "phone": "0824.57111 (Centralino)", "website": "http://ao-rummo.it/", "wheelchair": "yes"}}, {"name": "Villa Esther", "latitude": 40.9064358, "longitude": 14.7991468, "source": "osm", "_tags": {"addr:city": "Avellino", "addr:housenumber": "169", "addr:postcode": "83100", "addr:street": "Via Due Principati", "amenity": "hospital", "building": "hospital", "email": "info@villaesther.com", "fax": "+39 0825 760980", "healthcare": "hospital", "name": "Villa Esther", "operator": "Pineta Grande S.p.A.", "phone": "+39 0825 772111", "website": "http://www.villaesther.com/"}}, {"name": "Casa di Cura Malzoni - Villa dei Platani", "latitude": 40.9117287, "longitude": 14.7747086, "source": "osm", "_tags": {"addr:city": "Avellino", "addr:housenumber": "2", "addr:postcode": "83100", "addr:street": "Via Carmelo Errico", "amenity": "hospital", "building": "yes", "email": "info@malzoni.it", "fax": "+39 0825 7961", "name": "Casa di Cura Malzoni - Villa dei Platani", "phone": "+39 0825 7961", "website": "http://www.malzoni.it/"}}, {"name": "Ospedale G. Criscuoli", "latitude": 40.9309076, "longitude": 15.1615063, "source": "osm", "_tags": {"amenity": "hospital", "healthcare": "hospital", "name": "Ospedale G. Criscuoli"}}, {"name": "Villa Maria", "latitude": 41.0481785, "longitude": 15.0265489, "source": "osm", "_tags": {"amenity": "hospital", "healthcare": "hospital", "name": "Villa Maria"}}, {"name": "ASL", "latitude": 41.1583514, "longitude": 15.3260681, "source": "osm", "_tags": {"amenity": "hospital", "healthcare": "hospital", "name": "ASL", "operator": "ASL", "operator:wikidata": "Q3631467"}}, {"name": "Guardia Medica", "latitude": 41.7400219, "longitude": 14.8516006, "source": "osm", "_tags": {"amenity": "hospital", "building": "yes", "healthcare": "hospital", "name": "Guardia Medica"}}, {"name": "Ospedale Sacro Cuore di Gesù Fatebenefratelli", "latitude": 41.1360849, "longitude": 14.7736104, "source": "osm", "_tags": {"addr:city": "Benevento", "addr:housenumber": "14a", "addr:postcode": "82100", "addr:street": "Viale Principe di Napoli", "amenity": "hospital", "emergency": "no", "healthcare": "hospital", "healthcare:speciality": "general;surgery;emergency", "name": "Ospedale Sacro Cuore di Gesù Fatebenefratelli", "operator": "Provincia romana - Ordine ospedaliero di San Giovanni di Dio"}}, {"name": "Medicina Universitaria", "latitude": 41.4546043, "longitude": 15.5221165, "source": "osm", "_tags": {"amenity": "hospital", "healthcare": "hospital", "name": "Medicina Universitaria"}}, {"name": "ASL Avellino, Presidio Ospedaliero Sant'Ottone Frangipane", "latitude": 41.1485005, "longitude": 15.0844834, "source": "osm", "_tags": {"amenity": "hospital", "healthcare": "hospital", "healthcare:speciality": "Medicina_Generale;Cardiologia;Chirurgia_Generale;Ortopedia_e_traumatologia;Ostetricia_e_ginecologia", "name": "ASL Avellino, Presidio Ospedaliero Sant'Ottone Frangipane", "operator": "ASL", "operator:wikidata": "Q3631467"}}, {"name": "Ospedale Sant'Ottone Frangipane", "latitude": 41.1484382, "longitude": 15.0837499, "source": "osm", "_tags": {"amenity": "hospital", "healthcare": "hospital", "name": "Ospedale Sant'Ottone Frangipane", "wikidata": "Q54972754"}}, {"name": "ASL", "latitude": 41.0055828, "longitude": 14.7775066, "source": "osm", "_tags": {"addr:street": "Viale San Francesco", "amenity": "hospital", "building": "service", "healthcare": "hospital", "healthcare:speciality": "general", "name": "ASL", "operator": "ASL", "operator:wikidata": "Q3631467"}}, {"name": "Guardia Medica", "latitude": 41.00379, "longitude": 14.7769949, "source": "osm", "_tags": {"addr:street": "Viale San Francesco", "amenity": "hospital", "healthcare": "hospital", "name": "Guardia Medica"}}, {"name": "Ospedale Di Gugliemo", "latitude": 41.0077232, "longitude": 15.3563024, "source": "osm", "_tags": {"amenity": "hospital", "healthcare": "hospital", "name": "Ospedale Di Gugliemo"}}, {"name": "ASL", "latitude": 41.6950254, "longitude": 15.2926377, "source": "osm", "_tags": {"alt_name": "Continuità Assistenziale di Torremaggiore", "amenity": "hospital", "emergency": "yes", "healthcare": "hospital", "name": "ASL", "operator": "ASL", "operator:type": "public", "operator:wikidata": "Q3631467"}}, {"name": "ASL AV2 di Atripalda", "latitude": 40.9236868, "longitude": 14.8326172, "source": "osm", "_tags": {"addr:city": "Atripalda", "addr:postcode": "83042", "addr:street": "Via Manfredi", "amenity": "hospital", "building": "residential", "healthcare": "hospital", "name": "ASL AV2 di Atripalda", "operator": "ASL", "operator:type": "public", "operator:wikidata": "Q3631467"}}, {"name": "Asl", "latitude": 41.7343996, "longitude": 15.2619923, "source": "osm", "_tags": {"addr:city": "San Paolo di Civitate", "addr:postcode": "71010", "addr:street": "Via C. A. Della Chiesa", "amenity": "hospital", "healthcare": "hospital", "medical_supply": "yes", "name": "Asl", "operator": "ASL", "operator:type": "public", "operator:wikidata": "Q3631467"}}, {"name": "", "latitude": 41.0460716, "longitude": 15.0008687, "source": "osm", "_tags": {"amenity": "hospital", "building": "yes", "emergency": "no", "healthcare": "hospital", "operator": "ASL", "operator:type": "public", "operator:wikidata": "Q3631467"}}, {"name": "Ospedale San Giuseppe Moscati", "latitude": 40.9255868, "longitude": 14.8000013, "source": "osm", "_tags": {"addr:city": "Avellino", "addr:postcode": "83100", "addr:street": "Contrada Amoretta", "amenity": "hospital", "building": "yes", "email": "protocollo.generale@pec.aornmoscati.it;info@aornmoscati.it", "emergency": "yes", "healthcare": "hospital", "healthcare:speciality": "general;chiropractic;paediatrics;orthopaedics;nephrology;dermatology;radiology;orthodontics;ophthalmology;intensive;community;ayurveda;cardiology;biology;internal;oncology;emergency;vaccination;osteopathy;acupuncture;psychiatry;abortion;angiology;body;gyn", "name": "Ospedale San Giuseppe Moscati", "note": "Per vedere i reparti è necessario consultare il sito dell'azienda ospedaliera \"San Giuseppe Moscati\" di Avellino.", "opening_hours": "24/7", "phone": "0825203111", "type": "multipolygon", "website": "https://www.aornmoscati.it/", "wheelchair": "yes"}}, {"name": "Ospedale civile G. Vietri", "latitude": 41.806211, "longitude": 14.923462, "source": "osm", "_tags": {"amenity": "hospital", "building": "roof", "healthcare": "hospital", "layer": "1", "name": "Ospedale civile G. Vietri", "type": "multipolygon"}}, {"name": "ASL BN 1", "latitude": 41.1302876, "longitude": 14.7839364, "source": "osm", "_tags": {"amenity": "hospital", "building": "yes", "healthcare": "hospital", "name": "ASL BN 1", "operator": "ASL", "operator:type": "public", "operator:wikidata": "Q3631467", "type": "multipolygon"}}]