[{"name": "(ULSAM) - Ponte de Lima (Conde de Bertiandos)", "latitude": 41.767303, "longitude": -8.5791637, "source": "osm", "_tags": {"amenity": "hospital", "emergency": "yes", "healthcare": "hospital", "name": "(ULSAM) - Ponte de Lima (Conde de Bertiandos)"}}, {"name": "Hospital de Fão", "latitude": 41.5114746, "longitude": -8.7726128, "source": "osm", "_tags": {"addr:city": "Esposende", "addr:housenumber": "24", "addr:postcode": "4740-325", "addr:street": "Avenida Visconde de São Januário", "amenity": "hospital", "emergency": "no", "healthcare": "hospital", "name": "Hospital de Fão", "operator": "Santa Casa da Misericórdia de Fão", "operator:type": "religious"}}, {"name": "privat", "latitude": 41.7633262, "longitude": -8.5792611, "source": "osm", "_tags": {"amenity": "hospital", "name": "privat"}}, {"name": "Hospital da Póvoa de Varzim", "latitude": 41.3829444, "longitude": -8.7587715, "source": "osm", "_tags": {"amenity": "hospital", "name": "Hospital da Póvoa de Varzim", "wheelchair": "yes"}}, {"name": "Pedologia B-Saúde", "latitude": 41.3701904, "longitude": -8.426948, "source": "osm", "_tags": {"amenity": "hospital", "name": "Pedologia B-Saúde", "source": "Pedologia"}}, {"name": "Casa da Saúde Amares", "latitude": 41.6304605, "longitude": -8.3508792, "source": "osm", "_tags": {"amenity": "hospital", "name": "Casa da Saúde Amares"}}, {"name": "Hospital Senhor do Bonfim", "latitude": 41.3880046, "longitude": -8.7120563, "source": "osm", "_tags": {"amenity": "hospital", "healthcare": "hospital", "name": "Hospital Senhor do Bonfim"}}, {"name": "Hospital Particular Barcelos", "latitude": 41.519811, "longitude": -8.6345309, "source": "osm", "_tags": {"amenity": "hospital", "internet_access": "wlan", "name": "Hospital Particular Barcelos", "opening_hours": "24/7"}}, {"name": "Hospital da Misericórdia", "latitude": 41.8076045, "longitude": -8.4156977, "source": "osm", "_tags": {"amenity": "hospital", "healthcare": "hospital", "name": "Hospital da Misericórdia"}}, {"name": "Centro de Diagnóstico Pneumológico de Braga", "latitude": 41.5485469, "longitude": -8.429615, "source": "osm", "_tags": {"addr:housenumber": "52", "addr:postcode": "4700-027", "addr:street": "Rua do Matadouro", "amenity": "hospital", "check_date": "2024-05-18", "email": "cdp.braga@arsnorte.min-saude.pt", "fax": "+351 253 610 133", "healthcare": "centre", "name": "Centro de Diagnóstico Pneumológico de Braga", "opening_hours": "Mo-Fr 08:30-12:30,14:00-17:00, Sa-Su 09:00-14:00", "operator": "ARS Norte", "operator:type": "public", "phone": "+351 253 262 544", "website": "https://aces-braga.webnode.pt/cdp/"}}, {"name": "Hospital da Luz - Clínica Santa Maria da Feira", "latitude": 40.9259523, "longitude": -8.5492147, "source": "osm", "_tags": {"addr:city": "Santa Maria da Feira", "addr:housenumber": "95", "addr:postcode": "4520-192", "addr:street": "Rua Comendador Sá Couto", "amenity": "hospital", "contact:mobile": "+351 223 776 899", "contact:phone": "+351 223 776 800", "contact:website": "https://www.hospitaldaluz.pt/santamariafeira/", "healthcare": "hospital", "level": "2", "name": "Hospital da Luz - Clínica Santa Maria da Feira", "ownership": "private"}}, {"name": "Hospital CUF Trindade", "latitude": 41.1515898, "longitude": -8.6098672, "source": "osm", "_tags": {"addr:city": "Porto", "addr:housenumber": "115", "addr:postcode": "4000-541", "addr:street": "Rua da Trindade", "amenity": "hospital", "emergency": "no", "healthcare": "hospital", "name": "Hospital CUF Trindade", "old_name": "Hospital da Ordem da Trindade", "opening_hours": "Mo-Fr 07:30-22:00; Sa 08:00-14:00", "operator": "CUF", "operator:type": "private", "phone": "+351 22 207 59 00", "website": "https://www.cuf.pt/hospitais-e-clinicas/hospital-cuf-trindade"}}, {"name": "GeraSol - Fisioterapia", "latitude": 41.54701, "longitude": -8.4055862, "source": "osm", "_tags": {"addr:city": "Braga", "addr:housenumber": "87", "addr:postcode": "4715-213", "addr:street": "Rua José António Cruz, 87", "amenity": "hospital", "healthcare": "clinic", "healthcare:speciality": "physiatry", "mobile": "+351917364312", "name": "GeraSol - Fisioterapia", "website": "https://www.gerasol-fisioterapia.com/"}}, {"name": "Unidade de Cuidados de Saúde Personalizados Adaúfe", "latitude": 41.5859359, "longitude": -8.4018005, "source": "osm", "_tags": {"addr:housenumber": "170B", "addr:postcode": "4710-820 Adaúfe", "addr:street": "Avenida Imaculada Conceição", "amenity": "hospital", "email": "ucsp.adaufe@arsnorte.min-saude.pt", "emergency": "no", "name": "Unidade de Cuidados de Saúde Personalizados Adaúfe", "phone": "+351 253 675 178", "short_name": "UCSP Adaúfe"}}, {"name": "Trofa Saúde", "latitude": 40.8876464, "longitude": -8.4913292, "source": "osm", "_tags": {"addr:city": "São João da Madeira", "addr:housenumber": "1625", "addr:postcode": "3700-346", "addr:street": "Avenida Doutor Renato Araújo", "addr:unit": "A004;A007;A008", "amenity": "hospital", "branch": "são João da Madeira", "emergency": "no", "healthcare": "hospital", "level": "0", "name": "Trofa Saúde", "official_name": "H.P.T. - Hospital Privado da Trofa, S.A.", "opening_hours": "Mo-Fr 08:00-20:00; Sa 08:00-14:00", "phone": "+351 256 247 700", "website": "https://www.trofasaude.pt/sjmadeira/", "wheelchair": "yes"}}, {"name": "Trofa Saúde Gaia - Laboratório de Análises Clínicas", "latitude": 41.1209567, "longitude": -8.6186054, "source": "osm", "_tags": {"addr:city": "Vila Nova de Gaia", "amenity": "clinic", "healthcare": "hospital", "name": "Trofa Saúde Gaia - Laboratório de Análises Clínicas"}}, {"name": "Trofa Saúde Gaia", "latitude": 41.1207557, "longitude": -8.6179845, "source": "osm", "_tags": {"addr:city": "Vila Nova de Gaia", "addr:housenumber": "2", "addr:postcode": "4400-629", "addr:street": "Rua Fernão de Magalhães", "alt_name": "Hospital Privado de Gaia", "amenity": "hospital", "check_date": "2024-01-14", "emergency": "yes", "healthcare": "hospital", "name": "Trofa Saúde Gaia", "official_name": "G. H. P. G. – Gaiarts, Hospital Privado de Gaia, S.A.", "operator:type": "private", "phone": "+351 252 090 600;+351 220 439 600", "short_name": "HP Gaia;TS Gaia", "website": "https://www.trofasaude.pt/gaia/"}}, {"name": "Trofa Saúde Braga Norte", "latitude": 41.5792599, "longitude": -8.4297207, "source": "osm", "_tags": {"amenity": "hospital", "emergency": "yes", "healthcare": "hospital", "name": "Trofa Saúde Braga Norte", "operator": "Trofa Saúde"}}, {"name": "Lusíadas Braga", "latitude": 41.5476618, "longitude": -8.4227189, "source": "osm", "_tags": {"amenity": "hospital", "check_date": "2024-10-29", "healthcare": "hospital", "name": "Lusíadas Braga", "operator:type": "private", "payment:cash": "yes", "payment:credit_cards": "yes", "payment:debit_cards": "yes", "wheelchair": "yes"}}, {"name": "Hospital Lusíadas Santa Maria da Feira", "latitude": 40.9275132, "longitude": -8.5721737, "source": "osm", "_tags": {"addr:housenumber": "222", "addr:postcode": "4520-103", "addr:street": "Rua Doutor Serafim Correia Pinto Guimarães", "amenity": "hospital", "contact:website": "https://www.lusiadas.pt/hospitais-clinicas/hospital-lusiadas-santa-maria-feira", "healthcare": "hospital", "name": "Hospital Lusíadas Santa Maria da Feira", "opening_hours": "Mo-Fr 08:00-20:00; Sa 08:00-13:00", "operator": "Lusíadas, A.C.E."}}, {"name": "Hospital Pedro Hispano - Unidade Local de Saúde de Matosinhos, E.P.E.", "latitude": 41.1823012, "longitude": -8.6629159, "source": "osm", "_tags": {"addr:city": "Senhora da Hora", "addr:postcode": "4454-509", "addr:street": "Rua Doutor Eduardo Torres", "amenity": "hospital", "emergency": "yes", "healthcare": "hospital", "name": "Hospital Pedro Hispano - Unidade Local de Saúde de Matosinhos, E.P.E.", "opening_hours": "24/7", "source": "Bing", "website": "https://www.ulsm.min-saude.pt/"}}, {"name": "Hospital Geral de Santo António", "latitude": 41.1470598, "longitude": -8.6190697, "source": "osm", "_tags": {"addr:city": "Porto", "addr:country": "PT", "addr:postcode": "4099-001", "addr:street": "Largo do Professor Abel Salazar", "alt_name": "Hospital de Santo António;ULS de Santo António;Centro Hospitalar Universitário de Santo António", "amenity": "hospital", "contact:phone": "+351 222 077 500", "contact:website": "https://www.chporto.pt/", "emergency": "yes", "healthcare": "hospital", "name": "Hospital Geral de Santo António", "short_name": "HGSA", "source": "Bing", "toilets:wheelchair": "yes", "wheelchair": "yes", "wikidata": "Q1630437", "wikimedia_commons": "Category:Hospital de Santo António (Porto)", "wikipedia": "pt:Hospital de Santo António"}}, {"name": "Hospital Lusíadas Porto", "latitude": 41.1564996, "longitude": -8.6257781, "source": "osm", "_tags": {"amenity": "hospital", "healthcare": "hospital", "name": "Hospital Lusíadas Porto", "wheelchair": "yes"}}, {"name": "Centro Hospitalar Universitário de São João", "latitude": 41.181189, "longitude": -8.6011031, "source": "osm", "_tags": {"alt_name": "Hospital de São João", "amenity": "hospital", "emergency": "yes", "healthcare": "hospital", "healthcare:speciality": "general;paediatrics;ophthalmology;dialysis;intensive;orthopaedics;emergency;gynaecology;dermatology;surgery;cardiology;oncology;radiology;internal", "heritage:operator": "dgpc", "heritage:website:sipa": "http://www.monumentos.gov.pt/Site/APP_PagesUser/SIPA.aspx?id=17399", "name": "Centro Hospitalar Universitário de São João", "name:en": "University Hospital Center of São João", "operator": "CHUSJ", "operator:type": "public", "protection_title": "Sem proteção legal", "ref:sipa": "17399", "short_name": "HSJ", "toilets:wheelchair": "yes", "wheelchair": "yes", "wikidata": "Q10298549", "wikimedia_commons": "Category:Hospital Universitário de São João", "wikipedia": "en:University Hospital Center of São João"}}, {"name": "Hospital de Magalhães Lemos", "latitude": 41.1773936, "longitude": -8.6656946, "source": "osm", "_tags": {"addr:city": "Porto", "addr:postcode": "4149-003", "addr:street": "Rua Professor Álvaro Rodrigues", "amenity": "hospital", "contact:mobile": "+351 226 184 084", "contact:phone": "+351 226 192 400", "contact:website": "https://www.hmlemos.min-saude.pt/", "emergency": "yes", "healthcare": "hospital", "healthcare:speciality": "psychiatry", "name": "Hospital de Magalhães Lemos", "official_name": "Hospital de Magalhães Lemos, E.P.E.", "operator": "Serviço Nacional de Saúde", "operator:type": "public", "short_name": "HML", "source:geometry": "https://opendata.porto.digital/dataset/urbanismo-edificios-publicos-zona-de-protecao-a-equipamento-de-saude", "wikidata": "Q30265221", "wikimedia_commons": "Category:Hospital de Magalhães Lemos"}}, {"name": "Centro de Saúde de Vila do Conde", "latitude": 41.3554756, "longitude": -8.7448968, "source": "osm", "_tags": {"amenity": "clinic", "building": "yes", "healthcare": "hospital", "name": "Centro de Saúde de Vila do Conde"}}, {"name": "Hospital de Santa Maria Maior", "latitude": 41.5332961, "longitude": -8.6159379, "source": "osm", "_tags": {"amenity": "hospital", "emergency": "yes", "healthcare": "hospital", "healthcare:speciality": "emergency;general;paediatrics", "name": "Hospital de Santa Maria Maior", "wheelchair": "yes"}}, {"name": "Hospital de São Martinho", "latitude": 41.1820509, "longitude": -8.4826055, "source": "osm", "_tags": {"amenity": "hospital", "building": "yes", "emergency": "yes", "healthcare": "hospital", "name": "Hospital de São Martinho", "source": "Bing"}}, {"name": "Hospital de Lousada", "latitude": 41.2806191, "longitude": -8.2781395, "source": "osm", "_tags": {"amenity": "hospital", "building": "hospital", "healthcare": "hospital", "layer": "1", "name": "Hospital de Lousada", "operator": "Ministério da Saúde", "operator:type": "government", "operator:wikidata": "Q4294357"}}, {"name": "Hospital de Paredes", "latitude": 41.2046912, "longitude": -8.3321442, "source": "osm", "_tags": {"amenity": "hospital", "name": "Hospital de Paredes"}}, {"name": "Hospital Valongo", "latitude": 41.1870665, "longitude": -8.4984746, "source": "osm", "_tags": {"addr:housename": "Hospital Nossa Senhora da Conceição de Valongo", "addr:postcode": "4440-563", "addr:street": "Rua da Misericórdia", "alt_name": "Hospital Nossa Senhora da Conceição de Valongo", "amenity": "hospital", "emergency": "yes", "healthcare": "hospital", "name": "Hospital Valongo", "source": "Bing", "wikidata": "Q124789026"}}, {"name": "Hospital São João de Deus", "latitude": 41.4127683, "longitude": -8.5225309, "source": "osm", "_tags": {"addr:city": "Vila Nova de Famalicão", "addr:housenumber": "31", "addr:postcode": "4767-958", "addr:street": "Rua Artur Cupertino de Miranda", "amenity": "hospital", "landuse": "commercial", "name": "Hospital São João de Deus", "operator": "Centro Hospitalar Médio Ave", "phone": "+351 252 300800", "website": "https://www.chma.pt/", "wheelchair": "yes", "wikidata": "Q92300798"}}, {"name": "Cuidados Continuados", "latitude": 41.3762444, "longitude": -8.3144956, "source": "osm", "_tags": {"amenity": "hospital", "name": "Cuidados Continuados", "source": "bing"}}, {"name": "Hospital Padre Américo", "latitude": 41.1968749, "longitude": -8.3088149, "source": "osm", "_tags": {"addr:city": "Penafiel", "addr:postcode": "4564-007", "addr:street": "Lugar do Tapadinho Guilhufe", "alt_name": "Centro Hospitalar Tâmega e Sousa", "amenity": "hospital", "emergency": "yes", "healthcare": "hospital", "name": "Hospital Padre Américo", "note": "Telefone Geral 255 714 000 // Administração 255 714 094 // Serviço de Relações Públicas e Comunicação 255 714 060 // Posto de informações - Visitas e Acompanhantes 255 714 019 // Linha do Utente 808 203 126", "official_name": "Centro Hospitalar Tâmega e Sousa, E.P.E.", "phone": "+351 255 714000", "short_name": "CHTS", "source": "http://www.chtamegasousa.pt/index.php?option=com_content&task=view&id=83&Itemid=77", "website": "http://www.chtamegasousa.pt/", "wheelchair": "yes"}}, {"name": "Hospital Militar Regional nº 1 (Dom Pedro V)", "latitude": 41.1581986, "longitude": -8.6257, "source": "osm", "_tags": {"addr:city": "Porto", "addr:postcode": "4050-113", "addr:street": "Avenida da Boavista", "alt_name": "Hospital Militar do Porto", "amenity": "hospital", "healthcare": "hospital", "heritage:operator": "dgpc", "heritage:website:sipa": "http://www.monumentos.gov.pt/Site/APP_PagesUser/SIPA.aspx?id=20497", "name": "Hospital Militar Regional nº 1 (Dom Pedro V)", "old_name": "Hospital Militar Dom Pedro V", "operator": "Ministério da Defesa Nacional", "phone": "+351 22 608 7900", "protection_title": "Incluído em Zona de Proteção", "ref:ipa": "20497", "short_name": "HMR1;HFAR-PP", "start_date": "1869", "website": "https://www.hfar.pt/", "wikidata": "Q10298418", "wikimedia_commons": "File:Hospital Militar (Porto).jpg", "wikipedia": "pt:Hospital Militar Regional n.º 1 (D. Pedro V)"}}, {"name": "Hospital Maria Pia", "latitude": 41.1565459, "longitude": -8.6230743, "source": "osm", "_tags": {"alt_name": "Memória do Hospital de Crianças Maria Pia", "check_date": "2023-07-23", "disused:amenity": "hospital", "healthcare": "hospital", "heritage": "7", "heritage:operator": "dgpc", "heritage:ref": "MIM", "heritage:website": "https://servicos.dgpc.gov.pt/pesquisapatrimonioimovel/detalhes.php?code=30607302", "heritage:website:sipa": "http://www.monumentos.gov.pt/Site/APP_PagesUser/SIPA.aspx?id=36367", "name": "Hospital Maria Pia", "protection_title": "Monumento de Interesse Municipal", "ref:dgpc": "30607302", "ref:sipa": "36367", "source:geometry": "https://files.diariodarepublica.pt/2s/2024/01/009000000/0064400645.pdf", "wheelchair": "yes", "wikidata": "Q29524695", "wikimedia_commons": "Category:Hospital de Crianças Maria Pia", "wikipedia": "pt:Hospital Maria Pia"}}, {"name": "Centro Materno-Infantil do Norte", "latitude": 41.151735, "longitude": -8.6241024, "source": "osm", "_tags": {"addr:city": "Porto", "addr:housename": "Maternidade de Júlio Dinis", "addr:postcode": "4050-371", "addr:street": "Largo da Maternidade de Júlio Dinis", "amenity": "hospital", "barrier": "fence", "contact:facebook": "https://pt-br.facebook.com/Centro-Materno-Infantil-do-Norte-557382487730936/", "emergency": "yes", "healthcare": "hospital", "healthcare:speciality": "maternity", "name": "Centro Materno-Infantil do Norte", "old_name": "Maternidade de Júlio Dinis (Centro Hospitalar do Porto)", "operator": "Centro Hospitalar do Porto, E.P.E.", "operator:type": "public", "phone": "+351 222 077 500", "website": "https://www.chporto.pt/", "wikidata": "Q10327321", "wikipedia": "pt:Maternidade Júlio Dinis"}}, {"name": "Hospital da Ordem da Lapa", "latitude": 41.1571818, "longitude": -8.6134061, "source": "osm", "_tags": {"addr:city": "Porto", "addr:housenumber": "1", "addr:postcode": "4050-069", "addr:street": "Largo da Lapa", "alt_name": "Hospital da Irmandade de Nossa Senhora da Lapa", "amenity": "hospital", "emergency": "yes", "fax": "+351 225 501 621", "healthcare": "hospital", "heritage:operator": "dgpc", "heritage:website:sipa": "http://www.monumentos.gov.pt/Site/APP_PagesUser/SIPA.aspx?id=27509", "name": "Hospital da Ordem da Lapa", "operator": "Venerável Irmandade de Nossa Senhora da Lapa", "phone": "+351 225 502 828", "protection_title": "Sem proteção legal", "ref:ipa": "27509", "website": "https://www.hospitaldalapa.pt/", "wikidata": "Q124213657", "wikimedia_commons": "Category:Hospital da Irmandade de Nossa Senhora da Lapa"}}, {"name": "", "latitude": 41.5367621, "longitude": -8.7812374, "source": "osm", "_tags": {"addr:city": "Esposende", "addr:housenumber": "65", "addr:postcode": "4740-203", "addr:street": "Rua Doutor Queiroz de Faria", "building": "hospital", "email": "hospital@scmesposende.pt", "emergency": "yes", "healthcare": "hospital", "operator": "Santa Casa da Misericórdia de Esposende", "phone": "253969480", "website": "https://hospital-esposende.scmesposende.pt/"}}, {"name": "Hospital da Senhora da Oliveira Guimarães, EPE", "latitude": 41.4423259, "longitude": -8.3055401, "source": "osm", "_tags": {"addr:city": "Guimarães", "addr:postcode": "4835-044", "addr:street": "Rua dos Cutileiros", "amenity": "hospital", "email": "geral@hospitaldeguimaraes.min-saude.pt", "emergency": "yes", "healthcare": "hospital", "name": "Hospital da Senhora da Oliveira Guimarães, EPE", "phone": "+351 253540330", "website": "https://www.hospitaldeguimaraes.min-saude.pt/"}}, {"name": "Cruz Vermelha Portuguesa - Delegação Marinhas", "latitude": 41.5568928, "longitude": -8.7830222, "source": "osm", "_tags": {"addr:city": "Marinhas", "addr:housenumber": "80", "addr:postcode": "4740-571", "addr:street": "Avenida São Sebastião", "alt_name": "Cruz Vermelha de Marinhas", "amenity": "hospital", "building": "yes", "checkpoint": "hiking", "checkpoint:type": "stamp", "course": "Caminho Português da Costa", "email": "adm_geral@cvpmarinhas.org", "emergency": "yes", "healthcare": "hospital", "name": "Cruz Vermelha Portuguesa - Delegação Marinhas", "operator": "N13 80 4740-571 Marinhas Portugal", "phone": "+351 253 964 720", "website": "http://www.cvpmarinhas.org/"}}, {"name": "Hospital da Misericórdia", "latitude": 41.8076364, "longitude": -8.4157119, "source": "osm", "_tags": {"amenity": "hospital", "building": "yes", "healthcare": "hospital", "name": "Hospital da Misericórdia", "source": "bing"}}, {"name": "Hospital de São Miguel", "latitude": 40.8412891, "longitude": -8.4717115, "source": "osm", "_tags": {"addr:city": "Oliveira de Azeméis", "addr:postcode": "3720-275", "addr:street": "Largo Rizzo Terra", "alt_name": "Hospital de Oliveira de Azeméis; Hospital São Miguel; Hospital Distrital de Oliveira de Azeméis", "amenity": "hospital", "check_date": "2025-01-21", "contact:phone": "+351 256 379 700", "emergency": "yes", "healthcare": "hospital", "internet_access": "no", "name": "Hospital de São Miguel", "network": "Centro Hospitalar de Entre o Douro e Vouga, E.P.E.", "short_name": "HSM;HOZ;CHEDV"}}, {"name": "Hospital Privado Braga", "latitude": 41.5245227, "longitude": -8.4134677, "source": "osm", "_tags": {"addr:city": "Nogueira", "addr:postcode": "4715-196", "addr:street": "Rua da Igreja", "alt_name": "Trofa Saúde Hospital - Unidade Braga Sul", "amenity": "hospital", "building": "yes", "emergency": "yes", "healthcare": "hospital", "name": "Hospital Privado Braga", "operator": "Trofa Saúde", "phone": "(+351) 253 680 200", "website": "https://www.trofasaude.pt/bragasul/"}}, {"name": "Hospital Privado de Alfena", "latitude": 41.227753, "longitude": -8.5396729, "source": "osm", "_tags": {"addr:city": "Alfena", "addr:housenumber": "201", "addr:postcode": "4445-268", "addr:street": "Rua das Passarias", "amenity": "hospital", "emergency": "yes", "healthcare": "hospital", "name": "Hospital Privado de Alfena", "operator": "Hospital Privado de Alfena", "operator:type": "private", "phone": "+351 229 688 700", "website": "https://www.hospitalprivadodealfena.pt/"}}, {"name": "Hospital de Dia da Maia", "latitude": 41.2349136, "longitude": -8.6233695, "source": "osm", "_tags": {"addr:housename": "Edifício do Polo de Serviços da Maia", "amenity": "hospital", "building": "yes", "emergency": "no", "healthcare": "hospital", "healthcare:speciality": "general", "name": "Hospital de Dia da Maia"}}, {"name": "Centro Hospitalar Vila Nova de Gaia/Espinho - Unidade III", "latitude": 41.0027703, "longitude": -8.6375461, "source": "osm", "_tags": {"addr:city": "Espinho", "addr:postcode": "4500-328", "addr:street": "Rua 37", "alt_name": "Hospital Nossa Senhora da Ajuda; Hospital de Espinho", "amenity": "hospital", "emergency": "no", "healthcare": "hospital", "name": "Centro Hospitalar Vila Nova de Gaia/Espinho - Unidade III", "network": "Centro Hospitalar de Vila Nova de Gaia/Espinho, E.P.E.", "short_name": "CHVNG/E"}}, {"name": "Hospital Privado da Boa Nova", "latitude": 41.2215998, "longitude": -8.7099146, "source": "osm", "_tags": {"addr:city": "Perafita", "addr:housenumber": "202", "addr:postcode": "4455-413", "addr:street": "Rua da Aldeia Nova", "amenity": "hospital", "emergency": "yes", "healthcare": "hospital", "name": "Hospital Privado da Boa Nova"}}, {"name": "Hospital de São Sebastião", "latitude": 40.930509, "longitude": -8.5467828, "source": "osm", "_tags": {"addr:city": "Santa Maria da Feira", "addr:country": "PT", "addr:housenumber": "5", "addr:postcode": "4520-211", "addr:street": "Rua Doutor Cândido de Pinho", "alt_name": "Hospital da Feira;Hospital de Vila da Feira;Hospital de Santa Maria da Feira;Sede do Centro Hospitalar de Entre o Douro e Vouga", "amenity": "hospital", "contact:email": "hssebastiao@chedv.min-saude.pt", "contact:facebook": "https://www.facebook.com/piorhospitaldopais/?locale=pt_PT", "contact:fax": "+351 256 373 867", "contact:phone": "+351 256 379 700", "contact:website": "www.hospitalfeira.min-saude.pt", "emergency": "yes", "fax": "+351 256 373 867", "healthcare": "hospital", "healthcare:speciality": "anaesthetics;cardiology;gastroenterology;surgery;gynaecology;haematology;physiatry;internal;neurology;pulmonology;ophthalmology;oncology;orthopaedics;otolaryngology;paediatrics;psychiatry;urology;neonatology;rheumatology;endocrinology;plastic_surgery", "name": "Hospital de São Sebastião", "network": "Centro Hospitalar de Entre o Douro e Vouga, E.P.E.", "note": "Centro Hospitalar", "official_name": "Hospital São Sebastião, E.P.E.", "opening_hours": "24/7", "operator": "Ministério da Saúde", "operator:type": "government", "operator:wikidata": "Q4294357", "phone": "+351 256 379 700", "ref:vatin": "PT508878462", "short_name": "HSS;CHEDV", "start_date": "1999-01-04", "website": "https://www.chedv.min-saude.pt/", "website:sipa": "http://www.monumentos.gov.pt/Site/APP_PagesUser/SIPA.aspx?id=21173", "wheelchair": "yes"}}, {"name": "Centro de Saúde da Maia", "latitude": 41.2331987, "longitude": -8.6259111, "source": "osm", "_tags": {"amenity": "clinic", "healthcare": "hospital", "name": "Centro de Saúde da Maia"}}, {"name": "Instituto CUF Porto", "latitude": 41.1817968, "longitude": -8.6508345, "source": "osm", "_tags": {"addr:city": "Senhora da Hora", "addr:housenumber": "170", "addr:postcode": "4460-188", "addr:street": "Rua da Fonte das Sete Bicas", "amenity": "hospital", "emergency": "yes", "fax": "+351 220 033 520", "healthcare": "hospital", "healthcare:speciality": "paediatrics;dentistry;gynaecology", "name": "Instituto CUF Porto", "nif": "506123243", "official_name": "Instituto Cuf Diagnóstico e Tratamento, S.A.", "phone": "+351 220 033 500", "website": "https://www.cuf.pt/hospitais-e-clinicas/instituto-cuf-porto", "wheelchair": "yes"}}, {"name": "Centro Hospitalar Vila Nova de Gaia/Espinho - Unidade II", "latitude": 41.1285515, "longitude": -8.6104019, "source": "osm", "_tags": {"alt_name": "Centro Hospitalar Vila Nova de Gaia/Espinho - Unidade 2", "amenity": "hospital", "emergency": "yes", "healthcare": "hospital", "healthcare:speciality": "gynaecology;orthopaedics", "name": "Centro Hospitalar Vila Nova de Gaia/Espinho - Unidade II", "network": "Centro Hospitalar de Vila Nova de Gaia/Espinho, E.P.E.", "old_name": "Hospital Distrital de Gaia", "short_name": "CHVNG/E", "wikidata": "Q30281678"}}, {"name": "Instituto Português de Oncologia do Porto", "latitude": 41.1823824, "longitude": -8.6063335, "source": "osm", "_tags": {"addr:city": "Porto", "addr:housename": "Instituto Português de Oncologia do Porto Francisco Gentil, E.P.E", "addr:postcode": "4200-072", "addr:street": "Rua Doutor António Bernardino de Almeida", "alt_name": "Instituto Português de Oncologia - Centro Regional do Porto", "amenity": "hospital", "emergency": "no", "fax": "+351 225 084 001", "healthcare": "hospital", "name": "Instituto Português de Oncologia do Porto", "name:en": "Portuguese Oncology Institute of Porto", "official_name": "Instituto Português de Oncologia do Porto FG, EPE", "phone": "+351 225 084 000", "short_name": "IPO", "website": "https://ipoporto.pt/"}}, {"name": "Hospital Ordem São Francisco", "latitude": 41.1419602, "longitude": -8.6163356, "source": "osm", "_tags": {"alt_name": "Hospital de São Francisco", "amenity": "hospital", "building": "yes", "building:colour": "white", "building:levels": "5", "building:material": "plaster", "emergency": "no", "healthcare": "hospital", "heritage:website:sipa": "http://www.monumentos.gov.pt/Site/APP_PagesUser/SIPA.aspx?id=20001", "name": "Hospital Ordem São Francisco", "ref:ipa": "20001"}}, {"name": "Hospital Particular de Viana do Castelo", "latitude": 41.7059206, "longitude": -8.8179006, "source": "osm", "_tags": {"amenity": "hospital", "healthcare": "hospital", "name": "Hospital Particular de Viana do Castelo"}}, {"name": "Cruz Vermelha Portuguesa", "latitude": 41.54852, "longitude": -8.4155184, "source": "osm", "_tags": {"addr:housename": "Delegação de Braga", "addr:housenumber": "317", "addr:postcode": "4715-052", "addr:street": "Avenida 31 de Janeiro", "amenity": "hospital", "building": "yes", "check_date": "2024-07-28", "emergency": "yes", "int_name": "Red Cross", "name": "Cruz Vermelha Portuguesa", "note": "Posto de Enfermagem", "phone": "+351 253 208870"}}, {"name": "Hospital-Escola Fernando Pessoa", "latitude": 41.1431843, "longitude": -8.5442282, "source": "osm", "_tags": {"amenity": "hospital", "healthcare": "hospital", "name": "Hospital-Escola Fernando Pessoa", "wheelchair": "yes"}}, {"name": "Hospital de Dia da Trofa", "latitude": 41.4000503, "longitude": -8.5170731, "source": "osm", "_tags": {"amenity": "hospital", "building": "hospital", "name": "Hospital de Dia da Trofa"}}, {"name": "Instituto de Medicina Legal", "latitude": 41.1483636, "longitude": -8.6177404, "source": "osm", "_tags": {"amenity": "hospital", "name": "Instituto de Medicina Legal"}}, {"name": "Consulta Externa Hospital Santo António - Rua Dom Manuel II - Ex-CICAP", "latitude": 41.1467621, "longitude": -8.6227192, "source": "osm", "_tags": {"amenity": "hospital", "emergency": "no", "healthcare": "hospital", "name": "Consulta Externa Hospital Santo António - Rua Dom Manuel II - Ex-CICAP", "operator": "CHSA", "operator:type": "public", "wheelchair": "yes"}}, {"name": "Hospital Narciso Ferreira", "latitude": 41.3914205, "longitude": -8.3902327, "source": "osm", "_tags": {"amenity": "hospital", "email": "geral@hnf.pt", "fax": "+351 252900809", "name": "Hospital Narciso Ferreira", "operator": "Santa Casa da Misericórdia", "phone": "+351 252900800", "website": "http://www.hnf.pt/"}}, {"name": "Hospital Privado de Braga (Centro)", "latitude": 41.5498651, "longitude": -8.4187147, "source": "osm", "_tags": {"amenity": "hospital", "building": "yes", "check_date": "2024-05-16", "name": "Hospital Privado de Braga (Centro)"}}, {"name": "Hospital da Luz Póvoa de Varzim", "latitude": 41.3944511, "longitude": -8.7641097, "source": "osm", "_tags": {"amenity": "hospital", "check_date": "2025-08-18", "name": "Hospital da Luz Póvoa de Varzim", "old_name": "Clipóvoa - Hospital Privado", "toilets:wheelchair": "yes", "wheelchair": "yes"}}, {"name": "Hospital do Médio Ave", "latitude": 41.3418688, "longitude": -8.4805704, "source": "osm", "_tags": {"amenity": "hospital", "emergency": "yes", "healthcare": "hospital", "name": "Hospital do Médio Ave"}}, {"name": "Hospital de Braga", "latitude": 41.5676887, "longitude": -8.3993883, "source": "osm", "_tags": {"addr:city": "São Vítor", "addr:postcode": "4710-243", "addr:street": "Ambulatório (consultas externas)", "amenity": "hospital", "check_date": "2023-08-11", "email": "hbraga@hospitaldebraga.pt", "emergency": "yes", "healthcare": "hospital", "name": "Hospital de Braga", "operator": "Serviço Nacional de Saúde", "operator:type": "public", "phone": "+351 253 027 000", "source": "Bing", "website": "https://www.hospitaldebraga.pt", "wheelchair": "yes", "wikidata": "Q10298528", "wikipedia": "pt:Hospital de Braga"}}, {"name": "Centro de Reabilitação do Norte", "latitude": 41.0886895, "longitude": -8.6549241, "source": "osm", "_tags": {"addr:city": "Vila Nova de Gaia", "addr:housenumber": "349", "addr:postcode": "4405-565", "addr:street": "Avenida Infante de Sagres", "alt_name": "Centro de Reabilitação do Norte Dr. Ferreira Alves", "amenity": "hospital", "emergency": "no", "healthcare": "hospital", "name": "Centro de Reabilitação do Norte", "network": "Centro Hospitalar de Vila Nova de Gaia/Espinho", "old_name": "Sanatório Marítimo do Norte", "operator": "Misericórdia do Porto", "phone": "+351 227 668 830", "short_name": "CRN", "source": "Própria", "toilets:wheelchair": "yes", "website": "https://www.chvnge.min-saude.pt/PORTALCRN", "wheelchair": "yes", "wikidata": "Q7415546", "wikimedia_commons": "Category:Sanatório Marítimo do Norte"}}, {"name": "Hospital da Misericórdia", "latitude": 41.8076415, "longitude": -8.4157197, "source": "osm", "_tags": {"amenity": "hospital", "healthcare": "hospital", "name": "Hospital da Misericórdia", "source": "bing"}}, {"name": "Centro de Saúde de Ponte da Barca", "latitude": 41.8075668, "longitude": -8.4140037, "source": "osm", "_tags": {"amenity": "clinic", "healthcare": "hospital", "name": "Centro de Saúde de Ponte da Barca", "source": "bing"}}, {"name": "Hospital de São João da Madeira", "latitude": 40.8931647, "longitude": -8.4945543, "source": "osm", "_tags": {"addr:city": "São João da Madeira", "addr:postcode": "3700-190", "addr:street": "Avenida da Misericórdia", "alt_name": "Hospital Distrital de São João da Madeira", "amenity": "hospital", "contact:phone": "+351 256 379 700", "emergency": "yes", "healthcare": "hospital", "name": "Hospital de São João da Madeira", "network": "Centro Hospitalar de Entre o Douro e Vouga, E.P.E.;Unidade Local de Saúde Entre Douro e Vouga", "short_name": "HDSJM;HSJM;CHEDV"}}, {"name": "Hospital da Arrábida", "latitude": 41.1408615, "longitude": -8.6355475, "source": "osm", "_tags": {"amenity": "hospital", "building": "yes", "check_date": "2024-03-14", "healthcare": "hospital", "name": "Hospital da Arrábida"}}, {"name": "Hospital Privado de Guimarães", "latitude": 41.4303483, "longitude": -8.3227483, "source": "osm", "_tags": {"addr:city": "Guimarães", "addr:postcode": "4835-235 Guimarães", "addr:street": "Alameda dos Desportos", "amenity": "hospital", "building:levels": "5", "emergency": "yes", "name": "Hospital Privado de Guimarães", "website": "www.ami.com.pt", "wheelchair": "yes"}}, {"name": "Santa Casa da Misericórdia", "latitude": 41.652916, "longitude": -8.4347857, "source": "osm", "_tags": {"amenity": "hospital", "healthcare": "hospital", "name": "Santa Casa da Misericórdia"}}, {"name": "Hospital de Santa Luzia", "latitude": 41.6968896, "longitude": -8.8328525, "source": "osm", "_tags": {"addr:city": "Viana do Castelo", "addr:country": "PT", "addr:postcode": "4901-858", "addr:street": "Estrada de Santa Luzia", "alt_name": "Hospital Santa Luzia", "amenity": "hospital", "email": "administracao@ulsam.min-saude.pt", "emergency": "yes", "healthcare": "hospital", "layer": "1", "name": "Hospital de Santa Luzia", "official_name": "Centro Hospitalar do Alto Minho, EPE", "operator": "Unidade Local de Saúde do Alto Minho, EPE", "phone": "+351258802100;+351258802276;+351258828888", "short_name": "ULSAM", "website": "www.cham.min-saude.pt", "wheelchair": "yes", "wikidata": "Q66815238"}}, {"name": "Hospital da Prelada", "latitude": 41.1711333, "longitude": -8.6294368, "source": "osm", "_tags": {"addr:housenumber": "153", "addr:street": "Rua de Sarmento de Beires", "amenity": "hospital", "barrier": "fence", "emergency": "no", "healthcare": "hospital", "name": "Hospital da Prelada", "toilets:wheelchair": "yes", "website": "https://portaldasaude.scmp.pt/", "wheelchair": "yes"}}, {"name": "", "latitude": 41.4470441, "longitude": -8.3021988, "source": "osm", "_tags": {"addr:city": "Guimarães", "amenity": "hospital", "healthcare": "hospital"}}, {"name": "Hospital de Vila do Conde", "latitude": 41.3547952, "longitude": -8.7446454, "source": "osm", "_tags": {"addr:city": "Vila do Conde", "addr:street": "Avenida Doutor Artur Cunha Araújo", "amenity": "hospital", "emergency": "yes", "healthcare": "hospital", "name": "Hospital de Vila do Conde"}}, {"name": "Trofa Saúde Hospital Central - Senhor do Bonfim", "latitude": 41.3872686, "longitude": -8.7116591, "source": "osm", "_tags": {"amenity": "hospital", "emergency": "yes", "healthcare": "hospital", "name": "Trofa Saúde Hospital Central - Senhor do Bonfim"}}, {"name": "Cruz Vermelha", "latitude": 41.7183359, "longitude": -8.311051, "source": "osm", "_tags": {"addr:city": "Moimenta - Terras de Bouro", "addr:housenumber": "128", "addr:postcode": "4840-100", "addr:street": "Rua da Cruz Vermelha", "amenity": "hospital", "capacity": "5", "description": "A Cruz Vermelha Portuguesa procura ajudar as pessoas vulneráveis, sejam quem forem e onde quer que estejam, com o objectivo de proteger as suas vidas, saúde e dignidade.", "emergency": "yes", "name": "Cruz Vermelha", "note": "Direcção\nA direcção da Delegação de Terras do Bouro é constituída pelos seguintes membros:\nPresidente\nVitor Manuel Peixoto Dias.\nVice-Presidentes\nMaria Teresa Fernandes; Horácio Sousa; Paulo Sousa e José Dias.\nTesoureiro\nJoão Marques dos Santos", "operator": "Delegação de Terras de Bouro", "phone": "253 351 444", "website": "http://terrasbouro.cruzvermelha.pt/"}}, {"name": "Casa de Saúde da Boavista", "latitude": 41.164959, "longitude": -8.6334835, "source": "osm", "_tags": {"alt_name": "Medempresa / Porto Heart Center", "amenity": "hospital", "barrier": "wall", "emergency": "no", "healthcare": "hospital", "healthcare:speciality": "paediatrics;cardiology", "name": "Casa de Saúde da Boavista"}}, {"name": "Hospital Joaquim Urbano", "latitude": 41.154965, "longitude": -8.5933894, "source": "osm", "_tags": {"amenity": "hospital", "disused": "yes", "healthcare": "hospital", "name": "Hospital Joaquim Urbano", "wikidata": "Q66814774"}}, {"name": "Centro Hospitalar Vila Nova de Gaia/Espinho Santos Silva - Unidade 1", "latitude": 41.104664, "longitude": -8.5924182, "source": "osm", "_tags": {"addr:city": "Vila Nova de Gaia", "addr:postcode": "4434-502", "addr:street": "Rua Conceição Fernandes", "alt_name": "Hospital Eduardo Santos Silva", "amenity": "hospital", "email": "cachvng@chvng.min-saude.pt", "emergency": "yes", "fax": "+351 227 830 209", "healthcare": "hospital", "loc_name": "Hospital Santos Silva", "name": "Centro Hospitalar Vila Nova de Gaia/Espinho Santos Silva - Unidade 1", "network": "Centro Hospitalar de Vila Nova de Gaia/Espinho, E.P.E.", "official_name": "Centro Hospitalar de Vila Nova de Gaia/Espinho, E.P.E. - Unidade I", "old_name": "Hospital Eduardo Santos Silva; Hospital de Repouso de D. Manuel II; Sanatório D. Manuel II", "phone": "+351 227 865 100", "short_name": "CHVNG/E", "website": "https://www.chvng.pt/"}}, {"name": "Hospital de Santa Maria", "latitude": 41.1599058, "longitude": -8.6092828, "source": "osm", "_tags": {"amenity": "hospital", "healthcare": "hospital", "name": "Hospital de Santa Maria"}}, {"name": "Hospital Privado da Trofa", "latitude": 41.3438819, "longitude": -8.548962, "source": "osm", "_tags": {"addr:city": "Bougado", "addr:street": "Rua António Sá Couto Araújo", "amenity": "hospital", "healthcare": "hospital", "name": "Hospital Privado da Trofa"}}, {"name": "Hospital Doutor Francisco Zagalo", "latitude": 40.8578376, "longitude": -8.6312659, "source": "osm", "_tags": {"addr:city": "Ovar", "addr:country": "PT", "addr:postcode": "3880-113", "addr:street": "Avenida Doutor Nunes da Silva", "alt_name": "Hospital de Ovar", "alt_name:en": "Ovar's Hospital", "alt_name:fr": "Hôpital d'Ovar", "amenity": "hospital", "email": "hfzovar@hovar.min-saude.pt", "emergency": "no", "fax": "+351 256 579 209", "healthcare": "hospital", "healthcare:speciality": "surgery;paediatrics;ophthalmology;physiatry;anaesthetics", "name": "Hospital Doutor Francisco Zagalo", "name:en": "Francisco Zagalo Hospital", "name:fr": "Hôpital Francisco Zagalo", "operator": "Ministério da Saúde", "operator:type": "government", "operator:wikidata": "Q4294357", "phone": "+351 256 579 200", "website": "https://www.hovar.min-saude.pt/"}}, {"name": "Cruz Vermelha Portuguesa - Delegação de Neiva", "latitude": 41.6284626, "longitude": -8.7734655, "source": "osm", "_tags": {"amenity": "hospital", "healthcare": "hospital", "name": "Cruz Vermelha Portuguesa - Delegação de Neiva"}}, {"name": "Casa de Saúde São João de Deus", "latitude": 41.5424666, "longitude": -8.6208781, "source": "osm", "_tags": {"amenity": "hospital", "healthcare": "hospital", "healthcare:speciality": "psychiatry", "name": "Casa de Saúde São João de Deus", "operator": "Casa de saúde S. João de Deus"}}, {"name": "Centro de Saúde de São Pedro da Cova", "latitude": 41.1601087, "longitude": -8.5078247, "source": "osm", "_tags": {"addr:city": "Fânzeres e São Pedro da Cova", "addr:postcode": "4510", "addr:street": "R. da Associação Desportiva de São Pedro da Cova", "amenity": "clinic", "building": "public", "healthcare": "hospital", "healthcare:speciality": "general", "layer": "1", "name": "Centro de Saúde de São Pedro da Cova"}}, {"name": "Centro de Saúde de Vilar de Andorinho", "latitude": 41.1029685, "longitude": -8.5800963, "source": "osm", "_tags": {"addr:city": "Vilar de Andorinho", "addr:housenumber": "289", "addr:postcode": "4430-383", "addr:street": "Rua Escultor Alves de Sousa", "amenity": "clinic", "emergency": "no", "healthcare": "hospital", "healthcare:speciality": "general", "name": "Centro de Saúde de Vilar de Andorinho", "opening_hours": "Mo-Fr 08:00-18:00,20:00-23:00; Sa,Su,PH 09:00-19:00", "opening_hours:covid19": "Mo-Fr 08:00-18:00; Sa,Su; PH 08:00-20:00", "smoking": "no"}}, {"name": "Centro de Saúde de Ermesinde", "latitude": 41.2261098, "longitude": -8.5455928, "source": "osm", "_tags": {"addr:city": "Ermesinde", "addr:country": "PT", "addr:housenumber": "735", "addr:place": "Ermesinde", "addr:postcode": "4445-344", "addr:street": "Rua da Bela", "amenity": "clinic", "email": "ermesinde@csermesinde.min-saude.pt", "healthcare": "hospital", "name": "Centro de Saúde de Ermesinde", "phone": "+351 229 698 520"}}, {"name": "Unidade de Saúde Familiar Infesta", "latitude": 41.1973428, "longitude": -8.611333, "source": "osm", "_tags": {"amenity": "clinic", "healthcare": "hospital", "name": "Unidade de Saúde Familiar Infesta"}}, {"name": "Hospital da Luz da Póvoa de Varzim", "latitude": 41.3943911, "longitude": -8.763998, "source": "osm", "_tags": {"amenity": "hospital", "building": "hospital", "check_date": "2025-08-18", "emergency": "yes", "healthcare": "hospital", "internet_access": "yes", "name": "Hospital da Luz da Póvoa de Varzim", "wheelchair": "yes"}}, {"name": "USF Nova Saúde", "latitude": 41.3595956, "longitude": -8.3650499, "source": "osm", "_tags": {"addr:city": "Campo (São Martinho)", "addr:postcode": "4795-442", "addr:street": "Avenida 25 de Abril", "amenity": "hospital", "email": "usf.novasaude@arsnorte.min-saude.pt", "emergency": "no", "healthcare": "hospital", "healthcare:speciality": "general", "name": "USF Nova Saúde", "phone": "+351 252 860 070", "website": "https://www.facebook.com/USFNovaSaude/", "wheelchair": "yes"}}, {"name": "Hospital Particular de Ponte de Lima", "latitude": 41.7599277, "longitude": -8.5791651, "source": "osm", "_tags": {"addr:city": "Pont de Lima", "addr:housenumber": "118", "addr:street": "Rua da devesa", "amenity": "hospital", "healthcare": "hospital", "name": "Hospital Particular de Ponte de Lima", "operator": "Grupo Saúde", "operator:type": "private"}}, {"name": "Hospital Valentim Ribeiro", "latitude": 41.5368976, "longitude": -8.7812976, "source": "osm", "_tags": {"alt_name": "Hospital de Esposende", "amenity": "hospital", "name": "Hospital Valentim Ribeiro"}}, {"name": "Centro de Saúde de Esposende", "latitude": 41.5369099, "longitude": -8.780629, "source": "osm", "_tags": {"amenity": "hospital", "name": "Centro de Saúde de Esposende"}}, {"name": "Hospital da CUF", "latitude": 41.17595, "longitude": -8.6691068, "source": "osm", "_tags": {"addr:city": "Porto", "addr:housenumber": "14341", "addr:postcode": "4100-180", "addr:street": "Estrada da Circunvalação", "amenity": "hospital", "emergency": "yes", "healthcare": "hospital", "healthcare:speciality": "ophthalmology;dentistry;paediatrics;general", "name": "Hospital da CUF", "nif": "508963150", "official_name": "Hospital Cuf Porto, S.A.", "operator": "CUF", "operator:type": "private", "phone": "+351 220 039 000", "type": "multipolygon", "website": "https://www.cuf.pt/hospitais-e-clinicas/hospital-cuf-porto", "wikidata": "Q50036643"}}]