[{"name": "Policlínica Santa Marta", "latitude": 40.949999, "longitude": -5.6274568, "source": "osm", "_tags": {"amenity": "hospital", "name": "Policlínica Santa Marta", "wheelchair": "yes"}}, {"name": "Hospital Santísima Trinidad", "latitude": 40.9680915, "longitude": -5.6695431, "source": "osm", "_tags": {"addr:city": "Salamanca", "addr:country": "ES", "addr:housenumber": "74-94", "addr:postcode": "37007", "addr:street": "Paseo de Carmelitas", "amenity": "hospital", "building": "hospital", "building:colour": "#faebd7", "building:levels": "3", "building:material": "brick", "check_date": "2025-09-15", "name": "Hospital Santísima Trinidad", "phone": "+34 923 269 300", "roof:material": "roof_tiles", "roof:shape": "hipped", "source": "ITACyL", "source:date": "2009", "wheelchair": "yes", "wikidata": "Q5902679", "wikipedia": "es:Hospital General de la Santísima Trinidad"}}, {"name": "Hospital Virgen de la Concha", "latitude": 41.5142056, "longitude": -5.7322228, "source": "osm", "_tags": {"addr:housenumber": "35", "addr:postcode": "49022", "addr:street": "Avenida de Requejo", "amenity": "hospital", "healthcare": "hospital", "name": "Hospital Virgen de la Concha", "operator": "SACYL", "operator:type": "public", "operator:wikidata": "Q6116740", "operator:wikipedia": "es:Sacyl", "phone": "+34 980 512 838", "website": "https://www.saludcastillayleon.es/ciudadanos/es/mapa-centros-salud-castilla-leon/141799", "wikidata": "Q16576169", "wikipedia": "es:Hospital Virgen de la Concha"}}, {"name": "Hospital Provincial de Zamora", "latitude": 41.5113739, "longitude": -5.7281141, "source": "osm", "_tags": {"addr:housenumber": "40", "addr:postcode": "49021", "addr:street": "Calle de Hernán Cortés", "amenity": "hospital", "building": "hospital", "healthcare": "hospital", "name": "Hospital Provincial de Zamora", "operator": "SACYL", "operator:type": "public", "operator:wikidata": "Q6116740", "operator:wikipedia": "es:Sacyl", "phone": "+34 980 520 200", "wikidata": "Q87762671"}}, {"name": "Hospital Recoletas Zamora", "latitude": 41.5171029, "longitude": -5.7469814, "source": "osm", "_tags": {"amenity": "hospital", "building": "yes", "healthcare": "hospital", "name": "Hospital Recoletas Zamora", "phone": "+34 980 545 300", "website": "https://www.gruporecoletas.com/hospitales/hospital-recoletas-zamora/", "wikidata": "Q87762672"}}, {"name": "Hospital Los Montalvos", "latitude": 40.9263482, "longitude": -5.7400629, "source": "osm", "_tags": {"amenity": "hospital", "name": "Hospital Los Montalvos", "network": "Gerencia Regional de Salud de Castilla y León", "network:short": "SACYL", "old_name": "Sanatorio Martínez Anido", "wikidata": "Q87762407"}}, {"name": "Hospital Universitario de Salamanca", "latitude": 40.9629185, "longitude": -5.6754282, "source": "osm", "_tags": {"amenity": "hospital", "emergency": "yes", "healthcare": "hospital", "name": "Hospital Universitario de Salamanca", "network": "Gerencia Regional de Salud de Castilla y León", "network:short": "SACYL", "note": "Nuevo Hospital Clínico Universitario de Salamanca. Estado: acabado y a la espera de la puesta en marcha", "operator": "Sacyl", "operator:type": "public", "operator:wikidata": "Q6116740", "start_date": "2014", "wikidata": "Q87762406"}}, {"name": "", "latitude": 41.511361, "longitude": -5.7285664, "source": "osm", "_tags": {"amenity": "hospital", "healthcare": "hospital"}}, {"name": "Hospital Virgen de la Vega", "latitude": 40.964673, "longitude": -5.6732847, "source": "osm", "_tags": {"addr:housenumber": "58", "addr:street": "Paseo de San Vicente", "amenity": "hospital", "building": "hospital", "building:levels": "8", "emergency": "yes", "loc_name": "Ambulatorio", "name": "Hospital Virgen de la Vega", "roof:shape": "flat", "source": "ITACyL", "source:date": "2009", "type": "multipolygon", "wheelchair": "yes", "wikidata": "Q47483349"}}]