[{"name": "Ospedale Mater Olbia", "latitude": 40.900992, "longitude": 9.5471151, "source": "osm", "_tags": {"amenity": "hospital", "construction": "hospital", "healthcare": "hospital", "name": "Ospedale Mater Olbia", "wikidata": "Q94641366"}}, {"name": "Pronto Soccorso Ospedale \"Giovanni Paolo II\"", "latitude": 40.9126027, "longitude": 9.4719911, "source": "osm", "_tags": {"addr:city": "Olbia", "emergency": "emergency_ward_entrance", "emergency_ward_entrance": "walk-in", "entrance": "yes", "healthcare": "hospital", "name": "Pronto Soccorso Ospedale \"Giovanni Paolo II\""}}, {"name": "Pronto Soccorso Ospedale \"Paolo Dettori\"", "latitude": 40.8968583, "longitude": 9.1027289, "source": "osm", "_tags": {"addr:city": "Tempio Pausania", "addr:postcode": "07029", "amenity": "hospital", "emergency": "yes", "healthcare": "hospital", "name": "Pronto Soccorso Ospedale \"Paolo Dettori\""}}, {"name": "Pronto Soccorso Ospedale \"Paolo Merlo\"", "latitude": 41.2174253, "longitude": 9.4070346, "source": "osm", "_tags": {"addr:city": "La Maddalena", "amenity": "hospital", "emergency": "yes", "healthcare": "hospital", "name": "Pronto Soccorso Ospedale \"Paolo Merlo\""}}, {"name": "", "latitude": 40.912669, "longitude": 9.4720825, "source": "osm", "_tags": {"addr:city": "Olbia", "emergency": "emergency_ward_entrance", "emergency_ward_entrance": "rescue_service", "entrance": "yes", "healthcare": "hospital"}}, {"name": "", "latitude": 41.2175124, "longitude": 9.406791, "source": "osm", "_tags": {"amenity": "hospital", "healthcare": "hospital"}}, {"name": "Ospedale Giovanni Paolo II", "latitude": 40.9123356, "longitude": 9.4715553, "source": "osm", "_tags": {"amenity": "hospital", "emergency": "yes", "healthcare": "hospital", "name": "Ospedale Giovanni Paolo II"}}, {"name": "Ospedale San Giovanni di Dio", "latitude": 40.9315681, "longitude": 9.5012493, "source": "osm", "_tags": {"amenity": "hospital", "emergency": "yes", "healthcare": "hospital", "name": "Ospedale San Giovanni di Dio"}}, {"name": "Ospedale \"Paolo Merlo\"", "latitude": 41.2175302, "longitude": 9.4067052, "source": "osm", "_tags": {"amenity": "hospital", "healthcare": "hospital", "name": "Ospedale \"Paolo Merlo\""}}, {"name": "Ospedale Paolo Dettori", "latitude": 40.8977063, "longitude": 9.1025191, "source": "osm", "_tags": {"amenity": "hospital", "healthcare": "hospital", "name": "Ospedale Paolo Dettori"}}, {"name": "Centre hospitalier de Bonifacio", "latitude": 41.399378, "longitude": 9.1634398, "source": "osm", "_tags": {"amenity": "hospital", "building": "hospital", "fax": "+33 4 95 73 41 48", "healthcare": "hospital", "name": "Centre hospitalier de Bonifacio", "operator:type": "public", "phone": "+33 4 95 73 95 73", "ref:FR:FINESS": "2A0000212", "type:FR:FINESS": "106", "website": "https://www.centrehospitalierbonifacio.fr/", "wikidata": "Q92062530"}}, {"name": "Clinique de l'Ospedale", "latitude": 41.5986994, "longitude": 9.2769934, "source": "osm", "_tags": {"amenity": "hospital", "emergency": "yes", "fax": "+33 4 95 70 15 54", "healthcare": "hospital", "landuse": "healthcare", "name": "Clinique de l'Ospedale", "operator:type": "private", "phone": "+33 4 95 73 80 00", "ref:FR:FINESS": "2A0000154", "type:FR:FINESS": "365", "website": "https://www.cliniqueospedale.com/"}}, {"name": "Centre Hospitalier de Sartène", "latitude": 41.6063257, "longitude": 8.9357163, "source": "osm", "_tags": {"amenity": "hospital", "email": "contact@hopitalsartene.com", "name": "Centre Hospitalier de Sartène", "website": "https://ch-sartene.fr/"}}]