[{"name": "Centro formazione Valmontone", "latitude": 41.7751867, "longitude": 12.9209545, "source": "osm", "_tags": {"addr:city": "Valmontone", "addr:housenumber": "8", "addr:postcode": "00038", "addr:street": "Via Porta Napoletana", "amenity": "hospital", "healthcare": "hospital", "healthcare:speciality": "blood_check", "name": "Centro formazione Valmontone", "old_name": "Palazzo Termini"}}, {"name": "Casa della salute di Sezze", "latitude": 41.5002213, "longitude": 13.0620967, "source": "osm", "_tags": {"addr:housenumber": "1", "addr:postcode": "04018", "addr:street": "Via San Bartolomeo", "amenity": "hospital", "check_date": "2022-12-13", "name": "Casa della salute di Sezze", "opening_hours": "Mo-Fr 08:00-20:00", "operator:type": "public", "phone": "+39 0773 801500"}}, {"name": "La Città Bianca", "latitude": 41.6740971, "longitude": 13.4275585, "source": "osm", "_tags": {"amenity": "hospital", "name": "La Città Bianca"}}, {"name": "Casa Di Cura Santa Maria Teresa", "latitude": 41.6758691, "longitude": 13.5768035, "source": "osm", "_tags": {"addr:housenumber": "23", "addr:street": "Via Nazionale", "amenity": "hospital", "name": "Casa Di Cura Santa Maria Teresa", "phone": "+39 0776 80291", "website": "casadicurasteresa.com"}}, {"name": "Pronto Soccorso Ospedale \"Alfredo Fiorini\"", "latitude": 41.2989468, "longitude": 13.2321477, "source": "osm", "_tags": {"addr:city": "Terracina", "amenity": "hospital", "emergency": "yes", "healthcare": "hospital", "name": "Pronto Soccorso Ospedale \"Alfredo Fiorini\""}}, {"name": "Pronto Soccorso Ospedale Spaziani", "latitude": 41.6384261, "longitude": 13.3261536, "source": "osm", "_tags": {"addr:city": "Frosinone", "amenity": "hospital", "emergency": "yes", "healthcare": "hospital", "name": "Pronto Soccorso Ospedale Spaziani"}}, {"name": "Pronto Soccorso Ospedale \"Leopoldo Parodi Delfino\"", "latitude": 41.7281693, "longitude": 13.0040687, "source": "osm", "_tags": {"addr:city": "Colleferro", "addr:postcode": "00034", "amenity": "hospital", "healthcare": "hospital", "name": "Pronto Soccorso Ospedale \"Leopoldo Parodi Delfino\""}}, {"name": "Pronto Soccorso Ospedale \"San Benedetto\"", "latitude": 41.737609, "longitude": 13.3344057, "source": "osm", "_tags": {"addr:city": "Alatri", "amenity": "hospital", "emergency": "yes", "healthcare": "hospital", "name": "Pronto Soccorso Ospedale \"San Benedetto\""}}, {"name": "Pronto Soccorso Ospedale \"Santa Maria Goretti\"", "latitude": 41.4618111, "longitude": 12.9090106, "source": "osm", "_tags": {"addr:city": "Latina", "addr:postcode": "04100", "amenity": "hospital", "emergency": "yes", "healthcare": "hospital", "name": "Pronto Soccorso Ospedale \"Santa Maria Goretti\""}}, {"name": "Pronto Soccorso Ospedale \"San Giovanni di Dio\"", "latitude": 41.3617406, "longitude": 13.4154706, "source": "osm", "_tags": {"addr:city": "Fondi", "amenity": "hospital", "emergency": "yes", "healthcare": "hospital", "name": "Pronto Soccorso Ospedale \"San Giovanni di Dio\""}}, {"name": "Aurora Hospital", "latitude": 41.7305195, "longitude": 13.0028905, "source": "osm", "_tags": {"amenity": "hospital", "name": "Aurora Hospital"}}, {"name": "", "latitude": 41.4075419, "longitude": 13.0466703, "source": "osm", "_tags": {"addr:city": "Pontinia", "addr:postcode": "04014", "addr:street": "Via Fratelli Bandiera", "amenity": "hospital", "healthcare": "hospital", "operator": "ASL", "operator:type": "public", "operator:wikidata": "Q3631467", "operator:wikipedia": "it:Azienda sanitaria locale"}}, {"name": "ASL FROSINONE", "latitude": 41.6381564, "longitude": 13.3232447, "source": "osm", "_tags": {"amenity": "hospital", "healthcare": "hospital", "name": "ASL FROSINONE", "operator": "ASL", "operator:type": "public", "operator:wikidata": "Q3631467"}}, {"name": "Ospedale Civile Pasquale Del Prete Pontecorvo", "latitude": 41.4600713, "longitude": 13.667352, "source": "osm", "_tags": {"amenity": "hospital", "building": "yes", "name": "Ospedale Civile Pasquale Del Prete Pontecorvo"}}, {"name": "San Giovanni di Dio", "latitude": 41.3612571, "longitude": 13.4154469, "source": "osm", "_tags": {"amenity": "hospital", "building": "yes", "emergency": "yes", "name": "San Giovanni di Dio", "wheelchair": "yes"}}, {"name": "Ospedale San Raffaele", "latitude": 41.7034814, "longitude": 12.7576035, "source": "osm", "_tags": {"amenity": "hospital", "name": "Ospedale San Raffaele"}}, {"name": "Villa Azzurra - Hospice Poliambulatorio", "latitude": 41.2861828, "longitude": 13.256421, "source": "osm", "_tags": {"amenity": "hospital", "building": "yes", "healthcare": "hospital", "name": "Villa Azzurra - Hospice Poliambulatorio", "phone": "+39 0773 7971", "website": "https://www.mosaicoadi.com/?page_id=306"}}, {"name": "", "latitude": 41.7045239, "longitude": 12.7577328, "source": "osm", "_tags": {"amenity": "hospital"}}, {"name": "", "latitude": 41.6411935, "longitude": 12.9167401, "source": "osm", "_tags": {"amenity": "hospital", "building": "yes"}}, {"name": "Presidio sanitario Anagni", "latitude": 41.7413871, "longitude": 13.1626361, "source": "osm", "_tags": {"amenity": "hospital", "building": "hospital", "name": "Presidio sanitario Anagni"}}, {"name": "", "latitude": 41.7372689, "longitude": 13.3351207, "source": "osm", "_tags": {"amenity": "hospital"}}, {"name": "ASL Latina", "latitude": 41.4693789, "longitude": 12.9020797, "source": "osm", "_tags": {"building": "hospital", "emergency": "no", "healthcare": "hospital", "name": "ASL Latina"}}, {"name": "Clinica San Marco", "latitude": 41.4619503, "longitude": 12.9028683, "source": "osm", "_tags": {"addr:city": "Latina", "addr:housenumber": "2", "addr:postcode": "04100", "addr:street": "Viale Ventuno Aprile", "amenity": "hospital", "check_date": "2022-11-01", "email": "info@clinicasanmarco.com", "fax": "+39 0773 466007", "healthcare": "hospital", "healthcare:speciality": "general", "name": "Clinica San Marco", "opening_hours": "Mo-Sa 07:00-19:30; Su 07:30-19:30", "operator:type": "private", "payment:cash": "yes", "payment:credit_cards": "yes", "phone": "+39 0773 466060", "website": "https://www.clinicasanmarco.it", "wheelchair": "yes"}}, {"name": "Ospedale Santa Maria Goretti", "latitude": 41.4612681, "longitude": 12.909419, "source": "osm", "_tags": {"amenity": "hospital", "check_date": "2022-11-01", "entrance:wheelchair": "yes", "healthcare": "hospital", "name": "Ospedale Santa Maria Goretti", "name:etymology:wikidata": "Q234697", "opening_hours": "24/7", "operator:type": "public", "phone": "+39 0773 6551", "website": "https://www.ausl.latina.it/gs-serviziospedalieri/gs-presidionord/gs-goretti", "wheelchair": "yes"}}, {"name": "Casa del Sole", "latitude": 41.2530886, "longitude": 13.5889872, "source": "osm", "_tags": {"amenity": "hospital", "email": "info@casadelsole.it", "emergency": "no", "healthcare": "hospital", "name": "Casa del Sole", "phone": "+39 0771 324901", "website": "http://www.casadelsole.it"}}, {"name": "Ospedale Leopoldo Parodi Delfino", "latitude": 41.7276392, "longitude": 13.0047131, "source": "osm", "_tags": {"addr:city": "Colleferro", "addr:housenumber": "1", "addr:postcode": "00034", "addr:street": "Piazza Aldo Moro", "amenity": "hospital", "email": "urpcolleferroh@aslroma5.it", "emergency": "yes", "healthcare": "hospital", "name": "Ospedale Leopoldo Parodi Delfino", "phone": "+39 06 97221", "website": "https://www.aslroma5.it/ospedali-case-salute/ospedale-di-colleferro/"}}, {"name": "", "latitude": 41.4606104, "longitude": 13.6678876, "source": "osm", "_tags": {"amenity": "hospital", "building": "yes", "emergency": "yes"}}, {"name": "Istituto Fisioterapico di Riabilitazione Clara Franceschini", "latitude": 41.2523651, "longitude": 13.0515288, "source": "osm", "_tags": {"addr:city": "Sabaudia", "addr:housenumber": "2", "addr:postcode": "04016", "addr:street": "Strada di Selvapiana", "amenity": "hospital", "fax": "+39 0773 596175", "healthcare": "hospital", "name": "Istituto Fisioterapico di Riabilitazione Clara Franceschini", "phone": "+39 0773 5941", "website": "https://www.istitutofranceschini.it"}}, {"name": "Ospedale Fabrizio Spaziani", "latitude": 41.6378992, "longitude": 13.3235074, "source": "osm", "_tags": {"amenity": "hospital", "emergency": "yes", "healthcare": "hospital", "name": "Ospedale Fabrizio Spaziani"}}, {"name": "Ospedale Santissima Trinità", "latitude": 41.7296269, "longitude": 13.6354076, "source": "osm", "_tags": {"amenity": "hospital", "emergency": "yes", "name": "Ospedale Santissima Trinità", "website": "https://www.asl.fr.it/strutture/presidi-ospedalieri/sora-ospedale-ss-trinit%C3%A0"}}, {"name": "San Raffaele Montecompatri", "latitude": 41.8047379, "longitude": 12.7372231, "source": "osm", "_tags": {"addr:city": "Montecompatri", "addr:country": "IT", "addr:housenumber": "67", "addr:postcode": "00040", "addr:street": "Via di S. Silvestro", "amenity": "hospital", "description": "Casa di cura privata accreditata", "email": "info.mcompatri@sanraffaele.it", "name": "San Raffaele Montecompatri", "phone": "+39 06947811", "website": "https://sanraffaele.it/assistenza/strutture-sanitarie/6/san-raffaele-montecompatri"}}, {"name": "ASL Roma 5 – Distretto di Colleferro", "latitude": 41.7302294, "longitude": 13.0002279, "source": "osm", "_tags": {"addr:city": "Colleferro", "addr:housenumber": "9", "addr:postcode": "00034", "addr:street": "Via degli Esplosivi", "amenity": "hospital", "building": "yes", "building:colour": "green", "building:levels": "2", "healthcare": "hospital", "name": "ASL Roma 5 – Distretto di Colleferro", "operator": "ASL", "operator:wikidata": "Q3631467", "website": "https://www.aslroma5.info/web/"}}, {"name": "ASL Roma 5 – Distretto di Colleferro", "latitude": 41.7298728, "longitude": 12.9995228, "source": "osm", "_tags": {"addr:city": "Colleferro", "addr:housenumber": "9", "addr:postcode": "00034", "addr:street": "Via degli Esplosivi", "amenity": "hospital", "building": "yes", "building:colour": "pink", "building:levels": "2", "healthcare": "hospital", "name": "ASL Roma 5 – Distretto di Colleferro", "operator": "ASL", "operator:wikidata": "Q3631467", "phone": "+39 06 97221", "website": "https://www.aslroma5.info/web/"}}, {"name": "Ospedale Antonio e Carlo Cartoni", "latitude": 41.7948764, "longitude": 12.7568788, "source": "osm", "_tags": {"amenity": "hospital", "healthcare": "hospital", "name": "Ospedale Antonio e Carlo Cartoni"}}, {"name": "ASL Roma 5 – Consultorio Familiare – UOS Prevenzione Età Pediatrica ed Evolutiva", "latitude": 41.7303479, "longitude": 13.0038864, "source": "osm", "_tags": {"amenity": "hospital", "building": "yes", "healthcare": "hospital", "name": "ASL Roma 5 – Consultorio Familiare – UOS Prevenzione Età Pediatrica ed Evolutiva", "operator": "ASL", "operator:wikidata": "Q3631467", "short_name": "Consultorio familiare"}}, {"name": "Casa di cura \"Il Pigneto\"", "latitude": 41.6909826, "longitude": 12.7905983, "source": "osm", "_tags": {"amenity": "hospital", "building": "yes", "name": "Casa di cura \"Il Pigneto\""}}, {"name": "Punto di assistenza territoriale", "latitude": 41.3032059, "longitude": 13.0199685, "source": "osm", "_tags": {"amenity": "hospital", "building": "yes", "healthcare": "hospital", "name": "Punto di assistenza territoriale", "operator": "ASL", "operator:type": "public", "operator:wikidata": "Q3631467"}}, {"name": "Pronto Soccorso", "latitude": 41.5893796, "longitude": 12.8306475, "source": "osm", "_tags": {"amenity": "hospital", "building": "yes", "emergency": "yes", "healthcare": "hospital", "name": "Pronto Soccorso", "operator:type": "public"}}, {"name": "Ospedale Civile FR5", "latitude": 41.5712279, "longitude": 13.3404833, "source": "osm", "_tags": {"amenity": "hospital", "healthcare": "hospital", "name": "Ospedale Civile FR5"}}, {"name": "IPAB Ferrari", "latitude": 41.5450683, "longitude": 13.5187272, "source": "osm", "_tags": {"amenity": "hospital", "healthcare": "hospital", "name": "IPAB Ferrari"}}, {"name": "", "latitude": 41.6390646, "longitude": 13.3475199, "source": "osm", "_tags": {"amenity": "hospital", "healthcare": "hospital"}}, {"name": "", "latitude": 41.5449518, "longitude": 13.5189595, "source": "osm", "_tags": {"amenity": "hospital", "healthcare": "hospital"}}, {"name": "Ospedale \"Luigi di Liegro\" Gaeta", "latitude": 41.2214914, "longitude": 13.5667463, "source": "osm", "_tags": {"addr:city": "Gaeta", "addr:postcode": "04024", "addr:street": "Salita dei Cappuccini", "amenity": "hospital", "emergency": "yes", "healthcare": "hospital", "healthcare:speciality": "vaccination;general", "name": "Ospedale \"Luigi di Liegro\" Gaeta", "operator": "ASL Latina", "operator:type": "public", "phone": "+3907717791", "website": "http://www.asl.latina.it/index.php/presidi-ospedalieri"}}, {"name": "Presidio sanitario Isola del Liri", "latitude": 41.6812588, "longitude": 13.5775697, "source": "osm", "_tags": {"addr:city": "Isola del Liri", "addr:postcode": "03036", "addr:street": "Via Ospedale", "amenity": "hospital", "healthcare": "hospital", "name": "Presidio sanitario Isola del Liri", "phone": "+39 0776814848", "type": "multipolygon", "website": "https://www.asl.fr.it/strutture/presidi-sanitari/isola-del-liri-presidio-sanitario-memoria-caduti"}}, {"name": "Ospedale Civile Paolo Colombo", "latitude": 41.6875691, "longitude": 12.7814117, "source": "osm", "_tags": {"amenity": "hospital", "emergency": "yes", "healthcare": "hospital", "name": "Ospedale Civile Paolo Colombo", "type": "multipolygon"}}, {"name": "Clinica Madonna delle Grazie", "latitude": 41.6734353, "longitude": 12.7766557, "source": "osm", "_tags": {"amenity": "hospital", "emergency": "no", "name": "Clinica Madonna delle Grazie", "type": "multipolygon"}}, {"name": "Residenza Sanitaria San Raffaele", "latitude": 41.3949262, "longitude": 13.0020021, "source": "osm", "_tags": {"amenity": "hospital", "healthcare": "hospital", "name": "Residenza Sanitaria San Raffaele", "type": "multipolygon"}}, {"name": "Ospedale \"Alfredo Fiorini\"", "latitude": 41.2986003, "longitude": 13.2328751, "source": "osm", "_tags": {"addr:city": "Terracina", "addr:housenumber": "1", "addr:postcode": "04019", "addr:street": "Via Firenze", "amenity": "hospital", "healthcare": "hospital", "name": "Ospedale \"Alfredo Fiorini\"", "type": "multipolygon"}}, {"name": "Asl azienda sanitaria di Pontinia", "latitude": 41.4073346, "longitude": 13.0466794, "source": "osm", "_tags": {"addr:city": "Pontinia", "addr:postcode": "04014", "amenity": "hospital", "building": "yes", "healthcare": "hospital", "name": "Asl azienda sanitaria di Pontinia", "operator": "ASL", "operator:wikidata": "Q3631467", "operator:wikipedia": "it:Azienda sanitaria locale", "type": "multipolygon"}}, {"name": "Valmontone Hospital", "latitude": 41.7669109, "longitude": 12.9189269, "source": "osm", "_tags": {"addr:city": "Valmontone", "addr:postcode": "00038", "addr:street": "Via dei Lecci", "amenity": "hospital", "contact:facebook": "https://www.facebook.com/ValmontoneHospital/", "email": "prenotazioni@valmontonehospital.it", "emergency": "no", "healthcare": "hospital", "name": "Valmontone Hospital", "opening_hours": "Mo-Sa 07:30-20:00", "phone": "+39 06 951951", "type": "multipolygon", "website": "https://www.valmontonehospital.it", "wikidata": "Q50037124"}}, {"name": "ICOT", "latitude": 41.4409155, "longitude": 12.9012269, "source": "osm", "_tags": {"addr:city": "Latina", "addr:country": "IT", "addr:housenumber": "1668", "addr:postcode": "04100", "addr:street": "Via Franco Faggiana", "alt_name": "ICOT Giomi", "amenity": "hospital", "healthcare": "hospital", "name": "ICOT", "official_name": "Istituto Marco Pasquali", "operator": "Giomi S.p.A.", "type": "multipolygon", "website": "https://www.giomi.com/"}}]