[{"name": "Hospital General de Segovia", "latitude": 40.9427329, "longitude": -4.1289102, "source": "osm", "_tags": {"addr:city": "Segovia", "addr:postcode": "40002", "addr:street": "Calle Erik Clavería “Neurólogo”", "air_conditioning": "yes", "amenity": "hospital", "emergency": "yes", "healthcare": "hospital", "healthcare:speciality": "general;paediatrics;orthopaedics;intensive;surgery", "name": "Hospital General de Segovia", "old_name": "Residencia Sanitaria de la Seguridad Social Licinio de la Fuente", "opening_hours": "24/7", "operator": "SACYL", "operator:type": "public", "operator:wikidata": "Q6116740", "phone": "+34 921 419 100", "website": "https://www.saludcastillayleon.es/CASegovia/es/complejo-asistencial-segovia/hospital-general", "wheelchair": "yes", "wikidata": "Q30280488", "wikipedia": "es:Hospital General de Segovia"}}, {"name": "Hospital Santos Reyes", "latitude": 41.66965, "longitude": -3.6915503, "source": "osm", "_tags": {"addr:housenumber": "6", "addr:postcode": "09400", "addr:street": "Avenida Doña Ruperta Baraya", "amenity": "hospital", "emergency": "yes", "healthcare": "hospital", "name": "Hospital Santos Reyes", "opening_hours": "24/7", "operator": "SACYL", "operator:type": "public", "operator:wikidata": "Q6116740", "operator:wikipedia": "es:Sacyl", "phone": "+34 947 522 000", "wikidata": "Q87761643"}}, {"name": "Hospital Recoletas", "latitude": 40.953008, "longitude": -4.1240513, "source": "osm", "_tags": {"addr:city": "Segovia", "addr:housenumber": "21-23", "addr:postcode": "40003", "addr:street": "Calle del Doctor Velasco", "alt_name": "Hospital de la Misericordia;Hospital de Nuestra Señora de la Misericordia", "amenity": "hospital", "emergency": "yes", "healthcare": "hospital", "name": "Hospital Recoletas", "opening_hours": "24/7", "operator": "Grupo Recoletas", "operator:type": "private", "phone": "+34 921 46 01 15", "website": "https://www.gruporecoletas.com/hospitales/hospital-recoletas-segovia/", "wheelchair": "yes", "wikidata": "Q118237171", "wikipedia": "es:Hospital de Nuestra Señora de la Misericordia (Segovia)"}}]