[{"name": "Hospital comarcal de la Selva", "latitude": 41.6873345, "longitude": 2.802138, "source": "osm", "_tags": {"amenity": "hospital", "name": "Hospital comarcal de la Selva", "name:ca": "Hospital comarcal de la Selva", "wikidata": "Q19974285", "wikipedia": "ca:Hospital Comarcal de la Selva"}}, {"name": "Hospital Asil Sant Jaume", "latitude": 41.6761848, "longitude": 2.7870169, "source": "osm", "_tags": {"amenity": "hospital", "name": "Hospital Asil Sant Jaume", "name:ca": "Hospital Asil de Sant Jaume", "wheelchair": "yes", "wikidata": "Q11926097", "wikipedia": "ca:Hospital Asil de Sant Jaume"}}, {"name": "Centro médico Illa de Salut", "latitude": 41.8105471, "longitude": 2.742676, "source": "osm", "_tags": {"addr:city": "Sils", "addr:housenumber": "3", "addr:postcode": "17410", "addr:street": "Carrer d'Argimon", "amenity": "hospital", "healthcare": "hospital", "healthcare:speciality": "general", "name": "Centro médico Illa de Salut", "operator": "Illa de Salut", "operator:type": "private", "phone": "+34 972 16 87 50", "website": "https://www.illadesalut.com/es/illa-de-salut-sils", "wheelchair": "yes"}}, {"name": "Centre d'Atenció Primària de Sils", "latitude": 41.8100954, "longitude": 2.74296, "source": "osm", "_tags": {"addr:city": "Sils", "addr:postcode": "17410", "addr:street": "Eix Olot-Lloret de Mar C-63", "amenity": "hospital", "email": "eap_sils.girona.ics@gencat.cat", "emergency": "yes", "fax": "+34 972168492", "healthcare": "hospital", "healthcare:speciality": "general", "name": "Centre d'Atenció Primària de Sils", "name:ca": "Centre d'Atenció Primària de Sils", "name:es": "Centro de Atención Primaria de Sils", "nohousenumber": "yes", "operator": "Generalitat de Catalunya", "operator:type": "public", "phone": "+34 972168492", "short_name": "CAP de Sils", "wheelchair": "yes"}}, {"name": "Cruz Roja", "latitude": 41.7887962, "longitude": 3.0406876, "source": "osm", "_tags": {"amenity": "hospital", "healthcare": "hospital", "name": "Cruz Roja", "name:ca": "Creu Roja", "operator": "Cruz Roja", "operator:wikidata": "Q7178", "wheelchair": "yes"}}]