[{"name": "Fundació Hospital Asil de Granollers", "latitude": 41.6134098, "longitude": 2.2959097, "source": "osm", "_tags": {"addr:city": "Granollers", "addr:postcode": "08402", "addr:street": "Avinguda Francesc Ribas s/n", "amenity": "hospital", "emergency": "yes", "healthcare": "hospital", "name": "Fundació Hospital Asil de Granollers", "name:ca": "Fundació Hospital Asil de Granollers", "phone": "+34 938425000", "website": "http://www.fhag.es"}}, {"name": "Hospital Evangèlic", "latitude": 41.4111635, "longitude": 2.1590499, "source": "osm", "_tags": {"amenity": "hospital", "name": "Hospital Evangèlic", "wheelchair": "yes"}}, {"name": "Centre de Salut Mental Infantil i Juvenil Sant Boi", "latitude": 41.3464296, "longitude": 2.0381879, "source": "osm", "_tags": {"addr:city": "Sant Boi de Llobregat", "addr:housenumber": "21", "addr:postcode": "08830", "addr:street": "Carrer de Lluís Castells", "amenity": "hospital", "description": "Centre de Salut Mental Infantil i Juvenil depenent del Pla de Salut Mental de la Generalitat de Catalunya", "healthcare": "hospital", "healthcare:speciality": "physiotherapy;psychiatry", "name": "Centre de Salut Mental Infantil i Juvenil Sant Boi", "operator": "Fundació Orienta", "operator:type": "public", "short_name": "CSMIJ Sant Boi", "website": "https://www.fundacioorienta.com/", "wheelchair": "yes"}}, {"name": "Hospital de Nens de Barcelona", "latitude": 41.3970879, "longitude": 2.1733003, "source": "osm", "_tags": {"amenity": "hospital", "for": "children", "healthcare": "hospital", "healthcare:speciality": "paediatrics", "name": "Hospital de Nens de Barcelona", "wikidata": "Q50036655"}}, {"name": "Santa Fe", "latitude": 41.5575722, "longitude": 2.1108773, "source": "osm", "_tags": {"amenity": "doctors", "healthcare": "hospital", "healthcare:speciality": "Psiquiatria;Oftalmología;Salud_Laboral;Cirugía_Maxilofacial;Dermatología", "name": "Santa Fe", "name:ca": "Santa Fe"}}, {"name": "UDIAT", "latitude": 41.5574738, "longitude": 2.1115158, "source": "osm", "_tags": {"amenity": "doctors", "healthcare": "hospital", "healthcare:speciality": "Radiología;Microbiología;Laboratorio;Immunoogía;Medicina_Nuclear", "name": "UDIAT"}}, {"name": "la Salut", "latitude": 41.5571466, "longitude": 2.1120457, "source": "osm", "_tags": {"amenity": "doctors", "healthcare": "hospital", "name": "la Salut", "name:ca": "la Salut"}}, {"name": "VII Centenari", "latitude": 41.556491, "longitude": 2.1131522, "source": "osm", "_tags": {"amenity": "doctors", "healthcare": "hospital", "healthcare:speciality": "Geriatría;Reumatología;Traumatología;Cirugía_General;Facultad_Medicina_UAB", "name": "VII Centenari"}}, {"name": "Albada", "latitude": 41.5561307, "longitude": 2.1131198, "source": "osm", "_tags": {"amenity": "doctors", "healthcare": "hospital", "name": "Albada"}}, {"name": "Centre d'Atenció Primària Viladecavalls", "latitude": 41.5564268, "longitude": 1.955244, "source": "osm", "_tags": {"addr:city": "Viladecavalls", "addr:postcode": "08232", "addr:street": "Carrer de Sant Joan", "amenity": "clinic", "healthcare": "hospital", "healthcare:speciality": "general", "name": "Centre d'Atenció Primària Viladecavalls", "short_name": "CAP Viladecavalls"}}, {"name": "Urgencias Taulí", "latitude": 41.5567733, "longitude": 2.1099775, "source": "osm", "_tags": {"amenity": "clinic", "healthcare": "hospital", "name": "Urgencias Taulí", "name:ca": "Urgències Taulí"}}, {"name": "Clínica del Vallès", "latitude": 41.532514, "longitude": 2.1177936, "source": "osm", "_tags": {"amenity": "hospital", "healthcare": "hospital", "name": "Clínica del Vallès"}}, {"name": "Centre d'Atenció Primària de Palau-solità i Plegamans", "latitude": 41.583384, "longitude": 2.1750835, "source": "osm", "_tags": {"addr:city": "Palau-solità i Plegamans", "addr:postcode": "08184", "addr:street": "Carrer de Can Cortés", "amenity": "hospital", "emergency": "no", "healthcare": "clinic", "healthcare:speciality": "general", "name": "Centre d'Atenció Primària de Palau-solità i Plegamans", "opening_hours": "Mo-Sa 08:00-20:00", "phone": "+34 938 64 98 98", "short_name": "CAP de Palau-solità i Plegamans"}}, {"name": "Cruz Roja Sabadell", "latitude": 41.5450226, "longitude": 2.1162827, "source": "osm", "_tags": {"amenity": "hospital", "healthcare": "hospital", "name": "Cruz Roja Sabadell"}}, {"name": "Antic Hospital de S. Jaume i Sta. Magdalena", "latitude": 41.5396821, "longitude": 2.4489569, "source": "osm", "_tags": {"addr:city": "Mataró", "addr:street": "Carrer de l'Hospital", "amenity": "hospital", "healthcare": "hospital", "name": "Antic Hospital de S. Jaume i Sta. Magdalena", "name:ca": "Antic Hospital de S. Jaume i Sta. Magdalena"}}, {"name": "Centre mèdic N25", "latitude": 41.7228705, "longitude": 1.8425474, "source": "osm", "_tags": {"addr:city": "Manresa", "addr:housenumber": "6", "addr:postcode": "08243", "addr:street": "Carrer de Joan Fuster", "amenity": "hospital", "email": "info@n25.es", "emergency": "no", "healthcare": "hospital", "healthcare:speciality": "certificados_médicos;certificats_mèdics;revisió_mèdica_carnet_de_conduir;revisión_médica_carnet_de_conducir", "image": "https://www.n25.es/wp-content/uploads/2019/10/LogoN25normBlanco.png", "mobile": "+ 34 654246103", "name": "Centre mèdic N25", "opening_hours": "Mo-Sa 09:00-14:00", "payment:cash": "yes", "payment:coins": "yes", "payment:contactless": "yes", "payment:credit_cards": "yes", "payment:debit_cards": "yes", "payment:mastercard": "yes", "payment:visa": "yes", "phone": "93 874 17 44", "website": "https://www.n25.es", "wheelchair": "yes"}}, {"name": "", "latitude": 41.3126044, "longitude": 2.0142445, "source": "osm", "_tags": {"amenity": "hospital", "healthcare": "hospital"}}, {"name": "", "latitude": 41.3216302, "longitude": 2.018367, "source": "osm", "_tags": {"amenity": "hospital", "healthcare": "hospital"}}, {"name": "", "latitude": 41.3233325, "longitude": 2.0143356, "source": "osm", "_tags": {"amenity": "hospital", "healthcare": "centre"}}, {"name": "", "latitude": 41.3205026, "longitude": 2.0089699, "source": "osm", "_tags": {"amenity": "hospital", "healthcare": "dentist"}}, {"name": "", "latitude": 41.3174899, "longitude": 2.0094311, "source": "osm", "_tags": {"amenity": "hospital", "healthcare": "rehabilitation"}}, {"name": "", "latitude": 41.32205, "longitude": 2.0186832, "source": "osm", "_tags": {"amenity": "hospital", "healthcare": "centre"}}, {"name": "Fundació Eulàlia Torras de Beà", "latitude": 41.400939, "longitude": 2.1636033, "source": "osm", "_tags": {"addr:housenumber": "11", "addr:street": "Carrer de Santa Eulàlia", "amenity": "hospital", "check_date": "2024-10-22", "description": "Entitat proveïdora del Sistema Català de Serveis Socials", "healthcare": "yes", "name": "Fundació Eulàlia Torras de Beà", "wheelchair": "yes"}}, {"name": "Hospital Creu Blanca", "latitude": 41.5326468, "longitude": 2.4319885, "source": "osm", "_tags": {"amenity": "hospital", "healthcare": "hospital", "name": "Hospital Creu Blanca", "wheelchair": "yes"}}, {"name": "Hospital de Nens de Barcelona", "latitude": 41.397336, "longitude": 2.173848, "source": "osm", "_tags": {"amenity": "hospital", "name": "Hospital de Nens de Barcelona"}}, {"name": "Hispital Cima. Sanitas", "latitude": 41.3913113, "longitude": 2.123309, "source": "osm", "_tags": {"addr:housenumber": "29", "addr:street": "Passeig de Manuel Girona", "amenity": "hospital", "name": "Hispital Cima. Sanitas"}}, {"name": "Mutua", "latitude": 41.6860008, "longitude": 2.4868785, "source": "osm", "_tags": {"amenity": "hospital", "healthcare": "hospital", "name": "Mutua"}}, {"name": "CLINICFISIO Fisioteràpia i Osteopatia", "latitude": 41.5502449, "longitude": 2.0994157, "source": "osm", "_tags": {"addr:city": "Sabadell", "addr:housenumber": "153", "addr:postcode": "08201", "addr:street": "Ronda de Zamenhof", "amenity": "hospital", "email": "clinicfisiosabadell@gmail.com", "healthcare": "hospital", "healthcare:speciality": "physiotherapy;osteopathy;chiropractic", "name": "CLINICFISIO Fisioteràpia i Osteopatia", "opening_hours": "Mo-Su 07:30-21:00", "phone": "+34600417156", "website": "https://fisioterapia-sabadell.com/", "wheelchair": "yes"}}, {"name": "Nau PZ VDD", "latitude": 41.5150376, "longitude": 2.3673134, "source": "osm", "_tags": {"amenity": "hospital", "healthcare": "hospital", "name": "Nau PZ VDD"}}, {"name": "Hospital de Terrassa", "latitude": 41.5567863, "longitude": 2.0527683, "source": "osm", "_tags": {"amenity": "hospital", "building": "yes", "healthcare": "hospital", "layer": "1", "name": "Hospital de Terrassa", "name:ca": "Hospital de Terrassa", "wikidata": "Q30280099"}}, {"name": "Hospital Mútua de Terrassa", "latitude": 41.5638299, "longitude": 2.0171772, "source": "osm", "_tags": {"amenity": "hospital", "building": "hospital", "building:levels": "17", "healthcare": "hospital", "height": "70", "name": "Hospital Mútua de Terrassa", "name:ca": "Hospital Mútua de Terrassa", "wikidata": "Q11938285", "wikipedia": "ca:Mútua de Terrassa"}}, {"name": "Hospital Mútua de Terrassa", "latitude": 41.5649487, "longitude": 2.0175179, "source": "osm", "_tags": {"amenity": "hospital", "building": "hospital", "healthcare": "hospital", "name": "Hospital Mútua de Terrassa", "name:ca": "Hospital Mútua de Terrassa"}}, {"name": "Hospital de Mataró i Maresme", "latitude": 41.5556209, "longitude": 2.4301522, "source": "osm", "_tags": {"amenity": "hospital", "name": "Hospital de Mataró i Maresme", "wheelchair": "yes"}}, {"name": "Hospital Sant Rafael", "latitude": 41.4257913, "longitude": 2.1409654, "source": "osm", "_tags": {"amenity": "hospital", "building": "yes", "healthcare": "hospital", "name": "Hospital Sant Rafael", "name:ca": "Hospital Sant Rafael", "wheelchair": "yes", "wikidata": "Q87761488", "wikimedia_commons": "Category:Hospital Sant Rafael (Barcelona)"}}, {"name": "1- Hospital General Vall d'Hebron", "latitude": 41.4277017, "longitude": 2.1417504, "source": "osm", "_tags": {"building": "hospital", "building:levels": "13,12,5", "building:material": "brick", "emergency": "yes", "healthcare": "hospital", "name": "1- Hospital General Vall d'Hebron", "name:ca": "1- Hospital General Vall d'Hebron", "name:en": "1- General Hospital Vall Hebron", "name:es": "1- Hospital General Vall Hebron", "operator": "Vall hebron", "operator:type": "government", "wheelchair": "yes"}}, {"name": "Hospital de l'Esperit Sant", "latitude": 41.4378737, "longitude": 2.2128933, "source": "osm", "_tags": {"addr:city": "Santa Coloma de Gramenet", "addr:postcode": "08923", "addr:street": "Avinguda de Mossèn Pons i Rabadà", "amenity": "hospital", "emergency": "yes", "healthcare": "hospital", "name": "Hospital de l'Esperit Sant", "name:ca": "Hospital de l'Esperit Sant", "name:es": "Hospital del Espíritu Santo", "nohousenumber": "yes", "phone": "+34933860202", "toilets": "yes", "toilets:access": "yes", "website": "https://www.hospitalesperitsant.com/", "wheelchair": "yes", "wikidata": "Q11946861", "wikimedia_commons": "Category:Sanatori de l'Esperit Sant", "wikipedia": "ca:Sanatori de l'Esperit Sant"}}, {"name": "Hospital-Asil de Granollers", "latitude": 41.6137875, "longitude": 2.2962584, "source": "osm", "_tags": {"amenity": "hospital", "healthcare": "hospital", "name": "Hospital-Asil de Granollers", "name:ca": "Hospital-Asil de Granollers"}}, {"name": "Unitat Cirurgia sense ingrés Vall d'Hebron", "latitude": 41.4160141, "longitude": 2.1407119, "source": "osm", "_tags": {"amenity": "hospital", "building": "yes", "building:levels": "5", "building:name": "Tramuntana - Gregal", "name": "Unitat Cirurgia sense ingrés Vall d'Hebron", "name:ca": "Unitat Cirurgia sense ingrés Vall d'Hebron", "ref": "2,3"}}, {"name": "Hospital Vall d'Hebron. Edifici Garbí", "latitude": 41.4146719, "longitude": 2.1404962, "source": "osm", "_tags": {"amenity": "hospital", "building": "hospital", "building:name": "Garbí", "healthcare": "hospital", "name": "Hospital Vall d'Hebron. Edifici Garbí", "operator": "Vall Hebron Barcelona Hospital Campus", "operator:type": "public", "ref": "8"}}, {"name": "Clínica Diagonal", "latitude": 41.3789601, "longitude": 2.0977163, "source": "osm", "_tags": {"amenity": "hospital", "building": "yes", "emergency": "yes", "healthcare": "hospital", "name": "Clínica Diagonal", "wikidata": "Q50037252"}}, {"name": "Hospital General de Catalunya", "latitude": 41.4749104, "longitude": 2.0446332, "source": "osm", "_tags": {"amenity": "hospital", "building": "yes", "check_date": "2024-08-06", "healthcare": "hospital", "height": "30", "name": "Hospital General de Catalunya", "name:ca": "Hospital General de Catalunya", "wheelchair": "yes", "wikidata": "Q27493190", "wikimedia_commons": "Category:Hospital General de Catalunya", "wikipedia": "ca:Hospital General de Catalunya"}}, {"name": "Asepeyo", "latitude": 41.4901025, "longitude": 2.0784329, "source": "osm", "_tags": {"amenity": "hospital", "healthcare": "hospital", "name": "Asepeyo"}}, {"name": "Hospital El Pilar", "latitude": 41.4001334, "longitude": 2.1482111, "source": "osm", "_tags": {"amenity": "hospital", "healthcare": "hospital", "name": "Hospital El Pilar", "operator": "Grupo Quiron Salud", "phone": "+34 93 236 05 00", "website": "https://www.quironsalud.es/pilar", "wikidata": "Q87761487", "wikimedia_commons": "Category:Hospital el Pilar"}}, {"name": "Hospital de Dia Sant Jordi", "latitude": 41.5553252, "longitude": 2.0042708, "source": "osm", "_tags": {"amenity": "hospital", "building": "yes", "name": "Hospital de Dia Sant Jordi", "source": "Bing Sat"}}, {"name": "Hospital Neuropsiquiàtric Sagrat Cor", "latitude": 41.4946006, "longitude": 1.9095689, "source": "osm", "_tags": {"amenity": "hospital", "name": "Hospital Neuropsiquiàtric Sagrat Cor"}}, {"name": "Clínica Teknon", "latitude": 41.4063869, "longitude": 2.1278903, "source": "osm", "_tags": {"addr:postcode": "08022", "amenity": "hospital", "emergency": "yes", "healthcare": "hospital", "name": "Clínica Teknon", "name:ca": "Clínica Teknon"}}, {"name": "Hospital Universitari Parc Taulí", "latitude": 41.5570445, "longitude": 2.1110756, "source": "osm", "_tags": {"amenity": "hospital", "emergency": "yes", "healthcare": "hospital", "name": "Hospital Universitari Parc Taulí", "wikidata": "Q17043932", "wikimedia_commons": "Category:Hospital de Sabadell", "wikipedia": "ca:Hospital de Sabadell"}}, {"name": "Hospital General de l'Hospitalet", "latitude": 41.3741705, "longitude": 2.107182, "source": "osm", "_tags": {"amenity": "hospital", "emergency": "yes", "healthcare": "hospital", "name": "Hospital General de l'Hospitalet", "name:ca": "Hospital General de l'Hospitalet", "wikidata": "Q87668614"}}, {"name": "Salus XXI Medical Group", "latitude": 41.4811493, "longitude": 2.0608001, "source": "osm", "_tags": {"addr:housenumber": "22", "addr:postcode": "08174", "addr:street": "Carrer d'Amposta", "amenity": "hospital", "building": "yes", "emergency": "no", "name": "Salus XXI Medical Group", "website": "http://www.salusxxi.com/"}}, {"name": "Hospital de Sant Llàtzer", "latitude": 41.5626134, "longitude": 2.0172054, "source": "osm", "_tags": {"amenity": "hospital", "building": "yes", "name": "Hospital de Sant Llàtzer", "name:ca": "Hospital de Sant Llàtzer", "wikidata": "Q17137107", "wikimedia_commons": "Category:Hospital de Sant Llàtzer", "wikipedia": "ca:Hospital de Sant Llàtzer"}}, {"name": "Sant Joan de Déu", "latitude": 41.4717117, "longitude": 1.9203655, "source": "osm", "_tags": {"addr:city": "Martorell", "addr:housenumber": "1-3", "addr:postcode": "08760", "addr:street": "Avinguda de les Mancomunitats Comarcals", "amenity": "hospital", "check_date": "2024-08-06", "healthcare": "hospital", "name": "Sant Joan de Déu", "name:ca": "Sant Joan de Déu", "phone": "+34 93 774 20 20", "website": "https://fhsjdm.cat/", "wikidata": "Q87761519", "wikipedia": "ca:Hospital Sant Joan de Déu de Martorell"}}, {"name": "Hospital de Mollet", "latitude": 41.5438271, "longitude": 2.2024802, "source": "osm", "_tags": {"amenity": "hospital", "emergency": "yes", "healthcare": "hospital", "name": "Hospital de Mollet", "phone": "+34 935636100", "wikidata": "Q87761521"}}, {"name": "", "latitude": 41.5397306, "longitude": 2.4494063, "source": "osm", "_tags": {"amenity": "hospital", "healthcare": "hospital"}}, {"name": "Hospital de Sant Miquel. Fundació Alba", "latitude": 41.4355012, "longitude": 2.1456184, "source": "osm", "_tags": {"amenity": "hospital", "building": "yes", "name": "Hospital de Sant Miquel. Fundació Alba"}}, {"name": "Hospital Sociosanitari de Mollet", "latitude": 41.5411404, "longitude": 2.2110255, "source": "osm", "_tags": {"addr:housenumber": "39-41", "addr:street": "Carrer de Sant Llorenç", "amenity": "hospital", "building": "hospital", "building:levels": "3", "healthcare": "hospital", "height": "8", "name": "Hospital Sociosanitari de Mollet", "name:es": "hospital sociosanitario de Mollet", "phone": "+34 935636100", "wikidata": "Q87761624"}}, {"name": "Hospital Mútua de Terrassa", "latitude": 41.5637262, "longitude": 2.0165076, "source": "osm", "_tags": {"amenity": "hospital", "building": "hospital", "emergency": "yes", "healthcare": "hospital", "name": "Hospital Mútua de Terrassa", "name:ca": "Hospital Mútua de Terrassa"}}, {"name": "", "latitude": 41.6148387, "longitude": 2.6572204, "source": "osm", "_tags": {"amenity": "hospital", "building": "yes", "emergency": "yes"}}, {"name": "Hospital Comarcal Sant Jaume de Calella", "latitude": 41.6151659, "longitude": 2.6572159, "source": "osm", "_tags": {"addr:city": "Calella", "addr:housenumber": "209", "addr:postcode": "08370", "addr:street": "Carrer de Sant Jaume", "amenity": "hospital", "building:part": "yes", "emergency": "yes", "healthcare": "hospital", "name": "Hospital Comarcal Sant Jaume de Calella", "name:pl": "Szpital regionalny Sant Jaume w Calella"}}, {"name": "Hospital Evangelic", "latitude": 41.4013987, "longitude": 2.1944986, "source": "osm", "_tags": {"amenity": "hospital", "name": "Hospital Evangelic"}}, {"name": "Parc Sanitari Sant Joan de Déu", "latitude": 41.3527576, "longitude": 2.0344361, "source": "osm", "_tags": {"amenity": "hospital", "healthcare": "hospital", "landuse": "healthcare", "name": "Parc Sanitari Sant Joan de Déu", "name:ca": "Parc Sanitari Sant Joan de Déu", "source": "Catastro;AMB", "source:date": "2017-01", "wikidata": "Q30263898"}}, {"name": "Hospital de l'Esperança", "latitude": 41.41066, "longitude": 2.1545767, "source": "osm", "_tags": {"addr:postcode": "08024", "amenity": "hospital", "emergency": "yes", "healthcare": "hospital", "name": "Hospital de l'Esperança", "name:ca": "Hospital de l'Esperança", "wheelchair": "yes", "wikidata": "Q23687329"}}, {"name": "Hospital Universitari de Bellvitge", "latitude": 41.3452979, "longitude": 2.1046476, "source": "osm", "_tags": {"amenity": "hospital", "emergency": "yes", "healthcare": "hospital", "name": "Hospital Universitari de Bellvitge", "name:ca": "Hospital Universitari de Bellvitge", "name:en": "University Hospital of Bellvitge", "website": "https://bellvitgehospital.cat/", "wikidata": "Q9004934", "wikimedia_commons": "Category:Hospital de Bellvitge", "wikipedia": "ca:Hospital Universitari de Bellvitge"}}, {"name": "Eudona Barcelona", "latitude": 41.3880133, "longitude": 2.1383423, "source": "osm", "_tags": {"addr:city": "Barcelona", "addr:housenumber": "82, 84", "addr:postcode": "08029", "addr:street": "Carrer de l'Equador", "amenity": "doctors", "building": "yes", "healthcare": "hospital", "healthcare:speciality": "gynaecology", "name": "Eudona Barcelona", "phone": "+34 900507097", "source": "Ajuntament de Barcelona - CartoBCN (@2013-11-10)", "website": "https://www.eudona.com/"}}, {"name": "8- (CEMCAT) Centre d'Esclerosi Múltiple de Catalunya", "latitude": 41.4292442, "longitude": 2.1388628, "source": "osm", "_tags": {"amenity": "hospital", "building": "yes", "healthcare": "hospital", "name": "8- (CEMCAT) Centre d'Esclerosi Múltiple de Catalunya", "name:ca": "8- (CEMCAT) Centre d'Esclerosi Múltiple de Catalunya", "name:en": "8- (CEMCAT) Multiple Sclerosis Center of Catalonia", "name:es": "8- (CEMCAT) Centro de Esclerosis Múltiple de Cataluña", "operator": "Vall d'Hebron Barcelona Hospital Campus", "operator:type": "public/government", "short_name": "Cemcat", "website": "https://www.cem-cat.org/", "wheelchair": "yes"}}, {"name": "Ambulatorio CAP Nord", "latitude": 41.5720704, "longitude": 2.0832248, "source": "osm", "_tags": {"amenity": "clinic", "healthcare": "hospital", "name": "Ambulatorio CAP Nord"}}, {"name": "Hospital de la Santa Creu i Sant Pau", "latitude": 41.4150661, "longitude": 2.1743117, "source": "osm", "_tags": {"alt_name": "Hospital de Sant Pau", "building": "hospital", "building:levels": "5", "check_date": "2024-09-18", "emergency": "yes", "healthcare": "hospital", "name": "Hospital de la Santa Creu i Sant Pau", "name:ca": "Hospital de la Santa Creu i Sant Pau", "name:zh": "聖十字、聖保羅醫院", "panoramax": "eb524c4b-624f-48cf-8abd-a5ca458b9d9f", "panoramax:0": "acc4adeb-2ce9-48f6-ba6e-d4c69c05f22f", "panoramax:1": "b520abfc-8825-4af3-98f4-e20af22d1d72", "panoramax:2": "a017af39-9fc2-4ae7-97a4-00988962004c", "wikidata": "Q507282", "wikimedia_commons": "Category:Hospital de la Santa Creu i Sant Pau", "wikipedia": "ca:Hospital de la Santa Creu i Sant Pau"}}, {"name": "Fundació Puigvert - Iuna", "latitude": 41.4129259, "longitude": 2.1727758, "source": "osm", "_tags": {"amenity": "hospital", "building": "public", "building:levels": "5", "building:levels:underground": "1", "name": "Fundació Puigvert - Iuna", "phone": "+34 934 16 97 00", "website": "https://www.fundacio-puigvert.es/", "wheelchair": "yes", "wikidata": "Q87761494"}}, {"name": "Clínica Sagrada Família", "latitude": 41.4004669, "longitude": 2.1341745, "source": "osm", "_tags": {"amenity": "hospital", "contact:email": "info@clinicasagradafamilia.com", "contact:fax": "+34 932124050", "contact:phone": "+34 932122300", "contact:website": "http://csf.com.es/", "healthcare": "hospital", "name": "Clínica Sagrada Família", "name:ca": "Clínica Sagrada Família", "wikidata": "Q27903898", "wikipedia": "ca:Clínica Sagrada Família"}}, {"name": "2- Hospital Infantil / 3- Hospital de la Dona Vall Hebron", "latitude": 41.4288718, "longitude": 2.1431984, "source": "osm", "_tags": {"building": "hospital", "building:levels": "17", "emergency": "yes", "healthcare": "hospital", "healthcare:speciality": "maternity;child_psychiatry", "name": "2- Hospital Infantil / 3- Hospital de la Dona Vall Hebron", "name:ca": "2- Hospital Infantil / 3- Hospital de la Dona Vall Hebron", "name:en": "2- Children's Hospital / 3- Women's Hospital Vall Hebron", "name:es": "2- Hospital Infantil / 3- Hospital de la Mujer Vall Hebron", "operator": "Vall Hebron Barcelona Hospital Campus", "operator:type": "government", "wheelchair": "yes"}}, {"name": "Hospital Comarcal Sant Jaume", "latitude": 41.6150417, "longitude": 2.6566387, "source": "osm", "_tags": {"amenity": "hospital", "emergency": "yes", "name": "Hospital Comarcal Sant Jaume"}}, {"name": "Hospital Municipal de Badalona", "latitude": 41.4507885, "longitude": 2.2456401, "source": "osm", "_tags": {"addr:city": "Badalona", "addr:housenumber": "9-13", "addr:postcode": "08911", "addr:street": "Carrer de la Via Augusta", "amenity": "hospital", "building": "hospital", "building:levels": "6", "building:levels:underground": "1", "building:material": "brick", "emergency": "yes", "name": "Hospital Municipal de Badalona", "name:ca": "Hospital Municipal de Badalona", "operator": "Badalona Serveis Assistencials", "phone": "+34 934648300", "wikidata": "Q20876048", "wikipedia": "ca:Hospital Municipal de Badalona"}}, {"name": "Hospital del Mar-urgències", "latitude": 41.3836763, "longitude": 2.1933174, "source": "osm", "_tags": {"building": "hospital", "building:levels": "2", "emergency": "yes", "healthcare": "hospital", "name": "Hospital del Mar-urgències"}}, {"name": "Hospital Clínic de Barcelona. Seu Plató", "latitude": 41.401314, "longitude": 2.1422817, "source": "osm", "_tags": {"addr:street": "Carrer de Plató", "amenity": "hospital", "building": "yes", "healthcare": "hospital", "internet_access": "wlan", "name": "Hospital Clínic de Barcelona. Seu Plató", "name:ca": "Hospital Clínic de Barcelona. Seu Plató", "name:es": "Hospital Clínic de Barcelona. Seu Plató", "wheelchair": "yes"}}, {"name": "Consorci Mar Parc de Salut de Barcelona", "latitude": 41.4127594, "longitude": 2.2185082, "source": "osm", "_tags": {"amenity": "hospital", "building": "public", "building:levels": "7", "building:levels:underground": "1", "healthcare": "hospital", "name": "Consorci Mar Parc de Salut de Barcelona", "name:ca": "Consorci Mar Parc de Salut de Barcelona"}}, {"name": "Hospital Sant Joan de Déu", "latitude": 41.3843723, "longitude": 2.1018898, "source": "osm", "_tags": {"amenity": "hospital", "emergency": "yes", "healthcare": "hospital", "name": "Hospital Sant Joan de Déu", "name:ca": "Hospital Sant Joan de Déu", "wheelchair": "yes", "wikidata": "Q11926104", "wikimedia_commons": "Category:Hospital Sant Joan de Déu", "wikipedia": "ca:Hospital Sant Joan de Déu Barcelona"}}, {"name": "Sant Honorat", "latitude": 41.412223, "longitude": 2.1360949, "source": "osm", "_tags": {"amenity": "clinic", "building": "yes", "healthcare": "hospital", "healthcare:speciality": "traumatologia", "name": "Sant Honorat", "wheelchair": "yes"}}, {"name": "Fundació sanitaria Sant Pere Claver", "latitude": 41.3730597, "longitude": 2.1733834, "source": "osm", "_tags": {"amenity": "hospital", "building": "public", "building:levels": "3", "healthcare": "hospital", "name": "Fundació sanitaria Sant Pere Claver"}}, {"name": "Hospital Residència Sant Camil", "latitude": 41.253637, "longitude": 1.7663871, "source": "osm", "_tags": {"alt_name": "els Camils", "amenity": "hospital", "healthcare": "hospital", "name": "Hospital Residència Sant Camil", "name:ca": "Hospital Residència Sant Camil", "operator": "Consorci Sanitari del Garraf", "wikidata": "Q87696133"}}, {"name": "Complex Assistencial en Salut Mental Benito Menni", "latitude": 41.3497068, "longitude": 2.0369672, "source": "osm", "_tags": {"amenity": "hospital", "barrier": "wall", "description": "Serveis de salut mental Sagrat Cor de Jesús", "email": "hospital.hbmenni@hospitalarias.es", "fax": "+34 93 640 02 68", "landuse": "healthcare", "name": "Complex Assistencial en Salut Mental Benito Menni", "name:es": "Complejo Asistencial en Salud Mental Benito Menni", "operator": "Germanes Hospitalàries del Sagrat Cor de Jesús", "phone": "+34 93 652 99 99", "website": "https://www.hospitalbenitomenni.org/ca/complex-assistencial/benito-menni-complex-assitencial-en-salut-mental.html"}}, {"name": "Hospital de Sant Joan Despí Moisès Broggi", "latitude": 41.3733236, "longitude": 2.0724737, "source": "osm", "_tags": {"addr:city": "Sant Joan Despí", "addr:housenumber": "90", "addr:postcode": "08970", "addr:street": "Carrer de Jacint Verdaguer", "amenity": "hospital", "check_date": "2024-08-23", "emergency": "yes", "name": "Hospital de Sant Joan Despí Moisès Broggi", "name:ca": "Hospital de Sant Joan Despí Moisès Broggi", "wheelchair": "yes", "wikidata": "Q50036657", "wikimedia_commons": "Category:Hospital de Sant Joan Despí Moisès Broggi", "wikipedia": "ca:Hospital de Sant Joan Despí Moisès Broggi"}}, {"name": "Centre d'Atenció Primària Can Rull", "latitude": 41.5533056, "longitude": 2.0852111, "source": "osm", "_tags": {"amenity": "clinic", "emergency": "no", "healthcare": "hospital", "name": "Centre d'Atenció Primària Can Rull", "short_name": "CAP Can Rull"}}, {"name": "Clínica de Molins de Rei", "latitude": 41.4179541, "longitude": 2.0107777, "source": "osm", "_tags": {"addr:housenumber": "97", "addr:postcode": "08750", "addr:street": "Passeig del Terraplè", "amenity": "clinic", "designation": "Clínica", "emergency": "no", "healthcare": "hospital", "name": "Clínica de Molins de Rei"}}, {"name": "Centre d'Atenció Primària Turó de Can Mates", "latitude": 41.476603, "longitude": 2.0683217, "source": "osm", "_tags": {"amenity": "clinic", "healthcare": "hospital", "name": "Centre d'Atenció Primària Turó de Can Mates", "short_name": "CAP Turó de Can Mates"}}, {"name": "CAP 3", "latitude": 41.3237273, "longitude": 2.0195064, "source": "osm", "_tags": {"amenity": "clinic", "healthcare": "hospital", "name": "CAP 3"}}, {"name": "Centre d'Atenció Primària I Ripollet", "latitude": 41.4952846, "longitude": 2.1599689, "source": "osm", "_tags": {"amenity": "clinic", "building": "yes", "healthcare": "hospital", "healthcare:speciality": "general", "name": "Centre d'Atenció Primària I Ripollet", "short_name": "CAP I Ripollet"}}, {"name": "Capio Hospital Universitari Sagrat Cor", "latitude": 41.3889427, "longitude": 2.1456033, "source": "osm", "_tags": {"addr:city": "Barcelona", "addr:housenumber": "288-302", "addr:postcode": "08029", "addr:street": "Carrer de Viladomat", "amenity": "hospital", "building": "yes", "building:levels": "12", "height": "44", "name": "Capio Hospital Universitari Sagrat Cor"}}, {"name": "Centre d'Atenció Primària del Barri Cotet", "latitude": 41.4995561, "longitude": 2.3597699, "source": "osm", "_tags": {"amenity": "hospital", "healthcare": "hospital", "name": "Centre d'Atenció Primària del Barri Cotet", "short_name": "CAP del Barri Cotet"}}, {"name": "Centre d'Atenció Primària Arenys de Munt", "latitude": 41.610117, "longitude": 2.538747, "source": "osm", "_tags": {"addr:city": "Arenys de Munt", "addr:postcode": "08358", "addr:street": "Carrer Verge del Remei", "amenity": "hospital", "emergency": "yes", "healthcare": "hospital", "healthcare:speciality": "general", "name": "Centre d'Atenció Primària Arenys de Munt", "nohousenumber": "yes", "opening_hours": "Mo-Fr 08:00-14:00,15:00-20:00", "phone": "+34 93 795 02 41", "short_name": "CAP Arenys de Munt", "wheelchair": "yes"}}, {"name": "Hospital Universitari Quirón Dexeus", "latitude": 41.3848057, "longitude": 2.1257795, "source": "osm", "_tags": {"amenity": "hospital", "name": "Hospital Universitari Quirón Dexeus", "name:ca": "Hospital Universitari Quirón Dexeus", "phone": "+34932274747", "website": "https://www.quironsalud.es/dexeus-barcelona", "wikidata": "Q20102153", "wikimedia_commons": "Category:Hospital Universitari Deixeus", "wikipedia": "ca:Hospital Universitari Dexeus"}}, {"name": "Hospital Casa Maternitat", "latitude": 41.3852022, "longitude": 2.123552, "source": "osm", "_tags": {"addr:housename": "Pavelló Blau", "addr:street": "Carrer de Sabino Arana", "amenity": "hospital", "building": "hospital", "building:levels": "6", "building:levels:underground": "1", "emergency": "yes", "name": "Hospital Casa Maternitat", "wheelchair": "yes"}}, {"name": "Hospital de Barcelona", "latitude": 41.3898885, "longitude": 2.1297441, "source": "osm", "_tags": {"addr:housenumber": "658", "addr:postcode": "08034", "addr:street": "Avinguda Diagonal", "amenity": "hospital", "building": "hospital", "building:levels": "18", "building:levels:underground": "3", "emergency": "yes", "name": "Hospital de Barcelona", "name:ca": "Hospital de Barcelona", "wikidata": "Q31270980", "wikimedia_commons": "Category:Hospital de Barcelona (Diagonal 656)", "wikipedia": "ca:Hospital de Barcelona"}}, {"name": "Fremap", "latitude": 41.4015346, "longitude": 2.1503727, "source": "osm", "_tags": {"amenity": "hospital", "building:levels": "8", "building:levels:underground": "1", "emergency": "yes", "name": "Fremap", "wikidata": "Q87761481"}}, {"name": "Residència Sant Martí - Fundació Vella Terra", "latitude": 41.6099086, "longitude": 2.5399589, "source": "osm", "_tags": {"amenity": "hospital", "emergency": "no", "name": "Residència Sant Martí - Fundació Vella Terra"}}, {"name": "Residència Verge del Remei", "latitude": 41.6079669, "longitude": 2.5399673, "source": "osm", "_tags": {"amenity": "hospital", "emergency": "no", "name": "Residència Verge del Remei", "name:ca": "Residència Verge del Remei"}}, {"name": "Clínica Sant Josep", "latitude": 41.722664, "longitude": 1.8324917, "source": "osm", "_tags": {"amenity": "hospital", "healthcare": "hospital", "name": "Clínica Sant Josep", "name:ca": "Clínica Sant Josep", "operator": "Althaia", "wikidata": "Q42149753", "wikipedia": "ca:Clínica Sant Josep de Manresa"}}, {"name": "Hospital del Mar", "latitude": 41.3838677, "longitude": 2.1938899, "source": "osm", "_tags": {"amenity": "hospital", "emergency": "yes", "healthcare": "hospital", "name": "Hospital del Mar", "name:ca": "Hospital del Mar", "website": "https://www.parcdesalutmar.cat/hospitals/hospital-del-mar/index.html", "wheelchair": "yes", "wikidata": "Q9004969", "wikimedia_commons": "Category:Hospital del Mar", "wikipedia": "ca:Hospital del Mar"}}, {"name": "Hospital Duran i Reynals", "latitude": 41.3452981, "longitude": 2.1114594, "source": "osm", "_tags": {"addr:city": "l'Hospitalet de Llobregat", "addr:housenumber": "199-203", "addr:postcode": "08908", "addr:street": "Avinguda de la Granvia de l'Hospitalet", "alt_name": "Institut Català d'Oncologia l'Hospitalet", "amenity": "hospital", "email": "ico@iconcologia.net", "healthcare": "hospital", "healthcare:speciality": "oncology", "name": "Hospital Duran i Reynals", "name:ca": "Hospital Duran i Reynals", "operator": "Departament de Salut de la Generalitat de Catalunya", "phone": "+34 93 260 77 33", "website": "https://ico.gencat.cat/ca/l_institut/centres/ico_l_hospitalet/", "wheelchair": "yes", "wikidata": "Q30280136", "wikipedia": "ca:Hospital Duran i Reynals"}}, {"name": "Centre d'Atenció Primària Vallirana", "latitude": 41.3825989, "longitude": 1.9325385, "source": "osm", "_tags": {"amenity": "hospital", "building": "public", "building:levels": "2", "healthcare": "hospital", "name": "Centre d'Atenció Primària Vallirana", "short_name": "CAP Vallirana"}}, {"name": "Hospital Universitari Vall d'Hebron", "latitude": 41.4280237, "longitude": 2.1408552, "source": "osm", "_tags": {"amenity": "hospital", "emergency": "yes", "healthcare": "hospital", "name": "Hospital Universitari Vall d'Hebron", "name:ca": "Hospital Universitari Vall d'Hebron", "operator": "CatSalut", "operator:type": "public", "wikidata": "Q3826080", "wikimedia_commons": "Category:Hospital Vall d'Hebron", "wikipedia": "ca:Hospital Universitari Vall d'Hebron"}}, {"name": "4- Hospital Traumatología, Rehabilitació Cremats Vall Hebron", "latitude": 41.4273607, "longitude": 2.13983, "source": "osm", "_tags": {"building": "hospital", "building:levels": "10", "emergency": "yes", "healthcare": "hospital", "healthcare:speciality": "traumatologiaortopèdia", "name": "4- Hospital Traumatología, Rehabilitació Cremats Vall Hebron", "name:ca": "4-  Hospital Traumatología, Rehabilitació Cremats Vall Hebron", "name:en": "4- Traumatology Hospital, Rehabilitation, Burns Vall Hebron", "name:es": "4- Hospital Traumatologia, Rehabilitación Quemados Vall Hebron", "operator": "Vall Hebron Barcelona Hospital Campus", "operator:type": "government"}}, {"name": "", "latitude": 41.550229, "longitude": 2.0994876, "source": "osm", "_tags": {"amenity": "hospital", "building:levels": "9", "healthcare": "hospital"}}, {"name": "Hospital Quironsalud", "latitude": 41.4158262, "longitude": 2.1387446, "source": "osm", "_tags": {"addr:housenumber": "5,7", "addr:postcode": "08023", "addr:street": "Plaça d'Alfonso Comín", "amenity": "hospital", "name": "Hospital Quironsalud", "name:ca": "Hospital Quironsalut", "name:es": "Hospital Quirónsalud Barcelona", "opening_hours": "24/7", "phone": "+34902444446", "website": "https://www.quironsalud.es/", "wheelchair": "yes", "wikidata": "Q64442905", "wikimedia_commons": "Category:Hospital Quirónsalud Barcelona"}}, {"name": "Centre d'Atenció Primària Est", "latitude": 41.5666427, "longitude": 2.0407648, "source": "osm", "_tags": {"addr:city": "Terrassa", "addr:housenumber": "19", "addr:postcode": "08227", "addr:street": "Carrer de Ciudad Real", "amenity": "hospital", "healthcare": "hospital", "name": "Centre d'Atenció Primària Est", "short_name": "CAP Est"}}, {"name": "Hospital de Sant LLorenç", "latitude": 41.3125938, "longitude": 2.0143661, "source": "osm", "_tags": {"amenity": "hospital", "emergency": "yes", "healthcare": "hospital", "name": "Hospital de Sant LLorenç", "wheelchair": "yes"}}, {"name": "Hospital Clínic", "latitude": 41.3895177, "longitude": 2.1522834, "source": "osm", "_tags": {"amenity": "hospital", "check_date": "2024-08-06", "contact:instagram": "hospital_clinic", "emergency": "yes", "healthcare": "hospital", "name": "Hospital Clínic", "name:ca": "Hospital Clínic", "name:etymology:wikidata": "Q2371388", "website": "https://www.hospitalclinic.org/", "wikidata": "Q2371388", "wikimedia_commons": "Category:Hospital Clínic de Barcelona", "wikipedia": "ca:Hospital Clínic de Barcelona"}}, {"name": "HM Nou Delfos", "latitude": 41.4137224, "longitude": 2.1421645, "source": "osm", "_tags": {"addr:housenumber": "151", "addr:postcode": "08023", "addr:street": "Avinguda de Vallcarca", "amenity": "hospital", "check_date": "2023-09-07", "email": "atencionalpaciente@mail.hmhospitales.com", "emergency": "yes", "fax": "+34 934 179 536", "healthcare": "hospital", "name": "HM Nou Delfos", "opening_hours": "Mo-Fr 07:30-21:00; Sa-Su 08:00-20:00; PH 08:00-20:00", "operator": "HM Hospitales", "operator:type": "private", "phone": "+34932545000;+34935230555"}}, {"name": "Hospital Universitari Germans Trias i Pujol", "latitude": 41.4811794, "longitude": 2.237608, "source": "osm", "_tags": {"addr:city": "Badalona", "addr:postcode": "08916", "addr:street": "Carretera de Canyet", "alt_name": "Hospital de Can Ruti", "amenity": "hospital", "emergency": "yes", "health_facility:type": "hospital", "medical_system:western": "yes", "name": "Hospital Universitari Germans Trias i Pujol", "name:ca": "Hospital Universitari Germans Trias i Pujol", "operator": "Institut Català de la Salut", "website": "http://www.gencat.cat/ics/germanstrias/", "wikidata": "Q17137104", "wikipedia": "ca:Hospital Germans Trias i Pujol"}}, {"name": "Institut Guttmann", "latitude": 41.4785368, "longitude": 2.2369638, "source": "osm", "_tags": {"addr:city": "Badalona", "addr:postcode": "08916", "addr:street": "Camí de Can Ruti", "amenity": "hospital", "emergency": "no", "healthcare": "hospital", "healthcare:speciality": "neurology", "internet_access": "wlan", "name": "Institut Guttmann", "name:ca": "Institut Guttmann", "nohousenumber": "yes", "wikidata": "Q2037791", "wikimedia_commons": "Category:Institut Guttmann", "wikipedia": "ca:Institut Guttmann"}}, {"name": "Residència disminuits psíquics profunds Can Ruti", "latitude": 41.4757582, "longitude": 2.238925, "source": "osm", "_tags": {"amenity": "hospital", "healthcare": "hospital", "name": "Residència disminuits psíquics profunds Can Ruti"}}, {"name": "", "latitude": 41.3562321, "longitude": 2.0266784, "source": "osm", "_tags": {"amenity": "hospital", "healthcare": "hospital"}}, {"name": "Hospital Sant Joan de Déu de Manresa", "latitude": 41.7206577, "longitude": 1.8377411, "source": "osm", "_tags": {"amenity": "hospital", "emergency": "yes", "name": "Hospital Sant Joan de Déu de Manresa", "name:ca": "Hospital Sant Joan de Déu de Manresa", "type": "multipolygon", "wikidata": "Q42907531", "wikipedia": "ca:Hospital de Sant Joan de Déu de Manresa"}}, {"name": "Hospital de Sant Celoni - Baix Montseny", "latitude": 41.687856, "longitude": 2.4858797, "source": "osm", "_tags": {"addr:city": "Sant Celoni", "addr:housenumber": "19", "addr:postcode": "08470", "addr:street": "Avinguda de l'Hospital", "amenity": "hospital", "building": "yes", "emergency": "yes", "healthcare": "hospital", "name": "Hospital de Sant Celoni - Baix Montseny", "type": "multipolygon", "wheelchair": "yes"}}, {"name": "Hospital del Mar", "latitude": 41.383781, "longitude": 2.1940114, "source": "osm", "_tags": {"addr:housenumber": "25-29", "addr:street": "Passeig Marítim de la Barceloneta", "building": "hospital", "building:levels": "1", "emergency": "yes", "healthcare": "hospital", "name": "Hospital del Mar", "name:ca": "Hospital del Mar", "type": "multipolygon"}}, {"name": "Hospital de la Santa Creu i Sant Pau", "latitude": 41.413977, "longitude": 2.1742203, "source": "osm", "_tags": {"amenity": "hospital", "healthcare": "hospital", "heritage": "1", "heritage:operator": "whc", "historic": "heritage", "name": "Hospital de la Santa Creu i Sant Pau", "name:ca": "Hospital de la Santa Creu i Sant Pau", "name:en": "Hospital de Sant Pau", "name:ja": "サンパウ病院", "name:ko": "산파우 병원", "name:ru": "Госпиталь Сан-Пау", "name:zh": "聖十字和聖保羅醫院", "tourism": "attraction", "type": "multipolygon", "wikidata": "Q507282", "wikipedia": "ca:Hospital de la Santa Creu i Sant Pau"}}, {"name": "Unitat Cures Paliatives - Unitat d'Atenció Intermèdia Oncològica", "latitude": 41.4150006, "longitude": 2.1413296, "source": "osm", "_tags": {"amenity": "hospital", "building": "yes", "building:levels": "6", "building:name": "xaloc", "name": "Unitat Cures Paliatives - Unitat d'Atenció Intermèdia Oncològica", "ref": "6,7", "type": "multipolygon"}}]