[{"name": "Centro de salud", "latitude": 40.9857931, "longitude": 0.0879631, "source": "osm", "_tags": {"addr:city": "Valdeltormo", "addr:housenumber": "3", "addr:postcode": "44620", "addr:street": "Carretera Estación", "addr:unit": "Carretera", "amenity": "clinic", "healthcare": "hospital", "name": "Centro de salud"}}, {"name": "Hospital Universitari Arnau de Vilanova", "latitude": 41.6268652, "longitude": 0.6127776, "source": "osm", "_tags": {"amenity": "hospital", "check_date": "2024-08-22", "emergency": "yes", "healthcare": "hospital", "name": "Hospital Universitari Arnau de Vilanova", "name:ca": "Hospital Universitari Arnau de Vilanova", "network": "Institut Català de la Salut", "network:short": "ICS", "operator:type": "public", "wikidata": "Q6745063", "wikipedia": "ca:Hospital Universitari Arnau de Vilanova"}}, {"name": "Hospital Sant Joan de Déu", "latitude": 41.6004954, "longitude": 0.6349851, "source": "osm", "_tags": {"addr:housenumber": "28", "addr:postcode": "25001", "addr:street": "Avinguda de la Canadiense", "amenity": "hospital", "healthcare": "hospital", "healthcare:speciality": "psychiatry", "name": "Hospital Sant Joan de Déu", "operator": "Ordre Hospitalaria Sant Joan de Deu", "wikidata": "Q87761977"}}, {"name": "Hospital de la Santa Creu", "latitude": 40.827839, "longitude": 0.5095964, "source": "osm", "_tags": {"amenity": "hospital", "emergency": "yes", "name": "Hospital de la Santa Creu", "name:ca": "Hospital de la Santa Creu"}}, {"name": "Centro Sanitario Bajo Cinca / Centre Sanitari Baix Cinca", "latitude": 41.524306, "longitude": 0.3405858, "source": "osm", "_tags": {"amenity": "hospital", "healthcare": "hospital", "name": "Centro Sanitario Bajo Cinca / Centre Sanitari Baix Cinca", "name:ca": "Centre Sanitari Baix Cinca", "name:es": "Centro Sanitario Bajo Cinca", "official_name": "Centro Sanitario Bajo Cinca-Baix Cinca", "operator": "Servicio Aragonés de Salud", "operator:short": "Salud", "operator:wikidata": "Q6126006", "wikidata": "Q87761901"}}, {"name": "Hospital Comarcal de Alcañiz", "latitude": 41.0451241, "longitude": -0.1299241, "source": "osm", "_tags": {"addr:city": "Alcañiz", "addr:postcode": "44600", "addr:street": "Calle Joaquín Repollés", "amenity": "hospital", "building": "yes", "emergency": "no", "healthcare": "hospital", "image": "https://commons.wikimedia.org/wiki/File:Hospital_Comarcal_de_Alcañiz.jpg", "name": "Hospital Comarcal de Alcañiz", "operator": "Servicio Aragonés de Salud", "wikidata": "Q64576852", "wikimedia_commons": "File:Hospital_Comarcal_de_Alcañiz.jpg"}}, {"name": "Hospital comarcal de Móra d'Ebre", "latitude": 41.09534, "longitude": 0.6388677, "source": "osm", "_tags": {"amenity": "hospital", "name": "Hospital comarcal de Móra d'Ebre", "name:ca": "Hospital comarcal de Móra d'Ebre", "wikidata": "Q87666248", "wikipedia": "ca:Hospital Comarcal de Móra d'Ebre"}}, {"name": "Servei Materno Infantil \"Lo Marraco\"", "latitude": 41.6114294, "longitude": 0.6088363, "source": "osm", "_tags": {"amenity": "hospital", "barrier": "fence", "healthcare": "hospital", "name": "Servei Materno Infantil \"Lo Marraco\""}}, {"name": "Nuevo Hospital de Alcañiz", "latitude": 41.0596131, "longitude": -0.1333277, "source": "osm", "_tags": {"amenity": "hospital", "healthcare": "hospital", "name": "Nuevo Hospital de Alcañiz"}}, {"name": "Vithas Hospital Montserrat", "latitude": 41.6128578, "longitude": 0.620477, "source": "osm", "_tags": {"addr:city": "Lleida", "addr:housenumber": "15", "addr:postcode": "25002", "addr:street": "Carrer del Governador de Montcada", "amenity": "hospital", "building": "hospital", "healthcare": "hospital", "name": "Vithas Hospital Montserrat", "opening_hours": "24/7", "phone": "+34 973 26 63 00", "type": "multipolygon", "website": "https://vithas.es/centro/vithas-hospital-lleida/", "wikidata": "Q87761946"}}, {"name": "Hospital Universitari de Santa Maria", "latitude": 41.6237505, "longitude": 0.6176293, "source": "osm", "_tags": {"amenity": "hospital", "check_date": "2024-08-22", "healthcare": "hospital", "name": "Hospital Universitari de Santa Maria", "name:ca": "Hospital Universitari de Santa Maria", "type": "multipolygon", "wikidata": "Q18297389", "wikipedia": "ca:Hospital Universitari de Santa Maria"}}]