[{"name": "I.F.O. Istituto Regina Elena e Istituto San Gallicano", "latitude": 41.8023637, "longitude": 12.4486445, "source": "osm", "_tags": {"addr:housenumber": "23", "addr:postcode": "00144", "addr:street": "Via Fermo Ognibene", "amenity": "hospital", "healthcare": "hospital", "name": "I.F.O. Istituto Regina Elena e Istituto San Gallicano", "name:it": "Istituto San Gallicano", "opening_hours": "Mo-Fr; Sa 08:00-01:00"}}, {"name": "Villa delle Querce", "latitude": 41.7123558, "longitude": 12.7170153, "source": "osm", "_tags": {"amenity": "hospital", "name": "Villa delle Querce"}}, {"name": "ASL", "latitude": 41.7595966, "longitude": 12.7081994, "source": "osm", "_tags": {"amenity": "hospital", "name": "ASL"}}, {"name": "", "latitude": 41.5875208, "longitude": 12.6480248, "source": "osm", "_tags": {"amenity": "hospital", "emergency": "yes"}}, {"name": "Istituti Fisioterapici Ospedalieri", "latitude": 41.8021119, "longitude": 12.4479814, "source": "osm", "_tags": {"addr:city": "Roma", "addr:housenumber": "53", "addr:postcode": "00144", "addr:street": "Via Elio Chianesi", "amenity": "hospital", "healthcare": "hospital", "name": "Istituti Fisioterapici Ospedalieri", "opening_hours": "Mo-Su 06:15-21:00"}}, {"name": "Pronto Soccorso Ospadale \"Giovanni Battista Grassi\"", "latitude": 41.7291983, "longitude": 12.2992769, "source": "osm", "_tags": {"addr:city": "Roma", "addr:housenumber": "28", "addr:postcode": "00122", "addr:street": "Via Giancarlo Passeroni", "amenity": "hospital", "emergency": "yes", "healthcare": "hospital", "name": "Pronto Soccorso Ospadale \"Giovanni Battista Grassi\""}}, {"name": "Pronto Soccorso Ospedali Riuniti di Anzio e Nettuno", "latitude": 41.4607863, "longitude": 12.6365331, "source": "osm", "_tags": {"addr:city": "Anzio", "addr:postcode": "00042", "addr:street": "Via Cupa dei Marmi", "amenity": "hospital", "emergency": "yes", "healthcare": "hospital", "name": "Pronto Soccorso Ospedali Riuniti di Anzio e Nettuno"}}, {"name": "Pronto Soccorso Ospedale \"San Sebastiano\"", "latitude": 41.8089998, "longitude": 12.6756557, "source": "osm", "_tags": {"addr:city": "Frascati", "addr:postcode": "00044", "amenity": "hospital", "entrance": "yes", "healthcare": "hospital", "name": "Pronto Soccorso Ospedale \"San Sebastiano\""}}, {"name": "Casa di cura Sant'Anna", "latitude": 41.672162, "longitude": 12.4962357, "source": "osm", "_tags": {"amenity": "hospital", "healthcare": "hospital", "name": "Casa di cura Sant'Anna"}}, {"name": "Pronto Soccorso", "latitude": 41.7707516, "longitude": 12.4670727, "source": "osm", "_tags": {"amenity": "hospital", "emergency": "yes", "healthcare": "hospital", "name": "Pronto Soccorso"}}, {"name": "ASL Roma 6 - Distretto H5 Pomezia", "latitude": 41.6786992, "longitude": 12.5021226, "source": "osm", "_tags": {"addr:housenumber": "2", "addr:street": "Via dei Castelli Romani", "addr:unit": "p", "amenity": "hospital", "healthcare": "hospital", "name": "ASL Roma 6 - Distretto H5 Pomezia", "operator": "ASL", "operator:wikidata": "Q3631467", "operator:wikipedia": "it:Azienda sanitaria locale", "phone": "+39 0693271", "website": "https://www.aslroma6.it/distretti/dh4-pomezia/uoc-direzione-sanitaria-di-pomezia"}}, {"name": "ASL Roma 6", "latitude": 41.7266222, "longitude": 12.6607558, "source": "osm", "_tags": {"amenity": "hospital", "healthcare": "hospital", "name": "ASL Roma 6", "operator": "ASL", "operator:wikidata": "Q3631467"}}, {"name": "Istituto San Giovanni Di Dio", "latitude": 41.6994777, "longitude": 12.6747265, "source": "osm", "_tags": {"addr:city": "Genzano di Roma", "addr:housenumber": "2", "addr:postcode": "00045", "addr:street": "via Fatebenefratelli", "amenity": "hospital", "area": "yes", "healthcare": "hospital", "name": "Istituto San Giovanni Di Dio", "phone": "+39 06 937381", "website": "https://www.istitutosangiovannididio.it/"}}, {"name": "Ospedale San Giuseppe", "latitude": 41.7289, "longitude": 12.6444507, "source": "osm", "_tags": {"building": "hospital", "emergency": "yes", "healthcare": "hospital", "name": "Ospedale San Giuseppe"}}, {"name": "Villa Albani", "latitude": 41.4496016, "longitude": 12.6275284, "source": "osm", "_tags": {"amenity": "hospital", "barrier": "wall", "name": "Villa Albani"}}, {"name": "Ospedale De Santis", "latitude": 41.7041978, "longitude": 12.6784941, "source": "osm", "_tags": {"amenity": "hospital", "healthcare": "hospital", "name": "Ospedale De Santis", "phone": "06 93271"}}, {"name": "Azienda Unità Sanitaria Locale Roma H", "latitude": 41.8052229, "longitude": 12.6027311, "source": "osm", "_tags": {"amenity": "hospital", "building": "yes", "healthcare": "hospital", "name": "Azienda Unità Sanitaria Locale Roma H", "operator": "ASL", "operator:wikidata": "Q3631467"}}, {"name": "Pronto Soccorso Ospedale \"San Giuseppe\"", "latitude": 41.7289674, "longitude": 12.6439665, "source": "osm", "_tags": {"addr:city": "Albano Laziale", "building": "hospital", "healthcare": "hospital", "name": "Pronto Soccorso Ospedale \"San Giuseppe\""}}, {"name": "Ospedale San Sebastiano di Frascati", "latitude": 41.8117546, "longitude": 12.6739238, "source": "osm", "_tags": {"amenity": "hospital", "building": "yes", "building:levels": "5", "name": "Ospedale San Sebastiano di Frascati", "note": "Centro Analisi", "wheelchair": "yes"}}, {"name": "Ospedale San Sebastiano di Frascati", "latitude": 41.8091692, "longitude": 12.6751904, "source": "osm", "_tags": {"addr:city": "Frascati", "addr:country": "IT", "addr:housenumber": "2", "addr:postcode": "00044", "addr:street": "Via Tuscolana", "amenity": "hospital", "emergency": "yes", "name": "Ospedale San Sebastiano di Frascati", "website": "http://www.aslromah.it/cittadino/ospedali/frascati.php"}}, {"name": "Policlinico Universitario Campus Bio-Medico", "latitude": 41.7703465, "longitude": 12.4697832, "source": "osm", "_tags": {"amenity": "hospital", "emergency": "yes", "healthcare": "hospital", "name": "Policlinico Universitario Campus Bio-Medico", "wikidata": "Q43896498"}}, {"name": "Ospedale Specializzato \"Luigi Spolverini\"", "latitude": 41.7227373, "longitude": 12.6761553, "source": "osm", "_tags": {"addr:city": "Ariccia", "addr:housenumber": "2", "addr:postcode": "00040", "addr:street": "Via delle Cerquette", "amenity": "hospital", "building": "yes", "name": "Ospedale Specializzato \"Luigi Spolverini\"", "opening_hours": "Mo-Su 09:00-17:00", "phone": "+39 06 932 71"}}, {"name": "Casa di Cura Città di Aprilia", "latitude": 41.5876621, "longitude": 12.6484735, "source": "osm", "_tags": {"addr:street": "Via delle Palme", "amenity": "hospital", "emergency": "yes", "healthcare": "hospital", "name": "Casa di Cura Città di Aprilia"}}, {"name": "Villa Von Siebenthal", "latitude": 41.7140442, "longitude": 12.6907357, "source": "osm", "_tags": {"amenity": "hospital", "building": "public", "emergency": "no", "healthcare": "hospital", "name": "Villa Von Siebenthal"}}, {"name": "Presidio Ospedaliero San Giuseppe Albano", "latitude": 41.728968, "longitude": 12.6444412, "source": "osm", "_tags": {"amenity": "hospital", "healthcare": "hospital", "name": "Presidio Ospedaliero San Giuseppe Albano"}}, {"name": "San Michele Hospital", "latitude": 41.5951383, "longitude": 12.6314401, "source": "osm", "_tags": {"amenity": "hospital", "healthcare": "hospital", "name": "San Michele Hospital", "website": "https://www.sanmichelehospital.it/"}}, {"name": "Residenza Sanitaria Teresiana", "latitude": 41.4529085, "longitude": 12.624856, "source": "osm", "_tags": {"amenity": "hospital", "building": "yes", "healthcare": "hospital", "name": "Residenza Sanitaria Teresiana"}}, {"name": "Casa di Cura Villa dei Pini", "latitude": 41.4635248, "longitude": 12.6161653, "source": "osm", "_tags": {"amenity": "hospital", "building": "yes", "healthcare": "hospital", "name": "Casa di Cura Villa dei Pini"}}, {"name": "Nuovo Ospedale dei Castelli Romani", "latitude": 41.6773532, "longitude": 12.6483395, "source": "osm", "_tags": {"addr:city": "Ariccia", "addr:postcode": "00072", "addr:street": "Via Nettunense", "amenity": "hospital", "check_date": "2025-07-27", "emergency": "yes", "healthcare": "hospital", "name": "Nuovo Ospedale dei Castelli Romani", "phone": "+39 06 93278888", "website": "http://ospedaledeicastelliromani.it/"}}, {"name": "ICC - Istituto Clinico Casalpalocco", "latitude": 41.7463075, "longitude": 12.3491411, "source": "osm", "_tags": {"addr:city": "Roma", "addr:housenumber": "382", "addr:postcode": "00124", "addr:street": "Viale Alessandro Magno", "amenity": "hospital", "emergency": "no", "healthcare": "hospital", "name": "ICC - Istituto Clinico Casalpalocco", "operator": "Gruppo Villa Maria S.p.A", "phone": "+39 06 50173411", "website": "https://www.gvmnet.it/strutture/icc-istituto-clinico-casalpalocco-roma"}}, {"name": "", "latitude": 41.7277406, "longitude": 12.2938904, "source": "osm", "_tags": {"amenity": "hospital", "healthcare": "hospital"}}, {"name": "Ospedale Regina Apostolorum", "latitude": 41.7309027, "longitude": 12.6653404, "source": "osm", "_tags": {"addr:city": "Albano Laziale", "addr:housenumber": "50", "addr:postcode": "00041", "addr:street": "Via San Francesco d'Assisi", "amenity": "hospital", "email": "info@reginaapostolorum.it", "healthcare": "hospital", "internet_access": "wlan", "internet_access:fee": "customers", "internet_access:ssid": "OspedaleReginaApostolorum", "name": "Ospedale Regina Apostolorum", "operator": "Ospedale Regina Apostolorum Srl", "phone": "06 932989", "website": "https://www.ospedalereginapostolorum.it/", "wheelchair": "yes"}}, {"name": "Ospedale San Sebastiano di Frascati", "latitude": 41.8103962, "longitude": 12.6748456, "source": "osm", "_tags": {"amenity": "hospital", "emergency": "yes", "name": "Ospedale San Sebastiano di Frascati", "site": "hospital", "type": "site"}}, {"name": "I.N.I. Istituto Traumatologico", "latitude": 41.7776297, "longitude": 12.6630517, "source": "osm", "_tags": {"amenity": "hospital", "emergency": "no", "name": "I.N.I. Istituto Traumatologico", "type": "multipolygon"}}, {"name": "Ospedale San Giuseppe", "latitude": 41.7689158, "longitude": 12.6681857, "source": "osm", "_tags": {"amenity": "hospital", "healthcare": "hospital", "name": "Ospedale San Giuseppe", "type": "multipolygon"}}, {"name": "Casa di Cura Villa Clara", "latitude": 41.5760311, "longitude": 12.6647847, "source": "osm", "_tags": {"amenity": "hospital", "healthcare": "hospital", "name": "Casa di Cura Villa Clara", "type": "multipolygon"}}, {"name": "Casa di Cura Villa Silvana", "latitude": 41.5786743, "longitude": 12.6650289, "source": "osm", "_tags": {"amenity": "hospital", "healthcare": "hospital", "name": "Casa di Cura Villa Silvana", "type": "multipolygon"}}, {"name": "Ospedali Riuniti di Anzio e Nettuno", "latitude": 41.4608037, "longitude": 12.6367125, "source": "osm", "_tags": {"amenity": "hospital", "healthcare": "hospital", "name": "Ospedali Riuniti di Anzio e Nettuno", "type": "multipolygon"}}, {"name": "Policlinico Dipartimento Militare di lungodegenza “M.O.V.M. Federico Bocchetti”", "latitude": 41.4484341, "longitude": 12.6228606, "source": "osm", "_tags": {"addr:city": "Anzio", "addr:postcode": "00042", "addr:street": "Via Roma", "amenity": "hospital", "barrier": "wall", "healthcare": "hospital", "landuse": "military", "name": "Policlinico Dipartimento Militare di lungodegenza “M.O.V.M. Federico Bocchetti”", "operator": "Esercito Italiano", "type": "multipolygon"}}, {"name": "Ospedale Giovanni Battista Grassi", "latitude": 41.7283572, "longitude": 12.3000548, "source": "osm", "_tags": {"addr:city": "Ostia Lido", "addr:housenumber": "28", "addr:postcode": "00122", "addr:street": "Via Giancarlo Passeroni", "amenity": "hospital", "building": "hospital", "building:levels": "3", "email": "dsgrassi@aslroma3.it", "emergency": "yes", "healthcare": "hospital", "name": "Ospedale Giovanni Battista Grassi", "operator": "Azienda USL Roma 3", "phone": "+39 06 56481", "type": "multipolygon", "website": "http://www.aslromad.it/Presidio.aspx?Organizzazione=9&Section=4&Page=1", "wheelchair": "yes"}}, {"name": "Poliambulatorio Casalbernocchi", "latitude": 41.7845803, "longitude": 12.3801902, "source": "osm", "_tags": {"amenity": "hospital", "building": "public", "healthcare": "hospital", "name": "Poliambulatorio Casalbernocchi", "operator": "ASL", "operator:wikidata": "Q3631467", "type": "multipolygon"}}, {"name": "ASL Roma 3 - Casal Bernocchi", "latitude": 41.7842928, "longitude": 12.3808177, "source": "osm", "_tags": {"amenity": "hospital", "building": "public", "healthcare": "hospital", "name": "ASL Roma 3 - Casal Bernocchi", "operator": "ASL", "operator:wikidata": "Q3631467", "type": "multipolygon"}}]