[{"name": "Croce Verde", "latitude": 42.0958986, "longitude": 13.8715157, "source": "osm", "_tags": {"amenity": "hospital", "name": "Croce Verde"}}, {"name": "Farmacia - Ambulatorio Medico", "latitude": 41.8781305, "longitude": 14.2948523, "source": "osm", "_tags": {"amenity": "hospital", "healthcare": "hospital", "name": "Farmacia - Ambulatorio Medico"}}, {"name": "DSB Ortona", "latitude": 42.355146, "longitude": 14.4008953, "source": "osm", "_tags": {"addr:city": "Ortona", "addr:housenumber": "4", "addr:postcode": "66026", "addr:street": "Piazza San Francesco d'Assisi", "amenity": "hospital", "healthcare": "hospital", "name": "DSB Ortona"}}, {"name": "Distretto sanitario di Capestrano", "latitude": 42.26567, "longitude": 13.7695661, "source": "osm", "_tags": {"amenity": "hospital", "healthcare": "hospital", "name": "Distretto sanitario di Capestrano"}}, {"name": "Croce Rossa Italiana Unità Territoriale Pianella", "latitude": 42.4010597, "longitude": 14.0521687, "source": "osm", "_tags": {"amenity": "hospital", "healthcare": "hospital", "name": "Croce Rossa Italiana Unità Territoriale Pianella"}}, {"name": "Distretto Sanitario di Base di Ortona", "latitude": 42.3551209, "longitude": 14.4005804, "source": "osm", "_tags": {"addr:city": "Ortona", "addr:housenumber": "4", "addr:postcode": "66026", "addr:street": "Piazza San Francesco d'Assisi", "amenity": "hospital", "healthcare": "hospital", "name": "Distretto Sanitario di Base di Ortona", "operator": "ASL 2 Chieti", "operator:type": "public"}}, {"name": "Distretto Sanitario Di Base Giulianova", "latitude": 42.7622728, "longitude": 13.9634189, "source": "osm", "_tags": {"addr:city": "Giulianova", "addr:postcode": "64021", "addr:street": "Via Ospizio Marino", "amenity": "hospital", "healthcare": "hospital", "name": "Distretto Sanitario Di Base Giulianova", "operator": "ASL", "operator:type": "public", "operator:wikidata": "Q3631467"}}, {"name": "Guardia Medica Turistica", "latitude": 42.7622413, "longitude": 13.9634425, "source": "osm", "_tags": {"addr:city": "Giulianova", "addr:postcode": "64021", "addr:street": "Via Ospizio Marino", "amenity": "hospital", "healthcare": "hospital", "name": "Guardia Medica Turistica", "operator": "ASL", "operator:type": "public", "operator:wikidata": "Q3631467"}}, {"name": "Centro Nutrizionale Regionale", "latitude": 42.7624959, "longitude": 13.9624202, "source": "osm", "_tags": {"addr:city": "Giulianova", "addr:housenumber": "8", "addr:postcode": "64021", "addr:street": "Via Torquato Tasso", "amenity": "hospital", "healthcare": "hospital", "name": "Centro Nutrizionale Regionale", "operator": "ASL", "operator:type": "public", "operator:wikidata": "Q3631467"}}, {"name": "Ospedale Renzetti Lanciano Pronto Soccorso", "latitude": 42.2299483, "longitude": 14.3969912, "source": "osm", "_tags": {"addr:housenumber": "1", "addr:postcode": "66034", "addr:street": "Via del Mare", "amenity": "hospital", "name": "Ospedale Renzetti Lanciano Pronto Soccorso", "opening_hours": "24/7"}}, {"name": "Ospedale \"San Massimo\"", "latitude": 42.4592797, "longitude": 13.9212865, "source": "osm", "_tags": {"amenity": "hospital", "healthcare": "hospital", "name": "Ospedale \"San Massimo\"", "old_name": "Convento delle Clarisse", "phone": "+39 085 82761", "source:name": "sign", "website": "https://www.asl.pe.it/DettaglioSede.jsp?id=29&idSezione=32"}}, {"name": "Azienda Sanitaria Locale ASL2 - Lanciano Vasto Chieti", "latitude": 42.4246062, "longitude": 14.2748933, "source": "osm", "_tags": {"addr:city": "Francavilla al Mare", "addr:postcode": "66023", "addr:street": "Strada Statale 649 di Fondo Valle Alento", "alt_name": "Distretto sanitario Francavilla al Mare - Area distrettuale 1", "amenity": "hospital", "contact:email": "areadistrettuale1@asl2abruzzo.it", "emergency": "no", "healthcare": "hospital", "healthcare:speciality": "blood_check;general;cardiology;dermatology;surgery;ophthalmology;dentistry;allergology;gynaecology;psychiatry;radiology;orthopaedics;urology;diabetology", "name": "Azienda Sanitaria Locale ASL2 - Lanciano Vasto Chieti", "opening_hours": "Mo,Th 08:00-12:00; Tu 14:30-16:30", "phone": "+39 085 491 7895;+39 085 917 4201", "website": "https://www.info.asl2abruzzo.it/assistenzaterritoriale/distretto-sanitario-di-francavilla-al-mare.html"}}, {"name": "Ospedale Val Vibrata", "latitude": 42.7926928, "longitude": 13.8013026, "source": "osm", "_tags": {"addr:city": "Sant'Omero", "addr:housenumber": "56", "addr:postcode": "64027", "addr:street": "Via Alla Salara", "amenity": "hospital", "emergency": "yes", "healthcare": "hospital", "name": "Ospedale Val Vibrata", "operator": "ASL Teramo", "phone": "+39 0861 8881", "start_date": "1985-05-05", "website": "https://www.aslteramo.it/ospedale-di-santomero/"}}, {"name": "Ex Ospedale Civile", "latitude": 42.3510417, "longitude": 14.1738749, "source": "osm", "_tags": {"amenity": "hospital", "healthcare": "hospital", "name": "Ex Ospedale Civile"}}, {"name": "Ex Ospedale S. Camillo de Lellis", "latitude": 42.3435264, "longitude": 14.1718415, "source": "osm", "_tags": {"addr:city": "Chieti", "addr:postcode": "66100", "addr:street": "Via Carlo Forlanini", "disused": "yes", "disused:amenity": "hospital", "healthcare": "hospital", "name": "Ex Ospedale S. Camillo de Lellis"}}, {"name": "Ospedale Clinicizzato Santissima Annunziata", "latitude": 42.3660087, "longitude": 14.1527189, "source": "osm", "_tags": {"addr:city": "Chieti", "addr:postcode": "66100", "addr:street": "Via dei Vestini", "amenity": "hospital", "contact:phone": "+39 0871 3571", "emergency": "yes", "healthcare": "hospital", "healthcare:speciality": "pathology;anaesthetics;intensive;haematology;cardiology;general;emergency;ophthalmology;orthodontics;orthopaedics;cardiothoracic_surgery;oncology;allergology;dermatology;geriatrics;nephrology;diagnostic_radiology;infectious_diseases;radiotherapy;nuclear", "name": "Ospedale Clinicizzato Santissima Annunziata", "opening_hours": "24/7", "website": "https://www.info.asl2abruzzo.it/ospedalechieti/direzione-sanitaria.html"}}, {"name": "Ospedale \"Floraspe Renzetti\"", "latitude": 42.2311541, "longitude": 14.3977849, "source": "osm", "_tags": {"addr:city": "Lanciano", "addr:housenumber": "1", "addr:postcode": "66034", "addr:street": "Via del Mare", "alt_name": "Ospedale di Lanciano", "amenity": "hospital", "healthcare": "hospital", "name": "Ospedale \"Floraspe Renzetti\"", "operator:type": "public"}}, {"name": "Ospedale San Liberatore", "latitude": 42.5779904, "longitude": 13.9874152, "source": "osm", "_tags": {"addr:city": "Atri", "addr:housenumber": "1158", "addr:postcode": "64032", "addr:street": "Viale Del Risorgimento", "amenity": "hospital", "emergency": "yes", "healthcare": "hospital", "name": "Ospedale San Liberatore", "phone": "+39 085 87071", "website": "https://www.aslteramo.it/ospedale-di-atri/"}}, {"name": "ASL Dipartimento di prevenzione", "latitude": 42.6726166, "longitude": 13.7301749, "source": "osm", "_tags": {"amenity": "hospital", "emergency": "no", "name": "ASL Dipartimento di prevenzione"}}, {"name": "Ospedale \"SS. Maria Immacolata\"", "latitude": 42.2008911, "longitude": 14.2170085, "source": "osm", "_tags": {"amenity": "hospital", "emergency": "yes", "healthcare": "hospital", "name": "Ospedale \"SS. Maria Immacolata\"", "website": "https://www.info.asl2abruzzo.it/ospedaleguardiagrele/"}}, {"name": "", "latitude": 42.4638347, "longitude": 14.1971486, "source": "osm", "_tags": {"building": "hospital", "building:colour": "lightyellow", "building:levels": "9", "healthcare": "hospital", "height": "30", "layer": "1", "roof:colour": "grey", "roof:shape": "flat"}}, {"name": "Distretto Sanitario di Base", "latitude": 42.3614546, "longitude": 14.2931052, "source": "osm", "_tags": {"addr:city": "Miglianico", "addr:housenumber": "21", "addr:postcode": "66010", "addr:street": "Costa della Forma", "amenity": "hospital", "name": "Distretto Sanitario di Base"}}, {"name": "Ospedale San Pio da Pietrelcina", "latitude": 42.117951, "longitude": 14.7102461, "source": "osm", "_tags": {"addr:city": "Vasto", "addr:postcode": "66054", "addr:street": "Via San Camillo de Lellis", "amenity": "hospital", "contact:phone": "+39 0873 3081", "emergency": "yes", "healthcare": "hospital", "name": "Ospedale San Pio da Pietrelcina", "operator": "ASL Lanciano-Vasto-Chieti", "operator:type": "public", "website": "https://www.info.asl2abruzzo.it/ospedalevasto/"}}, {"name": "Ospedale Civile \"SS. Annunziata\"", "latitude": 42.038647, "longitude": 13.9328207, "source": "osm", "_tags": {"amenity": "hospital", "emergency": "yes", "name": "Ospedale Civile \"SS. Annunziata\"", "wheelchair": "yes"}}, {"name": "ASL", "latitude": 42.4496897, "longitude": 13.9189576, "source": "osm", "_tags": {"amenity": "hospital", "name": "ASL"}}, {"name": "Croce Rossa Italiana - 118", "latitude": 42.5757764, "longitude": 14.0954232, "source": "osm", "_tags": {"addr:city": "Silvi", "addr:housenumber": "8", "addr:postcode": "64028", "addr:street": "Strada Statale 16 Adriatica", "amenity": "hospital", "brand": "Croce Rossa Italiana", "brand:wikidata": "Q913903", "check_date": "2020-10-18", "colour": "white", "emergency": "ambulance_station", "healthcare": "hospital", "lit": "yes", "name": "Croce Rossa Italiana - 118", "operator": "Croce Rossa Italiana - Sede di Silvi", "operator:type": "private_non_profit", "phone": "+39 085 935 4118", "website": "https://www.comune.silvi.te.it/home/vivere/telefoni.html"}}, {"name": "Distretto socio-sanitario - Scafa", "latitude": 42.266942, "longitude": 13.9962515, "source": "osm", "_tags": {"addr:city": "Scafa", "addr:postcode": "65027", "addr:street": "Via della Stazione", "alt_name": "ASL Scafa", "amenity": "hospital", "check_date": "2025-07-23", "emergency": "yes", "healthcare": "hospital", "healthcare:speciality": "general", "name": "Distretto socio-sanitario - Scafa", "operator": "USL Pescara", "operator:type": "public"}}, {"name": "Ospedale \"Gaetano Bernabeo\"", "latitude": 42.350763, "longitude": 14.389367, "source": "osm", "_tags": {"addr:city": "Ortona", "addr:postcode": "66026", "addr:street": "Via Nicola Calipari", "amenity": "hospital", "emergency": "yes", "healthcare": "hospital", "name": "Ospedale \"Gaetano Bernabeo\"", "operator:type": "public", "website": "https://www.info.asl2abruzzo.it/ospedaleortona/"}}, {"name": "Fondazione Il Cireneo - Onlus per l'Autismo.", "latitude": 42.7026424, "longitude": 13.7976224, "source": "osm", "_tags": {"amenity": "hospital", "healthcare": "hospital", "name": "Fondazione Il Cireneo - Onlus per l'Autismo."}}, {"name": "Centro Erogazione Servizi (CERS) Pescara Sud", "latitude": 42.4494614, "longitude": 14.2133029, "source": "osm", "_tags": {"amenity": "hospital", "barrier": "fence", "healthcare": "hospital", "name": "Centro Erogazione Servizi (CERS) Pescara Sud"}}, {"name": "", "latitude": 42.4131208, "longitude": 14.201363, "source": "osm", "_tags": {"amenity": "hospital", "healthcare": "hospital"}}, {"name": "San Camillo De Lellis", "latitude": 42.0729591, "longitude": 14.4480888, "source": "osm", "_tags": {"addr:city": "Atessa", "addr:housenumber": "4", "addr:postcode": "66041", "addr:street": "Via Antonio Gramsci", "building": "hospital", "contact:phone": "+39 0872 8641", "healthcare": "hospital", "name": "San Camillo De Lellis", "source": "microsoft/BuildingFootprints"}}, {"name": "ASL Cepagatti DSB", "latitude": 42.358756, "longitude": 14.0679188, "source": "osm", "_tags": {"addr:city": "Cepagatti", "addr:housenumber": "1", "addr:street": "Via Piano Ripa", "amenity": "hospital", "contact:phone": "+39 085 974535", "emergency": "yes", "fenced": "yes", "name": "ASL Cepagatti DSB"}}, {"name": "Centro iperbarico polivalente e di ricerca", "latitude": 42.7030051, "longitude": 13.7968684, "source": "osm", "_tags": {"amenity": "hospital", "healthcare": "hospital", "name": "Centro iperbarico polivalente e di ricerca", "phone": "+39 0861 587679"}}, {"name": "Ospedale Santissima Trinità", "latitude": 42.1758543, "longitude": 13.8273611, "source": "osm", "_tags": {"amenity": "hospital", "healthcare": "hospital", "name": "Ospedale Santissima Trinità", "operator:type": "public", "phone": "+39 085 98981", "type": "multipolygon", "website": "https://sanita.regione.abruzzo.it/canale-ospedali/ospedale-di-popoli"}}, {"name": "Casa di Cura \"San Raffaele\"", "latitude": 42.0720151, "longitude": 13.9131843, "source": "osm", "_tags": {"amenity": "hospital", "healthcare": "hospital", "name": "Casa di Cura \"San Raffaele\"", "type": "multipolygon", "wheelchair": "yes"}}, {"name": "Ospedale Civile Santo Spirito", "latitude": 42.4638566, "longitude": 14.196947, "source": "osm", "_tags": {"addr:city": "Pescara", "addr:housenumber": "8", "addr:postcode": "65124", "addr:street": "Via Fonte Romana", "amenity": "hospital", "emergency": "yes", "healthcare": "hospital", "name": "Ospedale Civile Santo Spirito", "operator:type": "public", "phone": "+39 085 4251", "type": "multipolygon", "website": "https://www.ausl.pe.it/DettaglioSede.jsp?id=30&idSezione=32"}}, {"name": "Casa di Cura Privata “Villa Serena”", "latitude": 42.5180328, "longitude": 14.1148807, "source": "osm", "_tags": {"addr:city": "Città Sant'Angelo", "addr:housenumber": "42", "addr:postcode": "65013", "addr:street": "Via Leonardo Petruzzi", "amenity": "hospital", "contact:fax": "+39 085 959 0206", "contact:phone": "+39 085 95901", "healthcare": "hospital", "name": "Casa di Cura Privata “Villa Serena”", "opening_hours": "24/7", "operator": "Casa di Cura Privata VILLA SERENA del Dr. L. Petruzzi s.r.l.", "operator:type": "private", "ref:vatin": "IT01220790685", "type": "multipolygon", "website": "https://www.villaserena.it/", "wheelchair": "yes"}}, {"name": "A.S.L. Pescara polisanitario di San Valentino A.C.", "latitude": 42.225825, "longitude": 13.9878823, "source": "osm", "_tags": {"addr:city": "San Valentino in Abruzzo Citeriore", "addr:street": "Via Giovanni Falcone", "amenity": "hospital", "emergency": "yes", "healthcare": "hospital", "name": "A.S.L. Pescara polisanitario di San Valentino A.C.", "operator": "ASL", "operator:type": "public", "operator:wikidata": "Q3631467", "operator:wikipedia": "it:Azienda sanitaria locale", "type": "multipolygon"}}, {"name": "RSA - Azienda Sanitaria Locale Di Pescara", "latitude": 42.2180693, "longitude": 13.9149992, "source": "osm", "_tags": {"amenity": "hospital", "healthcare": "hospital", "name": "RSA - Azienda Sanitaria Locale Di Pescara", "type": "multipolygon"}}, {"name": "Ospedale \"Maria Santissima dello Splendore\"", "latitude": 42.7460449, "longitude": 13.9625914, "source": "osm", "_tags": {"amenity": "hospital", "emergency": "yes", "healthcare": "hospital", "name": "Ospedale \"Maria Santissima dello Splendore\"", "phone": "+39 085 80201", "type": "multipolygon", "website": "https://www.aslteramo.it/ospedale-di-giulianova/", "wikidata": "Q118812830", "wikipedia": "it:Ospedale civile Maria Santissima dello Splendore"}}]