[{"name": "Punto di Primo Soccorso", "latitude": 42.6872147, "longitude": 11.332441, "source": "osm", "_tags": {"alt_name": "Pronto Soccorso", "amenity": "hospital", "healthcare": "hospital", "healthcare:speciality": "emergency", "name": "Punto di Primo Soccorso", "operator": "Azienda USL Toscana Sud Est", "short_name": "PPS"}}, {"name": "Ospedale Petruccioli", "latitude": 42.6354837, "longitude": 11.6744515, "source": "osm", "_tags": {"addr:city": "Pitigliano", "addr:postcode": "58013", "amenity": "hospital", "healthcare": "hospital", "name": "Ospedale Petruccioli"}}, {"name": "Ospedale San Giovanni di Dio", "latitude": 42.4462868, "longitude": 11.2378263, "source": "osm", "_tags": {"amenity": "hospital", "healthcare": "hospital", "name": "Ospedale San Giovanni di Dio", "type": "multipolygon"}}, {"name": "Ospedale Misericordia di Grosseto", "latitude": 42.7767831, "longitude": 11.1268676, "source": "osm", "_tags": {"addr:city": "Grosseto", "addr:country": "IT", "addr:housenumber": "161", "addr:postcode": "58100", "addr:street": "Via Senese", "amenity": "hospital", "beds": "445", "emergency": "yes", "healthcare": "hospital", "name": "Ospedale Misericordia di Grosseto", "operator": "ASL 9 Toscana Sud Est", "operator:type": "public", "phone": "+39 0564 485111", "type": "multipolygon", "url": "https://www.uslsudest.toscana.it/ospedali/grosseto-misericordia", "wikidata": "Q3886613", "wikipedia": "it:Ospedale Misericordia di Grosseto"}}]