[{"name": "Hospital Divino Valles", "latitude": 42.3602846, "longitude": -3.6915971, "source": "osm", "_tags": {"amenity": "hospital", "building": "yes", "building:colour": "#85552e", "healthcare": "hospital", "name": "Hospital Divino Valles", "name:es": "Hospital Divino Valles", "wikidata": "Q5902611", "wikipedia": "es:Hospital Divino Valles"}}, {"name": "Hospital Universitario de Burgos", "latitude": 42.3613823, "longitude": -3.6858137, "source": "osm", "_tags": {"addr:housenumber": "3", "addr:postcode": "09006", "addr:street": "Avenida Islas Baleares", "amenity": "hospital", "emergency": "yes", "healthcare": "hospital", "name": "Hospital Universitario de Burgos", "opening_hours": "24/7", "phone": "+34 947 28 18 000", "website": "https://www.saludcastillayleon.es/CABurgos/es/complejo-hospitalario-burgos/hospital-universitario-burgos", "wheelchair": "yes", "wikidata": "Q5902985", "wikipedia": "es:Hospital Universitario de Burgos"}}, {"name": "Hospital Recoletas Salud Burgos", "latitude": 42.3441551, "longitude": -3.6829278, "source": "osm", "_tags": {"amenity": "hospital", "healthcare": "hospital", "name": "Hospital Recoletas Salud Burgos", "phone": "+34 947244055", "website": "https://www.gruporecoletas.com", "wikidata": "Q87761640"}}, {"name": "Hospital San Juan de Dios", "latitude": 42.339401, "longitude": -3.7105175, "source": "osm", "_tags": {"amenity": "hospital", "emergency": "no", "healthcare": "hospital", "name": "Hospital San Juan de Dios", "phone": "+34 947257730", "website": "https://sanjuandediosburgos.es/", "wikidata": "Q87761641"}}, {"name": "Hospital Psiquiátrico Fuente Bermeja", "latitude": 42.3469147, "longitude": -3.711079, "source": "osm", "_tags": {"amenity": "hospital", "healthcare": "hospital", "name": "Hospital Psiquiátrico Fuente Bermeja", "operator": "Junta de Castilla y León", "phone": "+34947256236", "website": "https://www.saludcastillayleon.es/CABurgos/es/complejo-hospitalario-burgos/hospital-fuente-bermeja", "wikidata": "Q87761638"}}]