[{"name": "Centre hospitalier de Calvi-Balagne", "latitude": 42.5483837, "longitude": 8.7653833, "source": "osm", "_tags": {"amenity": "hospital", "check_date": "2025-09-01", "emergency": "yes", "healthcare": "hospital", "healthcare:speciality": "general", "name": "Centre hospitalier de Calvi-Balagne", "operator:type": "public", "phone": "+33 9 74 56 57 38", "ref:FR:FINESS": "2B0005359", "type:FR:FINESS": "355", "website": "https://www.centrehospitaliercalvibalagne.fr/"}}, {"name": "Centre hospitalier de Bastia", "latitude": 42.6814618, "longitude": 9.4273076, "source": "osm", "_tags": {"addr:postbox": "BP680", "addr:postcode": "20604", "amenity": "hospital", "emergency": "yes", "fax": "+33 4 95 33 35 08", "healthcare": "hospital", "healthcare:speciality": "intensive", "landuse": "healthcare", "name": "Centre hospitalier de Bastia", "opening_hours": "24/7", "operator:type": "public", "phone": "+33 4 95 59 11 11", "ref:FR:FINESS": "2B0000012", "type:FR:FINESS": "355", "website": "https://www.ch-bastia.fr/", "wheelchair": "yes"}}, {"name": "Centre Hospitalier Intercommunal Corte Tattone", "latitude": 42.3018545, "longitude": 9.1543195, "source": "osm", "_tags": {"amenity": "hospital", "email": "direction@chi-corte-tattone.fr", "fax": "+33 4 95 45 05 08", "healthcare": "yes", "name": "Centre Hospitalier Intercommunal Corte Tattone", "phone": "+33 4 95 45 05 00", "ref:FR:FINESS": "2B0000038", "type:FR:FINESS": "355", "website": "https://www.chi-corte-tattone.fr/"}}, {"name": "Clinisud", "latitude": 41.9235893, "longitude": 8.735026, "source": "osm", "_tags": {"amenity": "hospital", "healthcare": "hospital", "name": "Clinisud"}}, {"name": "Centre hospitalier d'Ajaccio", "latitude": 41.9449056, "longitude": 8.7697717, "source": "osm", "_tags": {"addr:city": "Ajaccio", "addr:housenumber": "1180", "addr:street": "Route À Madunuccia", "alt_name": "Centre hospitalier Notre-Dame de la Miséricorde - Site du Stilettu", "amenity": "hospital", "emergency": "yes", "end_date": "2023", "fax": "+33 4 95 29 94 60", "healthcare": "hospital", "healthcare:speciality": "intensive;ophthalmology;orthopaedics;surgery;cardiothoracic_surgery;neurology;oncology;pulmonology;cardiology;infectious_diseases;endocrinology;gynaecology;radiology;paediatrics;anaesthetics;geriatrics", "name": "Centre hospitalier d'Ajaccio", "name:co": "Centru Uspitalieru d'Aiacciu", "name:fr": "Centre hospitalier d'Ajaccio", "operator:type": "public", "phone": "+33 4 95 29 90 90", "ref:FR:FINESS": "2A0000022", "ref:UAI": "6200053N", "type:FR:FINESS": "355", "website": "https://www.ch-ajaccio.fr/"}}, {"name": "Centre d'Imagerie De La Plaine Orientale", "latitude": 41.9914148, "longitude": 9.4013783, "source": "osm", "_tags": {"addr:city": "Prunelli-di-Fiumorbu", "addr:postcode": "20243", "addr:street": "Marfisola", "amenity": "hospital", "healthcare": "hospital", "healthcare:speciality": "diagnostic_radiology", "name": "Centre d'Imagerie De La Plaine Orientale", "payment:credit_cards": "yes", "payment:visa": "yes", "phone": "04 95 56 53 50", "website": "https://cim-albizzias.com/contact/", "wheelchair": "yes"}}]