[{"name": "Hospital Río Carrión", "latitude": 42.0008235, "longitude": -4.5396198, "source": "osm", "_tags": {"addr:city": "Palencia", "addr:postcode": "34005", "addr:street": "Avenida de los Donantes de Sangre", "amenity": "hospital", "emergency": "yes", "healthcare": "hospital", "name": "Hospital Río Carrión", "network": "Sanidad de Castilla y León", "network:short": "SACYL", "nohousenumber": "yes", "opening_hours": "24/7", "operator": "Sacyl", "operator:type": "public", "operator:wikidata": "Q6116740", "operator:wikipedia": "es:Sacyl", "phone": "+34 979 167 000", "wikidata": "Q20741305", "wikipedia": "es:Hospital Río Carrión"}}, {"name": "Hospital Recoletas Palencia", "latitude": 42.0157528, "longitude": -4.5400712, "source": "osm", "_tags": {"addr:city": "Palencia", "addr:country": "ES", "addr:housenumber": "31,34", "addr:postcode": "34005", "addr:street": "Avenida Simón Nieto", "amenity": "hospital", "email": "admision.hrp@gruporecoletas.com", "fax": "+34 979 703 329", "healthcare": "hospital", "name": "Hospital Recoletas Palencia", "old_name": "Virgen de la Salud", "phone": "+34 979 747 700", "website": "http://www.hospitalrecoletaspalencia.es/", "wikidata": "Q87762340"}}, {"name": "Hospital San Telmo", "latitude": 41.9972062, "longitude": -4.5188926, "source": "osm", "_tags": {"amenity": "hospital", "barrier": "wall", "emergency": "yes", "healthcare": "hospital", "name": "Hospital San Telmo", "operator": "Sacyl", "operator:type": "public", "operator:wikidata": "Q6116740", "operator:wikipedia": "es:Sacyl", "phone": "+34 979 77 28 20", "wikidata": "Q87762334"}}, {"name": "Centro Sociosanitario Hermanas Hospitalarias", "latitude": 41.9934563, "longitude": -4.5065558, "source": "osm", "_tags": {"amenity": "hospital", "healthcare": "yes", "healthcare:speciality": "psychiatry", "name": "Centro Sociosanitario Hermanas Hospitalarias", "old_name": "Hospital Psiquiátrico San Luis", "phone": "+34 979 16 53 24", "website": "https://hospitalariaspalencia.es/", "wikidata": "Q87762336"}}]