[{"name": "Hopital Público de Monforte de Lemos", "latitude": 42.5273126, "longitude": -7.5193492, "source": "osm", "_tags": {"addr:city": "Monforte de Lemos", "addr:country": "ES", "addr:postcode": "27400", "addr:street": "Rúa da Corredoira", "amenity": "hospital", "building": "hospital", "emergency": "yes", "healthcare": "hospital", "name": "Hopital Público de Monforte de Lemos", "name:etymology:wikidata": "Q818341", "network": "Servizo Galego de Saúde", "network:short": "SERGAS", "network:wikidata": "Q3393183", "operator": "Servizo Galego de Saúde", "operator:short": "SERGAS", "operator:type": "public", "operator:wikidata": "Q3393183", "phone": "+34 982417900", "short_name": "Hospital de Monforte", "website": "https://xxilugo.sergas.es", "wikidata": "Q87762011"}}, {"name": "Complexo Hospitalario Universitario de Ourense", "latitude": 42.3260209, "longitude": -7.859979, "source": "osm", "_tags": {"addr:city": "Ourense", "addr:country": "ES", "addr:housenumber": "52", "addr:postcode": "32005", "addr:street": "Rúa Ramón Puga Noguerol", "amenity": "hospital", "emergency": "yes", "healthcare": "hospital", "healthcare:speciality": "general;emergency", "name": "Complexo Hospitalario Universitario de Ourense", "network": "Servizo Galego de Saúde", "network:short": "SERGAS", "network:wikidata": "Q3393183", "operator": "Servizo Galego de Saúde", "operator:short": "SERGAS", "operator:type": "public", "operator:wikidata": "Q3393183", "phone": "+34988385500", "short_name": "CHUO", "wikidata": "Q30281894"}}, {"name": "", "latitude": 42.1157413, "longitude": -8.2592452, "source": "osm", "_tags": {"amenity": "hospital", "healthcare": "hospital", "source": "Bing"}}, {"name": "Hospital Público de Verín", "latitude": 41.953898, "longitude": -7.4302719, "source": "osm", "_tags": {"addr:city": "Verín", "addr:country": "ES", "addr:postcode": "32600", "addr:street": "Estrada de Laza", "amenity": "hospital", "emergency": "yes", "healthcare": "hospital", "name": "Hospital Público de Verín", "network": "Servizo Galego de Saúde", "network:short": "SERGAS", "network:wikidata": "Q3393183", "nohousenumber": "yes", "operator": "Servizo Galego de Saúde", "operator:short": "SERGAS", "operator:type": "public", "operator:wikidata": "Q3393183", "phone": "+34 988413636", "short_name": "Hospital de Verín", "wikidata": "Q87762264"}}]