[{"name": "Clinique Saint-Christophe", "latitude": 42.7161184, "longitude": 2.8947379, "source": "osm", "_tags": {"amenity": "hospital", "healthcare": "hospital", "name": "Clinique Saint-Christophe", "ref:FR:FINESS": "660005166", "source": "cadastre-dgi-fr source : Direction Générale des Impôts - Cadastre ; mise à jour :2008", "type:FR:FINESS": "109"}}, {"name": "Centre médico-psychologique La Canetoise", "latitude": 42.6961335, "longitude": 3.0297818, "source": "osm", "_tags": {"addr:city": "Canet-en-Roussillon", "addr:postcode": "66140", "addr:street": "Avenue Eugène Sauvy", "amenity": "hospital", "email": "canet.cmp@ch-thuir.fr", "fax": "+33 4 68 73 07 95", "healthcare": "hospital", "healthcare:speciality": "psychiatry", "name": "Centre médico-psychologique La Canetoise", "phone": "+33 4 30 53 12 52", "website": "https://www.ch-thuir.fr/"}}, {"name": "Centre médico-psychologique d'Elne", "latitude": 42.6007244, "longitude": 2.9659103, "source": "osm", "_tags": {"addr:city": "Elne", "addr:housenumber": "4", "addr:postcode": "66200", "addr:street": "Rue du Mas Latrobe", "amenity": "hospital", "email": "elne.cmp@ch-thuir.fr", "fax": "+33 4 68 37 89 95", "healthcare": "hospital", "healthcare:speciality": "psychiatry", "name": "Centre médico-psychologique d'Elne", "phone": "+33 4 68 22 22 96", "website": "https://www.ch-thuir.fr/"}}, {"name": "Centre médico-psychologique de Perpignan", "latitude": 42.6981418, "longitude": 2.8981486, "source": "osm", "_tags": {"addr:city": "Perpignan", "addr:housenumber": "11", "addr:postcode": "66000", "addr:street": "Rue Émile Zola", "amenity": "hospital", "healthcare": "hospital", "healthcare:speciality": "psychiatry", "name": "Centre médico-psychologique de Perpignan"}}, {"name": "Centre médico-psychologique de Céret", "latitude": 42.4867597, "longitude": 2.7521906, "source": "osm", "_tags": {"addr:city": "Céret", "addr:postcode": "66400", "addr:street": "Place Henri Guitard", "amenity": "hospital", "healthcare": "hospital", "healthcare:speciality": "psychiatry", "name": "Centre médico-psychologique de Céret"}}, {"name": "CAP", "latitude": 41.8521561, "longitude": 3.1311335, "source": "osm", "_tags": {"addr:city": "Palamós", "addr:housenumber": "17", "addr:postcode": "17230", "addr:street": "Carrer de l'Hospital", "amenity": "hospital", "healthcare": "hospital", "healthcare:speciality": "medicina_familiar_i_comunitariamedicina_general;physiotherapy", "name": "CAP", "operator": "Centre d'Atenció Primaria", "operator:type": "public"}}, {"name": "Centre hospitalier de Perpignan", "latitude": 42.7258246, "longitude": 2.8896841, "source": "osm", "_tags": {"alt_name": "Centre hospitalier Maréchal Joffre", "amenity": "hospital", "emergency": "yes", "fax": "+33 4 68 61 68 33", "healthcare": "hospital", "healthcare:speciality": "intensive", "name": "Centre hospitalier de Perpignan", "name:ca": "Hospital de Perpinyà", "operator:type": "public", "phone": "+33 4 68 61 66 33", "ref:FR:FINESS": "660000084", "source": "cadastre-dgi-fr source : Direction Générale des Impôts - Cadastre ; mise à jour : 2009", "type:FR:FINESS": "355", "website": "https://www.ch-perpignan.fr/accueil-3.html", "wikidata": "Q50037243"}}, {"name": "Centre hospitalier Léon Jean Grégory", "latitude": 42.6268714, "longitude": 2.740966, "source": "osm", "_tags": {"amenity": "hospital", "healthcare": "hospital", "healthcare:speciality": "psychiatry", "name": "Centre hospitalier Léon Jean Grégory", "ref:FR:FINESS": "660000092", "type:FR:FINESS": "292", "wikidata": "Q87722155"}}, {"name": "Centre Bouffard Vercelli", "latitude": 42.4579751, "longitude": 3.1604627, "source": "osm", "_tags": {"amenity": "hospital", "building": "yes", "healthcare": "hospital", "name": "Centre Bouffard Vercelli", "ref:FR:FINESS": "660000605", "source": "cadastre-dgi-fr source : Direction Générale des Impôts - Cadastre. Mise à jour : 2010", "type:FR:FINESS": "109"}}, {"name": "Clinique de la Pinède", "latitude": 42.7235316, "longitude": 2.8469054, "source": "osm", "_tags": {"amenity": "hospital", "building": "yes", "healthcare": "hospital", "name": "Clinique de la Pinède", "ref:FR:FINESS": "660790163", "source": "cadastre-dgi-fr source : Direction Générale des Impôts - Cadastre. Mise à jour : 2010", "type:FR:FINESS": "109"}}, {"name": "Hospital Dr. Josep Trueta", "latitude": 41.997625, "longitude": 2.8201258, "source": "osm", "_tags": {"addr:city": "Girona", "addr:postcode": "17007", "addr:street": "Avinguda de França", "amenity": "hospital", "building": "hospital", "emergency": "yes", "healthcare": "hospital", "local_code": "7288", "name": "Hospital Dr. Josep Trueta", "name:ca": "Hospital Dr. Josep Trueta", "network": "Institut Català de la Salut", "network:short": "ICS", "nohousenumber": "yes", "operator:type": "public", "source": "Ajuntament de Girona", "website": "https://icsgirona.cat/", "wikidata": "Q17137112", "wikipedia": "ca:Hospital Universitari de Girona Dr. Josep Trueta"}}, {"name": "Centre Catalan d'Oncologie", "latitude": 42.6954695, "longitude": 2.8643312, "source": "osm", "_tags": {"amenity": "hospital", "building": "hospital", "fax": "+33 4 68 83 57 90", "healthcare": "hospital", "name": "Centre Catalan d'Oncologie", "phone": "+33 4 68 55 74 96", "ref:FR:FINESS": "660007246", "source": "cadastre-dgi-fr source : Direction Générale des Impôts - Cadastre. Mise à jour : 2010", "type:FR:FINESS": "698", "website": "https://www.cco-perpignan.fr/"}}, {"name": "Polyclinique Médipôle Saint-Roch", "latitude": 42.6909675, "longitude": 2.9340168, "source": "osm", "_tags": {"amenity": "hospital", "email": "raq@medipole.fr", "emergency": "yes", "fax": "+33 4 68 66 10 11", "healthcare": "hospital", "name": "Polyclinique Médipôle Saint-Roch", "operator": "Elsan", "operator:type": "private", "operator:wikidata": "Q48747106", "operator:wikipedia": "fr:Elsan", "phone": "+33 4 28 63 10 10", "ref:FR:FINESS": "660790387", "source": "cadastre-dgi-fr source : Direction Générale des Impôts - Cadastre;mise à jour : 2011", "toilets:wheelchair": "yes", "type:FR:FINESS": "365", "website": "https://www.elsan.care/fr/medipole-saint-roch", "wheelchair": "yes", "wikidata": "Q87716522"}}, {"name": "Clinique mutualiste Catalane", "latitude": 42.727531, "longitude": 2.8753515, "source": "osm", "_tags": {"amenity": "hospital", "healthcare": "hospital", "name": "Clinique mutualiste Catalane", "ref:FR:FINESS": "660006305", "type:FR:FINESS": "365"}}, {"name": "Clínica Salus Infirmorum", "latitude": 42.1147776, "longitude": 2.761239, "source": "osm", "_tags": {"addr:housenumber": "130", "addr:street": "Passeig de Mossèn Lluís Constans", "amenity": "hospital", "building": "yes", "healthcare": "hospital", "name": "Clínica Salus Infirmorum", "source": "PNOA", "wikidata": "Q87761769"}}, {"name": "Clinique du Pré", "latitude": 42.6301591, "longitude": 2.9462721, "source": "osm", "_tags": {"amenity": "hospital", "healthcare": "hospital", "name": "Clinique du Pré", "ref:FR:FINESS": "660780248", "type:FR:FINESS": "161"}}, {"name": "Hospital de Figueres", "latitude": 42.2683318, "longitude": 2.9537706, "source": "osm", "_tags": {"amenity": "hospital", "healthcare": "hospital", "name": "Hospital de Figueres", "name:ca": "Hospital de Figueres", "name:es": "Hospital de Figueres", "wikidata": "Q19256768", "wikipedia": "ca:Hospital de Figueres"}}, {"name": "Hospital de Palamós", "latitude": 41.8528043, "longitude": 3.1316865, "source": "osm", "_tags": {"amenity": "hospital", "building": "yes", "emergency": "yes", "healthcare": "hospital", "name": "Hospital de Palamós", "name:ca": "Hospital de Palamós", "website": "https://www.ssibe.cat/index.php?pagina=44", "wikidata": "Q17137118", "wikipedia": "ca:Hospital de Palamós"}}, {"name": "Polyclinique Méditerranée", "latitude": 42.6821751, "longitude": 2.9114168, "source": "osm", "_tags": {"amenity": "hospital", "emergency": "no", "healthcare": "hospital", "name": "Polyclinique Méditerranée", "operator": "Elsan", "operator:wikidata": "Q48747106", "ref:FR:FINESS": "660780669", "type:FR:FINESS": "365", "website": "https://www.elsan.care/fr/polyclinique-mediterranee"}}, {"name": "Centre Catalan d'Imagerie", "latitude": 42.6954474, "longitude": 2.8638901, "source": "osm", "_tags": {"amenity": "hospital", "building": "hospital", "healthcare": "hospital", "name": "Centre Catalan d'Imagerie", "phone": "+33 4 68 55 21 35", "ref:FR:FINESS": "660006032", "source": "cadastre-dgi-fr source : Direction Générale des Impôts - Cadastre. Mise à jour : 2010", "type:FR:FINESS": "698", "website": "http://www.radiologie-perpignan.fr/centre-catalan-dimagerie-radiologie/"}}, {"name": "Clinique SSR Supervaltech", "latitude": 42.7274794, "longitude": 2.8468494, "source": "osm", "_tags": {"amenity": "hospital", "healthcare": "hospital", "name": "Clinique SSR Supervaltech", "ref:FR:FINESS": "660780743", "type:FR:FINESS": "109", "wikidata": "Q87724480"}}, {"name": "Clinique Saint-Pierre", "latitude": 42.695914, "longitude": 2.8651977, "source": "osm", "_tags": {"amenity": "hospital", "emergency": "yes", "fax": "+33 4 68 55 51 08", "healthcare": "hospital", "healthcare:speciality": "intensive", "name": "Clinique Saint-Pierre", "operator": "Groupe Elsan", "operator:type": "private", "operator:wikidata": "Q48747106", "phone": "+33 8 26 30 26 26", "ref:FR:FINESS": "660780784", "source": "cadastre-dgi-fr source : Direction Générale des Impôts - Cadastre. Mise à jour : 2010", "type:FR:FINESS": "365", "website": "https://www.elsan.care/fr/clinique-saint-pierre", "wikidata": "Q87769268"}}, {"name": "Centre de soins médicaux et de réadaptation - Le Vallespir", "latitude": 42.5131142, "longitude": 2.8326848, "source": "osm", "_tags": {"amenity": "hospital", "healthcare": "hospital", "name": "Centre de soins médicaux et de réadaptation - Le Vallespir", "operator": "UGECAM", "operator:type": "public", "phone": "+33 4 68 83 70 70", "website": "https://www.groupe-ugecam.fr/csmr-le-vallespir"}}, {"name": "Centre de Gérontologie du Roussillon", "latitude": 42.7292271, "longitude": 2.8682497, "source": "osm", "_tags": {"amenity": "hospital", "building": "hospital", "capacity": "302", "fixme": "cadastre", "name": "Centre de Gérontologie du Roussillon"}}, {"name": "Hospital de Figueres", "latitude": 42.2684311, "longitude": 2.9539158, "source": "osm", "_tags": {"addr:housenumber": "10", "addr:postcode": "17600", "addr:street": "Ronda del Rector Arolas", "amenity": "hospital", "building": "public", "building:levels": "3", "building:levels:underground": "1", "name": "Hospital de Figueres"}}, {"name": "Clinique psychiatrique du Roussillon", "latitude": 42.7204317, "longitude": 2.8857952, "source": "osm", "_tags": {"amenity": "hospital", "building": "yes", "healthcare": "hospital", "name": "Clinique psychiatrique du Roussillon", "ref:FR:FINESS": "660780735", "type": "multipolygon", "type:FR:FINESS": "365"}}, {"name": "Hospital de Santa Caterina", "latitude": 41.9695703, "longitude": 2.7970654, "source": "osm", "_tags": {"amenity": "hospital", "building": "hospital", "building:colour": "gray", "building:levels": "2", "emergency": "yes", "healthcare": "hospital", "name": "Hospital de Santa Caterina", "name:ca": "Hospital de Santa Caterina", "network": "Institut Català de la Salut", "network:short": "ICS", "operator:type": "public", "type": "multipolygon", "wikidata": "Q21192855", "wikipedia": "ca:Hospital de Santa Caterina (Salt)"}}, {"name": "Parc hospitalari Martí i Julià", "latitude": 41.9705243, "longitude": 2.7965972, "source": "osm", "_tags": {"amenity": "hospital", "healthcare": "hospital", "loc_name": "Hospital de Salt", "name": "Parc hospitalari Martí i Julià", "name:ca": "Parc hospitalari Martí i Julià", "type": "multipolygon"}}, {"name": "Clínica Girona", "latitude": 41.9636051, "longitude": 2.8113062, "source": "osm", "_tags": {"addr:street": "Carrer de Barcelona", "amenity": "hospital", "contact:phone": "+34 972 010 300", "contact:website": "https://clinicagirona.cat/", "healthcare": "hospital", "name": "Clínica Girona", "name:ca": "Clínica Girona", "name:es": "Clinica Girona", "type": "multipolygon", "wikidata": "Q30266991", "wikipedia": "ca:Clínica Girona"}}, {"name": "La República", "latitude": 41.9694152, "longitude": 2.7952861, "source": "osm", "_tags": {"amenity": "hospital", "building": "yes", "name": "La República", "type": "multipolygon"}}]