[{"name": "Hospital de Calahorra", "latitude": 42.313538, "longitude": -1.9804354, "source": "osm", "_tags": {"amenity": "hospital", "name": "Hospital de Calahorra"}}, {"name": "Hospital Universitario de Navarra", "latitude": 42.8050858, "longitude": -1.668556, "source": "osm", "_tags": {"addr:city": "Pamplona/Iruña", "addr:housenumber": "3", "addr:postcode": "31008", "addr:street": "Calle Irunlarrea", "amenity": "hospital", "emergency": "yes", "healthcare": "hospital", "name": "Hospital Universitario de Navarra", "name:es": "Hospital Universitario de Navarra", "name:etymology:wikidata": "Q20014157", "name:eu": "Nafarroako Unibertsitate Ospitalea", "network": "Servicio Navarro de Salud-Osasunbidea", "network:short": "SNS-O", "old_name": "Complejo Hospitalario de Navarra", "operator": "Servicio Navarro de Salud-Osasunbidea", "operator:type": "public", "phone": "+34 848422222", "website": "https://chn.navarra.es/es/home", "wheelchair": "yes", "wikidata": "Q20014157"}}, {"name": "Hospital García Orcoyen", "latitude": 42.6835488, "longitude": -2.0385182, "source": "osm", "_tags": {"addr:city": "Estella-Lizarra", "addr:housenumber": "22", "addr:postcode": "31200", "addr:street": "Calle Sta. Soria", "amenity": "hospital", "emergency": "yes", "healthcare": "hospital", "name": "Hospital García Orcoyen", "network": "Servicio Navarro de Salud-Osasunbidea", "network:short": "SNS-O", "operator:type": "public", "wikidata": "Q87762250"}}, {"name": "Hospital Nuestra Señora de la Caridad", "latitude": 42.5227868, "longitude": -1.6782891, "source": "osm", "_tags": {"addr:city": "Tafalla", "addr:housenumber": "2", "addr:postcode": "31300", "addr:street": "Calle Javier Osés", "amenity": "hospital", "building": "hospital", "name": "Hospital Nuestra Señora de la Caridad", "phone": "+34 948 700 149"}}, {"name": "Viamed de Calahorra", "latitude": 42.3145575, "longitude": -1.9804404, "source": "osm", "_tags": {"amenity": "hospital", "name": "Viamed de Calahorra"}}, {"name": "Centro Salud Valtierra", "latitude": 42.1956833, "longitude": -1.6305791, "source": "osm", "_tags": {"amenity": "hospital", "building": "yes", "healthcare": "hospital", "name": "Centro Salud Valtierra"}}, {"name": "Hospital Reina Sofía", "latitude": 42.0408596, "longitude": -1.6253213, "source": "osm", "_tags": {"amenity": "hospital", "building": "yes", "emergency": "yes", "healthcare": "hospital", "name": "Hospital Reina Sofía", "network": "Servicio Navarro de Salud-Osasunbidea", "network:short": "SNS-O", "operator:type": "public", "wikidata": "Q12266496"}}, {"name": "Clínica Universidad de Navarra", "latitude": 42.8057988, "longitude": -1.6641007, "source": "osm", "_tags": {"addr:housenumber": "36", "addr:postcode": "31008", "addr:street": "Avenida Pío XII", "alt_name": "Clínica Universitaria de Navarra", "amenity": "hospital", "emergency": "yes", "healthcare": "hospital", "name": "Clínica Universidad de Navarra", "name:es": "Clínica Universidad de Navarra", "name:eu": "Nafarroako Unibertsitate Klinika", "short_name": "CUN", "website": "https://www.cun.es", "wheelchair": "yes", "wikidata": "Q3297837"}}, {"name": "Centro médico", "latitude": 42.308831, "longitude": -1.8966886, "source": "osm", "_tags": {"addr:city": "Azagra", "addr:postcode": "31560", "addr:street": "Calle Ramón y Cajal", "amenity": "hospital", "emergency": "no", "healthcare": "hospital", "healthcare:speciality": "general", "name": "Centro médico"}}, {"name": "Centro Infanta Elena", "latitude": 42.7950609, "longitude": -1.63947, "source": "osm", "_tags": {"amenity": "hospital", "healthcare": "hospital", "name": "Centro Infanta Elena", "wheelchair": "yes"}}, {"name": "", "latitude": 42.0408106, "longitude": -1.6249305, "source": "osm", "_tags": {"amenity": "hospital", "healthcare": "hospital"}}]