[{"name": "Hospital HM Regla", "latitude": 42.6005795, "longitude": -5.5670738, "source": "osm", "_tags": {"addr:city": "León", "addr:housenumber": "2", "addr:postcode": "24003", "addr:street": "Calle Cardenal Landázuri", "amenity": "hospital", "building": "hospital", "building:levels": "3", "check_date": "2025-08-18", "emergency": "yes", "fax": "+34 987 22 00 02", "healthcare": "hospital", "name": "Hospital HM Regla", "operator": "HM Hospitales", "phone": "+34 987 83 00 83", "source": "ITACyL", "website": "https://www.hmregla.com/", "wikidata": "Q64443045"}}, {"name": "San Juan de Dios", "latitude": 42.6074987, "longitude": -5.59498, "source": "osm", "_tags": {"addr:city": "San Andrés del Rabanedo", "addr:country": "ES", "addr:housenumber": "73", "addr:postcode": "24010", "addr:street": "Avenida San Ignacio de Loyola", "amenity": "hospital", "emergency": "yes", "healthcare": "hospital", "name": "San Juan de Dios", "opening_hours": "24/7", "phone": "+34 987 232 500", "website": "https://www.hospitalsanjuandedios.es/"}}, {"name": "HM San Francisco", "latitude": 42.5900154, "longitude": -5.5723352, "source": "osm", "_tags": {"amenity": "hospital", "building": "hospital", "healthcare": "hospital", "name": "HM San Francisco", "operator": "HM Hospitales", "phone": "+34 987 251012", "website": "http://www.clinicasanfrancisco.es/", "wikidata": "Q87761923"}}, {"name": "Hospital Santa Isabel", "latitude": 42.5750465, "longitude": -5.5454991, "source": "osm", "_tags": {"addr:housenumber": "118", "addr:postcode": "24005", "addr:street": "Carretera Madrid", "amenity": "hospital", "emergency": "no", "healthcare": "hospital", "name": "Hospital Santa Isabel", "phone": "+34 987 203 760", "source": "Survey", "website": "https://www.saludcastillayleon.es/CHLeon/es/hospital-santa-isabel", "wikidata": "Q87761925"}}, {"name": "Hospital comarcal de Benavente", "latitude": 42.0043226, "longitude": -5.6771404, "source": "osm", "_tags": {"addr:city": "Benavente", "addr:housenumber": "4", "addr:postcode": "49600", "addr:street": "Calle del Hospital de San Juan", "amenity": "hospital", "emergency": "yes", "fax": "+34 980 63 01 05", "healthcare": "hospital", "name": "Hospital comarcal de Benavente", "operator": "Junta de Castilla y León", "operator:type": "public", "phone": "+34 980 63 19 00", "source": "http://www.jcyl.es/web/jcyl/Portada/es/Plantilla100Directorio/1248366924958/0/1142233578186/DirectorioPadre", "source_ref": "https://www.saludcastillayleon.es/CAZamora/en/complejo-asistencial-zamora/hospital-benavente/direcciones-telefonos", "website": "https://www.saludcastillayleon.es/CAZamora/es/complejo-asistencial-zamora/hospital-benavente", "wikidata": "Q64443019"}}, {"name": "Complejo Asistencial Universitario de León", "latitude": 42.6187338, "longitude": -5.5727012, "source": "osm", "_tags": {"addr:place": "Altos de Nava", "addr:postcode": "24071", "amenity": "hospital", "emergency": "yes", "fax": "+34 987 233 322", "healthcare": "hospital", "name": "Complejo Asistencial Universitario de León", "network": "Sanidad de Castilla y León", "network:short": "SACYL", "nohousenumber": "yes", "opening_hours": "24/7", "operator": "SACYL", "operator:type": "public", "operator:wikidata": "Q6116740", "phone": "+34 987 237 400", "wikidata": "Q5903037", "wikipedia": "es:Hospital de León"}}, {"name": "Hospital Monte San Isidro", "latitude": 42.6393915, "longitude": -5.5938726, "source": "osm", "_tags": {"amenity": "hospital", "healthcare": "hospital", "name": "Hospital Monte San Isidro", "operator": "SACYL", "operator:type": "public", "operator:wikidata": "Q6116740", "phone": "+34 987 227 850", "wikidata": "Q87761921"}}]