[{"name": "San Salvatore", "latitude": 42.0688096, "longitude": 12.7624968, "source": "osm", "_tags": {"amenity": "hospital", "emergency": "ambulance_station", "name": "San Salvatore"}}, {"name": "Farmacia", "latitude": 42.1641094, "longitude": 12.8437782, "source": "osm", "_tags": {"amenity": "hospital", "name": "Farmacia"}}, {"name": "Ospedale Grifoni", "latitude": 42.6277677, "longitude": 13.2865189, "source": "osm", "_tags": {"amenity": "hospital", "emergency": "yes", "healthcare": "hospital", "name": "Ospedale Grifoni"}}, {"name": "Centro di emergenza sanitaria \"campo sportivo A. Sbardella” \"", "latitude": 42.6256236, "longitude": 13.2929307, "source": "osm", "_tags": {"addr:street": "Strada Statale 260 Picente", "amenity": "hospital", "name": "Centro di emergenza sanitaria \"campo sportivo A. Sbardella” \"", "operator": "Protezione civile"}}, {"name": "Istituto Neurotraumatologico Italiano", "latitude": 41.9329767, "longitude": 13.4091215, "source": "osm", "_tags": {"amenity": "hospital", "healthcare:speciality": "neurotraumatology", "name": "Istituto Neurotraumatologico Italiano"}}, {"name": "Pronto Soccorso Ospedale \"Arnaldo Angelucci\"", "latitude": 41.9322074, "longitude": 13.0862927, "source": "osm", "_tags": {"addr:city": "Subiaco", "amenity": "hospital", "emergency": "yes", "healthcare": "hospital", "name": "Pronto Soccorso Ospedale \"Arnaldo Angelucci\""}}, {"name": "Pronto Soccorso Ospedale \"Camillo de Lellis\"", "latitude": 42.4223755, "longitude": 12.9067663, "source": "osm", "_tags": {"addr:city": "Rieti", "amenity": "hospital", "emergency": "yes", "healthcare": "hospital", "name": "Pronto Soccorso Ospedale \"Camillo de Lellis\""}}, {"name": "Pronto Soccorso Ospedale \"San Giovanni Evangelista\"", "latitude": 41.9603697, "longitude": 12.802126, "source": "osm", "_tags": {"addr:city": "Tivoli", "addr:postcode": "00019", "amenity": "hospital", "emergency": "yes", "healthcare": "hospital", "name": "Pronto Soccorso Ospedale \"San Giovanni Evangelista\""}}, {"name": "Croce Rossa Italiana Unità Territoriale Ovindoli", "latitude": 42.1380524, "longitude": 13.5176642, "source": "osm", "_tags": {"healthcare": "hospital", "name": "Croce Rossa Italiana Unità Territoriale Ovindoli", "operator": "Croce Rossa Italiana"}}, {"name": "Distretto sanitario di Barisciano", "latitude": 42.3266479, "longitude": 13.5908324, "source": "osm", "_tags": {"amenity": "hospital", "healthcare": "hospital", "name": "Distretto sanitario di Barisciano"}}, {"name": "Ambulatorio Medico", "latitude": 41.8891939, "longitude": 13.3244079, "source": "osm", "_tags": {"addr:street": "Via Aldo Moro", "amenity": "social_facility", "healthcare": "hospital", "name": "Ambulatorio Medico", "nohousenumber": "yes", "opening_hours": "Mo 10:39-12:00; Tu 09:00-10:15; We 18:00-20:00; Th 09:00-10:15; Fr 16:00-17:00", "social_facility": "ambulatory_care"}}, {"name": "Punto Primo Intervento P.A.S.S. Amatrice", "latitude": 42.6224855, "longitude": 13.3060316, "source": "osm", "_tags": {"amenity": "hospital", "check_date": "2025-09-15", "healthcare": "hospital", "name": "Punto Primo Intervento P.A.S.S. Amatrice"}}, {"name": "Ospedale provinciale Camillo de Lellis", "latitude": 42.4225909, "longitude": 12.9079333, "source": "osm", "_tags": {"addr:city": "Rieti", "addr:postcode": "02100", "addr:state": "Lazio", "addr:street": "Kennedy", "amenity": "hospital", "emergency": "yes", "healthcare": "hospital", "name": "Ospedale provinciale Camillo de Lellis", "operator": "Sistema Sanitario Nazionale", "phone": "+39 0746 2781", "website": "https://www.asl.rieti.it/"}}, {"name": "Ospedale Civile Giuseppe Mazzini", "latitude": 42.6666919, "longitude": 13.7148392, "source": "osm", "_tags": {"amenity": "hospital", "emergency": "yes", "healthcare": "hospital", "name": "Ospedale Civile Giuseppe Mazzini", "phone": "+39 0861 4291", "website": "https://www.aslteramo.it/ospedale-g-mazzini-di-teramo/"}}, {"name": "Arnaldo Angelucci", "latitude": 41.9321227, "longitude": 13.0870456, "source": "osm", "_tags": {"amenity": "hospital", "name": "Arnaldo Angelucci"}}, {"name": "Ospedale San Giovanni Battista", "latitude": 41.8410144, "longitude": 12.8291481, "source": "osm", "_tags": {"amenity": "hospital", "building": "yes", "name": "Ospedale San Giovanni Battista"}}, {"name": "Ospedale Civico \"Coniugi Bernardini\"", "latitude": 41.8364416, "longitude": 12.8868017, "source": "osm", "_tags": {"addr:city": "Palestrina", "addr:housenumber": "42", "addr:postcode": "00036", "addr:street": "Viale Pio XII", "amenity": "hospital", "email": "urppalestrinah@aslroma5.it", "emergency": "yes", "fax": "+39 06 95322001", "healthcare": "hospital", "healthcare:speciality": "general;cardiology;surgery;orthopaedics;paediatrics;intensive;gynaecology;emergency;dialysis;radiology;internal;maternity", "name": "Ospedale Civico \"Coniugi Bernardini\"", "operator": "ASL Roma 5", "operator:type": "public", "phone": "+39 06 95321", "website": "https://www.aslroma5.info/web/ospedali-e-distretti/ospedali-e-case-della-salute/ospedale-di-palestrina", "wheelchair": "yes"}}, {"name": "ASL Dipartimento di prevenzione", "latitude": 42.6726166, "longitude": 13.7301749, "source": "osm", "_tags": {"amenity": "hospital", "emergency": "no", "name": "ASL Dipartimento di prevenzione"}}, {"name": "Centro di Riabilitazione Intensiva Ospedaliera \"Santa Rita da Cascia\"", "latitude": 42.7152296, "longitude": 13.0148025, "source": "osm", "_tags": {"amenity": "hospital", "emergency": "no", "name": "Centro di Riabilitazione Intensiva Ospedaliera \"Santa Rita da Cascia\"", "operator": "Azienda Unità Sanitaria Locale Umbria n. 2", "operator:type": "public"}}, {"name": "", "latitude": 42.6255317, "longitude": 13.2937451, "source": "osm", "_tags": {"amenity": "hospital", "fixme": "clarify weather it is camp site or medical amenity", "refugee": "yes"}}, {"name": "Ospedale San Giovanni Evangelista", "latitude": 41.9605146, "longitude": 12.8023925, "source": "osm", "_tags": {"addr:city": "Tivoli", "addr:housenumber": "3", "addr:postcode": "00019", "addr:street": "Via Antonio Parrozzani", "amenity": "hospital", "emergency": "yes", "healthcare": "hospital", "name": "Ospedale San Giovanni Evangelista", "phone": "+39 07743164332"}}, {"name": "Ospedale di Norcia", "latitude": 42.7893578, "longitude": 13.0970859, "source": "osm", "_tags": {"amenity": "hospital", "emergency": "yes", "healthcare": "hospital", "name": "Ospedale di Norcia", "operator": "Azienda Unità Sanitaria Locale Umbria n. 2", "operator:type": "public", "phone": "+39 0743 8151", "website": "https://www.uslumbria2.it/pagine/ospedale-di-norcia-000"}}, {"name": "ASL Roma 5 – Sede di Palestrina", "latitude": 41.8389368, "longitude": 12.8883512, "source": "osm", "_tags": {"addr:city": "Palestrina", "addr:housenumber": "38", "addr:postcode": "00036", "addr:street": "Via Porta San Martino", "amenity": "hospital", "email": "urppalestrinah@aslromag.it", "emergency": "no", "healthcare": "hospital", "name": "ASL Roma 5 – Sede di Palestrina", "operator": "ASL", "operator:wikidata": "Q3631467", "phone": "+39 06 95322211", "website": "https://www.aslroma5.it/distretti/distretto-di-palestrina/", "wheelchair": "yes"}}, {"name": "Croce Rossa Italiana – Palestrina", "latitude": 41.8391258, "longitude": 12.8877859, "source": "osm", "_tags": {"addr:city": "Palestrina", "addr:housenumber": "38", "addr:postcode": "00036", "addr:street": "Viale Alcide De Gasperi", "amenity": "hospital", "check_date": "2023-04-02", "email": "montiprenestini@cri.it", "healthcare": "yes", "name": "Croce Rossa Italiana – Palestrina", "phone": "+39 06 9535021", "website": "http://www.crimontiprenestini.it/", "wheelchair": "yes"}}, {"name": "Ospedale Civile di Tagliacozzo Umberto I", "latitude": 42.0715898, "longitude": 13.2550714, "source": "osm", "_tags": {"amenity": "hospital", "healthcare": "hospital", "name": "Ospedale Civile di Tagliacozzo Umberto I"}}, {"name": "Croce Rossa Italiana - L'Aquila", "latitude": 42.357234, "longitude": 13.4047252, "source": "osm", "_tags": {"addr:city": "L'Aquila", "addr:housenumber": "14", "addr:postcode": "67100", "addr:street": "Viale della Croce Rossa", "amenity": "hospital", "building": "hospital", "contact:facebook": "https://www.facebook.com/cri.Laquila", "contact:instagram": "https://www.instagram.com/crocerossalaquila/", "email": "laquila@cri.it", "healthcare": "hospital", "name": "Croce Rossa Italiana - L'Aquila", "operator": "Croce Rossa Italiana", "operator:wikidata": "Q913903", "operator:wikipedia": "it:Croce Rossa Italiana", "phone": "+39 0862 26061", "website": "https://criaq.it/"}}, {"name": "Ospedale Serafino Rinaldi", "latitude": 42.0277611, "longitude": 13.6483249, "source": "osm", "_tags": {"addr:city": "Pescina", "addr:postcode": "67057", "addr:street": "Via Serafino Rinaldi", "amenity": "hospital", "healthcare": "hospital", "name": "Ospedale Serafino Rinaldi", "phone": "+39 0863 8991", "website": "https://www.asl1abruzzo.it/"}}, {"name": "Presidio Ospedaliero di Collemaggio", "latitude": 42.3446464, "longitude": 13.4037575, "source": "osm", "_tags": {"amenity": "hospital", "healthcare": "hospital", "name": "Presidio Ospedaliero di Collemaggio", "wikidata": "Q65094911"}}, {"name": "Poliambulatorio distrettuale di Paganica", "latitude": 42.336659, "longitude": 13.470292, "source": "osm", "_tags": {"addr:city": "Bazzano", "addr:postcode": "67100", "addr:street": "Via dell'Industria", "amenity": "hospital", "healthcare": "hospital", "name": "Poliambulatorio distrettuale di Paganica", "type": "multipolygon"}}, {"name": "Ospedale Regionale San Salvatore", "latitude": 42.3654197, "longitude": 13.3516764, "source": "osm", "_tags": {"amenity": "hospital", "emergency": "yes", "healthcare": "hospital", "loc_name": "San Salvatore", "name": "Ospedale Regionale San Salvatore", "short_name": "Ospedale San Salvatore", "type": "multipolygon"}}, {"name": "Distretto sanitario di Rocca di Mezzo", "latitude": 42.2101682, "longitude": 13.5185501, "source": "osm", "_tags": {"addr:city": "Rocca di Mezzo", "addr:postcode": "67048", "addr:street": "Strada Provinciale 38 Nuova Vestina", "amenity": "hospital", "healthcare": "hospital", "healthcare:speciality": "general", "name": "Distretto sanitario di Rocca di Mezzo", "operator": "ASL01 Avezzano-Sulmona-L'Aquila", "operator:type": "government", "phone": "+39 0862 917338", "type": "multipolygon"}}, {"name": "Distretto sanitario di San Demetrio ne' Vestini", "latitude": 42.2869786, "longitude": 13.5582751, "source": "osm", "_tags": {"addr:city": "San Demetrio ne' Vestini", "addr:postcode": "67028", "addr:street": "Via Ventiquattro Maggio", "amenity": "hospital", "healthcare": "hospital", "name": "Distretto sanitario di San Demetrio ne' Vestini", "type": "multipolygon"}}, {"name": "Distretto Sanitario di Tornimparte", "latitude": 42.3380006, "longitude": 13.2598116, "source": "osm", "_tags": {"addr:city": "Rocca Santo Stefano", "addr:postcode": "67049", "addr:street": "Via Testrina", "amenity": "hospital", "healthcare": "hospital", "healthcare:speciality": "general", "name": "Distretto Sanitario di Tornimparte", "operator": "ASL01 Avezzano-Sulmona-L'Aquila", "operator:type": "government", "phone": "+39 0862 729138", "type": "multipolygon"}}, {"name": "Distretto Sanitario di Montereale", "latitude": 42.5194145, "longitude": 13.2493776, "source": "osm", "_tags": {"addr:city": "Piedicolle di Montereale", "addr:postcode": "67015", "addr:street": "Via della Molinella", "amenity": "hospital", "healthcare": "hospital", "healthcare:speciality": "general", "name": "Distretto Sanitario di Montereale", "operator": "ASL01 Avezzano-Sulmona-L'Aquila", "operator:type": "government", "phone": "+39 0862 901022", "type": "multipolygon"}}]