[{"name": "Centro de Salud de Navarrete", "latitude": 42.4273966, "longitude": -2.5611839, "source": "osm", "_tags": {"amenity": "hospital", "healthcare": "hospital", "name": "Centro de Salud de Navarrete"}}, {"name": "Hospital Viamed los Manzanos", "latitude": 42.4375999, "longitude": -2.4481839, "source": "osm", "_tags": {"amenity": "hospital", "healthcare": "hospital", "name": "Hospital Viamed los Manzanos", "old_name": "Clínica Los Manzanos", "phone": "+34941499490", "website": "https://www.viamedlosmanzanos.com/visita", "wikidata": "Q87761989"}}, {"name": "Consultorio Médico", "latitude": 42.4293902, "longitude": -2.4593228, "source": "osm", "_tags": {"addr:city": "Lardero", "addr:housenumber": "3", "addr:postcode": "26140", "addr:street": "Calle de los Donantes de Sangre", "amenity": "hospital", "emergency": "yes", "name": "Consultorio Médico"}}, {"name": "Lezako Ospitalea", "latitude": 42.5757264, "longitude": -2.6384662, "source": "osm", "_tags": {"addr:city": "Biasteri", "addr:full": "Logroño-Gazteiz errepidea 59. km", "addr:postcode": "01309", "addr:province": "Araba", "amenity": "hospital", "email": "Hospital@hlez.osakidetza.eus", "fax": "+34 945006901", "healthcare": "hospital", "name": "Lezako Ospitalea", "name:es": "Hospital de Leza", "name:eu": "Lezako Ospitalea", "network": "Araba/Álava", "note": "osasun-zentroaren ordutegitik kanpo eta premiaz artatu beharreko kasu arinetarako, begiratu <a href=\"https://www.osakidetza.euskadi.eus/informazioa/etengabeko-arretako-guneak-eag/ab84-oskcon/eu/\">hemen</a>ea zein EAG duzun hurbilen", "opening_hours": "Mo-Fr 08:00-15:00", "operator": "Osakidetza", "operator:type": "government", "operator:wikidata": "Q3822645", "operator:wikipedia": "es:Osakidetza-Servicio Vasco de Salud", "phone": "+34 945006900", "ref:osakidetza": "hospit_leza", "source": "Open Data Euskadi", "wikidata": "Q28479662"}}, {"name": "Hospital Comarcal Santiago Apóstol", "latitude": 42.669655, "longitude": -2.9892368, "source": "osm", "_tags": {"addr:postcode": "09200", "addr:street": "Carretera Orón-Hospital", "amenity": "hospital", "emergency": "yes", "healthcare": "hospital", "image": "https://commons.wikimedia.org/wiki/File:Orón_(Miranda_de_Ebro)_-_Hospital_de_Santiago_Apóstol_1.jpg", "name": "Hospital Comarcal Santiago Apóstol", "nohousenumber": "yes", "opening_hours": "24/7", "operator": "SACYL", "operator:type": "public", "operator:wikidata": "Q6116740", "operator:wikipedia": "es:Sacyl", "phone": "+34 947 34 90 14", "website": "https://www.saludcastillayleon.es/ciudadanos/es/mapa-centros-salud-castilla-leon/141800", "wikimedia_commons": "File:Orón_(Miranda_de_Ebro)_-_Hospital_de_Santiago_Apóstol_1.jpg"}}, {"name": "Hospital General de La Rioja", "latitude": 42.4686157, "longitude": -2.442077, "source": "osm", "_tags": {"amenity": "hospital", "healthcare": "hospital", "name": "Hospital General de La Rioja", "wikidata": "Q30280076", "wikipedia": "es:Hospital General de La Rioja"}}, {"name": "Hospital San Pedro", "latitude": 42.4509505, "longitude": -2.4270369, "source": "osm", "_tags": {"amenity": "hospital", "healthcare": "hospital", "name": "Hospital San Pedro"}}, {"name": "Area Hospitalaria de la Duquesa de La Victoria", "latitude": 42.46207, "longitude": -2.4312081, "source": "osm", "_tags": {"amenity": "hospital", "healthcare": "hospital", "name": "Area Hospitalaria de la Duquesa de La Victoria"}}]