[{"name": "Cruz Roja", "latitude": 41.8756823, "longitude": -0.7704704, "source": "osm", "_tags": {"amenity": "hospital", "brand": "Cruz Roja", "healthcare": "hospital", "name": "Cruz Roja", "operator": "Cruz Roja", "operator:wikidata": "Q7178"}}, {"name": "Sagrado Corazón de Jesus", "latitude": 42.1423039, "longitude": -0.4012303, "source": "osm", "_tags": {"amenity": "hospital", "building": "hospital", "building:levels": "5", "healthcare": "hospital", "name": "Sagrado Corazón de Jesus", "wikidata": "Q87761896"}}, {"name": "Hospital Universitario San Jorge", "latitude": 42.1317303, "longitude": -0.4201721, "source": "osm", "_tags": {"amenity": "hospital", "check_date": "2022-07-20", "emergency": "yes", "healthcare": "hospital", "internet_access": "wlan", "internet_access:fee": "yes", "name": "Hospital Universitario San Jorge", "network": "Servicio Aragonés de Salud", "network:short": "SALUD", "operator:type": "public", "wheelchair": "yes"}}, {"name": "Hospital de Jaca", "latitude": 42.5823882, "longitude": -0.5367835, "source": "osm", "_tags": {"amenity": "hospital", "emergency": "yes", "healthcare": "hospital", "name": "Hospital de Jaca", "network": "Servicio Aragonés de Salud", "network:short": "SALUD", "operator:type": "public", "wikidata": "Q64577056"}}, {"name": "Hospital Cinco Villas", "latitude": 42.1257884, "longitude": -1.1304488, "source": "osm", "_tags": {"amenity": "hospital", "emergency": "yes", "healthcare": "hospital", "name": "Hospital Cinco Villas"}}]