[{"name": "", "latitude": 42.5731928, "longitude": 1.4703799, "source": "osm", "_tags": {"amenity": "hospital", "healthcare": "hospital"}}, {"name": "", "latitude": 42.5489957, "longitude": 1.6468331, "source": "osm", "_tags": {"amenity": "hospital", "healthcare": "hospital"}}, {"name": "", "latitude": 42.5527445, "longitude": 1.6281598, "source": "osm", "_tags": {"amenity": "hospital", "healthcare": "hospital"}}, {"name": "", "latitude": 42.542566, "longitude": 1.6608472, "source": "osm", "_tags": {"amenity": "hospital", "healthcare": "hospital"}}, {"name": "", "latitude": 42.5544735, "longitude": 1.6533601, "source": "osm", "_tags": {"amenity": "hospital", "healthcare": "hospital"}}, {"name": "Fundació Sant Hospital", "latitude": 42.3548545, "longitude": 1.4609585, "source": "osm", "_tags": {"addr:city": "La Seu d'Urgell", "addr:full": "Passeig Joan Brudieu 8. 25700 La Seu d'Urgell (Lleida)", "addr:housenumber": "8", "addr:postcode": "25700", "addr:street": "Passeig Joan Brudieu", "amenity": "hospital", "email": "hospital@fsh.cat", "healthcare": "hospital", "name": "Fundació Sant Hospital", "name:ca": "Fundació Sant Hospital", "phone": "+34 973 35 00 50", "website": "http://www.fsh.cat/", "wikidata": "Q11923281", "wikipedia": "ca:Fundació Sant Hospital de la Seu d'Urgell"}}, {"name": "", "latitude": 42.469295, "longitude": 1.4928644, "source": "osm", "_tags": {"amenity": "hospital", "healthcare": "hospital"}}, {"name": "", "latitude": 42.439031, "longitude": 1.4918613, "source": "osm", "_tags": {"addr:city": "Juberri", "addr:housenumber": "22", "addr:postcode": "AD600", "addr:street": "Carrer de la Geneta", "description": "Luc Turell - magnothérapeuta, practicant Reiki i EFT", "emergency": "no", "healthcare": "hospital", "healthcare:speciality": "reiki"}}, {"name": "Centre d'Atenció Primària Tuixent", "latitude": 42.231724, "longitude": 1.5672329, "source": "osm", "_tags": {"amenity": "hospital", "emergency": "yes", "healthcare": "hospital", "healthcare:speciality": "medicina_familiar_i_comunitariamedicina_general", "name": "Centre d'Atenció Primària Tuixent", "short_name": "CAP Tuixent", "wheelchair": "yes"}}, {"name": "Hospital de Nostra Senyora de Meritxell", "latitude": 42.5114677, "longitude": 1.5339333, "source": "osm", "_tags": {"addr:city": "Escaldes-Engordany", "addr:housenumber": "13", "addr:postcode": "AD700", "addr:street": "Avinguda Fiter i Rossell", "amenity": "hospital", "emergency": "yes", "healthcare": "hospital", "name": "Hospital de Nostra Senyora de Meritxell", "name:ca": "Hospital de Nostra Senyora de Meritxell", "name:en": "Hospital of Our Lady of Meritxell", "phone": "+376 871 000", "wikidata": "Q47993296", "wikipedia": "ca:Hospital Nostra Senyora de Meritxell"}}, {"name": "Espitau Val d'Aran", "latitude": 42.7022147, "longitude": 0.7974037, "source": "osm", "_tags": {"amenity": "hospital", "building": "hospital", "emergency": "yes", "name": "Espitau Val d'Aran", "name:ca": "Hospital Val d'Aran", "name:es": "Hospital Val d'Aran", "source": "survey", "wikidata": "Q87761963"}}, {"name": "Centre Mèdic Grau", "latitude": 42.5316095, "longitude": 1.6965494, "source": "osm", "_tags": {"amenity": "hospital", "healthcare": "hospital", "name": "Centre Mèdic Grau", "name:ca": "Centre Mèdic Grau"}}, {"name": "Clínica Verge de Meritxell", "latitude": 42.5121472, "longitude": 1.534143, "source": "osm", "_tags": {"amenity": "hospital", "healthcare": "hospital", "name": "Clínica Verge de Meritxell", "name:ca": "Clínica Verge de Meritxell"}}, {"name": "Hospital Comarcal del Pallars", "latitude": 42.164644, "longitude": 0.8978159, "source": "osm", "_tags": {"addr:city": "Tremp", "addr:housenumber": "5", "addr:postcode": "25620", "addr:street": "Carrer de Pau Casals", "amenity": "hospital", "contact:twitter": "hospitalpallars", "email": "hcp@hospitalpallars.com", "emergency": "yes", "fax": "+34 973 65 14 87", "healthcare": "hospital", "name": "Hospital Comarcal del Pallars", "name:ca": "Hospital Comarcal del Pallars", "network": "Institut Català de la Salut", "network:short": "ICS", "operator:type": "public", "phone": "+34 973 65 22 55", "wikidata": "Q87761959"}}]