[{"name": "Infermeria FISPS", "latitude": 43.4797124, "longitude": 12.6926853, "source": "osm", "_tags": {"amenity": "hospital", "healthcare": "hospital", "name": "Infermeria FISPS"}}, {"name": "Distretto sanitario N° 2 di Urbania", "latitude": 43.6705787, "longitude": 12.5189021, "source": "osm", "_tags": {"addr:city": "Urbania", "addr:housenumber": "54", "addr:postcode": "61049", "addr:street": "Via Roma", "amenity": "hospital", "healthcare": "hospital", "name": "Distretto sanitario N° 2 di Urbania"}}, {"name": "Ospedale Civile \"A. Celli\"", "latitude": 43.547653, "longitude": 12.650819, "source": "osm", "_tags": {"amenity": "hospital", "emergency": "yes", "name": "Ospedale Civile \"A. Celli\""}}, {"name": "Arciconfraternita della Misercordia di Arezzo", "latitude": 43.4643888, "longitude": 11.8787911, "source": "osm", "_tags": {"addr:city": "Arezzo", "addr:housenumber": "143", "addr:postcode": "52100", "addr:street": "Via Giuseppe Garibaldi", "amenity": "hospital", "emergency": "yes", "fax": "+39057521484", "name": "Arciconfraternita della Misercordia di Arezzo", "phone": "+39057524242", "website": "www.misericordiaarezzo.com", "wheelchair": "yes"}}, {"name": "ASL 1 - Ambulatori e Uffici", "latitude": 43.4646189, "longitude": 12.2535709, "source": "osm", "_tags": {"amenity": "hospital", "healthcare": "hospital", "name": "ASL 1 - Ambulatori e Uffici", "operator": "ASL", "operator:wikidata": "Q3631467"}}, {"name": "Istituto Clinico Porta Sole", "latitude": 43.1139263, "longitude": 12.4029178, "source": "osm", "_tags": {"addr:city": "Perugia", "addr:housenumber": "49", "addr:postcode": "06122", "addr:street": "Via del Giochetto", "amenity": "hospital", "email": "info@porta-sole.it", "emergency": "no", "fax": "+39 075 5734147", "healthcare": "hospital", "name": "Istituto Clinico Porta Sole", "operator": "Istituto Clinico Porta Sole Srl", "operator:type": "private", "phone": "+39 075 575999", "website": "https://www.clinicaportasole.it/"}}, {"name": "U.S.L. Del Lago Trasimeno", "latitude": 42.9510023, "longitude": 12.0045216, "source": "osm", "_tags": {"addr:city": "Città della Pieve", "addr:housenumber": "1", "addr:postcode": "06062", "addr:street": "Via Beato Giacomo Villa", "amenity": "hospital", "healthcare": "hospital", "name": "U.S.L. Del Lago Trasimeno"}}, {"name": "Ospedale San Donato", "latitude": 43.4614837, "longitude": 11.8673894, "source": "osm", "_tags": {"addr:housenumber": "20", "addr:postcode": "52100", "addr:street": "Via Pietro Nenni", "amenity": "hospital", "contact:phone": "+39 0575 2551", "contact:website": "https://www.uslsudest.toscana.it/ospedali/arezzo-san-donato", "emergency": "yes", "healthcare": "hospital", "name": "Ospedale San Donato"}}, {"name": "", "latitude": 43.7801784, "longitude": 12.4957111, "source": "osm", "_tags": {"amenity": "hospital", "building": "yes"}}, {"name": "", "latitude": 43.7335651, "longitude": 12.6333823, "source": "osm", "_tags": {"amenity": "hospital", "healthcare": "hospital", "wheelchair": "yes"}}, {"name": "Clinica Lami", "latitude": 43.0999742, "longitude": 12.3940297, "source": "osm", "_tags": {"amenity": "hospital", "building": "yes", "email": "urp@clinicalami.it", "healthcare": "hospital", "healthcare:speciality": "orthopaedics", "name": "Clinica Lami", "operator": "Casa di Cura Clinica Lami Spa", "operator:type": "private", "phone": "+39 075 582991", "website": "https://clinicalami.it/"}}, {"name": "Centro Chirurgico Toscano", "latitude": 43.4800899, "longitude": 11.8801376, "source": "osm", "_tags": {"addr:city": "Arezzo", "addr:housenumber": "22", "addr:postcode": "52100", "addr:street": "Via dei Lecci", "amenity": "hospital", "building": "yes", "email": "casadicura@cdcpoggiodelsole.it", "fax": "+39 0575 333699", "healthcare": "hospital", "name": "Centro Chirurgico Toscano", "phone": "+39 0575 3335"}}, {"name": "Ospedale della Valdichiana \"Santa Margherita\"", "latitude": 43.2786782, "longitude": 11.9242899, "source": "osm", "_tags": {"amenity": "hospital", "name": "Ospedale della Valdichiana \"Santa Margherita\""}}, {"name": "Misericordia di Sinalunga", "latitude": 43.2121464, "longitude": 11.760611, "source": "osm", "_tags": {"addr:city": "Sinalunga", "addr:housenumber": "115", "addr:postcode": "53048", "addr:street": "Via Voltella", "amenity": "social_facility", "email": "misericordia@misericordiasinalunga.it", "healthcare": "hospital", "name": "Misericordia di Sinalunga", "phone": "+39 0577 630367", "website": "http://www.misericordiasinalunga.it/it/index.html", "wheelchair": "yes"}}, {"name": "Istituto Privato di Riabilitazione Madre della Divina Provvidenza", "latitude": 43.4473709, "longitude": 11.8273522, "source": "osm", "_tags": {"amenity": "hospital", "building": "yes", "check_date": "2025-08-11", "emergency": "no", "height": "17.59", "name": "Istituto Privato di Riabilitazione Madre della Divina Provvidenza"}}, {"name": "", "latitude": 43.4625314, "longitude": 11.8893557, "source": "osm", "_tags": {"amenity": "hospital", "building": "hospital", "height": "1.81"}}, {"name": "Ospedali Riuniti della Valdichiana Senese", "latitude": 43.1188589, "longitude": 11.8256181, "source": "osm", "_tags": {"addr:street": "Località Nottola", "alt_name": "Ospedale di Montepulciano", "alt_name_1": "Ospedale di Nottola", "amenity": "hospital", "emergency": "yes", "healthcare": "hospital", "name": "Ospedali Riuniti della Valdichiana Senese", "opening_hours": "24/7", "operator": "Ospedali Riuniti Valdichiana Senese", "phone": "+39 0578 713111", "website": "https://www.uslsudest.toscana.it/ospedali/valdichiana-nottola"}}, {"name": "Casa di Cura Liotti", "latitude": 43.1131377, "longitude": 12.3808721, "source": "osm", "_tags": {"amenity": "hospital", "building": "hospital", "email": "info@casadicuraliotti.it", "emergency": "no", "healthcare": "hospital", "name": "Casa di Cura Liotti", "operator": "Casa di Cura Liotti s.p.a.", "operator:type": "private", "phone": "+39 075 5721647", "website": "https://www.casadicuraliotti.it/"}}, {"name": "CAsa di cura Villa Fiorita", "latitude": 43.1036696, "longitude": 12.3827006, "source": "osm", "_tags": {"amenity": "hospital", "building": "yes", "email": "segreteria@casadicuravillafiorita.it", "emergency": "no", "fax": "+39 075 5759842", "healthcare": "hospital", "name": "CAsa di cura Villa Fiorita", "operator": "Casa di Cura Villa Fiorita Srl", "operator:type": "private", "phone": "+39 075 575981", "website": "https://www.casadicuravillafiorita.it/"}}, {"name": "Ospedale di Assisi", "latitude": 43.0637262, "longitude": 12.6227917, "source": "osm", "_tags": {"addr:city": "Assisi", "addr:housenumber": "1", "addr:postcode": "06081", "addr:street": "Via Valentin Müller", "amenity": "hospital", "emergency": "yes", "healthcare": "hospital", "name": "Ospedale di Assisi", "operator": "Azienda Unità Sanitaria Locale Umbria 1", "operator:type": "public", "phone": "+39 075 54192", "website": "https://www.uslumbria1.it/pagine/direzione-001"}}, {"name": "Ospedale del Casentino", "latitude": 43.6995406, "longitude": 11.8208104, "source": "osm", "_tags": {"amenity": "hospital", "emergency": "yes", "healthcare": "hospital", "name": "Ospedale del Casentino", "operator": "Azienda Usl Toscana sud est", "operator:type": "public", "phone": "+39 0575 5681", "website": "https://www.uslsudest.toscana.it/ospedali/casentino-bibbiena"}}, {"name": "Ospedale Civile Sant'Agostino", "latitude": 43.1272269, "longitude": 12.0547877, "source": "osm", "_tags": {"amenity": "hospital", "emergency": "yes", "healthcare": "hospital", "name": "Ospedale Civile Sant'Agostino", "operator": "Azienda Unità Sanitaria Locale Umbria 1", "operator:type": "public", "phone": "+39 075 95261", "toilets:wheelchair": "yes", "website": "https://www.uslumbria1.it/pagine/ospedale-castiglione-del-lago", "wheelchair": "yes"}}, {"name": "Ospedale Città di Castello", "latitude": 43.4741932, "longitude": 12.2532756, "source": "osm", "_tags": {"addr:city": "Città di Castello", "addr:housenumber": "10", "addr:postcode": "06012", "addr:street": "Via Luigi Angelini", "amenity": "hospital", "emergency": "yes", "healthcare": "hospital", "helipad": "no", "name": "Ospedale Città di Castello", "operator": "Azienda Unità Sanitaria Locale Umbria 1", "operator:type": "public", "phone": "+39 075 575981", "website": "https://www.uslumbria1.it/pagine/ospedale-citta-di-castello", "wikidata": "Q61932601"}}, {"name": "Ospedale di Umbertide", "latitude": 43.3095194, "longitude": 12.3266951, "source": "osm", "_tags": {"addr:city": "Umbertide", "addr:housenumber": "40", "addr:postcode": "06019", "addr:street": "Via Cavour", "amenity": "hospital", "building": "hospital", "emergency": "yes", "healthcare": "hospital", "name": "Ospedale di Umbertide", "operator": "Azienda Unità Sanitaria Locale Umbria 1", "operator:type": "public", "phone": "+39 075 85091", "website": "https://www.uslumbria1.it/pagine/ospedale-umbertide"}}, {"name": "Ospedale di Branca", "latitude": 43.267244, "longitude": 12.6863816, "source": "osm", "_tags": {"addr:city": "Gubbio", "addr:hamlet": "Branca", "addr:postcode": "06024", "addr:street": "Largo Unità d'Italia", "amenity": "hospital", "emergency": "yes", "healthcare": "hospital", "name": "Ospedale di Branca", "nohousenumber": "yes", "official_name": "Ospedale Gubbio - Gualdo Tadino", "operator": "Azienda Unità Sanitaria Locale Umbria 1", "operator:type": "public", "phone": "+39 075 9270801", "website": "http://www.uslumbria1.gov.it/pagine/direzione-medica-001"}}, {"name": "Ospedale Santa Maria della Misericordia", "latitude": 43.0791479, "longitude": 12.3553048, "source": "osm", "_tags": {"addr:city": "Perugia", "addr:housenumber": "3", "addr:postcode": "06156", "addr:street": "Piazzale Giorgio Menghini", "alt_name": "Silvestrini", "amenity": "hospital", "email": "ufficio.informazioni@ospedale.perugia.it", "emergency": "yes", "fax": "+39 075 5783531", "healthcare": "hospital", "healthcare:speciality": "psychiatry;paediatrics;orthodontics;nephrology;biology;cardiology;orthopaedics;ophthalmology;dentistry;radiology;surgery;oncology;acupuncture;body;blood_check;haematology;diabetology;chiropractic;dermatology;general;intensive;angiology;neurology;osteopath", "name": "Ospedale Santa Maria della Misericordia", "operator": "Azienda Ospedaliera di Perugia", "operator:type": "public", "phone": "+39 075 5781", "website": "https://www.ospedale.perugia.it/"}}, {"name": "Casa di Cura Villa Aurora", "latitude": 42.9567953, "longitude": 12.7163769, "source": "osm", "_tags": {"amenity": "hospital", "building": "public", "email": "info@villaurora.com", "emergency": "no", "healthcare": "hospital", "healthcare:speciality": "orthopaedics", "name": "Casa di Cura Villa Aurora", "operator": "Casa di Cura Villa Aurora Srl", "operator:type": "private", "phone": "+39 0742 351405", "website": "http://villaurora.com/index.html"}}, {"name": "ASL Sarteano", "latitude": 42.9946562, "longitude": 11.8623511, "source": "osm", "_tags": {"addr:city": "Sarteano", "addr:housenumber": "8", "addr:postcode": "53047", "addr:street": "Via Aldo Moro", "amenity": "hospital", "building": "yes", "emergency": "yes", "healthcare": "hospital", "name": "ASL Sarteano", "opening_hours": "24/7", "operator": "ASL", "operator:type": "public", "operator:wikidata": "Q3631467", "website": "https://www.uslsudest.toscana.it/"}}, {"name": "Azienda USL Umbria 1", "latitude": 42.9096113, "longitude": 12.3343953, "source": "osm", "_tags": {"amenity": "hospital", "healthcare": "hospital", "name": "Azienda USL Umbria 1"}}, {"name": "", "latitude": 43.5760113, "longitude": 12.66832, "source": "osm", "_tags": {"amenity": "hospital", "healthcare": "hospital"}}, {"name": "Ospedale Media Valle del Tevere", "latitude": 42.8779106, "longitude": 12.4039557, "source": "osm", "_tags": {"addr:city": "Todi", "addr:place": "Pantalla", "addr:postcode": "06059", "amenity": "hospital", "emergency": "yes", "healthcare": "hospital", "name": "Ospedale Media Valle del Tevere", "operator": "Azienda Unità Sanitaria Locale Umbria 1", "operator:type": "public", "phone": "+39 075 54193", "type": "multipolygon", "website": "https://www.uslumbria1.it/pagine/direzione-medica-000"}}, {"name": "Nuovo Ospedale San Giovanni Battista", "latitude": 42.9586828, "longitude": 12.6874984, "source": "osm", "_tags": {"addr:city": "Foligno", "addr:postcode": "06034", "addr:street": "Via Massimo Arcamone", "amenity": "hospital", "emergency": "yes", "healthcare": "hospital", "name": "Nuovo Ospedale San Giovanni Battista", "operator": "Azienda Unità Sanitaria Locale Umbria n. 2", "operator:type": "public", "phone": "+39 0742 3391", "type": "multipolygon", "website": "https://www.uslumbria2.it/pagine/ospedale-di-foligno-000"}}]