[{"name": "Medicina Nuclear", "latitude": 42.8703496, "longitude": -8.5652411, "source": "osm", "_tags": {"amenity": "clinic", "check_date": "2022-10-17", "healthcare": "hospital", "healthcare:speciality": "radiology", "level": "-2", "name": "Medicina Nuclear"}}, {"name": "Complexo Hospitalario Universitario de Santiago", "latitude": 42.8698385, "longitude": -8.5658728, "source": "osm", "_tags": {"addr:city": "Santiago de Compostela", "addr:country": "ES", "addr:postcode": "15706", "addr:street": "Rúa da Choupana", "amenity": "hospital", "emergency": "yes", "healthcare": "hospital", "name": "Complexo Hospitalario Universitario de Santiago", "phone": "+34 981950000", "website": "https://xxisantiago.sergas.es/Paxinas/web.aspx?tipo=paxtab&idLista=3&idContido=183", "wheelchair": "yes", "wikidata": "Q30253892", "wikipedia": "gl:Complexo Hospitalario Universitario de Santiago"}}, {"name": "Hospital HM La Esperanza", "latitude": 42.878573, "longitude": -8.551698, "source": "osm", "_tags": {"amenity": "hospital", "healthcare": "hospital", "loc_name": "Sanatorio de Nosa Señora da Esperanza", "name": "Hospital HM La Esperanza", "official_name": "Hospital HM La Esperanza", "operator": "HM Hospitales", "operator:type": "private", "operator:wikidata": "Q30287140", "website": "https://www.hmlaesperanza.com/", "wikidata": "Q87761747"}}, {"name": "Hospital Quirónsalud A Coruña", "latitude": 43.3287629, "longitude": -8.4001703, "source": "osm", "_tags": {"addr:city": "A Coruña", "addr:housenumber": "2", "addr:postcode": "15009", "addr:street": "Rúa Londres", "amenity": "hospital", "building": "hospital", "check_date": "2025-03-12", "emergency": "yes", "healthcare": "hospital", "name": "Hospital Quirónsalud A Coruña", "old_name": "USP Santa Teresa", "operator": "Quirónsalud", "operator:type": "private", "operator:wikidata": "Q5886225", "source": "Catastro 23-3-2015", "website": "https://www.quironsalud.es/hospital-coruna", "wikidata": "Q87761733"}}, {"name": "Centro Materno Infantil Nosa Sra. de Belén", "latitude": 43.3655467, "longitude": -8.414688, "source": "osm", "_tags": {"addr:city": "A Coruña", "addr:country": "ES", "addr:housenumber": "3", "addr:postcode": "15011", "addr:street": "Rúa Filantropía", "amenity": "hospital", "building": "hospital", "building:levels": "3", "emergency": "yes", "healthcare": "hospital", "name": "Centro Materno Infantil Nosa Sra. de Belén", "operator": "HM", "operator:type": "private", "roof:levels": "1"}}, {"name": "Hospital HM Modelo", "latitude": 43.3666605, "longitude": -8.4185967, "source": "osm", "_tags": {"addr:city": "A Coruña", "addr:country": "ES", "addr:housenumber": "30", "addr:postcode": "15011", "addr:street": "Rúa Vicerrei Osorio", "amenity": "hospital", "emergency": "yes", "healthcare": "hospital", "name": "Hospital HM Modelo", "operator": "HM", "operator:type": "private", "phone": "+34 981147300", "short_name": "Hospital Modelo", "website": "https://www.hmmodelo.com/", "wheelchair": "yes", "wikidata": "Q87761736"}}, {"name": "Centro Oncolóxico de Galicia", "latitude": 43.3368598, "longitude": -8.3905017, "source": "osm", "_tags": {"addr:city": "A Coruña", "addr:housenumber": "1", "addr:postcode": "15009", "addr:street": "Rúa Doutor Camilo Veiras", "amenity": "hospital", "email": "contacto@cog.es", "emergency": "no", "healthcare": "hospital", "healthcare:speciality": "oncology", "name": "Centro Oncolóxico de Galicia", "name:es": "Centro Oncológico de Galicia", "name:gl": "Centro Oncolóxico de Galicia", "network": "Servizo Galego de Saúde", "network:short": "SERGAS", "network:wikidata": "Q3393183", "operator": "Servizo Galego de Saúde", "operator:type": "public", "operator:wikidata": "Q3393183", "phone": "+34 981287499", "website": "https://www.cog.es/", "wikidata": "Q20551352", "wikipedia": "gl:Centro Oncolóxico de Galicia"}}, {"name": "Complexo Hospitalario Universitario da Coruña", "latitude": 43.3442694, "longitude": -8.3893155, "source": "osm", "_tags": {"addr:city": "A Coruña", "addr:housenumber": "84", "addr:place": "Lugar As Xubias de Arriba", "addr:postcode": "15006", "alt_name": "Complexo Hospitalario Universitario A Coruña", "alt_name:es": "Complejo Hospitalario Universitario A Coruña", "alt_name:gl": "Complexo Hospitalario Universitario A Coruña", "amenity": "hospital", "emergency": "yes", "healthcare": "hospital", "loc_name": "Hospital da Coruña", "name": "Complexo Hospitalario Universitario da Coruña", "name:es": "Complejo Hospitalario Universitario de A Coruña", "name:gl": "Complexo Hospitalario Universitario da Coruña", "network": "Servizo Galego de Saúde", "network:short": "SERGAS", "network:wikidata": "Q3393183", "old_name": "Complejo Hospitalario Juan Canalejo", "opening_hours": "24/7", "operator": "Servizo Galego de Saúde", "operator:type": "public", "operator:wikidata": "Q3393183", "phone": "+34 981 178000", "short_name": "CHUAC", "website": "https://xxicoruna.sergas.gal", "wikidata": "Q12386359", "wikipedia": "gl:Complexo Hospitalario Universitario A Coruña"}}, {"name": "Hospital Belén", "latitude": 43.365523, "longitude": -8.4147125, "source": "osm", "_tags": {"amenity": "hospital", "building": "yes", "building:levels": "3", "building:levels:underground": "1", "healthcare": "hospital", "name": "Hospital Belén", "operator": "HM", "operator:type": "private"}}, {"name": "Hospital San Rafael", "latitude": 43.3452048, "longitude": -8.3879001, "source": "osm", "_tags": {"addr:city": "A Coruña", "addr:housenumber": "82", "addr:place": "Lugar As Xubias de Arriba", "addr:postcode": "15006", "amenity": "hospital", "check_date": "2024-08-18", "healthcare": "hospital", "name": "Hospital San Rafael", "operator:type": "private", "website": "https://www.imqsanrafael.es/", "wikidata": "Q87761735"}}, {"name": "Hospital Marítimo de Oza", "latitude": 43.3463955, "longitude": -8.3849436, "source": "osm", "_tags": {"addr:city": "A Coruña", "addr:housenumber": "5", "addr:place": "Lugar As Xubias de Arriba", "addr:postcode": "15006", "amenity": "hospital", "building:levels": "4", "check_date": "2024-08-18", "emergency": "no", "healthcare": "hospital", "name": "Hospital Marítimo de Oza", "network": "Servizo Galego de Saúde", "network:short": "SERGAS", "network:wikidata": "Q3393183", "operator": "Servizo Galego de Saúde", "operator:type": "public", "operator:wikidata": "Q3393183", "phone": "+34 981 178000", "short_name": "Hospital de Oza", "source:addr": "https://ide.coruna.es/descargas/cambioscallejero/CodVia_0846_20210225.pdf", "website": "https://xxicoruna.sergas.gal", "wikidata": "Q87761731"}}, {"name": "Hospital Abente y Lago", "latitude": 43.3682203, "longitude": -8.389424, "source": "osm", "_tags": {"addr:city": "A Coruña", "addr:postcode": "15001", "addr:street": "Paseo Sir John Moore", "amenity": "hospital", "emergency": "no", "healthcare": "hospital", "name": "Hospital Abente y Lago", "name:etymology:wikidata": "Q12388214", "network": "Servizo Galego de Saúde", "network:wikidata": "Q3393183", "nohousenumber": "yes", "old_name": "Hospital Militar", "operator": "Servizo Galego de Saúde", "operator:type": "public", "operator:wikidata": "Q3393183", "phone": "+34 981 17 80 00", "website": "https://xxicoruna.sergas.gal/Paxinas/web.aspx?tipo=paxtxt&idLista=3&idContido=27&migtab=26%3b27&idTax=12500&idioma=ga", "wikidata": "Q64442467", "wikipedia": "gl:Hospital Abente y Lago"}}, {"name": "Consultorio de Senande", "latitude": 43.0416224, "longitude": -9.1491593, "source": "osm", "_tags": {"amenity": "hospital", "building": "yes", "healthcare": "hospital", "name": "Consultorio de Senande", "operator": "Cruz Roja", "operator:wikidata": "Q7178"}}, {"name": "Sanatorio Hestia La Robleda", "latitude": 42.9259948, "longitude": -8.3979667, "source": "osm", "_tags": {"addr:city": "O Pino", "addr:postcode": "15821", "addr:street": "Santiso, Castrofeito", "amenity": "hospital", "healthcare": "hospital", "name": "Sanatorio Hestia La Robleda", "operator": "Hestia", "ownership": "private", "website": "http://hestiaalliance.org/hestia-la-robleda/?lang=gl", "wikidata": "Q87761750"}}, {"name": "Hospital Psiquiátrico de Conxo", "latitude": 42.8623508, "longitude": -8.5563256, "source": "osm", "_tags": {"addr:city": "Santiago de Compostela", "addr:country": "ES", "addr:housenumber": "2", "addr:postcode": "15706", "addr:street": "O Campo de Conxo;Praza de Martín Herrera", "amenity": "hospital", "building": "convent", "building:material": "stone", "building:name": "Mosteiro de Santa María de Conxo", "building:wikidata": "Q18476344", "emergency": "yes", "healthcare": "hospital", "name": "Hospital Psiquiátrico de Conxo", "network": "Servizo Galego de Saúde", "network:wikidata": "Q3393183", "operator": "Servizo Galego de Saúde", "operator:short": "SERGAS", "operator:type": "public", "operator:wikidata": "Q3393183", "owner": "Arquidiocese de Santiago de Compostela", "phone": "+34 981951900", "roof:material": "roof_tiles", "type": "multipolygon", "wikidata": "Q87761744"}}]