[{"name": "Casa di cura Stella Maris", "latitude": 42.9543963, "longitude": 13.8743575, "source": "osm", "_tags": {"addr:city": "San Benedetto del Tronto", "addr:housenumber": "1", "addr:postcode": "63074", "addr:street": "Via Augusto Murri", "amenity": "hospital", "contact:facebook": "https://www.facebook.com/profile.php?id=100081115742799", "email": "accettazione@casadicurastellamaris.it", "emergency": "no", "healthcare": "hospital", "name": "Casa di cura Stella Maris", "phone": "+39 0735 582525", "ref:vatin": "IT02286650441", "website": "https://www.casadicurastellamaris.it/"}}, {"name": "Croce Rossa Italiana", "latitude": 42.932357, "longitude": 13.893741, "source": "osm", "_tags": {"amenity": "hospital", "brand": "Croce Rossa Italiana", "brand:wikidata": "Q913903", "emergency": "ambulance_station", "healthcare": "hospital", "name": "Croce Rossa Italiana", "operator": "Croce Rossa"}}, {"name": "", "latitude": 43.1813248, "longitude": 13.7899456, "source": "osm", "_tags": {"amenity": "hospital", "healthcare": "hospital"}}, {"name": "", "latitude": 43.3048519, "longitude": 13.7342128, "source": "osm", "_tags": {"amenity": "hospital", "healthcare": "hospital"}}, {"name": "Ospedale Civile \"Madonna del Soccorso\"", "latitude": 42.9478469, "longitude": 13.8769297, "source": "osm", "_tags": {"amenity": "hospital", "emergency": "yes", "healthcare": "hospital", "name": "Ospedale Civile \"Madonna del Soccorso\"", "type": "multipolygon", "wheelchair": "limited"}}, {"name": "RSA", "latitude": 42.997445, "longitude": 13.7592753, "source": "osm", "_tags": {"amenity": "hospital", "healthcare": "hospital", "name": "RSA", "type": "multipolygon"}}]