[{"name": "", "latitude": 43.614377, "longitude": 11.4772283, "source": "osm", "_tags": {"amenity": "hospital"}}, {"name": "Humanitas", "latitude": 43.7524277, "longitude": 11.185848, "source": "osm", "_tags": {"amenity": "hospital", "name": "Humanitas", "wheelchair": "yes"}}, {"name": "C.T.O.", "latitude": 43.8012749, "longitude": 11.2483332, "source": "osm", "_tags": {"amenity": "hospital", "healthcare": "hospital", "name": "C.T.O.", "wheelchair": "yes"}}, {"name": "Frate Sole", "latitude": 43.6122663, "longitude": 11.4647121, "source": "osm", "_tags": {"amenity": "hospital", "name": "Frate Sole"}}, {"name": "A.S.L.", "latitude": 43.6577621, "longitude": 11.18653, "source": "osm", "_tags": {"amenity": "hospital", "healthcare": "hospital", "name": "A.S.L.", "operator": "ASL", "operator:type": "public", "operator:wikidata": "Q3631467"}}, {"name": "", "latitude": 43.628026, "longitude": 11.4856143, "source": "osm", "_tags": {"amenity": "hospital"}}, {"name": "Misericordia di Lastra a Signa sez. Scandicci", "latitude": 43.7518079, "longitude": 11.1830881, "source": "osm", "_tags": {"amenity": "hospital", "healthcare": "hospital", "name": "Misericordia di Lastra a Signa sez. Scandicci"}}, {"name": "Guardia Medica", "latitude": 43.3347866, "longitude": 10.7442943, "source": "osm", "_tags": {"amenity": "hospital", "emergency": "no", "healthcare": "hospital", "name": "Guardia Medica"}}, {"name": "Centro traumatologico ortopedico - CTO", "latitude": 43.8011357, "longitude": 11.2485654, "source": "osm", "_tags": {"addr:city": "Firenze", "addr:housenumber": "1", "addr:postcode": "50139", "addr:street": "Largo Palagi", "amenity": "hospital", "healthcare": "hospital", "name": "Centro traumatologico ortopedico - CTO"}}, {"name": "Rugani Hospital", "latitude": 43.3601104, "longitude": 11.3126568, "source": "osm", "_tags": {"addr:city": "Siena", "addr:postcode": "53035", "addr:street": "Via Chiantigiana", "amenity": "hospital", "emergency": "no", "healthcare": "hospital", "healthcare:speciality": "radiology", "name": "Rugani Hospital", "phone": "+39 0577 578311", "website": "https:// ruganihospital.it"}}, {"name": "ASL Presidio Orsini", "latitude": 43.7631918, "longitude": 11.2759339, "source": "osm", "_tags": {"amenity": "hospital", "healthcare": "hospital", "name": "ASL Presidio Orsini", "operator": "ASL", "operator:wikidata": "Q3631467"}}, {"name": "Unità spinale", "latitude": 43.8005862, "longitude": 11.2497385, "source": "osm", "_tags": {"addr:housenumber": "1", "addr:street": "Largo Palagi", "amenity": "hospital", "emergency": "no", "healthcare": "hospital", "name": "Unità spinale"}}, {"name": "ASL 10 Impruneta", "latitude": 43.6837309, "longitude": 11.2498186, "source": "osm", "_tags": {"amenity": "hospital", "healthcare": "hospital", "name": "ASL 10 Impruneta", "operator": "ASL", "operator:type": "public", "operator:wikidata": "Q3631467"}}, {"name": "Ospedale Ponte Nuovo", "latitude": 43.8130409, "longitude": 11.2488896, "source": "osm", "_tags": {"amenity": "hospital", "healthcare": "hospital", "name": "Ospedale Ponte Nuovo"}}, {"name": "Ospedale I Fraticini", "latitude": 43.8120682, "longitude": 11.2683414, "source": "osm", "_tags": {"amenity": "hospital", "name": "Ospedale I Fraticini"}}, {"name": "CUR 112 TOSCANA", "latitude": 43.7542183, "longitude": 11.271895, "source": "osm", "_tags": {"addr:city": "Firenze", "addr:housenumber": "41", "addr:street": "Viale Michelangiolo", "amenity": "hospital", "healthcare": "hospital", "name": "CUR 112 TOSCANA"}}, {"name": "Ospedale Camerata", "latitude": 43.7981184, "longitude": 11.2848043, "source": "osm", "_tags": {"amenity": "hospital", "name": "Ospedale Camerata", "phone": "+39 055 6938568"}}, {"name": "Centrale Operativa 118 Firenze-Prato", "latitude": 43.7545946, "longitude": 11.2714303, "source": "osm", "_tags": {"amenity": "hospital", "healthcare": "hospital", "name": "Centrale Operativa 118 Firenze-Prato"}}, {"name": "Misericordia Castelfranco Di Sopra", "latitude": 43.6232803, "longitude": 11.5546892, "source": "osm", "_tags": {"amenity": "hospital", "healthcare": "hospital", "name": "Misericordia Castelfranco Di Sopra"}}, {"name": "LILT Siena", "latitude": 43.3106803, "longitude": 11.3589955, "source": "osm", "_tags": {"addr:city": "Siena", "addr:housenumber": "15", "addr:postcode": "53100", "addr:street": "Viale Europa", "amenity": "hospital", "healthcare": "hospital", "name": "LILT Siena", "operator": "Lega Italiana Per La Lotta Contro I Tumori", "phone": "+39 0577 247259", "website": "https://www.liltsiena.it/"}}, {"name": "Centro riabilitativo Il Tamburino", "latitude": 43.3150335, "longitude": 11.3369055, "source": "osm", "_tags": {"amenity": "hospital", "healthcare": "hospital", "name": "Centro riabilitativo Il Tamburino"}}, {"name": "Azienda Ospedaliera Universitaria di Careggi", "latitude": 43.8085328, "longitude": 11.2468835, "source": "osm", "_tags": {"addr:city": "Firenze", "addr:housenumber": "3", "addr:postcode": "50134", "addr:street": "Largo Giovanni Alessandro Brambilla", "amenity": "hospital", "email": "aouc@aou-careggi.toscana.it", "emergency": "yes", "healthcare": "hospital", "name": "Azienda Ospedaliera Universitaria di Careggi", "phone": "+39 055 794111", "website": "https://www.aou-careggi.toscana.it/", "wikidata": "Q913126", "wikipedia": "it:Azienda ospedaliero-universitaria Careggi"}}, {"name": "CTO Centro Traumatologico Ortopedico", "latitude": 43.8011559, "longitude": 11.2484083, "source": "osm", "_tags": {"amenity": "hospital", "healthcare": "hospital", "name": "CTO Centro Traumatologico Ortopedico"}}, {"name": "Ospedale San Giuseppe", "latitude": 43.722414, "longitude": 10.9334631, "source": "osm", "_tags": {"addr:city": "Empoli", "addr:housenumber": "16", "addr:postcode": "50053", "addr:street": "Viale Giovanni Boccaccio", "amenity": "hospital", "check_date": "2025-05-05", "emergency": "yes", "healthcare": "hospital", "name": "Ospedale San Giuseppe", "operator": "Azienda USL Toscana Centro", "operator:type": "public", "phone": "+39 0571 7051", "ref:vatin": "IT06593810481", "toilets:wheelchair": "yes", "wheelchair": "yes", "wikidata": "Q3886641"}}, {"name": "Ecomedica", "latitude": 43.7178367, "longitude": 10.9613087, "source": "osm", "_tags": {"amenity": "hospital", "healthcare": "hospital", "name": "Ecomedica"}}, {"name": "Ospedale Santa Maria Annunziata", "latitude": 43.7313582, "longitude": 11.3060118, "source": "osm", "_tags": {"addr:city": "Bagno a Ripoli", "addr:hamlet": "Ponte a Niccheri", "addr:housenumber": "58", "addr:postcode": "50012", "addr:street": "Via dell'Antella", "alt_name": "Ospedale di Ponte a Niccheri", "amenity": "hospital", "check_date": "2025-05-05", "email": "direzionesanitaria.sma@uslcentro.toscana.it", "emergency": "yes", "healthcare": "hospital", "name": "Ospedale Santa Maria Annunziata", "operator": "Azienda USL Toscana Centro", "operator:type": "public", "phone": "+39 055 69361", "ref:vatin": "IT06593810481", "website": "https://www.uslcentro.toscana.it/index.php/ospedali/ospedale-santa-maria-annunziata"}}, {"name": "Nuovo Ospedale San Giovanni di Dio", "latitude": 43.758156, "longitude": 11.203697, "source": "osm", "_tags": {"addr:city": "Firenze", "addr:housenumber": "3", "addr:postcode": "50143", "addr:street": "Via di Torregalli", "amenity": "hospital", "check_date": "2025-05-05", "emergency": "yes", "healthcare": "hospital", "loc_name": "Ospedale Torregalli", "name": "Nuovo Ospedale San Giovanni di Dio", "operator": "Azienda USL Toscana Centro", "operator:type": "public", "phone": "+39 055 6932111", "ref:vatin": "IT06593810481", "website": "https://www.uslcentro.toscana.it/index.php/ospedali/ospedale-san-giovanni-di-dio", "wikidata": "Q3879862"}}, {"name": "Policlinico Santa Maria alle Scotte", "latitude": 43.3435576, "longitude": 11.3301106, "source": "osm", "_tags": {"addr:city": "Siena", "addr:housenumber": "16", "addr:postcode": "53100", "addr:street": "Viale Mario Bracci", "alt_name": "Ospedale di Siena", "alt_name_1": "Ospedale Santa Maria alle Scotte", "amenity": "hospital", "emergency": "yes", "healthcare": "hospital", "name": "Policlinico Santa Maria alle Scotte", "name:it": "Policlinico Santa Maria alle Scotte", "opening_hours": "24/7", "operator": "Azienda Ospedaliera di Siena", "phone": "+39 0577 585111", "wikidata": "Q30280376"}}, {"name": "Casa di Riposo \"San Giuseppe\"", "latitude": 43.6624118, "longitude": 11.1932274, "source": "osm", "_tags": {"amenity": "hospital", "healthcare": "hospital", "name": "Casa di Riposo \"San Giuseppe\""}}, {"name": "Misericordia di Impruneta", "latitude": 43.6843644, "longitude": 11.2559635, "source": "osm", "_tags": {"amenity": "hospital", "building": "yes", "healthcare": "hospital", "name": "Misericordia di Impruneta"}}, {"name": "Ospedale di Montalcino", "latitude": 43.0597801, "longitude": 11.4925714, "source": "osm", "_tags": {"addr:city": "Montalcino", "addr:postcode": "53024", "amenity": "hospital", "healthcare": "hospital", "name": "Ospedale di Montalcino"}}, {"name": "Misericordia del Galluzzo", "latitude": 43.7365729, "longitude": 11.2239574, "source": "osm", "_tags": {"amenity": "hospital", "building": "yes", "healthcare": "hospital", "name": "Misericordia del Galluzzo"}}, {"name": "Terme di Firenze", "latitude": 43.6848388, "longitude": 11.2146336, "source": "osm", "_tags": {"amenity": "hospital", "building": "yes", "emergency": "no", "healthcare": "hospital", "name": "Terme di Firenze"}}, {"name": "USL Colle di Val d'Elsa", "latitude": 43.4110124, "longitude": 11.1359923, "source": "osm", "_tags": {"addr:city": "Colle di Val d'Elsa", "addr:housenumber": "25", "addr:postcode": "53034", "addr:street": "Viale Marco Polo", "addr:suburb": "Campolungo", "amenity": "hospital", "healthcare": "hospital", "landuse": "residential", "name": "USL Colle di Val d'Elsa", "operator": "ASL", "operator:wikidata": "Q3631467", "phone": "+39 0577 994111", "wheelchair": "yes"}}, {"name": "Ospedale Serristori", "latitude": 43.6123985, "longitude": 11.4758123, "source": "osm", "_tags": {"addr:city": "Figline e Incisa Valdarno", "addr:housenumber": "10", "addr:postcode": "50063", "addr:street": "Piazza Venticinque Aprile", "amenity": "hospital", "check_date": "2025-05-05", "email": "direzionesanitaria.serristori@uslcentro.toscana.it", "emergency": "yes", "healthcare": "hospital", "name": "Ospedale Serristori", "operator": "Azienda USL Toscana Centro", "operator:type": "public", "phone": "+39 055 95081", "ref:vatin": "IT06593810481", "website": "https://www.uslcentro.toscana.it/index.php/ospedali/ospedale-serristori"}}, {"name": "", "latitude": 43.7703011, "longitude": 11.0996878, "source": "osm", "_tags": {"amenity": "hospital", "building": "yes", "healthcare": "hospital"}}, {"name": "", "latitude": 43.7703982, "longitude": 11.0992279, "source": "osm", "_tags": {"amenity": "hospital", "building": "yes", "healthcare": "hospital"}}, {"name": "Ospedale pediatrico Meyer", "latitude": 43.8101908, "longitude": 11.2527264, "source": "osm", "_tags": {"addr:housenumber": "24", "addr:postcode": "50139", "addr:street": "Viale Gaetano Pieraccini", "amenity": "hospital", "healthcare": "hospital", "healthcare:speciality": "paediatrics", "name": "Ospedale pediatrico Meyer", "wikidata": "Q3886622", "wikipedia": "it:Ospedale pediatrico Meyer"}}, {"name": "Casa Riposo Emmaus", "latitude": 43.3492713, "longitude": 11.3112455, "source": "osm", "_tags": {"addr:city": "Siena", "addr:postcode": "53035", "addr:street": "Via Montarioso", "amenity": "social_facility", "building": "religious", "emergency": "no", "healthcare": "hospital", "healthcare:speciality": "geriatrics", "name": "Casa Riposo Emmaus", "social_facility": "nursing_home", "social_facility:for": "senior"}}, {"name": "Ospedale Santa Verdiana", "latitude": 43.610496, "longitude": 10.9696199, "source": "osm", "_tags": {"amenity": "hospital", "name": "Ospedale Santa Verdiana"}}, {"name": "Ospedale San Pietro Igneo", "latitude": 43.7308934, "longitude": 10.8075364, "source": "osm", "_tags": {"addr:city": "Fucecchio", "addr:housenumber": "5", "addr:postcode": "50054", "addr:street": "Piazza Spartaco Lavagnini", "amenity": "hospital", "check_date": "2025-05-05", "email": "direzionesanitaria.spi@uslcentro.toscana.it", "emergency": "no", "healthcare": "hospital", "healthcare:speciality": "general;orthopaedics", "name": "Ospedale San Pietro Igneo", "operator": "Azienda USL Toscana Centro", "operator:type": "public", "phone": "+39 0571 7051", "ref:vatin": "IT06593810481", "website": "https://www.uslcentro.toscana.it/index.php/ospedali/ospedale-san-pietro-igneo"}}, {"name": "USL Toscana Sud Est - Distretto Poggibonsi", "latitude": 43.4710156, "longitude": 11.1507682, "source": "osm", "_tags": {"addr:city": "Poggibonsi", "addr:housenumber": "30", "addr:postcode": "53036", "addr:street": "Via della Costituzione", "amenity": "hospital", "building": "hospital", "healthcare": "hospital", "name": "USL Toscana Sud Est - Distretto Poggibonsi", "operator": "ASL", "operator:wikidata": "Q3631467", "phone": "+39 0577 994000", "short_name": "Azienda USL Toscana Sud Est", "website": "https://www.uslsudest.toscana.it/sedi-territoriali/zona-alta-val-d-elsa"}}, {"name": "ASL", "latitude": 43.7641187, "longitude": 11.1828174, "source": "osm", "_tags": {"amenity": "hospital", "healthcare": "hospital", "name": "ASL", "operator": "ASL", "operator:wikidata": "Q3631467", "operator:wikipedia": "it:Azienda sanitaria locale"}}, {"name": "Istituto Don Gnocchi", "latitude": 43.7590955, "longitude": 11.2069041, "source": "osm", "_tags": {"amenity": "hospital", "healthcare": "hospital", "name": "Istituto Don Gnocchi"}}, {"name": "Croce Rossa", "latitude": 43.7643652, "longitude": 11.1816615, "source": "osm", "_tags": {"amenity": "hospital", "healthcare": "hospital", "name": "Croce Rossa"}}, {"name": "Ospedale Sant'Andrea", "latitude": 43.0425071, "longitude": 10.890168, "source": "osm", "_tags": {"amenity": "hospital", "check_date": "2025-06-02", "emergency": "yes", "name": "Ospedale Sant'Andrea"}}, {"name": "Ospedale della Gruccia", "latitude": 43.5459151, "longitude": 11.5540491, "source": "osm", "_tags": {"amenity": "hospital", "healthcare": "hospital", "name": "Ospedale della Gruccia"}}, {"name": "R.S.A. Villa San Martino", "latitude": 43.6641752, "longitude": 11.1720759, "source": "osm", "_tags": {"amenity": "social_facility", "emergency": "no", "healthcare": "hospital", "name": "R.S.A. Villa San Martino", "social_facility": "nursing_home", "social_facility:for": "senior"}}, {"name": "Casa di Cura \"Villa dei Pini\"", "latitude": 43.759203, "longitude": 11.2333586, "source": "osm", "_tags": {"amenity": "hospital", "emergency": "no", "name": "Casa di Cura \"Villa dei Pini\"", "website": "http://www.villadeipini.it/"}}, {"name": "Ospedale degli Infermi", "latitude": 43.6813108, "longitude": 10.8612415, "source": "osm", "_tags": {"amenity": "hospital", "healthcare": "hospital", "name": "Ospedale degli Infermi"}}, {"name": "Presidio Ospedaliero Amiata Grossetana", "latitude": 42.8901098, "longitude": 11.5347496, "source": "osm", "_tags": {"amenity": "hospital", "emergency": "yes", "healthcare": "hospital", "name": "Presidio Ospedaliero Amiata Grossetana"}}, {"name": "Presidio Ospedaliero Amiata Val d'Orcia", "latitude": 42.8826497, "longitude": 11.6742774, "source": "osm", "_tags": {"addr:city": "Abbadia San Salvatore", "addr:housenumber": "9", "addr:postcode": "53021", "addr:street": "Via Bolzano", "alt_name": "Ospedale di Abbadia San Salvatore", "amenity": "hospital", "emergency": "yes", "healthcare": "hospital", "name": "Presidio Ospedaliero Amiata Val d'Orcia", "opening_hours": "24/7", "phone": "+39 0577 7821", "website": "https://www.uslsudest.toscana.it/ospedali/amiata-abbadia-san-salvatore"}}, {"name": "Ospedale di Santa Maria Nuova", "latitude": 43.7735784, "longitude": 11.260359, "source": "osm", "_tags": {"addr:city": "Firenze", "addr:housenumber": "1", "addr:postcode": "50121", "addr:street": "Piazza di Santa Maria Nuova", "amenity": "hospital", "check_date": "2025-05-05", "emergency": "yes", "healthcare": "hospital", "name": "Ospedale di Santa Maria Nuova", "operator": "Azienda USL Toscana Centro", "operator:type": "public", "operator:wikidata": "Q98852445", "phone": "+39 055 69381", "ref:vatin": "IT06593810481", "website": "https://www.uslcentro.toscana.it/index.php/ospedali/ospedale-santa-maria-nuova", "wikidata": "Q913148"}}, {"name": "", "latitude": 43.5460008, "longitude": 11.5538724, "source": "osm", "_tags": {"amenity": "hospital", "building": "hospital", "healthcare": "hospital", "height": "6.84"}}, {"name": "", "latitude": 43.5459667, "longitude": 11.5548536, "source": "osm", "_tags": {"amenity": "hospital", "building": "hospital", "healthcare": "hospital", "height": "20.62"}}, {"name": "", "latitude": 43.4031502, "longitude": 10.8748371, "source": "osm", "_tags": {"amenity": "hospital", "healthcare": "hospital"}}, {"name": "Ospedale Piero Palagi", "latitude": 43.7551682, "longitude": 11.2721496, "source": "osm", "_tags": {"addr:city": "Firenze", "addr:housenumber": "41", "addr:postcode": "50122", "addr:street": "Via Michelangiolo", "amenity": "hospital", "check_date": "2025-05-05", "emergency": "yes", "healthcare": "hospital", "name": "Ospedale Piero Palagi", "operator": "Azienda USL Toscana Centro", "operator:type": "public", "phone": "+39 055 6931111", "ref:vatin": "IT06593810481", "website": "https://www.uslcentro.toscana.it/index.php/ospedali/ospedale-piero-palagi", "wikidata": "Q3803657", "wikipedia": "it:Ospedale Piero Palagi"}}, {"name": "Maria Teresa Hospital", "latitude": 43.7869185, "longitude": 11.2559978, "source": "osm", "_tags": {"addr:city": "Firenze", "addr:housenumber": "18", "addr:postcode": "50129", "addr:street": "Via della Cernaia", "amenity": "hospital", "beds": "41", "healthcare": "hospital", "healthcare:speciality": "angiology;cardiology;ophthalmology", "name": "Maria Teresa Hospital", "operator:type": "private"}}, {"name": "Meyer Health Campus", "latitude": 43.8083345, "longitude": 11.2553738, "source": "osm", "_tags": {"amenity": "hospital", "healthcare": "hospital", "name": "Meyer Health Campus", "social_facility": "nursing_home"}}, {"name": "Ospedale Naldini Torrigiani", "latitude": 43.5571527, "longitude": 11.1706288, "source": "osm", "_tags": {"amenity": "hospital", "building": "hospital", "healthcare": "hospital", "name": "Ospedale Naldini Torrigiani"}}, {"name": "", "latitude": 43.5868612, "longitude": 11.3171093, "source": "osm", "_tags": {"amenity": "hospital", "healthcare": "hospital"}}, {"name": "ASL 9 - Centro Socio Sanitario", "latitude": 42.9213542, "longitude": 10.7662393, "source": "osm", "_tags": {"addr:city": "Follonica", "addr:country": "IT", "addr:housenumber": "1", "addr:postcode": "58022", "addr:province": "Grosseto", "addr:street": "Viale Europa", "amenity": "hospital", "contact:phone": "+39 0566 59111", "emergency": "yes", "healthcare": "hospital", "name": "ASL 9 - Centro Socio Sanitario", "old_name": "USL", "operator": "ASL", "operator:wikidata": "Q3631467", "short_name": "ASL", "type": "multipolygon"}}, {"name": "Ospedale S. Maria Maddalena", "latitude": 43.4029295, "longitude": 10.8729506, "source": "osm", "_tags": {"addr:city": "Volterra", "addr:housenumber": "5", "addr:postcode": "56048", "addr:street": "Borgo San Lazzero", "alt_name": "Ospedale di Volterra", "amenity": "hospital", "emergency": "yes", "healthcare": "hospital", "name": "Ospedale S. Maria Maddalena", "phone": "+39058891911", "type": "multipolygon", "website": "https://www.uslnordovest.toscana.it/ospedali/volterra"}}, {"name": "Valdisieve Hospital", "latitude": 43.7854364, "longitude": 11.4537304, "source": "osm", "_tags": {"addr:city": "Pelago", "addr:housenumber": "122", "addr:postcode": "50060", "addr:street": "Via Forlivese", "amenity": "hospital", "building": "yes", "healthcare": "hospital", "name": "Valdisieve Hospital", "type": "multipolygon"}}, {"name": "Ospedale dell'Alta Val d'Elsa", "latitude": 43.451075, "longitude": 11.1486202, "source": "osm", "_tags": {"addr:city": "Poggibonsi", "addr:postcode": "53036", "addr:street": "Località Campostaggia", "alt_name": "Ospedale Campostaggia", "amenity": "hospital", "emergency": "yes", "healthcare": "hospital", "long_name": "Ospedale dell'Alta Val d'Elsa di Poggibonsi", "name": "Ospedale dell'Alta Val d'Elsa", "opening_hours": "24/7", "operator": "USL Toscana Sud Est", "phone": "+39 0577 9941", "type": "multipolygon", "website": "https://www.uslsudest.toscana.it/ospedali/valdelsa-campostaggia"}}, {"name": "Poliambulatorio Morgagni (CUP)", "latitude": 43.7985826, "longitude": 11.2427006, "source": "osm", "_tags": {"addr:housenumber": "33", "addr:street": "Viale Giovan Battista Morgagni", "amenity": "hospital", "building": "yes", "check_date": "2024-07-03", "emergency": "no", "healthcare": "hospital", "name": "Poliambulatorio Morgagni (CUP)", "type": "multipolygon", "wheelchair": "limited"}}]