[{"name": "Maison de convalescence Fernande Berger", "latitude": 43.3322729, "longitude": 5.425107, "source": "osm", "_tags": {"amenity": "hospital", "emergency": "no", "name": "Maison de convalescence Fernande Berger", "operator": "Association Hôpital Saint-Joseph", "ref:FR:FINESS": "130784952", "ref:FR:SIRET": "44517467500048", "type:FR:FINESS": "109"}}, {"name": "Hôpital de jour Gasquy", "latitude": 43.3038808, "longitude": 5.4224348, "source": "osm", "_tags": {"addr:housenumber": "2", "amenity": "hospital", "fax": "+33491876731", "name": "Hôpital de jour Gasquy", "operator": "CHS Valvert", "phone": "+33491850012", "ref:FR:FINESS": "130808272", "ref:FR:SIRET": "26130006500073", "source": "Le ministère des solidarités et de la santé - 03/2019", "type:FR:FINESS": "292"}}, {"name": "Centre hospitalier Valvert", "latitude": 43.2968755, "longitude": 5.5721492, "source": "osm", "_tags": {"amenity": "hospital", "fax": "+33491876731", "name": "Centre hospitalier Valvert", "phone": "+33442016540", "ref:FR:FINESS": "130808629", "ref:FR:SIRET": "26130006500099", "source": "Le ministère des solidarités et de la santé - 03/2019", "type:FR:FINESS": "292"}}, {"name": "Hôpital de Jour Les Ecoutilles", "latitude": 43.296953, "longitude": 5.5723768, "source": "osm", "_tags": {"amenity": "hospital", "contact:housenumber": "180", "contact:street": "Allée Robert Govi", "name": "Hôpital de Jour Les Ecoutilles", "phone": "+33442189051", "ref:FR:FINESS": "130030059", "ref:FR:SIRET": "26130006500107", "source": "Le ministère des solidarités et de la santé - 03/2019", "type:FR:FINESS": "292"}}, {"name": "Hôpital de jour Henri Collomb", "latitude": 43.3636277, "longitude": 5.3568391, "source": "osm", "_tags": {"amenity": "hospital", "fax": "+33491656303", "healthcare": "hospital", "name": "Hôpital de jour Henri Collomb", "phone": "+33491650606", "ref:FR:FINESS": "130807928", "ref:FR:SIRET": "26130007300077", "source": "Le ministère des solidarités et de la santé - 2021-11", "type:FR:FINESS": "292"}}, {"name": "Unité de soins intensifs pour adolescents", "latitude": 43.3786181, "longitude": 5.3614329, "source": "osm", "_tags": {"amenity": "hospital", "fax": "+33491669802", "name": "Unité de soins intensifs pour adolescents", "phone": "+33491969804", "ref:FR:FINESS": "130048184", "ref:FR:SIRET": "26130007300010", "source": "Le ministère des solidarités et de la santé - 2023-09", "type:FR:FINESS": "292"}}, {"name": "Hôpital du Vallon", "latitude": 43.4210412, "longitude": 5.0368099, "source": "osm", "_tags": {"addr:city": "Martigues", "addr:housenumber": "12", "addr:postcode": "13500", "addr:street": "Boulevard du 19 Mars 1962", "amenity": "hospital", "healthcare": "hospital", "name": "Hôpital du Vallon"}}, {"name": "Centre hospitalier Montperrin", "latitude": 43.521186, "longitude": 5.4402622, "source": "osm", "_tags": {"amenity": "hospital", "healthcare": "hospital", "healthcare:speciality": "psychiatry", "name": "Centre hospitalier Montperrin", "phone": "+33 4 42 16 16 16", "ref:FR:FINESS": "130000433", "type:FR:FINESS": "292"}}, {"name": "Centre hospitalier de la Ciotat", "latitude": 43.1798243, "longitude": 5.6096188, "source": "osm", "_tags": {"amenity": "hospital", "email": "contact@ch-laciotat.fr", "emergency": "yes", "fax": "+33 4 42 08 01 09", "healthcare": "hospital", "landuse": "healthcare", "name": "Centre hospitalier de la Ciotat", "name:fr": "Centre hospitalier de la Ciotat", "name:oc": "Espitau de La Ciutat", "operator:type": "public", "phone": "+33 4 42 08 76 00", "ref:FR:FINESS": "130002215", "source": "Le ministère des solidarités et de la santé - 08/2018", "source:name:oc": "ieo-bdtopoc", "type:FR:FINESS": "355", "website": "https://www.ch-laciotat.fr/", "wheelchair": "limited"}}, {"name": "Hôpital de la Conception", "latitude": 43.2904693, "longitude": 5.395108, "source": "osm", "_tags": {"amenity": "hospital", "healthcare": "hospital", "healthcare:speciality": "intensive", "name": "Hôpital de la Conception", "ref:FR:FINESS": "130783236", "source": "Bing + terrain", "type:FR:FINESS": "101", "website": "http://fr.ap-hm.fr/nos-hopitaux/hopital-de-la-conception", "wheelchair": "yes", "wikidata": "Q30253949"}}, {"name": "Clinique du Château de Florans", "latitude": 43.7166753, "longitude": 5.3113156, "source": "osm", "_tags": {"amenity": "hospital", "building": "castle", "emergency": "no", "healthcare": "hospital", "healthcare:speciality": "physiatry", "historic": "castle", "name": "Clinique du Château de Florans", "phone": "+33 4 42 95 75 00", "ref:FR:FINESS": "130782444", "source": "cadastre-dgi-fr source : Direction Générale des Impôts - Cadastre ; mise à jour : 2009", "type:FR:FINESS": "109"}}, {"name": "Centre hospitalier Louis Brunet", "latitude": 43.3349395, "longitude": 5.470388, "source": "osm", "_tags": {"addr:street": "Chemin des Mille Écus", "amenity": "hospital", "healthcare": "hospital", "name": "Centre hospitalier Louis Brunet", "ref:FR:FINESS": "130000516", "source": "Le ministère des solidarités et de la santé - 03/2019", "website": "https://www.ch-allauch.fr/"}}, {"name": "Centre hospitalier du Pays d'Aix", "latitude": 43.5354691, "longitude": 5.4433612, "source": "osm", "_tags": {"addr:city": "Aix-en-Provence", "addr:street": "Avenue des Tamarys", "amenity": "hospital", "emergency": "yes", "fax": "+33 4 42 33 51 20", "healthcare": "hospital", "healthcare:speciality": "intensive", "landuse": "healthcare", "name": "Centre hospitalier du Pays d'Aix", "operator:type": "public", "phone": "+33 4 42 33 50 00", "ref:FR:FINESS": "130000409", "source": "BDOrtho IGN 2018, survey", "type:FR:FINESS": "355", "website": "https://www.ch-aix.fr/", "wikidata": "Q50036407"}}, {"name": "Centre hospitalier de Pertuis", "latitude": 43.6941047, "longitude": 5.4992721, "source": "osm", "_tags": {"amenity": "hospital", "emergency": "yes", "fax": "+33 4 90 09 43 23", "healthcare": "hospital", "name": "Centre hospitalier de Pertuis", "operator": "Centre hospitalier du Pays d'Aix", "operator:type": "public", "phone": "+33 4 42 33 50 00", "ref:FR:FINESS": "840000491", "source": "cadastre-dgi-fr source : Direction Générale des Impôts - Cadastre. Mise à jour : 2010", "type:FR:FINESS": "355", "website": "https://www.ch-aix.fr", "wikidata": "Q104875046"}}, {"name": "Clinique mutualiste Bonneveine", "latitude": 43.2498999, "longitude": 5.3827686, "source": "osm", "_tags": {"amenity": "hospital", "healthcare": "hospital", "name": "Clinique mutualiste Bonneveine", "old_name": "Espace mutualiste Louis Calisti", "phone": "+33 4 96 14 14 14", "ref:FR:FINESS": "130783665", "type:FR:FINESS": "365", "url": "http://www.ghmf.org/etablissements/fiches/clinique-bonneveine"}}, {"name": "Centre Hospitalier d'Aubagne", "latitude": 43.291932, "longitude": 5.5640614, "source": "osm", "_tags": {"alt_name": "Centre hospitalier Edmon Garcin", "amenity": "hospital", "emergency": "yes", "fax": "+33 4 42 84 06 67", "healthcare": "hospital", "healthcare:speciality": "intensive", "name": "Centre Hospitalier d'Aubagne", "operator:type": "public", "phone": "+33 4 42 84 70 00", "ref:FR:FINESS": "130000565", "type:FR:FINESS": "355", "website": "https://ch-aubagne.eu/"}}, {"name": "Hôpital privé La Casamance", "latitude": 43.27584, "longitude": 5.5311265, "source": "osm", "_tags": {"amenity": "hospital", "building": "hospital", "check_date": "2025-08-05", "emergency": "yes", "fax": "+33 4 91 88 47 05", "healthcare": "hospital", "healthcare:speciality": "intensive", "name": "Hôpital privé La Casamance", "operator:type": "private", "phone": "+33 4 91 88 40 00", "ref:FR:FINESS": "130781479", "source": "cadastre-dgi-fr source : Direction Générale des Impôts - Cadastre. Mise à jour : 2010", "type:FR:FINESS": "365", "website": "https://www.hopital-prive-lacasamance.fr/fr/"}}, {"name": "Hôpital de Jour Aubignane", "latitude": 43.2961145, "longitude": 5.568964, "source": "osm", "_tags": {"addr:housename": "8", "addr:street": "Avenue Roger Salengro", "amenity": "hospital", "building": "yes", "healthcare": "hospital", "name": "Hôpital de Jour Aubignane", "note": "CHS", "phone": "+33 4 42 03 64 64", "ref:FR:FINESS": "130808264", "source": "cadastre-dgi-fr source : Direction Générale des Impôts - Cadastre. Mise à jour : 2010", "type:FR:FINESS": "292"}}, {"name": "Hôpital d'instruction des armées Laveran", "latitude": 43.3265988, "longitude": 5.4151615, "source": "osm", "_tags": {"amenity": "hospital", "emergency": "yes", "fax": "+33 4 91 61 70 03", "healthcare": "hospital", "healthcare:speciality": "intensive", "landuse": "military", "name": "Hôpital d'instruction des armées Laveran", "name:oc": "Espitau d'Instruccion deis Armadas Laveran", "operator": "Ministère français de la Défense", "phone": "+33 4 91 61 70 00", "ref:FR:FINESS": "130786742", "short_name": "HIA Laveran", "source:name:oc": "ieo-bdtopoc", "type:FR:FINESS": "114", "website": "https://hopitallaveran.fr", "wikidata": "Q3145176", "wikipedia": "fr:Hôpital d'instruction des armées Laveran"}}, {"name": "Monastère Saint-Paul de Mausole", "latitude": 43.7776, "longitude": 4.8343095, "source": "osm", "_tags": {"addr:street": "Avenue Docteur Edgar Leroy", "amenity": "hospital", "building": "yes", "healthcare": "hospital", "name": "Monastère Saint-Paul de Mausole", "opening_hours": "Mo-Su 09:30-18:45", "ref:FR:FINESS": "130806011", "source": "cadastre-dgi-fr source : Direction Générale des Impôts - Cadastre. Mise à jour : 2011", "type:FR:FINESS": "161"}}, {"name": "CRF le Grand Large", "latitude": 43.239211, "longitude": 5.3620764, "source": "osm", "_tags": {"amenity": "hospital", "building": "yes", "healthcare": "hospital", "healthcare:speciality": "physiatry", "name": "CRF le Grand Large", "ref:FR:FINESS": "130787369", "source": "cadastre-dgi-fr source : Direction Générale des Impôts - Cadastre. Mise à jour : 2010", "type:FR:FINESS": "109"}}, {"name": "Clinique Notre-Dame de Bon Voyage", "latitude": 43.1804678, "longitude": 5.612049, "source": "osm", "_tags": {"amenity": "hospital", "building": "hospital", "check_date": "2025-09-02", "healthcare": "hospital", "name": "Clinique Notre-Dame de Bon Voyage", "ref:FR:FINESS": "130781834", "source": "cadastre-dgi-fr source : Direction Générale des Impôts - Cadastre. Mise à jour : 2012", "type:FR:FINESS": "109"}}, {"name": "Clinique Madeleine Rémuzat", "latitude": 43.292177, "longitude": 5.4197445, "source": "osm", "_tags": {"amenity": "clinic", "building": "yes", "contact:housenumber": "515", "contact:street": "Rue Saint-Pierre", "fax": "+33491054125", "healthcare": "hospital", "name": "Clinique Madeleine Rémuzat", "operator": "Groupe Sinoué", "phone": "+33491054000", "ref:FR:FINESS": "130780083", "ref:FR:SIRET": "44245523400041", "source": "Le ministère des solidarités et de la santé - 2021-01", "type:FR:FINESS": "109", "website": "http://www.clinique-remuzat.com/"}}, {"name": "Centre hospitalier Valvert", "latitude": 43.2995515, "longitude": 5.4611654, "source": "osm", "_tags": {"addr:city": "Marseille", "addr:housenumber": "78", "addr:postcode": "13011", "addr:street": "Boulevard des Libérateurs", "amenity": "hospital", "healthcare": "hospital", "name": "Centre hospitalier Valvert", "phone": "+33 4 91 87 67 02", "ref:FR:FINESS": "130002496", "type:FR:FINESS": "292"}}, {"name": "Les Vallons", "latitude": 43.4209867, "longitude": 5.0373399, "source": "osm", "_tags": {"amenity": "hospital", "check_date": "2024-08-09", "healthcare": "hospital", "name": "Les Vallons", "phone": "+33 4 42 43 28 25", "ref:FR:FINESS": "130790157", "type:FR:FINESS": "355"}}, {"name": "Centre hospitalier spécialisé Édouard Toulouse", "latitude": 43.3806438, "longitude": 5.3615619, "source": "osm", "_tags": {"amenity": "hospital", "healthcare": "hospital", "name": "Centre hospitalier spécialisé Édouard Toulouse", "ref:FR:FINESS": "130000235", "source": "Bing + terrain", "type:FR:FINESS": "292", "website": "https://www.ch-edouard-toulouse.fr/"}}, {"name": "Hôpital Nord", "latitude": 43.378897, "longitude": 5.3639954, "source": "osm", "_tags": {"addr:street": "Chemin des Bourrely", "amenity": "hospital", "emergency": "yes", "fax": "+33 4 91 38 20 17", "healthcare": "hospital", "healthcare:speciality": "intensive", "name": "Hôpital Nord", "name:oc": "Espitau Nòrd", "operator": "Assistance Publique-Hôpitaux de Marseille", "operator:type": "public", "operator:wikidata": "Q15974693", "phone": "+33 4 91 38 00 00", "ref:FR:FINESS": "130780521", "ref:FR:NAF": "8610Z", "ref:FR:SIRET": "26130008100153", "source": "Bing + terrain", "source:name:oc": "ieo-bdtopoc", "type:FR:FINESS": "101", "website": "http://fr.ap-hm.fr/nos-hopitaux/hopital-nord", "wikidata": "Q3145184", "wikipedia": "fr:Hôpital Nord"}}, {"name": "Hôpital Beauregard Vert Coteau", "latitude": 43.3139525, "longitude": 5.410482, "source": "osm", "_tags": {"amenity": "hospital", "emergency": "yes", "fax": "+33 4 91 12 10 15", "healthcare": "hospital", "healthcare:speciality": "intensive", "landuse": "healthcare", "name": "Hôpital Beauregard Vert Coteau", "operator:type": "private", "phone": "+33 4 91 12 34 56", "ref:FR:FINESS": "130784713", "source": "cadastre-dgi-fr source : Direction Générale des Impôts - Cadastre. Mise à jour : 2012", "type:FR:FINESS": "365", "website": "https://www.hpm-beauregard.fr/"}}, {"name": "Institut Paoli-Calmettes", "latitude": 43.2624924, "longitude": 5.4091814, "source": "osm", "_tags": {"addr:housenumber": "232", "amenity": "hospital", "healthcare": "hospital", "healthcare:speciality": "intensive", "name": "Institut Paoli-Calmettes", "ref:FR:FINESS": "130001647", "ref:FR:SIRET": "78292123300014", "type:FR:FINESS": "131", "website": "https://www.institutpaolicalmettes.fr/", "wikidata": "Q3151784", "wikipedia": "fr:Institut Paoli-Calmettes"}}, {"name": "Hôpital Sainte-Marguerite", "latitude": 43.2603366, "longitude": 5.4102642, "source": "osm", "_tags": {"amenity": "hospital", "healthcare": "hospital", "name": "Hôpital Sainte-Marguerite", "ref:FR:FINESS": "130784234", "ref:FR:SIRET": "26130008100138", "wikidata": "Q30280036", "wikipedia": "fr:Hôpital Sainte-Marguerite"}}, {"name": "Clinique Provence-Bourbonne", "latitude": 43.2823653, "longitude": 5.5963399, "source": "osm", "_tags": {"alt_name": "Clinique de la Bourbonne", "amenity": "hospital", "emergency": "no", "healthcare": "hospital", "healthcare:speciality": "physiatry", "name": "Clinique Provence-Bourbonne", "ref:FR:FINESS": "130781438", "type:FR:FINESS": "109"}}, {"name": "Hôpital Saint-Joseph", "latitude": 43.2752785, "longitude": 5.3926682, "source": "osm", "_tags": {"amenity": "hospital", "emergency": "yes", "fax": "+33 4 91 80 64 15", "healthcare": "hospital", "healthcare:speciality": "intensive", "landuse": "healthcare", "name": "Hôpital Saint-Joseph", "operator:type": "private", "phone": "+33 4 91 80 65 00", "ref:FR:FINESS": "130785652", "type:FR:FINESS": "365", "website": "https://www.hopital-saint-joseph.fr/", "wheelchair": "yes", "wikidata": "Q3145214"}}, {"name": "Clinique L'Angélus", "latitude": 43.2847363, "longitude": 5.3667358, "source": "osm", "_tags": {"amenity": "clinic", "fax": "+33496114855", "healthcare": "hospital", "healthcare:speciality": "physiatry", "name": "Clinique L'Angélus", "phone": "+33496114747", "ref:FR:FINESS": "130783475", "ref:FR:SIRET": "32657833300444", "source": "Le ministère des solidarités et de la santé - 2021-01", "type:FR:FINESS": "109"}}, {"name": "Centre Cardio-Vasculaire de Valmante", "latitude": 43.2464895, "longitude": 5.4121401, "source": "osm", "_tags": {"addr:housenumber": "100", "amenity": "hospital", "emergency": "no", "fax": "+33 4 91 17 18 20", "healthcare": "hospital", "landuse": "healthcare", "name": "Centre Cardio-Vasculaire de Valmante", "operator": "Clinéa", "operator:type": "private", "phone": "+33 8 26 96 18 19", "ref:FR:FINESS": "130789159", "type:FR:FINESS": "129", "website": "https://www.clinea.fr/centre-cardio-vasculaire-de-valmante-marseille-13"}}, {"name": "Centre Gérontologique Départemental", "latitude": 43.3112924, "longitude": 5.4113438, "source": "osm", "_tags": {"addr:housenumber": "176", "amenity": "hospital", "fax": "+33491127699", "healthcare": "hospital", "name": "Centre Gérontologique Départemental", "operator": "Conseil Général Bouches-du-Rhône", "phone": "+33491127400", "ref:FR:FINESS": "130809015", "ref:FR:SIRET": "26130005700021", "source": "Le ministère des solidarités et de la santé - 03/2019", "type:FR:FINESS": "355", "website": "https://www.cgd13.fr/"}}, {"name": "Clinique Bouchard", "latitude": 43.2825651, "longitude": 5.3799044, "source": "osm", "_tags": {"addr:city": "Marseille", "addr:housenumber": "77", "addr:postcode": "13006", "addr:street": "Rue du Docteur Escat", "amenity": "hospital", "contact:email": "bouchard.marseille@elsan.care", "contact:phone": "+33 4 91 15 90 22", "contact:website": "https://www.elsan.care/fr/clinique-bouchard", "healthcare": "clinic", "healthcare:speciality": "general", "name": "Clinique Bouchard", "operator:type": "private", "ref:FR:FINESS": "130783327", "ref:FR:NAF": "86.10Z", "ref:FR:SIRET": "05781846000016", "source": "BDOrtho IGN", "type:FR:FINESS": "365"}}, {"name": "Clinique Juge", "latitude": 43.2735015, "longitude": 5.3865374, "source": "osm", "_tags": {"amenity": "hospital", "healthcare": "hospital", "name": "Clinique Juge", "phone": "+33 8 26 20 78 78", "ref:FR:FINESS": "130783723", "source": "cadastre-dgi-fr source : Direction Générale des Impôts - Cadastre. Mise à jour : 2015", "type:FR:FINESS": "128", "website": "https://www.clinique-juge.com/"}}, {"name": "Centre hospitalier de Salon-de-Provence", "latitude": 43.6391371, "longitude": 5.1034347, "source": "osm", "_tags": {"amenity": "hospital", "emergency": "yes", "fax": "+33 4 90 56 61 45", "healthcare": "hospital", "healthcare:speciality": "intensive", "name": "Centre hospitalier de Salon-de-Provence", "operator:type": "private", "phone": "+33 4 90 44 91 44", "ref:FR:FINESS": "130001225", "source": "cadastre-dgi-fr source : Direction Générale des Impôts - Cadastre;mise à jour : 2007", "type:FR:FINESS": "355", "website": "https://www.ch-salon.fr/"}}, {"name": "Clinique Chantecler", "latitude": 43.3177214, "longitude": 5.4586869, "source": "osm", "_tags": {"addr:housenumber": "240", "amenity": "hospital", "healthcare": "hospital", "name": "Clinique Chantecler", "operator:type": "private", "ref:FR:FINESS": "130785389", "type:FR:FINESS": "365", "website": "https://www.clinique-chantecler.com/fr/"}}, {"name": "Clinique l'Émeraude", "latitude": 43.241191, "longitude": 5.4086467, "source": "osm", "_tags": {"addr:housenumber": "34", "amenity": "hospital", "fax": "+33 4 91 40 19 03", "healthcare": "hospital", "name": "Clinique l'Émeraude", "operator": "Clinéa", "operator:type": "private", "phone": "+33 8 26 28 13 13", "ref:FR:FINESS": "130784085", "ref:FR:SIRET": "06180009000013", "type:FR:FINESS": "161", "website": "https://www.clinea.fr/clinique-lemeraude-marseille-13"}}, {"name": "Maison de santé Sainte-Marthe", "latitude": 43.3287322, "longitude": 5.3857494, "source": "osm", "_tags": {"addr:housenumber": "9", "addr:street": "Traverse du Canet", "amenity": "hospital", "emergency": "no", "name": "Maison de santé Sainte-Marthe", "ref:FR:FINESS": "130780273", "ref:FR:SIRET": "34469656200018", "social_facility": "group_home", "social_facility:for": "mental_health", "type:FR:FINESS": "161"}}, {"name": "Polyclinique La Phocéanne", "latitude": 43.3053302, "longitude": 5.4738844, "source": "osm", "_tags": {"addr:housenumber": "143", "addr:street": "Route des Trois Lucs à La Valentine", "amenity": "hospital", "name": "Polyclinique La Phocéanne", "ref:FR:FINESS": "130784903", "type:FR:FINESS": "365", "website": "https://www.clinique-laphoceanne.fr/"}}, {"name": "Hôpital privé Clairval", "latitude": 43.2482445, "longitude": 5.4275161, "source": "osm", "_tags": {"amenity": "hospital", "contact:housenumber": "317", "contact:street": "Boulevard du Redon", "emergency": "no", "fax": "+33 4 91 26 73 76", "healthcare:speciality": "intensive", "name": "Hôpital privé Clairval", "operator": "Ramsay Santé", "operator:type": "private", "operator:wikidata": "Q3123085", "phone": "+33 4 28 630 630", "ref:FR:FINESS": "130784051", "type:FR:FINESS": "365", "website": "https://hopital-prive-clairval-marseille.ramsaygds.fr/"}}, {"name": "Groupe hospitalier de la Timone", "latitude": 43.2895554, "longitude": 5.4035581, "source": "osm", "_tags": {"amenity": "hospital", "emergency": "yes", "fax": "+33 4 91 38 50 33", "healthcare": "hospital", "healthcare:speciality": "intensive", "name": "Groupe hospitalier de la Timone", "name:etymology:wikidata": "Q3213155", "name:oc": "Espitau de la Timona", "operator": "Assistance Publique-Hôpitaux de Marseille", "operator:type": "public", "operator:wikidata": "Q15974693", "phone": "+33 4 91 38 00 00", "ref:FR:FINESS": "130783293", "source:name:oc": "ieo-bdtopoc", "type:FR:FINESS": "101", "website": "http://fr.ap-hm.fr/nos-hopitaux/hopital-de-la-timone", "wheelchair": "yes", "wikidata": "Q3145313", "wikipedia": "fr:Hôpital de la Timone"}}, {"name": "Clinique Valfleur", "latitude": 43.3156301, "longitude": 5.4763088, "source": "osm", "_tags": {"addr:housenumber": "965", "addr:street": "Route d'Enco de Botte", "amenity": "hospital", "building": "yes", "healthcare": "hospital", "name": "Clinique Valfleur", "phone": "+33 4 91 93 91 95", "ref:FR:FINESS": "130786015", "source": "cadastre-dgi-fr source : Direction Générale des Finances Publiques - Cadastre. Mise à jour : 2017"}}, {"name": "", "latitude": 43.3778473, "longitude": 5.3594096, "source": "osm", "_tags": {"addr:housenumber": "50", "amenity": "hospital", "building": "hospital", "fax": "+33491382012", "healthcare": "hospital", "phone": "+33491383000", "ref:FR:FINESS": "130047145", "ref:FR:SIRET": "26130008100153", "source": "Le ministère des solidarités et de la santé - 03/2019", "type:FR:FINESS": "101"}}, {"name": "Hôpital Henri Gastaut", "latitude": 43.260915, "longitude": 5.4133723, "source": "osm", "_tags": {"amenity": "hospital", "healthcare": "hospital", "name": "Hôpital Henri Gastaut", "ref:FR:FINESS": "130784226", "ref:FR:SIRET": "33435347100041", "source": "survey", "type:FR:FINESS": "129", "wikidata": "Q30281623"}}, {"name": "Hôpital privé de Provence", "latitude": 43.5019285, "longitude": 5.4378527, "source": "osm", "_tags": {"amenity": "hospital", "emergency": "yes", "fax": "+33 4 42 33 17 23", "healthcare": "hospital", "healthcare:speciality": "intensive", "landuse": "healthcare", "name": "Hôpital privé de Provence", "operator:type": "private", "phone": "+33 4 42 33 88 00", "ref:FR:FINESS": "130786361", "start_date": "2019-06-03", "type:FR:FINESS": "365", "website": "https://www.hopital-prive-de-provence.com/fr/"}}, {"name": "Maternité de l'Étoile", "latitude": 43.5736635, "longitude": 5.4252788, "source": "osm", "_tags": {"addr:city": "Puyricard", "addr:housenumber": "2530", "addr:postcode": "13540", "addr:street": "Route de Puyricard", "amenity": "hospital", "emergency": "no", "healthcare": "hospital", "healthcare:speciality": "fertility", "landuse": "healthcare", "name": "Maternité de l'Étoile", "ref:FR:FINESS": "130786445"}}, {"name": "Clinique Générale de Marignane", "latitude": 43.4090427, "longitude": 5.2138745, "source": "osm", "_tags": {"addr:street": "Avenue Général Raoul Salan", "amenity": "hospital", "emergency": "yes", "fax": "+33 4 42 77 25 03", "healthcare": "hospital", "landuse": "healthcare", "name": "Clinique Générale de Marignane", "operator": "Almaviva Santé", "operator:type": "private", "phone": "+33 4 42 78 45 00", "ref:FR:FINESS": "130782147", "type:FR:FINESS": "365", "website": "https://www.clinique-marignane.com/fr/"}}, {"name": "Résidence Germaine Poinso Chapuis", "latitude": 43.4163818, "longitude": 5.5951578, "source": "osm", "_tags": {"addr:city": "Belcodène", "addr:postcode": "13720", "addr:street": "Chemin Sablière", "amenity": "social_facility", "fax": "+33442706023", "healthcare": "hospital", "name": "Résidence Germaine Poinso Chapuis", "phone": "+33442706042", "ref:FR:FINESS": "130793169", "social_facility": "group_home", "social_facility:for": "disabled", "source": "Le ministère des solidarités et de la santé - 03/2019", "type:FR:FINESS": "382"}}, {"name": "Clinique Axium", "latitude": 43.5345755, "longitude": 5.435443, "source": "osm", "_tags": {"addr:city": "Aix-en-Provence", "addr:housenumber": "21", "addr:postcode": "13100", "addr:street": "Avenue Albert Capus", "amenity": "hospital", "fax": "+33442957273", "healthcare": "clinic", "landuse": "healthcare", "name": "Clinique Axium", "operator": "Almaviva Santé", "operator:type": "private", "phone": "+33442957272", "ref:FR:FINESS": "130810740", "ref:FR:SIRET": "34046010400037", "source": "Le ministère des solidarités et de la santé - 03/2019", "type:FR:FINESS": "365", "website": "https://www.cliniqueaxium.fr/fr/"}}, {"name": "CPC La Bastide", "latitude": 43.3051841, "longitude": 5.5080785, "source": "osm", "_tags": {"addr:place": "Camoins-Les-Bains", "addr:street": "Route de la Treille", "amenity": "hospital", "healthcare": "hospital", "name": "CPC La Bastide", "ref:FR:FINESS": "130784549", "ref:FR:SIRET": "05580667300012", "source:ref:FR:FINESS": "http://finess.sante.gouv.fr/", "type:FR:FINESS": "161"}}, {"name": "Clinique La Provençale", "latitude": 43.3000082, "longitude": 5.5039928, "source": "osm", "_tags": {"amenity": "hospital", "contact:housenumber": "164", "contact:street": "Route des Camoins", "healthcare": "hospital", "name": "Clinique La Provençale", "operator": "Clinea", "ref:FR:FINESS": "130784580", "source:ref:FR:FINESS": "http://finess.sante.gouv.fr/", "type:FR:FINESS": "129"}}, {"name": "Clinique Saint-Roch Mont Fleuri", "latitude": 43.2993186, "longitude": 5.504139, "source": "osm", "_tags": {"amenity": "hospital", "contact:housenumber": "160", "contact:street": "Route des Camoins", "healthcare": "hospital", "name": "Clinique Saint-Roch Mont Fleuri", "ref:FR:FINESS": "130784606", "ref:FR:SIRET": "05480557700027", "source:ref:FR:FINESS": "http://finess.sante.gouv.fr/", "type:FR:FINESS": "161"}}, {"name": "Clinique des Quatre Saisons", "latitude": 43.3014007, "longitude": 5.5024867, "source": "osm", "_tags": {"amenity": "hospital", "contact:housenumber": "165", "contact:street": "Route des Camoins", "healthcare": "hospital", "name": "Clinique des Quatre Saisons", "operator": "Ramsay Santé", "operator:wikidata": "Q3123085", "ref:FR:FINESS": "130784697", "ref:FR:SIRET": "63552064600020", "source:ref:FR:FINESS": "http://finess.sante.gouv.fr/", "type:FR:FINESS": "161"}}, {"name": "Centre hospitalier de Martigues", "latitude": 43.4127492, "longitude": 5.0387835, "source": "osm", "_tags": {"alt_name": "Hôpital des Rayettes", "amenity": "hospital", "emergency": "yes", "fax": "+33 4 42 80 24 60", "healthcare": "hospital", "healthcare:speciality": "intensive;general;maternity;gynaecology", "name": "Centre hospitalier de Martigues", "operator:type": "public", "phone": "+33 4 42 43 22 22", "ref:FR:FINESS": "130002835", "source": "cadastre-dgi-fr source : Direction Générale des Impôts - Cadastre. Mise à jour : 2010", "type:FR:FINESS": "355", "website": "http://www.ch-martigues.fr/"}}, {"name": "Clinique de l'Étang de l'Olivier", "latitude": 43.5081365, "longitude": 4.9921704, "source": "osm", "_tags": {"addr:housenumber": "4", "addr:street": "Rue Roger Carpentier", "alt_name": "Clinique privée d'Istres", "amenity": "hospital", "emergency": "yes", "fax": "+33 4 42 47 60 81", "healthcare": "hospital", "landuse": "healthcare", "name": "Clinique de l'Étang de l'Olivier", "operator": "Almaviva Santé", "operator:type": "private", "phone": "+33 4 42 47 60 00", "ref:FR:FINESS": "130782071", "type:FR:FINESS": "365", "website": "https://www.clinique-etang-olivier.fr/fr/"}}, {"name": "Clinique La Lauranne", "latitude": 43.4650859, "longitude": 5.3967899, "source": "osm", "_tags": {"addr:housename": "Clinique La Lauranne", "addr:housenumber": "1059", "addr:street": "Chemin de Saint Hilaire", "amenity": "clinic", "contact:email": "contact@clinique-la-lauranne.com", "contact:fax": "+33 4 42 22 98 00", "contact:phone": "+33 4 42 22 97 97", "contact:website": "http://www.clinique-la-lauranne.com/", "dispensing": "no", "healthcare": "hospital", "name": "Clinique La Lauranne", "ref:FR:FINESS": "130798002", "type:FR:FINESS": "161"}}, {"name": "Clinique Saint-Christophe", "latitude": 43.4639748, "longitude": 5.3983199, "source": "osm", "_tags": {"amenity": "hospital", "healthcare": "hospital", "healthcare:speciality": "physiatry", "name": "Clinique Saint-Christophe", "phone": "+33 8 26 39 03 26", "ref:FR:FINESS": "130785983", "type:FR:FINESS": "109"}}, {"name": "Clinique Provence Azur", "latitude": 43.572528, "longitude": 5.3627477, "source": "osm", "_tags": {"amenity": "hospital", "healthcare": "hospital", "healthcare:speciality": "physiatry", "name": "Clinique Provence Azur", "phone": "+33 4 42 28 28 28", "ref:FR:FINESS": "130781917", "type:FR:FINESS": "109"}}, {"name": "Paul Cezanne", "latitude": 43.4211851, "longitude": 5.5146002, "source": "osm", "_tags": {"amenity": "hospital", "healthcare": "hospital", "healthcare:speciality": "physiatry", "name": "Paul Cezanne", "name:oc": "Paul Cesana", "phone": "+33 4 42 65 61 00", "ref:FR:FINESS": "130786932", "source:name:oc": "ieo-bdtopoc", "type:FR:FINESS": "109"}}, {"name": "Clinique Vignoli", "latitude": 43.6382886, "longitude": 5.0897517, "source": "osm", "_tags": {"addr:city": "Salon-de-Provence", "addr:housenumber": "114", "addr:postcode": "13300", "addr:street": "Avenue Paul Bourret", "amenity": "hospital", "fax": "+33490172599", "healthcare": "hospital", "name": "Clinique Vignoli", "network": "Almaviva", "operator:type": "private", "phone": "+33490172500", "ref:FR:FINESS": "130782675", "ref:FR:SIRET": "63548016300016", "source": "Le ministère des solidarités et de la santé - 03/2019", "type:FR:FINESS": "128", "website": "https://www.clinique-vignoli.fr/"}}, {"name": "cabinet médical", "latitude": 43.317932, "longitude": 5.4241408, "source": "osm", "_tags": {"addr:city": "Marseille", "addr:housenumber": "5pl", "addr:postcode": "13012", "addr:street": "Place Claude Bernard", "amenity": "hospital", "healthcare": "hospital", "healthcare:speciality": "community", "name": "cabinet médical", "opening_hours": "Mo-Fr 09:00-18:00", "operator": "Rémi Trauchessec", "operator:type": "private"}}, {"name": "Poste secours Lecques", "latitude": 43.1799426, "longitude": 5.6846907, "source": "osm", "_tags": {"amenity": "hospital", "healthcare": "hospital", "height": "3", "name": "Poste secours Lecques", "wheelchair": "yes"}}, {"name": "Hôpital européen", "latitude": 43.3100687, "longitude": 5.3723015, "source": "osm", "_tags": {"addr:city": "Marseille", "addr:country": "FR", "addr:housenumber": "6", "addr:postcode": "13003", "addr:street": "Rue Désirée Clary", "amenity": "hospital", "building": "hospital", "building:levels": "5", "emergency": "yes", "fax": "+33 4 13 42 77 00", "healthcare": "hospital", "healthcare:speciality": "intensive", "name": "Hôpital européen", "name:oc": "Espitau europenc", "old_name": "Hôpital Ambroise Paré-Paul Desbief", "operator:type": "private", "phone": "+33 4 13 42 70 00", "ref:FR:FINESS": "130043664", "source": "cadastre-dgfi-fr source : Direction Générale des Impôts - Cadastre. Mise à jour : 2019", "source:name:oc": "ieo-bdtopoc", "type": "multipolygon", "type:FR:FINESS": "365", "website": "https://hopital-europeen.fr/", "wikidata": "Q16508260", "wikipedia": "fr:Hôpital européen de Marseille"}}, {"name": "Hôpital Salvator", "latitude": 43.2637244, "longitude": 5.4133413, "source": "osm", "_tags": {"amenity": "hospital", "healthcare": "hospital", "name": "Hôpital Salvator", "name:oc": "Espitau Salvator", "ref:FR:FINESS": "130784259", "ref:FR:SIRET": "26130008100120", "source": "Bing + terrain", "source:name:oc": "ieo-bdtopoc", "type": "multipolygon", "type:FR:FINESS": "101", "wikipedia": "fr:Hôpital Salvator"}}]