[{"name": "Centre Monsignery", "latitude": 43.6066226, "longitude": 7.1125851, "source": "osm", "_tags": {"access": "private", "addr:housenumber": "2160", "addr:street": "Avenue Jean Michard Pellissier", "amenity": "hospital", "name": "Centre Monsignery", "ref:FR:FINESS": "060780392"}}, {"name": "Croce Rossa - Ventimiglia", "latitude": 43.7885086, "longitude": 7.6162442, "source": "osm", "_tags": {"addr:city": "Ventimiglia", "addr:housenumber": "16", "addr:postcode": "18039", "addr:street": "Via Dante Alighieri", "brand": "Croce Rossa Italiana", "brand:wikidata": "Q913903", "emergency": "ambulance_station", "healthcare": "hospital", "name": "Croce Rossa - Ventimiglia", "operator": "Croce Rossa Italiana"}}, {"name": "Unité de diététique Somedi", "latitude": 43.5746684, "longitude": 6.9339904, "source": "osm", "_tags": {"amenity": "hospital", "name": "Unité de diététique Somedi", "note": "Emplacement précis à déterminer", "ref:FR:FINESS": "060800182", "type:FR:FINESS": "109"}}, {"name": "Villa Romaine", "latitude": 43.7234323, "longitude": 7.2801, "source": "osm", "_tags": {"amenity": "hospital", "healthcare": "hospital", "name": "Villa Romaine", "ref:FR:FINESS": "060021094", "type:FR:FINESS": "109"}}, {"name": "Fondation Hector Ott", "latitude": 43.734737, "longitude": 7.4145251, "source": "osm", "_tags": {"amenity": "hospital", "healthcare": "hospital", "name": "Fondation Hector Ott"}}, {"name": "Hôpital de jour Le Bellagio CHS Sainte-Marie", "latitude": 43.7159284, "longitude": 7.2595678, "source": "osm", "_tags": {"addr:housenumber": "18", "addr:street": "Avenue Cyrille Besset", "amenity": "hospital", "fax": "+33493135666", "healthcare": "centre", "healthcare:speciality": "psychiatry", "name": "Hôpital de jour Le Bellagio CHS Sainte-Marie", "operator": "CH Sainte-Marie", "operator:type": "public", "phone": "+33493135610", "ref:FR:FINESS": "060024916", "ref:FR:SIRET": "77563330800066", "source": "Le ministère des solidarités et de la santé - 2022-03", "type:FR:FINESS": "292", "wheelchair": "yes"}}, {"name": "Institut Monégasque de Médecine du Sport", "latitude": 43.7374973, "longitude": 7.4241895, "source": "osm", "_tags": {"addr:country": "MC", "alt_name": "IM2S", "amenity": "hospital", "emergency": "no", "healthcare": "hospital", "name": "Institut Monégasque de Médecine du Sport"}}, {"name": "Centre Médico Psychologique", "latitude": 43.5570799, "longitude": 7.0264904, "source": "osm", "_tags": {"amenity": "hospital", "name": "Centre Médico Psychologique"}}, {"name": "Elsan Clinique les Lauriers", "latitude": 43.4353794, "longitude": 6.7558634, "source": "osm", "_tags": {"amenity": "hospital", "healthcare": "hospital", "name": "Elsan Clinique les Lauriers", "operator": "Elsan", "website": "https://www.elsan.care/fr/clinique-les-lauriers"}}, {"name": "Centre hospitalier intercommunal Fréjus Saint-Raphaël", "latitude": 43.4390462, "longitude": 6.7518601, "source": "osm", "_tags": {"alt_name": "Hôpital Bonnet", "amenity": "hospital", "check_date": "2025-09-04", "emergency": "yes", "fax": "+33 4 94 40 20 41", "healthcare:speciality": "intensive", "landuse": "healthcare", "name": "Centre hospitalier intercommunal Fréjus Saint-Raphaël", "operator:type": "public", "phone": "+33 4 94 40 21 21", "ref:FR:FINESS": "830000311", "short_name": "CHI Fréjus Saint-Raphaël", "type:FR:FINESS": "355", "website": "https://www.chi-fsr.fr/", "wikidata": "Q30293554"}}, {"name": "Centre hospitalier Princesse Grace", "latitude": 43.7302878, "longitude": 7.4111358, "source": "osm", "_tags": {"addr:country": "MC", "amenity": "hospital", "building": "hospital", "healthcare": "hospital", "name": "Centre hospitalier Princesse Grace", "name:en": "Princess Grace Hospital", "name:it": "Centro ospedaliero Principessa Grace", "website": "https://www.chpg.mc", "wikidata": "Q3886628"}}, {"name": "Arnault Tzanck Mougins", "latitude": 43.609197, "longitude": 7.0116471, "source": "osm", "_tags": {"amenity": "hospital", "healthcare": "hospital", "healthcare:speciality": "surgery;physiatry", "name": "Arnault Tzanck Mougins", "phone": "+33 4 97 16 68 00", "ref:FR:FINESS": "060800166", "type:FR:FINESS": "128", "website": "https://www.tzanck.org/mougins"}}, {"name": "Centre Cardio Thoracique de Monaco", "latitude": 43.7377032, "longitude": 7.4248407, "source": "osm", "_tags": {"addr:country": "MC", "amenity": "hospital", "building": "hospital", "emergency": "yes", "healthcare": "hospital", "name": "Centre Cardio Thoracique de Monaco", "wikidata": "Q2944919", "wikipedia": "fr:Centre cardio-thoracique de Monaco"}}, {"name": "Pronto Soccorso Ospedale Saint Charles", "latitude": 43.7847517, "longitude": 7.648217, "source": "osm", "_tags": {"addr:city": "Bordighera", "addr:postcode": "18012", "amenity": "hospital", "emergency": "yes", "healthcare": "hospital", "name": "Pronto Soccorso Ospedale Saint Charles", "operator": "Azienda ASL 1 Imperiese"}}, {"name": "Clinique du Val d'Estreilles", "latitude": 43.5939737, "longitude": 6.9243143, "source": "osm", "_tags": {"amenity": "hospital", "healthcare": "hospital", "landuse": "healthcare", "name": "Clinique du Val d'Estreilles", "ref:FR:FINESS": "060780525", "type:FR:FINESS": "161"}}, {"name": "Centre Antoine Lacassagne", "latitude": 43.6862418, "longitude": 7.2119419, "source": "osm", "_tags": {"alt_name": "Cyclotron Biomedical", "amenity": "hospital", "emergency": "no", "healthcare": "hospital", "name": "Centre Antoine Lacassagne", "ref:FR:FINESS": "060024551", "source": "cadastre-dgi-fr source : Direction Générale des Impôts - Cadastre. Mise à jour : 2011", "type:FR:FINESS": "131", "website": "https://www.protontherapie.fr/", "wikidata": "Q91994467"}}, {"name": "Clinique Santa-Maria", "latitude": 43.689137, "longitude": 7.241226, "source": "osm", "_tags": {"amenity": "hospital", "building": "hospital", "healthcare": "hospital", "height": "31", "name": "Clinique Santa-Maria", "ref:FR:FINESS": "060780756", "source": "cadastre-dgi-fr source : Direction Générale des Impôts - Cadastre. Mise à jour : 2011", "type:FR:FINESS": "365"}}, {"name": "Fondation Lenval - Hôpital pour Enfants", "latitude": 43.6894365, "longitude": 7.241645, "source": "osm", "_tags": {"amenity": "hospital", "building": "hospital", "building:levels": "9", "check_date": "2024-04-16", "email": "information@pediatrie-chulenval-nice.fr", "emergency": "yes", "fax": "+33 4 93 03 03 44", "healthcare": "hospital", "healthcare:speciality": "intensive", "height": "30", "name": "Fondation Lenval - Hôpital pour Enfants", "name:de": "Stiftung Lenval - Kinderkrankenhaus", "name:fr": "Fondation Lenval - Hôpital pour Enfants", "operator:type": "private", "phone": "+33 4 92 03 03 92", "ref:FR:FINESS": "060780947", "roof:levels": "0", "source": "cadastre-dgi-fr source : Direction Générale des Impôts - Cadastre. Mise à jour : 2011", "type:FR:FINESS": "365", "website": "https://lenval.org/"}}, {"name": "ICR - Institut de Chirurgie Réparatrice", "latitude": 43.701946, "longitude": 7.2622565, "source": "osm", "_tags": {"amenity": "hospital", "building": "yes", "healthcare": "hospital", "healthcare:speciality": "surgery", "height": "20", "name": "ICR - Institut de Chirurgie Réparatrice", "operator:type": "private", "source": "cadastre-dgi-fr source : Direction Générale des Impôts - Cadastre. Mise à jour : 2011"}}, {"name": "Hôpital de Cimiez", "latitude": 43.7211103, "longitude": 7.273455, "source": "osm", "_tags": {"addr:housenumber": "4", "addr:street": "Avenue de la Reine Victoria", "amenity": "hospital", "healthcare": "hospital", "name": "Hôpital de Cimiez", "name:fr": "Hôpital de Cimiez", "name:oc": "Espitau de Cimier", "ref:FR:FINESS": "060788957", "ref:FR:NAF": "8610Z", "ref:FR:SIRET": "26060070500040", "short_name": "CHU Nice-Cimiez", "source:name:oc": "ieo-bdtopoc", "type:FR:FINESS": "101"}}, {"name": "Clinique Saint-Luc", "latitude": 43.7236856, "longitude": 7.2803604, "source": "osm", "_tags": {"addr:housenumber": "42", "addr:street": "Voie Romaine", "amenity": "hospital", "healthcare": "hospital", "name": "Clinique Saint-Luc", "phone": "+33 4 92 26 15 15", "ref:FR:FINESS": "060780749", "type:FR:FINESS": "161", "website": "https://www.cliniquesaintluc.fr/"}}, {"name": "Centre hospitalier de Cannes Simone Veil", "latitude": 43.5636782, "longitude": 7.0045937, "source": "osm", "_tags": {"alt_name": "Centre hospitalier de Cannes Les Broussailles", "amenity": "hospital", "fax": "+33 4 93 69 70 09", "healthcare": "hospital", "healthcare:speciality": "intensive", "landuse": "healthcare", "name": "Centre hospitalier de Cannes Simone Veil", "operator:type": "public", "phone": "+33 4 93 69 70 00", "ref:FR:FINESS": "060000544", "short_name": "Hôpital des Broussailles", "type:FR:FINESS": "355", "website": "https://www.ch-cannes.fr/", "wikidata": "Q30281566"}}, {"name": "Clinique du Méridien", "latitude": 43.5497316, "longitude": 6.9883052, "source": "osm", "_tags": {"amenity": "hospital", "healthcare": "hospital", "healthcare:speciality": "physiatry", "landuse": "healthcare", "name": "Clinique du Méridien", "ref:FR:FINESS": "060780665", "type:FR:FINESS": "109"}}, {"name": "Centre hospitalier universitaire de Nice", "latitude": 43.7245761, "longitude": 7.2821547, "source": "osm", "_tags": {"addr:housenumber": "30", "addr:street": "Voie Romaine", "amenity": "hospital", "emergency": "yes", "fax": "+33 4 92 03 83 35", "healthcare": "hospital", "healthcare:speciality": "intensive", "landuse": "healthcare", "name": "Centre hospitalier universitaire de Nice", "operator:type": "public", "phone": "+33 4 92 03 77 77", "ref:FR:FINESS": "060785003", "ref:FR:NAF": "8610Z", "ref:FR:SIRET": "26060070500099", "short_name": "CHU Nice-Pasteur", "type:FR:FINESS": "101", "website": "https://www.chu-nice.fr/"}}, {"name": "Polyclinique Saint-François", "latitude": 43.7225268, "longitude": 7.2812273, "source": "osm", "_tags": {"amenity": "hospital", "contact:housenumber": "10", "contact:phone": "+33 4 93 13 65 00", "contact:postcode": "06000", "contact:street": "Boulevard Pasteur", "emergency": "yes", "healthcare": "hospital", "landuse": "healthcare", "name": "Polyclinique Saint-François", "note": "Pôle Urgence Main Nice", "ref:FR:FINESS": "060780442", "ref:FR:NAF": "8610Z", "ref:FR:SIREN": "956801815", "ref:FR:SIRET": "95680181500013", "source": "cadastre-dgi-fr source : Direction Générale des Impôts - Cadastre. Mise à jour : 2011", "website": "https://cliniquesaintfrancois-nice.vivalto-sante.com/"}}, {"name": "Institut Arnault Tzanck", "latitude": 43.6608664, "longitude": 7.1864607, "source": "osm", "_tags": {"amenity": "hospital", "emergency": "yes", "fax": "+33 4 92 27 38 25", "healthcare": "hospital", "healthcare:speciality": "intensive", "landuse": "healthcare", "name": "Institut Arnault Tzanck", "operator": "Institut Arnault Tzanck", "operator:type": "private", "phone": "+33 4 92 27 33 33", "ref:FR:FINESS": "060780491", "ref:FR:SIRET": "78263477800024", "start_date": "1972-01-01", "type:FR:FINESS": "365", "website": "https://saintlaurentduvar.tzanck.org/"}}, {"name": "Clinique Les Sources", "latitude": 43.7412827, "longitude": 7.2778214, "source": "osm", "_tags": {"amenity": "hospital", "healthcare": "hospital", "healthcare:speciality": "intensive", "name": "Clinique Les Sources", "ref:FR:FINESS": "060791811", "type:FR:FINESS": "129"}}, {"name": "Centre de Gérontologie Clinique Rainier III", "latitude": 43.7297686, "longitude": 7.4094599, "source": "osm", "_tags": {"addr:country": "MC", "amenity": "hospital", "building": "hospital", "healthcare": "hospital", "name": "Centre de Gérontologie Clinique Rainier III"}}, {"name": "Centre hospitalier d'Antibes - Juan-les-Pins", "latitude": 43.6012944, "longitude": 7.1187102, "source": "osm", "_tags": {"addr:city": "Antibes", "addr:housenumber": "107", "addr:postcode": "06600", "addr:street": "Avenue de Nice", "alt_name": "Centre hospitalier de la Fontonne", "amenity": "hospital", "emergency": "yes", "healthcare": "hospital", "healthcare:speciality": "intensive", "landuse": "healthcare", "name": "Centre hospitalier d'Antibes - Juan-les-Pins", "operator:type": "public", "ref:FR:FINESS": "060000510", "type:FR:FINESS": "355", "website": "https://www.ch-antibes.fr/", "wikidata": "Q65017034"}}, {"name": "Centre hospitalier de Menton", "latitude": 43.7668575, "longitude": 7.4836911, "source": "osm", "_tags": {"alt_name": "Centre hospitalier La Palmosa", "amenity": "hospital", "emergency": "yes", "fax": "+33 4 93 28 76 51", "healthcare": "hospital", "landuse": "healthcare", "name": "Centre hospitalier de Menton", "note": "emprise incertaine", "operator:type": "public", "phone": "+33 4 93 28 77 77", "ref:FR:FINESS": "060002102", "type:FR:FINESS": "355", "website": "https://www.ch-menton.fr/"}}, {"name": "Hôpital Privé Cannes Oxford", "latitude": 43.5653578, "longitude": 7.0282796, "source": "osm", "_tags": {"addr:city": "Cannes", "addr:housenumber": "33", "addr:postcode": "06400", "addr:street": "Boulevard d'Oxford", "amenity": "hospital", "healthcare": "hospital", "name": "Hôpital Privé Cannes Oxford", "ref:FR:FINESS": "060021417", "source": "cadastre-dgi-fr source : Direction Générale des Impôts - Cadastre. Mise à jour : 2010", "type:FR:FINESS": "365", "website": "https://www.clinique-oxford.com/fr/"}}, {"name": "Centre hospitalier de Grasse - Site Clavary", "latitude": 43.6196592, "longitude": 6.9305256, "source": "osm", "_tags": {"alt_name": "Centre hospitalier Clavary", "amenity": "hospital", "emergency": "yes", "fax": "+33 4 93 09 51 02", "healthcare": "hospital", "healthcare:speciality": "intensive", "landuse": "healthcare", "name": "Centre hospitalier de Grasse - Site Clavary", "operator": "Centre hospitalier de Grasse", "operator:type": "public", "phone": "+33 4 93 09 55 55", "ref:FR:FINESS": "060000478", "type:FR:FINESS": "355", "website": "http://www.ch-grasse.fr/"}}, {"name": "Clinique du Parc Impérial", "latitude": 43.7030936, "longitude": 7.2519661, "source": "osm", "_tags": {"amenity": "clinic", "contact:fax": "+33 4 92 07 76 99", "contact:housenumber": "28", "contact:phone": "+33 8 26 30 75 76", "contact:street": "Boulevard Tzarewitch", "contact:website": "https://www.clinique-parc-imperial.fr/fr/", "emergency": "yes", "healthcare": "hospital", "name": "Clinique du Parc Impérial", "operator": "Almaviva Santé", "operator:type": "private", "ref:FR:FINESS": "060780723", "ref:FR:SIRET": "44442640700011", "source": "Le ministère des solidarités et de la santé - 2022-03", "type:FR:FINESS": "365"}}, {"name": "Polyclinique Saint-George", "latitude": 43.7332043, "longitude": 7.2779113, "source": "osm", "_tags": {"addr:housenumber": "2", "addr:street": "Avenue de Rimiez", "amenity": "hospital", "emergency": "yes", "fax": "+33 4 93 53 35 18", "healthcare": "polyclinic", "landuse": "healthcare", "name": "Polyclinique Saint-George", "operator": "Kantys", "operator:type": "private", "phone": "+33 4 93 81 71 50", "ref:FR:FINESS": "060780715", "type:FR:FINESS": "365", "website": "https://www.clinique-saint-george.com/"}}, {"name": "Hôpital de l'Archet", "latitude": 43.6965713, "longitude": 7.2265644, "source": "osm", "_tags": {"amenity": "hospital", "check_date": "2025-08-16", "fax": "+33 4 92 03 57 60", "healthcare": "hospital", "name": "Hôpital de l'Archet", "operator": "CHU de Nice", "operator:type": "public", "phone": "+33 4 92 03 77 77", "ref:FR:FINESS": "060789195", "type:FR:FINESS": "101", "website": "https://www.chu-nice.fr/nos-hopitaux/hopital-larchet"}}, {"name": "CH de Grasse - Site du Petit Paris", "latitude": 43.6494555, "longitude": 6.9151003, "source": "osm", "_tags": {"amenity": "hospital", "healthcare": "hospital", "landuse": "healthcare", "name": "CH de Grasse - Site du Petit Paris", "operator": "Centre Hospitalier de Grasse", "phone": "+33493095345", "ref:FR:FINESS": "060787801", "ref:FR:SIRET": "26060017600010", "source": "Le ministère des solidarités et de la santé - 2023-03", "type:FR:FINESS": "355", "website": "http://www.ch-grasse.fr/"}}, {"name": "Centre hospitalier de Vallauris", "latitude": 43.5805687, "longitude": 7.0589525, "source": "osm", "_tags": {"addr:street": "Place Saint-Roch", "amenity": "hospital", "email": "direction@polesante-vallauris.fr", "name": "Centre hospitalier de Vallauris", "website": "https://www.ch-antibes.fr/fr/centre-vallauris/2/61"}}, {"name": "", "latitude": 43.7298201, "longitude": 7.4106557, "source": "osm", "_tags": {"amenity": "hospital", "healthcare": "hospital"}}, {"name": "Centre Antoine Lacassagne", "latitude": 43.7245884, "longitude": 7.2805724, "source": "osm", "_tags": {"addr:housenumber": "33", "addr:postcode": "06000", "addr:street": "Avenue de Valombrose", "amenity": "hospital", "emergency": "no", "healthcare": "hospital", "healthcare:speciality": "oncology", "name": "Centre Antoine Lacassagne", "phone": "+33 4 92 03 10 00", "ref:FR:FINESS": "060000528", "type": "multipolygon", "type:FR:FINESS": "131", "website": "https://www.centreantoinelacassagne.org/", "wikidata": "Q30281485"}}, {"name": "Centre hospitalier Sainte-Marie", "latitude": 43.7317024, "longitude": 7.282343, "source": "osm", "_tags": {"amenity": "hospital", "healthcare": "hospital", "landuse": "healthcare", "name": "Centre hospitalier Sainte-Marie", "ref:FR:FINESS": "060780996", "type": "multipolygon", "type:FR:FINESS": "292"}}, {"name": "Clinique du Palais", "latitude": 43.6578173, "longitude": 6.9297981, "source": "osm", "_tags": {"amenity": "hospital", "healthcare": "hospital", "name": "Clinique du Palais", "name:oc": "Clinica dau Palais", "source:name:oc": "ieo-bdtopoc", "type": "multipolygon"}}, {"name": "", "latitude": 43.5785224, "longitude": 7.0351282, "source": "osm", "_tags": {"amenity": "hospital", "healthcare": "hospital", "landuse": "healthcare", "type": "multipolygon", "wikidata": "Q108872290"}}, {"name": "Polyclinique Saint-Jean", "latitude": 43.6602807, "longitude": 7.1370721, "source": "osm", "_tags": {"amenity": "hospital", "emergency": "yes", "fax": "+33 4 92 13 55 51", "healthcare": "hospital", "name": "Polyclinique Saint-Jean", "operator": "Pôle Santé Saint Jean", "operator:type": "private", "phone": "+33 4 92 13 53 13", "ref:FR:FINESS": "060780517", "ref:FR:SIRET": "32494775300020", "start_date": "1967-01-01", "type": "multipolygon", "type:FR:FINESS": "365", "website": "https://www.polesantesaintjean.fr/"}}]