[{"name": "Hospital del Oriente - Francisco Grande Covián", "latitude": 43.3817545, "longitude": -5.1847754, "source": "osm", "_tags": {"addr:city": "Arriondas / Les Arriondes", "amenity": "hospital", "building": "hospital", "emergency": "yes", "healthcare": "hospital", "name": "Hospital del Oriente - Francisco Grande Covián", "network": "Servicio de Salud del Principado de  Asturias", "network:short": "SESPA", "operator:type": "publico", "wikidata": "Q87762318"}}, {"name": "Hospital del Oriente - Salud Mental", "latitude": 43.382724, "longitude": -5.1853942, "source": "osm", "_tags": {"addr:city": "Arriondas / Les Arriondes", "amenity": "hospital", "building": "yes", "name": "Hospital del Oriente - Salud Mental"}}, {"name": "Consultorio de Panes", "latitude": 43.3224502, "longitude": -4.58415, "source": "osm", "_tags": {"addr:city": "Panes", "addr:postcode": "33570", "addr:street": "La Plaza", "amenity": "hospital", "building": "yes", "emergency": "yes", "name": "Consultorio de Panes", "nohousenumber": "yes", "phone": "+34 985 414 043"}}]