[{"name": "Urgencias", "latitude": 43.4817206, "longitude": -5.4314488, "source": "osm", "_tags": {"addr:street": "Manuel Álvarez Miranda", "amenity": "hospital", "description": "Ambulatorio y Urgencias", "healthcare": "hospital", "name": "Urgencias", "phone": "+34 985892288"}}, {"name": "Ambulatorio de Sariego", "latitude": 43.4105081, "longitude": -5.5579701, "source": "osm", "_tags": {"addr:city": "Vega de Sariego", "amenity": "hospital", "healthcare": "hospital", "name": "Ambulatorio de Sariego"}}, {"name": "Cruz Roja", "latitude": 43.365424, "longitude": -5.8403971, "source": "osm", "_tags": {"addr:city": "Oviedo", "amenity": "hospital", "brand": "Cruz Roja", "emergency": "no", "healthcare": "hospital", "name": "Cruz Roja", "operator": "Cruz Roja", "operator:wikidata": "Q7178"}}, {"name": "Entrada Oncología Radioterápica", "latitude": 43.3763235, "longitude": -5.8300616, "source": "osm", "_tags": {"amenity": "hospital", "healthcare": "hospital", "healthcare:speciality": "radiotherapy", "name": "Entrada Oncología Radioterápica", "operator": "Hospital Universitario Central de Asturias"}}, {"name": "Centro de Salud Raices-Salinas", "latitude": 43.5736962, "longitude": -5.9470423, "source": "osm", "_tags": {"addr:postcode": "33405", "addr:street": "Avenida El Campón", "amenity": "hospital", "name": "Centro de Salud Raices-Salinas", "old_name": "Ambulatorio de Raíces", "phone": "+34985502625", "website": "https://www.astursalud.es/noticias/-/noticias/c-p-raices-salin-1"}}, {"name": "Hospital Alvarez Byulla", "latitude": 43.2264116, "longitude": -5.7814554, "source": "osm", "_tags": {"amenity": "hospital", "healthcare": "hospital", "name": "Hospital Alvarez Byulla"}}, {"name": "Centro PET Asturias Hospital de Jove", "latitude": 43.5511363, "longitude": -5.7029227, "source": "osm", "_tags": {"amenity": "hospital", "healthcare": "hospital", "healthcare:speciality": "radiology", "name": "Centro PET Asturias Hospital de Jove", "operator": "Hospital de Jove"}}, {"name": "Hospital de Cabueñes", "latitude": 43.5248755, "longitude": -5.606172, "source": "osm", "_tags": {"addr:city": "Gijón/Xixón", "addr:housenumber": "395", "addr:postcode": "33394", "addr:street": "Calle Los Prados", "amenity": "hospital", "building": "hospital", "emergency": "yes", "healthcare": "hospital", "name": "Hospital de Cabueñes", "network": "Servicio de Salud del Principado de Asturias", "network:short": "SESPA", "operator:type": "public", "wikidata": "Q19847505"}}, {"name": "Hospital Begoña", "latitude": 43.5349814, "longitude": -5.6477612, "source": "osm", "_tags": {"addr:city": "Gijón/Xixón", "addr:postcode": "33204", "addr:street": "Avenida de Pablo Iglesias", "amenity": "hospital", "building": "yes", "email": "hospitalbegona@hospitalbegona.com", "fax": "+34 985365385", "healthcare": "hospital", "ine:municipio": "Gijón/Xixón", "name": "Hospital Begoña", "phone": "+34985367711; +34985367233", "website": "https://www.hospitalbegona.com/", "wikidata": "Q87762316", "wikipedia": "es:Hospital Begoña"}}, {"name": "Hospital de Xove/Jove", "latitude": 43.5498951, "longitude": -5.7004798, "source": "osm", "_tags": {"addr:city": "Gijón/Xixón", "amenity": "hospital", "building": "yes", "healthcare": "hospital", "ine:municipio": "Gijón/Xixón", "name": "Hospital de Xove/Jove", "name:ast": "Hospital de Xove", "name:es": "Hospital de Jove", "phone": "+34 985320050", "source": "PNOA", "source:date": "2009", "website": "https://www.hospitaldejove.com/", "wheelchair": "yes", "wikidata": "Q30280059", "wikipedia": "es:Hospital de Jove"}}, {"name": "Hospital de la Cruz Roja", "latitude": 43.5385832, "longitude": -5.6546713, "source": "osm", "_tags": {"addr:city": "Gijón/Xixón", "addr:street": "Calle Uría", "amenity": "hospital", "building": "yes", "check_date": "2025-02-19", "healthcare": "hospital", "name": "Hospital de la Cruz Roja", "wikidata": "Q87762313"}}, {"name": "Hospital Valle del Nalón", "latitude": 43.32811, "longitude": -5.7217846, "source": "osm", "_tags": {"amenity": "hospital", "building": "yes", "check_date": "2025-01-09", "emergency": "yes", "healthcare": "hospital", "healthcare:speciality": "general", "name": "Hospital Valle del Nalón", "network": "Servicio de Salud del Principado de Asturias", "network:short": "SESPA", "operator": "Sespa", "operator:type": "public", "source": "PNOA", "wheelchair": "yes", "wikidata": "Q16576165"}}, {"name": "Ambulatorio Vallobín", "latitude": 43.3688403, "longitude": -5.8655738, "source": "osm", "_tags": {"addr:city": "Uviéu/Oviedo", "amenity": "doctors", "building": "apartments", "emergency": "yes", "healthcare": "hospital", "name": "Ambulatorio Vallobín"}}, {"name": "Hospital Álvarez Buylla", "latitude": 43.226462, "longitude": -5.781451, "source": "osm", "_tags": {"amenity": "hospital", "building": "yes", "emergency": "yes", "healthcare": "hospital", "healthcare:speciality": "general;psychiatry;paediatrics;ophthalmology;gynaecology", "name": "Hospital Álvarez Buylla", "network": "Servicio de Salud del Principado de Asturias", "network:short": "SESPA", "operator": "SESPA", "operator:type": "government", "wikidata": "Q5903199"}}, {"name": "Residencia Geriátrica y Hospital Gijón", "latitude": 43.5377316, "longitude": -5.6582842, "source": "osm", "_tags": {"addr:city": "Gijón/Xixón", "addr:housenumber": "45", "addr:postcode": "33205", "addr:street": "Avenida de la Costa", "amenity": "hospital", "building": "residential", "building:levels": "7", "healthcare": "hospital", "name": "Residencia Geriátrica y Hospital Gijón", "ref:ES:catastro": "5442016TP8254S", "roof:levels": "1", "rooms": "156", "stars": "2"}}, {"name": "Instituto Nacional de Silicosis", "latitude": 43.3740598, "longitude": -5.8275602, "source": "osm", "_tags": {"addr:city": "Oviedo / Uviéu", "amenity": "hospital", "building": "yes", "healthcare": "hospital", "name": "Instituto Nacional de Silicosis", "wikidata": "Q50040253"}}, {"name": "Ambulatorio de La Lila", "latitude": 43.3650212, "longitude": -5.8479084, "source": "osm", "_tags": {"addr:city": "Oviedo / Uviéu", "addr:housenumber": "2", "addr:postcode": "33002", "addr:street": "Calle la Lila", "amenity": "doctors", "building": "hospital", "check_date": "2023-05-26", "healthcare": "hospital", "name": "Ambulatorio de La Lila", "phone": "+34 985 10 89 00", "toilets:wheelchair": "yes", "wheelchair": "yes"}}, {"name": "Clínica Asturias", "latitude": 43.3678508, "longitude": -5.8561791, "source": "osm", "_tags": {"addr:city": "Oviedo / Uviéu", "addr:housenumber": "4", "addr:postcode": "33012", "addr:street": "Calle Naranjo de Bulnes", "amenity": "hospital", "building": "hospital", "healthcare": "hospital", "name": "Clínica Asturias", "phone": "+34 985 28 60 00", "wikidata": "Q87762270"}}, {"name": "Fundación Hospital de Avilés", "latitude": 43.5546307, "longitude": -5.9262591, "source": "osm", "_tags": {"amenity": "hospital", "building": "hospital", "emergency": "yes", "healthcare": "hospital", "name": "Fundación Hospital de Avilés", "wikidata": "Q63213563"}}, {"name": "Hospital Monte Naranco", "latitude": 43.3701552, "longitude": -5.8728157, "source": "osm", "_tags": {"amenity": "hospital", "healthcare": "hospital", "name": "Hospital Monte Naranco", "wikidata": "Q30280213"}}, {"name": "Centro PET Asturias Hospital de Jove", "latitude": 43.5511355, "longitude": -5.7028402, "source": "osm", "_tags": {"amenity": "hospital", "healthcare": "hospital", "name": "Centro PET Asturias Hospital de Jove"}}, {"name": "", "latitude": 43.5246969, "longitude": -5.6065974, "source": "osm", "_tags": {"addr:city": "Gijón/Xixón", "amenity": "hospital", "healthcare": "hospital"}}, {"name": "Hospital Universitario San Agustín", "latitude": 43.5516289, "longitude": -5.9356473, "source": "osm", "_tags": {"amenity": "hospital", "emergency": "yes", "healthcare": "hospital", "name": "Hospital Universitario San Agustín", "network": "Servicio de Salud del Principado de Asturias", "network:short": "SESPA", "operator:type": "public", "wikidata": "Q16576124"}}, {"name": "", "latitude": 43.5365687, "longitude": -5.8941516, "source": "osm", "_tags": {"amenity": "hospital", "healthcare": "hospital"}}, {"name": "", "latitude": 43.5298788, "longitude": -5.6491237, "source": "osm", "_tags": {"amenity": "hospital", "healthcare": "hospital"}}, {"name": "", "latitude": 43.5350006, "longitude": -5.6477488, "source": "osm", "_tags": {"addr:city": "Gijón/Xixón", "amenity": "hospital", "healthcare": "hospital"}}, {"name": "Futuro Hospital Quirón", "latitude": 43.5282077, "longitude": -5.6860631, "source": "osm", "_tags": {"amenity": "hospital", "healthcare": "hospital", "name": "Futuro Hospital Quirón"}}, {"name": "Hospital Universitario Central de Asturias", "latitude": 43.3759903, "longitude": -5.8277423, "source": "osm", "_tags": {"addr:city": "Oviedo / Uviéu", "amenity": "hospital", "building": "hospital", "emergency": "yes", "healthcare": "hospital", "height": "35", "multipolygon": "yes", "name": "Hospital Universitario Central de Asturias", "name:en": "Asturias Central University Hospital", "network": "Servicio de Salud del Principado de Asturias", "network:short": "SESPA", "operator:type": "publico", "short_name": "HUCA", "type": "multipolygon", "website": "http://www.hca.es", "wikidata": "Q7724411"}}, {"name": "Centro Médico de Asturias", "latitude": 43.3419043, "longitude": -5.874219, "source": "osm", "_tags": {"addr:street": "Calle Richard Grandío", "amenity": "hospital", "building": "hospital", "building:levels": "4", "healthcare": "hospital", "name": "Centro Médico de Asturias", "nohousenumber": "yes", "phone": "+34 985 23 03 00", "type": "multipolygon", "website": "https://www.centromedicodeasturias.com/", "wikidata": "Q87762268"}}, {"name": "Fundación Sanatorio Adaro", "latitude": 43.2922635, "longitude": -5.675175, "source": "osm", "_tags": {"amenity": "hospital", "building": "yes", "name": "Fundación Sanatorio Adaro", "phone": "+34 985 69 21 11", "type": "multipolygon", "website": "https://www.sanatorioadaro.com/", "wikidata": "Q21003611"}}]