[{"name": "O.C.E. Ospedale Civile Elbano", "latitude": 42.8158783, "longitude": 10.319724, "source": "osm", "_tags": {"amenity": "hospital", "healthcare": "hospital", "name": "O.C.E. Ospedale Civile Elbano"}}, {"name": "Pronto Soccorso", "latitude": 43.3154963, "longitude": 10.5313217, "source": "osm", "_tags": {"healthcare": "hospital", "healthcare:speciality": "emergency", "name": "Pronto Soccorso", "name:de": "Notaufnahme", "name:en": "emergency department", "operator": "Regione Toscana - ASL 6"}}, {"name": "", "latitude": 43.7749317, "longitude": 10.6005673, "source": "osm", "_tags": {"amenity": "hospital", "emergency": "no", "healthcare": "hospital"}}, {"name": "Distretto socio-sanitario Galleno", "latitude": 43.7734383, "longitude": 10.7179363, "source": "osm", "_tags": {"amenity": "hospital", "emergency": "no", "healthcare": "hospital", "name": "Distretto socio-sanitario Galleno"}}, {"name": "Guardia Medica", "latitude": 43.6754339, "longitude": 10.5480705, "source": "osm", "_tags": {"addr:city": "Cascina", "addr:housename": "Pubblica Assistenza", "addr:postcode": "56021", "addr:street": "Via della Vittoria", "amenity": "hospital", "emergency": "no", "healthcare": "hospital", "name": "Guardia Medica"}}, {"name": "Pronto Soccorso", "latitude": 43.7943077, "longitude": 10.268302, "source": "osm", "_tags": {"amenity": "hospital", "name": "Pronto Soccorso"}}, {"name": "Centro Medico Salus", "latitude": 43.3105477, "longitude": 10.5358947, "source": "osm", "_tags": {"addr:city": "Cecina", "addr:housenumber": "5", "addr:postcode": "57023", "addr:street": "Via Palmiro Togliatti", "amenity": "hospital", "email": "info@salustoscana.com", "healthcare": "hospital", "healthcare:speciality": "cardiology;general;orthopaedics;ophthalmology;gynaecology;otolaryngology;dermatology;psychiatry;urology;radiology;osteopathy;neurology;acupuncture;orthodontics;naturopathy;plastic_surgery;surgery", "name": "Centro Medico Salus", "operator": "Salus Toscana", "phone": "+39 0586 630142"}}, {"name": "Fondazione Toscana Gabriele Monasterio", "latitude": 43.7183646, "longitude": 10.4232187, "source": "osm", "_tags": {"healthcare": "hospital", "healthcare:speciality": "cardiology", "name": "Fondazione Toscana Gabriele Monasterio", "wikidata": "Q30296292"}}, {"name": "Pubblica Assistenza SS Sacramento", "latitude": 42.8158157, "longitude": 10.3312592, "source": "osm", "_tags": {"addr:city": "Portoferraio", "addr:housenumber": "4", "addr:postcode": "57037", "addr:street": "Via Camerini", "amenity": "hospital", "emergency": "yes", "healthcare": "hospital", "name": "Pubblica Assistenza SS Sacramento", "operator": "Ambulanze", "operator:type": "private_non_profit", "phone": "+39 0565 914010"}}, {"name": "Ambulatorio medico", "latitude": 43.4607731, "longitude": 10.5622511, "source": "osm", "_tags": {"addr:city": "Pastina", "addr:housenumber": "8", "addr:postcode": "56040", "addr:street": "Via San Bartolomeo", "amenity": "clinic", "emergency": "no", "healthcare": "hospital", "healthcare:speciality": "general", "name": "Ambulatorio medico", "operator": "Medico", "operator:type": "public"}}, {"name": "Ambulatorio medico di base", "latitude": 43.4325859, "longitude": 10.5666002, "source": "osm", "_tags": {"addr:city": "Pomaia", "addr:housenumber": "241", "addr:postcode": "56040", "addr:street": "Via del Commercio sud", "amenity": "hospital", "emergency": "no", "healthcare": "doctor", "healthcare:speciality": "general", "name": "Ambulatorio medico di base", "operator": "Medico", "operator:type": "public"}}, {"name": "RSA Mimosa", "latitude": 43.7210782, "longitude": 10.4687874, "source": "osm", "_tags": {"amenity": "social_facility", "emergency": "no", "healthcare": "hospital", "name": "RSA Mimosa", "social_facility": "assisted_living"}}, {"name": "Ospedale \"Felice Lotti\"", "latitude": 43.659201, "longitude": 10.6343013, "source": "osm", "_tags": {"amenity": "hospital", "emergency": "yes", "healthcare": "hospital", "name": "Ospedale \"Felice Lotti\"", "operator:type": "public", "wheelchair": "yes", "wikidata": "Q3886601", "wikipedia": "it:Ospedale Felice Lotti"}}, {"name": "Spedali Riuniti", "latitude": 43.5503837, "longitude": 10.3246071, "source": "osm", "_tags": {"amenity": "hospital", "barrier": "wall", "emergency": "yes", "healthcare": "hospital", "name": "Spedali Riuniti", "operator": "Regione Toscana - USL 6", "wikidata": "Q3966438", "wikipedia": "it:Spedali Riuniti"}}, {"name": "Casa di Cura \"Villa Tirrena\"", "latitude": 43.5377271, "longitude": 10.3075013, "source": "osm", "_tags": {"amenity": "hospital", "building": "yes", "healthcare": "hospital", "name": "Casa di Cura \"Villa Tirrena\""}}, {"name": "Pubblica Assistenza S.R. Pisa", "latitude": 43.7100847, "longitude": 10.4291341, "source": "osm", "_tags": {"addr:city": "Pisa", "addr:housenumber": "2", "addr:postcode": "56124", "addr:street": "Via Italo Bargagna", "amenity": "hospital", "email": "info@papisa.it", "emergency": "no", "healthcare": "hospital", "name": "Pubblica Assistenza S.R. Pisa", "operator": "Pubblica Assistenza S.R. Pisa", "operator:type": "private_non_profit", "phone": "+39800500580", "website": "https://www.papisa.it/"}}, {"name": "Ospedale di Cecina", "latitude": 43.3152602, "longitude": 10.5305929, "source": "osm", "_tags": {"alt_name": "Bassa Val di Cecina", "amenity": "hospital", "emergency": "yes", "healthcare": "hospital", "name": "Ospedale di Cecina", "operator": "Regione Toscana - ASL 6", "operator:type": "public"}}, {"name": "Ambulatorio Palazzo Blu", "latitude": 43.6559231, "longitude": 10.6189572, "source": "osm", "_tags": {"amenity": "hospital", "building": "yes", "healthcare": "hospital", "name": "Ambulatorio Palazzo Blu", "operator": "ASL", "operator:wikidata": "Q3631467"}}, {"name": "Azienda USL Toscana Nord Ovest", "latitude": 43.6576881, "longitude": 10.6311385, "source": "osm", "_tags": {"amenity": "hospital", "building": "hospital", "building:levels": "4", "healthcare": "hospital", "healthcare:speciality": "general", "name": "Azienda USL Toscana Nord Ovest", "operator": "ASL", "operator:type": "public", "operator:wikidata": "Q3631467"}}, {"name": "Distretto Socio-sanitario Via Fleming", "latitude": 43.6580187, "longitude": 10.631093, "source": "osm", "_tags": {"amenity": "hospital", "building": "yes", "healthcare": "hospital", "name": "Distretto Socio-sanitario Via Fleming", "operator": "ASL", "operator:wikidata": "Q3631467"}}, {"name": "Casa della Salute La Rosa", "latitude": 43.5404376, "longitude": 10.7016836, "source": "osm", "_tags": {"addr:housenumber": "6", "addr:street": "Via Giuseppe Verdi", "amenity": "hospital", "building": "yes", "healthcare": "hospital", "name": "Casa della Salute La Rosa", "operator": "Azienda USL Toscana Nord Ovest", "operator:wikidata": "Q3631467", "operator:wikipedia": "it:Azienda sanitaria locale"}}, {"name": "IRCCS Stella Maris", "latitude": 43.6079797, "longitude": 10.2928252, "source": "osm", "_tags": {"alt_name": "IRCCS Fondazione Stella Maris", "amenity": "hospital", "emergency": "no", "healthcare": "hospital", "healthcare:speciality": "paediatrics;neurology", "name": "IRCCS Stella Maris", "website": "https://www.fsm.unipi.it/", "wikidata": "Q30256523", "wikipedia": "it:Fondazione Stella Maris"}}, {"name": "Presidio Distrettuale di Cascina", "latitude": 43.6871086, "longitude": 10.5004884, "source": "osm", "_tags": {"amenity": "doctors", "emergency": "no", "healthcare": "hospital", "name": "Presidio Distrettuale di Cascina", "wheelchair": "yes"}}, {"name": "", "latitude": 43.6067676, "longitude": 10.293345, "source": "osm", "_tags": {"amenity": "hospital", "healthcare": "hospital"}}, {"name": "Casa di Cura San Rossore", "latitude": 43.7239158, "longitude": 10.3752382, "source": "osm", "_tags": {"addr:city": "Pisa", "addr:housenumber": "152f", "addr:postcode": "56122", "addr:street": "Viale delle Cascine", "amenity": "hospital", "emergency": "no", "healthcare": "hospital", "name": "Casa di Cura San Rossore", "phone": "+39 050 586111", "website": "https://www.casadicurasanrossore.it/"}}, {"name": "Asl 5 Presidio Distrettuale Vecchiano", "latitude": 43.784555, "longitude": 10.3847116, "source": "osm", "_tags": {"amenity": "hospital", "emergency": "no", "healthcare": "hospital", "healthcare:speciality": "general", "name": "Asl 5 Presidio Distrettuale Vecchiano", "operator": "Azienda USL Toscana Nord Ovest", "operator:wikidata": "Q98852439"}}, {"name": "Polo Ospedaliero \"Santa Chiara\"", "latitude": 43.7206386, "longitude": 10.3931005, "source": "osm", "_tags": {"alt_name": "Ospedale di Santa Chiara", "amenity": "hospital", "emergency": "no", "healthcare": "hospital", "name": "Polo Ospedaliero \"Santa Chiara\"", "wikidata": "Q28670974", "wikipedia": "it:Ospedale Santa Chiara"}}, {"name": "Azienda USL Toscana Nord Ovest - Distretto Collesalvetti", "latitude": 43.5894091, "longitude": 10.4777853, "source": "osm", "_tags": {"amenity": "hospital", "healthcare": "hospital", "name": "Azienda USL Toscana Nord Ovest - Distretto Collesalvetti", "website": "https://www.uslnordovest.toscana.it/distretti/1027-distretto-di-collesalvetti-stagno"}}, {"name": "ASL 5", "latitude": 43.7141933, "longitude": 10.6225899, "source": "osm", "_tags": {"amenity": "hospital", "building": "public", "healthcare": "hospital", "height": "4.17", "name": "ASL 5", "operator": "ASL", "operator:type": "public", "operator:wikidata": "Q3631467", "operator:wikipedia": "it:Azienda sanitaria locale"}}, {"name": "", "latitude": 43.7568334, "longitude": 10.4423146, "source": "osm", "_tags": {"amenity": "hospital", "emergency": "no", "healthcare": "hospital", "healthcare:speciality": "internal"}}, {"name": "Azienda USL Toscana Nord Ovest - Distretto Campiglia Marittima", "latitude": 43.0590084, "longitude": 10.6248531, "source": "osm", "_tags": {"amenity": "hospital", "healthcare": "hospital", "name": "Azienda USL Toscana Nord Ovest - Distretto Campiglia Marittima", "operator": "Azienda USL Toscana Nord Ovest", "operator:type": "public"}}, {"name": "MiniHospital Sandro Pertini", "latitude": 43.5907211, "longitude": 10.6744663, "source": "osm", "_tags": {"amenity": "hospital", "healthcare": "hospital", "name": "MiniHospital Sandro Pertini"}}, {"name": "Ospedale Cisanello", "latitude": 43.7052616, "longitude": 10.4421632, "source": "osm", "_tags": {"addr:city": "Pisa", "addr:housenumber": "2", "addr:postcode": "56124", "addr:street": "Via Pietro Trivella", "amenity": "hospital", "emergency": "yes", "healthcare": "hospital", "name": "Ospedale Cisanello", "phone": "+39 050 992111", "type": "multipolygon", "website": "https://www.ao-pisa.toscana.it/", "wikidata": "Q17637804", "wikipedia": "it:Ospedale Cisanello"}}, {"name": "Ospedale Villamarina", "latitude": 42.9400347, "longitude": 10.5119104, "source": "osm", "_tags": {"amenity": "hospital", "emergency": "yes", "healthcare": "hospital", "name": "Ospedale Villamarina", "type": "multipolygon"}}]