[{"name": "Hospital Arquitecto Marcide", "latitude": 43.510489, "longitude": -8.2160557, "source": "osm", "_tags": {"addr:city": "Ferrol", "addr:country": "ES", "addr:postcode": "15405", "addr:street": "Avenida Residencia", "amenity": "hospital", "building": "hospital", "emergency": "yes", "healthcare": "hospital", "layer": "1", "name": "Hospital Arquitecto Marcide", "name:etymology:wikidata": "Q16601162", "name:etymology:wikipedia": "Q16601162", "network": "Servizo Galego de Saúde", "network:short": "SERGAS", "network:wikidata": "Q3393183", "operator": "Servizo Galego de Saúde", "operator:type": "government", "operator:wikidata": "Q3393183", "phone": "+34 981334000", "short_name": "CHUF", "source": "Catastro de España;PNOA - Instituto Gráfico Nacional", "start_date": "1976", "wikidata": "Q30280004"}}, {"name": "Hospital Profesor Nóvoa Santos", "latitude": 43.5155252, "longitude": -8.2190937, "source": "osm", "_tags": {"addr:city": "Ferrol", "addr:country": "ES", "addr:housenumber": "730", "addr:postcode": "15405", "addr:street": "Estrada de Catabois", "amenity": "hospital", "emergency": "yes", "healthcare": "hospital", "name": "Hospital Profesor Nóvoa Santos", "name:etymology:wikidata": "Q3398870", "network": "Servizo Galego de Saúde", "network:short": "SERGAS", "network:wikidata": "Q3393183", "operator": "Servizo Galego de Saúde", "operator:type": "government", "operator:wikidata": "Q3393183", "phone": "+34 981 334000", "short_name": "CHUF", "start_date": "1953", "website": "https://ferrol.sergas.gal"}}, {"name": "Hospital Xeral Ribera Juan Cardona", "latitude": 43.4803674, "longitude": -8.2027204, "source": "osm", "_tags": {"addr:city": "Ferrol", "addr:country": "ES", "addr:postcode": "15406", "addr:street": "Rúa Pardo Bazán", "amenity": "hospital", "emergency": "yes", "healthcare": "hospital", "name": "Hospital Xeral Ribera Juan Cardona", "name:es": "Hospital General Ribera Juan Cardona", "name:gl": "Hospital Xeral Ribera Juan Cardona", "operator:type": "private", "phone": "+34 981 312500", "website": "https://www.riberasalud.com/gl/juan-cardona/", "wikidata": "Q87761741"}}, {"name": "Hospital Psiquiátrico de Calde", "latitude": 42.9550672, "longitude": -7.6015807, "source": "osm", "_tags": {"addr:city": "Lugo", "addr:country": "ES", "addr:postcode": "27210", "addr:street": "Rúa Calde", "amenity": "hospital", "building": "yes", "emergency": "yes", "healthcare": "hospital", "name": "Hospital Psiquiátrico de Calde", "name:etymology:wikidata": "Q20547000", "network": "Servizo Galego de Saúde", "network:short": "SERGAS", "network:type": "public", "network:wikidata": "Q3393183", "operator": "Servizo Galego de Saúde", "operator:short": "SERGAS", "operator:type": "public", "operator:wikidata": "Q87762003", "phone": "+34 982296000", "wikidata": "Q87762003"}}, {"name": "Hospital Universitario Lucus Augusti", "latitude": 43.0205672, "longitude": -7.5332251, "source": "osm", "_tags": {"addr:city": "Lugo", "addr:housenumber": "1", "addr:postcode": "27004", "addr:street": "Rúa Doutor Ulises Romero", "amenity": "hospital", "emergency": "yes", "healthcare": "hospital", "name": "Hospital Universitario Lucus Augusti", "name:es": "Hospital Universitario Lucus Augusti", "name:etymology:wikidata": "Q21095150", "name:gl": "Hospital Universitario Lucus Augusti", "network": "Servizo Galego de Saúde", "network:short": "SERGAS", "network:wikidata": "Q3393183", "operator": "Servizo Galego de Saúde", "operator:type": "public", "operator:wikidata": "Q3393183", "short_name": "HULA", "sorting_name": "Lucus Augusti, Hospital Universitario", "start_date": "2010", "wheelchair": "yes", "wikidata": "Q20544953", "wikipedia": "gl:Hospital Universitario Lucus Augusti"}}, {"name": "A Cruz Vermella", "latitude": 43.6580681, "longitude": -8.0634943, "source": "osm", "_tags": {"amenity": "hospital", "building": "yes", "healthcare": "hospital", "name": "A Cruz Vermella", "operator": "Cruz Roja", "operator:wikidata": "Q7178", "source": "PNOA", "source:date": "2014"}}, {"name": "Hospital Quirónsalud Lugo", "latitude": 43.0115835, "longitude": -7.5619103, "source": "osm", "_tags": {"addr:city": "Lugo", "addr:country": "ES", "addr:housenumber": "23", "addr:postcode": "27001", "addr:street": "Rúa Montevideo", "amenity": "hospital", "contact:phone": "+34 900301013", "healthcare": "hospital", "landuse": "healthcare", "name": "Hospital Quirónsalud Lugo", "old_name": "Sanatorio Nosa Señora dos Ollos Grandes", "operator": "Quirónsalud", "operator:type": "private", "operator:wikidata": "Q5886225", "source": "catastro", "source:date": "2014-01", "wikidata": "Q87762008"}}, {"name": "Cruz Vermella", "latitude": 43.6605135, "longitude": -7.3562801, "source": "osm", "_tags": {"amenity": "hospital", "building": "yes", "healthcare": "hospital", "name": "Cruz Vermella", "operator": "Cruz Roja", "operator:wikidata": "Q7178"}}, {"name": "Hospital Naval", "latitude": 43.5125771, "longitude": -8.2106385, "source": "osm", "_tags": {"addr:city": "Ferrol", "addr:country": "ES", "addr:place": "Lugar A Pega", "addr:postcode": "15405", "amenity": "hospital", "emergency": "yes", "healthcare": "hospital", "name": "Hospital Naval", "network": "Servizo Galego de Saúde", "network:short": "SERGAS", "network:wikidata": "Q3393183", "nohousenumber": "yes", "operator": "Servizo Galego de Saúde", "operator:type": "government", "operator:wikidata": "Q3393183", "phone": "+34 981 334 000", "short_name": "CHUF", "start_date": "2008", "wikidata": "Q87798344"}}]