[{"name": "Clinique Cardiologique", "latitude": 43.2779107, "longitude": -0.3264984, "source": "osm", "_tags": {"amenity": "hospital", "fax": "+33 5 59 82 26 82", "healthcare": "hospital", "healthcare:speciality": "cardiology", "name": "Clinique Cardiologique", "phone": "+33 5 59 82 26 26", "ref:FR:FINESS": "640781225", "ref:FR:SIRET": "38435605100019", "source": "Bing ; cadastre-dgi-fr source : Direction Générale des Impôts - Cadastre. Mise à jour : 2012; Le ministère des solidarités et de la santé - 03/2019", "type:FR:FINESS": "129"}}, {"name": "Établissement Thermal", "latitude": 42.9713308, "longitude": -0.3909223, "source": "osm", "_tags": {"amenity": "hospital", "healthcare": "hospital", "name": "Établissement Thermal", "ref:FR:FINESS": "640780029", "type:FR:FINESS": "126"}}, {"name": "Hôpital de Saint-Sever", "latitude": 43.7573503, "longitude": -0.5713132, "source": "osm", "_tags": {"amenity": "hospital", "email": "direction@ch-st-sever.fr", "emergency": "no", "fax": "+33 5 58 76 45 55", "healthcare": "hospital", "name": "Hôpital de Saint-Sever", "phone": "+33 5 58 76 45 45", "ref:FR:FINESS": "400000147", "source": "Le ministère des solidarités et de la santé - 08/2018", "website": "http://www.hopital-saint-sever.fr/"}}, {"name": "Clinique Korian Napoléon", "latitude": 43.7298703, "longitude": -1.0657972, "source": "osm", "_tags": {"amenity": "hospital", "capacity": "90", "contact:housenumber": "368", "contact:street": "Allée de Christus", "description": "La clinique Korian Napoléon est spécialisée dans la prise en charge des conséquences fonctionnelles des affections du système nerveux et locomoteur.", "emergency": "no", "fax": "+33558918854", "healthcare": "clinic", "healthcare:speciality": "orthopaedics", "name": "Clinique Korian Napoléon", "opening_hours": "Mo-Su 09:00-12:00, 14:00-18:00", "operator": "Korian", "operator:type": "private", "phone": "+33 5 58 91 22 00", "ref:FR:FINESS": "400780102", "ref:FR:NAF": "86.10Z", "ref:FR:SIRET": "32745793300015", "source": "Le ministère des solidarités et de la santé - 2021-03", "type:FR:FINESS": "109", "website": "https://www.korian.fr/clinique-ssr/ssr-korian-napoleon-saint-paul-les-dax-40990/"}}, {"name": "Clinique Jean-le-Bon", "latitude": 43.7020247, "longitude": -1.0593304, "source": "osm", "_tags": {"addr:city": "Dax", "addr:housenumber": "35", "addr:postcode": "40100", "addr:street": "Rue Jean le Bon", "amenity": "hospital", "description": "Spécialisée dans la prise en charge et la prévention des pathologies liées au sport et aux pathologies dégénératives liées à l’âge.", "emergency": "no", "healthcare": "hospital", "healthcare:speciality": "orthopaedics", "name": "Clinique Jean-le-Bon", "operator": "Ramsay Santé", "operator:type": "private", "operator:wikidata": "Q3123085", "phone": "+33 5 36 28 80 80", "ref:FR:FINESS": "400780342", "ref:FR:SIRET": "98722029000017", "social_facility": "ambulatory_care", "source": "Le ministère des solidarités et de la santé - 2021-03", "type:FR:FINESS": "365", "type:FR:NAF": "8610Z", "website": "https://clinique-jean-le-bon-dax.ramsaygds.fr/"}}, {"name": "Foyer Bernadotte", "latitude": 43.2974383, "longitude": -0.3724029, "source": "osm", "_tags": {"amenity": "hospital", "contact:city": "Pau", "contact:housenumber": "3", "contact:postcode": "64000", "contact:street": "Rue Bernadotte", "name": "Foyer Bernadotte", "operator": "Centre Hospitalier des Pyrénées-Pau", "operator:ref:FR:SIREN": "266405612", "operator:type": "public", "ref:FR:NAF": "86.10Z", "ref:FR:SIRET": "26640561200380"}}, {"name": "Centre hospitalier de Pau", "latitude": 43.3262762, "longitude": -0.3471658, "source": "osm", "_tags": {"alt_name": "Hôpital François Mitterrand", "amenity": "hospital", "contact:city": "Pau", "contact:email": "contact@ch-pau.fr", "contact:fax": "+33 5 59 72 69 42", "contact:housenumber": "4", "contact:phone": "+33 5 59 92 48 48", "contact:postcode": "64000", "contact:street": "Boulevard Hauterive", "contact:website": "https://www.ch-pau.fr/", "emergency": "yes", "healthcare": "hospital", "healthcare:speciality": "intensive", "name": "Centre hospitalier de Pau", "operator": "Centre hospitalier de Pau", "operator:ref:FR:SIREN": "266405521", "operator:type": "public", "ref:FR:FINESS": "640000600", "ref:FR:NAF": "86.10Z", "ref:FR:SIRET": "26640552100110", "type:FR:FINESS": "355", "wheelchair": "yes", "wikidata": "Q50036402"}}, {"name": "Clinique Princess", "latitude": 43.3237759, "longitude": -0.3487804, "source": "osm", "_tags": {"amenity": "hospital", "email": "contact@clinique-princess.com", "fax": "+33 5 59 02 13 33", "healthcare": "hospital", "name": "Clinique Princess", "operator:type": "private", "phone": "+33 5 59 02 55 32", "ref:FR:FINESS": "640781308", "source": "cadastre-dgi-fr source : Direction Générale des Impôts - Cadastre. Mise à jour : 2010", "type:FR:FINESS": "129", "website": "http://www.clinique-princess.com/"}}, {"name": "Centre hospitalier spécialisé des Pyrénées", "latitude": 43.3023847, "longitude": -0.3373949, "source": "osm", "_tags": {"amenity": "hospital", "contact:city": "Pau", "contact:housenumber": "29", "contact:postcode": "64000", "contact:street": "Avenue du Général Leclerc", "contact:website": "https://www.ch-pyrenees.fr/", "emergency": "yes", "healthcare": "hospital", "healthcare:speciality": "psychiatry", "name": "Centre hospitalier spécialisé des Pyrénées", "operator": "Centre Hospitalier des Pyrénées-Pau", "operator:ref:FR:SIREN": "266405612", "operator:type": "public", "ref:FR:FINESS": "640000436", "ref:FR:NAF": "86.10Z", "ref:FR:SIRET": "26640561200018", "short_name": "CHP", "source": "Le ministère des solidarités et de la santé - 03/2019"}}, {"name": "Centre Jean Vignalou", "latitude": 43.3258104, "longitude": -0.3444865, "source": "osm", "_tags": {"amenity": "hospital", "building": "hospital", "building:levels": "4", "emergency": "no", "healthcare": "hospital", "name": "Centre Jean Vignalou", "operator": "Centre hospitalier de Pau", "ref:FR:FINESS": "640791893", "roof:levels": "0", "roof:shape": "flat", "social_facility": "group_home", "social_facility:for": "senior", "source": "cadastre-dgi-fr source : Direction Générale des Impôts - Cadastre. Mise à jour : 2010", "type:FR:FINESS": "362", "wheelchair": "yes", "wikidata": "Q112921478"}}, {"name": "Groupe de radiothérapie et d'oncologie des Pyrénées", "latitude": 43.3040857, "longitude": -0.3637523, "source": "osm", "_tags": {"amenity": "hospital", "building": "yes", "fax": "+33 5 59 80 20 58", "healthcare": "hospital", "name": "Groupe de radiothérapie et d'oncologie des Pyrénées", "phone": "+33 5 59 92 72 75", "ref:FR:FINESS": "640005393", "source": "cadastre-dgi-fr source : Direction Générale des Impôts - Cadastre. Mise à jour : 2010", "type:FR:FINESS": "698", "website": "http://www.pole-marzet.fr/oncologie/"}}, {"name": "Hôpital de Mauléon", "latitude": 43.2179287, "longitude": -0.8899121, "source": "osm", "_tags": {"amenity": "hospital", "building": "yes", "healthcare": "hospital", "name": "Hôpital de Mauléon", "ref:FR:FINESS": "640000428", "source": "cadastre-dgi-fr source : Direction Générale des Impôts - Cadastre. Mise à jour : 2010"}}, {"name": "Hopital de jour à Montfort-en-Chalosse", "latitude": 43.7100883, "longitude": -0.8399023, "source": "osm", "_tags": {"addr:city": "Montfort-en-Chalosse", "addr:housenumber": "50", "addr:postcode": "40380", "addr:street": "Avenue Jean Jaurès", "amenity": "hospital", "building": "yes", "emergency": "no", "healthcare": "hospital", "healthcare:speciality": "psychiatry", "name": "Hopital de jour à Montfort-en-Chalosse", "phone": "+33 5 58 05 20 23", "ref:FR:FINESS": "400013371", "source": "cadastre-dgi-fr source : Direction Générale des Impôts - Cadastre. Mise à jour : 2011", "type:FR:FINESS": "355"}}, {"name": "Centre Médical Infantile de Montpribat", "latitude": 43.7008763, "longitude": -0.8526833, "source": "osm", "_tags": {"addr:city": "Montfort-en-Chalosse", "addr:housenumber": "1444", "addr:street": "Chemin Aliénor d'Aquitaine", "amenity": "clinic", "emergency": "no", "fax": "+33558985716", "healthcare": "hospital", "healthcare:speciality": "psychiatry", "name": "Centre Médical Infantile de Montpribat", "opening_hours": "Mo-Su 09:00-12:00, 14:00-18:00", "operator:type": "public", "phone": "+33 5 58 98 60 28", "ref:FR:FINESS": "400780482", "ref:FR:SIRET": "30502384800016", "source": "Le ministère des solidarités et de la santé - 2021-03", "type:FR:FINESS": "109", "website": "https://www.reppop-aquitaine.org/prise-en-charge-du-patient/le-centre-medical-infantile-montpribat"}}, {"name": "Le Lanot", "latitude": 43.6899138, "longitude": -1.0779131, "source": "osm", "_tags": {"addr:street": "Route des Roches", "amenity": "hospital", "description": "Centre de soins pour personnes âgées.", "emergency": "no", "healthcare": "hospital", "healthcare:speciality": "geriatrics", "name": "Le Lanot", "operator": "CH de Dax", "operator:type": "public", "phone": "+33 5 58 91 49 54", "ref:FR:FINESS": "400787354", "source": "Le ministère des solidarités et de la santé - 08/2018", "type:FR:FINESS": "355"}}, {"name": "Centre hospitalier de Dax-Côte d'Argent", "latitude": 43.7116967, "longitude": -1.0399162, "source": "osm", "_tags": {"addr:city": "Dax", "addr:housenumber": "51", "addr:postcode": "40100", "addr:street": "Boulevard Yves du Manoir", "amenity": "hospital", "emergency": "yes", "fax": "+33 5 58 91 48 75", "healthcare": "hospital", "healthcare:speciality": "intensive", "name": "Centre hospitalier de Dax-Côte d'Argent", "opening_hours": "24/7", "operator:type": "public", "phone": "+33 5 58 91 48 48", "ref:FR:FINESS": "400000105", "ref:FR:NAF": "86.10Z", "ref:FR:SIRET": "26400332800087", "type:FR:FINESS": "355", "website": "https://www.ch-dax.fr/"}}, {"name": "Centre hospitalier de Saint-Palais", "latitude": 43.3261449, "longitude": -1.0271045, "source": "osm", "_tags": {"amenity": "hospital", "building": "hospital", "email": "direction@ch-saintpalais.fr", "emergency": "yes", "fax": "+33 5 59 65 82 91", "healthcare": "hospital", "name": "Centre hospitalier de Saint-Palais", "operator:type": "public", "phone": "+33 5 59 65 45 35", "ref:FR:FINESS": "640017646", "source": "cadastre-dgi-fr source : Direction Générale des Finances Publiques - Cadastre. Mise à jour : 2013", "type:FR:FINESS": "355", "website": "https://www.ch-saintpalais.fr/", "wikidata": "Q95129201"}}, {"name": "Centre hospitalier d'Oloron", "latitude": 43.1962563, "longitude": -0.616898, "source": "osm", "_tags": {"addr:city": "Oloron-Sainte-Marie", "addr:street": "Avenue Alexandre Fleming", "amenity": "hospital", "emergency": "yes", "healthcare": "hospital", "name": "Centre hospitalier d'Oloron", "operator:type": "public", "ref:FR:FINESS": "640000410", "type:FR:FINESS": "355"}}, {"name": "Centre Hospitalier - Site de Saint-Pée", "latitude": 43.1877779, "longitude": -0.6312877, "source": "osm", "_tags": {"amenity": "hospital", "emergency": "no", "healthcare": "hospital", "name": "Centre Hospitalier - Site de Saint-Pée", "ref:FR:FINESS": "640015921", "source": "Le ministère des solidarités et de la santé - 08/2018"}}, {"name": "Clinique Maylis", "latitude": 43.7021359, "longitude": -1.004161, "source": "osm", "_tags": {"addr:housenumber": "31", "addr:street": "Rue du Docteur Noyer", "amenity": "hospital", "description": "Établissement psychiatrique, qui accueille en hospitalisation complète des patients adultes atteints de troubles psychiatriques et/ou dépendants à l’alcool.", "emergency": "no", "healthcare": "clinic", "healthcare:speciality": "psychiatry", "name": "Clinique Maylis", "opening_hours": "Mo-Fr 09:00-12:00, 14:00-17:30", "operator": "Inicea", "operator:type": "private", "phone": "+33 5 58 56 41 00", "ref:FR:FINESS": "400780375", "ref:FR:SIRET": "34775713000013"}}, {"name": "Centre hospitalier d'Orthez", "latitude": 43.4853923, "longitude": -0.7716955, "source": "osm", "_tags": {"amenity": "hospital", "emergency": "yes", "fax": "+33 5 59 69 70 00", "healthcare": "hospital", "name": "Centre hospitalier d'Orthez", "operator:type": "public", "phone": "+33 5 59 69 70 70", "ref:FR:FINESS": "640000402", "type:FR:FINESS": "355", "website": "https://www.ch-orthez.fr/", "wheelchair": "yes"}}, {"name": "Polyclinique de Navarre", "latitude": 43.3243739, "longitude": -0.3503655, "source": "osm", "_tags": {"amenity": "hospital", "fax": "+33 5 59 14 55 54", "healthcare": "hospital", "name": "Polyclinique de Navarre", "operator:type": "private", "phone": "+33 5 59 14 54 54", "ref:FR:FINESS": "640780946", "type:FR:FINESS": "365", "website": "http://www.cliniquedenavarre.com/default.aspx"}}, {"name": "Clinique Les Jeunes Chênes", "latitude": 43.32772, "longitude": -0.3526263, "source": "osm", "_tags": {"amenity": "clinic", "fax": "+33 5 59 02 19 19", "healthcare": "hospital", "name": "Clinique Les Jeunes Chênes", "operator": "Orpéa", "operator:type": "private", "phone": "+33 5 59 02 19 20", "ref:FR:FINESS": "640005591", "ref:FR:SIRET": "30116075000578", "source": "cadastre-dgi-fr source : Direction Générale des Impôts - Cadastre. Mise à jour : 2010;Le ministère des solidarités et de la santé - 2022-01", "type:FR:FINESS": "109", "website": "https://www.clinea.fr/clinique-les-jeunes-chenes-pau-64"}}, {"name": "Polyclinique Marzet", "latitude": 43.3041515, "longitude": -0.3647765, "source": "osm", "_tags": {"amenity": "hospital", "email": "clinique.marzet@marzet.fr", "emergency": "yes", "fax": "+33 5 59 02 41 26", "healthcare": "hospital", "name": "Polyclinique Marzet", "operator:type": "private", "phone": "+33 5 59 92 72 72", "ref:FR:FINESS": "640780938", "type:FR:FINESS": "365", "website": "http://www.pole-marzet.fr/marzet/", "wheelchair": "yes"}}, {"name": "Hôpital Thermal", "latitude": 43.7062279, "longitude": -1.0510499, "source": "osm", "_tags": {"addr:housenumber": "1", "addr:street": "Rue Labadie", "amenity": "hospital", "description": "L’hôpital thermal de Dax permet à certains patients en perte d’autonomie ou présentant un handicap de suivre une cure thermale conventionnée avec hospitalisation et hébergement.", "emergency": "no", "healthcare": "hospital", "healthcare:speciality": "rheumatology;phlebology", "name": "Hôpital Thermal", "operator": "Centre Hospitalier de Dax-Côte d'Argent", "operator:type": "public", "phone": "+33 5 58 91 48 11", "ref:FR:FINESS": "400782777", "ref:FR:NAF": "86.10Z", "type:FR:FINESS": "355", "wheelchair": "yes"}}, {"name": "PASS", "latitude": 43.3259295, "longitude": -0.3466079, "source": "osm", "_tags": {"addr:city": "PAU", "addr:housenumber": "4", "addr:postcode": "64000", "addr:street": "Boulevard Hauterive", "amenity": "hospital", "check_date": "2025-02-25", "description": "L’objectif de la PASS est de permettre à toute personne en difficulté de ne pas renoncer aux soins en lui proposant soit une réponse ponctuelle, soit une aide lui permettant de retrouver ses droits.", "healthcare": "hospital", "healthcare:speciality": "general", "image": "https://upload.wikimedia.org/wikipedia/fr/a/a2/Logo_des_pass.jpg", "name": "PASS", "operator": "Centre Hospitalier de Pau", "operator:type": "public", "phone": "+335 59 72 69 40", "website": "https://www.ch-pau.fr/espace-patient/pole-pass-permanence-daccas-aux-soins-1/", "wheelchair": "yes"}}, {"name": "Centre Hospitalier de Saint Sever", "latitude": 43.7571253, "longitude": -0.571289, "source": "osm", "_tags": {"addr:city": "Saint-Sever", "addr:housenumber": "3", "addr:street": "Rue de la Guillerie", "building": "yes", "healthcare": "hospital", "name": "Centre Hospitalier de Saint Sever", "phone": "+33 5 58 76 45 45", "source": "cadastre-dgi-fr source : Direction Générale des Impôts - Cadastre. Mise à jour : 2023", "website": "https://ch-saint-sever.fr/"}}, {"name": "Établissement public de santé de Garazi - Site Luro", "latitude": 43.1697151, "longitude": -1.2325795, "source": "osm", "_tags": {"amenity": "hospital", "healthcare": "hospital", "name": "Établissement public de santé de Garazi - Site Luro", "ref:FR:FINESS": "640787156", "short_name": "EPS de Garazi - Site Luro", "source": "Le ministère des solidarités et de la santé - 03/2019"}}, {"name": "", "latitude": 43.4818839, "longitude": -0.7648671, "source": "osm", "_tags": {"amenity": "hospital", "healthcare": "hospital", "healthcare:speciality": "psychiatry", "operator": "Centre Hospitalier des Pyrénées", "website": "https://www.ch-pyrenees.fr/secteurs/c-m-p-e-a-h-j-orthez/"}}]