[{"name": "Cruz Roja", "latitude": 43.572245, "longitude": -6.9447078, "source": "osm", "_tags": {"amenity": "hospital", "healthcare": "hospital", "name": "Cruz Roja", "operator": "Cruz Roja", "operator:type": "ngo", "operator:wikidata": "Q7178", "operator:wikipedia": "es:Cruz Roja"}}, {"name": "Hospital Carmen y Severo Ochoa", "latitude": 43.1657542, "longitude": -6.5415136, "source": "osm", "_tags": {"amenity": "hospital", "building": "hospital", "emergency": "yes", "healthcare": "hospital", "name": "Hospital Carmen y Severo Ochoa", "network": "Servicio de Saludo del Principado de Asturias", "network:short": "SESPA", "old_name": "Hospital Comarcal de Narcea", "operator:type": "public", "wikidata": "Q30280016"}}, {"name": "Hospital Comarcal de Jarrio", "latitude": 43.5442908, "longitude": -6.7471718, "source": "osm", "_tags": {"addr:city": "Xarrio", "addr:postcode": "33719", "addr:street": "Carretera de Ortigueira", "amenity": "hospital", "building": "yes", "emergency": "yes", "fax": "+34985473367", "healthcare": "hospital", "name": "Hospital Comarcal de Jarrio", "name:gl": "Hospital Comarcal de Xarrio", "network": "Servicio de Salud del Principado de Asturias", "network:short": "SESPA", "nohousenumber": "yes", "operator": "Servicio de Salud del Principado de Asturias", "operator:type": "public", "phone": "+34985639300", "type": "multipolygon", "wikidata": "Q63216078"}}]