[{"name": "Hôpital Gui de Chauliac", "latitude": 43.6303284, "longitude": 3.8627305, "source": "osm", "_tags": {"amenity": "hospital", "description:emergency": "Urgences Tête et Cou/Neurochirurgie", "emergency": "yes", "fax": "+33 4 67 33 76 23", "healthcare:speciality": "intensive", "name": "Hôpital Gui de Chauliac", "operator": "CHU de Montpellier", "operator:type": "public", "phone": "+33 4 67 33 67 33", "ref:FR:FINESS": "340782085", "type:FR:FINESS": "101", "website": "https://www.chu-montpellier.fr/fr/a-propos-du-chu/decouvrir-le-chu/etablissements/gui-de-chauliac/"}}, {"name": "Hôpital Saint-Éloi", "latitude": 43.6291502, "longitude": 3.8651257, "source": "osm", "_tags": {"amenity": "hospital", "fax": "+33 4 67 33 76 23", "healthcare": "hospital", "name": "Hôpital Saint-Éloi", "operator": "CHU de Montpellier", "operator:type": "public", "phone": "+33 4 67 33 67 33", "ref:FR:FINESS": "340782036", "type:FR:FINESS": "101", "website": "https://www.chu-montpellier.fr/fr/a-propos-du-chu/decouvrir-le-chu/etablissements/saint-eloi/"}}, {"name": "Hôpital La Colombière", "latitude": 43.6262091, "longitude": 3.8575731, "source": "osm", "_tags": {"amenity": "hospital", "fax": "+33 4 67 33 88 96", "name": "Hôpital La Colombière", "operator": "CHU de Montpellier", "operator:type": "public", "phone": "+33 4 67 33 67 33", "ref:FR:FINESS": "340780485", "source": "Le ministère des solidarités et de la santé - 03/2019", "website": "https://www.chu-montpellier.fr/fr/a-propos-du-chu/decouvrir-le-chu/etablissements/la-colombiere/"}}, {"name": "CMPA", "latitude": 43.7808544, "longitude": 4.0918548, "source": "osm", "_tags": {"amenity": "hospital", "emergency": "no", "healthcare": "psychotherapist", "name": "CMPA", "operator": "CHU de Nîmes", "ref:FR:FINESS": "300018249", "source": "Le ministère des solidarités et de la santé - 03/2019", "website": "https://www.chu-nimes.fr/pole-psychiatrie/cmpa---sommieres.html"}}, {"name": "Centre hospitalier Pôle santé de Lunel", "latitude": 43.6651153, "longitude": 4.1252755, "source": "osm", "_tags": {"addr:city": "Lunel", "addr:postcode": "34400", "addr:street": "Chemin des Alicantes", "amenity": "hospital", "emergency": "yes", "healthcare": "hospital", "name": "Centre hospitalier Pôle santé de Lunel", "ref:FR:FINESS": "340000231", "short_name": "CH Pôle Santé Lunel", "type:FR:FINESS": "106", "wikidata": "Q92062846"}}, {"name": "PFG", "latitude": 43.5602121, "longitude": 4.0759685, "source": "osm", "_tags": {"addr:city": "La Grande-Motte", "addr:housenumber": "88", "addr:postcode": "34280", "addr:street": "Rue de l'Industrie", "amenity": "hospital", "brand": "PFG", "healthcare": "hospital", "name": "PFG", "opening_hours": "Mo-Fr 09:00-12:00,14:00-18:00; Sa 09:00-12:00,14:00-16:00", "phone": "+33 4 67 02 65 07", "short_name": "GM Médical", "website": "https://www.pfg.fr/nos-agences/herault/la-grande-motte/agence-pompes-funebres-pfg-la-grande-motte-21376"}}, {"name": "", "latitude": 43.7160737, "longitude": 4.3231297, "source": "osm", "_tags": {"amenity": "hospital", "healthcare": "hospital"}}, {"name": "", "latitude": 43.8083607, "longitude": 4.6388047, "source": "osm", "_tags": {"amenity": "hospital", "fax": "+33466026300", "healthcare": "hospital", "phone": "+33466026333", "ref:FR:FINESS": "300000049", "ref:FR:SIRET": "20001124500038", "source": "Le ministère des solidarités et de la santé - 2025-03", "type:FR:FINESS": "106"}}, {"name": "Clinique Rech", "latitude": 43.6199388, "longitude": 3.8640364, "source": "osm", "_tags": {"amenity": "hospital", "name": "Clinique Rech", "ref:FR:FINESS": "340780758"}}, {"name": "CHU de Montpellier", "latitude": 43.6289768, "longitude": 3.8647428, "source": "osm", "_tags": {"amenity": "hospital", "healthcare": "hospital", "landuse": "healthcare", "name": "CHU de Montpellier", "operator": "CHU de Montpellier", "ref:FR:FINESS": "340782036", "source": "cadastre-dgi-fr source : Direction Générale des Impôts - Cadastre;mise à jour : 2007", "wheelchair": "limited"}}, {"name": "CHU de Montpellier", "latitude": 43.6278881, "longitude": 3.8538847, "source": "osm", "_tags": {"amenity": "hospital", "healthcare": "hospital", "landuse": "healthcare", "layer": "-1", "name": "CHU de Montpellier", "phone": "+33 4 67 33 67 33", "ref:FR:FINESS": "340796663", "source": "cadastre-dgi-fr source : Direction Générale des Impôts - Cadastre;mise à jour : 2007", "wikidata": "Q19859682"}}, {"name": "Clinique du Millénaire", "latitude": 43.6018888, "longitude": 3.9136686, "source": "osm", "_tags": {"addr:city": "Montpellier", "addr:housenumber": "220", "addr:postcode": "34000", "addr:street": "Boulevard Pénélope", "amenity": "hospital", "email": "info@millenaire.fr", "emergency": "yes", "fax": "+33 4 99 53 60 05", "healthcare": "hospital", "healthcare:speciality": "intensive", "name": "Clinique du Millénaire", "operator": "OC Santé", "operator:type": "private", "phone": "+33 8 26 88 88 83", "ref:FR:FINESS": "340015502", "source": "cadastre-dgi-fr source : Direction Générale des Impôts - Cadastre;mise à jour : 2009;mise_à_jour_:_2017", "type:FR:FINESS": "365", "website": "https://www.oc-sante.fr/etablissements/clinique-du-millenaire/"}}, {"name": "Clinique Jean Paoli", "latitude": 43.6717981, "longitude": 4.6352172, "source": "osm", "_tags": {"addr:city": "Arles", "addr:housenumber": "19", "addr:postcode": "13200", "addr:street": "Rue Pierre Renaudel", "amenity": "hospital", "building": "hospital", "fax": "+33 4 90 99 34 01", "healthcare": "hospital", "name": "Clinique Jean Paoli", "note": "La clinique sera regroupée en 2022 au CH Joseph-Imbert", "operator": "Elsan", "operator:type": "private", "operator:wikidata": "Q48747106", "phone": "+33 4 90 99 34 00", "ref:FR:FINESS": "130002694", "source": "Arles Crau Camargue Montagnette - 02/2013", "type:FR:FINESS": "129"}}, {"name": "Clinique Jeanne d'Arc", "latitude": 43.6768249, "longitude": 4.6398106, "source": "osm", "_tags": {"amenity": "hospital", "building": "hospital", "fax": "+33 4 90 18 92 80", "healthcare": "hospital", "name": "Clinique Jeanne d'Arc", "note": "La clinique sera regroupée en 2022 au CH Joseph-Imbert", "operator": "Elsan", "operator:type": "private", "phone": "+33 4 90 99 32 32", "ref:FR:FINESS": "130781370", "source": "cadastre-dgi-fr source : Direction Générale des Impôts - Cadastre. Mise à jour : 2011", "type:FR:FINESS": "365"}}, {"name": "Hôpital Lapeyronie", "latitude": 43.6298922, "longitude": 3.8517146, "source": "osm", "_tags": {"addr:housenumber": "371", "addr:street": "Avenue du Doyen Gaston Giraud", "alt_name": "Hôpital Lapeyronie", "amenity": "hospital", "building": "hospital", "emergency": "yes", "fax": "+33 4 67 33 89 63", "healthcare": "hospital", "healthcare:speciality": "intensive", "height": "18", "name": "Hôpital Lapeyronie", "operator:type": "public", "phone": "+33 4 67 33 67 33", "ref:FR:FINESS": "340785161", "short_name": "CHRU de Montpellier", "source": "cadastre-dgi-fr source : Direction Générale des Impôts - Cadastre. Mise à jour : 2012", "type:FR:FINESS": "101", "website": "https://www.chu-montpellier.fr/fr/a-propos-du-chu/decouvrir-le-chu/etablissements/lapeyronie/"}}, {"name": "Clinique du docteur STER", "latitude": 43.7094688, "longitude": 3.8330872, "source": "osm", "_tags": {"addr:housenumber": "300", "addr:street": "Avenue de Saint-Sauveur", "amenity": "hospital", "building": "yes", "description": "Rééducation et réadaptation fonctionnelle", "healthcare": "hospital", "healthcare:speciality": "physiatry", "name": "Clinique du docteur STER", "ref:FR:FINESS": "340796093", "source": "cadastre-dgi-fr source : Direction Générale des Impôts - Cadastre. Mise à jour : 2012", "type:FR:FINESS": "109", "wheelchair": "yes"}}, {"name": "Centre Bourgès", "latitude": 43.624734, "longitude": 3.911296, "source": "osm", "_tags": {"addr:housenumber": "150", "addr:street": "Avenue Clément Ader", "amenity": "hospital", "building": "hospital", "name": "Centre Bourgès", "operator": "Oc santé", "ref:FR:FINESS": "340019090", "source": "cadastre-dgi-fr source : Direction Générale des Impôts - Cadastre. Mise à jour : 2013"}}, {"name": "Clinique les Oliviers", "latitude": 43.7293885, "longitude": 4.1711361, "source": "osm", "_tags": {"amenity": "hospital", "healthcare": "hospital", "healthcare:speciality": "physiatry", "name": "Clinique les Oliviers", "ref:FR:FINESS": "300780491", "source": "cadastre-dgi-fr source : Direction Générale des Impôts - Cadastre. Mise à jour : 2011", "type:FR:FINESS": "109"}}, {"name": "Centre hospitalier d'Arles", "latitude": 43.6572637, "longitude": 4.6337521, "source": "osm", "_tags": {"alt_name": "Centre hospitalier Joseph Imbert", "amenity": "hospital", "emergency": "yes", "fax": "+33 4 90 49 28 78", "healthcare": "hospital", "healthcare:speciality": "intensive", "landuse": "healthcare", "name": "Centre hospitalier d'Arles", "operator:type": "public", "phone": "+33 4 90 49 29 29", "ref:FR:FINESS": "130002827", "type:FR:FINESS": "355", "website": "https://www.ch-arles.fr/", "wheelchair": "yes", "wikidata": "Q22995610"}}, {"name": "Polyclinique Saint-Roch", "latitude": 43.5828474, "longitude": 3.8617411, "source": "osm", "_tags": {"addr:city": "Montpellier", "addr:housenumber": "560", "addr:street": "Avenue du Colonel Pavelet", "amenity": "hospital", "emergency": "yes", "fax": "+33 4 67 61 88 99", "healthcare": "hospital", "name": "Polyclinique Saint-Roch", "operator": "Oc Santé", "operator:type": "private", "phone": "+33 8 26 88 88 82", "ref:FR:FINESS": "340022979", "start_date": "2016-02-29", "type:FR:FINESS": "365", "website": "https://www.oc-sante.fr/etablissements/polyclinique-saint-roch/"}}, {"name": "Centre de Dialyse - Diaverum", "latitude": 43.6572562, "longitude": 4.6313076, "source": "osm", "_tags": {"amenity": "hospital", "building": "hospital", "email": "arles@diaverum.com", "fax": "+33 4 90 52 15 38", "healthcare": "centre", "name": "Centre de Dialyse - Diaverum", "operator": "Diaverum", "operator:type": "private", "phone": "+33 4 90 52 15 20", "ref:FR:FINESS": "130034531", "source": "BDOrtho IGN", "type:FR:FINESS": "141", "website": "https://www.diaverum.com/fr-FR/Clinic-container/France/Arles/Centre-de-Dialyse-Diaverum-Arles/"}}, {"name": "Centre Languedoc", "latitude": 43.6015409, "longitude": 3.8283978, "source": "osm", "_tags": {"alt_name": "Sessad Le Languedoc", "amenity": "hospital", "healthcare": "hospital", "name": "Centre Languedoc", "official_name": "Polyclinique Le Languedoc", "ref:FR:FINESS": "340015122", "source": "Bing", "type:FR:FINESS": "182"}}, {"name": "Centre Orthopédique Maguelone", "latitude": 43.6241788, "longitude": 3.9084075, "source": "osm", "_tags": {"alt_name": "Clinique Maguelone", "amenity": "hospital", "name": "Centre Orthopédique Maguelone", "ref:FR:FINESS": "340000439"}}, {"name": "Les Jardins de Sophia", "latitude": 43.6240202, "longitude": 3.9096542, "source": "osm", "_tags": {"alt_name": "Centre Géronto-Psychiatrique Les Jardins de Sophia", "amenity": "hospital", "name": "Les Jardins de Sophia", "ref:FR:FINESS": "340789379", "source": "cadastre-dgi-fr source : Direction Générale des Impôts - Cadastre. Mise à jour : 2015"}}, {"name": "Clinique du Mas de Rochet", "latitude": 43.6267625, "longitude": 3.9078434, "source": "osm", "_tags": {"amenity": "hospital", "healthcare": "hospital", "name": "Clinique du Mas de Rochet", "operator": "UGECAM", "phone": "+33 4 67 33 10 33", "ref:FR:FINESS": "340781608", "type:FR:FINESS": "129"}}, {"name": "CHU Larche Bleu", "latitude": 43.6622891, "longitude": 3.9004245, "source": "osm", "_tags": {"amenity": "hospital", "name": "CHU Larche Bleu", "ref:FR:FINESS": "340021260", "social_facility:for": "mental_health", "source": "Le ministère des solidarités et de la santé - 03/2019"}}, {"name": "Institut régional du Cancer de Montpellier", "latitude": 43.6443623, "longitude": 3.8381644, "source": "osm", "_tags": {"amenity": "hospital", "name": "Institut régional du Cancer de Montpellier", "ref:FR:FINESS": "340000207", "wikidata": "Q91994464"}}, {"name": "Centre Mutualiste Neurologique Propara", "latitude": 43.6428653, "longitude": 3.8321622, "source": "osm", "_tags": {"addr:city": "Montpellier", "addr:housenumber": "263", "addr:postcode": "34090", "addr:street": "Rue du Caducée", "amenity": "hospital", "contact:phone": "+33467046704", "description": "Le CMNP est un centre de soin pour l'accompagnement des lésés médullaires. amenity=hospital et non social_facility car présence d'équipes de soin.", "name": "Centre Mutualiste Neurologique Propara", "ref:FR:FINESS": "340001064", "wheelchair": "yes"}}, {"name": "Clinique Stella", "latitude": 43.7173571, "longitude": 4.1013084, "source": "osm", "_tags": {"addr:city": "Vérargues", "addr:postcode": "34400", "addr:street": "Place du Château", "amenity": "hospital", "email": "secretariat.medical@cl-stella.fr", "fax": "+33467860615", "healthcare": "hospital", "healthcare:speciality": "psychiatry", "name": "Clinique Stella", "opening_hours": "Mo-Th 09:00-18:00; Fr 09:00-17:00", "phone": "+33 4 99 63 63 63", "ref:FR:FINESS": "340780782", "ref:FR:SIRET": "41238278000010", "source": "Le ministère des solidarités et de la santé - 03/2019", "type:FR:FINESS": "161", "website": "https://www.oc-sante.fr/etablissements/clinique-stella"}}, {"name": "Centre Psychothérapique Saint-Martin de Vignogoul", "latitude": 43.5923956, "longitude": 3.7882467, "source": "osm", "_tags": {"amenity": "hospital", "healthcare": "hospital", "healthcare:speciality": "psychiatry", "name": "Centre Psychothérapique Saint-Martin de Vignogoul", "ref:FR:FINESS": "340780931"}}, {"name": "Clinique Le Castelet", "latitude": 43.5796761, "longitude": 3.8249452, "source": "osm", "_tags": {"addr:housenumber": "18", "addr:street": "Avenue Georges Clemenceau", "amenity": "hospital", "name": "Clinique Le Castelet", "ref:FR:FINESS": "340780857"}}, {"name": "Clinique de rééducation fonctionnelle Fontfroide", "latitude": 43.6395463, "longitude": 3.8313581, "source": "osm", "_tags": {"amenity": "hospital", "entrance:step:height": "0", "entrance:step_count": "0", "entrance:width": "1.54", "healthcare": "hospital", "name": "Clinique de rééducation fonctionnelle Fontfroide", "ref:FR:FINESS": "340789981"}}, {"name": "Clinique de Clémentville", "latitude": 43.6129392, "longitude": 3.851886, "source": "osm", "_tags": {"amenity": "hospital", "healthcare": "hospital", "name": "Clinique de Clémentville", "ref:FR:FINESS": "340020445"}}, {"name": "Centre Bellevue - centre de soins pour personnes agées", "latitude": 43.6402302, "longitude": 3.859565, "source": "osm", "_tags": {"amenity": "hospital", "healthcare": "hospital", "name": "Centre Bellevue - centre de soins pour personnes agées", "ref:FR:FINESS": "340782481"}}, {"name": "Clinique du Parc", "latitude": 43.6352517, "longitude": 3.8914878, "source": "osm", "_tags": {"addr:city": "Castelnau-le-Lez", "addr:street": "Allée du Docteur Louis Constantin", "amenity": "hospital", "emergency": "yes", "fax": "+33 4 67 79 23 09", "healthcare:speciality": "intensive", "name": "Clinique du Parc", "operator": "Groupe Clinipole", "operator:type": "private", "phone": "+33 4 67 33 13 31", "ref:FR:FINESS": "340780667", "type:FR:FINESS": "365", "website": "https://www.clinique-du-parc.net/"}}, {"name": "Hôpital de Réadaptation, de Rééducation et d'Addictologie du CHU de Nîmes", "latitude": 43.549803, "longitude": 4.1183925, "source": "osm", "_tags": {"CLC:code": "112", "CLC:id": "FR-229853", "CLC:year": "2006", "addr:housenumber": "293", "addr:street": "Route de Carnon", "amenity": "hospital", "contact:website": "http://www.chu-nimes.fr/les-liens-rapides/grau-du-roi.html", "healthcare": "hospital", "name": "Hôpital de Réadaptation, de Rééducation et d'Addictologie du CHU de Nîmes", "ref:FR:FINESS": "300782141", "source": "Union européenne - SOeS, CORINE Land Cover, 2006.", "type:FR:FINESS": "101"}}, {"name": "", "latitude": 43.8099301, "longitude": 4.4086585, "source": "osm", "_tags": {"amenity": "hospital", "contact:phone": "+33466029204", "contact:website": "https://www.clinique-la-camargue.fr", "healthcare": "clinic", "healthcare:speciality": "psychiatry", "ref:FR:FINESS": "300781424", "type:FR:FINESS": "161"}}, {"name": "Clinique Saint-Jean - Sud de France", "latitude": 43.5701671, "longitude": 3.8350431, "source": "osm", "_tags": {"addr:city": "Saint-Jean-de-Védas", "addr:housenumber": "1", "addr:postcode": "34430", "addr:street": "Place de l'Europe", "amenity": "hospital", "emergency": "yes", "healthcare": "hospital", "healthcare:speciality": "orthopaedics;emergency;radiology;general;surgery;pediatrics;", "name": "Clinique Saint-Jean - Sud de France", "opening_date": "2019-01-01", "phone": "+33 4 67 01 01 01", "website": "https://www.clinique-saint-jean.fr/"}}, {"name": "Hôpitaux des Portes de Camargue", "latitude": 43.7995313, "longitude": 4.6676832, "source": "osm", "_tags": {"amenity": "hospital", "healthcare": "hospital", "name": "Hôpitaux des Portes de Camargue", "ref:FR:FINESS": "130001258", "type:FR:FINESS": "106", "wikidata": "Q92061588"}}, {"name": "service MPEA", "latitude": 43.5956135, "longitude": 3.8439542, "source": "osm", "_tags": {"amenity": "hospital", "name": "service MPEA", "ref:FR:FINESS": "340021302", "source": "Bing"}}, {"name": "Pôle Santé Professeur Louis Serre", "latitude": 43.6650006, "longitude": 4.1248473, "source": "osm", "_tags": {"alt_name": "Pôle Santé Lunel", "amenity": "hospital", "emergency": "yes", "healthcare": "hospital", "name": "Pôle Santé Professeur Louis Serre", "ref:FR:FINESS": "340021872", "short_name": "Pôle Santé Pr Louis Serre", "source": "cadastre-dgi-fr source : Direction Générale des Finances Publiques - Cadastre. Mise à jour : 2015", "start_date": "2007", "type:FR:FINESS": "698"}}, {"name": "Centre hospitalier universitaire Montpellier - Service mobile d'urgence et de réanimation - Antenne centre hospitalier Lunel", "latitude": 43.6751549, "longitude": 4.1314487, "source": "osm", "_tags": {"addr:city": "Lunel", "addr:housenumber": "141", "addr:postcode": "34400", "addr:street": "Place de la République", "amenity": "hospital", "fax": "+33467877140", "healthcare": "hospital", "name": "Centre hospitalier universitaire Montpellier - Service mobile d'urgence et de réanimation - Antenne centre hospitalier Lunel", "phone": "+33467877100", "ref:FR:FINESS": "340022763", "ref:FR:SIRET": "26340016000440", "short_name": "CHU Montpellier SMUR Antenne CH Lunel", "source": "Le ministère des solidarités et de la santé - 03/2019", "type:FR:FINESS": "101"}}, {"name": "Centre de Long Séjour Brunel", "latitude": 43.6748013, "longitude": 4.1282748, "source": "osm", "_tags": {"addr:city": "Lunel", "addr:housenumber": "23", "addr:postcode": "34400", "addr:street": "Rue Bruno Brunel", "amenity": "hospital", "fax": "+33 4 67 87 71 09", "healthcare": "hospital", "healthcare:speciality": "geriatrics", "name": "Centre de Long Séjour Brunel", "ref:FR:FINESS": "340782697", "ref:FR:SIRET": "26340015200025", "source": "Le ministère des solidarités et de la santé - 03/2019", "type:FR:FINESS": "362"}}, {"name": "Clinique Plein Soleil", "latitude": 43.6009809, "longitude": 3.9132311, "source": "osm", "_tags": {"amenity": "hospital", "check_date": "2025-02-05", "healthcare": "hospital", "name": "Clinique Plein Soleil", "opening_date": "2020-06-30", "operator": "Oc santé"}}, {"name": "Institut Saint-Pierre", "latitude": 43.52409, "longitude": 3.9233854, "source": "osm", "_tags": {"addr:housenumber": "371", "addr:street": "Avenue de l'Evêché de Maguelone", "amenity": "hospital", "check_date": "2025-06-08", "contact:website": "http://www.institut-st-pierre.com/", "hospital:for": "child", "name": "Institut Saint-Pierre", "ref:FR:FINESS": "340000025", "toilets:wheelchair": "yes", "wheelchair": "yes"}}, {"name": "Clinique mutualiste Jean Léon", "latitude": 43.5609489, "longitude": 4.0910004, "source": "osm", "_tags": {"addr:city": "La Grande-Motte", "addr:housenumber": "322", "addr:postcode": "34280", "addr:street": "Allée des Jardins", "amenity": "hospital", "fax": "+33467290999", "healthcare": "hospital", "name": "Clinique mutualiste Jean Léon", "phone": "+33467290800", "ref:FR:FINESS": "340780816", "ref:FR:SIRET": "81317979300480", "source": "Le ministère des solidarités et de la santé - 2021-01", "type:FR:FINESS": "109"}}, {"name": "Clinique Saint-Clément", "latitude": 43.7083255, "longitude": 3.8322189, "source": "osm", "_tags": {"addr:housenumber": "115", "addr:street": "Avenue de Saint-Sauveur", "amenity": "hospital", "healthcare": "hospital", "healthcare:speciality": "psychiatry", "name": "Clinique Saint-Clément", "ref:FR:FINESS": "340010149", "type:FR:FINESS": "161"}}, {"name": "Clinique du Pic Saint-Loup", "latitude": 43.706967, "longitude": 3.8319268, "source": "osm", "_tags": {"addr:housenumber": "96", "addr:street": "Avenue de Saint-Sauveur", "amenity": "hospital", "name": "Clinique du Pic Saint-Loup", "ref:FR:FINESS": "340009018", "type:FR:FINESS": "109"}}, {"name": "Polyclinique de psychiatrie", "latitude": 43.6285087, "longitude": 3.8542384, "source": "osm", "_tags": {"building": "hospital", "building:levels": "4", "healthcare": "hospital", "healthcare:speciality": "psychiatry", "name": "Polyclinique de psychiatrie", "type": "multipolygon"}}, {"name": "Hôpital Arnaud de Villeneuve", "latitude": 43.6322525, "longitude": 3.8497324, "source": "osm", "_tags": {"amenity": "hospital", "building": "hospital", "building:levels": "5", "emergency": "yes", "fax": "+33 4 67 33 89 63", "healthcare": "hospital", "name": "Hôpital Arnaud de Villeneuve", "operator": "CHU de Montpellier", "operator:type": "public", "phone": "+33 4 67 33 67 33", "ref:FR:FINESS": "340796663", "roof:levels": "0", "roof:shape": "flat", "type": "multipolygon", "type:FR:FINESS": "101", "website": "https://www.chu-montpellier.fr/fr/a-propos-du-chu/decouvrir-le-chu/etablissements/arnaud-de-villeneuve/"}}, {"name": "Clinique de la Lironde", "latitude": 43.6580086, "longitude": 3.8450059, "source": "osm", "_tags": {"amenity": "hospital", "building": "yes", "name": "Clinique de la Lironde", "ref:FR:FINESS": "340780766", "type": "multipolygon"}}, {"name": "Institut Mutualiste Montpelliérain", "latitude": 43.6095964, "longitude": 3.8491184, "source": "osm", "_tags": {"addr:housenumber": "119", "addr:street": "Avenue de Lodève", "alt_name": "Clinique Beau Soleil", "amenity": "hospital", "emergency": "yes", "fax": "+33 4 67 75 97 65", "healthcare": "hospital", "name": "Institut Mutualiste Montpelliérain", "old_name": "Clinique Beau Soleil", "operator": "Languedoc Mutualité", "operator:type": "private", "phone": "+33 4 67 75 99 99", "ref:FR:FINESS": "340780642", "type": "multipolygon", "type:FR:FINESS": "365", "website": "https://www.languedoc-mutualite.fr/cliniques/beau-soleil/"}}]