[{"name": "San Juan de Dios ospitalea", "latitude": 43.3002321, "longitude": -1.9772687, "source": "osm", "_tags": {"amenity": "hospital", "name": "San Juan de Dios ospitalea", "name:es": "Clínica San Juan de Dios", "wikidata": "Q87761881", "wikipedia": "eu:San Joan Jainkoarena Ospitalea (Donostia)"}}, {"name": "Clinique d'Amade", "latitude": 43.5041198, "longitude": -1.4774509, "source": "osm", "_tags": {"amenity": "hospital", "healthcare": "hospital", "name": "Clinique d'Amade"}}, {"name": "Hegaldia hôpital de jour", "latitude": 43.6636483, "longitude": -1.2861393, "source": "osm", "_tags": {"amenity": "hospital", "healthcare": "hospital", "name": "Hegaldia hôpital de jour"}}, {"name": "AmaitaVet Clínica Veterinaria", "latitude": 43.339661, "longitude": -1.7933673, "source": "osm", "_tags": {"addr:city": "Irun", "addr:housenumber": "27", "addr:postcode": "20302", "addr:street": "Colon pasealekua", "addr:unit": "Bajo", "amenity": "veterinary", "emergency": "yes", "healthcare": "hospital", "name": "AmaitaVet Clínica Veterinaria", "operator": "Amaita", "operator:type": "private"}}, {"name": "Centre d'Oncologie et de Radiothérapie du Pays Basque", "latitude": 43.5031085, "longitude": -1.4545834, "source": "osm", "_tags": {"amenity": "hospital", "healthcare": "hospital", "healthcare:speciality": "oncology", "name": "Centre d'Oncologie et de Radiothérapie du Pays Basque", "short_name": "COPB", "website": "https://www.copb.eu/"}}, {"name": "Loratzea", "latitude": 43.4770359, "longitude": -1.4555245, "source": "osm", "_tags": {"addr:city": "Saint-Pierre-d'Irube", "addr:housenumber": "12", "addr:postcode": "64990", "addr:street": "Allée Bordenave", "amenity": "hospital", "healthcare": "hospital", "healthcare:speciality": "dermatology;otolaryngology;paediatrics;kinesitherapy;ophthalmology;psychology", "name": "Loratzea"}}, {"name": "Policlinica Gipuzkoa", "latitude": 43.2898545, "longitude": -1.9815311, "source": "osm", "_tags": {"amenity": "hospital", "building": "yes", "name": "Policlinica Gipuzkoa"}}, {"name": "Donostiako Unibertsitate Ospitalea", "latitude": 43.2925584, "longitude": -1.9687071, "source": "osm", "_tags": {"addr:city": "Donostia / San Sebastián", "addr:full": "Begiristain Doktorearen pasealekua z.g.", "addr:neighbourhood": "Amara", "addr:postcode": "20014", "addr:province": "Gipuzkoa", "addr:street": "Begiristain doktorearen pasealekua", "amenity": "hospital", "check_date": "2024-03-01", "email": "OSID.GERENTZIA@osakidetza.eus", "emergency": "yes", "fax": "+34 943007233", "healthcare": "hospital", "name": "Donostiako Unibertsitate Ospitalea", "name:es": "Hospital Universitario de Donostia", "name:eu": "Donostiako Unibertsitate Ospitalea", "network": "Mendebalde", "note": "osasun-zentroaren ordutegitik kanpo eta premiaz artatu beharreko kasu arinetarako, begiratu <a href=\"https://www.osakidetza.euskadi.eus/informazioa/etengabeko-arretako-guneak-eag/ab84-oskcon/eu/\">hemen</a>ea zein EAG duzun hurbilen", "operator": "Osakidetza", "operator:type": "public", "operator:wikidata": "Q3822645", "operator:wikipedia": "es:Osakidetza-Servicio Vasco de Salud", "phone": "+34 943007000", "ref:osakidetza": "hospital_universitar_donostia", "source": "Open Data Euskadi", "website": "https://www.osakidetza.euskadi.eus/r85-gkodon03/eu/contenidos/informacion/odon_informacion_interes/eu_hdon/index.shtml", "wheelchair": "yes", "wikidata": "Q12256353", "wikipedia": "eu:Donostia Unibertsitate Ospitalea"}}, {"name": "Asunción klinika", "latitude": 43.1409922, "longitude": -2.0690258, "source": "osm", "_tags": {"amenity": "hospital", "building": "yes", "healthcare": "hospital", "name": "Asunción klinika", "wikidata": "Q25476848"}}, {"name": "Centre hospitalier de la Côte Basque - Site Cam de Prats", "latitude": 43.4848887, "longitude": -1.4643344, "source": "osm", "_tags": {"amenity": "hospital", "healthcare": "hospital", "healthcare:speciality": "intensive", "name": "Centre hospitalier de la Côte Basque - Site Cam de Prats", "ref:FR:FINESS": "640784278", "source": "cadastre-dgi-fr source : Direction Générale des Impôts - Cadastre. Mise à jour : 2010", "type:FR:FINESS": "355"}}, {"name": "Hôpital Marin de Hendaye", "latitude": 43.3753552, "longitude": -1.7597816, "source": "osm", "_tags": {"amenity": "hospital", "healthcare": "hospital", "name": "Hôpital Marin de Hendaye", "ref:FR:FINESS": "640790150", "type:FR:FINESS": "101"}}, {"name": "Korian Le Belvédère", "latitude": 43.5980883, "longitude": -1.4696277, "source": "osm", "_tags": {"addr:city": "Labenne", "addr:housenumber": "2", "addr:postcode": "40530", "addr:street": "Avenue de la Plage", "amenity": "clinic", "building": "hospital", "emergency": "no", "fax": "+33559454561", "healthcare": "hospital", "name": "Korian Le Belvédère", "operator": "Korian", "operator:type": "private", "phone": "+33559454220", "ref:FR:FINESS": "400780466", "ref:FR:SIRET": "32388786900010", "source": "cadastre-dgi-fr source : Direction Générale des Finances Publiques - Cadastre. Mise à jour : 2022;Le ministère des solidarités et de la santé - 2021-03", "type:FR:FINESS": "109"}}, {"name": "Clinique Mirambeau", "latitude": 43.4769796, "longitude": -1.506271, "source": "osm", "_tags": {"addr:city": "Anglet", "addr:housenumber": "22", "addr:postcode": "64600", "addr:street": "Route de Maignon", "amenity": "hospital", "building": "yes", "healthcare": "hospital", "name": "Clinique Mirambeau", "ref:FR:FINESS": "640780409", "source": "cadastre-dgi-fr source : Direction Générale des Impôts - Cadastre. Mise à jour : 2012", "type:FR:FINESS": "161"}}, {"name": "Pakea Klinika", "latitude": 43.311644, "longitude": -2.0135504, "source": "osm", "_tags": {"addr:city": "Donostia / San Sebastián", "addr:housenumber": "26", "addr:postcode": "20018", "addr:street": "Arriola pasealekua", "amenity": "hospital", "emergency": "yes", "fax": "+34 943 21 11 88", "healthcare": "hospital", "healthcare:speciality": "emergency;physiatry;radiology;surgery", "name": "Pakea Klinika", "name:es": "Centro Hospitalario Pakea", "operator": "Mutualia", "operator:type": "private", "phone": "+34 943 21 26 00"}}, {"name": "Ricardo Bermingham ospitalea", "latitude": 43.3037136, "longitude": -2.0016867, "source": "osm", "_tags": {"addr:housenumber": "35", "addr:street": "Pinu bidea", "amenity": "hospital", "building": "yes", "healthcare": "hospital", "healthcare:speciality": "geriatrics", "name": "Ricardo Bermingham ospitalea", "name:es": "Hospital Ricardo Bermingham", "name:eu": "Ricardo Bermingham ospitalea", "operator": "Matia Fundazioa", "operator:type": "private", "website": "https://www.matiafundazioa.eus/"}}, {"name": "Kanpañanea", "latitude": 43.1005461, "longitude": -2.0985231, "source": "osm", "_tags": {"addr:city": "Alegia", "addr:country": "ES", "addr:housenumber": "50", "addr:postcode": "20260", "addr:street": "San Juan Kalea", "b5m:id": "D_542", "b5m:url": "http://b5m.gipuzkoa.net/b5map/r1/eu/mapa/lekutu/D_542", "b5m:urlOrto": "http://b5m.gipuzkoa.net/url5000/index.php?id=D_542&lengua=1&actu=0&categoria=VITO_FOTO", "building": "house", "healthcare": "hospital", "name": "Kanpañanea", "source": "b5m"}}, {"name": "Clínica San Miguel", "latitude": 42.8191372, "longitude": -1.6205179, "source": "osm", "_tags": {"addr:city": "Pamplona/Iruña", "addr:housenumber": "32", "addr:postcode": "31006", "addr:street": "Calle de Beloso Alto", "amenity": "hospital", "building": "hospital", "contact:phone": "+34 948 296000", "name": "Clínica San Miguel", "wikidata": "Q87762244"}}, {"name": "La Maison Basque", "latitude": 43.3610068, "longitude": -1.4028228, "source": "osm", "_tags": {"amenity": "hospital", "healthcare": "hospital", "name": "La Maison Basque", "operator": "SAS La Maison Basque", "ref:FR:FINESS": "640780607", "ref:FR:SIRET": "33848014800026", "type:FR:FINESS": "109"}}, {"name": "Clinique Belharra", "latitude": 43.4792976, "longitude": -1.4528433, "source": "osm", "_tags": {"amenity": "hospital", "check_date": "2025-08-16", "emergency": "yes", "healthcare": "hospital", "name": "Clinique Belharra", "operator": "Ramsay Santé", "operator:type": "private", "operator:wikidata": "Q3123085", "phone": "+33 5 36 28 64 64", "ref:FR:FINESS": "640018206", "ref:FR:SIRET": "49346215400052", "source": "Le ministère des solidarités et de la santé - 03/2019", "type:FR:FINESS": "365", "website": "https://clinique-belharra-bayonne.ramsaysante.fr/"}}, {"name": "Centre hospitalier de la Côte Basque - Site de Saint-Leon", "latitude": 43.4824696, "longitude": -1.4805736, "source": "osm", "_tags": {"addr:city": "Bayonne", "addr:housenumber": "13", "addr:postcode": "64100", "addr:street": "Avenue Interne Jacques Loeb", "amenity": "hospital", "emergency": "yes", "fax": "+33 5 59 63 35 88", "healthcare": "hospital", "healthcare:speciality": "general;paediatrics;gynaecology;radiology;oncology;surgery;dermatology;cardiology;maternity;geriatrics;neurology;emergency;orthopaedics;intensive", "name": "Centre hospitalier de la Côte Basque - Site de Saint-Leon", "operator:type": "public", "phone": "+33 5 59 44 35 35", "ref:FR:FINESS": "640000162", "source": "Le ministère des solidarités et de la santé - 08/2018", "type:FR:FINESS": "355", "website": "https://www.ch-cote-basque.fr/", "wheelchair": "yes", "wikidata": "Q2945716"}}, {"name": "Clinique Château Caradoc", "latitude": 43.5016308, "longitude": -1.4611788, "source": "osm", "_tags": {"amenity": "hospital", "check_date": "2025-08-05", "emergency": "no", "fax": "+33559440571", "healthcare": "yes", "name": "Clinique Château Caradoc", "operator": "Groupe Santé Basque Développement", "phone": "+33559441744", "ref:FR:FINESS": "640018255", "ref:FR:SIRET": "44071971400030", "source": "Le ministère des solidarités et de la santé - 03/2019", "website": "https://caradoc.fr/"}}, {"name": "Mentalia Usurbil Osasun Mentaleko Ospitalea", "latitude": 43.2726376, "longitude": -2.0611436, "source": "osm", "_tags": {"addr:city": "Usurbil", "addr:country": "ES", "addr:housenumber": "48", "addr:postcode": "20170", "addr:street": "Urdaiaga", "amenity": "hospital", "b5m:id": "D_48004", "b5m:url": "http://b5m.gipuzkoa.net/b5map/r1/eu/mapa/lekutu/D_48004", "b5m:urlOrto": "http://b5m.gipuzkoa.net/url5000/index.php?id=D_48004&lengua=1&actu=0&categoria=VITO_FOTO", "healthcare": "hospital", "healthcare:speciality": "psychiatry", "name": "Mentalia Usurbil Osasun Mentaleko Ospitalea", "name:es": "Hospital de Salud Mental Mentalia Usurbil", "name:eu": "Mentalia Usurbil Osasun Mentaleko Ospitalea", "source": "b5m", "wikidata": "Q87761876"}}, {"name": "Polyclinique Côte Basque Sud", "latitude": 43.396933, "longitude": -1.6394376, "source": "osm", "_tags": {"amenity": "hospital", "emergency": "yes", "fax": "+33 5 59 51 63 69", "healthcare": "hospital", "name": "Polyclinique Côte Basque Sud", "operator:type": "private", "phone": "+33 5 59 51 63 63", "ref:FR:FINESS": "640780748", "type:FR:FINESS": "365", "website": "http://www.polyclinique-cotebasquesud.com/"}}, {"name": "Clinique Aguiléra", "latitude": 43.4855584, "longitude": -1.5391025, "source": "osm", "_tags": {"addr:housenumber": "21", "addr:postcode": "64200", "addr:street": "Rue de l'Estagnas", "amenity": "hospital", "emergency": "yes", "fax": "+33 5 59 22 47 45", "healthcare": "hospital", "name": "Clinique Aguiléra", "operator": "Ramsay Santé", "operator:wikidata": "Q3123085", "phone": "+33 5 36 28 64 00", "ref:FR:FINESS": "640780490", "type:FR:FINESS": "365", "website": "https://clinique-aguilera-biarritz.ramsaygds.fr"}}, {"name": "Hôpital de Saint-Jean-de-Luz", "latitude": 43.3928373, "longitude": -1.6533887, "source": "osm", "_tags": {"amenity": "hospital", "healthcare": "hospital", "name": "Hôpital de Saint-Jean-de-Luz", "ref:FR:FINESS": "640780755", "source": "Le ministère des solidarités et de la santé - 10/2018"}}, {"name": "Toki Eder", "latitude": 43.3620255, "longitude": -1.3945257, "source": "osm", "_tags": {"amenity": "hospital", "building": "hospital", "healthcare": "hospital", "name": "Toki Eder", "ref:FR:FINESS": "640780557", "source": "cadastre-dgi-fr source : Direction Générale des Finances Publiques - Cadastre. Mise à jour : 2019", "type:FR:FINESS": "109"}}, {"name": "Hospital San Juan de Dios", "latitude": 42.8167908, "longitude": -1.623588, "source": "osm", "_tags": {"amenity": "hospital", "healthcare": "hospital", "name": "Hospital San Juan de Dios"}}, {"name": "", "latitude": 42.8314922, "longitude": -1.5519738, "source": "osm", "_tags": {"amenity": "hospital", "healthcare": "hospital"}}, {"name": "Benito Menni CASM", "latitude": 43.1446017, "longitude": -1.5260298, "source": "osm", "_tags": {"addr:city": "Elizondo", "addr:housenumber": "4", "addr:postcode": "31700", "addr:street": "Borda Xurialde Karrika", "amenity": "hospital", "healthcare": "hospital", "layer": "-1", "name": "Benito Menni CASM", "name:es": "Hospital psiquiátrico Benito Meni", "name:eu": "Benito Menni ospitale psikiatrikoa"}}, {"name": "Gurutze Gorria", "latitude": 43.3138447, "longitude": -2.0016209, "source": "osm", "_tags": {"addr:city": "Donostia-San Sebastián", "addr:housenumber": "7", "addr:postcode": "20008", "addr:street": "Matia kalea", "amenity": "hospital", "healthcare": "hospital", "healthcare:speciality": "geriatrics", "name": "Gurutze Gorria"}}, {"name": "Clinique Saint-Martin-de-Seignanx", "latitude": 43.5513225, "longitude": -1.4211463, "source": "osm", "_tags": {"amenity": "hospital", "contact:phone": "+33 5 40 69 09 20", "emergency": "no", "healthcare": "rehabilitation", "name": "Clinique Saint-Martin-de-Seignanx", "ref:FR:FINESS": "400780466", "ref:FR:SIRET": "32388786900036", "type:FR:FINESS": "109"}}, {"name": "Onkologikoa", "latitude": 43.2909709, "longitude": -1.9736849, "source": "osm", "_tags": {"amenity": "hospital", "building": "yes", "healthcare": "hospital", "healthcare:speciality": "oncology", "name": "Onkologikoa", "type": "multipolygon", "wheelchair": "limited", "wikidata": "Q3772662"}}, {"name": "Bidasoko Ospitalea", "latitude": 43.3421651, "longitude": -1.8144924, "source": "osm", "_tags": {"addr:city": "HONDARRIBIA", "addr:full": "Zubieta finka - Mendelu auzoa", "addr:housenumber": "154", "addr:postcode": "20280", "addr:province": "Gipuzkoa", "addr:street": "Jaizubia", "amenity": "hospital", "b5m:id": "D_14961", "b5m:url": "http://b5m.gipuzkoa.net/b5map/r1/eu/mapa/lekutu/D_14961", "b5m:urlOrto": "http://b5m.gipuzkoa.net/url5000/index.php?id=D_14961&lengua=1&actu=0&categoria=VITO_FOTO", "building": "yes", "email": "osintegradabidasoa@osakidetza.eus", "fax": "+34 943007701", "healthcare": "hospital", "name": "Bidasoko Ospitalea", "name:es": "Hospital de Bidasoa", "name:eu": "Bidasoko Ospitalea", "network": "Bidasoko Ospitalea", "note": "osasun-zentroaren ordutegitik kanpo eta premiaz artatu beharreko kasu arinetarako, begiratu <a href=\"https://www.osakidetza.euskadi.eus/informazioa/etengabeko-arretako-guneak-eag/ab84-oskcon/eu/\">hemen</a>ea zein EAG duzun hurbilen", "operator": "Osakidetza", "operator:type": "public", "operator:wikidata": "Q3822645", "operator:wikipedia": "es:Osakidetza-Servicio Vasco de Salud", "phone": "+34 943007700", "ref:osakidetza": "hospit_bidasoa", "source": "Open Data Euskadi", "type": "multipolygon", "wikidata": "Q12255142", "wikipedia": "eu:Bidasoa Ospitalea"}}]