[{"name": "", "latitude": 43.4997838, "longitude": 12.9414537, "source": "osm", "_tags": {"amenity": "hospital", "healthcare": "hospital"}}, {"name": "Ospedale", "latitude": 43.2476802, "longitude": 13.5079439, "source": "osm", "_tags": {"addr:city": "Corridonia", "addr:postcode": "62014", "amenity": "hospital", "healthcare": "hospital", "name": "Ospedale"}}, {"name": "Casa di Cura San Giuseppe", "latitude": 42.8514698, "longitude": 13.6227292, "source": "osm", "_tags": {"addr:city": "Monticelli", "addr:housenumber": "6", "addr:postcode": "63100", "addr:street": "Via dei Girasoli", "amenity": "hospital", "check_date": "2025-01-03", "healthcare": "hospital", "name": "Casa di Cura San Giuseppe", "operator": "Suore Ospedaliere", "phone": "+39 0736 42325; +39 0736 42335", "website": "https://ascoli.ospedaliere.it/"}}, {"name": "Casa di Cura Villa San Marco", "latitude": 42.8492514, "longitude": 13.5881776, "source": "osm", "_tags": {"addr:city": "Ascoli Piceno", "addr:housenumber": "11", "addr:postcode": "63100", "addr:street": "Via Tre Ottobre", "amenity": "hospital", "healthcare": "hospital", "name": "Casa di Cura Villa San Marco", "phone": "+39 0736 43588", "website": "https://www.villasanmarco.it/"}}, {"name": "", "latitude": 43.2342658, "longitude": 13.6887546, "source": "osm", "_tags": {"amenity": "hospital", "healthcare": "hospital"}}, {"name": "", "latitude": 43.6028436, "longitude": 13.0566341, "source": "osm", "_tags": {"amenity": "hospital"}}, {"name": "", "latitude": 43.1416218, "longitude": 13.2228652, "source": "osm", "_tags": {"amenity": "hospital", "emergency": "no", "healthcare": "hospital"}}, {"name": "Ospedale di Comunità di Castelfidardo", "latitude": 43.4671201, "longitude": 13.5561048, "source": "osm", "_tags": {"amenity": "hospital", "emergency": "no", "healthcare": "hospital", "name": "Ospedale di Comunità di Castelfidardo"}}, {"name": "Ospedale Bartolini", "latitude": 43.7517491, "longitude": 13.0950519, "source": "osm", "_tags": {"addr:street": "Piazza Bartolini", "amenity": "hospital", "emergency": "no", "name": "Ospedale Bartolini"}}, {"name": "Ambulatori", "latitude": 43.4467888, "longitude": 13.1174991, "source": "osm", "_tags": {"amenity": "hospital", "emergency": "yes", "name": "Ambulatori"}}, {"name": "Associazione La Rugiada", "latitude": 43.0772783, "longitude": 13.4914792, "source": "osm", "_tags": {"addr:city": "Servigliano", "addr:country": "IT", "addr:housenumber": "12", "addr:postcode": "63839", "addr:province": "Fermo", "addr:street": "Via Amendola", "amenity": "hospital", "healthcare": "hospital", "name": "Associazione La Rugiada"}}, {"name": "Ospedale \"Principe di Piemonte\"", "latitude": 43.714181, "longitude": 13.2092235, "source": "osm", "_tags": {"amenity": "hospital", "emergency": "yes", "healthcare": "hospital", "name": "Ospedale \"Principe di Piemonte\""}}, {"name": "Ospedale Civitanova Marche", "latitude": 43.308499, "longitude": 13.6953553, "source": "osm", "_tags": {"amenity": "hospital", "emergency": "yes", "healthcare": "hospital", "name": "Ospedale Civitanova Marche"}}, {"name": "Ospedale \"Costanzo e Gaetano Mazzoni\"", "latitude": 42.8515651, "longitude": 13.6201675, "source": "osm", "_tags": {"addr:city": "Monticelli", "addr:housenumber": "6", "addr:postcode": "63100", "addr:street": "Via degli Iris", "amenity": "hospital", "check_date": "2025-02-11", "emergency": "yes", "healthcare": "hospital", "healthcare:speciality": "general", "name": "Ospedale \"Costanzo e Gaetano Mazzoni\"", "old_name": "Ospedale Generale Provinciale \"Costanzo e Gaetano Mazzoni\"", "operator": "AST Ascoli Piceno", "operator:type": "public", "start_date": "1980"}}, {"name": "Casa della salute", "latitude": 43.3074305, "longitude": 13.3155794, "source": "osm", "_tags": {"amenity": "hospital", "building": "hospital", "name": "Casa della salute", "operator": "ASUR 9"}}, {"name": "Ospedale Engles Profili", "latitude": 43.3406614, "longitude": 12.9061267, "source": "osm", "_tags": {"amenity": "hospital", "check_date": "2024-12-04", "healthcare": "hospital", "name": "Ospedale Engles Profili", "wheelchair": "yes"}}, {"name": "Villa Verde", "latitude": 43.1584656, "longitude": 13.7143755, "source": "osm", "_tags": {"amenity": "hospital", "building": "yes", "healthcare": "hospital", "name": "Villa Verde"}}, {"name": "Clinica di Riabilitazione Villa Adria", "latitude": 43.6139115, "longitude": 13.4391479, "source": "osm", "_tags": {"amenity": "hospital", "check_date": "2024-03-25", "healthcare": "hospital", "name": "Clinica di Riabilitazione Villa Adria"}}, {"name": "Casa di Cura Villa Serena", "latitude": 43.5073252, "longitude": 13.182236, "source": "osm", "_tags": {"addr:housenumber": "2", "addr:street": "Via di Colle Onorato", "amenity": "hospital", "healthcare": "hospital", "name": "Casa di Cura Villa Serena", "phone": "+39 0731 262100", "website": "http://www.casadicuravillaserena.com/it"}}, {"name": "Centro di Riabilitazione Santo Stefano", "latitude": 43.2134251, "longitude": 13.2806065, "source": "osm", "_tags": {"addr:street": "Viale 30 giugno", "amenity": "hospital", "name": "Centro di Riabilitazione Santo Stefano", "operator": "Santo Stefano"}}, {"name": "Ospedale di Comunità Maria Montessori", "latitude": 43.5978741, "longitude": 13.3154946, "source": "osm", "_tags": {"addr:city": "Chiaravalle", "addr:housenumber": "176", "addr:postcode": "60033", "addr:street": "Via Fratelli Rosselli", "amenity": "hospital", "check_date": "2024-01-04", "contact:phone": "+39 071 74901", "healthcare": "hospital", "name": "Ospedale di Comunità Maria Montessori", "operator": "ASUR Marche", "wheelchair": "yes"}}, {"name": "Ospedale Sant'Antonio Abate", "latitude": 43.437938, "longitude": 12.8641358, "source": "osm", "_tags": {"addr:city": "Sassoferrato", "addr:housenumber": "11", "addr:postcode": "60041", "addr:street": "Viale Guglielmo Marconi", "alt_name:en": "Saint Anthony Hospital", "alt_name:it": "Ospedale di Sant'Antonio Abate", "amenity": "hospital", "building": "yes", "building:levels": "3", "healthcare": "hospital", "name": "Ospedale Sant'Antonio Abate", "phone": "+39 0732 707545"}}, {"name": "Ospedale Bartolomeo Eustachio", "latitude": 43.2360871, "longitude": 13.1887743, "source": "osm", "_tags": {"addr:city": "San Severino Marche", "addr:housenumber": "8", "addr:postcode": "62027", "addr:street": "Via Glorioso", "amenity": "hospital", "emergency": "yes", "healthcare": "hospital", "name": "Ospedale Bartolomeo Eustachio", "phone": "+39 0733 6421"}}, {"name": "Ospedale Vittorio Emanuele II", "latitude": 42.9819232, "longitude": 13.3632145, "source": "osm", "_tags": {"amenity": "hospital", "healthcare": "hospital", "name": "Ospedale Vittorio Emanuele II", "status": "abandoned"}}, {"name": "Ospedale Santa Maria della Pietà di Camerino", "latitude": 43.1275179, "longitude": 13.0506769, "source": "osm", "_tags": {"amenity": "hospital", "emergency": "yes", "healthcare": "hospital", "name": "Ospedale Santa Maria della Pietà di Camerino"}}, {"name": "Ospedale Enrico Mattei", "latitude": 43.2455157, "longitude": 13.0088611, "source": "osm", "_tags": {"amenity": "hospital", "building": "hospital", "name": "Ospedale Enrico Mattei"}}, {"name": "Centro di Riabilitazione Santo Stefano \"Venerabile Marcucci\"", "latitude": 42.8527171, "longitude": 13.6226318, "source": "osm", "_tags": {"addr:city": "Monticelli", "addr:housenumber": "5", "addr:postcode": "63100", "addr:street": "Via dei Narcisi", "amenity": "hospital", "check_date": "2025-07-09", "healthcare": "hospital", "name": "Centro di Riabilitazione Santo Stefano \"Venerabile Marcucci\"", "operator": "Kos Care", "phone": "+39 0736 6891", "website": "https://kosgroup.com/it/centri/centro-venerabile-marcucci"}}, {"name": "Ospedale Santi Benvenuto e Rocco", "latitude": 43.4852113, "longitude": 13.4875833, "source": "osm", "_tags": {"addr:city": "Osimo", "addr:housenumber": "15", "addr:postcode": "60027", "addr:street": "Via Leopardi", "amenity": "hospital", "emergency": "yes", "healthcare": "hospital", "name": "Ospedale Santi Benvenuto e Rocco", "operator": "INRCA", "phone": "+39 071 71301"}}, {"name": "Istituto Santo Stefano", "latitude": 43.3707627, "longitude": 13.6929003, "source": "osm", "_tags": {"addr:city": "Porto Potenza Picena", "addr:postcode": "62018", "addr:street": "Via Aprutina", "amenity": "hospital", "name": "Istituto Santo Stefano"}}, {"name": "", "latitude": 43.0371773, "longitude": 13.295466, "source": "osm", "_tags": {"addr:city": "Sarnano", "addr:postcode": "62028", "amenity": "hospital", "emergency": "yes", "healthcare": "hospital"}}, {"name": "Ospedale Recanati Santa Lucia", "latitude": 43.3967271, "longitude": 13.5517679, "source": "osm", "_tags": {"amenity": "hospital", "emergency": "yes", "healthcare": "hospital", "name": "Ospedale Recanati Santa Lucia"}}, {"name": "Ospedale di Comunità Santa Casa", "latitude": 43.4365068, "longitude": 13.6068159, "source": "osm", "_tags": {"amenity": "hospital", "emergency": "yes", "healthcare": "hospital", "name": "Ospedale di Comunità Santa Casa"}}, {"name": "Ospedale Macerata", "latitude": 43.2945725, "longitude": 13.4592995, "source": "osm", "_tags": {"amenity": "hospital", "emergency": "yes", "healthcare": "hospital", "name": "Ospedale Macerata"}}, {"name": "Ospedale di Cingoli", "latitude": 43.3717569, "longitude": 13.216717, "source": "osm", "_tags": {"amenity": "hospital", "emergency": "yes", "healthcare": "hospital", "name": "Ospedale di Cingoli", "phone": "+39 0733 601 755", "website": "https://www.agenziamedica.it/strutture/ospedale-di-cingoli-cingoli/"}}, {"name": "Ospedale Civile Fossombrone", "latitude": 43.6854866, "longitude": 12.8040655, "source": "osm", "_tags": {"amenity": "hospital", "emergency": "yes", "healthcare": "hospital", "name": "Ospedale Civile Fossombrone"}}, {"name": "Struttura Complessa di Riabilitazione Intensiva Neuromotoria", "latitude": 42.8785348, "longitude": 12.749189, "source": "osm", "_tags": {"amenity": "hospital", "email": "riabilitazione.trevi@uslumbria2.it", "emergency": "no", "healthcare": "hospital", "healthcare:speciality": "rehabilitation", "name": "Struttura Complessa di Riabilitazione Intensiva Neuromotoria", "operator": "Azienda Unità Sanitaria Locale Umbria n. 2", "phone": "+39 0742 339810", "website": "https://www.uslumbria2.it/pagine/ospedale-di-trevi"}}, {"name": "Casa di Cura Villa dei Pini", "latitude": 43.3128446, "longitude": 13.7199517, "source": "osm", "_tags": {"amenity": "hospital", "healthcare": "hospital", "healthcare:speciality": "cardiology;surgery;oncology;orthopaedics;internal", "name": "Casa di Cura Villa dei Pini", "phone": "+39 0733 7861", "website": "https://www.casadicuravillapini.it/"}}, {"name": "Ospedale dei Sibillini \"Beato Antonio di Amandola\"", "latitude": 42.9703394, "longitude": 13.3532214, "source": "osm", "_tags": {"amenity": "hospital", "construction:start_date": "2020-05", "name": "Ospedale dei Sibillini \"Beato Antonio di Amandola\"", "name:etymology:wikidata": "Q3619898", "operator": "AST Fermo", "start_date": "2024-12-14"}}, {"name": "Casa di cura \"Dottor Bruno Marchetti\"", "latitude": 43.2963231, "longitude": 13.4546931, "source": "osm", "_tags": {"addr:city": "Macerata", "addr:country": "IT", "addr:housenumber": "9", "addr:postcode": "62100", "addr:street": "Via Adriano Ariani", "alt_name": "Clinica Marchetti", "amenity": "hospital", "check_date": "2024-03-24", "emergency": "no", "healthcare:speciality": "clinic", "name": "Casa di cura \"Dottor Bruno Marchetti\"", "operator:type": "private", "payment:cash": "yes", "payment:credit_cards": "yes", "payment:debit_cards": "yes", "phone": "+39 0733 230227", "website": "https://www.casadicuramarchetti.it/", "wheelchair": "yes"}}, {"name": "INRCA - Presidio Ospedaliero di Ricerca \"Ulderico Sestilli\"", "latitude": 43.593856, "longitude": 13.5129973, "source": "osm", "_tags": {"addr:city": "Ancona", "addr:housenumber": "81", "addr:postcode": "60127", "addr:street": "Via Montagnola", "amenity": "hospital", "healthcare": "hospital", "name": "INRCA - Presidio Ospedaliero di Ricerca \"Ulderico Sestilli\"", "old_name": "INRCA - Ospedale Geriatrico Polispecialistico \"Ulderico Sestilli\"", "type": "multipolygon"}}, {"name": "Presidio Ospedaliero \"Gaspare Salesi\"", "latitude": 43.6168828, "longitude": 13.5324233, "source": "osm", "_tags": {"addr:city": "Ancona", "addr:housenumber": "11", "addr:postcode": "60123", "addr:street": "Via Filippo Corridoni", "amenity": "hospital", "check_date": "2025-03-13", "healthcare": "hospital", "healthcare:speciality": "paediatrics", "name": "Presidio Ospedaliero \"Gaspare Salesi\"", "old_name": "Villa Dari;Ospedaletto dei Bambini;Ospedale Pediatrico \"Gaspare Salesi\"", "operator": "Azienda Ospedaliero Universitaria \"Ospedali Riuniti Ancona\"", "type": "multipolygon"}}, {"name": "Ospedali Riuniti - Presidio ospedaliero \"Umberto I\"", "latitude": 43.6020664, "longitude": 13.4538769, "source": "osm", "_tags": {"addr:city": "Ancona", "addr:housenumber": "71", "addr:postcode": "60126", "addr:street": "Via Conca", "alt_name": "Ospedale di Torrette", "amenity": "hospital", "email": "aou.ancona@emarche.it (PEC)", "healthcare": "hospital", "healthcare:speciality": "general;paediatrics;orthopaedics;orthodontics;gynaecology;dermatology;cardiology;emergency;surgery;nephrology;ophthalmology;intensive;physiatry;radiology;oncology;ayurveda;anthroposophical;vaccination;biochemistry;hypnosis;neurology;osteopathy;maternity;u", "name": "Ospedali Riuniti - Presidio ospedaliero \"Umberto I\"", "old_name": "Ospedale Regionale \"Umberto I\"", "operator": "Azienda Ospedaliero Universitaria \"Ospedali Riuniti Ancona Umberto I-G.M. Lancisi-G. Salesi\"", "phone": "+39 071 5961", "type": "multipolygon", "website": "http://www.ospedaliriuniti.marche.it", "wheelchair": "yes"}}, {"name": "Ospedali Riuniti - Presidio ospedaliero \"Giovanni Maria Lancisi\"", "latitude": 43.6031367, "longitude": 13.4543504, "source": "osm", "_tags": {"amenity": "hospital", "healthcare": "hospital", "healthcare:speciality": "cardiology", "name": "Ospedali Riuniti - Presidio ospedaliero \"Giovanni Maria Lancisi\"", "old_name": "Ospedale Cardiologico \"Giovanni Maria Lancisi\"", "operator": "Azienda Ospedaliero Universitaria \"Ospedali Riuniti Ancona Umberto I-G.M. Lancisi-G. Salesi\"", "type": "multipolygon"}}, {"name": "Ospedale \"Carlo Urbani\"", "latitude": 43.5308005, "longitude": 13.2227749, "source": "osm", "_tags": {"addr:housenumber": "25", "addr:street": "Viale Aldo Moro", "amenity": "hospital", "emergency": "yes", "healthcare": "hospital", "name": "Ospedale \"Carlo Urbani\"", "type": "multipolygon"}}, {"name": "Casa di Cura Villa Igea", "latitude": 43.5918682, "longitude": 13.4997689, "source": "osm", "_tags": {"addr:city": "Ancona", "addr:housenumber": "200", "addr:postcode": "60127", "addr:street": "Via Alessandro Maggini", "amenity": "hospital", "brand": "Gruppo Ospedaliero Leonardo", "check_date": "2024-07-31", "contact:facebook": "villaigeaancona", "email": "info@casadicuravillaigea.it", "emergency": "no", "fax": "+39 071 9947987", "healthcare": "hospital", "name": "Casa di Cura Villa Igea", "operator": "Labor SpA", "operator:type": "private", "phone": "+39 071 9948000", "ref:vatin": "IT00204460422", "type": "multipolygon", "website": "https://www.casadicuravillaigea.it/"}}, {"name": "Ospedale Civile \"Augusto Murri\"", "latitude": 43.1623783, "longitude": 13.7055499, "source": "osm", "_tags": {"amenity": "hospital", "emergency": "yes", "healthcare": "hospital", "name": "Ospedale Civile \"Augusto Murri\"", "type": "multipolygon"}}, {"name": "Ospedale Santi Donnino e Carlo", "latitude": 43.5688734, "longitude": 12.8307818, "source": "osm", "_tags": {"amenity": "hospital", "emergency": "yes", "healthcare": "hospital", "name": "Ospedale Santi Donnino e Carlo", "operator": "ASUR Marche", "type": "multipolygon", "wikidata": "Q130314814"}}, {"name": "", "latitude": 42.8188477, "longitude": 13.712251, "source": "osm", "_tags": {"amenity": "hospital", "emergency": "no", "healthcare": "hospital", "type": "multipolygon"}}]