[{"name": "Hôpital local Résidence du Vallon", "latitude": 44.4515024, "longitude": 2.4744077, "source": "osm", "_tags": {"amenity": "hospital", "emergency": "no", "healthcare": "hospital", "name": "Hôpital local Résidence du Vallon", "ref:FR:FINESS": "120000237", "type:FR:FINESS": "106", "wikidata": "Q92062613"}}, {"name": "Clinique Font Redonde", "latitude": 44.6061096, "longitude": 2.0370607, "source": "osm", "_tags": {"amenity": "hospital", "fax": "+33 5 65 34 77 90", "healthcare": "hospital", "name": "Clinique Font Redonde", "operator:type": "private", "phone": "+33 5 65 50 75 75", "ref:FR:FINESS": "460006075", "ref:FR:SIRET": "53940643900015", "type:FR:FINESS": "365", "website": "http://www.clinique-font-redonde.com/"}}, {"name": "Médecin", "latitude": 44.2665299, "longitude": 1.9957018, "source": "osm", "_tags": {"addr:city": "Monteils", "addr:postcode": "12200", "addr:street": "D47", "amenity": "hospital", "healthcare": "hospital", "name": "Médecin"}}, {"name": "Centre SSR La Clauze", "latitude": 44.0340846, "longitude": 2.5016459, "source": "osm", "_tags": {"addr:floor": "2", "amenity": "hospital", "check_date": "2024-03-22", "description": "Paid Wi-Fi", "emergency": "no", "healthcare": "hospital", "healthcare:speciality": "palliative", "internet_access": "wlan", "internet_access:fee": "no", "level": "0", "name": "Centre SSR La Clauze", "name:fr": "Centre SSR La Clauze", "opening_hours": "09:00-19:00", "operator:type": "private_non_profit", "phone": "+33 5 65 46 25 89", "website": "https://laclauze.fr/", "wheelchair": "yes"}}, {"name": "Centre hospitalier d'Albi", "latitude": 43.9258272, "longitude": 2.1424676, "source": "osm", "_tags": {"amenity": "hospital", "email": "direction.hopital@ch-albi.fr", "emergency": "yes", "fax": "+33 5 63 47 47 48", "healthcare": "hospital", "healthcare:speciality": "intensive", "name": "Centre hospitalier d'Albi", "operator:type": "public", "phone": "+33 5 63 47 47 47", "ref:FR:FINESS": "810000505", "source": "cadastre-dgi-fr source : Direction Générale des Impôts - Cadastre ; mise à jour : 2008", "type:FR:FINESS": "355", "website": "http://www.ch-albi.fr/", "wikidata": "Q30261214"}}, {"name": "Centre hospitalier de Gaillac", "latitude": 43.901615, "longitude": 1.8881056, "source": "osm", "_tags": {"amenity": "hospital", "email": "direction@ch-gaillac.fr", "fax": "+33 5 63 42 50 81", "healthcare": "hospital", "name": "Centre hospitalier de Gaillac", "operator:type": "public", "phone": "+33 5 63 42 50 50", "ref:FR:FINESS": "810000513", "source": "cadastre-dgi-fr source : Direction Générale des Impôts - Cadastre. Mise à jour : 2010", "type:FR:FINESS": "355", "website": "https://www.ch-gaillac.com/"}}, {"name": "Centre Mutualiste de Réadaptation Fonctionnelle", "latitude": 43.9262258, "longitude": 2.134403, "source": "osm", "_tags": {"amenity": "hospital", "emergency": "no", "healthcare": "hospital", "name": "Centre Mutualiste de Réadaptation Fonctionnelle", "ref:FR:FINESS": "810000232", "type:FR:FINESS": "109"}}, {"name": "Centre hospitalier de Decazeville - Centre Hospitalier Pierre Delpech", "latitude": 44.5689822, "longitude": 2.2522595, "source": "osm", "_tags": {"addr:city": "Decazeville", "addr:housenumber": "60", "addr:postcode": "12300", "addr:street": "Rue Prosper Alfaric", "alt_name": "Hôpital Pierre Delpech", "amenity": "hospital", "building": "hospital", "emergency": "yes", "fax": "+33 5 65 43 71 53", "healthcare": "hospital", "healthcare:speciality": "vaccination;emergency;general", "name": "Centre hospitalier de Decazeville - Centre Hospitalier Pierre Delpech", "operator": "Centre Hospitalier de Rodez", "operator:type": "public", "phone": "+33 5 65 43 71 71", "ref:FR:FINESS": "120000070", "source": "cadastre-dgi-fr source : Direction Générale des Impôts - Cadastre. Mise à jour : 2010", "type:FR:FINESS": "355", "website": "https://www.ch-decazeville.fr/"}}, {"name": "Centre hospitalier de Villefranche-de-Rouergue - Site de Ruhle", "latitude": 44.3839013, "longitude": 2.029473, "source": "osm", "_tags": {"amenity": "hospital", "building": "hospital", "name": "Centre hospitalier de Villefranche-de-Rouergue - Site de Ruhle", "ref:FR:FINESS": "120008248", "source": "cadastre-dgi-fr source : Direction Générale des Impôts - Cadastre ; mise à jour : 2010", "type:FR:FINESS": "355"}}, {"name": "Clinique Sainte-Barbe", "latitude": 44.0530941, "longitude": 2.1579808, "source": "osm", "_tags": {"amenity": "hospital", "healthcare": "hospital", "name": "Clinique Sainte-Barbe", "ref:FR:FINESS": "810000448", "type:FR:FINESS": "128"}}, {"name": "UMD Louis Crocq", "latitude": 43.9129046, "longitude": 2.1873677, "source": "osm", "_tags": {"addr:postcode": "81000", "addr:street": "Chemin du Séminaire du Roc", "amenity": "hospital", "emergency": "no", "healthcare": "hospital", "name": "UMD Louis Crocq", "ref:FR:FINESS": "810009068", "type:FR:FINESS": "292", "wheelchair": "no"}}, {"name": "Centre hospitalier de Villefranche-de-Rouergue - Site de la Chartreuse", "latitude": 44.3435748, "longitude": 2.0331991, "source": "osm", "_tags": {"amenity": "hospital", "emergency": "yes", "fax": "+33 5 65 65 30 17", "healthcare": "hospital", "name": "Centre hospitalier de Villefranche-de-Rouergue - Site de la Chartreuse", "operator:type": "public", "phone": "+33 5 65 65 30 00", "ref:FR:FINESS": "120000054", "source": "cadastre-dgi-fr source : Direction Générale des Impôts - Cadastre. Mise à jour : 2010", "type:FR:FINESS": "355", "website": "https://www.ch-villefranche-rouergue.fr/index.html", "wikidata": "Q2945673", "wikipedia": "fr:Centre hospitalier La Chartreuse"}}, {"name": "Clinique Saint-Salvadou", "latitude": 43.9111001, "longitude": 2.1685576, "source": "osm", "_tags": {"amenity": "hospital", "healthcare": "hospital", "name": "Clinique Saint-Salvadou", "ref:FR:FINESS": "810101303", "type:FR:FINESS": "430"}}, {"name": "Clinique Toulouse Lautrec", "latitude": 43.9291887, "longitude": 2.1798249, "source": "osm", "_tags": {"addr:housenumber": "2", "addr:street": "Rue Jacques Monod", "amenity": "hospital", "contact:website": "http://www.vitalia-toulouse-lautrec.com/", "healthcare": "hospital", "name": "Clinique Toulouse Lautrec", "phone": "+33 8 26 39 99 41", "ref:FR:FINESS": "810101170", "type:FR:FINESS": "365"}}, {"name": "Hôpital de Jour Agricole Bellevue", "latitude": 43.9147874, "longitude": 2.1632205, "source": "osm", "_tags": {"amenity": "hospital", "contact:website": "http://www.bonsauveuralby.fr/web/fr/139-les-hopitaux-de-jour-d-albi.php", "healthcare": "hospital", "healthcare:speciality": "mental_health", "name": "Hôpital de Jour Agricole Bellevue", "operator": "Fondation Bon Sauveur d'Alby", "ref:FR:FINESS": "810007369", "type:FR:FINESS": "292"}}, {"name": "Centre hospitalier Sainte-Marie", "latitude": 44.3515264, "longitude": 2.5359707, "source": "osm", "_tags": {"alt_name": "Centre Hospitalier Sainte-Marie de Rodez", "amenity": "hospital", "emergency": "no", "healthcare": "hospital", "healthcare:speciality": "psychiatry", "loc_name": "Hopital de Cayssiols", "name": "Centre hospitalier Sainte-Marie", "ref:FR:FINESS": "120004833", "source": "cadastre-dgi-fr source : Direction Générale des Impôts - Cadastre;mise à jour : 2009", "type:FR:FINESS": "255"}}, {"name": "Clinique Claude Bernard", "latitude": 43.9301526, "longitude": 2.1651324, "source": "osm", "_tags": {"amenity": "hospital", "emergency": "yes", "fax": "+33 5 63 46 22 24", "healthcare:speciality": "intensive", "name": "Clinique Claude Bernard", "operator": "Groupe Elsan", "phone": "+33 5 63 77 77 63", "ref:FR:FINESS": "810000224", "ref:FR:NAF": "8610Z", "ref:FR:SIRET": "08692039400011", "type:FR:FINESS": "365", "website": "http://www.claude-bernard-albi.groupe-elsan.com/"}}, {"name": "Centre hospitalier de Figeac", "latitude": 44.6098351, "longitude": 2.0291698, "source": "osm", "_tags": {"amenity": "hospital", "email": "direction@ch-figeac.fr", "emergency": "yes", "fax": "+33 5 65 34 79 77", "healthcare": "hospital", "name": "Centre hospitalier de Figeac", "operator:type": "public", "phone": "+33 5 65 50 65 50", "ref:FR:FINESS": "460000045", "type:FR:FINESS": "355", "website": "https://www.ch-figeac.fr/"}}, {"name": "Centre hospitalier de Rodez", "latitude": 44.3602558, "longitude": 2.5514943, "source": "osm", "_tags": {"alt_name": "Hôpital Jacques Puel", "amenity": "hospital", "emergency": "yes", "fax": "+33 5 65 55 27 19", "healthcare": "hospital", "healthcare:speciality": "intensive", "name": "Centre hospitalier de Rodez", "operator:type": "public", "phone": "+33 5 65 55 12 12", "ref:FR:FINESS": "120000039", "source": "cadastre-dgi-fr source : Direction Générale des Impôts - Cadastre ; mise à jour : 2019", "type:FR:FINESS": "355", "website": "https://www.ch-rodez.fr/", "wikidata": "Q105164377"}}, {"name": "Unité Médico-Psychologique pour Jeunes Enfants (UMPJE)", "latitude": 44.3447307, "longitude": 2.5559421, "source": "osm", "_tags": {"amenity": "hospital", "healthcare": "hospital", "name": "Unité Médico-Psychologique pour Jeunes Enfants (UMPJE)", "operator": "CH Rodez", "ref:FR:FINESS": "120783188", "type:FR:FINESS": "355", "website": "https://www.ch-rodez.fr/usagers/espace-enfant/pedopsychiatrie-367.html"}}]