[{"name": "Ospedali Privati Forlì \"Villa Serena\"", "latitude": 44.2179693, "longitude": 12.0331217, "source": "osm", "_tags": {"amenity": "hospital", "healthcare": "hospital", "name": "Ospedali Privati Forlì \"Villa Serena\"", "operator": "Ospadati Privati Forlì"}}, {"name": "Ospedali Privati Forlì \"Villa Igea\"", "latitude": 44.2171813, "longitude": 12.0582783, "source": "osm", "_tags": {"amenity": "hospital", "check_date": "2024-11-05", "healthcare": "hospital", "name": "Ospedali Privati Forlì \"Villa Igea\"", "operator": "Ospedali Privati Forlì"}}, {"name": "Casa di cura San Francesco", "latitude": 44.4245769, "longitude": 12.2045274, "source": "osm", "_tags": {"amenity": "hospital", "healthcare": "hospital", "name": "Casa di cura San Francesco", "name:etymology:wikidata": "Q676555"}}, {"name": "Ospedale \"Nefetti\"", "latitude": 43.9427299, "longitude": 11.9014853, "source": "osm", "_tags": {"amenity": "hospital", "name": "Ospedale \"Nefetti\""}}, {"name": "", "latitude": 44.0929466, "longitude": 12.404185, "source": "osm", "_tags": {"amenity": "hospital", "healthcare": "hospital"}}, {"name": "Poliambulatorio", "latitude": 44.3887423, "longitude": 11.8260368, "source": "osm", "_tags": {"amenity": "hospital", "name": "Poliambulatorio"}}, {"name": "", "latitude": 44.4437596, "longitude": 11.8299832, "source": "osm", "_tags": {"amenity": "hospital", "healthcare": "hospital"}}, {"name": "Ospedale Capelli", "latitude": 43.956301, "longitude": 12.1947926, "source": "osm", "_tags": {"amenity": "hospital", "healthcare": "hospital", "name": "Ospedale Capelli"}}, {"name": "Presidio Ospedaliero", "latitude": 44.468227, "longitude": 11.9565868, "source": "osm", "_tags": {"amenity": "hospital", "emergency": "no", "name": "Presidio Ospedaliero"}}, {"name": "Ospedale dei villeggianti", "latitude": 44.0592602, "longitude": 12.591387, "source": "osm", "_tags": {"amenity": "hospital", "healthcare": "hospital", "name": "Ospedale dei villeggianti"}}, {"name": "", "latitude": 44.8142688, "longitude": 11.8977238, "source": "osm", "_tags": {"amenity": "hospital", "healthcare": "hospital"}}, {"name": "Ospedale di Cesenatico", "latitude": 44.1895874, "longitude": 12.4094093, "source": "osm", "_tags": {"amenity": "hospital", "emergency": "yes", "healthcare": "hospital", "name": "Ospedale di Cesenatico"}}, {"name": "Ospedale Carlo Eppi", "latitude": 44.7001472, "longitude": 11.810702, "source": "osm", "_tags": {"amenity": "hospital", "healthcare": "hospital", "name": "Ospedale Carlo Eppi"}}, {"name": "Azienda Unità Sanitaria Locale della Romagna", "latitude": 44.22504, "longitude": 12.0508857, "source": "osm", "_tags": {"addr:city": "Forlì", "addr:housenumber": "13", "addr:postcode": "47122", "addr:street": "Via Cristoforo Colombo", "alt_name": "AUSL Romagna", "amenity": "hospital", "full_name": "Centro Unico Prenotazioni - Azienda Unità Sanitaria Locale della Romagna", "healthcare": "hospital", "name": "Azienda Unità Sanitaria Locale della Romagna", "opening_hours": "Mo-Fr 07:30-12:45; Sa 07:30-12:30", "operator": "ASL", "operator:wikidata": "Q3631467", "phone": "+39 0543 733 668"}}, {"name": "Ospedale \"Sacra Famiglia\"", "latitude": 43.890436, "longitude": 12.2872142, "source": "osm", "_tags": {"addr:city": "Novafeltria", "addr:housenumber": "174", "addr:postcode": "47863", "addr:street": "Via 24 maggio", "amenity": "hospital", "check_date": "2025-04-25", "healthcare": "hospital", "name": "Ospedale \"Sacra Famiglia\"", "operator": "ASL Romagna", "operator:type": "public", "wheelchair": "limited"}}, {"name": "CRA Madonna del Cantone", "latitude": 44.1561822, "longitude": 11.7950109, "source": "osm", "_tags": {"addr:city": "Modigliana", "addr:housenumber": "25", "addr:street": "Via Nicolò Ronconi", "amenity": "hospital", "healthcare": "hospital", "name": "CRA Madonna del Cantone"}}, {"name": "Casa della Salute Modigliana", "latitude": 44.156335, "longitude": 11.7954152, "source": "osm", "_tags": {"addr:city": "Modigliana", "addr:housenumber": "31", "addr:street": "Via Canaletto", "amenity": "hospital", "healthcare": "hospital", "name": "Casa della Salute Modigliana"}}, {"name": "Guardia medica", "latitude": 44.1358533, "longitude": 12.4795826, "source": "osm", "_tags": {"amenity": "hospital", "emergency": "yes", "healthcare": "hospital", "name": "Guardia medica"}}, {"name": "Ospedale Premilcuore", "latitude": 43.9787647, "longitude": 11.777626, "source": "osm", "_tags": {"amenity": "hospital", "healthcare": "hospital", "name": "Ospedale Premilcuore"}}, {"name": "Punto Primo Intervento", "latitude": 43.943188, "longitude": 11.9015662, "source": "osm", "_tags": {"amenity": "hospital", "healthcare": "hospital", "name": "Punto Primo Intervento"}}, {"name": "118 Romagna", "latitude": 44.1037544, "longitude": 11.9820627, "source": "osm", "_tags": {"amenity": "hospital", "healthcare": "hospital", "name": "118 Romagna"}}, {"name": "AVIS", "latitude": 44.1083577, "longitude": 12.3178603, "source": "osm", "_tags": {"addr:city": "Cesena", "addr:housenumber": "4", "addr:postcode": "47020", "addr:street": "Via Della Solidarietà", "amenity": "hospital", "healthcare": "hospital", "name": "AVIS", "phone": "0547613193", "website": "https://forlicesena.avisemiliaromagna.it/"}}, {"name": "Ospedale Angioloni", "latitude": 43.8580793, "longitude": 11.9783245, "source": "osm", "_tags": {"addr:housenumber": "36", "addr:street": "via Guglielmo Marconi", "amenity": "hospital", "email": "segr.sanpiero.ce@auslromagna.it", "healthcare": "hospital", "name": "Ospedale Angioloni", "phone": "+39 0543 904111"}}, {"name": "CAU - Centro di Assistenza Urgenza", "latitude": 44.4113634, "longitude": 12.1854402, "source": "osm", "_tags": {"addr:city": "Ravenna", "addr:housenumber": "134", "addr:postcode": "48124", "addr:street": "Via Fiume Montone Abbandonato", "amenity": "hospital", "emergency": "no", "healthcare": "hospital", "name": "CAU - Centro di Assistenza Urgenza", "opening_hours": "Mo-Su 08:00-20:00", "operator": "AUSL Romagna", "website": "https://www.auslromagna.it/luoghi/cau-centri-assistenza-urgenza", "wheelchair": "yes"}}, {"name": "Ospedale Ceccarini", "latitude": 43.9950488, "longitude": 12.6502669, "source": "osm", "_tags": {"amenity": "hospital", "check_date": "2023-10-22", "emergency": "yes", "healthcare": "hospital", "name": "Ospedale Ceccarini"}}, {"name": "Ospedale Infermi Rimini", "latitude": 44.0460081, "longitude": 12.5880031, "source": "osm", "_tags": {"amenity": "hospital", "emergency": "yes", "healthcare": "hospital", "name": "Ospedale Infermi Rimini", "short_name": "Infermi", "wikidata": "Q30026475"}}, {"name": "Ospedale Morgagni-Pierantoni", "latitude": 44.2063511, "longitude": 12.0197488, "source": "osm", "_tags": {"addr:city": "Forlì", "addr:housenumber": "34", "addr:postcode": "47121", "addr:street": "Via Carlo Forlanini", "amenity": "hospital", "emergency": "yes", "healthcare": "hospital", "name": "Ospedale Morgagni-Pierantoni", "wheelchair": "yes", "wikidata": "Q30280331"}}, {"name": "Ospedale di Stato", "latitude": 43.9502553, "longitude": 12.4555132, "source": "osm", "_tags": {"addr:city": "Borgo Maggiore", "addr:housenumber": "20", "addr:postcode": "47893", "addr:street": "Via Vittorio Scialoja", "amenity": "hospital", "emergency": "yes", "healthcare": "hospital", "name": "Ospedale di Stato", "start_date": "1981", "wikidata": "Q3886678", "wikipedia": "it:Ospedale di Stato della Repubblica di San Marino"}}, {"name": "Ospedale Conselice", "latitude": 44.5101756, "longitude": 11.828107, "source": "osm", "_tags": {"amenity": "hospital", "healthcare": "hospital", "name": "Ospedale Conselice"}}, {"name": "Ospedale degli Infermi", "latitude": 44.2886301, "longitude": 11.8744307, "source": "osm", "_tags": {"amenity": "hospital", "emergency": "yes", "healthcare": "hospital", "name": "Ospedale degli Infermi", "wikidata": "Q30281235"}}, {"name": "San Pier Damiano Hospital", "latitude": 44.2863349, "longitude": 11.8665528, "source": "osm", "_tags": {"addr:city": "Faenza", "addr:housenumber": "1", "addr:postcode": "48018", "addr:street": "Via Portisano", "amenity": "hospital", "emergency": "no", "healthcare": "hospital", "healthcare:speciality": "general", "loc_name": "San Pier Damiani", "name": "San Pier Damiano Hospital", "operator": "Villa Maria Cecilia Group", "operator:type": "private", "phone": "+390546671111", "smoking": "outside", "source": "Regione Emilia Romagna;local knowledge", "website": "https://www.gvmnet.it/", "wheelchair": "yes"}}, {"name": "Centro Iperbarico", "latitude": 44.4105753, "longitude": 12.1643942, "source": "osm", "_tags": {"addr:city": "Ravenna", "addr:housenumber": "3", "addr:postcode": "48124", "addr:street": "Via Augusto Torre", "amenity": "hospital", "emergency": "yes", "healthcare": "hospital", "healthcare:speciality": "ossigenoterapia_iperbarica", "name": "Centro Iperbarico", "operator": "Centro Iperbarico S.r.l.", "source": "Regione Emilia Romagna"}}, {"name": "Mezzi Soccorso 118", "latitude": 44.4090126, "longitude": 12.1871911, "source": "osm", "_tags": {"amenity": "hospital", "building": "yes", "healthcare": "hospital", "name": "Mezzi Soccorso 118", "source": "Regione Emilia Romagna"}}, {"name": "Istituto Scientifico Romagnolo per lo Studio e la Cura dei Tumori", "latitude": 44.1245669, "longitude": 12.0652722, "source": "osm", "_tags": {"amenity": "hospital", "healthcare": "hospital", "name": "Istituto Scientifico Romagnolo per lo Studio e la Cura dei Tumori", "short_name": "I.R.S.T."}}, {"name": "Ospedale Maurizio Bufalini", "latitude": 44.1342866, "longitude": 12.2595017, "source": "osm", "_tags": {"alt_name": "Ospedale Bufalini", "amenity": "hospital", "check_date": "2025-06-29", "emergency": "yes", "healthcare": "hospital", "name": "Ospedale Maurizio Bufalini", "reg_name": "Trauma Center Romagna", "source": "Regione Emilia Romagna", "wikidata": "Q3886612", "wikipedia": "it:Ospedale Maurizio Bufalini"}}, {"name": "Casa della salute - Guardia Medica", "latitude": 44.1561696, "longitude": 11.7953237, "source": "osm", "_tags": {"amenity": "hospital", "building": "hospital", "healthcare": "hospital", "name": "Casa della salute - Guardia Medica", "source": "Regione Emilia Romagna"}}, {"name": "Ospedale Franchini di Santarcangelo di Romagna", "latitude": 44.0629651, "longitude": 12.4494562, "source": "osm", "_tags": {"amenity": "hospital", "healthcare": "hospital", "name": "Ospedale Franchini di Santarcangelo di Romagna"}}, {"name": "Casa di Cura Montanari", "latitude": 43.9136037, "longitude": 12.6483806, "source": "osm", "_tags": {"addr:housenumber": "1", "addr:street": "Via Giuseppe Montanari", "amenity": "hospital", "building": "yes", "building:levels": "3", "name": "Casa di Cura Montanari", "rer_edi_id:ref": "84b54d7a-d698-4cb9-bf50-dbbf889ff2b2", "source": "Regione Emilia Romagna", "website": "https://www.casadicuramontanari.it", "wheelchair": "yes"}}, {"name": "", "latitude": 43.9183457, "longitude": 12.655041, "source": "osm", "_tags": {"amenity": "hospital"}}, {"name": "Santa Maria delle Croci", "latitude": 44.4107773, "longitude": 12.1878997, "source": "osm", "_tags": {"addr:city": "Ravenna", "addr:housenumber": "5", "addr:postcode": "48121", "addr:street": "Viale Vincenzo Randi", "amenity": "hospital", "emergency": "yes", "healthcare": "hospital", "name": "Santa Maria delle Croci", "name:en": "Hospital Santa Maria delle Croci", "phone": "+39 0544285111", "website": "https://www.auslromagna.it/luoghi/ospedali/ospedale-ravenna", "wikidata": "Q30280383"}}, {"name": "Casa di cura \"Domus Nova\"", "latitude": 44.419686, "longitude": 12.1848865, "source": "osm", "_tags": {"amenity": "hospital", "emergency": "no", "healthcare": "hospital", "name": "Casa di cura \"Domus Nova\""}}, {"name": "Pronto Soccorso", "latitude": 44.4096975, "longitude": 12.1887256, "source": "osm", "_tags": {"addr:city": "Ravenna", "addr:postcode": "48121", "amenity": "hospital", "building": "yes", "emergency": "yes", "healthcare": "hospital", "name": "Pronto Soccorso", "phone": "+39 0544 285111"}}, {"name": "Casa della salute", "latitude": 44.3179668, "longitude": 11.8011025, "source": "osm", "_tags": {"addr:city": "Castel Bolognese", "addr:housenumber": "3", "addr:postcode": "48014", "addr:street": "Viale Roma", "amenity": "hospital", "check_date": "2025-02-02", "emergency": "no", "healthcare": "hospital", "name": "Casa della salute", "website": "https://www.auslromagna.it/luoghi/case-della-salute/casa-della-salute-castel-bolognese"}}, {"name": "Ospedale Umberto I", "latitude": 44.4162087, "longitude": 11.9194012, "source": "osm", "_tags": {"addr:city": "Lugo", "addr:housenumber": "10", "addr:postcode": "48022", "addr:street": "Viale Dante Alighieri", "amenity": "hospital", "emergency": "yes", "healthcare": "hospital", "name": "Ospedale Umberto I", "website": "https://www.policlinicoumberto1.it/"}}, {"name": "118 Romagna", "latitude": 44.103751, "longitude": 11.9820433, "source": "osm", "_tags": {"amenity": "hospital", "healthcare": "hospital", "name": "118 Romagna"}}, {"name": "118 Romagna", "latitude": 44.1037197, "longitude": 11.9825823, "source": "osm", "_tags": {"amenity": "hospital", "healthcare": "hospital", "name": "118 Romagna"}}, {"name": "CRA Madonna del Cantone", "latitude": 44.1562256, "longitude": 11.7950675, "source": "osm", "_tags": {"amenity": "hospital", "healthcare": "hospital", "name": "CRA Madonna del Cantone"}}, {"name": "118 Romagna", "latitude": 44.1562135, "longitude": 11.7955204, "source": "osm", "_tags": {"amenity": "hospital", "healthcare": "hospital", "name": "118 Romagna"}}, {"name": "CRA S.M. Nazaret", "latitude": 44.1899234, "longitude": 12.0891102, "source": "osm", "_tags": {"amenity": "hospital", "healthcare": "hospital", "name": "CRA S.M. Nazaret"}}, {"name": "Ospedale di Comunità", "latitude": 44.1893276, "longitude": 12.1276336, "source": "osm", "_tags": {"amenity": "hospital", "healthcare": "hospital", "name": "Ospedale di Comunità"}}, {"name": "Ospedale Civile Mazzolani-Vandini", "latitude": 44.6116621, "longitude": 11.8346065, "source": "osm", "_tags": {"amenity": "hospital", "emergency": "yes", "healthcare": "hospital", "name": "Ospedale Civile Mazzolani-Vandini", "operator": "Azienda USL di Ferrara", "operator:type": "public", "website": "https://www.ausl.fe.it/amministrazione/ospedali/ospedale-mazzolani-vandini"}}, {"name": "Sol et salus", "latitude": 44.1137708, "longitude": 12.5030141, "source": "osm", "_tags": {"amenity": "hospital", "emergency": "no", "healthcare": "hospital", "name": "Sol et salus", "operator": "Sol et salus S.P.A.", "operator:type": "private", "phone": "+39 0541 725111", "website": "https://soletsalus.it/"}}, {"name": "Ospedale San Camillo", "latitude": 44.695817, "longitude": 12.1900348, "source": "osm", "_tags": {"amenity": "hospital", "emergency": "no", "healthcare": "hospital", "name": "Ospedale San Camillo", "operator": "AUSL di Ferrara", "operator:type": "public", "website": "https://www.ausl.fe.it/amministrazione/case-della-salute/casa-della-salute-di-comacchio"}}, {"name": "Ospedale del Delta", "latitude": 44.775429, "longitude": 12.1223262, "source": "osm", "_tags": {"amenity": "hospital", "contact:housenumber": "2", "contact:street": "Via Valle Oppio", "emergency": "yes", "healthcare": "hospital", "name": "Ospedale del Delta", "phone": "+39 0533 723111", "start_date": "2001", "wikidata": "Q24941553"}}, {"name": "CAU LUGO", "latitude": 44.4163659, "longitude": 11.9187188, "source": "osm", "_tags": {"amenity": "hospital", "healthcare": "hospital", "name": "CAU LUGO"}}, {"name": "San Giorgio", "latitude": 44.259981, "longitude": 12.3462951, "source": "osm", "_tags": {"amenity": "hospital", "building": "yes", "healthcare": "hospital", "name": "San Giorgio", "source": "Regione Emilia Romagna", "type": "multipolygon"}}, {"name": "Istituto DRUDI", "latitude": 44.1142088, "longitude": 12.0588457, "source": "osm", "_tags": {"amenity": "hospital", "building": "yes", "healthcare": "hospital", "name": "Istituto DRUDI", "type": "multipolygon"}}, {"name": "Casa di Riposo Quisisana", "latitude": 44.1576742, "longitude": 11.7898086, "source": "osm", "_tags": {"amenity": "hospital", "building": "hospital", "healthcare": "hospital", "name": "Casa di Riposo Quisisana", "source": "Regione Emilia Romagna", "type": "multipolygon"}}, {"name": "Villa Maria Cecilia Hospital", "latitude": 44.3968178, "longitude": 11.8957889, "source": "osm", "_tags": {"amenity": "hospital", "healthcare": "hospital", "name": "Villa Maria Cecilia Hospital", "official_name": "Maria Cecilia Hospital", "old_name": "Casa di cura Villa Maria", "operator": "GVM Care & Research", "operator:type": "private", "type": "multipolygon", "wikidata": "Q30281113"}}]