[{"name": "Hôpital Sainte-Marie", "latitude": 44.732355, "longitude": 4.5940897, "source": "osm", "_tags": {"amenity": "hospital", "healthcare": "hospital", "name": "Hôpital Sainte-Marie", "phone": "+33 4 75 20 15 15", "ref:FR:FINESS": "070780317", "type:FR:FINESS": "292", "website": "https://www.ahsm.eu/implantations/centre-hospitalier-sainte-marie-privas", "wikidata": "Q54365935"}}, {"name": "Hôpital Intercommunal Bourg-Saint-Andéol-Viviers", "latitude": 44.3754477, "longitude": 4.6467817, "source": "osm", "_tags": {"alt_name": "Hôpital local Bourg-Saint-Andéol", "amenity": "hospital", "emergency": "no", "healthcare": "hospital", "name": "Hôpital Intercommunal Bourg-Saint-Andéol-Viviers", "phone": "+33 4 75 54 50 61", "ref:FR:FINESS": "070000062", "source": "Le ministère des solidarités et de la santé - 03/2019", "website": "https://www.hi-bsav.fr/", "wikidata": "Q92061580"}}, {"name": "Clinique Ambulatoire de la Cèze", "latitude": 44.1549807, "longitude": 4.6105406, "source": "osm", "_tags": {"addr:housenumber": "217", "addr:postcode": "30200", "addr:street": "Rue André Penchenier", "amenity": "hospital", "healthcare": "hospital", "name": "Clinique Ambulatoire de la Cèze", "phone": "+33 4 66906060", "ref:FR:FINESS": "300014032", "source": "survey", "type:FR:FINESS": "697"}}, {"name": "Hôpital Local Intercommunal de Rocher Largentière", "latitude": 44.5429849, "longitude": 4.2912801, "source": "osm", "_tags": {"amenity": "hospital", "emergency": "no", "healthcare": "hospital", "name": "Hôpital Local Intercommunal de Rocher Largentière", "ref:FR:FINESS": "070000146", "short_name": "CH de Largentière", "source": "Le ministère des solidarités et de la santé - 10/2018", "type:FR:FINESS": "106", "wikidata": "Q92062707"}}, {"name": "Maison de Santé Pluri-professionnelle « Val de Cèze »", "latitude": 44.291591, "longitude": 4.1013167, "source": "osm", "_tags": {"addr:city": "Bessèges", "addr:housenumber": "21", "addr:postcode": "30160", "addr:street": "Rue Alfred Silhol", "amenity": "hospital", "healthcare": "hospital", "name": "Maison de Santé Pluri-professionnelle « Val de Cèze »", "ref:FR:FINESS": "300014297", "type:FR:FINESS": "603"}}, {"name": "", "latitude": 43.9671703, "longitude": 3.8700609, "source": "osm", "_tags": {"amenity": "hospital", "ref:FR:FINESS": "300017092", "source": "Le ministère des solidarités et de la santé - 03/2019"}}, {"name": "", "latitude": 43.9589398, "longitude": 3.8565478, "source": "osm", "_tags": {"amenity": "hospital", "ref:FR:FINESS": "300012572", "source": "Le ministère des solidarités et de la santé - 03/2019"}}, {"name": "", "latitude": 43.9588345, "longitude": 3.8569877, "source": "osm", "_tags": {"amenity": "hospital", "ref:FR:FINESS": "300016870", "source": "Le ministère des solidarités et de la santé - 03/2020"}}, {"name": "Maison de Convalescence la Condamine", "latitude": 44.6745078, "longitude": 4.2210735, "source": "osm", "_tags": {"amenity": "hospital", "description": "Etablissement de réadaptation fonctionnelle", "emergency": "no", "name": "Maison de Convalescence la Condamine", "source": "BDTopo IGN"}}, {"name": "U.S.L.D. Hôpital de Villeneuve-de-Berg", "latitude": 44.5624858, "longitude": 4.5012107, "source": "osm", "_tags": {"amenity": "hospital", "healthcare": "hospital", "name": "U.S.L.D. Hôpital de Villeneuve-de-Berg", "short_name": "ULSD", "source": "BDTopo IGN", "website": "https://www.ch-vdb.fr/services-soins/unite-soins-longue-duree-usld"}}, {"name": "Chabaleyret", "latitude": 44.5716352, "longitude": 3.861009, "source": "osm", "_tags": {"amenity": "hospital", "healthcare": "hospital", "name": "Chabaleyret"}}, {"name": "CIS AMB", "latitude": 44.2489468, "longitude": 4.1981599, "source": "osm", "_tags": {"amenity": "hospital", "healthcare": "hospital", "name": "CIS AMB"}}, {"name": "Cabinet médical", "latitude": 43.9643756, "longitude": 4.2169218, "source": "osm", "_tags": {"amenity": "hospital", "healthcare": "hospital", "healthcare:speciality": "osteopathy", "name": "Cabinet médical"}}, {"name": "Cabinet médical", "latitude": 43.9660764, "longitude": 4.2138898, "source": "osm", "_tags": {"amenity": "hospital", "healthcare": "hospital", "healthcare:speciality": "osteopathy", "name": "Cabinet médical"}}, {"name": "Cabinet Psychologique", "latitude": 44.1545392, "longitude": 4.6196704, "source": "osm", "_tags": {"addr:city": "Bagnols sur Cèze", "addr:postcode": "30200", "addr:street": "Rue du 19 Mars 1962", "amenity": "hospital", "healthcare": "hospital", "name": "Cabinet Psychologique"}}, {"name": "Hôpital privé les Franciscaines", "latitude": 43.8476738, "longitude": 4.3744648, "source": "osm", "_tags": {"amenity": "hospital", "contact:phone": "+33 4 66 76 60 43", "healthcare": "hospital", "healthcare:speciality": "intensive", "name": "Hôpital privé les Franciscaines", "ref:FR:FINESS": "300780152", "ref:FR:SIRET": "58020034300011", "source": "cadastre-dgi-fr source : Direction Générale des Impôts - Cadastre. Mise à jour : 2009", "type:FR:FINESS": "365"}}, {"name": "Polyclinique du Grand Sud", "latitude": 43.8161076, "longitude": 4.35505, "source": "osm", "_tags": {"amenity": "hospital", "contact:facebook": "Polyclinique Du Grand Sud", "emergency": "yes", "fax": "+33 4 66 04 33 33", "healthcare": "hospital", "name": "Polyclinique du Grand Sud", "operator": "Hegagone Santé Méditerranée", "operator:type": "private", "phone": "+33 4 66 04 33 04", "ref:FR:FINESS": "300788502", "ref:FR:SIRET": "39328524200037", "source": "cadastre-dgi-fr source : Direction Générale des Impôts - Cadastre;mise à jour : 2009", "type:FR:FINESS": "365", "website": "https://grandsud.hsmed.fr/"}}, {"name": "Clinique Kennedy", "latitude": 43.8316462, "longitude": 4.347643, "source": "osm", "_tags": {"amenity": "hospital", "healthcare": "hospital", "name": "Clinique Kennedy", "ref:FR:FINESS": "300781465", "type:FR:FINESS": "365"}}, {"name": "Centre de Gérontologie de Serre Cavalier", "latitude": 43.8489998, "longitude": 4.3772626, "source": "osm", "_tags": {"amenity": "hospital", "healthcare": "hospital", "name": "Centre de Gérontologie de Serre Cavalier", "operator": "CHU de Nîmes", "phone": "+33 4 66 68 34 71", "ref:FR:FINESS": "300782125", "source": "cadastre-dgi-fr source : Direction Générale des Impôts - Cadastre;mise à jour : 2009", "type:FR:FINESS": "101"}}, {"name": "Clinique Bonnefon", "latitude": 44.1220745, "longitude": 4.086742, "source": "osm", "_tags": {"addr:city": "Alès", "addr:housenumber": "45", "addr:postcode": "30100", "addr:street": "Avenue Carnot", "amenity": "hospital", "emergency": "yes", "fax": "+33 4 66 56 34 78", "healthcare": "hospital", "name": "Clinique Bonnefon", "opening_hours": "Mo-Su 08:00-20:00", "operator:type": "private", "phone": "+33 4 66 56 34 00", "ref:FR:FINESS": "300780137", "source": "cadastre-dgi-fr source : Direction Générale des Impôts - Cadastre. Mise à jour : 2010", "type:FR:FINESS": "365", "website": "https://www.elsan.care/fr/nouvelle-clinique-bonnefon"}}, {"name": "", "latitude": 44.010247, "longitude": 4.4199245, "source": "osm", "_tags": {"amenity": "hospital", "building": "yes", "source": "cadastre-dgi-fr source : Direction Générale des Impôts - Cadastre. Mise à jour : 2011"}}, {"name": "Centre hospitalier Paul Ribeyre", "latitude": 44.6550918, "longitude": 4.3696528, "source": "osm", "_tags": {"amenity": "hospital", "healthcare": "hospital", "name": "Centre hospitalier Paul Ribeyre", "operator": "Centre Hospitalier d’Ardèche Méridionale", "phone": "+33 4 75 35 60 60", "ref:FR:FINESS": "070000484", "source": "Le ministère des solidarités et de la santé - 03/2019", "website": "https://www.ch-ardeche-meridionale.fr/"}}, {"name": "Centre hospitalier Ardèche Méridionale", "latitude": 44.6128609, "longitude": 4.3972169, "source": "osm", "_tags": {"amenity": "hospital", "emergency": "yes", "fax": "+33 4 75 35 61 40", "healthcare": "hospital", "loc_name": "Hôpital d'Aubenas", "name": "Centre hospitalier Ardèche Méridionale", "operator:type": "public", "phone": "+33 4 75 35 60 60", "ref:FR:FINESS": "070000609", "type:FR:FINESS": "355", "website": "https://www.ch-ardeche-meridionale.fr/"}}, {"name": "Centre hospitalier de Bagnols-sur-Cèze", "latitude": 44.1588125, "longitude": 4.6165745, "source": "osm", "_tags": {"alt_name": "Hôpital Louis Pasteur", "amenity": "hospital", "emergency": "yes", "fax": "+33 4 66 79 11 92", "healthcare:speciality": "general", "name": "Centre hospitalier de Bagnols-sur-Cèze", "operator:type": "public", "phone": "+33 4 66 79 10 11", "ref:FR:FINESS": "300000031", "source": "cadastre-dgi-fr source : Direction Générale des Finances Publiques - Cadastre. Mise à jour : 2019", "type:FR:FINESS": "355", "website": "https://www.ch-bagnolssurceze.fr/"}}, {"name": "SSR Les Cadières", "latitude": 44.131578, "longitude": 4.124024, "source": "osm", "_tags": {"building": "hospital", "healthcare": "hospital", "healthcare:speciality": "physiatry", "name": "SSR Les Cadières", "ref:FR:FINESS": "300002169", "source": "cadastre-dgi-fr source : Direction Générale des Impôts - Cadastre. Mise à jour : 2013", "type:FR:FINESS": "109"}}, {"name": "Hôpital local d’Uzès", "latitude": 44.0042612, "longitude": 4.4177033, "source": "osm", "_tags": {"addr:city": "Uzès", "addr:postcode": "30700", "amenity": "hospital", "healthcare": "hospital", "name": "Hôpital local d’Uzès", "phone": "+33 4 66637100", "ref:FR:FINESS": "300000064", "source": "Bing", "type:FR:FINESS": "106", "website": "http://www.hopital-local-uzes.fr", "wikidata": "Q92061582"}}, {"name": "Hôpital du Mas Careiron", "latitude": 44.0050085, "longitude": 4.409511, "source": "osm", "_tags": {"addr:city": "Uzès", "addr:postcode": "30700", "amenity": "hospital", "healthcare": "hospital", "name": "Hôpital du Mas Careiron", "phone": "+33 4 66 62 69 00", "ref:FR:FINESS": "300000080", "type:FR:FINESS": "292"}}, {"name": "Centre de rééducation respiratoire Folcheran", "latitude": 44.4164177, "longitude": 4.0779788, "source": "osm", "_tags": {"amenity": "hospital", "building": "yes", "description": "Etablissement de réadaptation fonctionnelle", "emergency": "no", "name": "Centre de rééducation respiratoire Folcheran", "source": "cadastre-dgi-fr source : Direction Générale des Finances Publiques - Cadastre. Mise à jour : 2014", "source:amenity": "BDTopo IGN"}}, {"name": "CHU de Nîmes", "latitude": 43.8241293, "longitude": 4.3212313, "source": "osm", "_tags": {"alt_name": "Hôpital Carémeau", "amenity": "hospital", "emergency": "yes", "fax": "+33 4 66 68 31 00", "healthcare": "hospital", "name": "CHU de Nîmes", "official_name": "Centre Hospitalier Universitaire Carémeau de Nîmes", "phone": "+33 4 66 68 68 68", "ref:FR:FINESS": "300002805", "ref:FR:SIRET": "26300003600032", "type:FR:FINESS": "101", "website": "http://www.chu-nimes.fr/"}}, {"name": "Hôpital Local Claude Déjean de Villeneuve-de-Berg", "latitude": 44.5603848, "longitude": 4.5011195, "source": "osm", "_tags": {"alt_name": "Hôpital Claude Déjean", "amenity": "hospital", "healthcare": "hospital", "loc_name": "Hôpital de Villeneuve-de-Berg", "name": "Hôpital Local Claude Déjean de Villeneuve-de-Berg", "phone": "+33 4 75 88 80 25", "ref:FR:FINESS": "070000047", "type:FR:FINESS": "106", "website": "https://www.ch-vdb.fr/", "wikidata": "Q92062631"}}, {"name": "Centre hospitalier Pont-Saint-Esprit", "latitude": 44.2650787, "longitude": 4.6434912, "source": "osm", "_tags": {"addr:city": "Pont-Saint-Esprit", "addr:postcode": "30134", "addr:street": "Rue Philippe Le Bel", "amenity": "hospital", "email": "accueil@hopitalpse.fr", "healthcare": "hospital", "name": "Centre hospitalier Pont-Saint-Esprit", "phone": "+33466334000", "ref:FR:FINESS": "300000056", "source": "Le ministère des solidarités et de la santé - 03/2019", "website": "https://www.hopitalpse.fr/", "wheelchair": "yes", "wikidata": "Q92062732"}}, {"name": "Centre soins et suite de réadaptation SAMDO La Pomarède", "latitude": 44.2121753, "longitude": 4.0204302, "source": "osm", "_tags": {"addr:city": "Les Salles-du-Gardon", "addr:housenumber": "5000", "addr:postcode": "30110", "addr:street": "Rue de la Maternité", "amenity": "hospital", "building:levels": "3", "emergency": "no", "healthcare": "hospital", "healthcare:speciality": "radiology;physiatry", "name": "Centre soins et suite de réadaptation SAMDO La Pomarède", "operator": "Entreprise Groupe Samdo", "operator:type": "private", "source": "cadastre-dgi-fr source : Direction Générale des Finances Publiques - Cadastre. Mise à jour : 2015", "wheelchair": "yes"}}, {"name": "Institut de Cancérologie du Gard", "latitude": 43.8218554, "longitude": 4.3231253, "source": "osm", "_tags": {"amenity": "hospital", "architect": "MBA", "building": "hospital", "building:levels": "7", "healthcare": "hospital", "name": "Institut de Cancérologie du Gard", "phone": "+33 4 66 68 68 68", "short_name": "ICG", "source": "survey", "start_date": "2015"}}, {"name": "Centre hospitalier Alès-Cévennes", "latitude": 44.1466, "longitude": 4.0964104, "source": "osm", "_tags": {"amenity": "hospital", "emergency": "yes", "fax": "+33 4 66 78 33 00", "healthcare": "hospital", "healthcare:speciality": "intensive", "name": "Centre hospitalier Alès-Cévennes", "operator:type": "public", "phone": "+33 4 66 78 33 33", "ref:FR:FINESS": "300000023", "type:FR:FINESS": "355", "website": "http://www.ch-ales.fr/Accueil/"}}, {"name": "Centre hospitalier de Langogne", "latitude": 44.7253602, "longitude": 3.8405478, "source": "osm", "_tags": {"amenity": "hospital", "email": "contact@ch-langogne.fr", "fax": "+33 4 66 69 78 77", "healthcare": "hospital", "name": "Centre hospitalier de Langogne", "operator:type": "public", "phone": "+33 4 66 69 78 00", "ref:FR:FINESS": "480000074", "type:FR:FINESS": "106", "website": "https://ch-langogne.fr/", "wikidata": "Q92061600"}}, {"name": "Clinique du Vivarais", "latitude": 44.6116693, "longitude": 4.3905914, "source": "osm", "_tags": {"amenity": "hospital", "emergency": "no", "healthcare": "hospital", "name": "Clinique du Vivarais", "phone": "+33 4 75 35 70 00", "ref:FR:FINESS": "070780168", "type:FR:FINESS": "365", "website": "http://www.clinique-vivarais.com/"}}, {"name": "Clinique Les Sophoras", "latitude": 43.8553797, "longitude": 4.3830903, "source": "osm", "_tags": {"addr:city": "Nîmes", "addr:postcode": "30000", "addr:street": "Rue des Sophoras", "amenity": "hospital", "contact:facebook": "Clinique les Sophoras", "emergency": "no", "fax": "+33 4 66 62 79 01", "healthcare": "hospital", "healthcare:speciality": "psychiatry", "name": "Clinique Les Sophoras", "operator:type": "private", "phone": "+33 4 66 62 79 00", "ref:FR:FINESS": "300780269", "type:FR:FINESS": "161", "website": "http://www.clinique-sophoras.com"}}, {"name": "Institut Médico-Educatif", "latitude": 43.8357168, "longitude": 4.3418125, "source": "osm", "_tags": {"amenity": "hospital", "healthcare": "hospital", "name": "Institut Médico-Educatif", "operator": "Croix Rouge", "ref:FR:FINESS": "300780384", "type:FR:FINESS": "109", "website": "https://pourvous.croix-rouge.fr/service-de-psychiatrie-infanto-juvenile-montaury"}}, {"name": "Centre hospitalier Sully Eldin de Vallon-Pont-d'Arc", "latitude": 44.4058759, "longitude": 4.395812, "source": "osm", "_tags": {"amenity": "hospital", "name": "Centre hospitalier Sully Eldin de Vallon-Pont-d'Arc", "phone": "+33 4 75 88 42 50", "ref:FR:FINESS": "070000039", "source": "Le ministère des solidarités et de la santé - 03/2019", "website": "https://www.ch-vallon.fr/", "wikidata": "Q92063162"}}, {"name": "Foyer d'Accueil Médicalisé Kerchène", "latitude": 44.3098552, "longitude": 4.6944707, "source": "osm", "_tags": {"amenity": "hospital", "description": "Foyer d'accueil médicalisé", "emergency": "no", "healthcare": "hospital", "name": "Foyer d'Accueil Médicalisé Kerchène", "source": "BDTopo IGN"}}, {"name": "Foyer Saint-Nicolas", "latitude": 44.7737767, "longitude": 3.8804802, "source": "osm", "_tags": {"amenity": "hospital", "description": "Foyer d'accueil médicalisé", "emergency": "no", "name": "Foyer Saint-Nicolas", "source": "BDTopo IGN"}}, {"name": "Centre de post-cure la Croix Bleue", "latitude": 44.3643385, "longitude": 4.3984194, "source": "osm", "_tags": {"amenity": "hospital", "description": "Etablissement de réadaptation fonctionnelle", "healthcare": "hospital", "healthcare:speciality": "physiatry", "name": "Centre de post-cure la Croix Bleue", "ref:FR:FINESS": "070784897", "short_name": "Croix Bleue", "source:geometry": "BDTopo IGN", "type:FR:FINESS": "109"}}, {"name": "Centre hospitalier des Cévennes ardéchoises", "latitude": 44.4786655, "longitude": 4.2392765, "source": "osm", "_tags": {"amenity": "hospital", "emergency": "no", "healthcare": "hospital", "loc_name": "Hôpital de Joyeuse", "name": "Centre hospitalier des Cévennes ardéchoises", "old_name": "Hopital Local de Joyeuse", "ref:FR:FINESS": "070000021", "source": "cadastre-dgi-fr source : Direction Générale des Impôts - Cadastre. Mise à jour : 2011", "website": "https://www.ch-ca.fr/"}}, {"name": "Centre Hospitalier Privas Ardèche", "latitude": 44.7303373, "longitude": 4.5838114, "source": "osm", "_tags": {"amenity": "hospital", "emergency": "yes", "fax": "+33 4 75 20 21 90", "healthcare": "hospital", "name": "Centre Hospitalier Privas Ardèche", "operator:type": "public", "phone": "+33 4 75 20 20 00", "ref:FR:FINESS": "070000013", "source": "BDTopo IGN", "type:FR:FINESS": "355", "website": "https://www.ch-privas.fr/"}}, {"name": "Clinique psychiatrique", "latitude": 43.8268721, "longitude": 4.3193767, "source": "osm", "_tags": {"architect": "AIA", "building": "yes", "healthcare": "hospital", "healthcare:speciality": "psychiatry", "name": "Clinique psychiatrique", "source": "cadastre-dgi-fr source : Direction Générale des Finances Publiques - Cadastre. Mise à jour : 2018", "start_date": "2013", "type": "multipolygon"}}]