[{"name": "Centre des Carmes", "latitude": 44.0587704, "longitude": 6.1475717, "source": "osm", "_tags": {"addr:city": "Aiglun", "addr:housenumber": "689", "addr:postcode": "04510", "addr:street": "Avenue Marius Autric", "amenity": "hospital", "email": "centre.des.carmes@wanadoo.fr", "emergency": "no", "fax": "+33 4 92 34 60 49", "healthcare": "hospital", "name": "Centre des Carmes", "phone": "+33 4 92 30 34 00", "ref:FR:FINESS": "040002248", "type:FR:FINESS": "362", "website": "http://www.centre-des-carmes-aiglun.fr", "wheelchair": "yes", "wikidata": "Q112975078"}}, {"name": "Centre de Réadaptation", "latitude": 44.0588545, "longitude": 6.1481023, "source": "osm", "_tags": {"amenity": "hospital", "beds": "70", "healthcare": "hospital", "name": "Centre de Réadaptation", "ref:FR:FINESS": "040780405", "type:FR:FINESS": "109"}}, {"name": "", "latitude": 44.5761918, "longitude": 6.3609321, "source": "osm", "_tags": {"amenity": "hospital", "emergency": "no", "healthcare": "hospital"}}, {"name": "", "latitude": 44.4572537, "longitude": 6.0491081, "source": "osm", "_tags": {"amenity": "hospital", "healthcare": "hospital"}}, {"name": "", "latitude": 44.4900443, "longitude": 6.7183361, "source": "osm", "_tags": {"amenity": "hospital", "healthcare": "hospital"}}, {"name": "Centre hospitalier intercommunal des Alpes du Sud", "latitude": 44.1929536, "longitude": 5.9438077, "source": "osm", "_tags": {"alt_name": "Centre hospitalier de Sisteron", "amenity": "hospital", "emergency": "yes", "fax": "+33 4 92 33 71 81", "healthcare": "hospital", "name": "Centre hospitalier intercommunal des Alpes du Sud", "operator:type": "public", "phone": "+33 4 92 33 70 00", "ref:FR:FINESS": "040000135", "ref:FR:SIRET": "26050347900057", "short_name": "CHICAS", "source": "cadastre-dgi-fr source : Direction Générale des Impôts - Cadastre. Mise à jour : 2009", "type:FR:FINESS": "355", "website": "https://www.chicas-gap.fr/", "wikidata": "Q64937929"}}, {"name": "Centre de Santé de Manosque", "latitude": 43.8302523, "longitude": 5.7805769, "source": "osm", "_tags": {"addr:city": "Manosque", "addr:postcode": "04100", "addr:street": "Avenue du Majoral Mestre Raoul Arnaud", "amenity": "hospital", "building": "yes", "healthcare": "yes", "healthcare:speciality": "dentist;biology;radiology;nurse", "name": "Centre de Santé de Manosque", "phone": "+33 4 92 70 58 60", "ref:FR:FINESS": "040003816", "type:FR:FINESS": "124", "website": "http://www.cdsmanosque.fr/"}}, {"name": "Centre Rhône-Azur", "latitude": 44.5681498, "longitude": 6.0691169, "source": "osm", "_tags": {"amenity": "hospital", "building": "yes", "healthcare": "hospital", "healthcare:speciality": "physiatry", "name": "Centre Rhône-Azur", "ref:FR:FINESS": "050002351", "source": "cadastre-dgi-fr source : Direction Générale des Impôts - Cadastre. Mise à jour : 2010", "type:FR:FINESS": "109"}}, {"name": "Hôpital de Riez", "latitude": 43.81894, "longitude": 6.090125, "source": "osm", "_tags": {"amenity": "hospital", "building": "yes", "name": "Hôpital de Riez", "ref:FR:FINESS": "040000119", "source": "cadastre-dgi-fr source : Direction Générale des Impôts - Cadastre. Mise à jour : 2010", "wheelchair": "limited", "wikidata": "Q92063290"}}, {"name": "Centre médical Rio Vert", "latitude": 44.423967, "longitude": 6.000384, "source": "osm", "_tags": {"addr:housenumber": "650", "addr:street": "Avenue de Marseille", "amenity": "hospital", "building": "yes", "healthcare": "hospital", "healthcare:speciality": "physiatry", "name": "Centre médical Rio Vert", "phone": "+33 4 92 54 76 76", "ref:FR:FINESS": "050000058", "source": "cadastre-dgi-fr source : Direction Générale des Impôts - Cadastre. Mise à jour : 2011", "type:FR:FINESS": "109"}}, {"name": "Hôpital Pierre Grouès", "latitude": 44.3877995, "longitude": 6.6495265, "source": "osm", "_tags": {"addr:city": "Barcelonnette", "addr:country": "FR", "addr:housenumber": "8", "addr:postcode": "04400", "addr:street": "Rue Maurin", "amenity": "hospital", "building": "hospital", "email": "direction-barcelonnette@hopitaux-ubayens.fr", "fax": "+33 4 92 80 80 29", "healthcare": "hospital", "name": "Hôpital Pierre Grouès", "operator:type": "public", "phone": "+33 4 92 80 80 20", "ref:FR:FINESS": "040000036", "source": "cadastre-dgi-fr source : Direction Générale des Impôts - Cadastre. Mise à jour : 2011", "type:FR:FINESS": "106", "website": "http://barcelonnette.hopitaux-ubayens.fr/barcelonnette/", "wikidata": "Q92062404"}}, {"name": "Centre hospitalier intercommunal des Alpes du Sud", "latitude": 44.5571763, "longitude": 6.0729373, "source": "osm", "_tags": {"addr:housenumber": "1", "addr:street": "Place Auguste Muret", "alt_name": "Centre hospitalier de Gap", "amenity": "hospital", "emergency": "yes", "fax": "+33 4 92 40 61 03", "healthcare": "hospital", "healthcare:speciality": "intensive", "name": "Centre hospitalier intercommunal des Alpes du Sud", "operator:type": "public", "phone": "+33 4 92 40 61 61", "ref:FR:FINESS": "050000348", "short_name": "CHICAS", "type:FR:FINESS": "355", "website": "https://www.chicas-gap.fr/", "wikidata": "Q64937929"}}, {"name": "Clinique Toutes Aures", "latitude": 43.8242372, "longitude": 5.781246, "source": "osm", "_tags": {"addr:housenumber": "393", "addr:street": "Avenue des Savels", "amenity": "hospital", "building": "yes", "healthcare": "hospital", "healthcare:speciality": "surgery", "name": "Clinique Toutes Aures", "ref:FR:FINESS": "040780470", "source": "cadastre-dgi-fr source : Direction Générale des Impôts - Cadastre. Mise à jour : 2010", "type:FR:FINESS": "128"}}, {"name": "Hôpital local de Castellane", "latitude": 43.8467206, "longitude": 6.507957, "source": "osm", "_tags": {"amenity": "hospital", "landuse": "healthcare", "name": "Hôpital local de Castellane", "ref:FR:FINESS": "040000044", "source": "Le ministère des solidarités et de la santé - 03/2019", "website": "http://www.hopital-castellane.fr", "wikidata": "Q92062447"}}, {"name": "Centre hospitalier de Digne-les-Bains", "latitude": 44.0714958, "longitude": 6.17387, "source": "osm", "_tags": {"addr:city": "Digne-les-Bains", "addr:housenumber": "BP 213", "addr:postcode": "04003", "addr:street": "Quartier Saint-Christophe", "amenity": "hospital", "email": "secretariat.direction@ch-digne.fr", "emergency": "yes", "fax": "+33 4 92 30 14 00", "healthcare": "hospital", "healthcare:speciality": "intensive", "landuse": "healthcare", "name": "Centre hospitalier de Digne-les-Bains", "phone": "+33 4 92 30 15 15", "ref:FR:FINESS": "040000911", "ref:FR:NAF": "8610Z", "type:FR:FINESS": "355", "website": "http://www.ch-digne.fr/", "wheelchair": "yes", "wikidata": "Q65509970"}}, {"name": "EPS Vallée de la Blanche", "latitude": 44.3530913, "longitude": 6.3602614, "source": "osm", "_tags": {"addr:city": "Seyne", "addr:postcode": "04140", "addr:street": "Route de St Pons", "amenity": "hospital", "healthcare": "hospital", "healthcare:speciality": "geriatrics", "name": "EPS Vallée de la Blanche", "phone": "+33 4 92 30 94 94", "ref:FR:FINESS": "040000127", "type:FR:FINESS": "106", "wikidata": "Q92063091"}}, {"name": "Centre hospitalier d'Embrun", "latitude": 44.5612505, "longitude": 6.4932364, "source": "osm", "_tags": {"amenity": "hospital", "emergency": "yes", "fax": "+33 4 92 43 73 01", "healthcare": "hospital", "landuse": "healthcare", "name": "Centre hospitalier d'Embrun", "operator:type": "public", "phone": "+33 4 92 43 73 00", "ref:FR:FINESS": "050000256", "type:FR:FINESS": "355", "website": "https://www.ch-embrun.fr/", "wikidata": "Q107451202"}}, {"name": "Centre hospitalier Buëch-Durance", "latitude": 44.3229081, "longitude": 5.8116674, "source": "osm", "_tags": {"addr:city": "Laragne-Montéglin", "addr:postcode": "05300", "addr:street": "Route d'Arzeliers", "amenity": "hospital", "email": "contact@chbd-laragne.fr", "emergency": "no", "healthcare": "hospital", "healthcare:speciality": "psychiatry;physiatry", "landuse": "healthcare", "name": "Centre hospitalier Buëch-Durance", "phone": "+33 4 92 65 11 68", "ref:FR:FINESS": "050000132", "source": "aerial", "website": "https://www.chbd-laragne.fr/", "wikidata": "Q104875331"}}, {"name": "Polyclinique des Alpes du Sud", "latitude": 44.5687169, "longitude": 6.0703875, "source": "osm", "_tags": {"addr:housenumber": "3", "addr:street": "Rue Antonin Coronat", "amenity": "hospital", "healthcare": "hospital", "name": "Polyclinique des Alpes du Sud", "phone": "+33 4 92 40 15 15", "ref:FR:FINESS": "050000090", "type:FR:FINESS": "365", "website": "http://www.clinalpsud.fr/fr/"}}, {"name": "Centre de Santé de Manosque", "latitude": 43.830169, "longitude": 5.7809506, "source": "osm", "_tags": {"amenity": "hospital", "healthcare": "hospital", "name": "Centre de Santé de Manosque"}}, {"name": "Centre hospitalier Louis Raffalli", "latitude": 43.8286119, "longitude": 5.8058273, "source": "osm", "_tags": {"addr:street": "Chemin Auguste Girard", "alt_name": "Centre hospitalier de Manosque", "amenity": "hospital", "building": "hospital", "emergency": "yes", "fax": "+33 4 92 77 72 42", "healthcare": "hospital", "name": "Centre hospitalier Louis Raffalli", "operator:type": "public", "phone": "+33 4 92 73 42 00", "ref:FR:FINESS": "040000093", "type": "multipolygon", "type:FR:FINESS": "355", "website": "https://www.ch-manosque.fr//", "wheelchair": "limited"}}]