[{"name": "Casa della salute", "latitude": 44.6229718, "longitude": 9.3315838, "source": "osm", "_tags": {"addr:city": "Ottone", "addr:housenumber": "33", "addr:postcode": "29026", "addr:street": "via Roma", "amenity": "hospital", "healthcare": "hospital", "healthcare:speciality": "general", "name": "Casa della salute", "operator": "AUSL", "operator:type": "public"}}, {"name": "Ospedaletto", "latitude": 44.4055317, "longitude": 9.2431181, "source": "osm", "_tags": {"amenity": "hospital", "emergency": "no", "name": "Ospedaletto", "operator": "Azienda Sanitaria Locale 4 \"Chiavarese\""}}, {"name": "Azienda Sanitaria AL", "latitude": 44.7242659, "longitude": 8.856054, "source": "osm", "_tags": {"amenity": "hospital", "name": "Azienda Sanitaria AL"}}, {"name": "", "latitude": 44.472025, "longitude": 8.9585047, "source": "osm", "_tags": {"addr:city": "Torrazza", "addr:housenumber": "8", "addr:postcode": "16010", "addr:street": "Via Leonardo da Vinci", "amenity": "hospital", "healthcare": "hospital"}}, {"name": "Palazzo della Salute - Villa De Mari - ASL 3", "latitude": 44.4281938, "longitude": 8.7711159, "source": "osm", "_tags": {"addr:city": "Genova", "addr:housenumber": "1b", "addr:street": "Via De Mari", "amenity": "clinic", "healthcare": "hospital", "name": "Palazzo della Salute - Villa De Mari - ASL 3"}}, {"name": "Croce Rossa Italiana", "latitude": 44.51947, "longitude": 9.1595922, "source": "osm", "_tags": {"addr:street": "Via Ponte Nuovo", "brand": "Croce Rossa Italiana", "brand:wikidata": "Q913903", "brand:wikipedia": "it:Croce Rossa Italiana", "emergency": "ambulance_station", "healthcare": "hospital", "name": "Croce Rossa Italiana"}}, {"name": "Croce Rossa - Bargagli -", "latitude": 44.4501721, "longitude": 9.0867459, "source": "osm", "_tags": {"addr:city": "Bargagli", "addr:housenumber": "147", "addr:street": "Via Aimone Martini", "brand": "Croce Rossa Italiana", "brand:wikidata": "Q913903", "emergency": "ambulance_station", "healthcare": "hospital", "name": "Croce Rossa - Bargagli -"}}, {"name": "Croce Rossa Italiana - Chiavari -", "latitude": 44.3194153, "longitude": 9.323513, "source": "osm", "_tags": {"addr:city": "Chiavari", "addr:housenumber": "6", "addr:street": "Salita Alessio Levaggi", "check_date": "2024-05-09", "emergency": "ambulance_station", "healthcare": "hospital", "name": "Croce Rossa Italiana - Chiavari -"}}, {"name": "Croce Rossa Italiana - Cicagna", "latitude": 44.4054912, "longitude": 9.2412638, "source": "osm", "_tags": {"addr:city": "Cicagna", "addr:housenumber": "98", "addr:postcode": "16044", "addr:street": "Via G.B. Valente", "emergency": "ambulance_station", "healthcare": "hospital", "name": "Croce Rossa Italiana - Cicagna"}}, {"name": "Croce Rossa - Cogorno -", "latitude": 44.3282531, "longitude": 9.350556, "source": "osm", "_tags": {"addr:city": "Cogorno", "addr:housenumber": "10", "addr:street": "Via alla Croce Rossa", "brand": "Croce Rossa Italiana", "brand:wikidata": "Q913903", "emergency": "ambulance_station", "healthcare": "hospital", "name": "Croce Rossa - Cogorno -"}}, {"name": "Croce Rossa - Davagna", "latitude": 44.4608844, "longitude": 9.0775972, "source": "osm", "_tags": {"addr:city": "Davagna", "addr:housenumber": "9", "addr:street": "Via Sottana", "brand": "Croce Rossa Italiana", "brand:wikidata": "Q913903", "emergency": "ambulance_station", "healthcare": "hospital", "name": "Croce Rossa - Davagna"}}, {"name": "Croce Rossa - Gattorna -", "latitude": 44.4290987, "longitude": 9.1865627, "source": "osm", "_tags": {"addr:housenumber": "31", "addr:street": "Via del Commercio", "brand": "Croce Rossa Italiana", "brand:wikidata": "Q913903", "emergency": "ambulance_station", "healthcare": "hospital", "name": "Croce Rossa - Gattorna -"}}, {"name": "Croce Rossa - Lavagna", "latitude": 44.3102057, "longitude": 9.3459042, "source": "osm", "_tags": {"addr:city": "Lavagna", "addr:housenumber": "7", "addr:postcode": "16033", "addr:street": "Piazza San Michele", "brand": "Croce Rossa Italiana", "brand:wikidata": "Q913903", "emergency": "ambulance_station", "healthcare": "hospital", "name": "Croce Rossa - Lavagna"}}, {"name": "Croce Rossa Italiana - Comitato di Levanto", "latitude": 44.1738311, "longitude": 9.6195294, "source": "osm", "_tags": {"addr:city": "Levanto", "addr:housenumber": "26", "addr:street": "Via Michele Canzio", "alt_name": "CRI", "brand": "Croce Rossa Italiana", "brand:wikidata": "Q913903", "emergency": "ambulance_station", "healthcare": "hospital", "name": "Croce Rossa Italiana - Comitato di Levanto"}}, {"name": "Croce Rossa Italiana - Comitato di Serra Riccò", "latitude": 44.5098269, "longitude": 8.9373131, "source": "osm", "_tags": {"addr:city": "Serra Riccò", "addr:housenumber": "5", "addr:postcode": "16010", "addr:street": "Piazza Santo Poggi", "alt_name": "Croce Rossa - Serra Ricco' -", "brand": "Croce Rossa Italiana", "brand:wikidata": "Q913903", "emergency": "ambulance_station", "healthcare": "hospital", "name": "Croce Rossa Italiana - Comitato di Serra Riccò", "phone": "+39 010 751930", "website": "https://www.criserraricco.it"}}, {"name": "Croce Rossa - Sori", "latitude": 44.3729612, "longitude": 9.1042976, "source": "osm", "_tags": {"addr:city": "Sori", "addr:housenumber": "1", "addr:postcode": "16031", "addr:street": "Via Sauli", "brand": "Croce Rossa Italiana", "brand:wikidata": "Q913903", "emergency": "ambulance_station", "healthcare": "hospital", "name": "Croce Rossa - Sori"}}, {"name": "Croce Rossa - Sesta Godano -", "latitude": 44.2923026, "longitude": 9.6741975, "source": "osm", "_tags": {"addr:city": "Sesta Godano", "addr:housenumber": "47", "addr:street": "Via Roma", "emergency": "ambulance_station", "healthcare": "hospital", "name": "Croce Rossa - Sesta Godano -"}}, {"name": "Croce Rossa - Uscio", "latitude": 44.4161653, "longitude": 9.1572735, "source": "osm", "_tags": {"addr:city": "Uscio", "addr:housenumber": "25", "addr:postcode": "16036", "addr:street": "Via Orlando Bianchi", "emergency": "ambulance_station", "healthcare": "hospital", "name": "Croce Rossa - Uscio"}}, {"name": "Croce Rossa - Montoggio -", "latitude": 44.5141553, "longitude": 9.0452539, "source": "osm", "_tags": {"addr:city": "Montoggio", "addr:housenumber": "88", "addr:street": "Via Roma", "emergency": "ambulance_station", "healthcare": "hospital", "name": "Croce Rossa - Montoggio -"}}, {"name": "Clinica Veterinaria", "latitude": 44.5703819, "longitude": 8.9543948, "source": "osm", "_tags": {"amenity": "hospital", "healthcare": "hospital", "healthcare:speciality": "clinic", "name": "Clinica Veterinaria", "operator": "Veterinary"}}, {"name": "Guardia Medica", "latitude": 44.5035774, "longitude": 9.6325265, "source": "osm", "_tags": {"amenity": "hospital", "healthcare": "hospital", "name": "Guardia Medica"}}, {"name": "Croce Rossa - Santo Stefano D'Aveto", "latitude": 44.5459282, "longitude": 9.4511537, "source": "osm", "_tags": {"addr:city": "Santo Stefano d'Aveto", "addr:housenumber": "7", "addr:postcode": "16049", "addr:street": "Piazza del Popolo", "emergency": "ambulance_station", "healthcare": "hospital", "name": "Croce Rossa - Santo Stefano D'Aveto"}}, {"name": "ASL3 Busalla", "latitude": 44.5751122, "longitude": 8.9435547, "source": "osm", "_tags": {"addr:city": "Busalla", "addr:housenumber": "8", "addr:street": "Piazza Luigi Malerba", "amenity": "hospital", "healthcare": "hospital", "name": "ASL3 Busalla", "operator": "ASL", "operator:wikidata": "Q3631467"}}, {"name": "Croce Bianca Bolzaneto", "latitude": 44.4587371, "longitude": 8.9020062, "source": "osm", "_tags": {"addr:city": "Genova", "addr:housenumber": "3", "addr:postcode": "16162", "addr:street": "Passo Silvio Roncallo", "addr:unit": "n", "emergency": "ambulance_station", "healthcare": "hospital", "healthcare:speciality": "Servizio_di_Emergenza", "name": "Croce Bianca Bolzaneto"}}, {"name": "Ospedale San Martino", "latitude": 44.4095468, "longitude": 8.9730625, "source": "osm", "_tags": {"amenity": "hospital", "emergency": "yes", "healthcare": "hospital", "name": "Ospedale San Martino", "official_name": "Ospedale Policlinico San Martino", "website": "https://www.ospedalesanmartino.it/", "wheelchair": "yes", "wikidata": "Q2034556", "wikipedia": "it:Ospedale San Martino"}}, {"name": "Istituto Scientifico di Nervi", "latitude": 44.3847886, "longitude": 9.0303417, "source": "osm", "_tags": {"alt_name": "Ospedale di Nervi", "amenity": "hospital", "building": "yes", "building:levels": "4", "healthcare": "hospital", "name": "Istituto Scientifico di Nervi", "operator": "Fondazione Salvatore Maugeri", "website": "https://www.fsm.it/"}}, {"name": "Ospedale Pediatrico Giannina Gaslini", "latitude": 44.3928734, "longitude": 8.9880756, "source": "osm", "_tags": {"amenity": "hospital", "healthcare": "hospital", "name": "Ospedale Pediatrico Giannina Gaslini", "wikidata": "Q204441"}}, {"name": "Ospedale Padre Antero Micone", "latitude": 44.4312203, "longitude": 8.8508635, "source": "osm", "_tags": {"alt_name": "Ospedale Padre Antero Maria Micone", "amenity": "hospital", "emergency": "yes", "healthcare": "hospital", "name": "Ospedale Padre Antero Micone", "ref": "ASL3 Genovese", "short_name": "Ospedale Micone"}}, {"name": "Nostra Signora di Montallegro", "latitude": 44.3589151, "longitude": 9.2142264, "source": "osm", "_tags": {"addr:city": "Rapallo", "addr:housenumber": "8", "addr:street": "Via San Pietro", "amenity": "hospital", "emergency": "yes", "healthcare": "hospital", "healthcare:speciality": "general", "name": "Nostra Signora di Montallegro", "operator": "ASL 4 Chiavarese"}}, {"name": "Ospedale Galliera", "latitude": 44.3995944, "longitude": 8.9410234, "source": "osm", "_tags": {"addr:city": "Genova", "addr:housenumber": "8", "addr:postcode": "16128", "addr:street": "Via Alessandro Volta", "amenity": "hospital", "emergency": "yes", "healthcare": "hospital", "name": "Ospedale Galliera", "official_name": "Ente Ospedaliero Ospedali Galliera", "short_name": "EO Ospedali Galliera", "url": "http://www.galliera.it", "wheelchair": "yes", "wikidata": "Q1344478"}}, {"name": "Ospedale Villa Scassi", "latitude": 44.4147494, "longitude": 8.8974205, "source": "osm", "_tags": {"amenity": "hospital", "emergency": "yes", "healthcare": "hospital", "name": "Ospedale Villa Scassi"}}, {"name": "Ospedale Andrea Gallino", "latitude": 44.4991303, "longitude": 8.8997972, "source": "osm", "_tags": {"amenity": "hospital", "emergency": "no", "healthcare": "hospital", "name": "Ospedale Andrea Gallino", "operator": "ASL 3 Genovese", "operator:type": "public", "phone": "+39 010 849 11", "source": "Regione Liguria", "website": "https://www.asl3.liguria.it/ospedali/gallino-pontedecimo.html"}}, {"name": "Polo Ospedaliero di Chiavari", "latitude": 44.3197316, "longitude": 9.3250331, "source": "osm", "_tags": {"addr:city": "Chiavari", "addr:housenumber": "9", "addr:postcode": "16043", "addr:street": "Via Gio Batta Ghio", "amenity": "hospital", "emergency": "no", "healthcare": "hospital", "healthcare:speciality": "community", "name": "Polo Ospedaliero di Chiavari", "operator": "ASL 4 Chiavarese", "operator:type": "public"}}, {"name": "Ospedale San Nicolò", "latitude": 44.1764977, "longitude": 9.6195061, "source": "osm", "_tags": {"addr:street": "Via Nostra Signora della Guardia", "amenity": "hospital", "building": "yes", "healthcare": "hospital", "name": "Ospedale San Nicolò"}}, {"name": "Croce Bianca Bolzaneto", "latitude": 44.4587469, "longitude": 8.9019982, "source": "osm", "_tags": {"addr:city": "Genova", "addr:housenumber": "3", "addr:postcode": "16162", "addr:street": "Passo Silvio Roncallo", "addr:unit": "n", "building": "yes", "check_date": "2025-01-01", "emergency": "ambulance_station", "healthcare": "hospital", "healthcare:speciality": "Servizio_di_Emergenza", "name": "Croce Bianca Bolzaneto", "source": "Regione Liguria"}}, {"name": "Ospedale Evangelico Internazionale", "latitude": 44.4301535, "longitude": 8.7457307, "source": "osm", "_tags": {"alt_name": "Ospedale San Carlo", "amenity": "hospital", "emergency": "yes", "healthcare": "hospital", "internet_access": "wlan", "internet_access:fee": "no", "name": "Ospedale Evangelico Internazionale", "ref": "ASL 3 Genovese", "wheelchair": "yes"}}, {"name": "", "latitude": 44.3439033, "longitude": 9.3966184, "source": "osm", "_tags": {"amenity": "hospital", "building": "yes", "source": "Regione Liguria"}}, {"name": "", "latitude": 44.2754371, "longitude": 9.405872, "source": "osm", "_tags": {"addr:housenumber": "37", "addr:postcode": "16039", "addr:street": "Via Arnaldo Terzi", "amenity": "hospital", "building": "hospital", "healthcare": "hospital", "operator": "Azienda Sociosanitaria Ligure n. 4", "operator:type": "public", "source": "Regione Liguria", "website": "https://www.asl4.liguria.it/ospedali/ospedale-sestri-levante/"}}, {"name": "Ospedale Evangelico Internazionale", "latitude": 44.4140371, "longitude": 8.9429268, "source": "osm", "_tags": {"amenity": "hospital", "building": "hospital", "healthcare": "hospital", "name": "Ospedale Evangelico Internazionale", "wikidata": "Q84308446"}}, {"name": "Ospedale di Lavagna", "latitude": 44.3148496, "longitude": 9.3491341, "source": "osm", "_tags": {"addr:city": "Lavagna", "addr:housenumber": "25", "addr:street": "Via Don G.B. Bobbio", "amenity": "hospital", "emergency": "yes", "fixme": "Perimetro area da ridefinire.", "healthcare": "hospital", "healthcare:speciality": "general", "name": "Ospedale di Lavagna", "operator": "ASL 4 Chiavarese", "operator:type": "public"}}, {"name": "Ospedale San Giacomo", "latitude": 44.7580502, "longitude": 8.7927036, "source": "osm", "_tags": {"amenity": "hospital", "emergency": "yes", "name": "Ospedale San Giacomo", "website": "https://www.aslal.it/Sezione.jsp?idSezione=24"}}, {"name": "", "latitude": 44.7708341, "longitude": 9.3854009, "source": "osm", "_tags": {"amenity": "hospital"}}, {"name": "Ospedale - Ente morale Isola del Cantone ONLUS", "latitude": 44.6479806, "longitude": 8.9576202, "source": "osm", "_tags": {"amenity": "hospital", "healthcare": "hospital", "name": "Ospedale - Ente morale Isola del Cantone ONLUS"}}]