[{"name": "Clinique du Château de Vernhes", "latitude": 43.8428728, "longitude": 1.5257788, "source": "osm", "_tags": {"alt_name": "Clinique de Bondigoux", "amenity": "hospital", "emergency": "no", "healthcare": "hospital", "healthcare:speciality": "physiatry", "name": "Clinique du Château de Vernhes", "phone": "+33 5 61 37 27 27", "ref:FR:FINESS": "310780374", "type:FR:FINESS": "109", "website": "https://www.cliniquebondigoux.fr/"}}, {"name": "Hôpital", "latitude": 44.7763852, "longitude": 1.0097128, "source": "osm", "_tags": {"amenity": "hospital", "healthcare": "hospital", "name": "Hôpital", "ref:FR:FINESS": "240000174", "source": "Le ministère des solidarités et de la santé - 08/2018", "type:FR:FINESS": "106", "wheelchair": "yes", "wikidata": "Q92063071"}}, {"name": "Centre Hospitalier de Penne d'Agenais", "latitude": 44.3882593, "longitude": 0.819025, "source": "osm", "_tags": {"addr:city": "Penne-d'Agenais", "addr:housenumber": "1", "addr:postcode": "47140", "addr:street": "Avenue de la Myre Mory", "amenity": "hospital", "healthcare": "hospital", "name": "Centre Hospitalier de Penne d'Agenais", "ref:FR:FINESS": "470000548", "source": "Le ministère des solidarités et de la santé - 03/2019", "type:FR:FINESS": "106", "website": "https://www.hopital-de-penne.com/", "wikidata": "Q92062511"}}, {"name": "Centre de Rééducation Fonctionnelle La Roseraie", "latitude": 44.6891147, "longitude": 1.5620924, "source": "osm", "_tags": {"amenity": "hospital", "fax": "+33565241002", "healthcare": "hospital", "name": "Centre de Rééducation Fonctionnelle La Roseraie", "phone": "+33565241010", "ref:FR:FINESS": "460000060", "source": "Le ministère des solidarités et de la santé - 03/2019", "type:FR:FINESS": "109", "website": "https://www.ch-la-roseraie.fr/"}}, {"name": "Ehpad Pierre Bonhomme", "latitude": 44.7793641, "longitude": 1.7225355, "source": "osm", "_tags": {"amenity": "hospital", "fax": "+33565334102", "healthcare": "hospital", "name": "Ehpad Pierre Bonhomme", "phone": "+33565387327", "ref:FR:FINESS": "460780539", "ref:FR:SIRET": "77707012900013", "source": "Le ministère des solidarités et de la santé - 03/2019", "type:FR:FINESS": "500", "wikidata": "Q112963468"}}, {"name": "Centre hospitalier de Cahors", "latitude": 44.4448917, "longitude": 1.4364203, "source": "osm", "_tags": {"alt_name": "Centre hospitalier Jean Rougier", "amenity": "hospital", "emergency": "yes", "healthcare": "hospital", "healthcare:speciality": "intensive", "name": "Centre hospitalier de Cahors", "phone": "+33 5 65 20 50 50", "ref:FR:FINESS": "460000110", "type:FR:FINESS": "355", "website": "https://www.ch-cahors.fr/"}}, {"name": "Clinique du Pont de Chaume", "latitude": 44.006046, "longitude": 1.378106, "source": "osm", "_tags": {"addr:city": "Montauban", "addr:housenumber": "330", "addr:postcode": "82000", "addr:street": "Avenue Marcel Unal", "amenity": "hospital", "emergency": "yes", "fax": "+33 5 63 68 33 20", "healthcare": "hospital", "name": "Clinique du Pont de Chaume", "operator": "Elsan", "operator:type": "private", "operator:wikidata": "Q48747106", "phone": "+33 5 63 68 33 33", "ref:FR:FINESS": "820000057", "type:FR:FINESS": "365", "website": "https://www.elsan.care/fr/clinique-pont-de-chaume/accueil"}}, {"name": "Ehpad Pierre Bonhomme", "latitude": 44.7793795, "longitude": 1.7225595, "source": "osm", "_tags": {"amenity": "hospital", "healthcare": "hospital", "name": "Ehpad Pierre Bonhomme", "source": "cadastre-dgi-fr source : Direction Générale des Impôts - Cadastre. Mise à jour : 2011"}}, {"name": "Centre hospitalier de Montauban", "latitude": 44.0231385, "longitude": 1.3509225, "source": "osm", "_tags": {"addr:city": "Montauban", "addr:postcode": "82000", "addr:street": "Rue Léon Cladel", "amenity": "hospital", "email": "direction@ch-montauban.fr", "emergency": "yes", "fax": "+33 5 63 92 80 10", "healthcare": "hospital", "healthcare:speciality": "intensive", "name": "Centre hospitalier de Montauban", "operator:type": "public", "phone": "+33 5 63 92 82 82", "ref:FR:FINESS": "820000032", "type:FR:FINESS": "355", "website": "https://www.ch-montauban.fr/"}}, {"name": "Pôle de Santé du Villeneuvois", "latitude": 44.4064958, "longitude": 0.7461713, "source": "osm", "_tags": {"alt_name": "Centre hospitalier de Villenueve-sur-Lot", "amenity": "hospital", "emergency": "yes", "fax": "+33 5 53 72 23 09", "healthcare": "hospital", "name": "Pôle de Santé du Villeneuvois", "operator:type": "public", "phone": "+33 5 53 72 23 23", "ref:FR:FINESS": "470000431", "type:FR:FINESS": "355", "website": "http://www.ch-villeneuvesurlot.fr/"}}, {"name": "Centre hospitalier de Domme", "latitude": 44.8035602, "longitude": 1.2155256, "source": "osm", "_tags": {"amenity": "hospital", "building": "yes", "healthcare": "hospital", "name": "Centre hospitalier de Domme", "ref:FR:FINESS": "240000414", "type:FR:FINESS": "106", "wikidata": "Q92062392"}}, {"name": "Clinique Croix Saint-Michel du docteur Boyé", "latitude": 44.0101836, "longitude": 1.3658726, "source": "osm", "_tags": {"addr:city": "Montauban", "addr:housenumber": "40", "addr:postcode": "82000", "addr:street": "Avenue Charles De Gaulle", "amenity": "hospital", "check_date": "2024-05-27", "healthcare": "hospital", "name": "Clinique Croix Saint-Michel du docteur Boyé", "ref:FR:FINESS": "820000040", "type:FR:FINESS": "365"}}, {"name": "Foyer Occupationnel Barradis", "latitude": 43.9672569, "longitude": 0.9359213, "source": "osm", "_tags": {"addr:city": "Lavit", "addr:street": "Route de Castelsarrasin", "amenity": "hospital", "healthcare": "hospital", "name": "Foyer Occupationnel Barradis"}}, {"name": "Centre hospitalier de Gourdon", "latitude": 44.7341572, "longitude": 1.3750867, "source": "osm", "_tags": {"alt_name": "Centre hospitalier Jean Coulon", "amenity": "hospital", "emergency": "yes", "fax": "+33 5 65 41 41 13", "healthcare": "hospital", "name": "Centre hospitalier de Gourdon", "operator:type": "public", "phone": "+33 5 65 27 65 27", "ref:FR:FINESS": "460000102", "type:FR:FINESS": "355", "website": "http://ch-gourdon.fr"}}, {"name": "Clinique du Relais", "latitude": 44.488495, "longitude": 1.3542306, "source": "osm", "_tags": {"amenity": "hospital", "email": "secretariat@clinique-du-relais.fr", "fax": "+33 5 65 30 98 74", "name": "Clinique du Relais", "operator:type": "private", "phone": "+33 5 65 30 97 97", "ref:FR:FINESS": "460785900", "type:FR:FINESS": "109", "website": "http://www.clinique-du-relais.fr/"}}, {"name": "Clinique Cave", "latitude": 44.0118021, "longitude": 1.3631044, "source": "osm", "_tags": {"addr:city": "Montauban", "addr:postcode": "82000", "addr:street": "Boulevard Montauriol", "amenity": "hospital", "check_date": "2024-05-27", "healthcare": "hospital", "name": "Clinique Cave", "ref:FR:FINESS": "820000065", "type:FR:FINESS": "128"}}, {"name": "Centre médico-psychologique Capou", "latitude": 44.034765, "longitude": 1.3141756, "source": "osm", "_tags": {"addr:city": "Montauban", "addr:postcode": "82000", "addr:street": "Chemin des Gardelles", "amenity": "hospital", "healthcare": "hospital", "healthcare:speciality": "psychiatry", "name": "Centre médico-psychologique Capou", "operator": "Centre hospitalier de Montauban", "operator:type": "public", "ref:FR:FINESS": "820009215", "social_facility:for": "mental_health", "type:FR:FINESS": "156"}}, {"name": "Centre hospitalier intercommunal Castelsarrasin-Moissac", "latitude": 44.0354352, "longitude": 1.111602, "source": "osm", "_tags": {"amenity": "hospital", "healthcare": "hospital", "name": "Centre hospitalier intercommunal Castelsarrasin-Moissac", "ref": "31", "ref:FR:FINESS": "820000198"}}, {"name": "Clinique de réadaptation « Midi-Gascogne »", "latitude": 43.8755551, "longitude": 1.0106052, "source": "osm", "_tags": {"addr:city": "Beaumont-de-Lomagne", "addr:housenumber": "1487", "addr:postcode": "82500", "addr:street": "Avenue du Languedoc", "amenity": "hospital", "emergency": "no", "healthcare": "hospital", "healthcare:speciality": "cardiology", "name": "Clinique de réadaptation « Midi-Gascogne »"}}, {"name": "Hôpital de Fumel", "latitude": 44.4976944, "longitude": 0.9645472, "source": "osm", "_tags": {"amenity": "hospital", "healthcare": "hospital", "name": "Hôpital de Fumel", "ref:FR:FINESS": "470000571", "source": "Le ministère des solidarités et de la santé - 03/2019", "type:FR:FINESS": "106", "wikidata": "Q92063019"}}, {"name": "Clinique du Quercy", "latitude": 44.457303, "longitude": 1.4373735, "source": "osm", "_tags": {"amenity": "hospital", "healthcare": "hospital", "name": "Clinique du Quercy", "ref:FR:FINESS": "460780042"}}, {"name": "Centre Hospitalier Intercommunal Castelsarrasin-Moissac", "latitude": 44.1051522, "longitude": 1.0883228, "source": "osm", "_tags": {"addr:housenumber": "16", "addr:street": "Boulevard Camille Delthil", "amenity": "hospital", "emergency": "yes", "fax": "+33 5 63 04 67 55", "healthcare": "hospital", "name": "Centre Hospitalier Intercommunal Castelsarrasin-Moissac", "operator:type": "public", "phone": "+33 5 63 04 67 00", "ref:FR:FINESS": "820000883", "type:FR:FINESS": "355", "website": "https://www.ch-cm.fr/", "wheelchair": "yes"}}, {"name": "CH des Deux Rives", "latitude": 44.1101792, "longitude": 0.8874279, "source": "osm", "_tags": {"addr:housenumber": "52", "addr:street": "Boulevard Victor Guilhem", "amenity": "hospital", "building": "yes", "name": "CH des Deux Rives", "ref:FR:FINESS": "820000461", "type": "multipolygon", "wikidata": "Q92063207"}}]