[{"name": "Residenza per anziani \"La Meridiana\"", "latitude": 44.3262741, "longitude": 7.6721978, "source": "osm", "_tags": {"amenity": "hospital", "emergency": "no", "name": "Residenza per anziani \"La Meridiana\""}}, {"name": "ASL Cuneo n.1", "latitude": 44.3302787, "longitude": 7.4904693, "source": "osm", "_tags": {"amenity": "hospital", "healthcare": "hospital", "name": "ASL Cuneo n.1", "operator": "ASL", "operator:wikidata": "Q3631467"}}, {"name": "Azienda Sanitaria Locale cn1 Centralino", "latitude": 44.3296001, "longitude": 7.5483669, "source": "osm", "_tags": {"amenity": "hospital", "name": "Azienda Sanitaria Locale cn1 Centralino"}}, {"name": "Azienda Sanitaria Locale cn1", "latitude": 44.3212575, "longitude": 7.6794273, "source": "osm", "_tags": {"amenity": "hospital", "name": "Azienda Sanitaria Locale cn1"}}, {"name": "Ospedale di Caraglio ASL CN1", "latitude": 44.4148533, "longitude": 7.4242149, "source": "osm", "_tags": {"addr:housenumber": "6", "addr:street": "Via Valgrana", "amenity": "hospital", "description": "medicina riabilitativa, lungodegenza", "emergency": "no", "healthcare": "hospital", "name": "Ospedale di Caraglio ASL CN1"}}, {"name": "Poliambulatorio Ospedale Fossano", "latitude": 44.5479612, "longitude": 7.722762, "source": "osm", "_tags": {"addr:street": "Via Ospedale", "amenity": "hospital", "healthcare": "hospital", "name": "Poliambulatorio Ospedale Fossano", "name:it": "Poliambulatorio Ospedale Fossano"}}, {"name": "Croce Rossa Italiana - Comitato di Caraglio Onlus", "latitude": 44.4162851, "longitude": 7.4315086, "source": "osm", "_tags": {"addr:city": "Caraglio", "addr:housenumber": "1", "addr:postcode": "12023", "addr:street": "Via Dante Alighieri", "amenity": "hospital", "brand": "Croce Rossa Italiana", "brand:wikidata": "Q913903", "contact:facebook": "https://www.facebook.com/CroceRossaCaraglio/", "email": "caraglio@cri.it", "emergency": "ambulance_station", "healthcare": "hospital", "name": "Croce Rossa Italiana - Comitato di Caraglio Onlus", "phone": "+39 0171 618210", "start_date": "1984-05-17", "website": "https://www.cricaraglio.it/"}}, {"name": "Hôpital Saint-Maur", "latitude": 44.2558857, "longitude": 6.9248371, "source": "osm", "_tags": {"amenity": "hospital", "building": "hospital", "healthcare": "hospital", "name": "Hôpital Saint-Maur", "ref:FR:FINESS": "060000163", "source": "cadastre-dgi-fr source : Direction Générale des Impôts - Cadastre. Mise à jour : 2022", "wikidata": "Q92063224"}}, {"name": "Hôpital Saint-Antoine", "latitude": 44.0719955, "longitude": 7.257919, "source": "osm", "_tags": {"amenity": "hospital", "building": "yes", "name": "Hôpital Saint-Antoine", "ref:FR:FINESS": "060000536", "source": "Le ministère des solidarités et de la santé - 03/2019", "wikidata": "Q92062688"}}, {"name": "Presidio sanitario multifunzionale", "latitude": 44.3292161, "longitude": 7.5482559, "source": "osm", "_tags": {"amenity": "hospital", "name": "Presidio sanitario multifunzionale"}}, {"name": "Ospedale Maggiore Santissima Annunziata", "latitude": 44.6436264, "longitude": 7.6617407, "source": "osm", "_tags": {"amenity": "hospital", "emergency": "yes", "healthcare": "hospital", "name": "Ospedale Maggiore Santissima Annunziata"}}, {"name": "Centre hospitalier Aiguilles-Queyras", "latitude": 44.7805549, "longitude": 6.8676801, "source": "osm", "_tags": {"amenity": "hospital", "email": "hopital@ch-aiguilles.fr", "fax": "+33 4 92 46 80 82", "name": "Centre hospitalier Aiguilles-Queyras", "operator:type": "public", "phone": "+33 4 92 46 70 18", "ref:FR:FINESS": "050000223", "type:FR:FINESS": "106", "website": "www.ch-aiguilles.fr", "wikidata": "Q92061603"}}, {"name": "Croce Bianca", "latitude": 44.542633, "longitude": 7.7216964, "source": "osm", "_tags": {"amenity": "hospital", "healthcare": "hospital", "name": "Croce Bianca"}}, {"name": "Villa Santa Croce", "latitude": 44.3761109, "longitude": 7.5313684, "source": "osm", "_tags": {"addr:housenumber": "10", "addr:street": "Corso Francia", "amenity": "hospital", "building": "yes", "healthcare": "hospital", "name": "Villa Santa Croce"}}, {"name": "Croce Rossa Italiana", "latitude": 44.5181773, "longitude": 7.4783039, "source": "osm", "_tags": {"addr:city": "Busca", "addr:postcode": "12022", "amenity": "hospital", "healthcare": "hospital", "name": "Croce Rossa Italiana"}}, {"name": "Croce Rossa Italiana - Delegazione di Paesana", "latitude": 44.6783209, "longitude": 7.274037, "source": "osm", "_tags": {"addr:city": "Paesana", "addr:housenumber": "14", "addr:postcode": "12034", "addr:street": "Via Erasca", "amenity": "hospital", "contact:email": "info@campeggiovallepo.it", "contact:facebook": "crocerossa.paesana", "contact:phone": "+39 0175 987973", "emergency": "yes", "name": "Croce Rossa Italiana - Delegazione di Paesana", "operator": "Croce Rossa Italiana"}}, {"name": "CDR Monsignor Calandri", "latitude": 44.3274458, "longitude": 7.5560508, "source": "osm", "_tags": {"amenity": "hospital", "healthcare": "hospital", "name": "CDR Monsignor Calandri"}}, {"name": "Poliambulatorio e Ospedale civile", "latitude": 44.7665341, "longitude": 7.6783554, "source": "osm", "_tags": {"addr:city": "Racconigi", "addr:postcode": "12035", "addr:street": "Via Ospedale", "amenity": "hospital", "healthcare": "hospital", "name": "Poliambulatorio e Ospedale civile"}}, {"name": "Azienda Sanitalia Locale CN1 - Savigliano", "latitude": 44.6531787, "longitude": 7.6555922, "source": "osm", "_tags": {"addr:city": "Savigliano", "addr:housenumber": "137", "addr:postcode": "12038", "addr:street": "Via Torino", "amenity": "hospital", "building": "yes", "healthcare": "hospital", "name": "Azienda Sanitalia Locale CN1 - Savigliano", "operator": "ASL", "operator:type": "public", "operator:wikidata": "Q3631467"}}, {"name": "Ospedale Civile di Saluzzo", "latitude": 44.6420942, "longitude": 7.4945058, "source": "osm", "_tags": {"amenity": "hospital", "emergency": "yes", "healthcare": "hospital", "name": "Ospedale Civile di Saluzzo"}}, {"name": "Centrale 118 e Nue 112", "latitude": 44.6533929, "longitude": 7.4696703, "source": "osm", "_tags": {"amenity": "hospital", "healthcare": "hospital", "name": "Centrale 118 e Nue 112"}}, {"name": "Ospedale Civile di Busca", "latitude": 44.5144732, "longitude": 7.4720213, "source": "osm", "_tags": {"amenity": "hospital", "healthcare": "hospital", "name": "Ospedale Civile di Busca"}}, {"name": "Ospedale Carle", "latitude": 44.3898413, "longitude": 7.5213419, "source": "osm", "_tags": {"addr:housenumber": "5", "addr:street": "Via Antonio Carle", "amenity": "hospital", "check_date": "2025-06-10", "emergency": "no", "healthcare": "hospital", "name": "Ospedale Carle", "wikidata": "Q105105349"}}, {"name": "A.S.L. CN1 - Avis", "latitude": 44.6018317, "longitude": 7.4814376, "source": "osm", "_tags": {"addr:city": "Verzuolo", "addr:housenumber": "1", "addr:postcode": "12039", "addr:street": "Piazza Andrea Willy Burgo", "amenity": "hospital", "building": "yes", "healthcare": "hospital", "name": "A.S.L. CN1 - Avis", "operator": "ASL", "operator:wikidata": "Q3631467"}}, {"name": "Ospedale Santa Croce", "latitude": 44.3853071, "longitude": 7.5370785, "source": "osm", "_tags": {"addr:city": "Cuneo", "addr:housenumber": "26", "addr:street": "Via Michele Coppino", "amenity": "hospital", "emergency": "yes", "healthcare": "hospital", "name": "Ospedale Santa Croce", "operator": "Azienda ospedaliera Santa Croce e Carle", "phone": "+39 0171 641111", "ref:vatin": "IT01127900049", "website": "http://www.ospedale.cuneo.it/", "wikidata": "Q64549141"}}, {"name": "Centre hospitalier Saint-Éloi", "latitude": 43.8788235, "longitude": 7.4515602, "source": "osm", "_tags": {"amenity": "hospital", "healthcare": "hospital", "landuse": "healthcare", "name": "Centre hospitalier Saint-Éloi", "ref:FR:FINESS": "060000486", "wheelchair": "yes", "wikidata": "Q92062544"}}, {"name": "Centre Jean Chanton", "latitude": 44.0135675, "longitude": 7.3029715, "source": "osm", "_tags": {"amenity": "hospital", "healthcare": "hospital", "landuse": "healthcare", "name": "Centre Jean Chanton", "ref:FR:FINESS": "060001625", "source": "Le ministère des solidarités et de la santé - 03/2019", "wikidata": "Q92062468"}}, {"name": "Hôpital de Tende", "latitude": 44.0901468, "longitude": 7.5944525, "source": "osm", "_tags": {"amenity": "hospital", "check_date": "2025-05-15", "fax": "+33493045078", "healthcare": "hospital", "landuse": "healthcare", "name": "Hôpital de Tende", "phone": "+33493035000", "ref:FR:FINESS": "060790177", "ref:FR:SIRET": "26060070500123", "source": "Le ministère des solidarités et de la santé - 03/2019", "type:FR:FINESS": "101", "wheelchair": "yes"}}, {"name": "", "latitude": 44.5458733, "longitude": 7.7148508, "source": "osm", "_tags": {"amenity": "hospital", "healthcare": "hospital"}}, {"name": "Istituto Climatico di Robilante", "latitude": 44.2886051, "longitude": 7.5206168, "source": "osm", "_tags": {"amenity": "hospital", "emergency": "no", "healthcare": "hospital", "name": "Istituto Climatico di Robilante"}}, {"name": "Ospedale Santissima Trinità", "latitude": 44.5476541, "longitude": 7.723014, "source": "osm", "_tags": {"addr:city": "Fossano", "addr:housenumber": "4", "addr:postcode": "12045", "addr:street": "Via Ospedale", "amenity": "hospital", "healthcare": "hospital", "name": "Ospedale Santissima Trinità"}}]