[{"name": "Poliambulatorio AUSL", "latitude": 44.5774339, "longitude": 11.358319, "source": "osm", "_tags": {"amenity": "hospital", "healthcare": "hospital", "name": "Poliambulatorio AUSL", "operator": "ASL Bologna Nord", "operator:type": "public"}}, {"name": "Ospedale Militare", "latitude": 44.498098, "longitude": 11.3346146, "source": "osm", "_tags": {"amenity": "hospital", "healthcare": "hospital", "name": "Ospedale Militare"}}, {"name": "Villa Regina", "latitude": 44.480713, "longitude": 11.3485301, "source": "osm", "_tags": {"addr:city": "Bologna", "addr:housenumber": "115", "addr:street": "Via Castiglione", "amenity": "hospital", "emergency": "no", "healthcare": "hospital", "healthcare:speciality": "general", "name": "Villa Regina"}}, {"name": "Pronto Soccorso Ospedale del Mugello", "latitude": 43.9585304, "longitude": 11.3746642, "source": "osm", "_tags": {"amenity": "hospital", "emergency": "yes", "healthcare": "hospital", "name": "Pronto Soccorso Ospedale del Mugello"}}, {"name": "Vergato", "latitude": 44.2816357, "longitude": 11.1097291, "source": "osm", "_tags": {"amenity": "hospital", "healthcare": "hospital", "name": "Vergato"}}, {"name": "Centro Protesi INAIL", "latitude": 44.5340915, "longitude": 11.5085877, "source": "osm", "_tags": {"amenity": "hospital", "healthcare": "hospital", "healthcare:speciality": "orthopaedics", "name": "Centro Protesi INAIL", "operator": "INAIL", "operator:type": "public"}}, {"name": "Villa Chiara", "latitude": 44.4825779, "longitude": 11.2861573, "source": "osm", "_tags": {"amenity": "hospital", "emergency": "no", "healthcare": "hospital", "name": "Villa Chiara"}}, {"name": "", "latitude": 44.741964, "longitude": 11.4361615, "source": "osm", "_tags": {"amenity": "hospital", "emergency": "no"}}, {"name": "Pubblica Assistenza Croce Italia", "latitude": 44.5211892, "longitude": 11.3715213, "source": "osm", "_tags": {"addr:city": "Bologna", "addr:country": "IT", "addr:district": "Navile", "addr:housenumber": "81/2", "addr:postcode": "40128", "addr:street": "Via Stalingrado", "amenity": "hospital", "healthcare": "hospital", "name": "Pubblica Assistenza Croce Italia", "source": "Comune di Bologna"}}, {"name": "Azienda Usl 10 Di Firenze", "latitude": 43.8318202, "longitude": 11.2051424, "source": "osm", "_tags": {"amenity": "hospital", "check_date": "2025-06-15", "emergency": "no", "name": "Azienda Usl 10 Di Firenze"}}, {"name": "Casa di cura Prof. Nobili", "latitude": 44.1406161, "longitude": 11.1556529, "source": "osm", "_tags": {"addr:city": "Castiglione dei Pepoli", "addr:housenumber": "25", "addr:street": "Via Fiera", "amenity": "hospital", "emergency": "yes", "healthcare": "hospital", "name": "Casa di cura Prof. Nobili", "operator": "Garofalo Healthcare", "phone": "+39 0534 91099", "website": "https://casadicuranobili.it/", "wheelchair": "yes"}}, {"name": "Corpo Nazionale Soccorso Alpino e Speleologico", "latitude": 44.334083, "longitude": 11.1870302, "source": "osm", "_tags": {"amenity": "hospital", "name": "Corpo Nazionale Soccorso Alpino e Speleologico"}}, {"name": "Pronto Soccorso Pediatrico - Policlinico Sant'Orsola Malpighi - Accesso Ambulanze", "latitude": 44.4922728, "longitude": 11.3608239, "source": "osm", "_tags": {"addr:city": "Bologna", "addr:housenumber": "9/2", "addr:postcode": "40138", "addr:street": "Via Giuseppe Massarenti", "description": "Pronto Soccorso Pediatrico del Policlinico Sant'Orsola Malpighi. Accesso riservato alle Ambulanze.", "emergency": "emergency_ward_entrance", "healthcare": "hospital", "healthcare:speciality": "paediatrics", "name": "Pronto Soccorso Pediatrico - Policlinico Sant'Orsola Malpighi - Accesso Ambulanze", "operator": "Policlinico Sant'Orsola Malpighi", "wheelchair": "yes"}}, {"name": "Poliambulatorio", "latitude": 44.5076512, "longitude": 11.4720261, "source": "osm", "_tags": {"amenity": "hospital", "healthcare": "hospital", "name": "Poliambulatorio"}}, {"name": "Pubblica Assistenza Vado", "latitude": 44.3170377, "longitude": 11.2554085, "source": "osm", "_tags": {"addr:housenumber": "38b", "addr:postcode": "40036", "addr:street": "Via Val di Setta", "amenity": "hospital", "email": "info@pavado.it", "name": "Pubblica Assistenza Vado", "phone": "+39 0516779812", "website": "https://www.pavado.it/"}}, {"name": "Villa Arcobaleno", "latitude": 44.4645175, "longitude": 11.4049001, "source": "osm", "_tags": {"amenity": "hospital", "healthcare": "hospital", "name": "Villa Arcobaleno"}}, {"name": "Pubblica Assistenza Pianoro", "latitude": 44.3937002, "longitude": 11.3446056, "source": "osm", "_tags": {"addr:city": "Pianoro", "addr:housenumber": "15", "addr:street": "Via del Lavoro", "amenity": "hospital", "healthcare": "hospital", "name": "Pubblica Assistenza Pianoro"}}, {"name": "Pronto Soccorso Ospedale San Jacopo", "latitude": 43.9178438, "longitude": 10.903596, "source": "osm", "_tags": {"addr:city": "Pistoia", "addr:housenumber": "120", "addr:postcode": "51100", "addr:street": "Via Ciliegiole", "amenity": "hospital", "emergency": "yes", "healthcare": "hospital", "name": "Pronto Soccorso Ospedale San Jacopo"}}, {"name": "Punto di primo soccorso di San Marcello", "latitude": 44.0563972, "longitude": 10.7883885, "source": "osm", "_tags": {"addr:city": "San Marcello Pistoiese", "addr:housenumber": "76", "addr:postcode": "51028", "addr:street": "Via Massimo D'Azeglio", "amenity": "hospital", "emergency": "yes", "name": "Punto di primo soccorso di San Marcello"}}, {"name": "Triage PS \"Carlo Alberto Pizzardi\"", "latitude": 44.5055799, "longitude": 11.3154482, "source": "osm", "_tags": {"amenity": "hospital", "healthcare": "hospital", "name": "Triage PS \"Carlo Alberto Pizzardi\""}}, {"name": "Pronto Soccorso Ospedale Costa", "latitude": 44.1632608, "longitude": 10.9703029, "source": "osm", "_tags": {"addr:city": "Porretta Terme", "amenity": "hospital", "emergency": "yes", "healthcare": "hospital", "name": "Pronto Soccorso Ospedale Costa"}}, {"name": "Pronto Soccorso Ospedale Santissimo Salvatore", "latitude": 44.6323328, "longitude": 11.1956675, "source": "osm", "_tags": {"addr:city": "San Giovanni in Persiceto", "emergency": "emergency_ward_entrance", "healthcare": "hospital", "name": "Pronto Soccorso Ospedale Santissimo Salvatore"}}, {"name": "Pronto Soccorso Ospedale Vergato", "latitude": 44.2816012, "longitude": 11.1084941, "source": "osm", "_tags": {"addr:city": "Vergato", "amenity": "hospital", "emergency": "yes", "healthcare": "hospital", "name": "Pronto Soccorso Ospedale Vergato"}}, {"name": "Pronto Soccorso Ospedale \"Santo Stefano\"", "latitude": 43.8911145, "longitude": 11.0636741, "source": "osm", "_tags": {"addr:city": "Prato", "addr:postcode": "59100", "amenity": "hospital", "emergency": "yes", "healthcare": "hospital", "name": "Pronto Soccorso Ospedale \"Santo Stefano\"", "wheelchair": "yes"}}, {"name": "Pronto Soccorso", "latitude": 44.7241317, "longitude": 11.289435, "source": "osm", "_tags": {"emergency": "emergency_ward_entrance", "healthcare": "hospital", "name": "Pronto Soccorso"}}, {"name": "Pronto Soccorso Ortopedico", "latitude": 44.5053985, "longitude": 11.3146353, "source": "osm", "_tags": {"emergency": "emergency_ward", "healthcare": "hospital", "healthcare:speciality": "orthopaedics", "name": "Pronto Soccorso Ortopedico"}}, {"name": "Pronto Soccorso Oculistico - Sant'Orsola Malpighi", "latitude": 44.4887941, "longitude": 11.3676105, "source": "osm", "_tags": {"emergency": "emergency_ward_entrance", "emergency_ward_entrance": "all", "entrance": "yes", "healthcare": "hospital", "healthcare:speciality": "ophthalmology", "name": "Pronto Soccorso Oculistico - Sant'Orsola Malpighi"}}, {"name": "REMS - Casa degli Svizzeri", "latitude": 44.5165381, "longitude": 11.3179596, "source": "osm", "_tags": {"amenity": "hospital", "description": "Residenza per l'Esecuzione delle Misure di Sicurezza (REMS) - Ex Ospedale Psichiatrico Giudiziario (OPG)", "emergency": "no", "healthcare": "hospital", "healthcare:speciality": "psychiatry", "name": "REMS - Casa degli Svizzeri", "operator": "AUSL Bologna"}}, {"name": "Primo Soccorso Aeroportuale", "latitude": 44.5292258, "longitude": 11.294914, "source": "osm", "_tags": {"amenity": "hospital", "emergency": "yes", "healthcare": "hospital", "healthcare:speciality": "emergency", "name": "Primo Soccorso Aeroportuale", "operator": "118 Bologna, Croce Rossa Italiana"}}, {"name": "Canale Sanitario", "latitude": 44.5291188, "longitude": 11.2961271, "source": "osm", "_tags": {"amenity": "hospital", "healthcare": "hospital", "healthcare:speciality": "infectious_diseases", "name": "Canale Sanitario", "operator": "U.S.M.A.F."}}, {"name": "Casa della Salute delle Terre d'acqua", "latitude": 44.7214491, "longitude": 11.1490549, "source": "osm", "_tags": {"addr:city": "Crevalcore", "addr:housenumber": "171", "addr:postcode": "40014", "addr:street": "Viale della Libertà", "amenity": "hospital", "healthcare": "hospital", "healthcare:speciality": "general", "name": "Casa della Salute delle Terre d'acqua", "wheelchair": "yes"}}, {"name": "Centro Odontoiatrico Perti", "latitude": 44.7238291, "longitude": 11.1460196, "source": "osm", "_tags": {"addr:city": "Crevalcore", "addr:housenumber": "32", "addr:postcode": "40014", "addr:street": "Via G. Lodi", "amenity": "hospital", "healthcare": "hospital", "healthcare:speciality": "dentist;orthodontics", "name": "Centro Odontoiatrico Perti"}}, {"name": "Studi medici di famiglia", "latitude": 43.8631365, "longitude": 11.0826407, "source": "osm", "_tags": {"amenity": "hospital", "emergency": "no", "name": "Studi medici di famiglia"}}, {"name": "Studi medici Pediatri", "latitude": 43.8629589, "longitude": 11.0824507, "source": "osm", "_tags": {"amenity": "hospital", "name": "Studi medici Pediatri"}}, {"name": "AIRAM Centro Medico Bologna", "latitude": 44.5569793, "longitude": 11.3217997, "source": "osm", "_tags": {"addr:city": "Castel Maggiore", "addr:housenumber": "165", "addr:postcode": "40013", "addr:street": "Via Lame", "amenity": "hospital", "healthcare": "hospital", "healthcare:speciality": "clinic;general", "name": "AIRAM Centro Medico Bologna"}}, {"name": "AIRAM Centro Fisioterapico Bologna", "latitude": 44.556991, "longitude": 11.3216195, "source": "osm", "_tags": {"addr:city": "Castel Maggiore", "addr:housenumber": "165", "addr:postcode": "40013", "addr:street": "Via Lame", "amenity": "hospital", "healthcare": "hospital", "healthcare:speciality": "physiotherapy", "name": "AIRAM Centro Fisioterapico Bologna"}}, {"name": "AIRAM Clinica Odontoiatrica Bologna", "latitude": 44.5570362, "longitude": 11.3217267, "source": "osm", "_tags": {"addr:city": "Castel Maggiore", "addr:housenumber": "165", "addr:postcode": "40013", "addr:street": "Via Lame", "amenity": "hospital", "healthcare": "hospital", "healthcare:speciality": "orthodontics;dentist", "name": "AIRAM Clinica Odontoiatrica Bologna"}}, {"name": "AIRAM Clinica di Medicina Estetica Bologna", "latitude": 44.5569435, "longitude": 11.321724, "source": "osm", "_tags": {"addr:city": "Castel Maggiore", "addr:housenumber": "165", "addr:postcode": "40013", "addr:street": "Via Lame", "amenity": "hospital", "healthcare": "hospital", "healthcare:speciality": "surgery", "name": "AIRAM Clinica di Medicina Estetica Bologna"}}, {"name": "Azienda USL Toscana centro - distretto Campi Bisenzio", "latitude": 43.8201532, "longitude": 11.1428583, "source": "osm", "_tags": {"addr:city": "Campi Bisenzio", "addr:housenumber": "1", "addr:postcode": "50013", "addr:street": "Via Gioacchino Rossini", "amenity": "hospital", "emergency": "no", "healthcare": "hospital", "name": "Azienda USL Toscana centro - distretto Campi Bisenzio", "phone": "+39 055 693 0880", "website": "https://www.uslcentro.toscana.it/"}}, {"name": "Pubblica Assistenza Monsummanese", "latitude": 43.868114, "longitude": 10.8107848, "source": "osm", "_tags": {"addr:city": "Monsummano Terme", "addr:country": "IT", "addr:housenumber": "156", "addr:postcode": "51015", "addr:street": "Via Goffredo Mameli", "amenity": "hospital", "emergency": "yes", "healthcare": "hospital", "healthcare:speciality": "emergency", "name": "Pubblica Assistenza Monsummanese", "source": "Regione Toscana"}}, {"name": "Punto Vaccinazioni COVID 2021", "latitude": 44.6402712, "longitude": 10.9469317, "source": "osm", "_tags": {"amenity": "hospital", "healthcare": "hospital", "name": "Punto Vaccinazioni COVID 2021"}}, {"name": "Punto Tamponi COVID - 2021", "latitude": 44.6398894, "longitude": 10.9455047, "source": "osm", "_tags": {"amenity": "hospital", "healthcare": "hospital", "name": "Punto Tamponi COVID - 2021"}}, {"name": "Accesso Camera Iperbarica", "latitude": 44.5310735, "longitude": 11.423646, "source": "osm", "_tags": {"amenity": "hospital", "healthcare": "hospital", "name": "Accesso Camera Iperbarica"}}, {"name": "Centro medico specialistico bolognese S.r.l", "latitude": 44.5495494, "longitude": 11.4466545, "source": "osm", "_tags": {"addr:city": "Granarolo dell'Emilia", "addr:postcode": "40057", "addr:street": "Via San Donato", "amenity": "hospital", "healthcare": "hospital", "name": "Centro medico specialistico bolognese S.r.l"}}, {"name": "", "latitude": 43.9417521, "longitude": 11.0461605, "source": "osm", "_tags": {"amenity": "hospital", "healthcare": "rehabilitation"}}, {"name": "Hesperia Hospital", "latitude": 44.6259252, "longitude": 10.9240564, "source": "osm", "_tags": {"addr:city": "Modena", "addr:housenumber": "80", "addr:postcode": "41125", "addr:street": "Via Arquà", "amenity": "hospital", "description": "Ospedale polispecialistico accreditato con il Servizio Sanitario Nazionale per le attività di ricovero e ambulatoriali.", "email": "centralinovisite@hesperia.it", "healthcare": "hospital", "healthcare:speciality": "general;gynaecology;cardiology;urology;ocu;acupuncture;allergology;anaesthetics;cardiothoracic_surgery;vascular_surgery;dermatology;haematology;endocrinology;physiatry;occupational;orthopaedics;otolaryngology;paediatrics;pulmonology;radiology", "layer": "1", "name": "Hesperia Hospital", "phone": "+39059449111", "ref:vatin": "03831150366", "website": "https://www.hesperia.it", "wheelchair": "yes", "wikidata": "Q30279869"}}, {"name": "Ospedale del Mugello", "latitude": 43.9585762, "longitude": 11.3746012, "source": "osm", "_tags": {"addr:city": "Borgo San Lorenzo", "addr:housenumber": "60", "addr:postcode": "50032", "addr:street": "Viale della Resistenza", "amenity": "hospital", "check_date": "2025-05-05", "email": "direzionesanitaria.mugello@uslcentro.toscana.it", "emergency": "yes", "healthcare": "hospital", "name": "Ospedale del Mugello", "operator": "Azienda USL Toscana Centro", "operator:type": "public", "operator:wikidata": "Q98852445", "phone": "+39 055 84511", "ref:vatin": "IT06593810481", "website": "https://www.uslcentro.toscana.it/index.php/ospedali/nuovo-ospedale-del-mugello0"}}, {"name": "Ospedale San Sebastiano", "latitude": 44.7755901, "longitude": 10.7827125, "source": "osm", "_tags": {"amenity": "hospital", "check_date": "2024-03-26", "emergency": "yes", "healthcare": "hospital", "name": "Ospedale San Sebastiano", "name:etymology:wikidata": "Q183332"}}, {"name": "Ospedale Bellaria", "latitude": 44.4638278, "longitude": 11.3914377, "source": "osm", "_tags": {"amenity": "hospital", "healthcare": "hospital", "name": "Ospedale Bellaria", "wikidata": "Q3886597", "wikimedia_commons": "Category:Ospedale Bellaria (Bologna)"}}, {"name": "Policlinico Sant'Orsola-Malpighi", "latitude": 44.4884852, "longitude": 11.3674293, "source": "osm", "_tags": {"amenity": "hospital", "emergency": "yes", "healthcare": "hospital", "name": "Policlinico Sant'Orsola-Malpighi", "operator": "Azienda Ospedaliero-Universitaria di Bologna", "operator:type": "public", "type": "multipolygon", "wikidata": "Q3907279"}}, {"name": "Policlinico Sant'Orsola-Malpighi", "latitude": 44.4915104, "longitude": 11.3609615, "source": "osm", "_tags": {"amenity": "hospital", "area": "yes", "emergency": "yes", "healthcare": "hospital", "name": "Policlinico Sant'Orsola-Malpighi", "operator": "Azienda Ospedaliero-Universitaria di Bologna", "operator:type": "public", "type": "multipolygon", "wikidata": "Q3907279"}}, {"name": "Policlinico Sant'Orsola-Malpighi", "latitude": 44.4902587, "longitude": 11.3647141, "source": "osm", "_tags": {"amenity": "hospital", "area": "yes", "emergency": "yes", "healthcare": "hospital", "name": "Policlinico Sant'Orsola-Malpighi", "operator": "Azienda Ospedaliero-Universitaria di Bologna", "operator:type": "public", "type": "multipolygon", "wikidata": "Q3907279"}}, {"name": "Ospedale San Jacopo", "latitude": 43.9180781, "longitude": 10.9041156, "source": "osm", "_tags": {"addr:city": "Pistoia", "addr:housenumber": "97", "addr:postcode": "51100", "addr:street": "Via Ciliegiole", "amenity": "hospital", "check_date": "2025-05-05", "emergency": "yes", "healthcare": "hospital", "name": "Ospedale San Jacopo", "operator": "Azienda USL Toscana Centro", "operator:type": "public", "phone": "+39 0573 3521", "ref:vatin": "IT06593810481", "website": "https://www.uslcentro.toscana.it/index.php/ospedali/ospedale-san-jacopo-di-pistoia", "wheelchair": "yes"}}, {"name": "", "latitude": 44.5352029, "longitude": 11.5348154, "source": "osm", "_tags": {"building": "hospital", "healthcare": "hospital", "wheelchair": "yes"}}, {"name": "Casa di cura Villa Fiorita", "latitude": 44.5377153, "longitude": 10.793144, "source": "osm", "_tags": {"amenity": "hospital", "building": "yes", "name": "Casa di cura Villa Fiorita", "source": "Regione Emilia Romagna"}}, {"name": "Polo Sanitario di Medicina", "latitude": 44.4742826, "longitude": 11.636072, "source": "osm", "_tags": {"addr:city": "Medicina", "addr:housenumber": "1", "addr:postcode": "40059", "addr:street": "Via Aurelio Saffi", "amenity": "hospital", "emergency": "no", "healthcare": "hospital", "name": "Polo Sanitario di Medicina", "operator": "Azienda USL di Imola"}}, {"name": "Bologna Soccorso", "latitude": 44.5053081, "longitude": 11.3161598, "source": "osm", "_tags": {"building": "hospital", "healthcare": "hospital", "name": "Bologna Soccorso", "source": "Regione Emilia Romagna"}}, {"name": "Villa Silvia", "latitude": 44.4655906, "longitude": 11.4091909, "source": "osm", "_tags": {"amenity": "hospital", "healthcare": "hospital", "name": "Villa Silvia", "source": "Regione Emilia Romagna"}}, {"name": "Ospedale Santo Stefano", "latitude": 43.890474, "longitude": 11.0639207, "source": "osm", "_tags": {"addr:city": "Prato", "addr:housenumber": "20/22", "addr:postcode": "59100", "addr:street": "Via Suor Niccolina Infermiera", "amenity": "hospital", "check_date": "2025-05-05", "emergency": "yes", "healthcare": "hospital", "name": "Ospedale Santo Stefano", "name:zh": "医院", "operator": "Azienda USL Toscana Centro", "operator:type": "public", "phone": "+39 0574 801111", "ref:vatin": "IT06593810481", "toilets:wheelchair": "yes", "website": "https://www.uslcentro.toscana.it/index.php/ospedali/ospedale-di-prato-santo-stefano", "wheelchair": "yes"}}, {"name": "Pubblica Assistenza Crevalcore", "latitude": 44.7158301, "longitude": 11.1499587, "source": "osm", "_tags": {"addr:city": "Crevalcore", "addr:housenumber": "385/c", "addr:postcode": "40014", "addr:street": "Via Candia", "amenity": "hospital", "emergency": "yes", "healthcare": "hospital", "healthcare:speciality": "emergency", "name": "Pubblica Assistenza Crevalcore", "source": "Regione Emilia Romagna"}}, {"name": "", "latitude": 43.8821576, "longitude": 10.7686176, "source": "osm", "_tags": {"amenity": "hospital", "building": "yes", "wheelchair": "yes"}}, {"name": "Clinica Santa Rita", "latitude": 43.8820741, "longitude": 10.7671563, "source": "osm", "_tags": {"amenity": "hospital", "building": "yes", "name": "Clinica Santa Rita", "wheelchair": "yes"}}, {"name": "Casa della Salute Cimone", "latitude": 44.2073546, "longitude": 10.7955367, "source": "osm", "_tags": {"amenity": "hospital", "building": "yes", "healthcare": "hospital", "name": "Casa della Salute Cimone", "source": "Regione Emilia Romagna", "website": "https://www.ausl.mo.it/casa-della-salute-fanano"}}, {"name": "Ospedale Estense", "latitude": 44.6473062, "longitude": 10.9207252, "source": "osm", "_tags": {"amenity": "hospital", "healthcare": "hospital", "name": "Ospedale Estense"}}, {"name": "Santissima Annunziata", "latitude": 44.7238625, "longitude": 11.2900513, "source": "osm", "_tags": {"addr:city": "Cento", "addr:housenumber": "2", "addr:postcode": "44042", "addr:street": "Via Giovanni Vicini", "amenity": "hospital", "emergency": "yes", "healthcare": "hospital", "name": "Santissima Annunziata", "name:etymology:wikidata": "Q345", "phone": "+39 051 6838111"}}, {"name": "Casa della Salute Regina Margherita", "latitude": 44.5975976, "longitude": 11.0482314, "source": "osm", "_tags": {"amenity": "hospital", "healthcare": "hospital", "name": "Casa della Salute Regina Margherita", "wheelchair": "yes"}}, {"name": "Ospedale Ramazzini", "latitude": 44.7869711, "longitude": 10.8770956, "source": "osm", "_tags": {"amenity": "hospital", "healthcare": "hospital", "name": "Ospedale Ramazzini", "source": "http://dati.emilia-romagna.it/dato/item/11-11-uso-del-suolo-2008.html"}}, {"name": "Ospedale Santissimo Salvatore", "latitude": 44.6326513, "longitude": 11.1947975, "source": "osm", "_tags": {"amenity": "hospital", "emergency": "yes", "healthcare": "hospital", "name": "Ospedale Santissimo Salvatore", "ref:corine_land_cover": "1214", "source": "http://dati.emilia-romagna.it/dato/item/11-11-uso-del-suolo-2008.html"}}, {"name": "Ospedale Don Giuseppe Dossetti", "latitude": 44.5005071, "longitude": 11.0886217, "source": "osm", "_tags": {"amenity": "hospital", "contact:housenumber": "10b", "contact:street": "Viale dei Martiri", "emergency": "yes", "fax": "+39 051 838829", "healthcare": "hospital", "name": "Ospedale Don Giuseppe Dossetti", "phone": "+39 051 838811", "ref:corine_land_cover": "1213", "source": "http://dati.emilia-romagna.it/dato/item/11-11-uso-del-suolo-2008.html", "website": "https://www.ausl.bologna.it/guida-ai-servizi/luoghi/14297"}}, {"name": "Villa Laura", "latitude": 44.4789745, "longitude": 11.3850418, "source": "osm", "_tags": {"amenity": "hospital", "check_date": "2024-04-21", "healthcare": "hospital", "name": "Villa Laura"}}, {"name": "Istituto Sant'Anna", "latitude": 44.4903558, "longitude": 11.3689247, "source": "osm", "_tags": {"amenity": "hospital", "healthcare": "hospital", "name": "Istituto Sant'Anna"}}, {"name": "Villa Erbosa", "latitude": 44.5218419, "longitude": 11.3425323, "source": "osm", "_tags": {"amenity": "hospital", "emergency": "no", "healthcare": "hospital", "name": "Villa Erbosa", "ref:corine_land_cover": "1214", "source": "http://dati.emilia-romagna.it/dato/item/11-11-uso-del-suolo-2008.html", "wheelchair": "yes", "wikidata": "Q109733163", "wikipedia": "it:Villa Erbosa"}}, {"name": "Ospedale Maggiore Carlo Alberto Pizzardi", "latitude": 44.5055869, "longitude": 11.3134536, "source": "osm", "_tags": {"amenity": "hospital", "healthcare": "hospital", "name": "Ospedale Maggiore Carlo Alberto Pizzardi", "name:etymology:wikidata": "Q110396509", "operator": "AUSL Bologna", "wheelchair": "yes", "wikidata": "Q3886608", "wikipedia": "it:Ospedale Maggiore di Bologna"}}, {"name": "Istituto Ortopedico Rizzoli - Poliambulatorio Barbiano", "latitude": 44.4756823, "longitude": 11.3402178, "source": "osm", "_tags": {"amenity": "hospital", "emergency": "no", "healthcare": "hospital", "healthcare:speciality": "orthopaedics", "name": "Istituto Ortopedico Rizzoli - Poliambulatorio Barbiano", "operator": "Istituto Ortopedico Rizzoli", "operator:type": "public", "ref:corine_land_cover": "1214", "source": "http://dati.emilia-romagna.it/dato/item/11-11-uso-del-suolo-2008.html", "wheelchair": "yes"}}, {"name": "Istituto Ortopedico Rizzoli - Ospedale", "latitude": 44.4808459, "longitude": 11.3419552, "source": "osm", "_tags": {"amenity": "hospital", "emergency": "yes", "healthcare": "hospital", "name": "Istituto Ortopedico Rizzoli - Ospedale", "ref:corine_land_cover": "1214", "source": "http://dati.emilia-romagna.it/dato/item/11-11-uso-del-suolo-2008.html", "wheelchair": "yes", "wikidata": "Q3803656"}}, {"name": "Ospedale di Bentivoglio", "latitude": 44.6340745, "longitude": 11.4154989, "source": "osm", "_tags": {"addr:city": "Bentivoglio", "addr:housenumber": "35", "addr:postcode": "40010", "addr:street": "Via Guglielmo Marconi", "amenity": "hospital", "check_date": "2025-06-26", "healthcare": "hospital", "name": "Ospedale di Bentivoglio", "ref:corine_land_cover": "1214", "source": "http://dati.emilia-romagna.it/dato/item/11-11-uso-del-suolo-2008.html"}}, {"name": "Polo Sanitario \"Anacleto Bonora\"", "latitude": 44.7012865, "longitude": 11.3994783, "source": "osm", "_tags": {"amenity": "hospital", "healthcare": "hospital", "name": "Polo Sanitario \"Anacleto Bonora\"", "ref:corine_land_cover": "1214", "source": "http://dati.emilia-romagna.it/dato/item/11-11-uso-del-suolo-2008.html"}}, {"name": "Fondazione Seràgnoli - Hospice Bentivoglio", "latitude": 44.6358993, "longitude": 11.4108308, "source": "osm", "_tags": {"amenity": "hospital", "emergency": "no", "healthcare": "hospital", "name": "Fondazione Seràgnoli - Hospice Bentivoglio", "operator": "Fondazione Seragnoli", "ref:corine_land_cover": "1214", "source": "http://dati.emilia-romagna.it/dato/item/11-11-uso-del-suolo-2008.html", "wheelchair": "yes"}}, {"name": "Ospedale di Imola \"Santa Maria della Scaletta\"", "latitude": 44.3581376, "longitude": 11.6889424, "source": "osm", "_tags": {"alt_name": "Ospedale Nuovo", "amenity": "hospital", "emergency": "yes", "healthcare": "hospital", "name": "Ospedale di Imola \"Santa Maria della Scaletta\"", "ref:corine_land_cover": "1214", "source": "http://dati.emilia-romagna.it/dato/item/11-11-uso-del-suolo-2008.html", "wheelchair": "yes", "wikidata": "Q111794963"}}, {"name": "Poliambulatorio di Molinella", "latitude": 44.6211062, "longitude": 11.6637815, "source": "osm", "_tags": {"addr:city": "Molinella", "addr:housenumber": "47", "addr:postcode": "40062", "addr:street": "Via Provinciale Circonvallazione", "alt_name": "Ospedale di Molinella", "amenity": "hospital", "emergency": "yes", "healthcare": "hospital", "name": "Poliambulatorio di Molinella", "phone": "+390516909411", "website": "https://www.ausl.bologna.it/iap_dati/view_site?id=14314"}}, {"name": "Villa Serena", "latitude": 44.4498033, "longitude": 11.3603779, "source": "osm", "_tags": {"amenity": "hospital", "emergency": "no", "healthcare": "hospital", "name": "Villa Serena"}}, {"name": "Roncati", "latitude": 44.4930427, "longitude": 11.3302343, "source": "osm", "_tags": {"amenity": "hospital", "healthcare": "hospital", "name": "Roncati", "wheelchair": "yes"}}, {"name": "Clinica privata Villalba", "latitude": 44.4686012, "longitude": 11.3366779, "source": "osm", "_tags": {"addr:city": "Bologna", "addr:postcode": "40136", "addr:street": "Via di Roncrio", "amenity": "hospital", "name": "Clinica privata Villalba", "operator": "GVM"}}, {"name": "Ospedale Lorenzo Pacini", "latitude": 44.0559715, "longitude": 10.7885376, "source": "osm", "_tags": {"addr:city": "San Marcello Piteglio", "addr:housenumber": "160", "addr:postcode": "51028", "addr:street": "Via Guglielmo Marconi", "alt_name": "Presidio Integrato Ospedale Territorio San Marcello Pistoiese", "amenity": "hospital", "check_date": "2025-05-05", "email": "direzionesanitaria.pacini@uslcentro.toscana.it", "emergency": "yes", "healthcare": "hospital", "name": "Ospedale Lorenzo Pacini", "operator": "Azienda USL Toscana Centro", "operator:type": "public", "phone": "+39 0573 63401", "ref:vatin": "IT06593810481", "website": "https://www.uslcentro.toscana.it/index.php/ospedali/ospedale-lorenzo-pacini"}}, {"name": "Arcispedale Sant'Anna", "latitude": 44.799357, "longitude": 11.6965227, "source": "osm", "_tags": {"amenity": "hospital", "emergency": "yes", "healthcare": "hospital", "name": "Arcispedale Sant'Anna"}}, {"name": "Casa di Cura Toniolo", "latitude": 44.4673717, "longitude": 11.3713666, "source": "osm", "_tags": {"addr:city": "Bologna", "addr:postcode": "40141", "addr:street": "Via Toscana", "amenity": "hospital", "healthcare": "hospital", "name": "Casa di Cura Toniolo"}}, {"name": "Casa della Salute", "latitude": 44.4757932, "longitude": 11.2741954, "source": "osm", "_tags": {"addr:street": "Piazzale Rita Levi Montalcini", "amenity": "hospital", "healthcare": "hospital", "name": "Casa della Salute", "operator": "A.S.L. Emilia Romagna", "wheelchair": "yes"}}, {"name": "Policlinico di Modena", "latitude": 44.6354633, "longitude": 10.9426728, "source": "osm", "_tags": {"addr:city": "Modena", "addr:housenumber": "71", "addr:postcode": "41124", "addr:street": "Via Del Pozzo", "amenity": "hospital", "emergency": "yes", "healthcare": "hospital", "name": "Policlinico di Modena", "phone": "+39 059 422.2111", "website": "https://www.aou.mo.it/"}}, {"name": "118 Bologna Soccorso", "latitude": 44.3434778, "longitude": 11.2694603, "source": "osm", "_tags": {"amenity": "hospital", "healthcare": "hospital", "name": "118 Bologna Soccorso"}}, {"name": "Ospedale Simiani di Loiano", "latitude": 44.2667868, "longitude": 11.3255226, "source": "osm", "_tags": {"amenity": "hospital", "emergency": "yes", "healthcare": "hospital", "name": "Ospedale Simiani di Loiano"}}, {"name": "Ospedale Sant’Agostino–Estense", "latitude": 44.6050094, "longitude": 10.8710487, "source": "osm", "_tags": {"addr:city": "Modena", "addr:country": "IT", "addr:housenumber": "1355", "addr:postcode": "41126", "addr:street": "Via Pietro Giardini", "addr:suburb": "San Faustino-Madonnina-Quattro Ville", "amenity": "hospital", "healthcare": "hospital", "name": "Ospedale Sant’Agostino–Estense"}}, {"name": "Centro diurno handicap", "latitude": 43.8230577, "longitude": 11.4878893, "source": "osm", "_tags": {"amenity": "hospital", "healthcare": "hospital", "healthcare:speciality": "community", "name": "Centro diurno handicap", "operator": "ASL", "operator:type": "public", "operator:wikidata": "Q3631467"}}, {"name": "Ospedale vecchio - Polo Sanitario territoriale", "latitude": 44.3551488, "longitude": 11.7054034, "source": "osm", "_tags": {"addr:city": "Imola", "addr:housenumber": "8", "addr:postcode": "40026", "addr:street": "Viale Giovanni Amendola", "amenity": "hospital", "emergency": "no", "healthcare": "hospital", "name": "Ospedale vecchio - Polo Sanitario territoriale", "phone": "+39 0542 604111", "source": "http://www.comune.imola.bo.it/imoladove/ospeale-vecchio-polo-sanitario-territoriale", "website": "https://www.ausl.imola.bo.it/", "wikidata": "Q106083583"}}, {"name": "Ospedale di Pavullo", "latitude": 44.3346677, "longitude": 10.8356088, "source": "osm", "_tags": {"amenity": "hospital", "emergency": "yes", "healthcare": "hospital", "name": "Ospedale di Pavullo"}}, {"name": "Associazione Pubblica Assistenza Castello di Serravalle ODV", "latitude": 44.4407772, "longitude": 11.0649132, "source": "osm", "_tags": {"addr:city": "Castello di Serravalle", "addr:housenumber": "75", "addr:postcode": "40050", "addr:street": "Via venticinque Aprile", "amenity": "hospital", "building": "hospital", "building:colour": "orange", "building:levels": "3", "email": "info@serravalle.org", "emergency": "yes", "healthcare": "hospital", "healthcare:speciality": "ambulance", "height": "12", "name": "Associazione Pubblica Assistenza Castello di Serravalle ODV", "operator": "Pubblica Assistenza Castello di Serravalle per la Valsamoggia Onlus", "phone": "+39 051 6704815", "roof:shape": "flat", "website": "https://serravalle.org/"}}, {"name": "Croce Rossa Italiana corpo militare", "latitude": 44.508564, "longitude": 11.3096576, "source": "osm", "_tags": {"amenity": "hospital", "healthcare": "hospital", "name": "Croce Rossa Italiana corpo militare"}}, {"name": "Ospedale di Castel San Pietro Terme", "latitude": 44.3992405, "longitude": 11.5934255, "source": "osm", "_tags": {"amenity": "hospital", "healthcare": "hospital", "name": "Ospedale di Castel San Pietro Terme"}}, {"name": "Villa Donatello", "latitude": 43.8239648, "longitude": 11.2230958, "source": "osm", "_tags": {"addr:city": "Sesto Fiorentino", "addr:housenumber": "101", "addr:postcode": "50019", "addr:street": "Via Attilio Ragionieri", "amenity": "hospital", "check_date": "2025-04-18", "email": "info@villadonatello.it", "emergency": "no", "healthcare": "hospital", "internet_access": "wlan", "internet_access:fee": "customers", "name": "Villa Donatello", "opening_hours": "Mo-Fr 07:30-20:00; Sa 07:30-13:00; Su,PH off", "phone": "+39 055 50975", "ref:vatin": "IT03740811207", "website": "https://www.villadonatello.com/", "wheelchair": "yes"}}, {"name": "Nuovo Ospedale Civile", "latitude": 44.5313668, "longitude": 10.7935364, "source": "osm", "_tags": {"amenity": "hospital", "name": "Nuovo Ospedale Civile"}}, {"name": "La Casa di Fausta", "latitude": 44.6340342, "longitude": 10.9449387, "source": "osm", "_tags": {"building": "yes", "healthcare": "hospital", "healthcare:speciality": "oncology", "name": "La Casa di Fausta", "website": "https://aseop.it/la-casa-di-fausta/"}}, {"name": "Ospedale Villa Igea", "latitude": 44.6149413, "longitude": 10.8898892, "source": "osm", "_tags": {"amenity": "hospital", "healthcare": "hospital", "name": "Ospedale Villa Igea", "phone": "+39 059 447411", "website": "https://www.villaigea.it/"}}, {"name": "Primo Soccorso e Farmacia", "latitude": 44.1694711, "longitude": 11.2157858, "source": "osm", "_tags": {"amenity": "hospital", "healthcare": "hospital", "name": "Primo Soccorso e Farmacia"}}, {"name": "", "latitude": 44.4408698, "longitude": 11.0650026, "source": "osm", "_tags": {"amenity": "hospital", "building:colour": "orange", "building:levels": "1", "healthcare": "hospital", "height": "3", "roof:shape": "flat"}}, {"name": "Hospice Bellaria", "latitude": 44.4666603, "longitude": 11.3951148, "source": "osm", "_tags": {"alt_name": "Arca sull'Albero", "amenity": "hospital", "building": "yes", "healthcare": "hospital", "name": "Hospice Bellaria", "website": "https://www.fondhs.org/hospice-bellaria"}}, {"name": "Ospedale di Budrio", "latitude": 44.5351579, "longitude": 11.5354313, "source": "osm", "_tags": {"amenity": "hospital", "check_date": "2025-07-22", "emergency": "yes", "healthcare": "hospital", "healthcare:speciality": "general;emergency;dialysis;internal", "name": "Ospedale di Budrio", "operator": "AUSL", "operator:type": "public"}}, {"name": "Poliambulatorio di Medicina", "latitude": 44.4740999, "longitude": 11.6363401, "source": "osm", "_tags": {"addr:housenumber": "1", "addr:street": "Via Aurelio Saffi", "alt_name": "Casa della salute di Medicina", "amenity": "hospital", "check_date": "2025-06-12", "healthcare": "hospital", "name": "Poliambulatorio di Medicina", "old_name": "Ospedale di Medicina", "operator": "A.U.S.L.", "operator:type": "public", "ref:corine_land_cover": "1213"}}, {"name": "Villa Baruzziana", "latitude": 44.4844322, "longitude": 11.3335391, "source": "osm", "_tags": {"amenity": "hospital", "emergency": "no", "healthcare": "hospital", "healthcare:speciality": "psychiatry", "name": "Villa Baruzziana"}}, {"name": "Ospedale Villa Nigrisoli", "latitude": 44.4918105, "longitude": 11.3564624, "source": "osm", "_tags": {"amenity": "hospital", "email": "info@nigrisoli.it", "fax": "+39 051 346972", "healthcare": "hospital", "healthcare:speciality": "general", "name": "Ospedale Villa Nigrisoli", "operator": "Ospedali Privati Riuniti", "phone": "+39 051 396411", "website": "https://www.ospedaliprivatiriuniti.it/nigrisoli/"}}, {"name": "Casa di cura Villa Bellombra", "latitude": 44.4811188, "longitude": 11.3393096, "source": "osm", "_tags": {"amenity": "hospital", "healthcare": "hospital", "name": "Casa di cura Villa Bellombra"}}, {"name": "Villa Torri", "latitude": 44.4961672, "longitude": 11.3575502, "source": "osm", "_tags": {"amenity": "hospital", "healthcare": "hospital", "healthcare:speciality": "general", "name": "Villa Torri", "wikidata": "Q30260817"}}, {"name": "Casa di cura Villa Fiorita", "latitude": 43.906751, "longitude": 11.0970188, "source": "osm", "_tags": {"amenity": "hospital", "healthcare": "hospital", "name": "Casa di cura Villa Fiorita", "website": "https://www.villa-fiorita.it/"}}, {"name": "", "latitude": 43.8821317, "longitude": 10.7687993, "source": "osm", "_tags": {"amenity": "hospital"}}, {"name": "Villa Bellombra", "latitude": 44.4940025, "longitude": 11.2674054, "source": "osm", "_tags": {"amenity": "hospital", "contact:housenumber": "10/7", "contact:street": "Via Casteldebole", "email": "info@villabellombra.it", "fax": "+39 051 6133733", "healthcare": "hospital", "name": "Villa Bellombra", "phone": "+39 051 582095", "start_date": "2022-9-15", "website": "https://www.villabellombra.it/"}}, {"name": "Ospedale di Vignola", "latitude": 44.4830173, "longitude": 11.0107047, "source": "osm", "_tags": {"amenity": "hospital", "check_date": "2025-08-19", "healthcare": "hospital", "healthcare:speciality": "surgery", "name": "Ospedale di Vignola", "wheelchair": "yes"}}, {"name": "Ospedale \"Costa\" di Porretta Terme", "latitude": 44.1633182, "longitude": 10.9697452, "source": "osm", "_tags": {"amenity": "hospital", "healthcare": "hospital", "name": "Ospedale \"Costa\" di Porretta Terme"}}, {"name": "Casa della Salute Borgo Reno", "latitude": 44.5181414, "longitude": 11.2779121, "source": "osm", "_tags": {"addr:city": "Bologna", "addr:country": "IT", "addr:district": "Borgo Panigale", "addr:housenumber": "10", "addr:postcode": "40132", "addr:street": "Via Ercole Nani", "amenity": "hospital", "healthcare": "hospital", "name": "Casa della Salute Borgo Reno", "source": "Comune di Bologna"}}, {"name": "Presidio Sanitario \"Misericordia e Dolce\"", "latitude": 43.8794462, "longitude": 11.0911107, "source": "osm", "_tags": {"amenity": "hospital", "emergency": "no", "healthcare": "hospital", "name": "Presidio Sanitario \"Misericordia e Dolce\"", "operator": "Azienda USL Toscana Centro", "operator:type": "public", "website": "https://www.uslcentro.toscana.it/index.php/sedi-territoriali/846-sedi-territoriali-prato/zona-pratese/10711-prato-centro-presidio-misericordia-e-dolce", "wheelchair": "yes"}}, {"name": "", "latitude": 44.5082928, "longitude": 11.4707116, "source": "osm", "_tags": {"amenity": "hospital", "healthcare": "hospital"}}, {"name": "", "latitude": 44.4715296, "longitude": 11.4045265, "source": "osm", "_tags": {"amenity": "hospital", "healthcare": "hospital"}}, {"name": "Madre Teresa di Calcutta", "latitude": 44.4633738, "longitude": 11.3968632, "source": "osm", "_tags": {"addr:city": "Bologna", "addr:housenumber": "9/7", "addr:postcode": "40139", "addr:street": "Via Altura", "amenity": "hospital", "healthcare": "hospital", "name": "Madre Teresa di Calcutta", "type": "multipolygon"}}, {"name": "Centro Socio Sanitario \"Roberto Giovannini\"", "latitude": 43.877859, "longitude": 11.089095, "source": "osm", "_tags": {"amenity": "hospital", "healthcare": "hospital", "name": "Centro Socio Sanitario \"Roberto Giovannini\"", "type": "multipolygon"}}, {"name": "", "latitude": 43.8511477, "longitude": 11.2892342, "source": "osm", "_tags": {"amenity": "hospital", "type": "multipolygon"}}, {"name": "Montecatone Rehabilitation Institute", "latitude": 44.3477946, "longitude": 11.6327665, "source": "osm", "_tags": {"amenity": "hospital", "building": "hospital", "building:levels": "6", "building:levels:underground": "1", "contact:city": "Imola", "contact:housenumber": "37", "contact:postcode": "40026", "contact:street": "Via Montecatone", "email": "info@montecatone.com", "emergency": "no", "fax": "+39 0542 632805", "healthcare": "hospital", "healthcare:speciality": "physiatry;radiology;intensive;rehabilitation;spinal_cord_injury;rmn;tac", "name": "Montecatone Rehabilitation Institute", "phone": "+39 0542 632811", "roof:levels": "1", "type": "multipolygon", "website": "https://www.montecatone.com/", "wheelchair": "yes", "wikidata": "Q50035496"}}, {"name": "Ospedale Privato Santa Viola", "latitude": 44.5054518, "longitude": 11.3038155, "source": "osm", "_tags": {"addr:city": "Bologna", "addr:postcode": "40133", "amenity": "hospital", "emergency": "no", "healthcare": "hospital", "name": "Ospedale Privato Santa Viola", "type": "multipolygon"}}, {"name": "Villa Azzurra", "latitude": 44.2800255, "longitude": 11.7275993, "source": "osm", "_tags": {"amenity": "hospital", "healthcare": "hospital", "name": "Villa Azzurra", "type": "multipolygon"}}]