[{"name": "Hopital de Dieulefit", "latitude": 44.5269365, "longitude": 5.0649157, "source": "osm", "_tags": {"addr:street": "Place du Champ de Mars", "amenity": "hospital", "healthcare": "hospital", "name": "Hopital de Dieulefit", "ref:FR:FINESS": "260000229", "source": "Le ministère des solidarités et de la santé - 03/2019", "type:FR:FINESS": "355"}}, {"name": "Clinique du Jas", "latitude": 44.5276944, "longitude": 5.0643234, "source": "osm", "_tags": {"amenity": "hospital", "emergency": "no", "healthcare": "hospital", "name": "Clinique du Jas", "ref:FR:FINESS": "260013719", "type:FR:FINESS": "156"}}, {"name": "Hôpital de Nyons", "latitude": 44.3595647, "longitude": 5.1370531, "source": "osm", "_tags": {"addr:housenumber": "11", "addr:street": "Rue Jules Bernard", "amenity": "hospital", "name": "Hôpital de Nyons", "ref:FR:FINESS": "260000237", "source": "Le ministère des solidarités et de la santé - 03/2019", "wikidata": "Q92062842"}}, {"name": "Hôpital de Gordes", "latitude": 43.9124723, "longitude": 5.2002779, "source": "osm", "_tags": {"amenity": "hospital", "name": "Hôpital de Gordes", "ref:FR:FINESS": "840000426", "wikidata": "Q92062596"}}, {"name": "Clinique Synergia Ventoux", "latitude": 44.0470805, "longitude": 5.0281709, "source": "osm", "_tags": {"amenity": "hospital", "fax": "+33 4 32 85 85 99", "fixme": "Localisation approximative dans le Pole Santé", "healthcare": "hospital", "name": "Clinique Synergia Ventoux", "operator:type": "private", "phone": "+33 4 32 85 85 85", "ref:FR:FINESS": "840017172", "type:FR:FINESS": "128", "website": "https://carpentras.clinique-synergia.com/"}}, {"name": "Foyer de vie Clair Matin", "latitude": 44.4917858, "longitude": 5.3846799, "source": "osm", "_tags": {"addr:housenumber": "525", "addr:postcode": "26470", "addr:street": "Route de Saint-Antoine", "amenity": "social_facility", "check_date": "2024-04-13", "email": "associationbramefan@gmail.com", "healthcare": "hospital", "name": "Foyer de vie Clair Matin", "phone": "+33 4 75 27 22 33", "ref:FR:FINESS": "260000583", "type:FR:FINESS": "382", "website": "https://clairmatindrome.org/"}}, {"name": "Dieulefit Santé", "latitude": 44.5324794, "longitude": 5.0633786, "source": "osm", "_tags": {"amenity": "hospital", "check_date": "2025-09-17", "healthcare": "hospital", "healthcare:speciality": "cardiology;orthopaedics;pneumology;neurology", "name": "Dieulefit Santé", "phone": "+33 4 75 00 55 00", "ref:FR:FINESS": "260017454", "type:FR:FINESS": "109", "website": "http://dieulefit-sante.org", "wheelchair": "yes"}}, {"name": "GHPP", "latitude": 44.5688378, "longitude": 4.7833935, "source": "osm", "_tags": {"addr:city": "Montélimar", "addr:postcode": "26200", "addr:street": "Quartier Beausseret, route de sauzet", "amenity": "hospital", "emergency": "yes", "healthcare": "hospital", "name": "GHPP", "operator": "GHPP", "operator:type": "public", "ref:FR:FINESS": "260000138", "ref:FR:SIRET": "20006353500021"}}, {"name": "Centre hospitalier Sainte Marie, hôpital de jour pour adulte", "latitude": 44.5570956, "longitude": 4.7472364, "source": "osm", "_tags": {"addr:city": "Montélimar", "addr:housenumber": "4", "addr:place": "Place du Théâtre", "addr:postcode": "26200", "healthcare": "hospital", "name": "Centre hospitalier Sainte Marie, hôpital de jour pour adulte", "ref:FR:SIRET": "38342360500013", "start_date": "1991-09-23"}}, {"name": "Centre médico-psychologique Valréas", "latitude": 44.3835061, "longitude": 4.9912057, "source": "osm", "_tags": {"amenity": "hospital", "fax": "+33490239858", "healthcare": "hospital", "name": "Centre médico-psychologique Valréas", "phone": "+33490038979", "ref:FR:FINESS": "840011175", "ref:FR:SIRET": "26840009000968", "source": "Le ministère des solidarités et de la santé - 2025-07", "type:FR:FINESS": "292"}}, {"name": "Centre hospitalier de Die", "latitude": 44.7553472, "longitude": 5.3715204, "source": "osm", "_tags": {"amenity": "hospital", "emergency": "yes", "fax": "+33 4 75 22 55 05", "healthcare": "hospital", "name": "Centre hospitalier de Die", "operator:type": "public", "phone": "+33 4 75 22 55 00", "ref:FR:FINESS": "260000286", "type:FR:FINESS": "355", "website": "http://www.ch-die.fr/"}}, {"name": "CH de Crest", "latitude": 44.7301952, "longitude": 5.0218894, "source": "osm", "_tags": {"amenity": "hospital", "building": "yes", "emergency": "yes", "healthcare": "hospital", "name": "CH de Crest", "source": "cadastre-dgi-fr source : Direction Générale des Finances Publiques - Cadastre. Mise à jour : 2017"}}, {"name": "Centre hospitalier de Vaison-la-Romaine", "latitude": 44.239615, "longitude": 5.0751657, "source": "osm", "_tags": {"amenity": "hospital", "building": "hospital", "email": "direction@ch-vaison.fr", "emergency": "yes", "fax": "+33 4 90 36 29 48", "healthcare": "hospital", "name": "Centre hospitalier de Vaison-la-Romaine", "operator:type": "public", "phone": "+33 4 90 36 04 58", "ref:FR:FINESS": "840000525", "source": "cadastre-dgi-fr source : Direction Générale des Impôts - Cadastre. Mise à jour : 2010", "type:FR:FINESS": "355", "website": "https://www.ch-vaison.fr/"}}, {"name": "Centre hospitalier d'Orange", "latitude": 44.1476843, "longitude": 4.8227715, "source": "osm", "_tags": {"alt_name": "Centre hospitalier Louis Giorgi", "amenity": "hospital", "emergency": "yes", "fax": "+33 4 90 34 18 74", "healthcare": "hospital", "name": "Centre hospitalier d'Orange", "operator:type": "public", "phone": "+33 4 90 11 22 22", "postal_code": "84100", "ref:FR:FINESS": "840000483", "ref:FR:SIREN": "?", "ref:FR:SIRET": "26840026400068", "source": "INSEE - 07/2017", "start_date": "1994-03-17", "type:FR:FINESS": "355", "website": "https://ch-orange.fr/", "wikidata": "Q104873644"}}, {"name": "Clinique Kennedy", "latitude": 44.557159, "longitude": 4.7318508, "source": "osm", "_tags": {"amenity": "hospital", "healthcare": "hospital", "name": "Clinique Kennedy", "phone": "+33 4 75 00 35 00", "ref:FR:FINESS": "260003017", "type:FR:FINESS": "365", "website": "https://clinique-kennedy-montelimar.ramsaygds.fr/", "wheelchair": "yes"}}, {"name": "Centre hospitalier d'Avignon", "latitude": 43.9190406, "longitude": 4.8020223, "source": "osm", "_tags": {"alt_name": "Centre hospitalier Henri Duffaut", "amenity": "hospital", "email": "contact@ch-avignon.fr", "emergency": "yes", "fax": "+33 4 90 89 90 16", "healthcare": "hospital", "healthcare:speciality": "intensive", "landuse": "healthcare", "name": "Centre hospitalier d'Avignon", "operator:type": "public", "phone": "+33 4 32 75 33 33", "ref:FR:FINESS": "840001861", "type:FR:FINESS": "355", "website": "https://www.ch-avignon.fr/", "wikidata": "Q104875421"}}, {"name": "Hôpitlal de Sault", "latitude": 44.0941778, "longitude": 5.4168132, "source": "osm", "_tags": {"addr:city": "Sault", "addr:postcode": "84390", "addr:street": "Quartier Mougne", "amenity": "hospital", "emergency": "no", "fax": "+33 4 90 64 19 01", "healthcare": "hospital", "landuse": "healthcare", "name": "Hôpitlal de Sault", "phone": "+33 4 90 64 19 00", "ref:FR:FINESS": "840000517", "type:FR:FINESS": "106", "wikidata": "Q92061597"}}, {"name": "Hôpital local", "latitude": 44.2772411, "longitude": 5.2710682, "source": "osm", "_tags": {"amenity": "hospital", "healthcare": "hospital", "name": "Hôpital local", "ref:FR:FINESS": "260000278", "type:FR:FINESS": "106", "wikidata": "Q92063099"}}, {"name": "Pôle santé CHS Montfavet", "latitude": 44.047339, "longitude": 5.0283982, "source": "osm", "_tags": {"amenity": "hospital", "healthcare": "hospital", "name": "Pôle santé CHS Montfavet", "ref:FR:FINESS": "840007413", "type:FR:FINESS": "292"}}, {"name": "Centre hospitalier de Crest", "latitude": 44.7278194, "longitude": 5.0069185, "source": "osm", "_tags": {"addr:housename": "Hôpital de Crest", "amenity": "hospital", "building": "yes", "emergency": "yes", "fax": "+33 4 75 25 37 15", "name": "Centre hospitalier de Crest", "operator:type": "public", "phone": "+33 4 75 25 37 00", "ref:FR:FINESS": "260000146", "source": "cadastre-dgi-fr source : Direction Générale des Finances Publiques - Cadastre. Mise à jour : 2017", "type:FR:FINESS": "355", "website": "http://www.ch-crest.fr/"}}, {"name": "Centre hospitalier du Pays d'Apt", "latitude": 43.8756843, "longitude": 5.3830262, "source": "osm", "_tags": {"amenity": "hospital", "email": "dir.apt@ch-apt.fr", "emergency": "yes", "fax": "+33 4 90 04 34 98", "healthcare": "hospital", "landuse": "healthcare", "name": "Centre hospitalier du Pays d'Apt", "operator:type": "public", "phone": "+33 4 90 04 33 00", "ref:FR:FINESS": "840000343", "type:FR:FINESS": "355", "website": "http://www.ch-apt.fr/", "wikidata": "Q104874890"}}, {"name": "Centre hospitalier spécialisé Avignon Montfavet", "latitude": 43.9230841, "longitude": 4.8810716, "source": "osm", "_tags": {"addr:city": "Avignon", "addr:postcode": "84143", "addr:street": "Avenue de la Pinède", "amenity": "hospital", "name": "Centre hospitalier spécialisé Avignon Montfavet", "ref:FR:FINESS": "840000541", "source": "Bing"}}, {"name": "Centre hospitalier intercommunal de Cavaillon-Lauris", "latitude": 43.8402777, "longitude": 5.0371378, "source": "osm", "_tags": {"amenity": "hospital", "emergency": "yes", "fax": "+33 4 90 78 85 50", "healthcare": "hospital", "landuse": "healthcare", "name": "Centre hospitalier intercommunal de Cavaillon-Lauris", "operator:type": "public", "phone": "+33 4 90 78 85 00", "ref:FR:FINESS": "840000418", "short_name": "CHI Cavaillon-Lauris", "source": "Bing", "type:FR:FINESS": "355", "website": "http://www.ch-cavaillon.fr", "wikidata": "Q104875407"}}, {"name": "Clinique du Mont Ventoux", "latitude": 44.0504798, "longitude": 5.0364721, "source": "osm", "_tags": {"addr:housenumber": "121", "addr:street": "Avenue Jean Henri Fabre", "amenity": "hospital", "healthcare": "hospital", "landuse": "healthcare", "name": "Clinique du Mont Ventoux", "opening_hours": "Mo-Su 09:00-12:00, 14:00-18:00", "operator": "MEDICA France", "ref:FR:FINESS": "840017214", "ref:FR:SIRET": "42097899100032", "source": "cadastre-dgi-fr source : Direction Générale des Impôts - Cadastre. Mise à jour : 2010", "type:FR:FINESS": "109", "website": "https://www.korian.fr"}}, {"name": "Centre hospitalier de Carpentras", "latitude": 44.0469431, "longitude": 5.027142, "source": "osm", "_tags": {"addr:street": "Rond-Point de l'Amitié Vevey Seesen", "amenity": "hospital", "emergency": "yes", "fax": "+33 4 32 85 88 89", "healthcare": "hospital", "name": "Centre hospitalier de Carpentras", "operator:type": "public", "phone": "+33 4 32 85 88 88", "ref:FR:FINESS": "840000392", "type:FR:FINESS": "355", "website": "https://www.ch-carpentras.fr/", "wikidata": "Q16507375"}}, {"name": "Hôpital Dieudonné Collomp", "latitude": 44.0424311, "longitude": 5.6310782, "source": "osm", "_tags": {"amenity": "hospital", "email": "direction@ch-banon.fr", "emergency": "no", "fax": "+33 4 92 70 80 38", "healthcare": "hospital", "name": "Hôpital Dieudonné Collomp", "operator:type": "public", "phone": "+33 4 92 73 21 00", "ref:FR:FINESS": "040000028", "type:FR:FINESS": "106", "website": "http://www.hopital-banon.fr/"}}, {"name": "Institut Sainte Catherine", "latitude": 43.9228234, "longitude": 4.7999747, "source": "osm", "_tags": {"addr:housenumber": "250", "addr:street": "Chemin de Baigne Pieds", "amenity": "hospital", "fax": "+33 4 90 27 61 80", "healthcare": "hospital", "name": "Institut Sainte Catherine", "phone": "+33 4 90 27 61 61", "ref:FR:FINESS": "840000350", "type:FR:FINESS": "129", "website": "https://www.institut-sainte-catherine.org/", "wikidata": "Q30273611"}}, {"name": "Centre hospitalier de Valréas", "latitude": 44.3828453, "longitude": 4.9914236, "source": "osm", "_tags": {"alt_name": "Hôpital Jules Niel", "amenity": "hospital", "building": "hospital", "emergency": "yes", "fax": "+33 4 90 35 09 97", "healthcare": "hospital", "name": "Centre hospitalier de Valréas", "name:oc": "Centre espitalier de Vauriaç", "operator:type": "public", "phone": "+33 4 90 28 51 51", "ref:FR:FINESS": "840000533", "source": "cadastre-dgi-fr source : Direction Générale des Finances Publiques - Cadastre. Mise à jour : 2020", "source:name:oc": "ieo-bdtopoc", "type:FR:FINESS": "355"}}, {"name": "Centre d’action médico-sociale Précoce", "latitude": 43.9216912, "longitude": 4.8044281, "source": "osm", "_tags": {"amenity": "hospital", "healthcare": "hospital", "name": "Centre d’action médico-sociale Précoce", "short_name": "CAMSP"}}, {"name": "Clinique Montagard", "latitude": 43.9362862, "longitude": 4.8070331, "source": "osm", "_tags": {"addr:housenumber": "23", "amenity": "hospital", "email": "contact.montagard@elsan.care", "healthcare": "hospital", "name": "Clinique Montagard", "operator:type": "private", "phone": "+33 4 90 14 21 09", "website": "https://www.elsan.care/fr/centre-chirurgical-montagard"}}, {"name": "Clinique Belle Rive", "latitude": 43.9562681, "longitude": 4.7940426, "source": "osm", "_tags": {"addr:city": "Villeneuve-lès-Avignon", "addr:housenumber": "55", "addr:postcode": "30400", "addr:street": "Avenue Gabriel Péri", "amenity": "hospital", "healthcare": "hospital", "name": "Clinique Belle Rive", "phone": "+33 4 90 15 68 68", "ref:FR:FINESS": "300780210", "type:FR:FINESS": "161", "website": "https://www.clinique-bellerive.fr"}}, {"name": "", "latitude": 43.9202692, "longitude": 4.7991111, "source": "osm", "_tags": {"amenity": "hospital", "healthcare": "hospital", "wikidata": "Q3144675"}}, {"name": "Centre hospitalier de l'Isle-sur-la-Sorgue", "latitude": 43.9206397, "longitude": 5.0485186, "source": "osm", "_tags": {"amenity": "hospital", "building": "yes", "healthcare": "hospital", "name": "Centre hospitalier de l'Isle-sur-la-Sorgue", "ref:FR:FINESS": "840000434", "type": "multipolygon", "type:FR:FINESS": "106", "wikidata": "Q92062608"}}, {"name": "Centre hospitalier Portes de Provence à Montélimar", "latitude": 44.569916, "longitude": 4.7842314, "source": "osm", "_tags": {"amenity": "hospital", "emergency": "yes", "fax": "+33 4 75 53 40 03", "healthcare": "hospital", "healthcare:speciality": "intensive", "loc_name": "Hôpital de Montélimar", "name": "Centre hospitalier Portes de Provence à Montélimar", "old_name": "Centre hospitalier de Montélimar", "operator:type": "public", "phone": "+33 4 75 53 40 00", "ref:FR:FINESS": "260000138", "type": "multipolygon", "type:FR:FINESS": "355", "website": "https://www.gh-portesdeprovence.fr/"}}]