[{"name": "Maison de santé protestante de Bagatelle", "latitude": 44.8080655, "longitude": -0.5759564, "source": "osm", "_tags": {"addr:housenumber": "201", "addr:street": "Rue Robespierre", "amenity": "hospital", "healthcare": "yes", "name": "Maison de santé protestante de Bagatelle", "ref:FR:FINESS": "330781394", "ref:FR:NAF": "86.10Z", "ref:FR:SIREN": "782021307", "ref:FR:SIRET": "78202130700015", "source": "Le ministère des solidarités et de la santé - 10/2018", "website": "https://www.mspb.com/info-travaux/"}}, {"name": "Hôpital d'Instruction des Armées Robert Picqué", "latitude": 44.7989051, "longitude": -0.5741581, "source": "osm", "_tags": {"amenity": "hospital", "contact:city": "Villenave-d'Ornon", "contact:housenumber": "351", "contact:postcode": "33140", "contact:street": "Route de Toulouse", "healthcare": "hospital", "healthcare:speciality": "intensive", "name": "Hôpital d'Instruction des Armées Robert Picqué", "ref:FR:FINESS": "330781303", "short_name": "HIA Robert Piqué", "type:FR:FINESS": "114", "wikidata": "Q91339901"}}, {"name": "Hôpital Haut-Lévêque", "latitude": 44.7859668, "longitude": -0.659502, "source": "osm", "_tags": {"amenity": "hospital", "check_date": "2025-08-19", "emergency": "yes", "healthcare": "hospital", "healthcare:speciality": "intensive", "name": "Hôpital Haut-Lévêque", "operator:type": "101", "phone": "+33 5 56 79 56 79", "ref:FR:FINESS": "330783648", "source": "Le ministère des solidarités et de la santé - 08/2018", "type:FR:FINESS": "101", "website": "https://www.chu-bordeaux.fr/CHU-de-Bordeaux/H%C3%B4pitaux-et-sites-du-CHU/Groupe-hospitalier-Sud/"}}, {"name": "Hôpital Xavier Arnozan", "latitude": 44.7974504, "longitude": -0.6572363, "source": "osm", "_tags": {"amenity": "hospital", "healthcare": "hospital", "name": "Hôpital Xavier Arnozan", "ref:FR:FINESS": "330781337", "source": "Le ministère des solidarités et de la santé - 08/2018"}}, {"name": "Hôpital de Jour Halloran", "latitude": 44.8124036, "longitude": -0.6410649, "source": "osm", "_tags": {"amenity": "hospital", "contact:city": "Pessac", "contact:housenumber": "33", "contact:postcode": "33600", "contact:street": "Avenue de Noès", "healthcare": "hospital", "name": "Hôpital de Jour Halloran", "phone": "+33 5 56 45 71 34", "ref:FR:FINESS": "330783754"}}, {"name": "Clinique Bethanie", "latitude": 44.805366, "longitude": -0.5994787, "source": "osm", "_tags": {"addr:housenumber": "144", "addr:street": "Avenue Roul", "amenity": "hospital", "fax": "+33556848101", "healthcare": "hospital", "healthcare:speciality": "psychiatry", "name": "Clinique Bethanie", "phone": "+33 5 56 84 81 00", "ref:FR:FINESS": "330780321", "ref:FR:NAF": "86.10Z", "ref:FR:SIREN": "306575366", "ref:FR:SIRET": "30657536600019", "source": "Le ministère des solidarités et de la santé - 03/2019", "type:FR:FINESS": "161"}}, {"name": "Centre hospitalier de Mont-de-Marsan - Site de Sainte-Anne", "latitude": 43.9013466, "longitude": -0.4971132, "source": "osm", "_tags": {"amenity": "hospital", "emergency": "no", "fax": "+33 5 58 05 10 01", "healthcare": "hospital", "healthcare:speciality": "psychiatry", "name": "Centre hospitalier de Mont-de-Marsan - Site de Sainte-Anne", "phone": "+33 5 58 05 10 10", "ref:FR:FINESS": "400000113", "source": "Le ministère des solidarités et de la santé - 03/2019", "type:FR:FINESS": "355", "website": "https://www.ch-mt-marsan.fr/", "wikidata": "Q116681224", "wikipedia": "fr:Hôpital Sainte-Anne (Mont-de-Marsan)"}}, {"name": "Centre hospitalier Intercommunal de Mont-de-Marsan-Site de Layné", "latitude": 43.8937502, "longitude": -0.4857972, "source": "osm", "_tags": {"addr:city": "Mont-de-Marsan", "addr:postcode": "40024", "addr:street": "Avenue Pierre de Coubertin", "alt_name": "Hôpital Layné", "amenity": "hospital", "emergency": "yes", "fax": "+33 5 58 05 10 01", "healthcare": "hospital", "healthcare:speciality": "intensive;dialysis;gynaecology;cardiology;ophthalmology;oncology;radiology;paediatrics;maternity;orthopaedics;trauma;dermatology", "name": "Centre hospitalier Intercommunal de Mont-de-Marsan-Site de Layné", "operator:type": "public", "phone": "+33 5 58 05 10 10", "ref:FR:FINESS": "400000139", "source": "cadastre-dgi-fr source : Direction Générale des Impôts - Cadastre. Mise à jour : 2010", "type:FR:FINESS": "355", "website": "https://www.ch-mt-marsan.fr/", "wheelchair": "yes"}}, {"name": "Hopital Cardiologique", "latitude": 44.7854809, "longitude": -0.6606885, "source": "osm", "_tags": {"amenity": "hospital", "building": "hospital", "healthcare": "hospital", "healthcare:speciality": "cardiology", "name": "Hopital Cardiologique", "source": "cadastre-dgi-fr source : Direction Générale des Impôts - Cadastre. Mise à jour : 2011"}}, {"name": "Clinique des Landes", "latitude": 43.8715497, "longitude": -0.4847284, "source": "osm", "_tags": {"addr:city": "Saint-Pierre-du-Mont", "addr:housenumber": "250", "addr:postcode": "40280", "addr:street": "Rue Frédéric Joliot-Curie", "amenity": "hospital", "building": "yes", "emergency": "yes", "healthcare": "hospital", "name": "Clinique des Landes", "operator:type": "private", "phone": "+33 5 58 06 06 12", "ref:FR:FINESS": "400780359", "source": "cadastre-dgi-fr source : Direction Générale des Impôts - Cadastre. Mise à jour : 2011", "type:FR:FINESS": "365"}}, {"name": "Centre hospitalier spécialisé de Cadillac", "latitude": 44.6349137, "longitude": -0.3157537, "source": "osm", "_tags": {"amenity": "hospital", "healthcare": "hospital", "healthcare:speciality": "psychiatry", "name": "Centre hospitalier spécialisé de Cadillac", "ref:FR:FINESS": "330000647", "source": "cadastre-dgi-fr source : Direction Générale des Impôts - Cadastre. Mise à jour : 2011", "type:FR:FINESS": "292"}}, {"name": "Centre Sport Santé", "latitude": 44.793628, "longitude": -0.591373, "source": "osm", "_tags": {"addr:city": "Talence", "addr:housenumber": "1", "addr:postcode": "33400", "addr:street": "Rue Paul Verlaine", "amenity": "hospital", "emergency": "yes", "healthcare": "hospital", "healthcare:speciality": "service_de_soins_à_domicile", "name": "Centre Sport Santé", "source": "https://www.sportsantetalence.com"}}, {"name": "Centre hospitalier de Cadillac - Unité pour Malades Difficiles", "latitude": 44.6348629, "longitude": -0.3107706, "source": "osm", "_tags": {"amenity": "hospital", "healthcare": "hospital", "name": "Centre hospitalier de Cadillac - Unité pour Malades Difficiles", "ref:FR:FINESS": "330781295", "ref:FR:NAF": "8610Z", "type:FR:FINESS": "292", "wikidata": "Q105110698"}}, {"name": "Hôpital de jour & CMP Adultes CH Charles Perrens", "latitude": 44.6392199, "longitude": -0.9658977, "source": "osm", "_tags": {"amenity": "hospital", "building": "yes", "fax": "+33556267063", "healthcare": "hospital", "name": "Hôpital de jour & CMP Adultes CH Charles Perrens", "phone": "+33556827830", "ref:FR:FINESS": "330791963", "ref:FR:SIRET": "26330584900030", "source": "Le ministère des solidarités et de la santé - 2023-05 type:FR:FINESS = 292="}}, {"name": "Centre Hospitalier d‘Arcachon", "latitude": 44.6128861, "longitude": -1.1138435, "source": "osm", "_tags": {"amenity": "hospital", "email": "secretariat.direction@ch-arcachon.fr", "emergency": "yes", "fax": "+33 5 57 52 93 00", "healthcare": "hospital", "name": "Centre Hospitalier d‘Arcachon", "operator:type": "public", "phone": "+33 5 57 52 90 00", "ref:FR:FINESS": "330000555", "type:FR:FINESS": "355"}}, {"name": "Clinique Saint-Martin", "latitude": 44.7895783, "longitude": -0.6298122, "source": "osm", "_tags": {"amenity": "hospital", "healthcare": "hospital", "name": "Clinique Saint-Martin", "phone": "+33540130267", "ref:FR:FINESS": "330780503", "type:FR:FINESS": "365", "url": "https://www.elsan.care/fr/hopital-prive-saint-martin"}}, {"name": "Clinique mutualiste Arnaud Duben", "latitude": 44.806505, "longitude": -0.6098936, "source": "osm", "_tags": {"addr:housenumber": "46", "addr:street": "Avenue du Docteur Schweitzer", "alt_name": "Clinique mutualiste de Pessac", "amenity": "hospital", "emergency": "yes", "fax": "+33 5 56 46 56 50", "healthcare": "hospital", "name": "Clinique mutualiste Arnaud Duben", "operator": "Pavillon de la Mutualité", "operator:type": "private", "phone": "+33 5 56 46 56 46", "ref:FR:FINESS": "330780529", "ref:FR:NAF": "86.10Z", "ref:FR:SIREN": "775584972", "ref:FR:SIRET": "77558497200027", "source": "INSEE - 2025-02", "website": "https://www.clinique-pessac.fr/"}}, {"name": "Polyclinique d'Arès", "latitude": 44.7532955, "longitude": -1.1293756, "source": "osm", "_tags": {"alt_name": "Centre médico-chirugical Wallerstein", "amenity": "hospital", "emergency": "yes", "fax": "+33 5 56 60 27 35", "healthcare": "hospital", "name": "Polyclinique d'Arès", "operator:type": "private", "phone": "+33 5 56 03 87 00", "ref:FR:FINESS": "330780537", "source": "cadastre-dgi-fr source : Direction Générale des Impôts - Cadastre. Mise à jour : 2010", "type:FR:FINESS": "365", "website": "http://www.clinique-ares.com/"}}, {"name": "IRM 3T", "latitude": 44.8061042, "longitude": -0.6102905, "source": "osm", "_tags": {"amenity": "hospital", "emergency": "no", "healthcare": "hospital", "healthcare:speciality": "diagnostic_radiology", "name": "IRM 3T"}}, {"name": "", "latitude": 44.7532257, "longitude": -1.1314811, "source": "osm", "_tags": {"aeroway": "helipad", "amenity": "hospital", "emergency": "landing_site"}}, {"name": "CLUB DE SAUVETAGE CÔTIER DE L'HORIZON - LEGE-CAP FERRET", "latitude": 44.715421, "longitude": -1.2496783, "source": "osm", "_tags": {"amenity": "hospital", "healthcare": "hospital", "name": "CLUB DE SAUVETAGE CÔTIER DE L'HORIZON - LEGE-CAP FERRET"}}, {"name": "Clinique de SMR Les Flots", "latitude": 44.8062207, "longitude": -0.5746244, "source": "osm", "_tags": {"addr:city": "Talence", "addr:housenumber": "257", "addr:postcode": "33400", "addr:street": "Route de Toulouse", "amenity": "hospital", "emergency": "no", "healthcare": "hospital", "healthcare:speciality": "general;geriatrics;endocrinology", "name": "Clinique de SMR Les Flots", "opening_hours": "Mo-Su 09:30-13:00, 14:00-17:30", "operator": "Inicea (Clariane)", "operator:type": "private", "ref:FR:SIRET": "42189003900025"}}]