[{"name": "Casa di Cura Villa Garda", "latitude": 45.5818186, "longitude": 10.7161249, "source": "osm", "_tags": {"addr:city": "Garda", "addr:housenumber": "89", "addr:postcode": "37016", "addr:street": "Via Monte Baldo", "amenity": "hospital", "contact:pec": "casadicuravillagarda@pec.it", "email": "info@villagarda.it", "emergency": "no", "healthcare": "hospital", "healthcare:speciality": "physiatry", "name": "Casa di Cura Villa Garda", "operator": "Garofalo Health Care S.p.A.", "operator:type": "private", "phone": "+39 045 6208611", "wheelchair": "yes"}}, {"name": "Guardia Medica", "latitude": 45.6881388, "longitude": 10.6616842, "source": "osm", "_tags": {"addr:postcode": "25084", "amenity": "hospital", "emergency": "no", "healthcare": "hospital", "name": "Guardia Medica"}}, {"name": "Casa di cura Figlie di San Camillo", "latitude": 45.1450603, "longitude": 10.0127963, "source": "osm", "_tags": {"amenity": "hospital", "healthcare": "hospital", "name": "Casa di cura Figlie di San Camillo", "source": "bing"}}, {"name": "Ambulatorio medico", "latitude": 45.4822934, "longitude": 10.0540127, "source": "osm", "_tags": {"amenity": "hospital", "emergency": "no", "healthcare": "hospital", "name": "Ambulatorio medico"}}, {"name": "Spedali Civili Brescia Montichiari", "latitude": 45.4104244, "longitude": 10.4087873, "source": "osm", "_tags": {"addr:city": "Montichiari", "addr:housenumber": "1", "addr:postcode": "25123", "addr:street": "Piazzale Spedali civili", "amenity": "hospital", "contact:email": "protocollo.spedalicivilibrescia@legalmail.it", "contact:phone": "+39 030 39951", "contact:website": "https://montichiari.asst-spedalicivili.it/servizi/notizie/notizie_homepage.aspx", "emergency": "yes", "name": "Spedali Civili Brescia Montichiari"}}, {"name": "Italian Red Cross", "latitude": 44.856799, "longitude": 10.071196, "source": "osm", "_tags": {"amenity": "hospital", "emergency": "no", "healthcare": "hospital", "name": "Italian Red Cross"}}, {"name": "Guardia Medica", "latitude": 45.2893083, "longitude": 9.8559959, "source": "osm", "_tags": {"amenity": "hospital", "healthcare": "hospital", "name": "Guardia Medica"}}, {"name": "ospitale civile", "latitude": 44.9261345, "longitude": 10.522617, "source": "osm", "_tags": {"amenity": "hospital", "name": "ospitale civile"}}, {"name": "Azienda Tutela Salute", "latitude": 45.5094582, "longitude": 10.3269536, "source": "osm", "_tags": {"amenity": "hospital", "healthcare": "hospital", "name": "Azienda Tutela Salute", "operator": "Azienda Tutela Salute - Brescia"}}, {"name": "Poliambulatorio Bongi", "latitude": 45.4031154, "longitude": 9.9370244, "source": "osm", "_tags": {"amenity": "hospital", "emergency": "no", "name": "Poliambulatorio Bongi"}}, {"name": "", "latitude": 45.2239184, "longitude": 10.4110937, "source": "osm", "_tags": {"addr:city": "Asola", "emergency": "emergency_ward_entrance", "healthcare": "hospital"}}, {"name": "Ausl", "latitude": 44.8147654, "longitude": 10.3196309, "source": "osm", "_tags": {"amenity": "hospital", "healthcare": "hospital", "name": "Ausl"}}, {"name": "Unità operativa neuropsichiatria dell'infanzia e dell'adolescenza", "latitude": 45.5523067, "longitude": 10.2440373, "source": "osm", "_tags": {"addr:city": "Brescia", "addr:housenumber": "21", "addr:postcode": "25123", "addr:street": "Via Maiera", "amenity": "hospital", "name": "Unità operativa neuropsichiatria dell'infanzia e dell'adolescenza"}}, {"name": "Casa della Salute", "latitude": 44.9166172, "longitude": 9.7896496, "source": "osm", "_tags": {"amenity": "hospital", "healthcare": "hospital", "name": "Casa della Salute", "operator": "AUSL Piacenza", "toilets:wheelchair": "yes", "wheelchair": "limited", "wheelchair:description": "Ingresso complicato a causa delle porte antincendio."}}, {"name": "Pronto Soccorso Azienda Ospedaliera Mellino Mellini", "latitude": 45.5372915, "longitude": 9.9347712, "source": "osm", "_tags": {"addr:city": "Chiari", "addr:postcode": "25032", "addr:street": "Via delle Battaglie", "emergency": "emergency_ward_entrance", "healthcare": "hospital", "name": "Pronto Soccorso Azienda Ospedaliera Mellino Mellini"}}, {"name": "Pronto Soccorso Clinica San Rocco", "latitude": 45.6153491, "longitude": 10.1113182, "source": "osm", "_tags": {"addr:city": "Ome", "addr:housenumber": "24", "addr:postcode": "25050", "addr:street": "Via dei Sabbioni", "emergency": "emergency_ward_entrance", "healthcare": "hospital", "name": "Pronto Soccorso Clinica San Rocco"}}, {"name": "Pronto Soccorso Istituto Clinico Sant'Anna", "latitude": 45.5538885, "longitude": 10.18022, "source": "osm", "_tags": {"addr:city": "Brescia", "addr:housenumber": "31", "addr:postcode": "25127", "addr:street": "Via del Franzone", "emergency": "emergency_ward_entrance", "healthcare": "hospital", "name": "Pronto Soccorso Istituto Clinico Sant'Anna"}}, {"name": "Pronto Soccorso Presidio Ospedaliero Di Montichiari", "latitude": 45.4101344, "longitude": 10.4095528, "source": "osm", "_tags": {"emergency": "emergency_ward_entrance", "healthcare": "hospital", "name": "Pronto Soccorso Presidio Ospedaliero Di Montichiari"}}, {"name": "Pronto Soccorso Presidio Ospedaliero Cremonese", "latitude": 45.129446, "longitude": 10.0538313, "source": "osm", "_tags": {"addr:city": "Cremona", "emergency": "emergency_ward_entrance", "healthcare": "hospital", "name": "Pronto Soccorso Presidio Ospedaliero Cremonese"}}, {"name": "Pronto Soccorso Presidio Ospedaliero Oglio Po", "latitude": 44.9747857, "longitude": 10.4675606, "source": "osm", "_tags": {"addr:city": "Oglio Po", "addr:street": "Ingresso Pronto Soccorso", "emergency": "emergency_ward_entrance", "healthcare": "hospital", "name": "Pronto Soccorso Presidio Ospedaliero Oglio Po"}}, {"name": "Pronto Soccorso Ospedale Desenzano del Garda", "latitude": 45.4707586, "longitude": 10.5203875, "source": "osm", "_tags": {"addr:city": "Desenzano del Garda", "addr:street": "Via Monte Croce", "emergency": "emergency_ward_entrance", "healthcare": "hospital", "name": "Pronto Soccorso Ospedale Desenzano del Garda"}}, {"name": "Pronto Soccorso Osp. San Pellegrino", "latitude": 45.3894636, "longitude": 10.4933917, "source": "osm", "_tags": {"addr:city": "Castiglione delle Stiviere", "addr:housenumber": "81", "addr:postcode": "46043", "addr:street": "Via Giuseppe Garibaldi", "emergency": "emergency_ward_entrance", "healthcare": "hospital", "name": "Pronto Soccorso Osp. San Pellegrino"}}, {"name": "Pronto Soccorso", "latitude": 45.5539996, "longitude": 10.2274266, "source": "osm", "_tags": {"amenity": "hospital", "emergency": "yes", "healthcare": "hospital", "name": "Pronto Soccorso", "wheelchair": "yes"}}, {"name": "Guardia Medica", "latitude": 45.5890738, "longitude": 10.1525042, "source": "osm", "_tags": {"amenity": "hospital", "emergency": "no", "name": "Guardia Medica"}}, {"name": "Guardia Medica", "latitude": 44.8803867, "longitude": 10.178866, "source": "osm", "_tags": {"amenity": "hospital", "healthcare": "hospital", "name": "Guardia Medica"}}, {"name": "Guardia Medica", "latitude": 44.8471381, "longitude": 10.4447642, "source": "osm", "_tags": {"amenity": "hospital", "healthcare": "hospital", "name": "Guardia Medica"}}, {"name": "Guardia Medica", "latitude": 44.935993, "longitude": 10.3750791, "source": "osm", "_tags": {"amenity": "hospital", "healthcare": "hospital", "name": "Guardia Medica"}}, {"name": "Guardia Medica", "latitude": 44.9179935, "longitude": 10.2265204, "source": "osm", "_tags": {"amenity": "hospital", "healthcare": "hospital", "name": "Guardia Medica"}}, {"name": "Guardia Medica", "latitude": 44.9817159, "longitude": 10.0440963, "source": "osm", "_tags": {"amenity": "hospital", "healthcare": "hospital", "name": "Guardia Medica"}}, {"name": "Guardia Medica", "latitude": 44.8181759, "longitude": 9.9832719, "source": "osm", "_tags": {"amenity": "hospital", "healthcare": "hospital", "name": "Guardia Medica"}}, {"name": "Pronto Soccorso Odontoiatrico", "latitude": 45.5559993, "longitude": 10.2334375, "source": "osm", "_tags": {"amenity": "hospital", "healthcare": "hospital", "name": "Pronto Soccorso Odontoiatrico"}}, {"name": "Istituto delle Suore delle Poverelle - Istituto Palazzolo", "latitude": 45.6353589, "longitude": 9.8724522, "source": "osm", "_tags": {"addr:city": "Grumello del Monte", "addr:housenumber": "15", "addr:postcode": "24064", "addr:street": "Piazza Gabriele Camozzi", "amenity": "hospital", "healthcare": "hospital", "name": "Istituto delle Suore delle Poverelle - Istituto Palazzolo", "phone": "+39 035 830038", "website": "https://www.istitutopalazzolo.it/"}}, {"name": "A.O. Mellino Mellini", "latitude": 45.5645381, "longitude": 9.9972908, "source": "osm", "_tags": {"amenity": "hospital", "healthcare": "hospital", "name": "A.O. Mellino Mellini", "operator": "ASST Franciacorta", "operator:type": "public"}}, {"name": "Avis", "latitude": 45.3009193, "longitude": 10.4729057, "source": "osm", "_tags": {"amenity": "hospital", "healthcare": "hospital", "name": "Avis"}}, {"name": "Sede territoriale neuropsichiatria infanzia e adolescenza", "latitude": 45.4751159, "longitude": 10.2393131, "source": "osm", "_tags": {"addr:housenumber": "29", "addr:street": "Via Romanino", "amenity": "hospital", "contact:website": "asst-spedalicivili.it", "name": "Sede territoriale neuropsichiatria infanzia e adolescenza", "opening_hours": "Mo-Fr 08:30-16:45"}}, {"name": "ASST Spedali Civili Sportelli Scelta e Revoca", "latitude": 45.5277173, "longitude": 10.2334024, "source": "osm", "_tags": {"addr:housenumber": "11", "addr:street": "Viale Duca degli Abruzzi", "amenity": "hospital", "name": "ASST Spedali Civili Sportelli Scelta e Revoca", "opening_hours": "Mo, Tu, Th, Fr 08:30-14:30; We 08:30-16:00", "phone": "+39 030 3333730", "website": "https://www.asst-spedalicivili.it/servizi/notizie/notizie_homepage.aspx"}}, {"name": "Servizio di continuità assistenziale", "latitude": 45.5275054, "longitude": 10.2333291, "source": "osm", "_tags": {"addr:housenumber": "13", "addr:street": "Viale Duca degli Abruzzi", "amenity": "hospital", "name": "Servizio di continuità assistenziale", "opening_hours": "Mo-Fr 20:00-08:00; Sa, Su 00:00-23:59", "phone": "+39 030 116117", "website": "https://www.asst-spedalicivili.it/servizi/notizie/notizie_homepage.aspx"}}, {"name": "Fondazione Poliambulanza Istituto Ospedaliero", "latitude": 45.5215805, "longitude": 10.2369374, "source": "osm", "_tags": {"addr:housenumber": "1", "addr:street": "Via Don Faustino Pinzoni", "amenity": "hospital", "name": "Fondazione Poliambulanza Istituto Ospedaliero", "phone": "+39 030 3515261", "website": "https://www.poliambulanza.it/"}}, {"name": "Obitorio", "latitude": 45.5210798, "longitude": 10.237997, "source": "osm", "_tags": {"amenity": "hospital", "name": "Obitorio", "opening_hours": "Mo-Su 08:00-17:45", "website": "https://www.poliambulanza.it/"}}, {"name": "Prontosoccorso Poliambulanza", "latitude": 45.5217013, "longitude": 10.2370044, "source": "osm", "_tags": {"addr:housenumber": "1", "addr:street": "Via Don Faustino Pinzoni", "amenity": "hospital", "name": "Prontosoccorso Poliambulanza", "phone": "+39 030 3515260", "website": "https://www.poliambulanza.it/"}}, {"name": "Fondazione Istituto Ispedaliero di Sospiro", "latitude": 45.5324756, "longitude": 10.2362911, "source": "osm", "_tags": {"addr:housenumber": "89", "addr:street": "Via Mantova", "amenity": "hospital", "name": "Fondazione Istituto Ispedaliero di Sospiro", "website": "https://www.fondazionesospiro.it/"}}, {"name": "Ambulatorio Migranti - ASST Spedali Civili di Brescia", "latitude": 45.530099, "longitude": 10.2438816, "source": "osm", "_tags": {"addr:housenumber": "40", "addr:street": "Viale del Piave", "amenity": "hospital", "name": "Ambulatorio Migranti - ASST Spedali Civili di Brescia", "phone": "+39 030 333 3456", "website": "https://territorio.asst-spedalicivili.it/contenuto/contenuti--ecm/ambulatorio-migranti.ashx"}}, {"name": "Istituto Clinico Città di Brescia", "latitude": 45.553934, "longitude": 10.2270751, "source": "osm", "_tags": {"amenity": "hospital", "contact:website": "http://www.cittadibrescia-gsd.it/", "healthcare": "hospital", "name": "Istituto Clinico Città di Brescia"}}, {"name": "Pronto Soccorso", "latitude": 45.5585504, "longitude": 10.2305874, "source": "osm", "_tags": {"amenity": "hospital", "building": "hospital", "emergency": "yes", "healthcare": "hospital", "name": "Pronto Soccorso"}}, {"name": "Ospedale e Casa di Riposo Nobile Paolo Richiedei", "latitude": 45.5995901, "longitude": 9.886261, "source": "osm", "_tags": {"amenity": "hospital", "healthcare": "hospital", "name": "Ospedale e Casa di Riposo Nobile Paolo Richiedei"}}, {"name": "Ospedale San Pellegrino di Castiglione", "latitude": 45.3895909, "longitude": 10.4935755, "source": "osm", "_tags": {"amenity": "hospital", "building": "hospital", "name": "Ospedale San Pellegrino di Castiglione"}}, {"name": "Istituto Clinico Sant'Anna", "latitude": 45.5537081, "longitude": 10.1802094, "source": "osm", "_tags": {"amenity": "hospital", "name": "Istituto Clinico Sant'Anna"}}, {"name": "Fondazione Elisabetta Germani", "latitude": 45.0841156, "longitude": 10.2610182, "source": "osm", "_tags": {"amenity": "hospital", "healthcare": "hospital", "name": "Fondazione Elisabetta Germani"}}, {"name": "Nikolajewka", "latitude": 45.5637837, "longitude": 10.2449366, "source": "osm", "_tags": {"addr:housenumber": "11", "addr:street": "Via Nikolajewka", "amenity": "hospital", "healthcare": "hospital", "name": "Nikolajewka"}}, {"name": "Fondazione Card. Gusmini", "latitude": 45.806726, "longitude": 9.8483459, "source": "osm", "_tags": {"amenity": "hospital", "emergency": "no", "healthcare": "yes", "name": "Fondazione Card. Gusmini"}}, {"name": "Casa di Cura Villa Gemma", "latitude": 45.6251561, "longitude": 10.5733463, "source": "osm", "_tags": {"addr:city": "Gardone Riviera", "addr:postcode": "25083", "addr:street": "Corso Giuseppe Zanardelli", "amenity": "hospital", "building": "yes", "contact:website": "https://www.villagemma.it/", "emergency": "no", "healthcare": "hospital", "name": "Casa di Cura Villa Gemma"}}, {"name": "Sistema Polimodulare di REMS Provvisorie", "latitude": 45.4062928, "longitude": 10.5016746, "source": "osm", "_tags": {"amenity": "hospital", "healthcare": "hospital", "name": "Sistema Polimodulare di REMS Provvisorie", "old_name": "Ospedale Psichiatrico Giudiziario", "wikipedia": "it:Ospedale Psichiatrico Giudiziario"}}, {"name": "", "latitude": 45.4571753, "longitude": 10.4984184, "source": "osm", "_tags": {"amenity": "hospital", "healthcare": "hospital"}}, {"name": "Azienda Ospedaliera di Desenzano del Garda", "latitude": 45.4713704, "longitude": 10.5207015, "source": "osm", "_tags": {"amenity": "hospital", "emergency": "yes", "healthcare": "hospital", "name": "Azienda Ospedaliera di Desenzano del Garda"}}, {"name": "Area Stauffer Spedali Civili", "latitude": 45.5547615, "longitude": 10.2306798, "source": "osm", "_tags": {"addr:city": "Brescia", "addr:housenumber": "89", "addr:postcode": "25123", "addr:street": "Via Marcantonio Ducco", "alt_name": "Palazzetto prelievi", "amenity": "hospital", "building": "hospital", "healthcare": "hospital", "name": "Area Stauffer Spedali Civili", "operator": "Spedali Civili di Brescia"}}, {"name": "Ospedale di Leno", "latitude": 45.3644281, "longitude": 10.2168149, "source": "osm", "_tags": {"addr:city": "Leno", "addr:housenumber": "1", "addr:postcode": "25024", "addr:street": "Piazzetta Donatori di sangue", "amenity": "hospital", "contact:email": "http://www.asst-garda.it/pec/", "contact:facebook": "https://www.facebook.com/ASST-Garda-259785917821537/", "contact:phone": "+39 030 90541", "contact:twitter": "https://twitter.com/AsstGarda", "contact:website": "https://www.asst-garda.it/ospedali/leno/", "name": "Ospedale di Leno"}}, {"name": "Ospedale di Gardone Val Trompia", "latitude": 45.6764284, "longitude": 10.1838194, "source": "osm", "_tags": {"addr:city": "Gardone Val Trompia", "addr:housenumber": "4", "addr:postcode": "25063", "addr:street": "Via Papa Giovanni Ventitreesimo", "amenity": "hospital", "contact:email": "sitr.gardone@asst-spedalicivili.it", "contact:fax": "+39 030 8933264", "contact:phone": "+39 030 8933273", "contact:website": "https://gardone.asst-spedalicivili.it/servizi/notizie/notizie_homepage.aspx", "name": "Ospedale di Gardone Val Trompia"}}, {"name": "Ospedale Piero Pederzoli", "latitude": 45.4439077, "longitude": 10.7066898, "source": "osm", "_tags": {"addr:city": "Peschiera del Garda", "addr:housenumber": "24", "addr:postcode": "37019", "addr:street": "Via Monte Baldo", "amenity": "hospital", "emergency": "yes", "healthcare": "hospital", "name": "Ospedale Piero Pederzoli", "operator": "Casa di Cura Privata S.p.A.", "operator:type": "private", "phone": "+39 045 644 91 11", "website": "https://www.ospedalepederzoli.it/", "wheelchair": "yes"}}, {"name": "Polo sanitario Nuovo Robbiani", "latitude": 45.2815167, "longitude": 9.8708775, "source": "osm", "_tags": {"addr:city": "Soresina", "addr:housenumber": "4", "addr:postcode": "26015", "addr:street": "Via Inzani", "amenity": "hospital", "email": "info@nuovorobbiani.it", "healthcare": "hospital", "name": "Polo sanitario Nuovo Robbiani", "phone": "+39 0374 415411", "website": "https://www.nuovorobbiani.it/"}}, {"name": "Ospedale di Salò", "latitude": 45.605193, "longitude": 10.522382, "source": "osm", "_tags": {"addr:city": "Salò", "addr:housenumber": "5", "addr:postcode": "25087", "addr:street": "Piazza Sergio Bresciani", "amenity": "hospital", "building": "hospital", "contact:phone": "+39 036 53781", "contact:website": "https://www.asst-garda.it/ospedali/salo/", "healthcare": "hospital", "name": "Ospedale di Salò", "wheelchair": "yes"}}, {"name": "Ospedale Civile di Volta Mantovana s.r.l.", "latitude": 45.3239525, "longitude": 10.6557302, "source": "osm", "_tags": {"amenity": "hospital", "building": "yes", "emergency": "no", "healthcare": "hospital", "name": "Ospedale Civile di Volta Mantovana s.r.l.", "website": "http://www.aslmn.it/special_prestazioni_det.asp?IDLivello1=11&IDLivello2=3&ricerca=1&IDPresidi=2"}}, {"name": "A.S.S.T. - Franciacorta", "latitude": 45.5380785, "longitude": 9.9344506, "source": "osm", "_tags": {"addr:city": "Chiari", "addr:housenumber": "4", "addr:postcode": "25032", "addr:street": "Viale Giuseppe Mazzini", "amenity": "hospital", "emergency": "yes", "healthcare": "hospital", "name": "A.S.S.T. - Franciacorta"}}, {"name": "Ospedale di Calcinate \"F.M. Passi\"", "latitude": 45.6203072, "longitude": 9.7976798, "source": "osm", "_tags": {"addr:city": "Calcinate", "addr:housenumber": "3", "addr:postcode": "24050", "addr:street": "Piazza Ospedale", "amenity": "hospital", "emergency": "yes", "healthcare": "hospital", "name": "Ospedale di Calcinate \"F.M. Passi\""}}, {"name": "Ospedale di Gavardo", "latitude": 45.588191, "longitude": 10.439807, "source": "osm", "_tags": {"amenity": "hospital", "name": "Ospedale di Gavardo"}}, {"name": "Avis comunale di Casalmaggiore - Associazione volontari italiani sangue", "latitude": 44.9941457, "longitude": 10.4123322, "source": "osm", "_tags": {"addr:city": "Casalmaggiore", "addr:postcode": "26041", "addr:street": "Via Guerrazzi", "amenity": "hospital", "check_date": "2025-07-27", "healthcare": "hospital", "name": "Avis comunale di Casalmaggiore - Associazione volontari italiani sangue", "operator": "AVIS"}}, {"name": "", "latitude": 44.990738, "longitude": 10.4162028, "source": "osm", "_tags": {"amenity": "hospital", "building": "hospital", "healthcare": "hospital"}}, {"name": "Ospedale Santissima Trinità", "latitude": 45.5195862, "longitude": 9.7503993, "source": "osm", "_tags": {"amenity": "hospital", "email": "info@ospedale.treviglio.bg.it", "emergency": "yes", "fax": "+39 0363 990209", "healthcare": "hospital", "loc_name": "Ospedale di Romano", "name": "Ospedale Santissima Trinità", "phone": "+39 0363 9901", "website": "http://www.ospedale.treviglio.bg.it/85.asp"}}, {"name": "Azienda Sanitaria Locale Gavardo", "latitude": 45.5821449, "longitude": 10.4375089, "source": "osm", "_tags": {"amenity": "hospital", "building": "hospital", "name": "Azienda Sanitaria Locale Gavardo"}}, {"name": "Ospedale e Casa di Riposo Nobile Paolo Richiedei", "latitude": 45.5897243, "longitude": 10.1521125, "source": "osm", "_tags": {"addr:city": "Gussago", "addr:housenumber": "16", "addr:postcode": "25064", "addr:street": "Via Paolo Richiedei", "amenity": "hospital", "contact:email": "info@richiedei.it", "contact:email2": "info@pec.richiedei.it", "contact:fax": "+39 030 252 1594", "contact:phone": "+39 030 25281", "contact:website": "https://www.richiedei.it/", "name": "Ospedale e Casa di Riposo Nobile Paolo Richiedei"}}, {"name": "Fondazione Salvatore Maugeri", "latitude": 45.6517603, "longitude": 10.2519993, "source": "osm", "_tags": {"amenity": "hospital", "building": "yes", "name": "Fondazione Salvatore Maugeri"}}, {"name": "Co.Me.Te. Cooperativa Medici del Territorio - Societa' Cooperativa a R. L.", "latitude": 44.9889871, "longitude": 10.4242419, "source": "osm", "_tags": {"addr:city": "Casalmaggiore", "addr:postcode": "26041", "addr:street": "Via Don Paolo Antonini", "amenity": "hospital", "healthcare": "hospital", "name": "Co.Me.Te. Cooperativa Medici del Territorio - Societa' Cooperativa a R. L."}}, {"name": "Casa di cura San Camillo", "latitude": 45.1372214, "longitude": 10.0396099, "source": "osm", "_tags": {"amenity": "hospital", "check_date": "2025-02-25", "healthcare": "hospital", "name": "Casa di cura San Camillo"}}, {"name": "Istituto Ospedaliero di Sospiro", "latitude": 45.1066823, "longitude": 10.1611049, "source": "osm", "_tags": {"amenity": "hospital", "healthcare": "hospital", "name": "Istituto Ospedaliero di Sospiro"}}, {"name": "Istituto Ospedaliero di Sospiro", "latitude": 45.1071138, "longitude": 10.158464, "source": "osm", "_tags": {"amenity": "hospital", "healthcare": "hospital", "name": "Istituto Ospedaliero di Sospiro"}}, {"name": "", "latitude": 44.9828494, "longitude": 10.421835, "source": "osm", "_tags": {"amenity": "hospital", "building": "yes", "healthcare": "hospital"}}, {"name": "Ospedale unico della Val d'Arda", "latitude": 44.930325, "longitude": 9.9105188, "source": "osm", "_tags": {"amenity": "hospital", "healthcare": "hospital", "name": "Ospedale unico della Val d'Arda", "operator": "A.U.S.L. di Piacenza", "website": "https://www.ausl.pc.it/ospedali/areeospedaliere/areaospedaliera_valdarda.asp"}}, {"name": "Casa Della Salute di Colorno-Torrile", "latitude": 44.9338163, "longitude": 10.3753218, "source": "osm", "_tags": {"amenity": "hospital", "healthcare": "hospital", "name": "Casa Della Salute di Colorno-Torrile"}}, {"name": "Ospedale Figlie di San Camillo", "latitude": 45.1454898, "longitude": 10.0117448, "source": "osm", "_tags": {"amenity": "hospital", "healthcare": "hospital", "name": "Ospedale Figlie di San Camillo"}}, {"name": "Ospedale Sant'Isidoro - F.E.R.B.", "latitude": 45.6917313, "longitude": 9.8414173, "source": "osm", "_tags": {"addr:housenumber": "34", "addr:street": "Via Ospedale", "amenity": "hospital", "building": "yes", "check_date": "2022-12-14", "name": "Ospedale Sant'Isidoro - F.E.R.B.", "phone": "+39 035 9551", "website": "https://www.ferbonlus.com", "wheelchair": "yes"}}, {"name": "", "latitude": 45.0227286, "longitude": 10.0054621, "source": "osm", "_tags": {"amenity": "hospital", "healthcare": "hospital"}}, {"name": "Pronto Soccorso Pediatrico Cavaliere del Lavoro Francesco Folonari", "latitude": 45.555981, "longitude": 10.2308212, "source": "osm", "_tags": {"amenity": "hospital", "building": "hospital", "emergency": "yes", "healthcare": "hospital", "name": "Pronto Soccorso Pediatrico Cavaliere del Lavoro Francesco Folonari"}}, {"name": "", "latitude": 45.1011812, "longitude": 10.4795155, "source": "osm", "_tags": {"amenity": "hospital", "healthcare": "hospital"}}, {"name": "Ospedale di Fidenza", "latitude": 44.8482669, "longitude": 10.0413006, "source": "osm", "_tags": {"alt_name": "Ospedale di Vaio", "amenity": "hospital", "emergency": "yes", "healthcare": "hospital", "name": "Ospedale di Fidenza", "phone": "+39 0524 515111"}}, {"name": "Fondazione Monsignor Benedini", "latitude": 45.1217803, "longitude": 10.5346172, "source": "osm", "_tags": {"amenity": "hospital", "healthcare": "hospital", "name": "Fondazione Monsignor Benedini"}}, {"name": "Casa della Salute", "latitude": 44.9959865, "longitude": 9.9295149, "source": "osm", "_tags": {"amenity": "hospital", "emergency": "no", "healthcare": "hospital", "name": "Casa della Salute", "operator": "A.U.S.L. Piacenza", "operator:type": "public", "website": "https://www.ausl.pc.it/casa_della_salute/cortemaggiore.asp"}}, {"name": "Ospedale Civile di Guastalla", "latitude": 44.9194892, "longitude": 10.6673745, "source": "osm", "_tags": {"amenity": "hospital", "emergency": "yes", "healthcare": "hospital", "name": "Ospedale Civile di Guastalla", "website": "https://www.ausl.re.it/ospedali/ospedale-civile-di-guastalla", "wikidata": "Q56230548"}}, {"name": "", "latitude": 45.2918418, "longitude": 10.2759053, "source": "osm", "_tags": {"amenity": "hospital", "healthcare": "hospital"}}, {"name": "ASST Garda - Presidio Socio-Sanitario di Nozza", "latitude": 45.7042491, "longitude": 10.3873645, "source": "osm", "_tags": {"addr:housenumber": "2", "addr:street": "Via Reverberi", "amenity": "hospital", "check_date": "2024-07-31", "contact:phone": "+39 0365 3781", "contact:website": "https://www.asst-garda.it/ospedali/salo/servizi/poliambulatori-di-salo/", "healthcare": "hospital", "name": "ASST Garda - Presidio Socio-Sanitario di Nozza"}}, {"name": "Ospedale di Comunità", "latitude": 45.5413869, "longitude": 10.4133522, "source": "osm", "_tags": {"amenity": "hospital", "healthcare": "hospital", "name": "Ospedale di Comunità", "operator": "Regione Lombardia", "operator:type": "public/government"}}, {"name": "Ospedale di Comunità", "latitude": 45.5413096, "longitude": 10.4131951, "source": "osm", "_tags": {"addr:city": "Prevalle", "addr:housenumber": "18", "addr:postcode": "25080", "addr:province": "Brescia", "addr:street": "Via San Carlo", "amenity": "hospital", "building": "yes", "healthcare": "hospital", "name": "Ospedale di Comunità", "operator": "Regione Lombardia", "operator:type": "public"}}, {"name": "Spedali Civili di Brescia", "latitude": 45.5574645, "longitude": 10.2312626, "source": "osm", "_tags": {"addr:city": "Brescia", "addr:housenumber": "1", "addr:postcode": "25123", "addr:street": "Piazzale Spedali Civili", "amenity": "hospital", "contact:email": "protocollo.spedalicivilibrescia@legalmail.it", "contact:fax": "+39 030 399 6544", "contact:phone": "+39 030 39951", "contact:website": "http://www.asst-spedalicivili.it/servizi/notizie/notizie_homepage.aspx", "emergency": "yes", "healthcare": "hospital", "name": "Spedali Civili di Brescia", "name:de": "Krankenhaus Brescia", "name:it": "Spedali Civili di Brescia", "source": "CTR reg Lombardia + bing", "type": "multipolygon", "wheelchair": "yes", "wikidata": "Q3966437", "wikipedia": "it:Spedali Civili di Brescia"}}, {"name": "Pia Fondazione Piccinelli", "latitude": 45.7125441, "longitude": 9.7331508, "source": "osm", "_tags": {"amenity": "hospital", "name": "Pia Fondazione Piccinelli", "type": "multipolygon"}}, {"name": "Clinica San Rocco", "latitude": 45.6158218, "longitude": 10.1112269, "source": "osm", "_tags": {"addr:city": "Ome", "addr:housenumber": "24", "addr:postcode": "25050", "addr:street": "Via dei Sabbioni", "amenity": "hospital", "contact:email": "urp.icsr@grupposandonato.it", "contact:phone": "+39 030 685 9111", "contact:website": "https://sanrocco.grupposandonato.it/", "emergency": "yes", "name": "Clinica San Rocco", "type": "multipolygon"}}, {"name": "Fondazione Poliambulanza Istituto Ospedaliero", "latitude": 45.5210926, "longitude": 10.2367884, "source": "osm", "_tags": {"alt_name": "Casa di Cura Poliambulanza", "amenity": "hospital", "check_date": "2024-09-25", "contact:email": "direzione@pec.poliambulanza.it", "contact:fax": "+39 030 3515351", "contact:phone": "+39 030 35151", "contact:website": "https://www.poliambulanza.it/", "emergency": "yes", "medical_system:ssn": "yes", "name": "Fondazione Poliambulanza Istituto Ospedaliero", "type": "multipolygon"}}, {"name": "Ospedale dei Bambini Ronchettino", "latitude": 45.5471093, "longitude": 10.2301525, "source": "osm", "_tags": {"amenity": "hospital", "name": "Ospedale dei Bambini Ronchettino", "type": "multipolygon"}}, {"name": "Domus Salutis", "latitude": 45.5554076, "longitude": 10.2359746, "source": "osm", "_tags": {"amenity": "hospital", "contact:email": "direzione.domus@ancelle.it", "contact:fax": "+39 030 37 09 403", "contact:phone": "+39 030 37 091", "contact:website": "http://www.domussalutis.it", "emergency": "no", "healthcare": "hospital", "name": "Domus Salutis", "operator": "Fondazione Teresa Camplani", "type": "multipolygon", "wheelchair": "yes"}}, {"name": "Ospedale Maggiore di Cremona", "latitude": 45.129058, "longitude": 10.0548621, "source": "osm", "_tags": {"amenity": "hospital", "emergency": "yes", "healthcare": "hospital", "name": "Ospedale Maggiore di Cremona", "type": "multipolygon", "website": "www.ospedale.cremona.it", "wikidata": "Q96755890", "wikipedia": "it:Ospedale Maggiore di Cremona"}}, {"name": "Ospedale Tribandi Pavoni", "latitude": 45.4026952, "longitude": 9.9272723, "source": "osm", "_tags": {"amenity": "hospital", "contact:phone": "+39 030 99441", "contact:website": "http://www.aochiari.it/", "healthcare": "hospital", "name": "Ospedale Tribandi Pavoni", "operator": "Azienda Ospedaliera Mellino Mellini", "ref:vatin": "IT01971010986", "type": "multipolygon"}}, {"name": "Ospedale Briolini Gazzaniga", "latitude": 45.794826, "longitude": 9.8285165, "source": "osm", "_tags": {"amenity": "hospital", "emergency": "no", "healthcare": "hospital", "name": "Ospedale Briolini Gazzaniga", "type": "multipolygon"}}, {"name": "Ospedale Oglio Po", "latitude": 44.9754456, "longitude": 10.4677163, "source": "osm", "_tags": {"amenity": "hospital", "building": "hospital", "emergency": "yes", "healthcare": "hospital", "name": "Ospedale Oglio Po", "type": "multipolygon"}}, {"name": "Ospedale Civile di Iseo - A.S. Mellino Mellini", "latitude": 45.6632957, "longitude": 10.0521123, "source": "osm", "_tags": {"addr:city": "Iseo", "addr:housenumber": "7", "addr:postcode": "25049", "addr:street": "Via Giardini Garibaldi", "amenity": "hospital", "contact:phone": "+39 030 98871", "healthcare": "hospital", "name": "Ospedale Civile di Iseo - A.S. Mellino Mellini", "type": "multipolygon", "wikidata": "Q112141861"}}, {"name": "Ospedale di Asola", "latitude": 45.2235156, "longitude": 10.4110934, "source": "osm", "_tags": {"amenity": "hospital", "healthcare": "hospital", "name": "Ospedale di Asola", "type": "multipolygon", "wikidata": "Q81200884", "wikipedia": "it:Ospedale di Asola"}}, {"name": "Ospedale di Sarnico", "latitude": 45.6689016, "longitude": 9.9544929, "source": "osm", "_tags": {"addr:city": "Sarnico", "addr:housenumber": "6", "addr:postcode": "24067", "addr:street": "Via P. A. Faccanoni", "amenity": "hospital", "building": "hospital", "email": "info@habilitasarnico.it", "fax": "+39 035 306 2255", "name": "Ospedale di Sarnico", "phone": "+39 035 9181", "type": "multipolygon", "website": "https://www.habilita.it/DefaultSede.aspx?SedeID=Sarnico"}}, {"name": "Pilastroni", "latitude": 45.5227573, "longitude": 10.2011774, "source": "osm", "_tags": {"amenity": "hospital", "emergency": "no", "healthcare": "hospital", "name": "Pilastroni", "social_facility": "shelter", "social_facility:for": "mental_health;homeless", "type": "multipolygon"}}, {"name": "Clinica San Camillo", "latitude": 45.5409755, "longitude": 10.2322369, "source": "osm", "_tags": {"amenity": "hospital", "emergency": "no", "name": "Clinica San Camillo", "type": "multipolygon"}}, {"name": "Ospedale di Manerbio", "latitude": 45.3572817, "longitude": 10.1461812, "source": "osm", "_tags": {"amenity": "hospital", "emergency": "yes", "healthcare": "hospital", "name": "Ospedale di Manerbio", "type": "multipolygon"}}, {"name": "", "latitude": 45.4618746, "longitude": 10.5640205, "source": "osm", "_tags": {"amenity": "hospital", "emergency": "no", "healthcare": "hospital", "type": "multipolygon"}}]