[{"name": "Casa di Cura Papa Giovanni XXIII", "latitude": 45.6560052, "longitude": 12.4279679, "source": "osm", "_tags": {"amenity": "hospital", "healthcare": "hospital", "name": "Casa di Cura Papa Giovanni XXIII"}}, {"name": "Ospedale di Cittadella", "latitude": 45.6471553, "longitude": 11.7887626, "source": "osm", "_tags": {"addr:city": "Cittadella", "addr:housenumber": "40", "addr:postcode": "35013", "addr:street": "Via Casa di Ricovero", "amenity": "hospital", "healthcare": "hospital", "internet_access": "wlan", "name": "Ospedale di Cittadella", "wheelchair": "yes"}}, {"name": "Istituto Carlo Steeb", "latitude": 45.3557088, "longitude": 12.3274805, "source": "osm", "_tags": {"amenity": "hospital", "healthcare": "hospital", "name": "Istituto Carlo Steeb"}}, {"name": "Villa Maria", "latitude": 45.410084, "longitude": 11.860234, "source": "osm", "_tags": {"amenity": "hospital", "healthcare": "hospital", "name": "Villa Maria"}}, {"name": "Consultorio USL 13", "latitude": 45.446032, "longitude": 12.1623431, "source": "osm", "_tags": {"amenity": "hospital", "healthcare": "hospital", "name": "Consultorio USL 13"}}, {"name": "Park Villa Napoleon - casa di cura neuropsichiatrica", "latitude": 45.5917469, "longitude": 12.2355855, "source": "osm", "_tags": {"amenity": "hospital", "healthcare": "hospital", "name": "Park Villa Napoleon - casa di cura neuropsichiatrica"}}, {"name": "ULSS 6 Euganea", "latitude": 45.3880317, "longitude": 11.7911498, "source": "osm", "_tags": {"amenity": "hospital", "healthcare": "hospital", "name": "ULSS 6 Euganea", "operator": "ULSS 6 Euganea"}}, {"name": "Centro Socio Sanitario \"Mons. Egidio Negrin\" - ULSS 7 Pedemontana", "latitude": 45.7576359, "longitude": 11.7376067, "source": "osm", "_tags": {"amenity": "social_facility", "healthcare": "hospital", "name": "Centro Socio Sanitario \"Mons. Egidio Negrin\" - ULSS 7 Pedemontana", "operator": "ULSS 7 Pedemontana", "operator:type": "public"}}, {"name": "Casa della Salute Terra e Fiumi", "latitude": 44.8955652, "longitude": 11.8286256, "source": "osm", "_tags": {"amenity": "hospital", "name": "Casa della Salute Terra e Fiumi", "phone": "+39 0532 235111", "website": "https://casedellasalute.ausl.fe.it/it/le-case-della-salute/casa-della-salute-terre-e-fiumi-di-copparo"}}, {"name": "Casa di riposo e Centro diurno \"Gino e Pierina MARANI\"", "latitude": 45.7330505, "longitude": 12.2523651, "source": "osm", "_tags": {"amenity": "hospital", "designation": "casa di riposo", "emergency": "no", "healthcare": "hospital", "name": "Casa di riposo e Centro diurno \"Gino e Pierina MARANI\""}}, {"name": "Centro di Foniatria - Casa di Curas Trieste", "latitude": 45.3994548, "longitude": 11.8601149, "source": "osm", "_tags": {"addr:housenumber": "10", "addr:postcode": "35142", "addr:street": "via Bergamo", "amenity": "hospital", "emergency": "no", "name": "Centro di Foniatria - Casa di Curas Trieste", "website": "https://www.centrofoniatria.it/"}}, {"name": "Croce Rossa", "latitude": 45.4118224, "longitude": 11.916031, "source": "osm", "_tags": {"amenity": "hospital", "brand": "Croce Rossa Italiana", "brand:wikidata": "Q913903", "emergency": "ambulance_station", "healthcare": "hospital", "name": "Croce Rossa"}}, {"name": "Dipartimento Socio Sanitario ai Colli", "latitude": 45.3990658, "longitude": 11.8426458, "source": "osm", "_tags": {"addr:city": "Padova", "addr:housenumber": "4", "addr:street": "Via dei Colli", "amenity": "hospital", "emergency": "no", "healthcare": "hospital", "name": "Dipartimento Socio Sanitario ai Colli"}}, {"name": "Distretto Sanitario", "latitude": 45.5404135, "longitude": 11.781439, "source": "osm", "_tags": {"amenity": "hospital", "healthcare": "hospital", "name": "Distretto Sanitario"}}, {"name": "Casa di cura Privata \"Città di Rovigo\"", "latitude": 45.0655243, "longitude": 11.7878836, "source": "osm", "_tags": {"addr:city": "Rovigo", "addr:postcode": "45100", "addr:street": "Riviera Falcone e Borsellino", "amenity": "hospital", "name": "Casa di cura Privata \"Città di Rovigo\""}}, {"name": "Pronto Soccorso Ospedale di Camposampiero", "latitude": 45.5651416, "longitude": 11.9299182, "source": "osm", "_tags": {"addr:city": "Camposampiero", "emergency": "emergency_ward_entrance", "entrance": "yes", "healthcare": "hospital", "name": "Pronto Soccorso Ospedale di Camposampiero"}}, {"name": "Pronto Soccorso Ospedale Cittadella", "latitude": 45.647362, "longitude": 11.7888046, "source": "osm", "_tags": {"addr:city": "Cittadella", "amenity": "hospital", "emergency": "yes", "healthcare": "hospital", "internet_access": "wlan", "name": "Pronto Soccorso Ospedale Cittadella", "wheelchair": "yes"}}, {"name": "Pronto Soccorso Ospedale Piove di Sacco", "latitude": 45.2932866, "longitude": 12.0293132, "source": "osm", "_tags": {"addr:city": "Piove di Sacco", "emergency": "emergency_ward_entrance", "healthcare": "hospital", "name": "Pronto Soccorso Ospedale Piove di Sacco"}}, {"name": "Pronto Soccorso Ospedale Sant'Antonio", "latitude": 45.3935955, "longitude": 11.8920117, "source": "osm", "_tags": {"addr:city": "Padova", "addr:postcode": "35127", "emergency": "emergency_ward_entrance", "healthcare": "hospital", "name": "Pronto Soccorso Ospedale Sant'Antonio"}}, {"name": "Pronto Soccorso Ospedale Abano Terme", "latitude": 45.3493432, "longitude": 11.786285, "source": "osm", "_tags": {"addr:city": "Abano Terme", "addr:postcode": "35031", "emergency": "emergency_ward_entrance", "healthcare": "hospital", "name": "Pronto Soccorso Ospedale Abano Terme"}}, {"name": "Pronto Soccorso Azienda Ospedaliera di Padova", "latitude": 45.4023472, "longitude": 11.8867607, "source": "osm", "_tags": {"addr:city": "Padova", "addr:housenumber": "2", "addr:postcode": "35121", "addr:street": "Via Nicolò Giustiniani", "emergency": "emergency_ward_entrance", "healthcare": "hospital", "name": "Pronto Soccorso Azienda Ospedaliera di Padova"}}, {"name": "Pronto Soccorso Ospedale \"Santa Maria della Misericordia\"", "latitude": 45.0713287, "longitude": 11.81622, "source": "osm", "_tags": {"addr:city": "Rovigo", "amenity": "hospital", "emergency": "yes", "healthcare": "hospital", "healthcare:speciality": "emergency", "name": "Pronto Soccorso Ospedale \"Santa Maria della Misericordia\"", "operator": "ULSS5", "operator:type": "public", "wheelchair": "yes"}}, {"name": "Pronto Soccorso Ospedale Civile Santa Maria degli Angeli", "latitude": 45.0478522, "longitude": 12.0543239, "source": "osm", "_tags": {"addr:city": "Adria", "addr:housenumber": "9", "addr:postcode": "45011", "addr:street": "Piazzale degli Etruschi", "emergency": "emergency_ward_entrance", "healthcare": "hospital", "name": "Pronto Soccorso Ospedale Civile Santa Maria degli Angeli"}}, {"name": "Pronto Soccorso Ospedale \"San Giacomo Apostolo\"", "latitude": 45.6767011, "longitude": 11.9316347, "source": "osm", "_tags": {"addr:city": "Castelfranco Veneto", "amenity": "hospital", "emergency": "yes", "healthcare": "hospital", "name": "Pronto Soccorso Ospedale \"San Giacomo Apostolo\""}}, {"name": "Pronto Soccorso Ospedale Montebelluna", "latitude": 45.7769544, "longitude": 12.034417, "source": "osm", "_tags": {"addr:city": "Montebelluna", "emergency": "emergency_ward_entrance", "healthcare": "hospital", "name": "Pronto Soccorso Ospedale Montebelluna"}}, {"name": "Pronto Soccorso Ospedale \"Ca' Foncello\"", "latitude": 45.6596138, "longitude": 12.2610924, "source": "osm", "_tags": {"addr:city": "Treviso", "amenity": "hospital", "emergency": "yes", "healthcare": "hospital", "name": "Pronto Soccorso Ospedale \"Ca' Foncello\"", "wheelchair": "limited"}}, {"name": "Pronto Soccorso Ospedale Oderzo", "latitude": 45.7814193, "longitude": 12.4880014, "source": "osm", "_tags": {"addr:city": "Oderzo", "amenity": "hospital", "emergency": "yes", "healthcare": "hospital", "name": "Pronto Soccorso Ospedale Oderzo"}}, {"name": "Pronto Soccorso Ospedale Jesolo", "latitude": 45.5110136, "longitude": 12.6598247, "source": "osm", "_tags": {"addr:city": "Jesolo", "addr:housenumber": "104", "addr:street": "Via Levantina", "check_date": "2025-09-05", "emergency": "emergency_ward_entrance", "healthcare": "hospital", "name": "Pronto Soccorso Ospedale Jesolo", "phone": "+39 0421 388411"}}, {"name": "Pronto Soccorso Ospedale dell'Angelo", "latitude": 45.5142897, "longitude": 12.2244128, "source": "osm", "_tags": {"addr:city": "Mestre", "amenity": "hospital", "check_date": "2024-10-13", "emergency": "emergency_ward_entrance", "entrance": "yes", "healthcare": "hospital", "name": "Pronto Soccorso Ospedale dell'Angelo"}}, {"name": "Pronto Soccorso", "latitude": 45.4228584, "longitude": 12.0687049, "source": "osm", "_tags": {"amenity": "doctors", "emergency": "emergency_ward_entrance", "fixme": "tag", "healthcare": "hospital", "name": "Pronto Soccorso"}}, {"name": "Pronto Soccorso Ospedale Mirano", "latitude": 45.4989853, "longitude": 12.111528, "source": "osm", "_tags": {"addr:city": "Mirano", "emergency": "emergency_ward_entrance", "healthcare": "hospital", "name": "Pronto Soccorso Ospedale Mirano"}}, {"name": "Pronto Soccorso Ospedale Chioggia", "latitude": 45.1981469, "longitude": 12.2821796, "source": "osm", "_tags": {"addr:city": "Chioggia", "amenity": "hospital", "emergency": "yes", "healthcare": "hospital", "name": "Pronto Soccorso Ospedale Chioggia", "wheelchair": "yes"}}, {"name": "Ambulatorio di Salute Mentale", "latitude": 45.3323801, "longitude": 11.7878293, "source": "osm", "_tags": {"amenity": "hospital", "healthcare": "hospital", "name": "Ambulatorio di Salute Mentale"}}, {"name": "Istituto Ospedaliero Fatebenefratelli", "latitude": 45.4471781, "longitude": 12.3305534, "source": "osm", "_tags": {"amenity": "hospital", "emergency": "no", "healthcare": "hospital", "name": "Istituto Ospedaliero Fatebenefratelli", "operator": "Ordine Religioso di San Giovanni di Dio Fatebenefratelli"}}, {"name": "Ospedale di Cittadella - Ex Entrata", "latitude": 45.6473742, "longitude": 11.7870826, "source": "osm", "_tags": {"addr:city": "Cittadella", "addr:housenumber": "40", "addr:postcode": "35013", "addr:street": "Via Casa di Ricovero", "amenity": "hospital", "healthcare": "hospital", "internet_access": "wlan", "name": "Ospedale di Cittadella - Ex Entrata", "wheelchair": "yes"}}, {"name": "Distretto Socio Sanitario Spinea", "latitude": 45.4913998, "longitude": 12.1553185, "source": "osm", "_tags": {"addr:city": "Spinea", "addr:country": "IT", "addr:housenumber": "17", "addr:postcode": "30038", "addr:street": "Via Murano", "amenity": "hospital", "emergency": "no", "healthcare": "hospital", "name": "Distretto Socio Sanitario Spinea", "operator": "Azienda ULSS3 Serenissima", "phone": "+390419654000", "website": "https://www.aulss3.veneto.it/"}}, {"name": "Punto Medico", "latitude": 45.5531173, "longitude": 11.9278023, "source": "osm", "_tags": {"addr:housenumber": "106", "addr:street": "Via Borgo Padova", "amenity": "hospital", "healthcare": "hospital", "name": "Punto Medico", "phone": "+390499300666"}}, {"name": "Ospedale \"San Giacomo Apostolo\"", "latitude": 45.6763726, "longitude": 11.9308925, "source": "osm", "_tags": {"amenity": "hospital", "healthcare": "hospital", "name": "Ospedale \"San Giacomo Apostolo\"", "note": "Area di pertinenza ospedale"}}, {"name": "Ulss6", "latitude": 45.4129246, "longitude": 11.8844461, "source": "osm", "_tags": {"addr:city": "Padova", "addr:housenumber": "12", "addr:postcode": "35131", "addr:street": "Via Enrico degli Scrovegni", "amenity": "hospital", "healthcare": "hospital", "name": "Ulss6"}}, {"name": "Ospedale Sant'Antonio", "latitude": 45.3926851, "longitude": 11.8918117, "source": "osm", "_tags": {"addr:city": "Padova", "addr:housenumber": "71", "addr:postcode": "35127", "addr:street": "Via Jacopo Facciolati", "amenity": "hospital", "emergency": "yes", "healthcare": "hospital", "name": "Ospedale Sant'Antonio", "phone": "+390498211111", "website": "https://www.aopd.veneto.it/"}}, {"name": "Distretto Socio Sanitario Via Tommaseo", "latitude": 45.4715214, "longitude": 12.2249656, "source": "osm", "_tags": {"addr:city": "Marghera", "addr:housenumber": "7", "addr:postcode": "30175", "addr:street": "Via Nicolò Tommaseo", "amenity": "hospital", "healthcare": "hospital", "healthcare:speciality": "cardiology;dermatology;neurology;neurosurgery;pulmonology", "name": "Distretto Socio Sanitario Via Tommaseo", "operator": "ULSS3 Serenissima"}}, {"name": "San Camillo", "latitude": 45.354805, "longitude": 12.3273083, "source": "osm", "_tags": {"amenity": "hospital", "check_date": "2025-08-15", "healthcare": "hospital", "name": "San Camillo"}}, {"name": "Azienda Ospedaliera di Padova", "latitude": 45.4035518, "longitude": 11.8906695, "source": "osm", "_tags": {"addr:city": "Padova", "addr:housenumber": "2", "addr:postcode": "35128", "addr:street": "Via Nicolò Giustiniani", "amenity": "hospital", "emergency": "yes", "healthcare": "hospital", "name": "Azienda Ospedaliera di Padova", "wikidata": "Q30253940"}}, {"name": "Istituto Oncologico Veneto", "latitude": 45.4020018, "longitude": 11.8931652, "source": "osm", "_tags": {"amenity": "hospital", "healthcare": "hospital", "name": "Istituto Oncologico Veneto", "wheelchair": "yes", "wikidata": "Q30282158", "wikipedia": "it:Istituto Oncologico Veneto"}}, {"name": "Ospedale Militare di Padova", "latitude": 45.4162285, "longitude": 11.8705737, "source": "osm", "_tags": {"amenity": "hospital", "healthcare": "hospital", "name": "Ospedale Militare di Padova"}}, {"name": "Ospedale Sant'Antonio", "latitude": 45.3932566, "longitude": 11.8925401, "source": "osm", "_tags": {"amenity": "hospital", "emergency": "designated", "healthcare": "hospital", "name": "Ospedale Sant'Antonio"}}, {"name": "Complesso Socio-Sanitario \"Ai Colli\"", "latitude": 45.399819, "longitude": 11.841938, "source": "osm", "_tags": {"amenity": "hospital", "healthcare": "hospital", "name": "Complesso Socio-Sanitario \"Ai Colli\""}}, {"name": "Santa Maria della Misericordia", "latitude": 45.0726318, "longitude": 11.8161105, "source": "osm", "_tags": {"amenity": "hospital", "healthcare": "hospital", "name": "Santa Maria della Misericordia"}}, {"name": "Ospedale dell'Angelo", "latitude": 45.5132094, "longitude": 12.222786, "source": "osm", "_tags": {"amenity": "hospital", "emergency": "yes", "healthcare": "hospital", "name": "Ospedale dell'Angelo", "wheelchair": "yes", "wikidata": "Q3886657"}}, {"name": "Ospedale Giustinian", "latitude": 45.4317153, "longitude": 12.3228749, "source": "osm", "_tags": {"amenity": "hospital", "healthcare": "hospital", "name": "Ospedale Giustinian", "wheelchair": "yes"}}, {"name": "Servizio per le Dipendenze (SerD)", "latitude": 45.4858172, "longitude": 12.2099577, "source": "osm", "_tags": {"addr:city": "Mestre", "addr:housenumber": "19", "addr:postcode": "30174", "addr:street": "Via Calabria", "amenity": "hospital", "emergency": "no", "healthcare": "hospital", "healthcare:speciality": "community", "name": "Servizio per le Dipendenze (SerD)", "operator": "ULSS3", "operator:type": "public", "website": "https://www.aulss3.veneto.it/index.cfm?method=mys.page&content_id=1860"}}, {"name": "Distretto Socio Sanitario del Lido", "latitude": 45.4216809, "longitude": 12.3845825, "source": "osm", "_tags": {"amenity": "hospital", "building": "yes", "healthcare": "hospital", "name": "Distretto Socio Sanitario del Lido"}}, {"name": "Ospedale Civile di Montebelluna San Valentino", "latitude": 45.7769238, "longitude": 12.0354267, "source": "osm", "_tags": {"amenity": "hospital", "emergency": "yes", "name": "Ospedale Civile di Montebelluna San Valentino", "note": "Area di pertinenza ospedale"}}, {"name": "Ospedale di San Donà di Piave", "latitude": 45.6346871, "longitude": 12.5735333, "source": "osm", "_tags": {"amenity": "hospital", "healthcare": "hospital", "name": "Ospedale di San Donà di Piave", "toilets:wheelchair": "yes", "wheelchair": "yes", "wikidata": "Q30281169"}}, {"name": "Casa di Cura Rizzola", "latitude": 45.6325935, "longitude": 12.5629091, "source": "osm", "_tags": {"amenity": "hospital", "healthcare": "hospital", "name": "Casa di Cura Rizzola", "note": "Area di pertinenza ospedale", "toilets:wheelchair": "yes", "wheelchair": "yes"}}, {"name": "Centro di Medicina", "latitude": 45.6985722, "longitude": 12.2560318, "source": "osm", "_tags": {"addr:housenumber": "10b", "addr:postcode": "31050", "addr:street": "Viale della Repubblica", "amenity": "hospital", "building": "yes", "building:levels": "2", "email": "treviso@centrodimedicina.com", "emergency": "no", "fax": "+39 042 26 98 150", "healthcare": "hospital", "name": "Centro di Medicina", "phone": "+39 042 26 98 111", "website": "https://centrodimedicina.com/"}}, {"name": "Ospedale Santi Giovanni e Paolo", "latitude": 45.4403613, "longitude": 12.3434659, "source": "osm", "_tags": {"alt_name": "Ospedale civile di Venezia", "amenity": "hospital", "emergency": "yes", "healthcare": "hospital", "name": "Ospedale Santi Giovanni e Paolo", "wikidata": "Q30281157"}}, {"name": "Ospedale di Oderzo", "latitude": 45.7803424, "longitude": 12.4870947, "source": "osm", "_tags": {"amenity": "hospital", "emergency": "yes", "healthcare": "hospital", "name": "Ospedale di Oderzo", "note": "Area di pertinenza ospedale"}}, {"name": "Centro LIFE", "latitude": 45.7836231, "longitude": 12.4996402, "source": "osm", "_tags": {"amenity": "hospital", "building": "yes", "healthcare": "hospital", "name": "Centro LIFE", "website": "https://www.centrolifeoderzo.it/"}}, {"name": "Centro Diurno Albero Maestro", "latitude": 45.5618068, "longitude": 12.1806825, "source": "osm", "_tags": {"addr:city": "Peseggia", "addr:housenumber": "154", "addr:postcode": "30030", "addr:street": "Via Vecchia Moglianese", "amenity": "hospital", "emergency": "no", "healthcare": "hospital", "name": "Centro Diurno Albero Maestro", "note": "Area di pertinenza ospedale", "operator": "ACLICOOP - COOPERATIVA SOCIALE ONLUS", "operator:type": "cooperative", "website": "https://www.aclicoop.com/albero-maestro", "wheelchair": "yes"}}, {"name": "", "latitude": 45.5345319, "longitude": 12.2524459, "source": "osm", "_tags": {"amenity": "hospital", "note": "Area di pertinenza ospedale"}}, {"name": "Ospedale di Chioggia", "latitude": 45.1984951, "longitude": 12.2832149, "source": "osm", "_tags": {"amenity": "hospital", "healthcare": "hospital", "name": "Ospedale di Chioggia", "note": "Area di pertinenza ospedale", "wheelchair": "yes", "wikidata": "Q123091770"}}, {"name": "Croce verde", "latitude": 45.0585398, "longitude": 12.0486442, "source": "osm", "_tags": {"addr:city": "Adria", "addr:housenumber": "50", "addr:postcode": "45011", "addr:street": "Via Malfatti", "amenity": "hospital", "healthcare": "hospital", "name": "Croce verde", "note": "verificare se man_made=works"}}, {"name": "Ospedale Civile di Mirano", "latitude": 45.4992978, "longitude": 12.1124365, "source": "osm", "_tags": {"amenity": "hospital", "healthcare": "hospital", "name": "Ospedale Civile di Mirano", "note": "Area di pertinenza ospedale"}}, {"name": "", "latitude": 45.5222223, "longitude": 12.1043259, "source": "osm", "_tags": {"amenity": "hospital", "healthcare": "hospital", "note": "Area di pertinenza ospedale"}}, {"name": "", "latitude": 45.5128775, "longitude": 12.1155183, "source": "osm", "_tags": {"amenity": "hospital", "healthcare": "hospital", "note": "Area di pertinenza ospedale"}}, {"name": "Distretto Sociosanitario Martellago", "latitude": 45.5433635, "longitude": 12.1630136, "source": "osm", "_tags": {"amenity": "hospital", "healthcare": "hospital", "name": "Distretto Sociosanitario Martellago", "note": "Area di pertinenza ospedale"}}, {"name": "Casa di Comunità Noale (ex Ospedale)", "latitude": 45.5512014, "longitude": 12.0754102, "source": "osm", "_tags": {"addr:housenumber": "3", "addr:street": "Largo San Giorgio", "amenity": "hospital", "emergency": "yes", "healthcare": "hospital", "name": "Casa di Comunità Noale (ex Ospedale)", "note": "Area di pertinenza ospedale"}}, {"name": "Ospedale di Dolo", "latitude": 45.4227737, "longitude": 12.0696387, "source": "osm", "_tags": {"amenity": "hospital", "fixme": "hospital road layout needs updating", "healthcare": "hospital", "name": "Ospedale di Dolo"}}, {"name": "Presiodio Ospedaliero di Piove di Sacco", "latitude": 45.2928033, "longitude": 12.0295172, "source": "osm", "_tags": {"amenity": "hospital", "emergency": "yes", "healthcare": "hospital", "name": "Presiodio Ospedaliero di Piove di Sacco", "operator": "Ospedale Immacolata Concezione"}}, {"name": "Ospedale Riabilitativo di Motta di Livenza", "latitude": 45.7735684, "longitude": 12.5983958, "source": "osm", "_tags": {"amenity": "hospital", "healthcare": "hospital", "name": "Ospedale Riabilitativo di Motta di Livenza", "note": "Area di pertinenza ospedale", "website": "https://www.ospedalemotta.it/"}}, {"name": "Cittadella Socio Sanitaria", "latitude": 45.1375162, "longitude": 12.0927086, "source": "osm", "_tags": {"amenity": "hospital", "name": "Cittadella Socio Sanitaria", "note": "Area di pertinenza ospedale"}}, {"name": "Casa di Cura Maddonna della Salute", "latitude": 45.0262951, "longitude": 12.2237423, "source": "osm", "_tags": {"amenity": "hospital", "healthcare": "hospital", "name": "Casa di Cura Maddonna della Salute"}}, {"name": "Policlinico San Marco", "latitude": 45.493109, "longitude": 12.248614, "source": "osm", "_tags": {"amenity": "hospital", "healthcare": "hospital", "name": "Policlinico San Marco"}}, {"name": "Ospedale Vecchio di Montebelluna", "latitude": 45.771211, "longitude": 12.0338401, "source": "osm", "_tags": {"addr:city": "Montebelluna", "addr:postcode": "31044", "addr:street": "Via Sant'Andrea", "amenity": "hospital", "emergency": "no", "name": "Ospedale Vecchio di Montebelluna", "website": "https://www.ulssasolo.ven.it/Area-socio-sanitaria/Sedi/Montebelluna/Ospedale-Vecchio"}}, {"name": "Ospedale di Asolo - ULSS 2 Marca Trevigiana", "latitude": 45.7960941, "longitude": 11.9122214, "source": "osm", "_tags": {"amenity": "hospital", "healthcare": "hospital", "name": "Ospedale di Asolo - ULSS 2 Marca Trevigiana", "note": "Area di pertinenza ospedale", "operator": "ULSS 2 Marca Trevigiana"}}, {"name": "", "latitude": 45.7330306, "longitude": 12.2544133, "source": "osm", "_tags": {"amenity": "hospital", "healthcare": "hospital", "layer": "1", "note": "Verificare che non sia più indicato landuse=commercial."}}, {"name": "Ospedale generale di zona San Camillo", "latitude": 45.6748074, "longitude": 12.251329, "source": "osm", "_tags": {"amenity": "hospital", "healthcare": "hospital", "name": "Ospedale generale di zona San Camillo", "note": "Area di pertinenza ospedale"}}, {"name": "Pediatra Panin", "latitude": 45.0519766, "longitude": 11.7782589, "source": "osm", "_tags": {"addr:city": "Rovigo", "addr:housenumber": "26", "addr:postcode": "45100", "addr:street": "Viale della Scienza", "amenity": "hospital", "building": "yes", "name": "Pediatra Panin"}}, {"name": "Ipab - Centro Residenziale per Anziani A. Danielato", "latitude": 45.1355083, "longitude": 12.0897767, "source": "osm", "_tags": {"amenity": "hospital", "emergency": "no", "name": "Ipab - Centro Residenziale per Anziani A. Danielato"}}, {"name": "", "latitude": 45.5596901, "longitude": 12.2690039, "source": "osm", "_tags": {"amenity": "hospital", "note": "Area di pertinenza ospedale"}}, {"name": "", "latitude": 45.5552623, "longitude": 12.271411, "source": "osm", "_tags": {"amenity": "hospital", "healthcare": "hospital"}}, {"name": "Ospedale Ca' Foncello", "latitude": 45.6598165, "longitude": 12.2573006, "source": "osm", "_tags": {"amenity": "hospital", "emergency": "no", "healthcare": "hospital", "name": "Ospedale Ca' Foncello", "wheelchair": "limited", "wikidata": "Q30254197"}}, {"name": "Ospedale di Conselve", "latitude": 45.2341231, "longitude": 11.8716202, "source": "osm", "_tags": {"addr:city": "Conselve", "addr:housenumber": "22", "addr:postcode": "35026", "addr:street": "Via Vittorio Emanuele II", "amenity": "hospital", "healthcare": "hospital", "name": "Ospedale di Conselve", "operator": "AULLS 6", "website": "https://www.aulss6.veneto.it/index.cfm?action=ospedali.conselve"}}, {"name": "Ospedale Civile Santa Maria Regina degli Angeli", "latitude": 45.0486649, "longitude": 12.0537209, "source": "osm", "_tags": {"amenity": "hospital", "emergency": "yes", "fixme": "Many details of the hospial are missing", "healthcare": "hospital", "name": "Ospedale Civile Santa Maria Regina degli Angeli", "wheelchair": "yes"}}, {"name": "Ospedale di Camposampiero", "latitude": 45.5647904, "longitude": 11.9282843, "source": "osm", "_tags": {"amenity": "hospital", "healthcare": "hospital", "name": "Ospedale di Camposampiero", "wheelchair": "yes"}}, {"name": "Centro Servizi Socio Sanitari Guido de Rossignoli", "latitude": 45.5629124, "longitude": 11.9283962, "source": "osm", "_tags": {"addr:housenumber": "1", "addr:street": "Via Cao del Mondo", "amenity": "hospital", "building": "yes", "building:levels": "4", "email": "dis01_csp@aulss6.veneto.it", "healthcare": "hospital", "name": "Centro Servizi Socio Sanitari Guido de Rossignoli", "phone": "+39049 9822232"}}, {"name": "", "latitude": 45.6469074, "longitude": 11.7865949, "source": "osm", "_tags": {"amenity": "hospital", "healthcare": "hospital"}}, {"name": "", "latitude": 45.6471251, "longitude": 11.7872725, "source": "osm", "_tags": {"amenity": "hospital", "healthcare": "hospital"}}, {"name": "", "latitude": 45.4628582, "longitude": 11.9605361, "source": "osm", "_tags": {"amenity": "hospital", "healthcare": "hospital"}}, {"name": "", "latitude": 45.4487838, "longitude": 11.9080464, "source": "osm", "_tags": {"amenity": "hospital", "healthcare": "hospital"}}, {"name": "", "latitude": 45.4499929, "longitude": 11.9101838, "source": "osm", "_tags": {"amenity": "hospital", "healthcare": "hospital"}}, {"name": "Madonnina", "latitude": 45.6698724, "longitude": 12.2227467, "source": "osm", "_tags": {"amenity": "hospital", "healthcare": "hospital", "name": "Madonnina", "operator": "ULSS 9"}}, {"name": "Casa di Cura Papa Giovanni XXIII", "latitude": 45.6568058, "longitude": 12.4285162, "source": "osm", "_tags": {"amenity": "hospital", "healthcare": "hospital", "name": "Casa di Cura Papa Giovanni XXIII", "wheelchair": "yes"}}, {"name": "Ospedale Regionale \"Ca'Foncello\"", "latitude": 45.65945, "longitude": 12.2630614, "source": "osm", "_tags": {"amenity": "hospital", "emergency": "yes", "healthcare": "hospital", "name": "Ospedale Regionale \"Ca'Foncello\""}}, {"name": "Azienda Ospedaliera di Padova", "latitude": 45.4030159, "longitude": 11.8869146, "source": "osm", "_tags": {"addr:city": "Padova", "addr:housenumber": "2", "addr:street": "Via Nicolò Giustiniani", "amenity": "hospital", "emergency": "yes", "healthcare": "hospital", "name": "Azienda Ospedaliera di Padova", "note": "area ovest", "wikidata": "Q30253940"}}, {"name": "Presidio Ospedaliero Di Jesolo", "latitude": 45.5104477, "longitude": 12.6585966, "source": "osm", "_tags": {"amenity": "hospital", "healthcare": "hospital", "name": "Presidio Ospedaliero Di Jesolo", "wheelchair": "yes"}}, {"name": "Ospedale San Giacomo Apostolo", "latitude": 45.677042, "longitude": 11.9318309, "source": "osm", "_tags": {"addr:city": "Castelfranco Veneto", "addr:housenumber": "16", "addr:postcode": "31033", "addr:street": "via dei carpani", "addr:unit": "z", "amenity": "hospital", "emergency": "yes", "healthcare": "hospital", "healthcare:speciality": "accettazione_e_pronto_soccorso_anatomia_ed_istologia_patologica_angiologia_breast_unit_cardiologia_chirurgia_ambulatoriale_oculistica_chirurgia_generale_chirurgia_maxillo-facciale_chirurgia_vascolare_diabetologia_direzione_medica_ematologia_farmacia_fisic", "name": "Ospedale San Giacomo Apostolo", "operator": "AULSS2", "operator:type": "government"}}, {"name": "", "latitude": 45.661392, "longitude": 12.2534013, "source": "osm", "_tags": {"amenity": "hospital", "healthcare": "hospital"}}, {"name": "Ospedale San Bassiano - ULSS 7 Pedemontana", "latitude": 45.7466656, "longitude": 11.7445064, "source": "osm", "_tags": {"addr:city": "Bassano del Grappa", "addr:housenumber": "40", "addr:postcode": "36061", "addr:street": "Via dei Lotti", "amenity": "hospital", "emergency": "yes", "healthcare": "hospital", "name": "Ospedale San Bassiano - ULSS 7 Pedemontana", "operator": "ULSS 7 Pedemontana", "operator:type": "public", "website": "https://aulss7.veneto.it/"}}, {"name": "Villa Salus", "latitude": 45.5141849, "longitude": 12.2392518, "source": "osm", "_tags": {"amenity": "hospital", "building": "yes", "healthcare": "hospital", "name": "Villa Salus", "type": "multipolygon", "wikidata": "Q18785686"}}, {"name": "Ospedale Giustinianeo", "latitude": 45.4036465, "longitude": 11.8867703, "source": "osm", "_tags": {"amenity": "hospital", "building": "hospital", "healthcare": "hospital", "name": "Ospedale Giustinianeo", "roof:shape": "hipped", "type": "multipolygon"}}]