[{"name": "USLD du CH de Saint-Flour", "latitude": 45.0294898, "longitude": 3.0671325, "source": "osm", "_tags": {"amenity": "hospital", "healthcare": "hospital", "name": "USLD du CH de Saint-Flour", "phone": "+33471606464", "ref:FR:FINESS": "150782324", "source": "Le ministère des solidarités et de la santé - 03/2019", "type:FR:FINESS": "362", "website": "https://www.ch-stflour.fr/"}}, {"name": "Hôpital Gabriel Montpied", "latitude": 45.7573668, "longitude": 3.0920736, "source": "osm", "_tags": {"addr:postcode": "63000", "alt_name": "CHU Gabriel Montpied;CHU Montpied", "amenity": "hospital", "emergency": "yes", "fax": "+33 4 73 62 54 41", "healthcare": "hospital", "healthcare:speciality": "intensive", "name": "Hôpital Gabriel Montpied", "operator:type": "public", "phone": "+33 4 73 75 07 50", "ref:FR:FINESS": "630000404", "type:FR:FINESS": "101", "website": "https://www.chu-clermontferrand.fr/le-chu/les-sites/site-gabriel-montpied"}}, {"name": "Pôle Santé République", "latitude": 45.7876365, "longitude": 3.1050581, "source": "osm", "_tags": {"amenity": "hospital", "emergency": "yes", "fax": "+33 4 73 99 44 14", "name": "Pôle Santé République", "operator": "Groupe Elsan", "operator:type": "private", "phone": "+33 8 26 30 44 99", "ref:FR:FINESS": "630780211", "source": "cadastre-dgi-fr source : Direction Générale des Impôts - Cadastre;mise à jour : 2009", "type:FR:FINESS": "365", "website": "http://www.psr.groupe-elsan.com/"}}, {"name": "Hôpital de Billom", "latitude": 45.720979, "longitude": 3.3429535, "source": "osm", "_tags": {"amenity": "hospital", "healthcare": "hospital", "name": "Hôpital de Billom", "ref:FR:FINESS": "630000560"}}, {"name": "Centre hospitalier de Brioude", "latitude": 45.297025, "longitude": 3.3825972, "source": "osm", "_tags": {"amenity": "hospital", "emergency": "yes", "fax": "+33 4 71 50 99 98", "healthcare": "hospital", "name": "Centre hospitalier de Brioude", "operator:type": "public", "phone": "+33 4 71 50 99 99", "ref:FR:FINESS": "430000190", "type:FR:FINESS": "355", "website": "https://www.ch-brioude.fr/"}}, {"name": "Clinique de la Plaine", "latitude": 45.8024891, "longitude": 3.1084169, "source": "osm", "_tags": {"addr:city": "Clermont-Ferrand", "addr:housenumber": "123", "addr:postcode": "63100", "addr:street": "Boulevard Étienne Clémentel", "amenity": "hospital", "building": "yes", "check_date": "2025-05-27", "healthcare": "hospital", "healthcare:speciality": "radiology", "name": "Clinique de la Plaine", "ref:FR:FINESS": "630780369", "source": "cadastre-dgi-fr source : Direction Générale des Impôts - Cadastre. Mise à jour : 2010", "type:FR:FINESS": "365"}}, {"name": "Hôpital de Jour Henri Ey", "latitude": 45.7791272, "longitude": 3.0748015, "source": "osm", "_tags": {"amenity": "hospital", "building": "yes", "name": "Hôpital de Jour Henri Ey", "source": "cadastre-dgi-fr source : Direction Générale des Impôts - Cadastre. Mise à jour : 2010"}}, {"name": "Centre hospitalier de Saint-Flour", "latitude": 45.0338122, "longitude": 3.0861276, "source": "osm", "_tags": {"amenity": "hospital", "emergency": "yes", "fax": "+33 4 71 60 64 65", "name": "Centre hospitalier de Saint-Flour", "operator:type": "public", "phone": "+33 4 71 60 64 64", "ref:FR:FINESS": "150000032", "source": "cadastre-dgi-fr source : Direction Générale des Impôts - Cadastre. Mise à jour : 2010", "type:FR:FINESS": "355", "website": "https://www.ch-stflour.fr/", "wikidata": "Q104874650"}}, {"name": "Centre hospitalier La Combe de Volzac", "latitude": 45.0303646, "longitude": 3.0667464, "source": "osm", "_tags": {"amenity": "hospital", "healthcare": "hospital", "name": "Centre hospitalier La Combe de Volzac", "ref:FR:FINESS": "150780773", "source": "Le ministère des solidarités et de la santé - 03/2019", "type:FR:FINESS": "355", "website": "https://www.ch-stflour.fr/"}}, {"name": "Clinique du Grand Pré", "latitude": 45.7988139, "longitude": 3.0423506, "source": "osm", "_tags": {"amenity": "hospital", "healthcare": "hospital", "name": "Clinique du Grand Pré", "ref:FR:FINESS": "630781821", "type:FR:FINESS": "161"}}, {"name": "Centre de rééducation fonctionnelle Notre-Dame", "latitude": 45.7778761, "longitude": 3.071941, "source": "osm", "_tags": {"amenity": "hospital", "healthcare": "hospital", "name": "Centre de rééducation fonctionnelle Notre-Dame", "ref:FR:FINESS": "630000487", "source": "extraction vectorielle v1 cadastre-dgi-fr source : Direction Générale des Impôts - Cadas. Mise à jour : 2010", "type:FR:FINESS": "109"}}, {"name": "Hôpital Estaing", "latitude": 45.7859285, "longitude": 3.1103053, "source": "osm", "_tags": {"alt_name": "CHU Estaing", "amenity": "hospital", "check_date": "2025-08-07", "emergency": "yes", "healthcare": "hospital", "healthcare:speciality": "intensive", "name": "Hôpital Estaing", "operator:type": "public", "phone": "+33 4 73 75 07 50", "ref:FR:FINESS": "630781268", "source": "cadastre-dgi-fr source : Direction Générale des Impôts - Cadastre. Mise à jour : 2012", "start_date": "2010", "type:FR:FINESS": "101", "website": "https://www.chu-clermontferrand.fr/Internet/Pages/Nos%20H%C3%B4pitaux/Chu%20Estaing/", "wikipedia": "fr:Hôpital d'Estaing"}}, {"name": "Centre hospitalier de Murat", "latitude": 45.1107175, "longitude": 2.8729342, "source": "osm", "_tags": {"amenity": "hospital", "healthcare": "hospital", "name": "Centre hospitalier de Murat", "ref:FR:FINESS": "150000180", "source": "cadastre-dgi-fr source : Direction Générale des Impôts - Cadastre. Mise à jour : 2014", "type:FR:FINESS": "355"}}, {"name": "Clinique des 6 Lacs", "latitude": 45.7744827, "longitude": 3.0606845, "source": "osm", "_tags": {"amenity": "hospital", "building": "yes", "healthcare": "hospital", "name": "Clinique des 6 Lacs", "ref:FR:FINESS": "630010510", "type:FR:FINESS": "109"}}, {"name": "Clinique Psychiatrique Les Queyriaux", "latitude": 45.7291019, "longitude": 3.2066992, "source": "osm", "_tags": {"amenity": "hospital", "emergency": "no", "healthcare": "hospital", "name": "Clinique Psychiatrique Les Queyriaux", "ref:FR:FINESS": "630781417", "source": "cadastre-dgi-fr source : Direction Générale des Finances Publiques - Cadastre. Mise à jour : 2014", "type:FR:FINESS": "161"}}, {"name": "Centre hospitalier de Condat-en-Feniers", "latitude": 45.3411266, "longitude": 2.752816, "source": "osm", "_tags": {"addr:city": "Condat", "addr:postcode": "15190", "addr:street": "Route de Bort", "amenity": "hospital", "name": "Centre hospitalier de Condat-en-Feniers", "ref:FR:FINESS": "150000024", "source": "Le ministère des solidarités et de la santé - 08/2018"}}, {"name": "Centre hospitalier Pierre Gallice", "latitude": 45.0960174, "longitude": 3.4922559, "source": "osm", "_tags": {"amenity": "hospital", "healthcare": "hospital", "name": "Centre hospitalier Pierre Gallice", "ref:FR:FINESS": "430000307"}}, {"name": "Centre hospitalier Paul Ardier", "latitude": 45.5416239, "longitude": 3.2523589, "source": "osm", "_tags": {"amenity": "hospital", "emergency": "yes", "fax": "+33 4 73 89 72 00", "healthcare": "hospital", "name": "Centre hospitalier Paul Ardier", "operator:type": "public", "phone": "+33 4 73 89 72 72", "ref:FR:FINESS": "630000420", "type:FR:FINESS": "355", "website": "https://www.ch-issoire.com/", "wheelchair": "yes"}}, {"name": "Clinique de la Châtaigneraie", "latitude": 45.752331, "longitude": 3.0739544, "source": "osm", "_tags": {"addr:housenumber": "53", "addr:street": "Rue de la Châtaigneraie", "amenity": "hospital", "healthcare": "hospital", "name": "Clinique de la Châtaigneraie", "ref:FR:FINESS": "630781839", "type:FR:FINESS": "365"}}, {"name": "Clinique Les Sorbiers", "latitude": 45.5346575, "longitude": 3.2516966, "source": "osm", "_tags": {"amenity": "hospital", "healthcare": "hospital", "name": "Clinique Les Sorbiers"}}, {"name": "Centre hospitalier Sainte-Marie", "latitude": 45.7787311, "longitude": 3.0758812, "source": "osm", "_tags": {"amenity": "hospital", "healthcare": "hospital", "name": "Centre hospitalier Sainte-Marie", "ref:FR:FINESS": "630780195", "source": "Le ministère des solidarités et de la santé - 03/2019", "type": "multipolygon", "type:FR:FINESS": "292"}}]