[{"name": "Clinique Psychiatrique Notre-Dame", "latitude": 45.7574805, "longitude": 4.886023, "source": "osm", "_tags": {"amenity": "hospital", "emergency": "no", "fax": "+33 4 72 36 89 18", "healthcare:speciality": "psychiatry", "name": "Clinique Psychiatrique Notre-Dame", "operator": "ORSAC", "phone": "+33 4 78 54 75 19", "ref:FR:FINESS": "690002092", "ref:FR:NAF": "8610Z", "ref:FR:SIRET": "77554456201254", "social_facility:for": "mental_health", "type:FR:FINESS": "161", "website": "https://orsac-cnd.fr/", "wheelchair": "yes"}}, {"name": "La Maisonnée", "latitude": 45.7405497, "longitude": 4.7722795, "source": "osm", "_tags": {"amenity": "hospital", "fax": "+33472162209", "healthcare": "hospital", "name": "La Maisonnée", "phone": "+33472162200", "ref:FR:FINESS": "690790472", "ref:FR:SIRET": "42462022700068", "type:FR:FINESS": "109"}}, {"name": "Hôpital de jour de Décines", "latitude": 45.7739195, "longitude": 4.972832, "source": "osm", "_tags": {"addr:city": "Décines-Charpieu", "addr:housenumber": "9", "addr:postcode": "69150", "addr:street": "Rue Marcel Therras", "amenity": "hospital", "name": "Hôpital de jour de Décines", "phone": "+33 4 37 42 12 18"}}, {"name": "CMP de Décines", "latitude": 45.7738107, "longitude": 4.9729016, "source": "osm", "_tags": {"addr:city": "Décines-Charpieu", "addr:housenumber": "9", "addr:postcode": "69150", "addr:street": "Rue Marcel Therras", "amenity": "hospital", "emergency": "no", "name": "CMP de Décines", "phone": "+33 4 37 42 00 14"}}, {"name": "Institut d'Hématologie et d'Oncologie Pédiatrique", "latitude": 45.7406668, "longitude": 4.8770793, "source": "osm", "_tags": {"check_date": "2025-06-25", "fax": "+33 4 69 16 65 51", "healthcare": "hospital", "name": "Institut d'Hématologie et d'Oncologie Pédiatrique", "office": "research", "opening_hours": "Mo-Fr 09:00-18:00; Sa-Su off", "phone": "+33 4 69 16 65 50", "ref:FR:FINESS": "690019849", "short_name": "IHOPE", "website": "https://www.ihope.fr/", "wikidata": "Q24931545"}}, {"name": "Centre de jour des Lilattes", "latitude": 45.5913122, "longitude": 5.2751923, "source": "osm", "_tags": {"healthcare": "hospital", "healthcare:speciality": "psychiatry", "name": "Centre de jour des Lilattes", "ref:FR:FINESS": "380013359", "source": "Le ministère des solidarités et de la santé - 03/2019", "type:FR:FINESS": "292"}}, {"name": "Hôpital de Jour de Pédopsychiatrie Bourgoin-Jallieu Arc-en-Ciel", "latitude": 45.5907379, "longitude": 5.2768692, "source": "osm", "_tags": {"addr:city": "Bourgoin-Jallieu", "addr:housenumber": "2", "addr:postcode": "38300", "addr:street": "Rue Théophile Diederichs", "contact:fax": "+33 4 74 28 67 01", "contact:phone": "+33 4 74 28 17 25", "healthcare": "hospital", "healthcare:speciality": "child_psychiatry", "name": "Hôpital de Jour de Pédopsychiatrie Bourgoin-Jallieu Arc-en-Ciel", "operator": "Centre Hospitalier Pierre Oudot", "ref:FR:FINESS": "380784736", "ref:FR:NAF": "86.10Z", "ref:FR:SIRET": "26380006200113", "source": "Le ministère des solidarités et de la santé - 03/2019", "type:FR:FINESS": "355"}}, {"name": "Hôpital de jour", "latitude": 45.7717814, "longitude": 4.8645939, "source": "osm", "_tags": {"healthcare": "hospital", "level": "0", "name": "Hôpital de jour", "operator": "HCL - Les Charpennes", "wheelchair": "yes"}}, {"name": "Hôpital de Jour Adultes Cassiopée", "latitude": 45.1453184, "longitude": 5.7066865, "source": "osm", "_tags": {"addr:city": "Échirolles", "addr:housenumber": "14", "addr:postcode": "38130", "addr:street": "Avenue Auguste Ferrier", "amenity": "hospital", "contact:phone": "+33 4 56 58 83 10", "healthcare": "hospital", "healthcare:speciality": "psychiatry", "name": "Hôpital de Jour Adultes Cassiopée", "ref:FR:FINESS": "380017582", "ref:FR:NAF": "86.10Z", "ref:FR:SIRET": "26380021101320", "source": "Le ministère des solidarités et de la santé - 05/2021", "type:FR:FINESS": "292"}}, {"name": "Clinique des Cèdres", "latitude": 45.1477292, "longitude": 5.723387, "source": "osm", "_tags": {"amenity": "hospital", "building": "hospital", "building:levels": "6", "emergency": "yes", "fax": "+33 4 56 58 10 00", "healthcare": "hospital", "name": "Clinique des Cèdres", "operator": "Capio", "operator:type": "private", "phone": "+33 8 25 56 56 38", "ref:FR:FINESS": "380785956", "roof:levels": "0", "source": "cadastre-dgi-fr source : Direction Générale des Impôts - Cadastre;mise à jour : 2009", "type:FR:FINESS": "365", "website": "https://clinique-cedres.capio.fr/"}}, {"name": "Hôpital privé de l'Est Lyonnais", "latitude": 45.716803, "longitude": 4.9265277, "source": "osm", "_tags": {"amenity": "hospital", "emergency": "yes", "facebook": "Hôpital Privé de l'Est Lyonnais", "fax": "+33 4 72 78 71 56", "healthcare": "hospital", "name": "Hôpital privé de l'Est Lyonnais", "operator": "Ramsay Santé", "operator:type": "private", "operator:wikidata": "Q3123085", "phone": "+33 8 26 96 99 99", "ref:FR:FINESS": "690780655", "type:FR:FINESS": "365", "website": "https://hpel.fr/"}}, {"name": "Centre hospitalier Yves Touraine", "latitude": 45.5387705, "longitude": 5.664513, "source": "osm", "_tags": {"amenity": "hospital", "building": "hospital", "emergency": "yes", "fax": "+33 4 76 32 64 87", "name": "Centre hospitalier Yves Touraine", "operator:type": "public", "phone": "+33 4 76 32 64 32", "ref:FR:FINESS": "380000042", "source": "cadastre-dgi-fr source : Direction Générale des Impôts - Cadastre. Mise à jour : 2009", "type:FR:FINESS": "355", "website": "http://www.chpb.fr/"}}, {"name": "Infirmerie Protestante", "latitude": 45.7865743, "longitude": 4.8354791, "source": "osm", "_tags": {"amenity": "hospital", "healthcare": "hospital", "name": "Infirmerie Protestante", "wheelchair": "yes"}}, {"name": "Hôpital gériatrique Frédéric Dugoujon", "latitude": 45.7865289, "longitude": 4.8388257, "source": "osm", "_tags": {"alt_name": "Centre de Gériatrie de Cuire", "amenity": "hospital", "healthcare": "hospital", "name": "Hôpital gériatrique Frédéric Dugoujon", "ref:FR:FINESS": "690787429", "source": "Le ministère des solidarités et de la santé - 03/2019", "type:FR:FINESS": "101", "website": "https://www.chu-lyon.fr/fr/hopital-frederic-dugoujon"}}, {"name": "Centre hospitalier Lucien Hussel", "latitude": 45.5335495, "longitude": 4.8805416, "source": "osm", "_tags": {"amenity": "hospital", "barrier": "fence", "emergency": "yes", "fax": "+33 4 74 31 32 04", "healthcare": "hospital", "name": "Centre hospitalier Lucien Hussel", "operator:type": "public", "phone": "+33 4 74 31 33 33", "ref:FR:FINESS": "380000174", "short_name": "CH de Vienne", "type:FR:FINESS": "355", "website": "http://www.ch-vienne.fr/"}}, {"name": "Institut Daniel Hollard", "latitude": 45.1815906, "longitude": 5.7090565, "source": "osm", "_tags": {"addr:city": "Grenoble", "addr:housenumber": "12", "addr:postcode": "38000", "addr:street": "Rue du Docteur Hermite", "amenity": "hospital", "building": "hospital", "building:levels": "4", "check_date": "2024-07-08", "healthcare": "hospital", "name": "Institut Daniel Hollard", "name:etymology:wikidata": "Q112397053", "ref:FR:FINESS": "380802900", "ref:FR:SIRET": "48096821300011", "roof:levels": "1", "roof:shape": "round", "source": "cadastre-dgi-fr source : Direction Générale des Impôts - Cadastre. Mise à jour : 2010", "type:FR:FINESS": "698"}}, {"name": "Centre hospitalier de La Tour-du-Pin", "latitude": 45.5704487, "longitude": 5.4480211, "source": "osm", "_tags": {"amenity": "hospital", "building": "yes", "name": "Centre hospitalier de La Tour-du-Pin", "ref:FR:FINESS": "380000356", "source": "cadastre-dgi-fr source : Direction Générale des Impôts - Cadastre. Mise à jour : 2010", "wikidata": "Q92063388"}}, {"name": "Clinique La Parisière", "latitude": 45.0392598, "longitude": 5.0603968, "source": "osm", "_tags": {"addr:street": "Avenue Antonin Vallon", "amenity": "clinic", "building": "yes", "healthcare": "hospital", "name": "Clinique La Parisière", "phone": "+33 4 75 70 30 00", "ref:FR:FINESS": "260000260", "source": "cadastre-dgi-fr source : Direction Générale des Finances Publiques - Cadastre. Mise à jour : 2017", "type:FR:FINESS": "128"}}, {"name": "Centre hospitalier Michel Perret", "latitude": 45.3028444, "longitude": 5.4886472, "source": "osm", "_tags": {"addr:city": "Tullins", "addr:housenumber": "18", "addr:postcode": "38210", "addr:street": "Boulevard Michel Perret", "amenity": "hospital", "healthcare": "hospital", "name": "Centre hospitalier Michel Perret", "ref:FR:FINESS": "380000075", "source": "cadastre-dgi-fr source : Direction Générale des Impôts - Cadastre. Mise à jour : 2010", "type:FR:FINESS": "355"}}, {"name": "Maison médicale", "latitude": 45.3233757, "longitude": 5.562283, "source": "osm", "_tags": {"addr:city": "Moirans", "addr:postcode": "38430", "amenity": "hospital", "building": "yes", "building:levels": "2", "emergency": "no", "healthcare": "hospital", "healthcare:speciality": "general;osteopathy", "name": "Maison médicale", "ref:FR:FINESS": "380021097", "type:FR:FINESS": "603", "wheelchair": "yes"}}, {"name": "Clinique IRIS", "latitude": 45.7161022, "longitude": 4.9256996, "source": "osm", "_tags": {"amenity": "hospital", "building": "hospital", "name": "Clinique IRIS", "operator": "Ramsay Santé", "phone": "+33 4 28 63 69 30", "website": "https://clinique-iris-saint-priest.ramsaysante.fr/"}}, {"name": "Hôpital de jour Enfants", "latitude": 45.3525185, "longitude": 5.6130005, "source": "osm", "_tags": {"addr:city": "Coublevie", "addr:housenumber": "118", "addr:postcode": "38500", "addr:street": "Rue des Ifs", "amenity": "hospital", "building": "yes", "contact:website": "https://ch-alpes-isere.fr/wp-content/uploads/2021/11/HDJ-Coublevie-Famille-MAJ-decembre-2020-avec-compression.pdf", "healthcare": "hospital", "healthcare:speciality": "child_psychiatry", "name": "Hôpital de jour Enfants", "official_name": "Hôpital de jour pour enfants de Coublevie", "ref:FR:FINESS": "380784728", "ref:FR:NAF": "86.10Z", "ref:FR:SIRET": "26380021100876", "social_facility": "ambulatory_care", "source": "Le ministère des solidarités et de la santé - 05/2021", "type:FR:FINESS": "292"}}, {"name": "Centre hospitalier spécialisé Drôme Vivarais", "latitude": 44.8762426, "longitude": 4.9156813, "source": "osm", "_tags": {"alt_name": "Maison de repos de Montéléger", "amenity": "hospital", "emergency": "no", "healthcare": "hospital", "healthcare:speciality": "psychiatry", "name": "Centre hospitalier spécialisé Drôme Vivarais", "old_name": "Centre Hospitalier Le Valmont", "ref:FR:FINESS": "260000823", "source": "Union européenne - SOeS, CORINE Land Cover, 2006.", "type:FR:FINESS": "292", "website": "https://www.ch-dromevivarais.fr/"}}, {"name": "Clinique Générale de Valence", "latitude": 44.9004958, "longitude": 4.8769421, "source": "osm", "_tags": {"amenity": "hospital", "fixme": "le téléphone serait 04 75 75 24 24 d'après le site", "healthcare": "hospital", "loc_name": "Clinique Générale", "name": "Clinique Générale de Valence", "phone": "+33 4 75 75 66 66", "ref:FR:FINESS": "260006267", "type:FR:FINESS": "365", "website": "https://hopital-prive-drome-ardeche-valence-guilherand-granges.ramsaygds.fr/infos-pratiques/se-rendre-sur-le-site-la-g%C3%A9n%C3%A9rale"}}, {"name": "Hôpital privé Jean Mermoz", "latitude": 45.7357722, "longitude": 4.8759107, "source": "osm", "_tags": {"amenity": "hospital", "fax": "+33437538001", "healthcare": "hospital", "name": "Hôpital privé Jean Mermoz", "phone": "+33826306969", "ref:FR:FINESS": "690023411", "ref:FR:SIRET": "77813787700081", "source": "Le ministère des solidarités et de la santé - 03/2019", "type:FR:FINESS": "365", "website": "https://hopital-prive-jean-mermoz-lyon.ramsaygds.fr/", "wikidata": "Q48748257"}}, {"name": "Groupe hospitalier Les Portes du Sud", "latitude": 45.6883811, "longitude": 4.8669177, "source": "osm", "_tags": {"amenity": "hospital", "emergency": "yes", "fax": "+33 4 72 89 80 01", "healthcare": "hospital", "name": "Groupe hospitalier Les Portes du Sud", "operator:type": "public", "phone": "+33 4 72 89 80 00", "ref:FR:FINESS": "690780416", "type:FR:FINESS": "365", "website": "http://www.ghm-lesportesdusud.fr", "wheelchair": "yes"}}, {"name": "Hôpital de la Croix-Rousse", "latitude": 45.7816895, "longitude": 4.8310834, "source": "osm", "_tags": {"amenity": "hospital", "emergency": "yes", "facebook": "HopitalCroixRousse.HCL", "fax": "+33 4 72 07 18 96", "healthcare": "hospital", "healthcare:speciality": "intensive", "name": "Hôpital de la Croix-Rousse", "phone": "+33 4 72 11 80 88", "ref:FR:FINESS": "690784152", "ref:FR:NAF": "8610Z", "ref:FR:SIRET": "26690027300100", "source:phone": "website-standard 2025", "type:FR:FINESS": "101", "website": "https://www.chu-lyon.fr/fr/hopital-de-la-croix-rousse", "wikidata": "Q3145307", "wikipedia": "fr:Hôpital de la Croix-Rousse"}}, {"name": "Clinique Charcot", "latitude": 45.7495263, "longitude": 4.7971321, "source": "osm", "_tags": {"addr:postcode": "69005", "addr:street": "Rue du Commandant Charcot", "amenity": "hospital", "healthcare": "hospital", "name": "Clinique Charcot", "phone": "+33472326868", "ref:FR:FINESS": "690780366", "ref:FR:SIRET": "96250383500010", "source": "http://finess.sante.gouv.fr", "type:FR:FINESS": "365"}}, {"name": "Hôpital gériatrique Pierre Garaud", "latitude": 45.7487343, "longitude": 4.7878219, "source": "osm", "_tags": {"amenity": "hospital", "emergency": "no", "healthcare": "hospital", "name": "Hôpital gériatrique Pierre Garaud", "phone": "+33472168002", "ref:FR:FINESS": "690787478", "ref:FR:SIRET": "26690027300316", "source": "Le ministère des solidarités et de la santé - 10/2018", "type:FR:FINESS": "101", "website": "https://www.chu-lyon.fr/fr/hopital-pierre-garraud"}}, {"name": "CHU Grenoble Alpes - site Sud", "latitude": 45.1484401, "longitude": 5.7318673, "source": "osm", "_tags": {"addr:city": "Échirolles", "addr:postcode": "38130", "addr:street": "Avenue de Kimberley", "amenity": "hospital", "emergency": "yes", "fax": "+33 4 76 76 52 59", "healthcare": "hospital", "name": "CHU Grenoble Alpes - site Sud", "operator:type": "public", "phone": "+33 4 76 76 75 75", "ref:FR:FINESS": "380782722", "ref:FR:NAF": "86.10Z", "ref:FR:SIRET": "26380030200030", "type:FR:FINESS": "101", "website": "https://www.chu-grenoble.fr/", "wikidata": "Q2945764", "wikipedia": "fr:Centre hospitalier universitaire Grenoble-Alpes"}}, {"name": "Centre hospitalier Alpes-Isère", "latitude": 45.2316113, "longitude": 5.6747726, "source": "osm", "_tags": {"addr:city": "Saint-Égrève", "addr:housenumber": "3", "addr:postcode": "38120", "addr:street": "Rue de la Gare", "amenity": "hospital", "healthcare": "hospital", "healthcare:speciality": "psychiatry", "name": "Centre hospitalier Alpes-Isère", "ref:FR:FINESS": "380000133", "short_name": "CHAI", "type:FR:FINESS": "292", "wikidata": "Q60835914"}}, {"name": "", "latitude": 45.534525, "longitude": 5.5900255, "source": "osm", "_tags": {"amenity": "hospital", "healthcare": "hospital", "healthcare:speciality": "psychologue", "source": "cadastre-dgi-fr source : Direction Générale des Impôts - Cadastre. Mise à jour : 2012"}}, {"name": "Centre hospitalier de Rives", "latitude": 45.3537335, "longitude": 5.4996517, "source": "osm", "_tags": {"amenity": "hospital", "healthcare": "hospital", "name": "Centre hospitalier de Rives", "ref:FR:FINESS": "380000059", "source": "cadastre-dgi-fr source : Direction Générale des Impôts - Cadastre ; mise à jour :2012"}}, {"name": "Hôpital Édouard Herriot", "latitude": 45.743482, "longitude": 4.8821987, "source": "osm", "_tags": {"alt_name": "Hôpital de Grange-Blanche", "amenity": "hospital", "emergency": "yes", "healthcare": "hospital", "healthcare:speciality": "intensive", "heritage": "3", "heritage:operator": "mhs", "internet_access": "wlan", "mhs:inscription_date": "1967-12-13", "name": "Hôpital Édouard Herriot", "operator:type": "public", "ref:FR:FINESS": "690783154", "ref:FR:SIRET": "26690027300217", "ref:mhs": "PA00117813", "source:heritage": "Ministère de la Culture - 07/2018", "toilets:wheelchair": "no", "type:FR:FINESS": "101", "website": "https://www.chu-lyon.fr/", "wheelchair": "no", "wikidata": "Q3145366"}}, {"name": "Hôpital d'instruction des armées Desgenettes", "latitude": 45.7406611, "longitude": 4.8908559, "source": "osm", "_tags": {"amenity": "hospital", "emergency": "yes", "healthcare": "hospital", "healthcare:speciality": "intensive", "landuse": "military", "name": "Hôpital d'instruction des armées Desgenettes", "phone": "+33 4 72 36 60 00", "ref:FR:FINESS": "690780093", "ref:FR:SIRET": "15100002300433", "short_name": "HIA Desgenettes", "type:FR:FINESS": "114", "wheelchair": "yes", "wikidata": "Q3145268"}}, {"name": "Centre hospitalier Le Vinatier", "latitude": 45.7418232, "longitude": 4.8991164, "source": "osm", "_tags": {"amenity": "hospital", "emergency": "yes", "healthcare": "hospital", "name": "Centre hospitalier Le Vinatier", "phone": "+33 4 37 91 55 55", "ref:FR:FINESS": "690000088", "ref:FR:NAF": "86.10Z", "ref:FR:SIRET": "26690008300012", "type:FR:FINESS": "292", "website": "https://www.ch-le-vinatier.fr/", "wikidata": "Q2945674", "wikipedia": "fr:Centre hospitalier Le Vinatier"}}, {"name": "Hôpital cardio-vasculaire et pneumologique Louis Pradel", "latitude": 45.7478613, "longitude": 4.9024847, "source": "osm", "_tags": {"alt_name": "Hôpital Louis Pradel", "amenity": "hospital", "facebook": "HopitalLouisPradel.HCL", "healthcare": "hospital", "name": "Hôpital cardio-vasculaire et pneumologique Louis Pradel", "ref:FR:FINESS": "690784186", "ref:FR:SIRET": "26690027300977", "type:FR:FINESS": "101", "website": "https://www.chu-lyon.fr/fr/hopital-louis-pradel", "wikidata": "Q28040414"}}, {"name": "Hôpital Femme-Mère-Enfant", "latitude": 45.7460646, "longitude": 4.9006983, "source": "osm", "_tags": {"amenity": "hospital", "emergency": "yes", "fax": "+33 4 27 85 62 86", "healthcare": "hospital", "healthcare:speciality": "intensive", "name": "Hôpital Femme-Mère-Enfant", "operator:type": "public", "phone": "+33 8 25 08 25 69", "ref:FR:FINESS": "690007539", "ref:FR:SIRET": "26690027300969", "toilets:wheelchair": "yes", "type:FR:FINESS": "101", "website": "https://www.chu-lyon.fr/fr/hopital-femme-mere-enfant", "wheelchair": "yes"}}, {"name": "Hôpital neurologique Pierre Wertheimer", "latitude": 45.7490851, "longitude": 4.8992505, "source": "osm", "_tags": {"amenity": "hospital", "healthcare": "hospital", "healthcare:speciality": "intensive", "name": "Hôpital neurologique Pierre Wertheimer", "ref:FR:FINESS": "690784178", "ref:FR:SIRET": "26690027300910", "type:FR:FINESS": "101", "wikidata": "Q28040416"}}, {"name": "Centre hospitalier Lyon-Sud", "latitude": 45.702286, "longitude": 4.8087754, "source": "osm", "_tags": {"addr:housenumber": "165", "addr:street": "Chemin du Grand Revoyet", "amenity": "hospital", "emergency": "yes", "fax": "+33 4 78 86 56 66", "healthcare": "hospital", "name": "Centre hospitalier Lyon-Sud", "name:en": "Lyon Sud Hospital", "opening_hours": "24/7", "operator": "Hospices Civils de Lyon", "operator:type": "public", "phone": "+33 8 25 08 25 69", "ref:FR:FINESS": "690784137", "short_name": "CHLS", "type:FR:FINESS": "101", "website": "https://www.chu-lyon.fr/", "wikidata": "Q2945675"}}, {"name": "Hôpital de jour pour enfants", "latitude": 45.1865963, "longitude": 5.7204081, "source": "osm", "_tags": {"amenity": "hospital", "check_date": "2024-11-04", "fax": "+33476467920", "healthcare": "hospital", "name": "Hôpital de jour pour enfants", "phone": "+33476469593", "ref:FR:FINESS": "380785386", "ref:FR:SIRET": "26380021100041", "source": "survey", "type:FR:FINESS": "292"}}, {"name": "Hôpitaux Drôme-Nord - Site de Saint-Vallier", "latitude": 45.1709994, "longitude": 4.8220792, "source": "osm", "_tags": {"amenity": "hospital", "emergency": "yes", "fax": "+33 4 75 23 07 45", "healthcare": "hospital", "loc_name": "Hôpital de Saint-Valier", "name": "Hôpitaux Drôme-Nord - Site de Saint-Vallier", "operator": "Hôpitaux Drôme-Nord", "operator:type": "public", "phone": "+33 4 75 23 80 00", "ref:FR:FINESS": "260000203", "source": "cadastre-dgi-fr source : Direction Générale des Impôts - Cadastre ; mise à jour : 2009", "type:FR:FINESS": "355", "website": "https://www.hopitaux-drome-nord.fr/"}}, {"name": "Hôpitaux Drôme-Nord - Site de Romans", "latitude": 45.0413631, "longitude": 5.0190419, "source": "osm", "_tags": {"amenity": "hospital", "emergency": "yes", "fax": "+33 4 75 05 75 99", "healthcare": "hospital", "loc_name": "Hôpital de Romans", "name": "Hôpitaux Drôme-Nord - Site de Romans", "name:oc": "Espitaus Droma-Nòrd", "operator": "Hôpitaux Drôme-Nord", "operator:type": "public", "phone": "+33 4 75 05 75 05", "ref:FR:FINESS": "260000120", "type:FR:FINESS": "355"}}, {"name": "Centre hospitalier Lyon-Sud (Sainte-Eugénie)", "latitude": 45.7037788, "longitude": 4.7993641, "source": "osm", "_tags": {"amenity": "hospital", "emergency": "no", "healthcare": "hospital", "name": "Centre hospitalier Lyon-Sud (Sainte-Eugénie)", "operator": "Hospices Civils de Lyon", "ref:FR:FINESS": "690784137", "ref:FR:SIRET": "26690027300324", "short_name": "CHLS", "source": "Grand Lyon Ortho 2012", "type:FR:FINESS": "101", "wikidata": "Q2945675", "wikipedia": "fr:Centre hospitalier Lyon Sud"}}, {"name": "Site de l'ancien Centre hospitalier de Voiron", "latitude": 45.3686765, "longitude": 5.5950989, "source": "osm", "_tags": {"amenity": "hospital", "emergency": "no", "fax": "+33 4 76 67 15 97", "healthcare": "hospital", "name": "Site de l'ancien Centre hospitalier de Voiron", "operator:type": "public", "phone": "+33 4 76 67 14 91", "ref:FR:FINESS": "380000406", "source": "cadastre-dgi-fr source : Direction Générale des Impôts - Cadastre;mise à jour : 2009", "type:FR:FINESS": "355", "website": "https://www.ch-voiron.fr/"}}, {"name": "Clinique de la Sauvegarde", "latitude": 45.7882062, "longitude": 4.7866074, "source": "osm", "_tags": {"addr:housenumber": "40", "addr:street": "Avenue David Ben Gourion", "amenity": "hospital", "emergency": "yes", "fax": "+33 4 72 17 26 02", "healthcare": "hospital", "healthcare:speciality": "intensive", "name": "Clinique de la Sauvegarde", "operator": "Groupe Capio", "operator:type": "private", "phone": "+33 4 72 17 26 26", "ref:FR:FINESS": "690780648", "type:FR:FINESS": "365", "website": "https://clinique-sauvegarde.capio.fr/"}}, {"name": "Centre hospitalier Saint-Jean-de-Dieu", "latitude": 45.7226013, "longitude": 4.8514203, "source": "osm", "_tags": {"amenity": "hospital", "fax": "+33 4 37 90 10 00", "healthcare:speciality": "psychiatry", "name": "Centre hospitalier Saint-Jean-de-Dieu", "operator": "Fondation ARHM", "phone": "+33 4 37 90 10 10", "ref:FR:FINESS": "690780143", "ref:FR:NAF": "86.10Z", "ref:FR:SIRET": "77986872800030", "source": "Le ministère des solidarités et de la santé - 03/2019", "type:FR:FINESS": "292", "website": "http://sjd.arhm.fr/", "wikidata": "Q2945680", "wikipedia": "fr:Centre hospitalier Saint-Jean-de-Dieu"}}, {"name": "Clinique Saint-Charles", "latitude": 45.7699343, "longitude": 4.8274678, "source": "osm", "_tags": {"amenity": "hospital", "check_date": "2024-09-05", "emergency": "no", "healthcare": "hospital", "name": "Clinique Saint-Charles"}}, {"name": "Hôpital des Charpennes", "latitude": 45.7718912, "longitude": 4.8641731, "source": "osm", "_tags": {"amenity": "hospital", "emergency": "no", "healthcare": "hospital", "healthcare:speciality": "geriatrics", "name": "Hôpital des Charpennes", "opening_hours": "12:00-20:00 \"visite. Pas d'Urgences\"", "operator": "HCL", "operator:type": "public", "phone": "+33 825 08 25 69", "ref:FR:FINESS": "690784194", "wheelchair": "yes"}}, {"name": "SSR Val Rosay", "latitude": 45.7969296, "longitude": 4.8121205, "source": "osm", "_tags": {"amenity": "hospital", "check_date": "2025-06-12", "emergency": "no", "name": "SSR Val Rosay"}}, {"name": "Clinique Lyon Champvert", "latitude": 45.7589587, "longitude": 4.8042044, "source": "osm", "_tags": {"amenity": "hospital", "emergency": "no", "healthcare": "hospital", "healthcare:speciality": "psychiatry", "name": "Clinique Lyon Champvert", "operator": "ORPEA", "operator:type": "private"}}, {"name": "Hôpital gériatrique de Fourvière", "latitude": 45.761891, "longitude": 4.81833, "source": "osm", "_tags": {"amenity": "hospital", "check_date": "2025-06-22", "healthcare": "hospital", "name": "Hôpital gériatrique de Fourvière"}}, {"name": "Centre hospitalier de Montgelas", "latitude": 45.6004506, "longitude": 4.7650409, "source": "osm", "_tags": {"amenity": "hospital", "emergency": "yes", "facebook": "Centre hospitalier de Givors", "fax": "+33 4 78 07 30 04", "name": "Centre hospitalier de Montgelas", "operator:type": "public", "phone": "+33 4 78 07 30 30", "ref:FR:FINESS": "690000013", "type:FR:FINESS": "355", "website": "https://www.ch-givors.fr/"}}, {"name": "Centre des Maladies du Foie et de l'Appareil Digestif", "latitude": 45.6894153, "longitude": 4.8235504, "source": "osm", "_tags": {"alt_name": "Endoscopie Lyon Sud Ouest", "amenity": "hospital", "description": "Lundi-Jeudi : 7h-19h\nVendredi : 7h-18h30", "emergency": "no", "fax": "+33472390615", "healthcare:speciality": "gastroenterology", "name": "Centre des Maladies du Foie et de l'Appareil Digestif", "opening_hours": "Mo-Th 07:00-19:00; Fr 07:00-18:30", "phone": "+33472666700", "ref:FR:FINESS": "690029186", "ref:FR:SIRET": "49864969800012", "source": "Le ministère des solidarités et de la santé - 10/2018", "type:FR:FINESS": "128", "website": "https://www.cmfad-sol.com/"}}, {"name": "Clinique Champ Fleuri", "latitude": 45.7702541, "longitude": 4.9583113, "source": "osm", "_tags": {"amenity": "hospital", "healthcare": "hospital", "name": "Clinique Champ Fleuri", "source": "Grand Lyon"}}, {"name": "Clinique Mon Repos", "latitude": 45.7719637, "longitude": 4.7841622, "source": "osm", "_tags": {"amenity": "hospital", "healthcare": "hospital", "name": "Clinique Mon Repos", "source": "Grand Lyon"}}, {"name": "Hôpital Henry Gabrielle", "latitude": 45.6902, "longitude": 4.7905153, "source": "osm", "_tags": {"amenity": "hospital", "emergency": "no", "healthcare": "hospital", "name": "Hôpital Henry Gabrielle", "ref:FR:FINESS": "690784202", "source": "Grand Lyon", "wikidata": "Q21619446"}}, {"name": "Hôpital de Sainte-Foy les Lyon", "latitude": 45.7323575, "longitude": 4.7930692, "source": "osm", "_tags": {"amenity": "hospital", "name": "Hôpital de Sainte-Foy les Lyon", "ref:FR:FINESS": "690000021", "source": "Le ministère des solidarités et de la santé - 03/2019"}}, {"name": "Clinique La Majolane", "latitude": 45.7704844, "longitude": 5.0000983, "source": "osm", "_tags": {"amenity": "hospital", "emergency": "no", "healthcare": "hospital", "name": "Clinique La Majolane", "ref:FR:FINESS": "690030119", "ref:FR:SIRET": "30116075000727", "source": "Le ministère des solidarités et de la santé - 03/2019", "type:FR:FINESS": "109"}}, {"name": "Clinique du Val d'Ouest", "latitude": 45.7686889, "longitude": 4.7817415, "source": "osm", "_tags": {"addr:housenumber": "39", "addr:street": "Chemin de la Vernique", "amenity": "hospital", "check_date": "2024-06-10", "emergency": "yes", "healthcare": "hospital", "name": "Clinique du Val d'Ouest", "phone": "+33 472193200", "ref:FR:FINESS": "690780358", "ref:FR:NAF": "8610Z", "ref:FR:SIRET": "39272120500012", "type:FR:FINESS": "365", "website": "https://www.cliniqueduvaldouest.com"}}, {"name": "Clinique Émilie de Vialar", "latitude": 45.7567182, "longitude": 4.8717446, "source": "osm", "_tags": {"amenity": "hospital", "emergency": "no", "healthcare": "hospital", "name": "Clinique Émilie de Vialar", "phone": "+33 4 72 13 38 40", "ref:FR:FINESS": "690780200", "ref:FR:NAF": "8610Z", "type:FR:FINESS": "365", "wheelchair": "yes"}}, {"name": "Établissement de santé mentale Portes de l'Isère", "latitude": 45.5982274, "longitude": 5.2480041, "source": "osm", "_tags": {"amenity": "hospital", "barrier": "fence", "healthcare": "hospital", "healthcare:speciality": "mental_health", "name": "Établissement de santé mentale Portes de l'Isère", "ref:FR:FINESS": "380012799", "ref:FR:NAF": "8610Z", "ref:FR:SIRET": "30101236500039", "short_name": "ESMPI", "type:FR:FINESS": "292"}}, {"name": "Centre hospitalier Pierre Oudot", "latitude": 45.5959425, "longitude": 5.2453832, "source": "osm", "_tags": {"addr:housenumber": "30", "addr:street": "Avenue du Médipôle", "amenity": "hospital", "barrier": "fence", "emergency": "yes", "fax": "+33 4 69 15 70 13", "healthcare": "hospital", "healthcare:speciality": "intensive", "name": "Centre hospitalier Pierre Oudot", "operator:type": "public", "phone": "+33 4 69 15 70 00", "ref:FR:FINESS": "380000034", "ref:FR:SIRET": "26380006200238", "type:FR:FINESS": "355", "website": "https://www.ch-bourgoin.fr/", "wikidata": "Q105164823"}}, {"name": "Groupe hospitalier mutualiste de Grenoble", "latitude": 45.1817868, "longitude": 5.7092541, "source": "osm", "_tags": {"alt_name": "Clinique mutualiste des Eaux Claires", "amenity": "hospital", "check_date": "2024-07-08", "emergency": "yes", "fax": "+33476476694", "fixme": "rough contour", "healthcare": "hospital", "name": "Groupe hospitalier mutualiste de Grenoble", "operator:type": "private", "phone": "+33476707000", "ref:FR:FINESS": "380012658", "ref:FR:SIRET": "50173532800012", "short_name": "GHMG", "type:FR:FINESS": "365", "website": "https://www.ghm-grenoble.fr/", "wikidata": "Q43896910"}}, {"name": "Clinique des Côtes du Rhône", "latitude": 45.3707877, "longitude": 4.8124137, "source": "osm", "_tags": {"addr:housenumber": "12", "alt_name": "Clinique Saint-Charles", "amenity": "hospital", "emergency": "yes", "facebook": "Clinique des Côtes du Rhône", "healthcare": "hospital", "name": "Clinique des Côtes du Rhône", "operator": "Noalys", "operator:type": "private", "phone": "+33 4 74 29 28 28", "ref:FR:FINESS": "380020123", "type:FR:FINESS": "365", "website": "https://cliniquedescotesdurhone.fr/"}}, {"name": "Établissement de Santé Mentale Portes de l’Isère", "latitude": 45.6120232, "longitude": 5.154091, "source": "osm", "_tags": {"alt_name": "Fondation Georges Boissel", "amenity": "hospital", "building": "yes", "building:levels": "3", "fax": "+33474926599", "healthcare:speciality": "mental_health", "name": "Établissement de Santé Mentale Portes de l’Isère", "phone": "+33474926590", "ref:FR:FINESS": "380012849", "short_name": "ESMPI", "type:FR:FINESS": "292"}}, {"name": "Médipôle Lyon-Villeurbanne", "latitude": 45.7595984, "longitude": 4.9075322, "source": "osm", "_tags": {"amenity": "hospital", "contact:city": "Villeurbanne", "contact:housenumber": "158", "contact:postcode": "69100", "contact:street": "Rue Léon Blum", "emergency": "yes", "healthcare": "hospital", "healthcare:speciality": "general", "name": "Médipôle Lyon-Villeurbanne", "ref:FR:FINESS": "690041124", "ref:FR:SIRET": "49346678300054", "start_date": "2019", "wheelchair": "yes", "wikidata": "Q60852259", "wikipedia": "fr:Médipôle Lyon-Villeurbanne"}}, {"name": "Centre hospitalier de Saint-Marcellin", "latitude": 45.1528097, "longitude": 5.3229531, "source": "osm", "_tags": {"amenity": "hospital", "healthcare": "hospital", "name": "Centre hospitalier de Saint-Marcellin", "ref:FR:FINESS": "380000091", "type:FR:FINESS": "355"}}, {"name": "La Teppe", "latitude": 45.0626032, "longitude": 4.8659962, "source": "osm", "_tags": {"amenity": "hospital", "description": "Un lieu d’accueil, de soins et de vie, spécialisé en épilepsie et santé mentale", "emergency": "no", "fax": "+33475075991", "healthcare": "hospital", "name": "La Teppe", "phone": "+33 4 75 07 59 59", "ref:FR:FINESS": "260007695", "ref:FR:SIRET": "77945636700050", "social_facility": "group_home", "social_facility:for": "mental_health", "source": "Le ministère des solidarités et de la santé - 03/2019", "type:FR:FINESS": "252", "website": "https://www.teppe.org/"}}, {"name": "Centre hospitalier intercommunal de Morestel", "latitude": 45.6790564, "longitude": 5.4626385, "source": "osm", "_tags": {"amenity": "hospital", "healthcare": "hospital", "name": "Centre hospitalier intercommunal de Morestel", "ref:FR:FINESS": "380000364", "ref:FR:SIRET": "26380014600015", "source": "Le ministère des solidarités et de la santé - 03/2019", "type:FR:FINESS": "106", "wikidata": "Q92062718"}}, {"name": "", "latitude": 45.7678171, "longitude": 4.9803727, "source": "osm", "_tags": {"amenity": "hospital", "healthcare": "hospital"}}, {"name": "Centre hospitalier de Luzy-Dufeillant", "latitude": 45.3408611, "longitude": 5.0607602, "source": "osm", "_tags": {"amenity": "hospital", "contact:phone": "+33 4 74 29 72 58", "healthcare": "hospital", "name": "Centre hospitalier de Luzy-Dufeillant", "ref:FR:FINESS": "380000166", "type:FR:FINESS": "106", "wikidata": "Q92062635"}}, {"name": "Centre de pneumologie Henri Bazire", "latitude": 45.3469163, "longitude": 5.6579134, "source": "osm", "_tags": {"amenity": "hospital", "healthcare": "hospital", "name": "Centre de pneumologie Henri Bazire", "phone": "+33 4 76 56 32 32", "ref:FR:FINESS": "380780379", "type:FR:FINESS": "109"}}, {"name": "Émile Zola", "latitude": 45.0517604, "longitude": 5.0590115, "source": "osm", "_tags": {"amenity": "hospital", "building": "yes", "healthcare": "yes", "name": "Émile Zola", "ref:FR:FINESS": "260003280", "source": "cadastre-dgi-fr source : Direction Générale des Impôts - Cadastre. Mise à jour : 2020"}}, {"name": "", "latitude": 45.3634675, "longitude": 5.5880836, "source": "osm", "_tags": {"addr:city": "Voiron", "addr:housenumber": "10", "addr:postcode": "38503", "addr:street": "Rue Docteur Butterlin", "amenity": "hospital", "fax": "+33476058651", "healthcare": "hospital", "healthcare:speciality": "surgery;gastroenterological_surgery;gynaecology;maxillofacial_surgery;otolaryngology;dental_oral_maxillo_facial_surgery;plastic_surgery;radiology;stomatology;urology;oncology;vascular_surgery", "phone": "+33476672222", "ref:FR:FINESS": "380780288", "ref:FR:SIRET": "80191658600010", "source": "Le ministère des solidarités et de la santé - 03/2019", "type:FR:FINESS": "365", "website": "https://www.cliniquedechartreuse.com/"}}, {"name": "Clinique Iris", "latitude": 45.7359687, "longitude": 4.8746254, "source": "osm", "_tags": {"check_date": "2024-09-22", "disused:amenity": "hospital", "healthcare": "hospital", "name": "Clinique Iris", "phone": "+33437903100", "ref:FR:FINESS": "690025366", "ref:FR:SIRET": "97250050800031", "source": "Le ministère des solidarités et de la santé - 03/2019", "type:FR:FINESS": "109", "wheelchair": "yes"}}, {"name": "Clinique Pasteur", "latitude": 44.9344215, "longitude": 4.882426, "source": "osm", "_tags": {"alt_name": "Clinique Hôpital Privé Drôme Ardèche", "amenity": "hospital", "check_date": "2024-10-24", "emergency": "yes", "fax": "+33 4 75 44 19 83", "healthcare": "hospital", "name": "Clinique Pasteur", "operator:type": "private", "phone": "+33 8 26 30 07 26", "ref:FR:FINESS": "070780424", "source": "cadastre-dgi-fr source : Direction Generale des Impots - Cadastre. Mise a jour : 2013", "type:FR:FINESS": "365", "website": "https://hopital-prive-drome-ardeche-valence-guilherand-granges.ramsaygds.fr/", "wheelchair": "yes"}}, {"name": "Centre médico-psychologique adultes de l'hôpital de jour", "latitude": 44.9358029, "longitude": 4.862789, "source": "osm", "_tags": {"amenity": "hospital", "fax": "+33475818124", "healthcare": "hospital", "name": "Centre médico-psychologique adultes de l'hôpital de jour", "phone": "+33475818120", "ref:FR:FINESS": "070005046", "ref:FR:SIRET": "26260014100457", "source": "Le ministère des solidarités et de la santé - 03/2019", "type:FR:FINESS": "292"}}, {"name": "Hôpital de Tournon", "latitude": 45.0551101, "longitude": 4.8539266, "source": "osm", "_tags": {"addr:housenumber": "50", "addr:street": "Rue des Alpes", "amenity": "hospital", "emergency": "no", "healthcare": "hospital", "healthcare:speciality": "medecine;Follow-up_Care_and_Rehabilitation;perinatal_centre", "name": "Hôpital de Tournon", "phone": "+33 4 75 07 75 07", "ref:FR:FINESS": "070000195", "source": "Le ministère des solidarités et de la santé - 10/2018", "website": "https://www.hopital-de-tournon.fr/", "wikidata": "Q92062618"}}, {"name": "Hôpital local Serrières", "latitude": 45.3194499, "longitude": 4.7635727, "source": "osm", "_tags": {"amenity": "hospital", "healthcare": "hospital", "name": "Hôpital local Serrières", "phone": "+33 4 75 69 42 00", "ref:FR:FINESS": "070780390", "source": "Le ministère des solidarités et de la santé - 03/2019", "wikidata": "Q92062799"}}, {"name": "Centre Ssr le Château", "latitude": 44.8563499, "longitude": 4.8047508, "source": "osm", "_tags": {"amenity": "hospital", "description": "Etablissement de réadaptation fonctionnelle", "emergency": "no", "name": "Centre Ssr le Château", "social_facility": "group_home", "source": "BDTopo IGN"}}, {"name": "Hôpital Local de Saint-Pierre-de-Bœuf", "latitude": 45.380981, "longitude": 4.747193, "source": "osm", "_tags": {"amenity": "hospital", "fax": "+33474879001", "healthcare": "hospital", "name": "Hôpital Local de Saint-Pierre-de-Bœuf", "phone": "+33474879000", "ref:FR:FINESS": "420780744", "ref:FR:SIRET": "20009375500029", "source": "BDTopo IGN", "type:FR:FINESS": "355"}}, {"name": "Clinique du Parc", "latitude": 45.7715005, "longitude": 4.8592411, "source": "osm", "_tags": {"amenity": "hospital", "check_date": "2024-04-11", "healthcare": "hospital", "name": "Clinique du Parc", "wheelchair": "yes"}}, {"name": "", "latitude": 45.3706908, "longitude": 4.8119105, "source": "osm", "_tags": {"amenity": "hospital", "building": "construction", "building:levels": "4", "fixme": "forme du bâtiment à mettre à jour", "healthcare": "hospital", "start_date": "2021"}}, {"name": "Centre hospitalier Bugey Sud", "latitude": 45.748468, "longitude": 5.6794049, "source": "osm", "_tags": {"amenity": "hospital", "healthcare": "hospital", "name": "Centre hospitalier Bugey Sud"}}, {"name": "La Tarentelle", "latitude": 45.6630105, "longitude": 4.9477309, "source": "osm", "_tags": {"amenity": "hospital", "description": "Hôpital de jour pour enfants, Centre médico-psychologique", "healthcare": "hospital", "name": "La Tarentelle", "operator": "Arpège", "phone": "+33478200431", "ref:FR:FINESS": "690796099", "ref:FR:SIRET": "77986872801129", "source": "Le ministère des solidarités et de la santé - 2025-07", "type:FR:FINESS": "292"}}, {"name": "Centre hospitalier de Valence", "latitude": 44.9137279, "longitude": 4.9053475, "source": "osm", "_tags": {"alt_name": "Hôpital de Valence", "amenity": "hospital", "emergency": "yes", "fax": "+33 4 75 75 72 40", "healthcare": "hospital", "healthcare:speciality": "intensive", "name": "Centre hospitalier de Valence", "operator:type": "public", "phone": "+33 4 75 75 75 75", "ref:FR:FINESS": "260000013", "type:FR:FINESS": "355", "website": "https://www.ch-valence.fr/"}}, {"name": "Clinique Trenel", "latitude": 45.519469, "longitude": 4.8620057, "source": "osm", "_tags": {"amenity": "hospital", "contact:housenumber": "575", "contact:street": "Rue du Docteur Trenel", "healthcare": "hospital", "name": "Clinique Trenel"}}, {"name": "Clinique Villa des Roses", "latitude": 45.7524927, "longitude": 4.8018886, "source": "osm", "_tags": {"amenity": "hospital", "healthcare": "hospital", "name": "Clinique Villa des Roses", "opening_hours": "Mo-Fr 09:00-18:30", "ref:FR:SIRET": "31219351900013", "website": "https://www.inicea.fr/sante-mentale/clinique-villa-des-roses-lyon-69005"}}, {"name": "Clinique de la Chavannerie", "latitude": 45.7109515, "longitude": 4.754026, "source": "osm", "_tags": {"amenity": "hospital", "building": "hospital", "fax": "+33 4 78 16 00 33", "healthcare": "hospital", "healthcare:speciality": "psychiatry", "name": "Clinique de la Chavannerie", "operator": "Clinéa", "operator:type": "private", "phone": "+33 4 78 16 00 30", "ref:FR:FINESS": "690780523", "type": "multipolygon", "type:FR:FINESS": "161", "website": "https://clinea.fr/clinique-la-chavannerie-chaponost-69"}}, {"name": "CMPR Les Beaumes", "latitude": 44.9110459, "longitude": 4.8903224, "source": "osm", "_tags": {"addr:housenumber": "43", "addr:street": "Avenue de la Libération", "alt_name": "Etablissement de Réadaptation Fonctionnelle Les Beaumes", "amenity": "hospital", "fax": "+33475812448", "healthcare": "hospital", "healthcare:speciality": "physiatry", "name": "CMPR Les Beaumes", "network": "ADAPT", "phone": "+33475816464", "ref:FR:FINESS": "260000682", "type": "multipolygon", "type:FR:FINESS": "109"}}, {"name": "Unité pour malades difficiles", "latitude": 45.7382032, "longitude": 4.9026681, "source": "osm", "_tags": {"amenity": "hospital", "building": "hospital", "healthcare": "hospital", "name": "Unité pour malades difficiles", "ref": "360", "ref:FR:FINESS": "690037171", "short_name": "UMD", "source": "Le ministère des solidarités et de la santé - 03/2019", "type": "multipolygon", "type:FR:FINESS": "292"}}, {"name": "Centre hospitalier Saint-Joseph Saint-Luc", "latitude": 45.7496618, "longitude": 4.8358907, "source": "osm", "_tags": {"amenity": "hospital", "building": "hospital", "building:levels": "7", "contact:city": "Lyon", "contact:housenumber": "20", "contact:postcode": "69007", "contact:street": "Quai Claude Bernard", "emergency": "yes", "fax": "+33 4 78 61 80 80", "healthcare": "hospital", "healthcare:speciality": "intensive", "name": "Centre hospitalier Saint-Joseph Saint-Luc", "operator:type": "private", "phone": "+33 4 78 61 81 81", "ref:FR:FINESS": "690805361", "roof:shape": "flat", "type": "multipolygon", "type:FR:FINESS": "365", "website": "http://www.ch-stjoseph-stluc-lyon.fr/", "wheelchair": "yes", "wikidata": "Q19185932", "wikipedia": "fr:Centre hospitalier Saint-Joseph Saint-Luc"}}, {"name": "Centre de lutte contre le cancer Léon Bérard", "latitude": 45.7410735, "longitude": 4.8774881, "source": "osm", "_tags": {"amenity": "hospital", "contact:facebook": "https://www.facebook.com/CentreLeonBerard/", "contact:instagram": "https://www.instagram.com/centreleonberard/", "contact:linkedin": "https://www.linkedin.com/company/centre-l%C3%A9on-b%C3%A9rard/", "contact:twitter": "https://twitter.com/CLCCLeonBerard", "contact:youtube": "https://www.youtube.com/user/CentreLeonBerard", "emergency": "no", "healthcare": "hospital", "name": "Centre de lutte contre le cancer Léon Bérard", "phone": "+33 4 78 78 28 28", "ref:FR:FINESS": "690034376", "ref:FR:SIRET": "26690027300993", "type": "multipolygon", "website": "https://www.centreleonberard.fr/", "wikidata": "Q2944832", "wikipedia": "fr:Centre Léon-Bérard"}}, {"name": "Clinique d'Alembert", "latitude": 45.1821584, "longitude": 5.7100275, "source": "osm", "_tags": {"addr:city": "Grenoble", "addr:housenumber": "124", "addr:postcode": "38000", "addr:street": "Rue d'Alembert", "building": "hospital", "building:colour": "#dadadc", "building:levels": "5", "healthcare": "hospital", "name": "Clinique d'Alembert", "ref:FR:FINESS": "380009449", "ref:FR:SIRET": "48523843000014", "roof:colour": "#dadadc", "roof:levels": "0", "roof:shape": "gabled", "source": "cadastre-dgi-fr source : Direction Générale des Impôts - Cadastre. Mise à jour : 2009", "type": "multipolygon"}}, {"name": "Hôpital de Voiron", "latitude": 45.374878, "longitude": 5.5754013, "source": "osm", "_tags": {"amenity": "hospital", "healthcare": "hospital", "name": "Hôpital de Voiron", "operator": "CHU Grenoble Alpes", "phone": "+33 4 76 76 75 75", "ref:FR:FINESS": "380000406", "start_date": "2021", "type": "multipolygon", "website": "https://www.ch-voiron.fr/"}}, {"name": "Centre hospitalier de Condrieu", "latitude": 45.4596787, "longitude": 4.7602649, "source": "osm", "_tags": {"amenity": "hospital", "building": "yes", "healthcare": "hospital", "name": "Centre hospitalier de Condrieu", "ref:FR:FINESS": "690000047", "type": "multipolygon", "type:FR:FINESS": "106", "wikidata": "Q92063086"}}, {"name": "Centre médico-chirurgical de réadaptation des Massues", "latitude": 45.7611106, "longitude": 4.7971514, "source": "osm", "_tags": {"amenity": "hospital", "barrier": "fence", "healthcare": "hospital", "name": "Centre médico-chirurgical de réadaptation des Massues", "type": "multipolygon"}}]