[{"name": "Centre hospitalier de le Rochefoucaud", "latitude": 45.742217, "longitude": 0.3832859, "source": "osm", "_tags": {"amenity": "hospital", "healthcare": "hospital", "name": "Centre hospitalier de le Rochefoucaud", "ref:FR:FINESS": "160000188", "source": "Le ministère des solidarités et de la santé - 10/2018", "type:FR:FINESS": "106", "website": "https://www.ch-larochefoucauld.fr/", "wikidata": "Q92062887"}}, {"name": "Centre hospitalier Chenard", "latitude": 45.2047941, "longitude": 0.1411777, "source": "osm", "_tags": {"amenity": "hospital", "emergency": "no", "fax": "+33 5 53 92 43 07", "healthcare": "hospital", "name": "Centre hospitalier Chenard", "operator:type": "public", "phone": "+33 5 53 92 43 00", "ref:FR:FINESS": "240000521", "type:FR:FINESS": "106", "wikidata": "Q92063365"}}, {"name": "C.H.S de Vauclaire", "latitude": 45.032937, "longitude": 0.1846844, "source": "osm", "_tags": {"amenity": "hospital", "healthcare": "hospital", "healthcare:speciality": "psychiatry", "name": "C.H.S de Vauclaire", "ref:FR:FINESS": "240000463", "type:FR:FINESS": "292"}}, {"name": "Centre hospitalier de Périgueux", "latitude": 45.1944791, "longitude": 0.7297196, "source": "osm", "_tags": {"amenity": "hospital", "emergency": "yes", "fax": "+33 5 53 45 25 40", "healthcare": "hospital", "healthcare:speciality": "intensive", "name": "Centre hospitalier de Périgueux", "operator:type": "public", "phone": "+33 5 53 45 25 25", "ref:FR:FINESS": "240000489", "source": "cadastre-dgi-fr source : Direction Générale des Impôts - Cadastre. Mise à jour : 2010", "type:FR:FINESS": "355", "website": "https://www.ch-perigueux.fr/", "wikidata": "Q2945699", "wikipedia": "fr:Centre hospitalier de Périgueux"}}, {"name": "Hôpital Garderose", "latitude": 44.896845, "longitude": -0.2266018, "source": "osm", "_tags": {"amenity": "hospital", "name": "Hôpital Garderose", "ref:FR:FINESS": "330783721", "source": "Le ministère des solidarités et de la santé - 08/2018"}}, {"name": "Centre hospitalier de Châteauneuf sur Charente", "latitude": 45.5969751, "longitude": -0.0594184, "source": "osm", "_tags": {"addr:city": "Châteauneuf-sur-Charente", "addr:postcode": "16120", "addr:street": "Place de l'Église", "amenity": "hospital", "building": "yes", "description": "Services :- Unité de Soins Palliatifs (USP)- Équipes Mobiles de Soins Palliatifs (EMSP)- Soins de Suites et de Réadaptation (SSR)- Unité de Soins Longue Durée (USLD)- Unité d’Hébergement Renforcée (UHR)- Consultation mémoire- EHPAD- Etc", "emergency": "no", "fax": "+33 5 45 97 11 29", "name": "Centre hospitalier de Châteauneuf sur Charente", "phone": "+33 5 45 66 21 89", "ref:FR:FINESS": "160000360", "ref:FR:NAF": "8610Z", "ref:FR:SIRET": "20001870300120", "source": "cadastre-dgi-fr source : Direction Générale des Impôts - Cadastre. Mise à jour : 2011", "website": "http://www.chateauneufsurcharente.fr/centre-hospitalier/", "wheelchair": "yes"}}, {"name": "Centre hospitalier de Libourne", "latitude": 44.9184786, "longitude": -0.2289432, "source": "osm", "_tags": {"alt_name": "Hôpital Robert Boulin", "amenity": "hospital", "emergency": "yes", "fax": "+33 5 57 55 34 20", "healthcare": "hospital", "healthcare:speciality": "intensive", "name": "Centre hospitalier de Libourne", "operator:type": "public", "phone": "+33 5 57 55 34 34", "ref:FR:FINESS": "330000605", "ref:FR:NAF": "8610Z", "ref:FR:SIREN": "263305658", "ref:FR:SIRET": "26330565800019", "source": "Le ministère des solidarités et de la santé - 08/2018", "type:FR:FINESS": "355", "website": "http://www.ch-libourne.fr/"}}, {"name": "Clinique Saint-Joseph", "latitude": 45.6495299, "longitude": 0.1466579, "source": "osm", "_tags": {"amenity": "hospital", "email": "contact@clinique-saint-joseph.com", "emergency": "no", "fax": "+33 5 45 38 67 01", "healthcare": "hospital", "name": "Clinique Saint-Joseph", "operator:type": "private", "phone": "+33 5 45 38 67 00", "ref:FR:FINESS": "160000170", "ref:FR:NAF": "8610Z", "ref:FR:SIREN": "844748020", "ref:FR:SIRET": "84474802000022", "source": "INSEE - 2024-10", "type:FR:FINESS": "128", "website": "https://clinique-saint-joseph.com/"}}, {"name": "Centre hospitalier du Sud-Charente", "latitude": 45.4734293, "longitude": -0.1393228, "source": "osm", "_tags": {"amenity": "hospital", "emergency": "yes", "fax": "+33 5 45 78 78 06", "healthcare": "hospital", "name": "Centre hospitalier du Sud-Charente", "operator:type": "public", "phone": "+33 5 45 78 78 00", "ref:FR:FINESS": "160000303", "type:FR:FINESS": "355", "website": "https://www.ch-sud-charente.fr/"}}, {"name": "", "latitude": 44.849587, "longitude": 0.4824105, "source": "osm", "_tags": {"healthcare": "hospital", "layer": "1", "leisure": "outdoor_seating"}}, {"name": "Colisée Clinique Avicenne", "latitude": 44.9463705, "longitude": -0.246115, "source": "osm", "_tags": {"addr:city": "Libourne", "addr:housenumber": "7", "addr:postcode": "33500", "addr:street": "Rue de Schwandorf", "amenity": "hospital", "description": "Centre de rééducation des Dagueys", "emergency": "no", "name": "Colisée Clinique Avicenne", "operator": "Colisée Patrimoine", "phone": "+33 5 57 50 83 00", "ref:FR:FINESS": "330024928", "type:FR:FINESS": "109", "website": "https://groupecolisee.com/etablissements/clinique-avicenne/"}}, {"name": "Centre hospitalier d'Angoulême", "latitude": 45.6353274, "longitude": 0.1195882, "source": "osm", "_tags": {"addr:street": "Rond point de Girac", "alt_name": "Hôpital de Girac", "amenity": "hospital", "emergency": "yes", "fax": "+33 5 45 24 42 83", "healthcare": "hospital", "healthcare:speciality": "intensive", "name": "Centre hospitalier d'Angoulême", "operator:type": "public", "phone": "+33 5 45 24 40 40", "ref:FR:FINESS": "160000253", "type:FR:FINESS": "355", "website": "https://www.ch-angouleme.fr/", "wikidata": "Q2945684"}}, {"name": "Centre hospitalier de Bergerac", "latitude": 44.8507412, "longitude": 0.4967527, "source": "osm", "_tags": {"alt_name": "Centre hospitalier Samuel Pozzi", "amenity": "hospital", "emergency": "yes", "fax": "+33 5 53 24 37 46", "healthcare": "hospital", "name": "Centre hospitalier de Bergerac", "operator:type": "public", "phone": "+33 5 53 63 88 88", "ref:FR:FINESS": "240000372", "source": "Le ministère des solidarités et de la santé - 08/2018", "type:FR:FINESS": "355", "website": "http://www.ch-bergerac.fr/accueil-3.html"}}, {"name": "Clinique Pasteur", "latitude": 44.851724, "longitude": 0.489996, "source": "osm", "_tags": {"addr:city": "Bergerac", "addr:postcode": "24100", "addr:street": "Rue Malbec", "amenity": "hospital", "healthcare": "hospital", "name": "Clinique Pasteur", "ref:FR:FINESS": "240000208", "type:FR:FINESS": "365"}}, {"name": "Centre hospitalier et E.H.P.A.D. Les Bruyères Boscamnant", "latitude": 45.1963867, "longitude": -0.0854229, "source": "osm", "_tags": {"amenity": "hospital", "emergency": "no", "fax": "+33 5 46 86 50 13", "healthcare": "hospital", "name": "Centre hospitalier et E.H.P.A.D. Les Bruyères Boscamnant", "operator:type": "public", "phone": "+33 5 46 86 50 00", "ref:FR:FINESS": "170000178", "type:FR:FINESS": "355", "website": "https://www.ch-boscamnant.fr/"}}, {"name": "Centre hospitalier de Sainte-Foy-la-Grande", "latitude": 44.8418278, "longitude": 0.2226888, "source": "osm", "_tags": {"amenity": "hospital", "emergency": "yes", "fax": "+33 5 57 41 96 57", "healthcare": "hospital", "name": "Centre hospitalier de Sainte-Foy-la-Grande", "operator": "Centre hospitalier de Libourne", "operator:type": "public", "phone": "+33 5 57 41 96 96", "ref:FR:FINESS": "330058355", "source": "cadastre-dgi-fr source : Direction Générale des Impôts - Cadastre. Mise à jour : 2010", "type:FR:FINESS": "355", "website": "https://www.ch-saintefoy.com/"}}, {"name": "Centre hospitalier Camille Claudel", "latitude": 45.6237836, "longitude": 0.1206754, "source": "osm", "_tags": {"amenity": "hospital", "healthcare": "hospital", "healthcare:speciality": "psychiatry", "name": "Centre hospitalier Camille Claudel", "ref:FR:FINESS": "160000345", "type:FR:FINESS": "292"}}, {"name": "Hôpital de Ribérac", "latitude": 45.2449953, "longitude": 0.3400174, "source": "osm", "_tags": {"amenity": "hospital", "building": "hospital", "healthcare": "hospital", "name": "Hôpital de Ribérac", "ref:FR:FINESS": "240000505", "type:FR:FINESS": "106", "website": "https://www.chicrdd.fr/", "wikidata": "Q92063345"}}, {"name": "Pôle d'Hospitalisation Psychiatrique", "latitude": 44.8532097, "longitude": 0.5022544, "source": "osm", "_tags": {"amenity": "hospital", "healthcare": "hospital", "healthcare:speciality": "psychiatry", "name": "Pôle d'Hospitalisation Psychiatrique"}}, {"name": "Hôpital de Nontron", "latitude": 45.527964, "longitude": 0.6660818, "source": "osm", "_tags": {"amenity": "hospital", "healthcare": "hospital", "name": "Hôpital de Nontron", "ref:FR:FINESS": "240000471", "source": "cadastre-dgi-fr source : Direction Générale des Impôts - Cadastre. Mise à jour : 2010", "wikidata": "Q92063284"}}, {"name": "Centre Clinical", "latitude": 45.6365159, "longitude": 0.2030457, "source": "osm", "_tags": {"amenity": "hospital", "healthcare": "hospital", "healthcare:speciality": "surgery", "name": "Centre Clinical", "ref:FR:FINESS": "160013207", "ref:FR:SIREN": "323399295", "ref:FR:SIRET": "32339929500050", "type:FR:FINESS": "128", "wheelchair": "limited"}}, {"name": "Clinique Francheville", "latitude": 45.18134, "longitude": 0.717538, "source": "osm", "_tags": {"amenity": "hospital", "building": "hospital", "emergency": "yes", "healthcare": "hospital", "name": "Clinique Francheville", "operator:type": "private", "ref:FR:FINESS": "240000190", "source": "cadastre-dgi-fr source : Direction Générale des Impôts - Cadastre. Mise à jour : 2010", "type": "multipolygon", "type:FR:FINESS": "365"}}]