[{"name": "ingresso Palazzina Uffici dell'Ospedale", "latitude": 45.5556651, "longitude": 11.5467193, "source": "osm", "_tags": {"amenity": "hospital", "healthcare": "hospital", "name": "ingresso Palazzina Uffici dell'Ospedale"}}, {"name": "Guardia Medica - Servizio di continuità assistenziale", "latitude": 45.5360626, "longitude": 11.5246562, "source": "osm", "_tags": {"addr:city": "Vicenza", "addr:country": "IT", "addr:housenumber": "4", "addr:postcode": "36100", "addr:street": "Via Giovanni Fincato", "amenity": "hospital", "name": "Guardia Medica - Servizio di continuità assistenziale", "note": "Guardia Medica", "phone": "+39 848800557"}}, {"name": "Centro Diagnostico Veneto", "latitude": 45.6140148, "longitude": 11.492417, "source": "osm", "_tags": {"amenity": "hospital", "name": "Centro Diagnostico Veneto"}}, {"name": "Guardia Medica - Servizi socio sanitari", "latitude": 44.8188225, "longitude": 11.59984, "source": "osm", "_tags": {"amenity": "hospital", "name": "Guardia Medica - Servizi socio sanitari"}}, {"name": "Casa di cura \"Salus\"", "latitude": 44.8455037, "longitude": 11.6189754, "source": "osm", "_tags": {"addr:city": "Ferrara", "addr:housenumber": "38", "addr:postcode": "44121", "addr:street": "Via Arianuova", "amenity": "hospital", "emergency": "no", "healthcare": "hospital", "name": "Casa di cura \"Salus\"", "wheelchair": "yes"}}, {"name": "Centro di Medicina dello Sport", "latitude": 44.8499058, "longitude": 11.612101, "source": "osm", "_tags": {"amenity": "hospital", "healthcare": "hospital", "healthcare:speciality": "vaccination", "name": "Centro di Medicina dello Sport"}}, {"name": "Ospedale Fratelli Borselli", "latitude": 44.8802925, "longitude": 11.4143207, "source": "osm", "_tags": {"amenity": "hospital", "emergency": "no", "healthcare": "hospital", "name": "Ospedale Fratelli Borselli"}}, {"name": "Infermeria Piccole Suore della Sacra Famiglia", "latitude": 45.6879626, "longitude": 10.7520214, "source": "osm", "_tags": {"addr:postcode": "37010", "amenity": "hospital", "healthcare": "hospital", "name": "Infermeria Piccole Suore della Sacra Famiglia"}}, {"name": "Città della Salute \"Cittadella San Rocco\"", "latitude": 44.8327338, "longitude": 11.631468, "source": "osm", "_tags": {"amenity": "hospital", "emergency": "yes", "name": "Città della Salute \"Cittadella San Rocco\""}}, {"name": "Medicina generale - Responsabile Dott.ssa Marchi Maria", "latitude": 45.4420354, "longitude": 10.9411499, "source": "osm", "_tags": {"addr:city": "Verona", "addr:country": "IT", "addr:housenumber": "46", "addr:postcode": "37139", "addr:street": "Via Urbano terzo", "amenity": "clinic", "emergency": "yes", "healthcare": "hospital", "healthcare:speciality": "general", "name": "Medicina generale - Responsabile Dott.ssa Marchi Maria", "operator": "Ulss 9 Scaligera", "operator:type": "public", "phone": "+39 3478935061", "website": "https://www.aulss9.veneto.it/index.cfm?action=medici.dettaglio&id=006786", "wheelchair": "yes"}}, {"name": "Pubblica Assistenza Croce Blu Mirandola", "latitude": 44.8687186, "longitude": 11.0591163, "source": "osm", "_tags": {"addr:city": "Mirandola", "addr:housenumber": "55", "addr:postcode": "41037", "addr:street": "Via Posta Vecchia", "amenity": "hospital", "email": "info@croceblumirandola.it", "emergency": "yes", "fax": "+39 0535 20203", "healthcare": "hospital", "name": "Pubblica Assistenza Croce Blu Mirandola", "phone": "+39 0535 20104"}}, {"name": "Pronto Soccorso Ospedale Montagnana", "latitude": 45.2370435, "longitude": 11.4595579, "source": "osm", "_tags": {"addr:city": "Montagnana", "emergency": "emergency_ward_entrance", "healthcare": "hospital", "name": "Pronto Soccorso Ospedale Montagnana"}}, {"name": "Pronto Soccorso Ospedale \"Madre Teresa di Calcutta\"", "latitude": 45.2060634, "longitude": 11.7215994, "source": "osm", "_tags": {"addr:city": "Monselice", "addr:postcode": "35043", "emergency": "emergency_ward_entrance", "healthcare": "hospital", "name": "Pronto Soccorso Ospedale \"Madre Teresa di Calcutta\""}}, {"name": "Pronto Soccorso Ospedale \"San Luca\"", "latitude": 45.0294549, "longitude": 11.4669133, "source": "osm", "_tags": {"addr:city": "Trecenta", "addr:housenumber": "265", "addr:postcode": "45027", "addr:street": "Viale Ugo Grisetti", "emergency": "emergency_ward_entrance", "healthcare": "hospital", "name": "Pronto Soccorso Ospedale \"San Luca\""}}, {"name": "Pronto Soccorso Ospedale Bovolone", "latitude": 45.2605994, "longitude": 11.1195823, "source": "osm", "_tags": {"addr:city": "Bovolone", "emergency": "emergency_ward_entrance", "healthcare": "hospital", "name": "Pronto Soccorso Ospedale Bovolone"}}, {"name": "Pronto Soccorso Ospedale Girolamo Fracastoro", "latitude": 45.3912575, "longitude": 11.2787172, "source": "osm", "_tags": {"addr:city": "San Bonifacio", "emergency": "emergency_ward_entrance", "healthcare": "hospital", "name": "Pronto Soccorso Ospedale Girolamo Fracastoro"}}, {"name": "Pronto Soccorso Ospedale Mater Salutis", "latitude": 45.185477, "longitude": 11.3150084, "source": "osm", "_tags": {"addr:city": "Legnago", "emergency": "emergency_ward_entrance", "healthcare": "hospital", "name": "Pronto Soccorso Ospedale Mater Salutis"}}, {"name": "Pronto Soccorso Ospedale Orlandi", "latitude": 45.4761537, "longitude": 10.8490708, "source": "osm", "_tags": {"addr:city": "Bussolengo", "emergency": "emergency_ward_entrance", "emergency_ward_entrance": "all", "entrance": "main", "healthcare": "hospital", "name": "Pronto Soccorso Ospedale Orlandi", "opening_hours": "24/7"}}, {"name": "Pronto Soccorso Ospedale di Malcesine", "latitude": 45.7517408, "longitude": 10.7959836, "source": "osm", "_tags": {"addr:city": "Malcesine", "emergency": "emergency_ward_entrance", "healthcare": "hospital", "name": "Pronto Soccorso Ospedale di Malcesine"}}, {"name": "Pronto Soccorso Ospedale Civile Isola della Scala", "latitude": 45.2687682, "longitude": 11.0067667, "source": "osm", "_tags": {"addr:city": "Isola della Scala", "emergency": "emergency_ward_entrance", "healthcare": "hospital", "name": "Pronto Soccorso Ospedale Civile Isola della Scala"}}, {"name": "Pronto Soccorso Ospedale Sacro Cuore", "latitude": 45.5302968, "longitude": 10.9365037, "source": "osm", "_tags": {"addr:city": "Negrar", "emergency": "emergency_ward_entrance", "healthcare": "hospital", "name": "Pronto Soccorso Ospedale Sacro Cuore"}}, {"name": "Pronto Soccorso Ospedale \"San Giovanni Battista\"", "latitude": 45.3847826, "longitude": 11.3929355, "source": "osm", "_tags": {"addr:city": "Lonigo", "emergency": "emergency_ward_entrance", "healthcare": "hospital", "name": "Pronto Soccorso Ospedale \"San Giovanni Battista\""}}, {"name": "Pronto Soccorso Ospedale Arzignano", "latitude": 45.5257258, "longitude": 11.3315438, "source": "osm", "_tags": {"addr:city": "Arzignano", "emergency": "ambulance_station", "healthcare": "hospital", "name": "Pronto Soccorso Ospedale Arzignano"}}, {"name": "Pronto Soccorso Ospedale San Bortolo", "latitude": 45.5552506, "longitude": 11.5455941, "source": "osm", "_tags": {"addr:city": "Vicenza", "emergency": "emergency_ward_entrance", "healthcare": "hospital", "name": "Pronto Soccorso Ospedale San Bortolo", "toilets:wheelchair": "yes", "wheelchair": "yes"}}, {"name": "Pronto Soccorso Ospedale \"Pietro Milani\"", "latitude": 45.2934015, "longitude": 11.5363114, "source": "osm", "_tags": {"addr:city": "Noventa Vicentina", "emergency": "emergency_ward_entrance", "entrance": "yes", "healthcare": "hospital", "name": "Pronto Soccorso Ospedale \"Pietro Milani\"", "opening_hours": "24/7"}}, {"name": "Pronto Soccorso Ospedale \"Carlo Poma\"", "latitude": 45.0344612, "longitude": 11.115702, "source": "osm", "_tags": {"addr:city": "Pieve di Coriano", "emergency": "emergency_ward_entrance", "healthcare": "hospital", "name": "Pronto Soccorso Ospedale \"Carlo Poma\""}}, {"name": "Pronto Soccorso Ospedale \"Carlo Poma\"", "latitude": 45.1448384, "longitude": 10.7733832, "source": "osm", "_tags": {"addr:city": "Mantova", "emergency": "emergency_ward_entrance", "healthcare": "hospital", "name": "Pronto Soccorso Ospedale \"Carlo Poma\""}}, {"name": "Distretto di Breganze Usll n°7", "latitude": 45.7082564, "longitude": 11.5659356, "source": "osm", "_tags": {"amenity": "hospital", "healthcare": "hospital", "name": "Distretto di Breganze Usll n°7", "operator": "Usll n° 7 Pedemontana", "operator:type": "public"}}, {"name": "Pre-Triage", "latitude": 45.5551291, "longitude": 11.5454464, "source": "osm", "_tags": {"amenity": "hospital", "healthcare": "hospital", "name": "Pre-Triage"}}, {"name": "Dott.ssa Silvia Gaspari - Fisioterapista e Osteopata San Giovanni Lupatoto", "latitude": 45.3814974, "longitude": 11.0410089, "source": "osm", "_tags": {"addr:city": "San Giovanni Lupatoto", "addr:housenumber": "3", "addr:postcode": "37057", "addr:street": "Piazzale Zinelli", "amenity": "hospital", "description": "Fisioterapista e Osteopata a San Giovanni Lupatoto\nDott.ssa in Fisioterapia con Master di I° Livelo in Osteopatia nelle Disfunzioni Neuromuscolo-Scheletriche (Albo di Verona n° 232)\nRicevo su Appuntamento: 3474665285", "email": "silviagasparifisio@gmail.com", "healthcare": "hospital", "healthcare:speciality": "osteopathy;physiotherapy", "internet_access": "wlan", "name": "Dott.ssa Silvia Gaspari - Fisioterapista e Osteopata San Giovanni Lupatoto", "operator": "Gaspari Silvia", "operator:type": "private", "wheelchair": "yes"}}, {"name": "Centro Raccolta Sangue", "latitude": 45.5576843, "longitude": 11.5432399, "source": "osm", "_tags": {"addr:housenumber": "14", "addr:postcode": "36100", "addr:street": "Viale Bartolomeo d'Alviano", "amenity": "hospital", "name": "Centro Raccolta Sangue", "name:en": "Blood Center"}}, {"name": "SE.FA.MO S.R.L.", "latitude": 45.5520412, "longitude": 11.5340333, "source": "osm", "_tags": {"addr:city": "Vicenza", "addr:housenumber": "49", "addr:postcode": "36100", "addr:street": "Stradella dei Cappuccini", "amenity": "hospital", "fixme": "Non è un ospedale ma più un poliambulatorio", "healthcare": "laboratory", "name": "SE.FA.MO S.R.L.", "wheelchair": "yes"}}, {"name": "Centro Sanitario Polifunzionale", "latitude": 45.710653, "longitude": 11.4703368, "source": "osm", "_tags": {"addr:city": "Thiene", "addr:housenumber": "1", "addr:postcode": "36016", "addr:street": "Via Boldrini", "amenity": "hospital", "check_date": "2025-03-31", "healthcare": "hospital", "healthcare:speciality": "general", "name": "Centro Sanitario Polifunzionale", "opening_hours": "Mo-Fr 06:45-20:45; Sa,Su closed", "operator": "ULSS 7 Pedemontana", "operator:type": "public", "phone": "+39 0445 388111"}}, {"name": "Centro di Medicina", "latitude": 45.7110858, "longitude": 11.3590523, "source": "osm", "_tags": {"amenity": "hospital", "healthcare": "hospital", "name": "Centro di Medicina"}}, {"name": "Medicina di Gruppo MC8", "latitude": 45.5986882, "longitude": 11.5723682, "source": "osm", "_tags": {"addr:housenumber": "28", "addr:street": "Via Dante", "amenity": "hospital", "check_date": "2025-07-04", "healthcare": "hospital", "name": "Medicina di Gruppo MC8", "operator": "Mediclinic", "phone": "+3904441497890"}}, {"name": "Poliambulatorio Città di Ferrara", "latitude": 44.8497935, "longitude": 11.5836947, "source": "osm", "_tags": {"addr:city": "Ferrara", "addr:housenumber": "63", "addr:street": "Via Annibale Zucchini", "amenity": "hospital", "name": "Poliambulatorio Città di Ferrara"}}, {"name": "Casa della Salute - ULSS 7 Pedemontana", "latitude": 45.7213886, "longitude": 11.3560853, "source": "osm", "_tags": {"addr:city": "Schio", "addr:housenumber": "1", "addr:postcode": "36015", "addr:street": "Via San Camillo de Lellis", "amenity": "hospital", "check_date": "2025-08-17", "emergency": "no", "healthcare": "hospital", "name": "Casa della Salute - ULSS 7 Pedemontana", "operator": "ULSS 7 Pedemontana", "operator:type": "public"}}, {"name": "Medicina di Gruppo Trissino Castelgomberto", "latitude": 45.5652724, "longitude": 11.3749221, "source": "osm", "_tags": {"addr:city": "Trissino", "addr:postcode": "36070", "addr:street": "Via Nazario Sauro", "amenity": "hospital", "healthcare": "hospital", "name": "Medicina di Gruppo Trissino Castelgomberto"}}, {"name": "Centro Sanitario Polifunzionale - Tregnago", "latitude": 45.5161472, "longitude": 11.1639694, "source": "osm", "_tags": {"addr:city": "Tregnago", "addr:housenumber": "7", "addr:postcode": "37039", "addr:street": "Viale Massalongo", "amenity": "hospital", "email": "distretto2tregnago@aulss9.veneto.it", "healthcare": "hospital", "name": "Centro Sanitario Polifunzionale - Tregnago", "operator": "ULSS 9 Scaligera", "operator:type": "public", "phone": "045 780 7284", "wheelchair": "yes"}}, {"name": "Policlinico Giambattista Rossi", "latitude": 45.403635, "longitude": 10.9931586, "source": "osm", "_tags": {"addr:city": "Verona", "addr:country": "IT", "addr:housenumber": "10", "addr:postcode": "37134", "addr:street": "Piazzale Ludovico Antonio Scuro", "amenity": "hospital", "emergency": "yes", "healthcare": "hospital", "healthcare:speciality": "general", "internet_access": "wlan", "name": "Policlinico Giambattista Rossi", "website": "https://www.ospedaleuniverona.it/ecm/home", "wheelchair": "yes"}}, {"name": "Ospedale Girolamo Fracastoro", "latitude": 45.3925258, "longitude": 11.2790763, "source": "osm", "_tags": {"addr:city": "San Bonifacio", "addr:country": "IT", "addr:housenumber": "5", "addr:postcode": "37047", "addr:street": "Via delle Fontane", "amenity": "hospital", "check_date": "2025-05-09", "emergency": "yes", "healthcare": "hospital", "name": "Ospedale Girolamo Fracastoro", "wheelchair": "yes"}}, {"name": "Ospedale di Marzana", "latitude": 45.5006604, "longitude": 11.0140144, "source": "osm", "_tags": {"amenity": "hospital", "emergency": "no", "healthcare": "hospital", "name": "Ospedale di Marzana"}}, {"name": "Istituti Ospedalieri Carlo Poma", "latitude": 45.1455753, "longitude": 10.7726659, "source": "osm", "_tags": {"amenity": "hospital", "emergency": "yes", "healthcare": "hospital", "name": "Istituti Ospedalieri Carlo Poma"}}, {"name": "Ospedale di Caprino Veronese", "latitude": 45.6088675, "longitude": 10.7962521, "source": "osm", "_tags": {"addr:postcode": "37013", "amenity": "hospital", "healthcare": "hospital", "name": "Ospedale di Caprino Veronese", "old_name": "Ospedale Civile di Caprino Veronese"}}, {"name": "Casa di Cura Privata di S. M. Maddalena", "latitude": 44.8919528, "longitude": 11.6115196, "source": "osm", "_tags": {"addr:city": "Occhiobello", "addr:housenumber": "2", "addr:postcode": "45030", "addr:street": "Via Gorizia", "amenity": "hospital", "building": "yes", "check_date": "2025-07-11", "email": "info@casadicura.it", "fax": "+39 0425 768 460", "name": "Casa di Cura Privata di S. M. Maddalena", "operator": "Casa di Cura Privata \"S. Maria Maddalena\" S.p.A.", "phone": "+39 0425 768 411", "ref:vatin": "IT00119690295", "website": "https://www.casadicura.it"}}, {"name": "Ospedale Civile di Vicenza \"San Bortolo\"", "latitude": 45.5564019, "longitude": 11.5459799, "source": "osm", "_tags": {"amenity": "hospital", "healthcare": "hospital", "name": "Ospedale Civile di Vicenza \"San Bortolo\"", "ref": "ULSS6", "toilets:wheelchair": "yes", "wheelchair": "yes", "wikidata": "Q3886631"}}, {"name": "Ospedale Civile di Vicenza \"San Bortolo\"", "latitude": 45.557571, "longitude": 11.5434675, "source": "osm", "_tags": {"amenity": "hospital", "healthcare": "hospital", "name": "Ospedale Civile di Vicenza \"San Bortolo\""}}, {"name": "Casa di cura Villa Berica", "latitude": 45.5485206, "longitude": 11.5593359, "source": "osm", "_tags": {"amenity": "hospital", "healthcare": "hospital", "name": "Casa di cura Villa Berica"}}, {"name": "Casa di Cura privata Eretenia", "latitude": 45.5436441, "longitude": 11.545564, "source": "osm", "_tags": {"amenity": "hospital", "healthcare": "hospital", "name": "Casa di Cura privata Eretenia", "wheelchair": "yes", "wikidata": "Q56604952"}}, {"name": "Complesso San Felice ULSS 8", "latitude": 45.543029, "longitude": 11.5324831, "source": "osm", "_tags": {"amenity": "hospital", "healthcare": "hospital", "name": "Complesso San Felice ULSS 8"}}, {"name": "Casa di Cura privata Villa Berica", "latitude": 45.5486657, "longitude": 11.559568, "source": "osm", "_tags": {"amenity": "hospital", "healthcare": "hospital", "name": "Casa di Cura privata Villa Berica", "wikidata": "Q56604942"}}, {"name": "Villa Margherita", "latitude": 45.5133422, "longitude": 11.5431245, "source": "osm", "_tags": {"amenity": "hospital", "healthcare": "hospital", "name": "Villa Margherita", "note": "Area di pertinenza ospedale", "website": "http://www.casadicuravillamargherita.it/"}}, {"name": "Ospedale \"Marcello Magalini\"", "latitude": 45.3482331, "longitude": 10.8387916, "source": "osm", "_tags": {"addr:city": "Villafranca di Verona", "addr:housename": "Marcello Magalini", "addr:housenumber": "5", "addr:postcode": "37069", "addr:street": "Via Ospedale Marcello Magalini", "amenity": "hospital", "emergency": "yes", "name": "Ospedale \"Marcello Magalini\"", "phone": "+39 045 6338111"}}, {"name": "Casa della Salute \"Finale Emilia\"", "latitude": 44.8332004, "longitude": 11.2978799, "source": "osm", "_tags": {"addr:city": "Finale Emilia", "addr:postcode": "41034", "addr:street": "Piazza Antonio Gramsci", "amenity": "hospital", "building": "yes", "emergency": "yes", "healthcare": "hospital", "name": "Casa della Salute \"Finale Emilia\"", "operator": "Azienda Unità Sanitaria Locale di Modena", "source": "Regione Emilia Romagna"}}, {"name": "Ospedali Riuniti Padova Sud \"Madre Teresa di Calcutta\"", "latitude": 45.2062605, "longitude": 11.7230225, "source": "osm", "_tags": {"addr:city": "Monselice", "addr:country": "IT", "addr:housenumber": "30", "addr:place": "Schiavonia", "addr:postcode": "35043", "addr:province": "Padova", "addr:street": "Via Albere", "amenity": "hospital", "emergency": "yes", "healthcare": "hospital", "healthcare:speciality": "general", "name": "Ospedali Riuniti Padova Sud \"Madre Teresa di Calcutta\"", "opening_hours": "24/7", "operator": "ULSS 17", "operator:type": "public", "wheelchair": "yes"}}, {"name": "Ospedale civile di Isola della Scala", "latitude": 45.2685122, "longitude": 11.0065093, "source": "osm", "_tags": {"amenity": "hospital", "disused": "yes", "healthcare": "hospital", "name": "Ospedale civile di Isola della Scala"}}, {"name": "Centro di Medicina dello Sport", "latitude": 44.8499115, "longitude": 11.6121097, "source": "osm", "_tags": {"amenity": "hospital", "building": "yes", "emergency": "no", "healthcare": "hospital", "healthcare:speciality": "vaccination", "name": "Centro di Medicina dello Sport"}}, {"name": "", "latitude": 45.1676408, "longitude": 11.0475003, "source": "osm", "_tags": {"amenity": "hospital", "healthcare": "hospital"}}, {"name": "", "latitude": 45.2604495, "longitude": 11.1197949, "source": "osm", "_tags": {"amenity": "hospital", "healthcare": "hospital"}}, {"name": "Ospedale Mater Salutis", "latitude": 45.185581, "longitude": 11.3158707, "source": "osm", "_tags": {"amenity": "hospital", "emergency": "yes", "healthcare": "hospital", "name": "Ospedale Mater Salutis"}}, {"name": "Ospedale Santa Maria Bianca", "latitude": 44.8828695, "longitude": 11.0647299, "source": "osm", "_tags": {"amenity": "hospital", "healthcare": "hospital", "name": "Ospedale Santa Maria Bianca", "wikidata": "Q28874308"}}, {"name": "Ospedale Chiarenzi", "latitude": 45.3756669, "longitude": 11.1324831, "source": "osm", "_tags": {"amenity": "hospital", "healthcare": "hospital", "name": "Ospedale Chiarenzi"}}, {"name": "Ospedale di Caprino Veronese", "latitude": 45.6088265, "longitude": 10.7961873, "source": "osm", "_tags": {"amenity": "hospital", "emergency": "yes", "healthcare": "hospital", "name": "Ospedale di Caprino Veronese"}}, {"name": "Centro Sanitario Polifunzionale Maraschin-Zannini", "latitude": 45.6566383, "longitude": 11.6021371, "source": "osm", "_tags": {"amenity": "hospital", "building": "yes", "healthcare": "hospital", "name": "Centro Sanitario Polifunzionale Maraschin-Zannini"}}, {"name": "", "latitude": 45.6565644, "longitude": 11.6018877, "source": "osm", "_tags": {"amenity": "hospital", "healthcare": "hospital", "note": "Area di pertinenza ospedale"}}, {"name": "Ospedale di Arzignano", "latitude": 45.525998, "longitude": 11.3315677, "source": "osm", "_tags": {"amenity": "hospital", "emergency": "yes", "name": "Ospedale di Arzignano"}}, {"name": "Ospedale di Montecchio Maggiore", "latitude": 45.509035, "longitude": 11.3991059, "source": "osm", "_tags": {"amenity": "hospital", "emergency": "yes", "healthcare": "hospital", "name": "Ospedale di Montecchio Maggiore", "note": "Aree destinate a servizi pubblici, militari e privati verificare tipologia landuse tramite ortofoto/controllo in loco."}}, {"name": "Clinica San Clemente", "latitude": 45.1469656, "longitude": 10.7707247, "source": "osm", "_tags": {"amenity": "hospital", "healthcare": "hospital", "name": "Clinica San Clemente"}}, {"name": "Distretto sanitario", "latitude": 45.762295, "longitude": 11.4317616, "source": "osm", "_tags": {"addr:city": "Piovene Rocchette", "addr:postcode": "36013", "addr:street": "Piazzale Vittoria", "amenity": "hospital", "building": "hospital", "emergency": "no", "name": "Distretto sanitario"}}, {"name": "Distretto Socio-Sanitario - ULSS 7 Pedemontana", "latitude": 45.730935, "longitude": 11.5190291, "source": "osm", "_tags": {"addr:city": "Zugliano", "addr:housenumber": "1", "addr:postcode": "36030", "addr:street": "Via G. Galilei", "amenity": "hospital", "healthcare": "hospital", "name": "Distretto Socio-Sanitario - ULSS 7 Pedemontana"}}, {"name": "", "latitude": 45.7439366, "longitude": 11.6505101, "source": "osm", "_tags": {"amenity": "hospital", "healthcare": "hospital", "note": "Area di pertinenza ospedale"}}, {"name": "Centro polifunzionale di Valeggio sul Mincio - ULS22", "latitude": 45.3574077, "longitude": 10.7418015, "source": "osm", "_tags": {"addr:city": "Valeggio sul Mincio", "addr:country": "IT", "addr:street": "Via Santa Maria Crocefissa", "amenity": "hospital", "building": "hospital", "check_date": "2024-08-23", "emergency": "no", "healthcare": "hospital", "name": "Centro polifunzionale di Valeggio sul Mincio - ULS22"}}, {"name": "Casa della Salute - ULSS 7 Pedemontana", "latitude": 45.7207714, "longitude": 11.3561803, "source": "osm", "_tags": {"amenity": "hospital", "check_date": "2025-08-14", "healthcare": "hospital", "name": "Casa della Salute - ULSS 7 Pedemontana", "note": "Area di pertinenza ospedale", "operator": "ULSS 7 Pedemontana", "operator:type": "public"}}, {"name": "", "latitude": 45.7184302, "longitude": 11.5666153, "source": "osm", "_tags": {"amenity": "hospital", "building": "church", "healthcare": "hospital"}}, {"name": "Ospedale Sacro Cuore Don Calabria", "latitude": 45.5297714, "longitude": 10.9373628, "source": "osm", "_tags": {"amenity": "hospital", "emergency": "yes", "name": "Ospedale Sacro Cuore Don Calabria", "website": "http://www.sacrocuoredoncalabria.it", "wikidata": "Q3886626", "wikipedia": "it:Ospedale Sacro Cuore Don Calabria"}}, {"name": "Poli ambulatorio", "latitude": 45.0404305, "longitude": 10.9281822, "source": "osm", "_tags": {"amenity": "hospital", "healthcare": "hospital", "name": "Poli ambulatorio"}}, {"name": "Neuropsichiatria infantile territoriale", "latitude": 45.1540562, "longitude": 10.7809181, "source": "osm", "_tags": {"amenity": "hospital", "name": "Neuropsichiatria infantile territoriale", "wheelchair": "yes"}}, {"name": "R.S.A. Isabella d'Este - R.S.A. Luigi Bianchi", "latitude": 45.1529903, "longitude": 10.7750552, "source": "osm", "_tags": {"amenity": "hospital", "healthcare": "hospital", "name": "R.S.A. Isabella d'Este - R.S.A. Luigi Bianchi"}}, {"name": "Ospedale San Giovanni Battista", "latitude": 45.3852143, "longitude": 11.3934806, "source": "osm", "_tags": {"amenity": "hospital", "name": "Ospedale San Giovanni Battista"}}, {"name": "Distretto Sanitario 3 di Cerea", "latitude": 45.1907577, "longitude": 11.2231344, "source": "osm", "_tags": {"addr:city": "Cerea", "addr:housenumber": "23", "addr:postcode": "37053", "addr:street": "Via Monte Carega", "amenity": "hospital", "healthcare": "hospital", "name": "Distretto Sanitario 3 di Cerea", "operator": "ULSS 9 Scaligera", "phone": "+39044230500"}}, {"name": "Casa di Riposo di Lonigo", "latitude": 45.3844946, "longitude": 11.4011386, "source": "osm", "_tags": {"amenity": "hospital", "name": "Casa di Riposo di Lonigo"}}, {"name": "Ospedale Alto Vicentino - ULSS 7 Pedemontana", "latitude": 45.7268763, "longitude": 11.4147232, "source": "osm", "_tags": {"amenity": "hospital", "check_date": "2025-03-10", "healthcare": "hospital", "name": "Ospedale Alto Vicentino - ULSS 7 Pedemontana", "operator": "ULSS 7 Pedemontana", "operator:type": "public"}}, {"name": "Ospedale Orlandi", "latitude": 45.4757237, "longitude": 10.8490375, "source": "osm", "_tags": {"addr:street": "Via Ospedale", "amenity": "hospital", "emergency": "yes", "fax": "+39 045 7151979", "healthcare": "hospital", "name": "Ospedale Orlandi", "operator": "ULSS 22", "operator:type": "public", "phone": "+39 045 6712111", "website": "http://www.ulss22.ven.it/context.jsp?ID_LINK=79&area=7"}}, {"name": "Complesso Ospedaliero di Noventa Vicentina", "latitude": 45.2941191, "longitude": 11.534627, "source": "osm", "_tags": {"amenity": "hospital", "emergency": "yes", "healthcare": "hospital", "name": "Complesso Ospedaliero di Noventa Vicentina", "operator": "ULSS n.8 Vicenza"}}, {"name": "ASL 15 Alta Padovana - Distaccamento Carmignano di Brenta", "latitude": 45.626997, "longitude": 11.7025417, "source": "osm", "_tags": {"amenity": "hospital", "healthcare": "hospital", "name": "ASL 15 Alta Padovana - Distaccamento Carmignano di Brenta", "operator": "ASL", "operator:wikidata": "Q3631467"}}, {"name": "Poliambulatori - Asst Mantova", "latitude": 45.1640491, "longitude": 10.7901477, "source": "osm", "_tags": {"amenity": "hospital", "name": "Poliambulatori - Asst Mantova"}}, {"name": "Ospedale San Luca", "latitude": 45.0297952, "longitude": 11.4666014, "source": "osm", "_tags": {"amenity": "hospital", "name": "Ospedale San Luca"}}, {"name": "", "latitude": 45.556869, "longitude": 11.5140328, "source": "osm", "_tags": {"amenity": "hospital", "healthcare": "hospital"}}, {"name": "Polo Emergenze Finale Emilia", "latitude": 44.8377303, "longitude": 11.2760781, "source": "osm", "_tags": {"addr:city": "Finale Emilia", "addr:housenumber": "48b", "addr:postcode": "41043", "addr:street": "Via per Modena", "amenity": "hospital", "emergency": "ambulance_station", "healthcare": "hospital", "name": "Polo Emergenze Finale Emilia", "operator": "Croce Rossa Italiana - Comitato di Finale Emilia"}}, {"name": "Villa Al Lago", "latitude": 45.1564872, "longitude": 10.7707532, "source": "osm", "_tags": {"amenity": "hospital", "healthcare": "hospital", "name": "Villa Al Lago"}}, {"name": "Ospedale di Suzzara", "latitude": 44.9871019, "longitude": 10.7546543, "source": "osm", "_tags": {"addr:city": "Suzzara", "addr:housenumber": "14b", "addr:postcode": "46029", "addr:street": "Via Generale Cantore", "amenity": "hospital", "beds": "123", "email": "urp@ospedaledisuzzara.it", "emergency": "yes", "healthcare": "hospital", "name": "Ospedale di Suzzara", "operator": "Ospedale di Suzzara S.p.A.", "phone": "+39 03 76 51 74 17", "website": "https://ospedaledisuzzara.it/", "wikidata": "Q98110174"}}, {"name": "Ospedale San Lorenzo", "latitude": 45.6469383, "longitude": 11.3075042, "source": "osm", "_tags": {"addr:city": "Valdagno", "addr:housenumber": "1", "addr:postcode": "36078", "addr:street": "Via Galileo Galilei", "amenity": "hospital", "emergency": "yes", "healthcare": "hospital", "name": "Ospedale San Lorenzo", "note": "Area di pertinenza ospedale"}}, {"name": "Ospedale di Malcesine", "latitude": 45.7516153, "longitude": 10.7968673, "source": "osm", "_tags": {"amenity": "hospital", "healthcare": "hospital", "name": "Ospedale di Malcesine"}}, {"name": "U.S. Army Health Center - Vicenza", "latitude": 45.5487542, "longitude": 11.5781187, "source": "osm", "_tags": {"amenity": "hospital", "healthcare": "hospital", "name": "U.S. Army Health Center - Vicenza"}}, {"name": "Ospedale di Montagnana", "latitude": 45.2369096, "longitude": 11.459492, "source": "osm", "_tags": {"addr:city": "Montagnana", "addr:housenumber": "16", "addr:postcode": "35044", "addr:street": "Via Ospedale", "amenity": "hospital", "building": "hospital", "email": "cartelle.cliniche.montagnana@aulss6.veneto.it", "emergency": "yes", "fax": "+39 0429 808691", "name": "Ospedale di Montagnana", "phone": "+390429808111", "website": "https://www.aulss6.veneto.it/Ospedale-di-Montagnana"}}, {"name": "", "latitude": 45.4846049, "longitude": 11.2538185, "source": "osm", "_tags": {"addr:city": "Montecchia di Crosara", "addr:housenumber": "12", "addr:postcode": "37030", "addr:street": "Piazza Umberto I", "amenity": "hospital", "healthcare": "hospital", "operator": "ASL", "operator:type": "public", "operator:wikidata": "Q3631467"}}, {"name": "", "latitude": 45.1453076, "longitude": 10.7724353, "source": "osm", "_tags": {"amenity": "hospital", "healthcare": "hospital", "type": "multipolygon"}}, {"name": "Azienda USL di Ferrara", "latitude": 44.8406998, "longitude": 11.6089097, "source": "osm", "_tags": {"amenity": "hospital", "building": "yes", "emergency": "no", "name": "Azienda USL di Ferrara", "type": "multipolygon"}}, {"name": "Azienda Ospedaliera Carlo Poma", "latitude": 45.0344697, "longitude": 11.1155408, "source": "osm", "_tags": {"amenity": "hospital", "building": "yes", "healthcare": "hospital", "name": "Azienda Ospedaliera Carlo Poma", "type": "multipolygon"}}, {"name": "Ospedale Civile Maggiore", "latitude": 45.4529036, "longitude": 10.9831825, "source": "osm", "_tags": {"addr:city": "Verona", "addr:housenumber": "1", "addr:postcode": "37126", "addr:street": "Piazzale Aristide Stefani", "amenity": "hospital", "barrier": "wall", "emergency": "yes", "healthcare": "hospital", "name": "Ospedale Civile Maggiore", "type": "multipolygon", "wheelchair": "yes", "wikidata": "Q3886599"}}]