[{"name": "Specijalna bolnica dr. Nemec", "latitude": 45.3640563, "longitude": 14.3134832, "source": "osm", "_tags": {"addr:housenumber": "30A", "addr:street": "Ulica dalmatinskih brigada", "amenity": "hospital", "healthcare": "hospital", "healthcare:speciality": "orthopaedics", "name": "Specijalna bolnica dr. Nemec", "operator": "Specijalna bolnica dr. Nemec", "operator:type": "private", "website": "https://www.bolnica-nemec.hr/"}}, {"name": "Zdravstveni dom Cerknica", "latitude": 45.7912743, "longitude": 14.365674, "source": "osm", "_tags": {"addr:city": "Cerknica", "addr:housenumber": "17", "addr:postcode": "1380", "addr:street": "Cesta 4. maja", "amenity": "hospital", "email": "info@zd-cerknica.si", "healthcare": "hospital", "healthcare:speciality": "general;gynaecology;physiatry", "name": "Zdravstveni dom Cerknica", "phone": "+38617050100", "website": "https://zd-cerknica.si/", "wheelchair": "yes"}}, {"name": "Ingresso Pronto Soccorso Pediatrico", "latitude": 45.6357628, "longitude": 13.7849923, "source": "osm", "_tags": {"amenity": "hospital", "emergency": "yes", "healthcare": "hospital", "healthcare:speciality": "paediatrics", "name": "Ingresso Pronto Soccorso Pediatrico", "operator": "ASU GI", "operator:type": "public"}}, {"name": "Csm \"Gambini\"", "latitude": 45.6454736, "longitude": 13.7839652, "source": "osm", "_tags": {"amenity": "hospital", "healthcare": "hospital", "healthcare:speciality": "psychiatry", "name": "Csm \"Gambini\""}}, {"name": "CSM \"La maddalena\"", "latitude": 45.6373932, "longitude": 13.7872841, "source": "osm", "_tags": {"amenity": "hospital", "healthcare": "hospital", "healthcare:speciality": "psychiatry", "name": "CSM \"La maddalena\""}}, {"name": "Dom zdravlja Rijeka – Ginekološka ambulanta", "latitude": 45.3321374, "longitude": 14.4270978, "source": "osm", "_tags": {"addr:city": "Rijeka", "addr:housenumber": "42", "addr:postcode": "51000", "addr:street": "Krešimirova ulica", "amenity": "hospital", "healthcare": "hospital", "healthcare:speciality": "gynaecology", "mobile": "051658111", "name": "Dom zdravlja Rijeka – Ginekološka ambulanta", "note": "Potrebna dokumentacija: Zdravstvena iskaznica, uputnica", "opening_hours": "Pon-Pet 08:00-16:00"}}, {"name": "Klinički bolnički centar Rijeka, lokacija Sušak", "latitude": 45.3262407, "longitude": 14.4700462, "source": "osm", "_tags": {"addr:city": "Rijeka", "addr:housenumber": "3", "addr:postcode": "51000", "addr:street": "Ulica Tome Strižića", "amenity": "hospital", "healthcare": "hospital", "name": "Klinički bolnički centar Rijeka, lokacija Sušak", "operator": "Klinički bolnički centar Rijeka", "operator:type": "public", "website": "https://kbc-rijeka.hr"}}, {"name": "Klinika za ortopediju Lovran", "latitude": 45.2990138, "longitude": 14.2783319, "source": "osm", "_tags": {"addr:housenumber": "1", "addr:street": "Šetalište maršala Tita", "amenity": "hospital", "healthcare": "hospital", "healthcare:speciality": "orthopaedics", "name": "Klinika za ortopediju Lovran", "operator": "Klinika za ortopediju Lovran", "operator:type": "public", "website": "http://www.orto-lovran.hr/", "wheelchair": "yes"}}, {"name": "Klinički bolnički centar Rijeka", "latitude": 45.3323592, "longitude": 14.4274398, "source": "osm", "_tags": {"addr:city": "Rijeka", "addr:housenumber": "42", "addr:postcode": "51000", "addr:street": "Krešimirova ulica", "amenity": "hospital", "emergency": "yes", "healthcare": "hospital", "name": "Klinički bolnički centar Rijeka", "name:it": "Centro clinico ospedaliero Fiume", "operator": "Klinički bolnički centar Rijeka", "operator:type": "public", "website": "https://kbc-rijeka.hr", "wheelchair": "yes", "wikidata": "Q11107618", "wikipedia": "hr:KBC Rijeka"}}, {"name": "Bolnišnica Sežana", "latitude": 45.7094034, "longitude": 13.8673676, "source": "osm", "_tags": {"addr:city": "Sežana", "addr:country": "SI", "addr:housenumber": "4", "addr:postcode": "6210", "addr:street": "Cankarjeva ulica", "amenity": "hospital", "building": "yes", "email": "bolnica.sezana@siol.net", "fax": "+386 5 7074019", "healthcare": "hospital", "name": "Bolnišnica Sežana", "name:it": "Ospedale di Sesana", "phone": "+386 5 7074000", "website": "http://www.bolnisnica-sezana.si/", "wheelchair": "yes"}}, {"name": "Bolnica za ženske bolezni in porodnišnica", "latitude": 45.7715867, "longitude": 14.2102332, "source": "osm", "_tags": {"addr:city": "Postojna", "addr:housenumber": "4", "addr:postcode": "6230", "addr:street": "Prečna ulica", "amenity": "hospital", "building": "yes", "email": "info@bolnisnica-po.si", "healthcare": "hospital", "name": "Bolnica za ženske bolezni in porodnišnica", "website": "https://www.bolnisnica-po.si/", "wheelchair": "yes"}}, {"name": "Zdravstveni dom - urgenca", "latitude": 45.5685471, "longitude": 14.2435019, "source": "osm", "_tags": {"addr:city": "Ilirska Bistrica", "addr:housenumber": "8", "addr:postcode": "6250", "addr:street": "Gregorčičeva cesta", "amenity": "hospital", "building": "yes", "healthcare": "hospital", "name": "Zdravstveni dom - urgenca"}}, {"name": "Valdoltra Ortopedska Bolnišnica / Ospedale ortopedico Valdoltra", "latitude": 45.5809788, "longitude": 13.72782, "source": "osm", "_tags": {"amenity": "hospital", "contact:email": "valdoltra@ob-valdoltra.si", "healthcare": "hospital", "name": "Valdoltra Ortopedska Bolnišnica / Ospedale ortopedico Valdoltra", "phone": "(05) 6696 100", "website": "https://www.ob-valdoltra.si/", "wikidata": "Q7909443", "wikipedia": "en:Valdoltra Orthopedic Hospital"}}, {"name": "Opća bolnica Pula", "latitude": 44.8665023, "longitude": 13.8565738, "source": "osm", "_tags": {"addr:housenumber": "24A", "addr:street": "Santoriova ulica", "amenity": "hospital", "contact:whatsapp": "+38599 376 6646", "email": "obpula@obpula.hr", "healthcare": "hospital", "name": "Opća bolnica Pula", "operator": "Opća bolnica Pula", "operator:type": "public", "website": "https://www.obpula.hr", "wikidata": "Q12638948", "wikipedia": "hr:Opća bolnica Pula"}}, {"name": "Ospedale Maggiore", "latitude": 45.6494989, "longitude": 13.7820718, "source": "osm", "_tags": {"addr:city": "Trieste", "addr:housenumber": "1", "addr:street": "Piazza dell'Ospitale", "amenity": "hospital", "check_date": "2025-04-03", "emergency": "yes", "healthcare": "hospital", "name": "Ospedale Maggiore", "operator": "Azienda Sanitaria Universitaria Integrata di Trieste"}}, {"name": "Ospedale di Cattinara", "latitude": 45.6335921, "longitude": 13.8269417, "source": "osm", "_tags": {"addr:city": "Trieste", "addr:housenumber": "447", "addr:postcode": "34149", "addr:street": "Strada di Fiume", "amenity": "hospital", "emergency": "yes", "healthcare": "hospital", "name": "Ospedale di Cattinara", "name:sl": "Bolnišnica na Katinari", "operator": "Ospedali Riuniti", "operator:type": "public", "start_date": "1984-03-19", "website": "https://asugi.sanita.fvg.it/it/presidi-ospedalieri/ospedale-cattinara/", "wikidata": "Q30279696", "wikipedia": "it:Ospedale di Cattinara"}}, {"name": "IRCCS Materno Infantile Burlo Garofolo", "latitude": 45.6359419, "longitude": 13.7847928, "source": "osm", "_tags": {"amenity": "hospital", "healthcare": "hospital", "loc_name": "Burlo", "name": "IRCCS Materno Infantile Burlo Garofolo", "wikidata": "Q4999310", "wikipedia": "it:Ospedale infantile Burlo Garofolo"}}, {"name": "Sanatorio Triestino", "latitude": 45.6461617, "longitude": 13.7894871, "source": "osm", "_tags": {"amenity": "hospital", "emergency": "no", "healthcare": "hospital", "healthcare:speciality": "general", "name": "Sanatorio Triestino", "old_name": "Sanatorio Tergestino", "website": "http://sanatoriotriestino.it/"}}, {"name": "Thalassotherapia Crikvenica", "latitude": 45.1860427, "longitude": 14.6769583, "source": "osm", "_tags": {"addr:city": "Crikvenica", "addr:housenumber": "21", "addr:postcode": "51260", "addr:street": "Gajevo šetalište", "amenity": "hospital", "description": "Specijalna bolnica za medicinsku rehabilitaciju.", "email": "info@thalasso-ck.hr", "fax": "+385 51 785 062", "healthcare": "hospital", "name": "Thalassotherapia Crikvenica", "opening_hours": "Mo-Su 06:00-22:00", "operator": "Thalassotherapia - Crikvenica Specijalna bolnica za medicinsku rehabilitaciju Primorsko-goranske županije", "operator:type": "public", "phone": "+385 51 407 666", "start_date": "1910", "website": "https://thalasso-ck.hr", "wikidata": "Q97226928", "wikipedia": "hr:Thalassotherapia Crikvenica"}}, {"name": "Thalassotherapia Opatija", "latitude": 45.3289567, "longitude": 14.3000432, "source": "osm", "_tags": {"addr:city": "Opatija", "addr:housenumber": "188", "addr:postcode": "51410", "addr:street": "Ulica maršala Tita", "amenity": "hospital", "description": "Specijalna bolnica za medicinsku rehabilitaciju.", "email": "thalassotherapia-opatija@ri.t-com.hr", "fax": "+385 51 271 424", "healthcare": "hospital", "healthcare:speciality": "physiatry", "name": "Thalassotherapia Opatija", "operator": "Thalassotherapia specijalna bolnica za medicinsku rehabilitaciju bolesti srca, pluća i reumatizma", "operator:type": "public", "phone": "+385 51 202 600", "ref:vatin": "HR35372335047", "start_date": "1889", "website": "https://www.thalassotherapia-opatija.hr", "wikidata": "Q16115051", "wikipedia": "hr:Thalassotherapia Opatija"}}, {"name": "Psihijatrijska bolnica Lopača", "latitude": 45.3783302, "longitude": 14.4412666, "source": "osm", "_tags": {"addr:housenumber": "11", "addr:place": "Lopača", "amenity": "hospital", "healthcare": "hospital", "healthcare:speciality": "psychiatry", "name": "Psihijatrijska bolnica Lopača", "operator": "Bolnica Lopača", "operator:type": "public", "website": "https://www.pbl.hr/"}}, {"name": "Zdravstveni dom", "latitude": 45.7719528, "longitude": 14.2107249, "source": "osm", "_tags": {"addr:city": "Postojna", "addr:housenumber": "2", "addr:postcode": "6230", "addr:street": "Prečna ulica", "amenity": "hospital", "building": "yes", "emergency": "yes", "healthcare": "hospital", "healthcare:speciality": "general", "name": "Zdravstveni dom", "type": "multipolygon", "website": "https://www.zd-po.si/"}}]