[{"name": "Centre psychiatrique de la Cellette", "latitude": 45.6406242, "longitude": 2.5133601, "source": "osm", "_tags": {"amenity": "hospital", "healthcare": "hospital", "healthcare:speciality": "psychiatry", "name": "Centre psychiatrique de la Cellette", "ref:FR:FINESS": "190000711", "type:FR:FINESS": "292"}}, {"name": "Centre de Soins de Suite et de Réadaptation Notre Dame – Bretenoux", "latitude": 44.9160557, "longitude": 1.8405224, "source": "osm", "_tags": {"amenity": "hospital", "healthcare": "hospital", "name": "Centre de Soins de Suite et de Réadaptation Notre Dame – Bretenoux", "operator": "Institut Camille Miret", "phone": "+33 5 65 10 30 00", "ref:FR:FINESS": "460006083", "type:FR:FINESS": "109", "website": "https://www.institut-camille-miret.fr/store/centre-de-soins-de-suite-et-de-readaptation-notre-dame-bretenoux/"}}, {"name": "Centre hospitalier Henri Mondor", "latitude": 44.9264994, "longitude": 2.4361419, "source": "osm", "_tags": {"amenity": "hospital", "emergency": "yes", "fax": "+33 4 71 46 46 35", "healthcare": "hospital", "healthcare:speciality": "maternity;general;psychiatry;dentistry;ophthalmology;surgery;emergency;dermatology;paediatrics;cardiology;biology;radiology;geriatrics;intensive", "name": "Centre hospitalier Henri Mondor", "operator:type": "public", "phone": "+33 4 71 46 56 56", "ref:FR:FINESS": "150000040", "source": "cadastre-dgi-fr source : Direction Générale des Impôts - Cadastre;mise à jour : 2008", "type:FR:FINESS": "355", "website": "https://www.ch-aurillac.fr/", "wheelchair": "yes"}}, {"name": "Hôpital Psychiatrique", "latitude": 44.9258011, "longitude": 2.4118568, "source": "osm", "_tags": {"amenity": "hospital", "healthcare": "hospital", "healthcare:speciality": "psychiatry", "name": "Hôpital Psychiatrique", "ref:FR:FINESS": "150780823", "source": "cadastre-dgi-fr source : Direction Générale des Impôts - Cadastre;mise à jour : 2006", "type:FR:FINESS": "355"}}, {"name": "Centre hospitalier de Mauriac", "latitude": 45.2176864, "longitude": 2.3400875, "source": "osm", "_tags": {"amenity": "hospital", "emergency": "yes", "fax": "+33 4 70 67 35 63", "healthcare": "hospital", "name": "Centre hospitalier de Mauriac", "operator:type": "public", "phone": "+33 4 71 67 33 33", "ref:FR:FINESS": "150000164", "source": "cadastre-dgi-fr source : Direction Générale des Impôts - Cadastre. Mise à jour : 2011", "type:FR:FINESS": "355", "website": "https://www.ch-mauriac.fr/"}}, {"name": "Centre hospitalier de Saint-Céré", "latitude": 44.8627948, "longitude": 1.8876001, "source": "osm", "_tags": {"alt_name": "Centre hospitalier Saint-Jacques", "amenity": "hospital", "emergency": "yes", "fax": "+33 5 65 38 38 10", "healthcare": "hospital", "name": "Centre hospitalier de Saint-Céré", "operator:type": "public", "phone": "+33 5 65 10 40 00", "ref:FR:FINESS": "460000052", "type:FR:FINESS": "355", "website": "http://ch-stcere.fr/"}}, {"name": "Centre hospitalier de Tulle - Cœur de Corrèze", "latitude": 45.2709912, "longitude": 1.7706256, "source": "osm", "_tags": {"alt_name": "Centre hospitalier Coeur de Corrèze", "amenity": "hospital", "emergency": "yes", "fax": "+33 5 55 29 79 31", "healthcare": "hospital", "healthcare:speciality": "general", "name": "Centre hospitalier de Tulle - Cœur de Corrèze", "operator": "Centre hospitalier de Tulle - Coeur de Corrèze", "operator:type": "public", "phone": "+33 5 55 29 79 00", "ref:FR:FINESS": "190000026", "type:FR:FINESS": "355", "website": "https://www.ch-tulle.fr/"}}, {"name": "Le Chandou", "latitude": 45.2839311, "longitude": 1.7669954, "source": "osm", "_tags": {"amenity": "hospital", "healthcare": "hospital", "name": "Le Chandou", "operator": "Centre Hospitalier de Tulle", "ref:FR:FINESS": "190002493", "source": "Le ministère des solidarités et de la santé - 08/2018", "type:FR:FINESS": "355"}}, {"name": "Centre médico-chirurgical", "latitude": 44.9089673, "longitude": 2.426574, "source": "osm", "_tags": {"amenity": "hospital", "healthcare": "hospital", "name": "Centre médico-chirurgical", "ref:FR:FINESS": "150780732", "source": "cadastre-dgi-fr source : Direction Générale des Impôts - Cadastre. Mise à jour : 2018", "type:FR:FINESS": "365"}}, {"name": "Centre hospitalier de Haute-Corrèze", "latitude": 45.5432187, "longitude": 2.3122095, "source": "osm", "_tags": {"amenity": "hospital", "email": "direction@ch-ussel.fr", "emergency": "yes", "fax": "+33 5 55 96 40 01", "healthcare": "hospital", "name": "Centre hospitalier de Haute-Corrèze", "operator:type": "public", "phone": "+33 5 55 96 40 00", "ref:FR:FINESS": "190000091", "type:FR:FINESS": "355", "website": "https://www.ch-ussel.fr/", "wikidata": "Q28496275", "wikipedia": "fr:Centre hospitalier de Haute-Corrèze"}}, {"name": "Hôpital de Bort-les-Orgues", "latitude": 45.3927298, "longitude": 2.4974973, "source": "osm", "_tags": {"amenity": "hospital", "healthcare": "hospital", "name": "Hôpital de Bort-les-Orgues", "ref:FR:FINESS": "190000034", "type:FR:FINESS": "106", "wikidata": "Q112991477"}}, {"name": "Centre Hospitalier l'Atrium", "latitude": 45.6550268, "longitude": 2.4656151, "source": "osm", "_tags": {"amenity": "hospital", "name": "Centre Hospitalier l'Atrium"}}]