[{"name": "First Aid", "latitude": 45.6301937, "longitude": 13.0174359, "source": "osm", "_tags": {"amenity": "hospital", "emergency": "first_aid_kit", "name": "First Aid"}}, {"name": "One Smile centro dentale", "latitude": 45.814351, "longitude": 13.5127757, "source": "osm", "_tags": {"addr:city": "Monfalcone", "addr:housenumber": "60", "addr:postcode": "34074", "addr:street": "Via Primo Maggio", "amenity": "hospital", "email": "info@onesmile.it", "healthcare": "hospital", "healthcare:speciality": "dentistry;dentist;paediatric_dentistry;implantology;endodontics;dental_hygienist", "internet_access": "wlan", "name": "One Smile centro dentale", "operator": "One Smile centro dentale", "operator:type": "business", "wheelchair": "yes"}}, {"name": "Pronto Soccorso Ospedale Civile di Latisana", "latitude": 45.7696004, "longitude": 13.0017957, "source": "osm", "_tags": {"addr:city": "Latisana", "addr:housenumber": "45", "addr:postcode": "33053", "addr:street": "Via Sabbionera", "amenity": "hospital", "emergency": "yes", "healthcare": "hospital", "name": "Pronto Soccorso Ospedale Civile di Latisana"}}, {"name": "", "latitude": 45.4328986, "longitude": 13.5248418, "source": "osm", "_tags": {"contact:phone": "+385 52 702222", "healthcare": "hospital", "healthcare:speciality": "emergency", "lastcheck": "2019-08-30", "name:de": "Notaufnahme", "name:en": "Emergency services"}}, {"name": "Ospedale di Portogruaro", "latitude": 45.7709907, "longitude": 12.8419048, "source": "osm", "_tags": {"access": "yes", "addr:city": "Portogruaro", "addr:housenumber": "1", "addr:postcode": "30026", "addr:street": "Via Piemonte", "amenity": "hospital", "entrance": "yes", "name": "Ospedale di Portogruaro", "operator": "ULSS4", "phone": "+3904217641", "wheelchair": "yes"}}, {"name": "Casa della Comunità ULSS4", "latitude": 45.7631576, "longitude": 12.9932335, "source": "osm", "_tags": {"amenity": "hospital", "healthcare": "hospital", "name": "Casa della Comunità ULSS4", "operator": "ULSS 4 \"Veneto Orientale\"", "operator:type": "public"}}, {"name": "Ex Silos", "latitude": 45.7704033, "longitude": 12.8392988, "source": "osm", "_tags": {"amenity": "hospital", "healthcare": "hospital", "name": "Ex Silos"}}, {"name": "Ospedale di Portogruaro", "latitude": 45.769986, "longitude": 12.8418242, "source": "osm", "_tags": {"amenity": "hospital", "emergency": "yes", "healthcare": "hospital", "name": "Ospedale di Portogruaro"}}, {"name": "Casa di Riposo", "latitude": 45.7796427, "longitude": 12.8390261, "source": "osm", "_tags": {"amenity": "hospital", "healthcare": "hospital", "name": "Casa di Riposo"}}, {"name": "Pronto Soccorso Ospedale Caorle", "latitude": 45.6018524, "longitude": 12.8814368, "source": "osm", "_tags": {"addr:city": "Caorle", "amenity": "hospital", "building": "yes", "emergency": "yes", "healthcare": "hospital", "name": "Pronto Soccorso Ospedale Caorle"}}, {"name": "Casa di Cura Pineta del Carso", "latitude": 45.7509656, "longitude": 13.6870113, "source": "osm", "_tags": {"amenity": "hospital", "email": "info@pinetadelcarso.it", "fax": "+39 040 201170", "healthcare": "hospital", "name": "Casa di Cura Pineta del Carso", "opening_hours": "Mo-Fr 08:00-18:30", "operator": "Pineta del Carso S.p.A.", "phone": "+39 040 3784111", "ref:vatin": "IT00051070324", "website": "http://www.pinetadelcarso.it/"}}, {"name": "Floramare resort zdravja", "latitude": 45.5408164, "longitude": 13.6585877, "source": "osm", "_tags": {"addr:city": "Izola / Isola", "addr:housenumber": "1", "addr:postcode": "6310", "addr:street": "Levstikova ulica", "amenity": "social_facility", "building": "yes", "healthcare": "hospital", "name": "Floramare resort zdravja", "phone": "+386 5 660 05 00", "social_facility": "nursing_home", "social_facility:for": "disabled"}}, {"name": "Pronto Soccorso e Guardia Medica Turistica", "latitude": 45.6817412, "longitude": 13.1204972, "source": "osm", "_tags": {"amenity": "hospital", "building": "hospital", "building:colour": "black", "building:levels": "1", "building:material": "tiles", "healthcare": "hospital", "name": "Pronto Soccorso e Guardia Medica Turistica", "name:de": "Erste-Hilfe-Stelle und Sanitatsdienst Fur Touristen", "name:en": "First Aid Station and Tourist Medical Service", "roof:colour": "grey", "roof:levels": "0", "roof:shape": "flat", "wheelchair": "yes"}}, {"name": "Bolnica za ortopediju i rehabilitaciju Martin Horvat Rovinj", "latitude": 45.098603, "longitude": 13.6337405, "source": "osm", "_tags": {"addr:housenumber": "2", "addr:street": "Ulica Luigija Montija", "amenity": "hospital", "emergency": "yes", "healthcare": "hospital", "healthcare:speciality": "physiatry", "name": "Bolnica za ortopediju i rehabilitaciju Martin Horvat Rovinj", "operator": "Specijalna bolnica Martin Horvat Rovinj-Rovigno", "operator:type": "public", "toilets:wheelchair": "yes", "website": "https://www.bolnica-rovinj.hr/", "wheelchair": "yes"}}, {"name": "", "latitude": 45.0807157, "longitude": 13.640682, "source": "osm", "_tags": {"amenity": "hospital", "emergency": "yes"}}, {"name": "", "latitude": 45.7912511, "longitude": 12.8482655, "source": "osm", "_tags": {"amenity": "hospital", "healthcare": "hospital"}}, {"name": "Ospedale San Polo", "latitude": 45.8159639, "longitude": 13.519067, "source": "osm", "_tags": {"amenity": "hospital", "healthcare": "hospital", "name": "Ospedale San Polo", "wheelchair": "yes"}}, {"name": "Valdoltra Ortopedska Bolnišnica / Ospedale ortopedico Valdoltra", "latitude": 45.5809788, "longitude": 13.72782, "source": "osm", "_tags": {"amenity": "hospital", "contact:email": "valdoltra@ob-valdoltra.si", "healthcare": "hospital", "name": "Valdoltra Ortopedska Bolnišnica / Ospedale ortopedico Valdoltra", "phone": "(05) 6696 100", "website": "https://www.ob-valdoltra.si/", "wikidata": "Q7909443", "wikipedia": "en:Valdoltra Orthopedic Hospital"}}, {"name": "Clinica Santa Eufemia - Grado Medical Center", "latitude": 45.6787546, "longitude": 13.3831631, "source": "osm", "_tags": {"addr:city": "Grado", "addr:housenumber": "2", "addr:postcode": "34073", "addr:street": "Via Conte di Grado", "amenity": "hospital", "contact:facebook": "https://m.facebook.com/100067090510472/", "contact:instagram": "https://www.instagram.com/clinica.santaeufemia/", "contact:phone": "+39 0431 476512", "contact:website": "https://www.clinicasantaeufemia.it/", "healthcare": "hospital", "name": "Clinica Santa Eufemia - Grado Medical Center"}}, {"name": "Pronto Soccorso Bibione", "latitude": 45.6454796, "longitude": 13.0539164, "source": "osm", "_tags": {"amenity": "hospital", "check_date": "2024-10-09", "emergency": "yes", "healthcare": "hospital", "healthcare:speciality": "emergency", "name": "Pronto Soccorso Bibione", "wheelchair": "yes"}}, {"name": "", "latitude": 45.5443284, "longitude": 13.6877384, "source": "osm", "_tags": {"amenity": "hospital", "healthcare": "hospital"}}, {"name": "Ospedale civile di Latisana", "latitude": 45.7694133, "longitude": 13.0028082, "source": "osm", "_tags": {"addr:city": "Latisana", "addr:housenumber": "45", "addr:postcode": "33053", "addr:street": "Via Sabbionera", "amenity": "hospital", "contact:email": "asufc@certsanita.fvg.it", "contact:fax": "+39 0431 520478", "contact:phone": "+39 0431 529111", "contact:website": "https://asufc.sanita.fvg.it/it/presidi-ospedalieri/ospedale_latisana_palmanova/", "healthcare": "hospital", "name": "Ospedale civile di Latisana"}}, {"name": "", "latitude": 45.7837356, "longitude": 13.0041009, "source": "osm", "_tags": {"amenity": "hospital", "healthcare": "hospital"}}, {"name": "", "latitude": 45.7817412, "longitude": 12.848434, "source": "osm", "_tags": {"amenity": "hospital", "healthcare": "hospital"}}, {"name": "Centro medico San Biagio", "latitude": 45.7782218, "longitude": 12.9026104, "source": "osm", "_tags": {"amenity": "hospital", "healthcare": "hospital", "name": "Centro medico San Biagio"}}]