[{"name": "Ospedale Civile di Chivasso", "latitude": 45.1915583, "longitude": 7.8948609, "source": "osm", "_tags": {"addr:housenumber": "42", "addr:street": "Via Paolo Regis", "amenity": "hospital", "healthcare": "hospital", "name": "Ospedale Civile di Chivasso", "wheelchair": "yes"}}, {"name": "Continuità Assistenziale (Ex Guardia Medica) ASL-Ambulatorio", "latitude": 45.7599564, "longitude": 7.7318392, "source": "osm", "_tags": {"addr:city": "Brusson", "addr:country": "IT", "addr:postcode": "11022", "amenity": "hospital", "check_date": "2024-08-18", "name": "Continuità Assistenziale (Ex Guardia Medica) ASL-Ambulatorio"}}, {"name": "Poliambulatorio di Donnas", "latitude": 45.6033874, "longitude": 7.7735943, "source": "osm", "_tags": {"addr:city": "Donnas", "addr:country": "IT", "addr:street": "Via Roma", "amenity": "hospital", "contact:fax": "+39 0125 804191", "contact:phone": "+39 0125 806300;+39 0125 807949;+39 0125 807693", "healthcare": "hospital", "name": "Poliambulatorio di Donnas"}}, {"name": "Casa Di Cura Per La Salute Della Mente", "latitude": 45.755019, "longitude": 7.737931, "source": "osm", "_tags": {"amenity": "hospital", "name": "Casa Di Cura Per La Salute Della Mente"}}, {"name": "Guardia Medica di Ghemme", "latitude": 45.5980945, "longitude": 8.4195093, "source": "osm", "_tags": {"amenity": "hospital", "barrier": "entrance", "emergency": "yes", "foot": "yes", "name": "Guardia Medica di Ghemme"}}, {"name": "Ospedale di Ghemme", "latitude": 45.5981634, "longitude": 8.419646, "source": "osm", "_tags": {"amenity": "hospital", "barrier": "entrance", "emergency": "no", "foot": "yes", "name": "Ospedale di Ghemme"}}, {"name": "Clinica Santa Rita", "latitude": 45.3123737, "longitude": 8.4223064, "source": "osm", "_tags": {"addr:city": "Vercelli", "addr:housenumber": "14-16", "addr:postcode": "13100", "addr:street": "Viale dell'Aeronautica Francis Lombardi", "amenity": "hospital", "check_date": "2025-02-27", "contact:email": "direzione.generale@clinicasrita.legalmail.it", "contact:phone": "+39 0161 2221", "contact:website": "http://www.clinicasrita.it/", "healthcare": "hospital", "name": "Clinica Santa Rita", "wheelchair": "yes"}}, {"name": "Pronto Soccorso ASL Novara", "latitude": 45.4423457, "longitude": 8.6221182, "source": "osm", "_tags": {"amenity": "hospital", "emergency": "yes", "healthcare": "hospital", "name": "Pronto Soccorso ASL Novara"}}, {"name": "Hospice Il Gelso", "latitude": 44.9152, "longitude": 8.6229988, "source": "osm", "_tags": {"addr:city": "Alessandria", "addr:housenumber": "41", "addr:postcode": "15121", "addr:street": "Via San Pio V", "amenity": "hospital", "beds": "16", "description": "L'Hospice è una casa che accoglie persone in fase avanzata di malattia che hanno bisogno di cure e sollievo dal dolore. E' un servizio rivolto anche ai familiari, per sostenerli e rispondere alle loro esigenze psicologiche, sociali e spirituali nel percor", "email": "vghelleri@aslal.it;mpalella@aslal.it;hospice@aslal.it", "emergency": "no", "fax": "+39 0131 252999", "healthcare": "hospice", "name": "Hospice Il Gelso", "note": "Presenza ascensore per disabili", "phone": "+39 0131 306721;+39 0131 261313", "source": "https://www.aslal.it/hospice-e-cure-palli", "toilets:wheelchair": "yes", "url": "https://www.fedcp.org/hospice/hospice-il-gelso", "website": "https://www.aslal.it/hospice-e-cure-palli", "wheelchair": "no"}}, {"name": "SALUS", "latitude": 44.9124632, "longitude": 8.6121506, "source": "osm", "_tags": {"addr:city": "Alessandria", "addr:housenumber": "21", "addr:postcode": "15121", "addr:street": "Via Trotti", "amenity": "hospital", "healthcare": "hospital", "name": "SALUS", "wheelchair": "yes"}}, {"name": "ASL 20", "latitude": 44.898434, "longitude": 8.5964236, "source": "osm", "_tags": {"addr:city": "Alessandria", "addr:housenumber": "18", "addr:postcode": "15121", "addr:street": "Via Michelangelo Buonarroti", "amenity": "hospital", "healthcare": "hospital", "name": "ASL 20", "operator": "ASL", "operator:wikidata": "Q3631467", "operator:wikipedia": "it:Azienda sanitaria locale", "wheelchair": "yes"}}, {"name": "ASL13 - Ambulatori Oleggio", "latitude": 45.5983917, "longitude": 8.6361766, "source": "osm", "_tags": {"addr:city": "Oleggio", "addr:housenumber": "13", "addr:postcode": "28047", "addr:street": "Via Antonio Gramsci", "amenity": "hospital", "healthcare": "hospital", "name": "ASL13 - Ambulatori Oleggio"}}, {"name": "", "latitude": 45.7135897, "longitude": 8.6395114, "source": "osm", "_tags": {"amenity": "hospital"}}, {"name": "Ambulatorio", "latitude": 45.7145244, "longitude": 7.88175, "source": "osm", "_tags": {"amenity": "hospital", "name": "Ambulatorio"}}, {"name": "Medical Center", "latitude": 45.7215227, "longitude": 8.6515601, "source": "osm", "_tags": {"addr:city": "Sesto Calende", "addr:housenumber": "3", "addr:postcode": "21018", "addr:street": "Via Carlo Cattaneo", "amenity": "hospital", "emergency": "no", "healthcare": "hospital", "name": "Medical Center", "operator": "Centro Baroncini srl", "phone": "+39 0331 958570", "website": "https://www.centrobaroncini.it/"}}, {"name": "Centro Baroncini", "latitude": 45.7215873, "longitude": 8.6515078, "source": "osm", "_tags": {"addr:city": "Sesto Calende", "addr:housenumber": "3", "addr:postcode": "21018", "addr:street": "Via Carlo Cattaneo", "amenity": "hospital", "description": "Nella struttura sono attivi centri specializzati in grado di coprire tutte i principali ambiti di richiesta diagnostica e assistenziale per privati, aziende, lavoratori.", "emergency": "no", "healthcare": "hospital", "name": "Centro Baroncini", "operator": "Medical Center", "website": "https://www.medicalcentersrl.it/"}}, {"name": "Ambulatorio Medico", "latitude": 45.5842927, "longitude": 7.8121774, "source": "osm", "_tags": {"amenity": "hospital", "name": "Ambulatorio Medico"}}, {"name": "Pronto Soccorso Ospedale \"Angelo Bellini\"", "latitude": 45.6836723, "longitude": 8.7138738, "source": "osm", "_tags": {"emergency": "emergency_ward_entrance", "emergency_ward_entrance": "all", "healthcare": "hospital", "name": "Pronto Soccorso Ospedale \"Angelo Bellini\"", "toilets:wheelchair": "yes", "wheelchair": "yes"}}, {"name": "Poliambulatorio", "latitude": 45.4426091, "longitude": 8.622878, "source": "osm", "_tags": {"amenity": "hospital", "healthcare": "hospital", "name": "Poliambulatorio"}}, {"name": "Ospedale dei Bambini Eletto Lualdi", "latitude": 45.4427862, "longitude": 8.6196807, "source": "osm", "_tags": {"amenity": "hospital", "healthcare": "hospital", "name": "Ospedale dei Bambini Eletto Lualdi"}}, {"name": "Pronto Soccorso Ostetrico-Ginecologico-Pediatrico", "latitude": 45.4426888, "longitude": 8.6204013, "source": "osm", "_tags": {"addr:city": "Novara", "addr:postcode": "28100", "amenity": "hospital", "emergency": "yes", "healthcare": "hospital", "healthcare:speciality": "paediatrics", "name": "Pronto Soccorso Ostetrico-Ginecologico-Pediatrico", "operator:type": "public"}}, {"name": "Ambulatorio", "latitude": 45.6908917, "longitude": 8.5309197, "source": "osm", "_tags": {"addr:city": "Gattico-Veruno", "addr:country": "IT", "addr:postcode": "28010", "addr:street": "Via Guglielmo Marconi", "amenity": "hospital", "healthcare": "hospital", "name": "Ambulatorio"}}, {"name": "Centro Prelievi", "latitude": 45.4363425, "longitude": 8.6279615, "source": "osm", "_tags": {"addr:city": "Novara", "addr:housenumber": "1", "addr:postcode": "28100", "addr:street": "Viale Piazza d'Armi", "amenity": "hospital", "email": "centro.prelievi@maggioreosp.novara.it", "emergency": "no", "healthcare": "hospital", "healthcare:speciality": "general", "name": "Centro Prelievi", "opening_hours": "Mo-Fr 07:30-09:30; Sa, Su, PH off", "operator": "Azienda ospedaliero-universitaria Maggiore della Carità", "operator:type": "public", "phone": "+39 0321 3734995", "start_date": "2020/03/19"}}, {"name": "Associazione Collegino Milena", "latitude": 44.8558913, "longitude": 7.8394786, "source": "osm", "_tags": {"amenity": "hospital", "healthcare": "hospital", "name": "Associazione Collegino Milena", "operator": "ACM Onlus", "operator:type": "private"}}, {"name": "Ambulatorio Comunale - sede provvisoria sino settembre 2022", "latitude": 45.7151673, "longitude": 7.737291, "source": "osm", "_tags": {"amenity": "hospital", "name": "Ambulatorio Comunale - sede provvisoria sino settembre 2022"}}, {"name": "Casa di Cura Mons. Luigi Novarese", "latitude": 45.3085647, "longitude": 7.9923194, "source": "osm", "_tags": {"amenity": "hospital", "emergency": "no", "healthcare": "yes", "name": "Casa di Cura Mons. Luigi Novarese"}}, {"name": "ASL Distretto di Biandrate", "latitude": 45.4529681, "longitude": 8.4618552, "source": "osm", "_tags": {"addr:city": "Biandrate", "addr:housenumber": "9", "addr:postcode": "28061", "addr:street": "Via Giulio Greppi", "amenity": "hospital", "healthcare": "hospital", "name": "ASL Distretto di Biandrate", "operator": "ASL", "operator:wikidata": "Q3631467"}}, {"name": "", "latitude": 45.7198719, "longitude": 8.2722839, "source": "osm", "_tags": {"addr:city": "Borgosesia", "addr:postcode": "13011", "addr:street": "Viale Varallo", "amenity": "hospital", "emergency": "no", "healthcare": "hospital", "operator": "ASL", "operator:type": "government", "operator:wikidata": "Q3631467", "phone": "0163 426111", "wheelchair": "yes"}}, {"name": "Santa Clara", "latitude": 45.0080157, "longitude": 7.8251468, "source": "osm", "_tags": {"amenity": "hospital", "healthcare": "hospital", "name": "Santa Clara"}}, {"name": "Clinica Sant'Anna", "latitude": 45.132273, "longitude": 8.4531854, "source": "osm", "_tags": {"amenity": "hospital", "building": "yes", "emergency": "no", "healthcare": "hospital", "name": "Clinica Sant'Anna"}}, {"name": "Istituto Scientifico di Riabilitazione di Veruno - Fondazione Salvatore Maugeri", "latitude": 45.6948462, "longitude": 8.5353779, "source": "osm", "_tags": {"addr:city": "Gattico-Veruno", "addr:country": "IT", "addr:housenumber": "13", "addr:postcode": "28010", "addr:province": "NO", "addr:street": "Via per Revislate", "amenity": "hospital", "contact:phone": "+39 0322 884711", "contact:website": "http://www.fsm.it", "emergency": "no", "healthcare": "hospital", "name": "Istituto Scientifico di Riabilitazione di Veruno - Fondazione Salvatore Maugeri"}}, {"name": "Ospedale \"Santo Spirito\"", "latitude": 45.12035, "longitude": 8.4465464, "source": "osm", "_tags": {"amenity": "hospital", "barrier": "wall", "check_date": "2024-11-20", "emergency": "yes", "healthcare": "hospital", "name": "Ospedale \"Santo Spirito\"", "wheelchair": "yes"}}, {"name": "Ospedale Sant'Andrea", "latitude": 45.3170942, "longitude": 8.4138493, "source": "osm", "_tags": {"amenity": "hospital", "healthcare": "hospital", "name": "Ospedale Sant'Andrea", "name:etymology:wikidata": "Q43399", "wheelchair": "yes", "wikidata": "Q124472551"}}, {"name": "Ospedale Civile Santi Antonio e Biagio e Cesare Arrigo", "latitude": 44.9160959, "longitude": 8.6219463, "source": "osm", "_tags": {"amenity": "hospital", "check_date": "2024-04-23", "emergency": "yes", "healthcare": "hospital", "name": "Ospedale Civile Santi Antonio e Biagio e Cesare Arrigo", "website": "https://www.ospedale.al.it/", "wheelchair": "yes"}}, {"name": "Ospedale Infantile Cesare Arrigo", "latitude": 44.9161814, "longitude": 8.6259177, "source": "osm", "_tags": {"addr:city": "Alessandria", "addr:housenumber": "46", "addr:postcode": "15121", "addr:street": "Spalto Marengo", "amenity": "hospital", "emergency": "yes", "healthcare": "hospital", "name": "Ospedale Infantile Cesare Arrigo", "wheelchair": "yes", "wheelchair:description": "wc accessibile", "wikidata": "Q116779743"}}, {"name": "Ospedale Cardinal Massaia", "latitude": 44.9123027, "longitude": 8.1942913, "source": "osm", "_tags": {"alt_name": "Ospedale Cardinal Massaja", "amenity": "hospital", "building": "yes", "emergency": "yes", "healthcare": "hospital", "name": "Ospedale Cardinal Massaia", "phone": "+39 0141 481 111"}}, {"name": "ASL AL - Presidio di Valenza", "latitude": 45.0073761, "longitude": 8.6345762, "source": "osm", "_tags": {"amenity": "hospital", "building": "hospital", "healthcare": "hospital", "name": "ASL AL - Presidio di Valenza"}}, {"name": "Ospedale Civile Ivrea", "latitude": 45.467067, "longitude": 7.8729914, "source": "osm", "_tags": {"amenity": "hospital", "building": "hospital", "emergency": "yes", "healthcare": "hospital", "name": "Ospedale Civile Ivrea", "wikidata": "Q30281172"}}, {"name": "Clinica Eporediese", "latitude": 45.4706441, "longitude": 7.86662, "source": "osm", "_tags": {"addr:city": "Ivrea", "addr:country": "IT", "addr:housenumber": "27", "addr:postcode": "10015", "addr:street": "Via Castiglia", "amenity": "hospital", "building": "yes", "check_date": "2024-08-07", "emergency": "no", "name": "Clinica Eporediese"}}, {"name": "Clinica San Gaudenzio", "latitude": 45.4506119, "longitude": 8.6159729, "source": "osm", "_tags": {"addr:city": "Novara", "addr:housenumber": "3", "addr:postcode": "28100", "addr:street": "Via Enrico Bottini", "amenity": "hospital", "building": "yes", "healthcare": "hospital", "name": "Clinica San Gaudenzio", "phone": "+39 0321 3831", "wheelchair": "yes"}}, {"name": "Presidio Ospedaliero Angelo Bellini", "latitude": 45.6839479, "longitude": 8.7145848, "source": "osm", "_tags": {"addr:city": "Somma Lombardo", "addr:country": "IT", "addr:housenumber": "3", "addr:postcode": "21019", "addr:street": "Via Ospedale", "amenity": "hospital", "healthcare": "hospital", "name": "Presidio Ospedaliero Angelo Bellini", "website": "http://www.ospedaledigallarate.it/ao-sommalombardo.html", "wikidata": "Q95993627"}}, {"name": "Villa Cristina", "latitude": 45.8117764, "longitude": 8.5296109, "source": "osm", "_tags": {"addr:city": "Nebbiuno", "addr:housenumber": "1", "addr:postcode": "28010", "addr:street": "Dorsale Poggio Radioso", "building": "yes", "check_date": "2024-12-13", "healthcare": "hospital", "healthcare:speciality": "psychiatry", "name": "Villa Cristina", "phone": "+39 0322 280761"}}, {"name": "ASL TO5", "latitude": 44.9522192, "longitude": 7.7693426, "source": "osm", "_tags": {"amenity": "hospital", "emergency": "no", "name": "ASL TO5"}}, {"name": "Casa di cura \"Villa Vialarda\"", "latitude": 45.5728322, "longitude": 8.0478262, "source": "osm", "_tags": {"amenity": "hospital", "name": "Casa di cura \"Villa Vialarda\""}}, {"name": "Villa Maria Pia", "latitude": 45.0693766, "longitude": 7.7435529, "source": "osm", "_tags": {"amenity": "hospital", "healthcare": "hospital", "name": "Villa Maria Pia"}}, {"name": "Centro di Assistenza Primaria (CAP)", "latitude": 45.7612611, "longitude": 8.558489, "source": "osm", "_tags": {"addr:city": "Arona", "addr:housenumber": "11", "addr:postcode": "28041", "addr:street": "Via San Carlo", "alt_name": "Ospedale Santissima Trinità", "amenity": "hospital", "healthcare": "hospital", "name": "Centro di Assistenza Primaria (CAP)", "operator": "ASL13"}}, {"name": "Ospedale Civico di Settimo Torinese", "latitude": 45.1260359, "longitude": 7.755565, "source": "osm", "_tags": {"addr:city": "Settimo Torinese", "addr:housenumber": "3", "addr:postcode": "10036", "addr:street": "Via Santa Cristina", "amenity": "hospital", "building": "hospital", "name": "Ospedale Civico di Settimo Torinese", "wheelchair": "yes"}}, {"name": "Azienda Universitario-Ospedaliera \"Maggiore della Carità\"", "latitude": 45.4429009, "longitude": 8.621286, "source": "osm", "_tags": {"addr:city": "Novara", "addr:postcode": "28100", "alt_name": "Ospedale Maggiore della Carità", "amenity": "hospital", "dog": "no", "emergency": "yes", "healthcare": "hospital", "name": "Azienda Universitario-Ospedaliera \"Maggiore della Carità\"", "smoking": "no"}}, {"name": "Ospedale Santissima Trin ità", "latitude": 45.7046467, "longitude": 8.4589136, "source": "osm", "_tags": {"addr:city": "Borgomanero", "addr:housenumber": "10", "addr:postcode": "28021", "addr:street": "Viale Maddalena Zoppis", "amenity": "hospital", "emergency": "yes", "healthcare": "hospital", "name": "Ospedale Santissima Trin ità"}}, {"name": "Nuovo Ospedale degli Infermi", "latitude": 45.5432058, "longitude": 8.0628124, "source": "osm", "_tags": {"amenity": "hospital", "building": "hospital", "healthcare": "hospital", "name": "Nuovo Ospedale degli Infermi", "wikidata": "Q30281189"}}, {"name": "Ospedale Carlo Ondoli", "latitude": 45.7756028, "longitude": 8.5789299, "source": "osm", "_tags": {"addr:city": "Angera", "addr:country": "IT", "addr:housenumber": "9", "addr:postcode": "21021", "addr:street": "Via Bordini", "amenity": "hospital", "barrier": "entrance", "emergency": "yes", "foot": "yes", "healthcare": "hospital", "name": "Ospedale Carlo Ondoli", "source": "survey"}}, {"name": "Centro Riabilitativo Polifunzionale Teresio Borsalino", "latitude": 44.9398827, "longitude": 8.617734, "source": "osm", "_tags": {"addr:city": "Alessandria", "addr:housenumber": "3", "addr:postcode": "15121", "addr:street": "Piazzale Ravazzano", "amenity": "hospital", "healthcare": "hospital", "name": "Centro Riabilitativo Polifunzionale Teresio Borsalino", "operator": "Regione Piemonte", "phone": "+39 0131 206111"}}, {"name": "Presidio Riabilitativo \"Teresio Borsalino\"", "latitude": 44.9398827, "longitude": 8.617734, "source": "osm", "_tags": {"amenity": "hospital", "healthcare": "hospital", "name": "Presidio Riabilitativo \"Teresio Borsalino\"", "website": "https://www.ospedale.al.it/it/presidi/presidio-riabilitativo-teresio-borsalino"}}, {"name": "Centro Riabilitativo Polifunzionale Teresio Borsalino", "latitude": 44.9398827, "longitude": 8.617734, "source": "osm", "_tags": {"addr:city": "Alessandria", "addr:housenumber": "3", "addr:postcode": "15121", "addr:street": "Piazzale Ravazzoni", "amenity": "hospital", "healthcare": "hospital", "name": "Centro Riabilitativo Polifunzionale Teresio Borsalino", "old_name": "Sanatorio Vittorio Emanuele III", "operator": "Regione Piemonte", "phone": "+39 0131 206111", "website": "https://www.ospedale.al.it/"}}, {"name": "", "latitude": 44.9992854, "longitude": 7.8161623, "source": "osm", "_tags": {"amenity": "hospital", "healthcare": "hospital"}}, {"name": "ASL BI - Presidio sanitario (ex Ospedaletto)", "latitude": 45.6726159, "longitude": 8.1594143, "source": "osm", "_tags": {"amenity": "hospital", "building": "yes", "name": "ASL BI - Presidio sanitario (ex Ospedaletto)"}}, {"name": "Casa di riposo  Villa San Fortunato", "latitude": 44.8373342, "longitude": 8.6216329, "source": "osm", "_tags": {"addr:city": "Casal Cermelli", "addr:housenumber": "73", "addr:street": "Via Gerbida", "amenity": "hospital", "healthcare": "hospital", "name": "Casa di riposo  Villa San Fortunato"}}, {"name": "Città di Alessandria Policlinico di Monza", "latitude": 44.9129664, "longitude": 8.6361954, "source": "osm", "_tags": {"addr:city": "Alessandria", "addr:housenumber": "30", "addr:postcode": "15121", "addr:street": "Via Vittorio Moccagatta", "amenity": "hospital", "emergency": "no", "healthcare": "hospital", "healthcare:speciality": "orthopaedics;cardiology;urology", "name": "Città di Alessandria Policlinico di Monza", "operator": "Policlinico di Monza", "phone": "+39 0131 314500", "website": "https://www.clinicacittadialessandria.it", "wheelchair": "yes"}}, {"name": "Ospedale San Giuliano", "latitude": 45.4362073, "longitude": 8.62873, "source": "osm", "_tags": {"addr:city": "Novara", "addr:housenumber": "1", "addr:street": "Viale Piazza d'Armi", "amenity": "hospital", "healthcare": "hospital", "name": "Ospedale San Giuliano"}}, {"name": "", "latitude": 45.1257904, "longitude": 7.7553272, "source": "osm", "_tags": {"amenity": "hospital", "healthcare": "hospital"}}, {"name": "Ospedale Maggiore - A.S.L. TO5", "latitude": 45.0106003, "longitude": 7.8236938, "source": "osm", "_tags": {"addr:city": "Chieri", "addr:housenumber": "1", "addr:postcode": "10023", "addr:street": "Via Giovanni De Maria", "amenity": "hospital", "contact:email": "distretto.ca.ch@aslto5.piemonte.it", "contact:phone": "+39 01194293818", "emergency": "yes", "healthcare": "hospital", "name": "Ospedale Maggiore - A.S.L. TO5", "operator": "A.S.L. TO5", "operator:type": "public", "website": "https://www.aslto5.piemonte.it/it/sede/chieri-pzza-spellico-1", "wheelchair": "yes"}}, {"name": "Ospedale Civile di Chivasso", "latitude": 45.1918727, "longitude": 7.8947747, "source": "osm", "_tags": {"addr:city": "Chivasso", "addr:housenumber": "42", "addr:postcode": "10034", "addr:street": "Via Paolo Regis", "amenity": "hospital", "emergency": "yes", "healthcare": "hospital", "name": "Ospedale Civile di Chivasso", "name:en": "Chivasso Hospital", "operator": "ASL TO4", "operator:type": "public"}}, {"name": "Fondazione Renato Piatti", "latitude": 45.7322023, "longitude": 8.6280783, "source": "osm", "_tags": {"addr:city": "Sesto Calende", "addr:country": "IT", "addr:housenumber": "14", "addr:postcode": "21018", "addr:street": "Via Lombardia", "amenity": "hospital", "email": "sdsestoc@fondazionepiatti.it", "healthcare": "hospital", "name": "Fondazione Renato Piatti", "phone": "+39 0331 922496", "type": "multipolygon"}}, {"name": "Ospedale Santi Pietro e Paolo", "latitude": 45.712408, "longitude": 8.2610966, "source": "osm", "_tags": {"amenity": "hospital", "building": "hospital", "emergency": "yes", "healthcare": "hospital", "name": "Ospedale Santi Pietro e Paolo", "phone": "+39 0163 426111", "type": "multipolygon"}}, {"name": "Azienda ospedaliera Novara e Galliate", "latitude": 45.4831443, "longitude": 8.7038897, "source": "osm", "_tags": {"addr:city": "Galliate", "addr:housenumber": "2", "addr:postcode": "28066", "addr:street": "Via Giuseppe Cottolengo", "amenity": "hospital", "healthcare": "hospital", "healthcare:speciality": "general;chiropractic;ophthalmology;emergency;gynaecology;nephrology;paediatrics;orthopaedics;radiology;cardiology;biology;community;surgery;maternity;dialysis;oncology;vaccination;intensive;orthodontics;abortion;psychiatry;dentistry;osteopathy;allergology", "name": "Azienda ospedaliera Novara e Galliate", "smoking": "no", "type": "multipolygon"}}]