[{"name": "Poliambulatorio Cesare Pozzo", "latitude": 45.4998068, "longitude": 9.1673344, "source": "osm", "_tags": {"amenity": "hospital", "healthcare": "hospital", "name": "Poliambulatorio Cesare Pozzo"}}, {"name": "Istituto per la Riabilitazione Maugeri", "latitude": 45.0320789, "longitude": 9.2852387, "source": "osm", "_tags": {"amenity": "hospital", "name": "Istituto per la Riabilitazione Maugeri", "wheelchair": "yes"}}, {"name": "", "latitude": 45.676271, "longitude": 9.2393697, "source": "osm", "_tags": {"amenity": "hospital"}}, {"name": "centro paolo VI", "latitude": 44.9113995, "longitude": 8.986571, "source": "osm", "_tags": {"amenity": "hospital", "name": "centro paolo VI"}}, {"name": "Ospedale civile di voghera entrata posteriore", "latitude": 44.994752, "longitude": 9.0145345, "source": "osm", "_tags": {"amenity": "hospital", "healthcare": "hospital", "name": "Ospedale civile di voghera entrata posteriore", "toilets:wheelchair": "yes", "wheelchair": "yes"}}, {"name": "Casa della Salute", "latitude": 45.0557511, "longitude": 9.6035514, "source": "osm", "_tags": {"addr:city": "San Nicolò a Trebbia", "addr:postcode": "29010", "addr:street": "Via Alicata", "amenity": "hospital", "name": "Casa della Salute"}}, {"name": "ASL", "latitude": 45.3643665, "longitude": 9.6733241, "source": "osm", "_tags": {"amenity": "hospital", "healthcare": "hospital", "name": "ASL", "operator": "ASL", "operator:wikidata": "Q3631467"}}, {"name": "Ambulatorio", "latitude": 45.8116905, "longitude": 8.9184692, "source": "osm", "_tags": {"amenity": "hospital", "emergency": "no", "healthcare": "hospital", "name": "Ambulatorio"}}, {"name": "Fondazione Don Carlo Gnocchi - Centro Santa Maria alle Fonti", "latitude": 44.9103484, "longitude": 9.0271528, "source": "osm", "_tags": {"amenity": "hospital", "name": "Fondazione Don Carlo Gnocchi - Centro Santa Maria alle Fonti"}}, {"name": "Croce Rossa Italiana - Stradella", "latitude": 45.0664046, "longitude": 9.3246026, "source": "osm", "_tags": {"amenity": "hospital", "emergency": "no", "name": "Croce Rossa Italiana - Stradella", "source": "Croce Rossa Italiana - Stradella"}}, {"name": "Ospedale \"Santa Marta\"", "latitude": 45.4692407, "longitude": 9.5149233, "source": "osm", "_tags": {"addr:housenumber": "15", "addr:postcode": "26027", "addr:street": "Viale Monte Grappa", "amenity": "hospital", "healthcare": "hospital", "name": "Ospedale \"Santa Marta\""}}, {"name": "Centro Diagnostico Fleming", "latitude": 45.399855, "longitude": 8.9185105, "source": "osm", "_tags": {"amenity": "hospital", "healthcare": "hospital", "name": "Centro Diagnostico Fleming"}}, {"name": "Poliambulatorio Sassi", "latitude": 45.4668625, "longitude": 9.1720033, "source": "osm", "_tags": {"addr:city": "Milano", "addr:housenumber": "4", "addr:postcode": "20123", "addr:street": "Via Giuseppe Antonio Sassi", "amenity": "hospital", "healthcare": "hospital", "name": "Poliambulatorio Sassi", "operator:type": "public"}}, {"name": "Casa di Cura Santa Maria delle Grazie", "latitude": 44.9899531, "longitude": 8.9987308, "source": "osm", "_tags": {"addr:postcode": "27058", "amenity": "hospital", "name": "Casa di Cura Santa Maria delle Grazie"}}, {"name": "laboratorio analisi mediche gestione laboratori scientifici le betulle punto prelievi", "latitude": 45.6365881, "longitude": 9.0324228, "source": "osm", "_tags": {"addr:housenumber": "122", "addr:street": "Via Prealpi", "amenity": "hospital", "emergency": "no", "healthcare": "hospital", "name": "laboratorio analisi mediche gestione laboratori scientifici le betulle punto prelievi"}}, {"name": "Pronto Soccorso Ospedale Busto Arsizio", "latitude": 45.6233377, "longitude": 8.8464777, "source": "osm", "_tags": {"amenity": "hospital", "emergency": "yes", "emergency_ward_entrance": "all", "healthcare": "hospital", "name": "Pronto Soccorso Ospedale Busto Arsizio"}}, {"name": "Poliambulatorio di via Masaniello", "latitude": 45.4628809, "longitude": 9.0908564, "source": "osm", "_tags": {"addr:city": "Milano", "addr:housenumber": "23", "addr:postcode": "20152", "addr:street": "Via Masaniello", "amenity": "hospital", "emergency": "no", "healthcare": "hospital", "healthcare:speciality": "gynaecology;ophthalmology;dentist;orthopaedics;dermatology;otolaryngology;radiology;general;surgery;cardiology;neurology", "name": "Poliambulatorio di via Masaniello", "operator": "ASST Nord Milano", "operator:type": "public"}}, {"name": "Bianalisi s.r.l. Analisi Mediche", "latitude": 45.6749512, "longitude": 9.2351706, "source": "osm", "_tags": {"addr:city": "Carate Brianza", "addr:housenumber": "1", "addr:postcode": "20841", "addr:street": "Via Don Costante Mattavelli", "amenity": "hospital", "name": "Bianalisi s.r.l. Analisi Mediche"}}, {"name": "Casa di riposo San Fortunato", "latitude": 45.0056537, "longitude": 8.9263908, "source": "osm", "_tags": {"amenity": "social_facility", "designation": "Casa di riposo", "emergency": "no", "healthcare": "hospital", "name": "Casa di riposo San Fortunato", "social_facility": "assisted_living", "social_facility:for": "senior"}}, {"name": "Studio Medico", "latitude": 45.0064527, "longitude": 8.9264038, "source": "osm", "_tags": {"amenity": "hospital", "designation": "Studio Medico", "emergency": "no", "healthcare": "hospital", "name": "Studio Medico"}}, {"name": "Ospedale Civile di Varzi \"SS. Annunziata\"", "latitude": 44.8254167, "longitude": 9.1910866, "source": "osm", "_tags": {"amenity": "hospital", "healthcare": "hospital", "name": "Ospedale Civile di Varzi \"SS. Annunziata\""}}, {"name": "Pronto Soccorso", "latitude": 45.4111891, "longitude": 9.2772118, "source": "osm", "_tags": {"emergency": "emergency_ward_entrance", "emergency_ward_entrance": "walk-in", "entrance": "yes", "healthcare": "hospital", "name": "Pronto Soccorso", "wheelchair": "yes"}}, {"name": "policlinico di Monza ", "latitude": 45.6761127, "longitude": 9.2221865, "source": "osm", "_tags": {"amenity": "hospital", "name": "policlinico di Monza ", "opening_hours": "Mo-Fr 08:00-19:00"}}, {"name": "Associazione psicologia e psicoterapia Il Conventino", "latitude": 45.6877468, "longitude": 9.6756007, "source": "osm", "_tags": {"amenity": "hospital", "healthcare": "hospital", "name": "Associazione psicologia e psicoterapia Il Conventino"}}, {"name": "Marina Dr.Ssa Anna Rita Veterinaria", "latitude": 45.0575324, "longitude": 9.6914013, "source": "osm", "_tags": {"addr:city": "Piacenza", "addr:housenumber": "11", "addr:postcode": "29121", "addr:street": "Via Augusto Balsamo", "amenity": "hospital", "healthcare": "hospital", "name": "Marina Dr.Ssa Anna Rita Veterinaria"}}, {"name": "Croce Rossa Italiana", "latitude": 45.0515222, "longitude": 9.6851104, "source": "osm", "_tags": {"addr:city": "Piacenza", "addr:housenumber": "5b", "addr:street": "Viale Malta", "amenity": "hospital", "emergency": "yes", "healthcare": "hospital", "healthcare:speciality": "general", "name": "Croce Rossa Italiana"}}, {"name": "Ospedale \"Guglielmo da Saliceto\" - Neurologia - Day Service", "latitude": 45.0558309, "longitude": 9.6836322, "source": "osm", "_tags": {"addr:city": "Piacenza", "addr:housenumber": "64", "addr:postcode": "29121", "addr:street": "Via Campagna", "amenity": "hospital", "healthcare": "hospital", "name": "Ospedale \"Guglielmo da Saliceto\" - Neurologia - Day Service"}}, {"name": "Ser.T", "latitude": 45.0565017, "longitude": 9.6815304, "source": "osm", "_tags": {"addr:city": "Piacenza", "addr:housenumber": "74", "addr:postcode": "29121", "addr:street": "Via Campagna", "amenity": "hospital", "healthcare": "hospital", "name": "Ser.T"}}, {"name": "Guardia Medica", "latitude": 45.1947424, "longitude": 9.1403864, "source": "osm", "_tags": {"amenity": "hospital", "emergency": "no", "healthcare": "hospital", "name": "Guardia Medica"}}, {"name": "Centro Medico Milano Tree Of Life S.r.l.", "latitude": 45.4673297, "longitude": 9.2040048, "source": "osm", "_tags": {"amenity": "hospital", "check_date": "2024-03-15", "emergency": "no", "healthcare": "hospital", "name": "Centro Medico Milano Tree Of Life S.r.l."}}, {"name": "Laboratorio Analisi Mediche San Giorgio", "latitude": 45.1908806, "longitude": 9.1496243, "source": "osm", "_tags": {"amenity": "hospital", "healthcare": "hospital", "name": "Laboratorio Analisi Mediche San Giorgio"}}, {"name": "Pronto Soccorso Ospedale di Circolo", "latitude": 45.8073901, "longitude": 8.8412878, "source": "osm", "_tags": {"addr:city": "Varese", "addr:postcode": "21100", "addr:street": "Via Francesco Guicciardini", "amenity": "hospital", "emergency": "yes", "healthcare": "hospital", "kids_area": "no", "name": "Pronto Soccorso Ospedale di Circolo", "operator": "Ospedale di Circolo"}}, {"name": "Assixto Parabiago", "latitude": 45.5567042, "longitude": 8.9462721, "source": "osm", "_tags": {"addr:city": "Parabiago", "addr:country": "IT", "addr:housenumber": "77", "addr:postcode": "20015", "addr:street": "Via Sant'Antonio", "amenity": "social_facility", "check_date": "2023-05-06", "contact:phone": "+39 393 8032957", "currency:XBT": "yes", "email": "parabiago@assixto.it", "healthcare": "hospital", "healthcare:speciality": "general;community", "name": "Assixto Parabiago", "opening_hours": "Mo-Fr 09:00-12:30, 15:00-18:00", "payment:credit_cards": "yes", "social_facility": "day_care", "website": "http://www.assixto.it/assixto-parabiago-mi/"}}, {"name": "Pronto Soccorso Ospedale \"Sant'Antonio Abate\"", "latitude": 45.6562819, "longitude": 8.7922888, "source": "osm", "_tags": {"emergency": "emergency_ward_entrance", "entrance": "yes", "healthcare": "hospital", "name": "Pronto Soccorso Ospedale \"Sant'Antonio Abate\"", "toilets:wheelchair": "yes", "wheelchair": "yes"}}, {"name": "Ex Sanatorio G. B. Grassi", "latitude": 45.7919754, "longitude": 9.0847412, "source": "osm", "_tags": {"addr:housenumber": "60", "addr:street": "Piazzale Camerlata", "amenity": "hospital", "healthcare": "hospital", "name": "Ex Sanatorio G. B. Grassi"}}, {"name": "Pronto Soccorso Pediatrico", "latitude": 45.4586331, "longitude": 9.1991347, "source": "osm", "_tags": {"healthcare": "hospital", "healthcare:speciality": "emergency", "name": "Pronto Soccorso Pediatrico"}}, {"name": "CUP Clinica Castelli", "latitude": 45.6955185, "longitude": 9.6592301, "source": "osm", "_tags": {"amenity": "hospital", "check_date": "2023-10-25", "emergency": "no", "name": "CUP Clinica Castelli", "operator": "Humanitas Castelli", "operator:type": "private", "payment:cash": "yes", "payment:mastercard": "yes", "payment:visa": "yes", "wheelchair": "yes"}}, {"name": "Asl Gallarate", "latitude": 45.6553655, "longitude": 8.7902963, "source": "osm", "_tags": {"addr:city": "Gallarate", "addr:housenumber": "1", "addr:postcode": "21013", "addr:street": "Corso Leonardo da Vinci", "amenity": "hospital", "check_date": "2025-05-28", "healthcare": "hospital", "name": "Asl Gallarate", "operator": "ASL", "operator:wikidata": "Q3631467", "toilets:wheelchair": "yes", "wheelchair": "yes", "wikidata": "Q37182911"}}, {"name": "Pronto Soccorso Policlinico San Pietro", "latitude": 45.6983965, "longitude": 9.5751265, "source": "osm", "_tags": {"addr:city": "Ponte San Pietro", "addr:housenumber": "15", "addr:postcode": "24036", "addr:street": "Via Carlo Forlanini", "emergency": "emergency_ward_entrance", "healthcare": "hospital", "name": "Pronto Soccorso Policlinico San Pietro"}}, {"name": "Pronto Soccorso Cliniche Gavazzeni Humanitas", "latitude": 45.6881096, "longitude": 9.6817523, "source": "osm", "_tags": {"emergency": "emergency_ward_entrance", "emergency_ward_entrance": "walk-in", "healthcare": "hospital", "name": "Pronto Soccorso Cliniche Gavazzeni Humanitas"}}, {"name": "Pronto Soccorso Ospedale Civile Di Legnano", "latitude": 45.5950124, "longitude": 8.9318013, "source": "osm", "_tags": {"amenity": "hospital", "emergency": "yes", "emergency_ward_entrance": "all", "healthcare": "hospital", "name": "Pronto Soccorso Ospedale Civile Di Legnano"}}, {"name": "Dedalo Psicologia", "latitude": 45.6549112, "longitude": 9.2467764, "source": "osm", "_tags": {"addr:city": "Albiate", "addr:housenumber": "50", "addr:postcode": "20847", "addr:street": "Via Cesare Battisti", "amenity": "hospital", "description": "Attraverso un lavoro d'équipe, il gruppo Dedalo offre un supporto psicoterapeutico per tutte le età e per i disturbi più diffusi. I principi alla base delle metodologie sono quelli della psicoterapia cognitivo comportamentale.", "email": "info@dedalopsicologia.it", "emergency": "no", "healthcare": "psychotherapist", "healthcare:speciality": "psychotherapist;psychology;osteopathy;mental_health;psychotherapy", "level": "2", "name": "Dedalo Psicologia", "operator": "Dedalo Psicologia", "phone": "+393339206533", "source": "local knowledge", "start_date": "2016", "website": "https://www.dedalopsicologia.it"}}, {"name": "Pronto Soccorso Irccs Multimedica", "latitude": 45.5357762, "longitude": 9.219451, "source": "osm", "_tags": {"addr:city": "Sesto San Giovanni", "addr:postcode": "20099", "emergency": "emergency_ward_entrance", "healthcare": "hospital", "name": "Pronto Soccorso Irccs Multimedica"}}, {"name": "Pronto Soccorso Centro Traumatologico Ortopedico", "latitude": 45.5256854, "longitude": 9.213333, "source": "osm", "_tags": {"emergency": "emergency_ward_entrance", "healthcare": "hospital", "name": "Pronto Soccorso Centro Traumatologico Ortopedico"}}, {"name": "Pronto Soccorso Istituto Ortopedico Galeazzi", "latitude": 45.5233298, "longitude": 9.1736538, "source": "osm", "_tags": {"addr:city": "Milano", "addr:housenumber": "4", "addr:postcode": "20161", "addr:street": "Via Riccardo Galeazzi", "emergency": "emergency_ward_entrance", "healthcare": "hospital", "name": "Pronto Soccorso Istituto Ortopedico Galeazzi"}}, {"name": "Pronto Soccorso IRCCS S. Raffaele", "latitude": 45.5044383, "longitude": 9.2657555, "source": "osm", "_tags": {"addr:city": "Segrate", "addr:postcode": "20054", "emergency": "emergency_ward_entrance", "healthcare": "hospital", "name": "Pronto Soccorso IRCCS S. Raffaele"}}, {"name": "Pronto Soccorso Presidio Ospedaliero Buzzi", "latitude": 45.4862432, "longitude": 9.1669571, "source": "osm", "_tags": {"emergency": "emergency_ward_entrance", "healthcare": "hospital", "name": "Pronto Soccorso Presidio Ospedaliero Buzzi"}}, {"name": "Pronto Soccorso Istituto Clinico Citta' Studi", "latitude": 45.4849119, "longitude": 9.2253302, "source": "osm", "_tags": {"addr:city": "Milano", "addr:postcode": "20131", "addr:street": "Via Niccolò Jommelli", "check_date": "2024-09-13", "emergency": "emergency_ward_entrance", "healthcare": "hospital", "name": "Pronto Soccorso Istituto Clinico Citta' Studi"}}, {"name": "Pronto Soccorso Centro Cardiologico Monzino", "latitude": 45.4441343, "longitude": 9.2616518, "source": "osm", "_tags": {"addr:city": "Milano", "addr:postcode": "20138", "addr:street": "Via Elio Vittorini", "emergency": "emergency_ward_entrance", "healthcare": "hospital", "healthcare:speciality": "cardiology", "name": "Pronto Soccorso Centro Cardiologico Monzino"}}, {"name": "Pronto Soccorso Istituto Ortopedico Gaetano Pini", "latitude": 45.4542028, "longitude": 9.1941204, "source": "osm", "_tags": {"addr:city": "Milano", "addr:postcode": "20122", "addr:street": "Via Quadronno", "emergency": "emergency_ward_entrance", "healthcare": "hospital", "name": "Pronto Soccorso Istituto Ortopedico Gaetano Pini"}}, {"name": "Ospedale Policlinico", "latitude": 45.4592144, "longitude": 9.1959617, "source": "osm", "_tags": {"addr:city": "Milano", "addr:postcode": "20122", "addr:street": "Via San Barnaba", "amenity": "hospital", "emergency": "yes", "healthcare": "hospital", "name": "Ospedale Policlinico"}}, {"name": "", "latitude": 45.4586938, "longitude": 9.1990316, "source": "osm", "_tags": {"addr:city": "Milano", "addr:housenumber": "9", "addr:postcode": "20122", "addr:street": "Via della Commenda", "amenity": "hospital", "emergency": "yes", "healthcare": "hospital"}}, {"name": "Pronto Soccorso Istituto Auxologico San Luca", "latitude": 45.471838, "longitude": 9.1450333, "source": "osm", "_tags": {"emergency": "emergency_ward_entrance", "entrance": "yes", "healthcare": "hospital", "name": "Pronto Soccorso Istituto Auxologico San Luca"}}, {"name": "Pronto Soccorso Policlinico Di Monza", "latitude": 45.5842183, "longitude": 9.2959083, "source": "osm", "_tags": {"emergency": "emergency_ward_entrance", "healthcare": "hospital", "name": "Pronto Soccorso Policlinico Di Monza"}}, {"name": "Pronto Soccorso Ospedale Civile Vigevano", "latitude": 45.3199258, "longitude": 8.8648978, "source": "osm", "_tags": {"addr:city": "Vigevano", "addr:postcode": "27029", "amenity": "hospital", "emergency": "yes", "emergency_ward_entrance": "all", "healthcare": "hospital", "name": "Pronto Soccorso Ospedale Civile Vigevano"}}, {"name": "Pronto Soccorso Istituto Clinico Beato Matteo", "latitude": 45.3074828, "longitude": 8.8707615, "source": "osm", "_tags": {"addr:city": "Vigevano", "addr:postcode": "27029", "emergency": "emergency_ward_entrance", "healthcare": "hospital", "name": "Pronto Soccorso Istituto Clinico Beato Matteo"}}, {"name": "Pronto Soccorso Policlinico S. Matteo", "latitude": 45.2006243, "longitude": 9.1465113, "source": "osm", "_tags": {"addr:city": "Pavia", "addr:postcode": "27100", "emergency": "emergency_ward_entrance", "healthcare": "hospital", "name": "Pronto Soccorso Policlinico S. Matteo"}}, {"name": "Pronto Soccorso Humanitas Mater Domini", "latitude": 45.6091333, "longitude": 8.9069519, "source": "osm", "_tags": {"emergency": "emergency_ward_entrance", "healthcare": "hospital", "name": "Pronto Soccorso Humanitas Mater Domini"}}, {"name": "PRONTO SOCCORSO 118", "latitude": 45.0548657, "longitude": 9.68115, "source": "osm", "_tags": {"emergency": "emergency_ward_entrance", "healthcare": "hospital", "name": "PRONTO SOCCORSO 118"}}, {"name": "Studio Dentistico ARCA", "latitude": 45.6739607, "longitude": 9.2032939, "source": "osm", "_tags": {"addr:city": "Giussano", "addr:housenumber": "5", "addr:postcode": "20833", "addr:street": "Via Enrico Toti", "amenity": "dentist", "description": "Studio dentistico paina Studio dentistico giussano", "email": "info@sdarca.it", "healthcare": "hospital", "healthcare:speciality": "dentist", "internet_access": "wlan", "name": "Studio Dentistico ARCA", "operator": "Dr.ssa Laura Zuzolo - Dr Luca Citterio", "operator:type": "private", "phone": "+39 0362 314165", "website": "https://www.sdarca.it/"}}, {"name": "AVIS", "latitude": 45.0917376, "longitude": 8.7310842, "source": "osm", "_tags": {"amenity": "hospital", "healthcare": "hospital", "name": "AVIS"}}, {"name": "Farmacia Dr. Zacconi Davide", "latitude": 45.0533187, "longitude": 9.7040257, "source": "osm", "_tags": {"amenity": "hospital", "healthcare": "hospital", "name": "Farmacia Dr. Zacconi Davide"}}, {"name": "Casa di Cura S.Antonino", "latitude": 45.0499995, "longitude": 9.6852595, "source": "osm", "_tags": {"addr:city": "Piacenza", "addr:postcode": "29121", "addr:street": "Via Sforza Pallavicino", "amenity": "hospital", "healthcare": "hospital", "name": "Casa di Cura S.Antonino"}}, {"name": "ASL", "latitude": 45.4955588, "longitude": 9.643135, "source": "osm", "_tags": {"addr:housenumber": "14", "addr:street": "Largo pittori Cavenaghi", "amenity": "hospital", "check_date": "2024-07-06", "government": "healthcare", "healthcare": "hospital", "level": "0", "name": "ASL", "operator": "ASL", "operator:wikidata": "Q3631467", "wheelchair": "yes"}}, {"name": "Pronto Soccorso", "latitude": 45.4592058, "longitude": 9.1960494, "source": "osm", "_tags": {"addr:city": "Milano", "addr:housenumber": "10", "addr:postcode": "20122", "addr:street": "Via San Barnaba", "amenity": "hospital", "emergency": "yes", "healthcare": "hospital", "healthcare:speciality": "general", "name": "Pronto Soccorso"}}, {"name": "Humanitas", "latitude": 45.4638217, "longitude": 9.2076527, "source": "osm", "_tags": {"amenity": "hospital", "healthcare": "hospital", "name": "Humanitas"}}, {"name": "Guardia medica", "latitude": 45.792479, "longitude": 9.6594182, "source": "osm", "_tags": {"amenity": "hospital", "name": "Guardia medica"}}, {"name": "Dermatologo Dr. Di Silverio Adriano", "latitude": 45.1833612, "longitude": 9.1451826, "source": "osm", "_tags": {"addr:city": "Pavia", "addr:housenumber": "15", "addr:postcode": "27100", "addr:street": "Via Giacomo Franchi", "amenity": "hospital", "description": "Studio Dermatologico di Dor. Di Silverio Adriano, è disponibile per la visita dermatologica professionale. Infatti il dermatologo assiste i pazienti da Pavia,  e Oltrepo Pavese come Voghera, Broni Stradella, Belgioioso, tutta la provincia Lodi e Milano.", "emergency": "no", "healthcare": "hospital", "healthcare:speciality": "dermatology;dermatovenereology", "internet_access": "no", "name": "Dermatologo Dr. Di Silverio Adriano", "operator": "Di Silverio Adriano", "operator:type": "private", "phone": "+39 335 7074458", "website": "https://krophref.com/disilverio/paviaDermatologo", "wheelchair": "yes"}}, {"name": "CPM Il Glicine", "latitude": 45.6101805, "longitude": 9.1250162, "source": "osm", "_tags": {"addr:city": "Limbiate", "addr:housenumber": "24", "addr:postcode": "20812", "addr:street": "Via Monte Grappa", "amenity": "hospital", "healthcare": "hospital", "name": "CPM Il Glicine"}}, {"name": "Casa di Cura Igea", "latitude": 45.4641968, "longitude": 9.219135, "source": "osm", "_tags": {"addr:city": "Milano", "addr:housenumber": "69", "addr:street": "Via Marcona", "amenity": "hospital", "name": "Casa di Cura Igea", "website": "https://www.casadicuraigea.it"}}, {"name": "Fisio-Mass", "latitude": 45.0605672, "longitude": 9.261157, "source": "osm", "_tags": {"addr:city": "Broni", "addr:housenumber": "48", "addr:postcode": "27043", "addr:street": "Via Giuseppe Mazzini", "amenity": "hospital", "healthcare": "hospital", "healthcare:speciality": "osteopathy;physiotherapy", "name": "Fisio-Mass", "operator": "Ferrari Massimiliano", "operator:type": "private", "wheelchair": "yes"}}, {"name": "Casa di Cura Ambrosiana", "latitude": 45.4491472, "longitude": 9.0928921, "source": "osm", "_tags": {"addr:city": "Cesano Boscone", "addr:housenumber": "1", "addr:postcode": "20090", "addr:street": "Piazza Monsignor Luigi Moneta", "amenity": "hospital", "email": "comunicazioni@ambrosianacdc.it", "emergency": "no", "fax": "+39 02 45876860", "healthcare": "hospital", "name": "Casa di Cura Ambrosiana", "operator": "Fondazione Istituto Sacra Famiglia", "operator:type": "private_non_profit", "phone": "+39 02 45876533", "website": "https://www.ambrosianacdc.it/"}}, {"name": "Azienda Ospedaliera Ospedale Di Lecco", "latitude": 45.7902197, "longitude": 9.4411301, "source": "osm", "_tags": {"amenity": "hospital", "healthcare": "hospital", "name": "Azienda Ospedaliera Ospedale Di Lecco", "operator": "ASL", "operator:wikidata": "Q3631467"}}, {"name": "ASST Bergamo Ovest", "latitude": 45.648401, "longitude": 9.6020887, "source": "osm", "_tags": {"addr:housenumber": "2", "addr:street": "Viale Natale Betelli", "amenity": "hospital", "healthcare": "hospital", "name": "ASST Bergamo Ovest"}}, {"name": "Ospedale Serbelloni - Gorgonzola", "latitude": 45.5347934, "longitude": 9.4121301, "source": "osm", "_tags": {"addr:housenumber": "1", "addr:street": "Via Vincenzo Bellini", "amenity": "hospital", "healthcare": "hospital", "name": "Ospedale Serbelloni - Gorgonzola", "wikidata": "Q112172755"}}, {"name": "Synlab", "latitude": 45.3262646, "longitude": 9.1339753, "source": "osm", "_tags": {"amenity": "hospital", "healthcare": "hospital", "name": "Synlab"}}, {"name": "ASST Sette Laghi - Casa di Comunità Varese", "latitude": 45.7977415, "longitude": 8.8489618, "source": "osm", "_tags": {"addr:city": "Varese", "addr:housenumber": "9", "addr:postcode": "21100", "addr:street": "Viale Ottorino Rossi", "amenity": "hospital", "email": "distretto.varese@asst-settelaghi.it", "healthcare": "hospital", "name": "ASST Sette Laghi - Casa di Comunità Varese", "operator": "ASL", "operator:type": "public", "operator:wikidata": "Q3631467", "website": "https://www.asst-settelaghi.it/sede-distrettuale-varese-via-rossi"}}, {"name": "Pronto Soccorso", "latitude": 45.2005036, "longitude": 9.1463482, "source": "osm", "_tags": {"amenity": "hospital", "healthcare": "hospital", "name": "Pronto Soccorso"}}, {"name": "SOREU Pianura", "latitude": 45.2011208, "longitude": 9.1475838, "source": "osm", "_tags": {"amenity": "hospital", "healthcare": "hospital", "name": "SOREU Pianura"}}, {"name": "Centro Polispecialistico IL VIVAIO", "latitude": 45.4483311, "longitude": 9.095565, "source": "osm", "_tags": {"addr:city": "Cesano Boscone", "addr:housenumber": "16", "addr:postcode": "20090", "addr:street": "Via Nazario Sauro", "amenity": "hospital", "emergency": "no", "healthcare": "hospital", "healthcare:speciality": "dentista;orthodontics;neurology;nutrizionista", "internet_access": "yes", "name": "Centro Polispecialistico IL VIVAIO", "operator": "Dott. Andrea Guazzoni", "operator:type": "private", "payment:bancomat": "yes", "payment:cash": "yes", "payment:credit_cards": "yes", "payment:cryptocurrencies": "yes", "payment:debit_cards": "yes", "payment:maestro": "yes", "payment:mastercard": "yes", "payment:visa": "yes", "wheelchair": "yes"}}, {"name": "Casa di Comunità Lonate Pozzolo", "latitude": 45.600104, "longitude": 8.7512799, "source": "osm", "_tags": {"amenity": "hospital", "emergency": "no", "healthcare": "hospital", "name": "Casa di Comunità Lonate Pozzolo", "wheelchair": "yes"}}, {"name": "ASL", "latitude": 45.6398777, "longitude": 9.6873545, "source": "osm", "_tags": {"amenity": "hospital", "healthcare": "hospital", "name": "ASL", "operator": "ASL", "operator:wikidata": "Q3631467"}}, {"name": "Proton Center", "latitude": 45.4139864, "longitude": 9.2091918, "source": "osm", "_tags": {"amenity": "hospital", "healthcare": "hospital", "name": "Proton Center"}}, {"name": "Pronto Soccorso Ostetrico", "latitude": 45.5115592, "longitude": 9.187671, "source": "osm", "_tags": {"amenity": "hospital", "emergency": "yes", "healthcare": "hospital", "healthcare:speciality": "gynaecology", "name": "Pronto Soccorso Ostetrico"}}, {"name": "Centro Prelievi Ospedale Sesto San Giovanni", "latitude": 45.5348486, "longitude": 9.2243291, "source": "osm", "_tags": {"amenity": "hospital", "check_date": "2025-07-12", "healthcare": "hospital", "name": "Centro Prelievi Ospedale Sesto San Giovanni"}}, {"name": "Pronto Soccorso Oftalmico", "latitude": 45.4795714, "longitude": 9.1915523, "source": "osm", "_tags": {"amenity": "hospital", "check_date": "2025-09-17", "healthcare": "hospital", "name": "Pronto Soccorso Oftalmico"}}, {"name": "Pronto Soccorso Medico Chirurgico e Pediatrico", "latitude": 45.4789518, "longitude": 9.1904456, "source": "osm", "_tags": {"amenity": "hospital", "check_date": "2025-09-17", "healthcare": "hospital", "name": "Pronto Soccorso Medico Chirurgico e Pediatrico"}}, {"name": "Ospedale di Circolo - Fondazione Macchi", "latitude": 45.8089209, "longitude": 8.8398291, "source": "osm", "_tags": {"alt_name": "Fondazione Macchi", "amenity": "hospital", "healthcare": "hospital", "name": "Ospedale di Circolo - Fondazione Macchi", "operator": "Regione Lombardia", "website": "http://www.ospedalivarese.net/", "wikidata": "Q19358919", "wikipedia": "it:Ospedale di Circolo e Fondazione Macchi"}}, {"name": "ASST Grande Ospedale Metropolitano Niguarda", "latitude": 45.5098828, "longitude": 9.1862442, "source": "osm", "_tags": {"agricultural": "no", "alt_name": "Ospedale Niguarda Cà Granda;Ospedale Niguarda;Ospedale del Perdono;Nuovo Ospedale di Niguarda;Ospedale Maggiore", "amenity": "hospital", "baby_feeding": "yes", "contact:facebook": "ASSTGrandeOspedaleMetropolitanoNiguarda", "contact:fax": "+39 02 642 0901", "contact:instagram": "ospedale.niguarda", "contact:linkedin": "https://www.linkedin.com/company/ospedaleniguarda?trk=blended-typeahead", "contact:phone": "+39 02 64441", "contact:youtube": "https://youtube.com/channel/UC-hiW7sZMn1V_nVaXYOka_g", "emergency": "yes", "foot": "yes", "goods": "destination", "healthcare": "hospital", "kids_area": "yes", "name": "ASST Grande Ospedale Metropolitano Niguarda", "ref:vatin": "IT09315660960", "tourist_bus": "no", "website": "https://www.ospedaleniguarda.it/", "wikidata": "Q3886620", "wikimedia_commons": "Category:Ospedale Niguarda Ca' Granda (Milan)", "wikipedia": "en:Ospedale Niguarda Ca' Granda"}}, {"name": "Istituto Neurologico Carlo Besta", "latitude": 45.4775229, "longitude": 9.2306543, "source": "osm", "_tags": {"amenity": "hospital", "building": "hospital", "building:levels": "3", "healthcare": "hospital", "name": "Istituto Neurologico Carlo Besta", "name:de": "Neurologisches Institut Carlo Besta", "name:es": "Instituto Neurológico Carlo Besta", "name:fr": "Institut de neurologie Carlo Besta", "roof:levels": "1", "roof:shape": "flat", "wheelchair": "yes", "wikidata": "Q5041465", "wikimedia_commons": "Category:Istituto Neurologico Carlo Besta", "wikipedia": "it:Istituto Nazionale Neurologico Carlo Besta"}}, {"name": "Ospedale San Carlo Borromeo", "latitude": 45.4681075, "longitude": 9.114177, "source": "osm", "_tags": {"amenity": "hospital", "healthcare": "hospital", "name": "Ospedale San Carlo Borromeo", "wikidata": "Q19862112", "wikipedia": "it:Ospedale San Carlo Borromeo"}}, {"name": "Ospedale San Paolo", "latitude": 45.4342044, "longitude": 9.1598428, "source": "osm", "_tags": {"amenity": "hospital", "building": "yes", "emergency": "yes", "healthcare": "hospital", "name": "Ospedale San Paolo", "phone": "+39 02 81 841", "website": "https://www.asst-santipaolocarlo.it", "wikidata": "Q3886643", "wikimedia_commons": "Category:Ospedale San Paolo (Milan)", "wikipedia": "it:Ospedale San Paolo (Milano)"}}, {"name": "Multimedica - Clinica Santa Maria", "latitude": 45.6004277, "longitude": 8.8723196, "source": "osm", "_tags": {"amenity": "hospital", "emergency": "yes", "healthcare": "hospital", "name": "Multimedica - Clinica Santa Maria"}}, {"name": "Ospedale vecchio di Legnano", "latitude": 45.5953759, "longitude": 8.9313503, "source": "osm", "_tags": {"addr:city": "Legnano", "addr:housenumber": "2", "addr:postcode": "20025", "addr:street": "Via Cesare Candiani", "amenity": "hospital", "emergency": "no", "healthcare": "hospital", "name": "Ospedale vecchio di Legnano", "wikidata": "Q40340091"}}, {"name": "Ex Istituto Ortopedico Galeazzi, ora chiuso", "latitude": 45.5230811, "longitude": 9.1739477, "source": "osm", "_tags": {"amenity": "hospital", "building": "hospital", "healthcare": "hospital", "name": "Ex Istituto Ortopedico Galeazzi, ora chiuso"}}, {"name": "Istituto Villa Marelli", "latitude": 45.4966108, "longitude": 9.1940139, "source": "osm", "_tags": {"addr:housenumber": "81", "addr:street": "Viale Zara", "amenity": "hospital", "check_date": "2025-08-09", "healthcare": "hospital", "name": "Istituto Villa Marelli", "website": "https://www.ospedaleniguarda.it/in-evidenza/leggi/casa-di-comunita-villa-marelli"}}, {"name": "Ospedale Luigi Sacco", "latitude": 45.5197289, "longitude": 9.1234592, "source": "osm", "_tags": {"amenity": "hospital", "healthcare": "hospital", "name": "Ospedale Luigi Sacco", "old_name": "Sanatario di Vialba", "start_date": "1927", "wikidata": "Q3886605", "wikipedia": "it:Ospedale Luigi Sacco"}}, {"name": "Polo riabilitativo Istituto Gaetano Pini", "latitude": 45.5074599, "longitude": 9.2204925, "source": "osm", "_tags": {"amenity": "hospital", "building": "hospital", "building:levels": "4", "building:levels:underground": "1", "healthcare": "hospital", "name": "Polo riabilitativo Istituto Gaetano Pini"}}, {"name": "Istituti Clinici Zucchi", "latitude": 45.5866067, "longitude": 9.2720961, "source": "osm", "_tags": {"addr:city": "Monza", "addr:country": "IT", "addr:housenumber": "24", "addr:postcode": "20900", "addr:street": "Via Bartolomeo Zucchi", "amenity": "hospital", "email": "info.zucchi@grupposandonato.it", "healthcare": "hospital", "name": "Istituti Clinici Zucchi", "phone": "+39 039 83831", "website": "http://www.zucchi-gsd.it/"}}, {"name": "Ospedale Crotta Oltrocchi", "latitude": 45.5734437, "longitude": 9.5278325, "source": "osm", "_tags": {"alt_name": "Ospedale di Vaprio d'Adda", "amenity": "hospital", "healthcare": "hospital", "name": "Ospedale Crotta Oltrocchi", "official_name": "Presidio Ospedaliero Territoriale di Vaprio d'Adda \"Crotta Oltrocchi\""}}, {"name": "Padiglione 17", "latitude": 45.7989125, "longitude": 8.8481651, "source": "osm", "_tags": {"alt_name": "Padiglione C.R.T.", "amenity": "hospital", "building": "university", "healthcare": "hospital", "name": "Padiglione 17"}}, {"name": "Ospedale Sant'Antonio Abate", "latitude": 45.7393431, "longitude": 9.1420265, "source": "osm", "_tags": {"amenity": "hospital", "emergency": "yes", "healthcare": "hospital", "name": "Ospedale Sant'Antonio Abate"}}, {"name": "Istituto Clinico Città Studi", "latitude": 45.4852484, "longitude": 9.2250623, "source": "osm", "_tags": {"amenity": "hospital", "building": "hospital", "check_date": "2024-07-20", "emergency": "yes", "healthcare": "hospital", "name": "Istituto Clinico Città Studi", "source": "Regione Lombardia - La banca dati territoriali CTR10000 è prodotta da Regione Lombardia - Infrastruttura per l'Informazione Territoriale"}}, {"name": "Istituto Clinico Città Studi", "latitude": 45.4848323, "longitude": 9.225612, "source": "osm", "_tags": {"amenity": "hospital", "building": "hospital", "check_date": "2024-09-13", "emergency": "yes", "healthcare": "hospital", "name": "Istituto Clinico Città Studi", "source": "Regione Lombardia - La banca dati territoriali CTR10000 è prodotta da Regione Lombardia - Infrastruttura per l'Informazione Territoriale"}}, {"name": "ospedale C. Mira", "latitude": 45.308559, "longitude": 9.0135342, "source": "osm", "_tags": {"amenity": "hospital", "building": "hospital", "building:levels": "2", "healthcare": "hospital", "name": "ospedale C. Mira"}}, {"name": "Azienda Ospedaliera Sant'Antonio Abate - Gallarate", "latitude": 45.6566506, "longitude": 8.7919891, "source": "osm", "_tags": {"addr:city": "Gallarate", "addr:country": "IT", "addr:housenumber": "4", "addr:postcode": "21013", "addr:street": "Via Eusebio Pastori", "amenity": "hospital", "emergency": "yes", "fax": "+39 0331 751259", "healthcare": "hospital", "name": "Azienda Ospedaliera Sant'Antonio Abate - Gallarate", "phone": "+39 0331 751111", "website": "http://www.ospedaledigallarate.it/", "wheelchair": "yes", "wikidata": "Q30281242"}}, {"name": "Istituto Clinico Sant'Ambrogio", "latitude": 45.4844952, "longitude": 9.1532377, "source": "osm", "_tags": {"amenity": "hospital", "building": "hospital", "building:levels": "7", "healthcare": "hospital", "name": "Istituto Clinico Sant'Ambrogio", "wikidata": "Q50036761"}}, {"name": "", "latitude": 45.5731933, "longitude": 9.1555956, "source": "osm", "_tags": {"amenity": "hospital"}}, {"name": "Don Orione", "latitude": 45.7154384, "longitude": 9.6935218, "source": "osm", "_tags": {"amenity": "hospital", "name": "Don Orione"}}, {"name": "Ospedale \"Pesenti Fenaroli\" di Alzano Lombardo", "latitude": 45.7315767, "longitude": 9.72573, "source": "osm", "_tags": {"alt_name": "Ospedale di Alzano Lombardo;Pesenti Fenaroli", "amenity": "hospital", "emergency": "yes", "healthcare": "hospital", "name": "Ospedale \"Pesenti Fenaroli\" di Alzano Lombardo"}}, {"name": "Ospedale Giuseppe Casati", "latitude": 45.5476333, "longitude": 9.0455569, "source": "osm", "_tags": {"addr:city": "Rho", "addr:housenumber": "1", "addr:postcode": "20017", "addr:street": "Via Luigi Settembrini", "amenity": "hospital", "healthcare": "hospital", "name": "Ospedale Giuseppe Casati", "phone": "+3902 9943 04490"}}, {"name": "Ospedale Civico Rossi", "latitude": 45.1703907, "longitude": 9.6517683, "source": "osm", "_tags": {"amenity": "hospital", "healthcare": "hospital", "name": "Ospedale Civico Rossi"}}, {"name": "Istituto Nazionale dei Tumori", "latitude": 45.4751298, "longitude": 9.2313697, "source": "osm", "_tags": {"amenity": "hospital", "healthcare": "hospital", "name": "Istituto Nazionale dei Tumori", "name:en": "National Cancer Institute", "name:it": "Istituto Nazionale dei Tumori", "old_name": "Istituto Nazionale Vittorio Emanuele III per lo Studio e la Cura del Cancro", "operator": "Fondazione IRCCS Istituto Nazionale dei Tumori", "start_date": "1928", "website": "https://www.istitutotumori.mi.it/", "wikidata": "Q3747179", "wikimedia_commons": "Category:National Cancer Institute (Milan)", "wikipedia": "it:Fondazione IRCCS Istituto nazionale dei tumori"}}, {"name": "Casa di cura \"Le Betulle\"", "latitude": 45.7288436, "longitude": 8.9968093, "source": "osm", "_tags": {"amenity": "hospital", "building": "hospital", "healthcare": "hospital", "name": "Casa di cura \"Le Betulle\""}}, {"name": "Vecchio Ospedale Sant'Anna", "latitude": 45.7914603, "longitude": 9.089182, "source": "osm", "_tags": {"amenity": "hospital", "healthcare": "hospital", "name": "Vecchio Ospedale Sant'Anna"}}, {"name": "Vidas ospice", "latitude": 45.4955402, "longitude": 9.1107715, "source": "osm", "_tags": {"amenity": "hospital", "building": "apartments", "name": "Vidas ospice"}}, {"name": "Ospedale Civico di Codogno", "latitude": 45.1589802, "longitude": 9.7127782, "source": "osm", "_tags": {"addr:city": "Codogno", "addr:country": "IT", "addr:housenumber": "1", "addr:street": "Viale Guglielmo Marconi", "amenity": "hospital", "emergency": "yes", "healthcare": "hospital", "name": "Ospedale Civico di Codogno", "operator": "Azienda Socio Sanitaria Territoriale di Lodi", "wikidata": "Q89574396"}}, {"name": "Ospedale Villa Beretta", "latitude": 45.7705592, "longitude": 9.269536, "source": "osm", "_tags": {"amenity": "hospital", "healthcare": "hospital", "name": "Ospedale Villa Beretta", "phone": "+39 031 8544211", "website": "https://www.valduce.it/index.php/villa-beretta"}}, {"name": "Hospice", "latitude": 45.8022804, "longitude": 9.102372, "source": "osm", "_tags": {"amenity": "hospital", "building": "yes", "name": "Hospice"}}, {"name": "Guglielmo da Saliceto", "latitude": 45.0551942, "longitude": 9.6803419, "source": "osm", "_tags": {"addr:city": "Piacenza", "addr:postcode": "29121", "addr:street": "Cantone del Cristo", "amenity": "hospital", "emergency": "yes", "healthcare": "hospital", "name": "Guglielmo da Saliceto"}}, {"name": "Ex Ospedale Militare", "latitude": 45.0474929, "longitude": 9.6850809, "source": "osm", "_tags": {"amenity": "hospital", "barrier": "wall", "emergency": "no", "name": "Ex Ospedale Militare"}}, {"name": "Policlinico di Monza", "latitude": 45.5842357, "longitude": 9.2952252, "source": "osm", "_tags": {"addr:city": "Monza", "addr:country": "IT", "addr:housenumber": "111", "addr:postcode": "20900", "addr:street": "Via Carlo Amati", "amenity": "hospital", "healthcare": "hospital", "name": "Policlinico di Monza", "phone": "+39 039 28101", "website": "https://www.policlinicodimonza.it/"}}, {"name": "ASST Nord Milano - Casa di Comunità di Cusano Milanino", "latitude": 45.5531815, "longitude": 9.1866765, "source": "osm", "_tags": {"addr:city": "Cusano Milanino", "addr:country": "IT", "addr:housenumber": "1", "addr:postcode": "20095", "addr:street": "Via Ginestra", "amenity": "hospital", "building": "yes", "emergency": "no", "healthcare": "hospital", "name": "ASST Nord Milano - Casa di Comunità di Cusano Milanino", "operator": "ASL", "operator:wikidata": "Q3631467", "source": "DbTR - Ingombro al suolo corpo edificato"}}, {"name": "Centro Cardiologico Monzino", "latitude": 45.4439321, "longitude": 9.2621502, "source": "osm", "_tags": {"amenity": "hospital", "building": "hospital", "contact:phone": "+39 02 580021", "contact:website": "http://www.cardiologicomonzino.it/", "emergency": "yes", "healthcare": "hospital", "name": "Centro Cardiologico Monzino", "wikidata": "Q3664791", "wikipedia": "it:Centro cardiologico Monzino"}}, {"name": "Multimedica", "latitude": 45.5365598, "longitude": 9.2192578, "source": "osm", "_tags": {"addr:housenumber": "300", "addr:postcode": "20099", "addr:street": "Via Milanese", "amenity": "hospital", "healthcare": "hospital", "name": "Multimedica", "opening_hours": "24/7", "phone": "02242091", "website": "https://www.multimedica.it/"}}, {"name": "Ospedale città di Sesto San Giovanni", "latitude": 45.5366099, "longitude": 9.2242108, "source": "osm", "_tags": {"addr:city": "Sesto San Giovanni", "addr:country": "IT", "addr:housenumber": "83", "addr:postcode": "20099", "addr:street": "Viale Giacomo Matteotti", "amenity": "hospital", "check_date": "2025-07-12", "name": "Ospedale città di Sesto San Giovanni", "wheelchair": "yes", "wikidata": "Q96213730"}}, {"name": "", "latitude": 45.6988621, "longitude": 9.2990336, "source": "osm", "_tags": {"amenity": "hospital", "building": "yes"}}, {"name": "Ospedale San Leopoldo Mandic", "latitude": 45.6980994, "longitude": 9.4273927, "source": "osm", "_tags": {"addr:city": "Merate", "addr:housenumber": "1", "addr:postcode": "23807", "addr:street": "Largo Beato Leopoldo Mandic", "amenity": "hospital", "contact:phone": "+39 039 5916431", "emergency": "yes", "healthcare": "hospital", "name": "Ospedale San Leopoldo Mandic", "wheelchair": "yes"}}, {"name": "Casa di Cura Privata Villa Santa Apollonia", "latitude": 45.7138583, "longitude": 9.6790698, "source": "osm", "_tags": {"amenity": "hospital", "building": "hospital", "building:levels": "4", "check_date": "2025-08-04", "emergency": "no", "name": "Casa di Cura Privata Villa Santa Apollonia", "roof:levels": "1", "roof:shape": "flat"}}, {"name": "Ospedale Bassini", "latitude": 45.5464656, "longitude": 9.2155297, "source": "osm", "_tags": {"addr:city": "Cinisello Balsamo", "addr:country": "IT", "addr:housenumber": "50", "addr:postcode": "20092", "addr:street": "Via Gorki", "amenity": "hospital", "emergency": "yes", "healthcare": "hospital", "name": "Ospedale Bassini", "phone": "+39 02 57991", "website": "http://www.icp.mi.it/bassini-cinisello-balsamo"}}, {"name": "", "latitude": 45.7016734, "longitude": 9.6199764, "source": "osm", "_tags": {"amenity": "hospital", "building": "yes"}}, {"name": "", "latitude": 45.0552573, "longitude": 9.4406629, "source": "osm", "_tags": {"amenity": "hospital", "building": "yes", "healthcare": "hospital", "source": "Regione Emilia Romagna"}}, {"name": "Casa Protetta Fontanella", "latitude": 45.0541498, "longitude": 9.6137514, "source": "osm", "_tags": {"amenity": "hospital", "healthcare": "hospital", "name": "Casa Protetta Fontanella", "source": "Regione Emilia Romagna"}}, {"name": "Centro Socio Riabilitativo", "latitude": 45.0517983, "longitude": 9.5965005, "source": "osm", "_tags": {"addr:city": "San Nicolò a Trebbia", "addr:postcode": "29010", "addr:street": "Via Lampugnana", "amenity": "hospital", "building": "yes", "name": "Centro Socio Riabilitativo", "source": "Regione Emilia Romagna"}}, {"name": "ASST Brianza - Ospedale di Vimercate", "latitude": 45.6082557, "longitude": 9.3563764, "source": "osm", "_tags": {"addr:city": "Vimercate", "addr:country": "IT", "addr:full": "Via Santi Cosma e Damiano, 10 , Vimercate", "addr:housenumber": "10", "addr:postcode": "20871", "addr:street": "Via Santi Cosma e Damiano", "amenity": "hospital", "contact:phone": "+39 039 66541", "electricity": "grid", "emergency": "yes", "health_amenity:type": "dialysis;emergency_department;imaging_equipment;intensive_care_unit;laboratory;ultrasound;x_ray", "healthcare": "hospital", "healthcare:speciality": "anaesthetics;cardiac_surgery;cardiology;diagnostic_radiology;emergency;endocrinology;gastroenterological_surgery;gynaecology;intensive;nephrology;neurology;neuropsychiatry;oncology;orthopaedics;paediatrics;psychiatry;thoracic_surgery;trauma;urology", "image": "https://www.asst-brianza.it/web/img/presidi/vimercate.png", "insurance:health": "public", "name": "ASST Brianza - Ospedale di Vimercate", "opening_hours": "24/7", "operational_status": "operational", "operator": "Azienda Socio Sanitaria Territoriale della Brianza", "operator:type": "public", "phone": "+39 039 66541", "ref:vatin": "IT02733390963", "type": "hospital", "water_source": "powered_pump", "website": "https://www.asst-brianza.it", "wheelchair": "yes"}}, {"name": "Ospedale Civile di Voghera", "latitude": 44.9949661, "longitude": 9.0159591, "source": "osm", "_tags": {"amenity": "hospital", "emergency": "yes", "healthcare": "hospital", "name": "Ospedale Civile di Voghera", "toilets:wheelchair": "yes", "wheelchair": "yes"}}, {"name": "Istituto Europeo di Oncologia", "latitude": 45.4144642, "longitude": 9.2081533, "source": "osm", "_tags": {"amenity": "hospital", "email": "urp@ieo.it", "healthcare": "hospital", "healthcare:speciality": "radiology;radiotherapy;diagnostic_radiology", "man_made": "particle_accelerator", "name": "Istituto Europeo di Oncologia", "name:en": "European Institute of Oncology", "particle_accelerator": "circular", "phone": "+39 02 574891", "substance": "proton", "website": "https://www.ieo.it/", "wikidata": "Q1376693", "wikipedia": "it:Istituto Europeo di Oncologia"}}, {"name": "Ospedale di Tradate \"Luigi Galmarini\"", "latitude": 45.720808, "longitude": 8.900552, "source": "osm", "_tags": {"amenity": "hospital", "healthcare": "hospital", "name": "Ospedale di Tradate \"Luigi Galmarini\""}}, {"name": "Istituto di riabilitazione \"Salvatore Maugeri\"", "latitude": 45.7198829, "longitude": 8.9113433, "source": "osm", "_tags": {"amenity": "hospital", "name": "Istituto di riabilitazione \"Salvatore Maugeri\"", "phone": "+39 0331 829111", "website": "https://www.fsm.it/istituto.php?id=3010"}}, {"name": "Istituti Clinici Scientifici Maugeri", "latitude": 45.7198286, "longitude": 8.9113526, "source": "osm", "_tags": {"addr:city": "Tradate", "addr:street": "Via Crotto Roncaccio", "amenity": "hospital", "healthcare": "hospital", "name": "Istituti Clinici Scientifici Maugeri"}}, {"name": "ASST Sette Laghi - Casa di Comunità di Tradate", "latitude": 45.7086409, "longitude": 8.9126846, "source": "osm", "_tags": {"addr:city": "Tradate", "addr:housenumber": "16", "addr:postcode": "21049", "addr:street": "Via Gradisca d'Isonzo", "amenity": "hospital", "building": "civic", "email": "casadicomunita.tradate@asst-settelaghi.it", "healthcare": "hospital", "name": "ASST Sette Laghi - Casa di Comunità di Tradate", "operator": "ASL", "operator:type": "public", "operator:wikidata": "Q3631467", "phone": "+39 0331 815115", "website": "https://www.asst-settelaghi.it/sede-territoriale-di-tradate"}}, {"name": "", "latitude": 45.6916504, "longitude": 9.1848461, "source": "osm", "_tags": {"amenity": "hospital"}}, {"name": "Villaggio Amico", "latitude": 45.6436954, "longitude": 9.0003977, "source": "osm", "_tags": {"amenity": "hospital", "emergency": "no", "name": "Villaggio Amico"}}, {"name": "Ospedale di Saronno", "latitude": 45.6301096, "longitude": 9.0397229, "source": "osm", "_tags": {"addr:city": "Saronno", "addr:housenumber": "1", "addr:postcode": "21047", "addr:street": "Piazza don Giuseppe Borella", "amenity": "hospital", "contact:phone": "+39 02 96131", "emergency": "yes", "healthcare": "hospital", "kids_area": "no", "name": "Ospedale di Saronno", "operator": "ATS Valle dell'Olona", "website": "https://www.asst-valleolona.it/ospedali/ospedale-di-saronno/", "wikidata": "Q95993623"}}, {"name": "Ospedale Civile di Vigevano", "latitude": 45.3203891, "longitude": 8.8660127, "source": "osm", "_tags": {"amenity": "hospital", "emergency": "yes", "healthcare": "hospital", "name": "Ospedale Civile di Vigevano"}}, {"name": "Humanitas Mater Domini", "latitude": 45.609131, "longitude": 8.9066919, "source": "osm", "_tags": {"addr:city": "Castellanza", "addr:country": "IT", "addr:housenumber": "2", "addr:postcode": "21053", "addr:street": "Via Gerenzano", "amenity": "hospital", "emergency": "yes", "fax": "+39 0331 476204", "healthcare": "hospital", "name": "Humanitas Mater Domini", "phone": "+39 0331 476111", "website": "https://www.materdomini.it/", "wikidata": "Q30260631"}}, {"name": "Casa di Comunità", "latitude": 45.53701, "longitude": 9.1894023, "source": "osm", "_tags": {"addr:city": "Bresso", "addr:housenumber": "46", "addr:postcode": "20091", "addr:street": "Via Giulio Centurelli", "amenity": "hospital", "building": "yes", "healthcare": "hospital", "healthcare:speciality": "vaccination;blood_check;guardia_medica;poliambulatorio", "name": "Casa di Comunità", "operator": "ASST Nord Milano", "operator:type": "public"}}, {"name": "Avis", "latitude": 45.718081, "longitude": 9.6847908, "source": "osm", "_tags": {"amenity": "hospital", "emergency": "no", "healthcare": "blood_donation", "name": "Avis"}}, {"name": "Ospedale Arnaboldi", "latitude": 45.0668553, "longitude": 9.2647894, "source": "osm", "_tags": {"amenity": "hospital", "healthcare": "hospital", "name": "Ospedale Arnaboldi"}}, {"name": "Centro Medico", "latitude": 45.6159705, "longitude": 9.2816988, "source": "osm", "_tags": {"amenity": "hospital", "building": "hospital", "name": "Centro Medico"}}, {"name": "Ospedale di Bollate", "latitude": 45.5402824, "longitude": 9.1165146, "source": "osm", "_tags": {"amenity": "hospital", "emergency": "yes", "healthcare": "hospital", "name": "Ospedale di Bollate"}}, {"name": "Ospedale Tortona", "latitude": 44.8933317, "longitude": 8.8639845, "source": "osm", "_tags": {"amenity": "hospital", "healthcare": "hospital", "name": "Ospedale Tortona"}}, {"name": "Istituto di Ricovero e Cura a Carattere Scientifico San Raffaele", "latitude": 45.5061844, "longitude": 9.2654334, "source": "osm", "_tags": {"alt_name": "Ospedale San Raffaele", "amenity": "hospital", "check_date": "2024-12-18", "contact:housenumber": "60", "contact:street": "Via Olgettina", "email": "info@hsr.it", "emergency": "yes", "healthcare": "hospital", "name": "Istituto di Ricovero e Cura a Carattere Scientifico San Raffaele", "phone": "+39 02 26431", "ref:vatin": "IT07636600962", "short_name": "I.R.C.C.S. Ospedale San Raffaele;IRCCS Ospedale San Raffaele", "source": "https://www.hsr.it/", "wikidata": "Q3145229", "wikimedia_commons": "Category:Ospedale San Raffaele (Milan)", "wikipedia": "en:San Raffaele Hospital"}}, {"name": "", "latitude": 45.6001129, "longitude": 8.7512877, "source": "osm", "_tags": {"amenity": "hospital", "healthcare": "hospital", "height": "5.201"}}, {"name": "Azienda Ospedaliera Ospedale di Circolo di Busto Arsizio", "latitude": 45.6225255, "longitude": 8.845622, "source": "osm", "_tags": {"alt_name": "Ospedale di Busto Arsizio", "amenity": "hospital", "emergency": "yes", "healthcare": "hospital", "name": "Azienda Ospedaliera Ospedale di Circolo di Busto Arsizio", "phone": "+39 0331 699111", "toilets:wheelchair": "yes", "website": "https://www.asst-valleolona.it/presidi/?nP=ospedale-di-busto-arsizio", "wheelchair": "yes", "wikidata": "Q23655529", "wikipedia": "it:Ospedale di Circolo di Busto Arsizio"}}, {"name": "Pronto Soccorso", "latitude": 45.3533034, "longitude": 9.6808212, "source": "osm", "_tags": {"building": "hospital", "healthcare": "hospital", "name": "Pronto Soccorso"}}, {"name": "ASST Brianza - Ospedale Pio XI", "latitude": 45.6263321, "longitude": 9.1960603, "source": "osm", "_tags": {"addr:city": "Desio", "addr:country": "IT", "addr:housenumber": "1", "addr:postcode": "20832", "addr:street": "Via Mazzini", "amenity": "hospital", "check_date": "2024-12-19", "emergency": "yes", "healthcare": "hospital", "image": "https://www.asst-brianza.it/web/img/presidi/desio.png", "is_in": "Azienda Socio Sanitaria Territoriale di Monza", "name": "ASST Brianza - Ospedale Pio XI", "operator": "Azienda Socio Sanitaria Territoriale della Brianza", "operator:type": "public", "phone": "+39 0362 3851", "website": "https://www.asst-brianza.it"}}, {"name": "Poliambulatorio - Sede ASL", "latitude": 45.2544257, "longitude": 9.1290517, "source": "osm", "_tags": {"amenity": "hospital", "building": "yes", "healthcare": "hospital", "name": "Poliambulatorio - Sede ASL"}}, {"name": "Ospedale San Gerardo", "latitude": 45.602285, "longitude": 9.2601687, "source": "osm", "_tags": {"addr:city": "Monza", "addr:housenumber": "33", "addr:postcode": "20900", "addr:street": "Via Giovanni Battista Pergolesi", "amenity": "hospital", "emergency": "yes", "healthcare": "hospital", "name": "Ospedale San Gerardo", "operator": "Azienda Socio Sanitaria Terrritoriale di Monza", "operator:type": "public", "phone": "+39 039 2331", "website": "https://www.asst-monza.it/ospedale-san-gerardo", "wikidata": "Q3886635"}}, {"name": "ASL - Corteolona", "latitude": 45.1545394, "longitude": 9.372263, "source": "osm", "_tags": {"addr:city": "Corteolona", "addr:housenumber": "4", "addr:street": "Via dei Longobardi", "amenity": "hospital", "building": "yes", "name": "ASL - Corteolona"}}, {"name": "Servizi Territoriali ASST Fatebenefratelli Sacco", "latitude": 45.5013992, "longitude": 9.2373581, "source": "osm", "_tags": {"amenity": "hospital", "building:part": "yes", "emergency": "no", "healthcare": "hospital", "name": "Servizi Territoriali ASST Fatebenefratelli Sacco", "operator": "ASST Fatebenefratelli Sacco", "operator:type": "public", "phone": "+39 02 57993818", "website": "https://www.asst-fbf-sacco.it/", "wheelchair": "yes"}}, {"name": "Ospedale nuovo di Legnano", "latitude": 45.5803294, "longitude": 8.8879341, "source": "osm", "_tags": {"addr:city": "Legnano", "addr:housenumber": "3", "addr:postcode": "20025", "addr:street": "Via Giovanni Paolo II", "amenity": "hospital", "contact:yelp": "https://www.yelp.com/biz/azienda-ospedaliera-ospedale-di-legnano-legnano", "emergency": "yes", "healthcare": "hospital", "name": "Ospedale nuovo di Legnano", "phone": "+39 0331 449 111", "ref:vatin": "IT09319650967", "website": "https://www.asst-ovestmi.it/", "wikidata": "Q40340098", "wikipedia": "it:Ospedale civile di Legnano"}}, {"name": "Ospedale di Circolo - Rho", "latitude": 45.5345193, "longitude": 9.0347442, "source": "osm", "_tags": {"addr:city": "Rho", "addr:housenumber": "250", "addr:postcode": "20017", "addr:street": "Corso Europa", "amenity": "hospital", "emergency": "yes", "healthcare": "hospital", "name": "Ospedale di Circolo - Rho", "website": "http://www.aogarbagnate.lombardia.it/salviniweb/hrho.html"}}, {"name": "Ospedale Guido Salvini", "latitude": 45.583029, "longitude": 9.0944868, "source": "osm", "_tags": {"addr:city": "Garbagnate Milanese", "addr:housenumber": "95", "addr:postcode": "20024", "addr:street": "Viale Carlo Forlanini", "alt_name": "Ospedale di Garbagnate Milanese", "amenity": "hospital", "building": "hospital", "building:levels": "3", "building:levels:underground": "1", "emergency": "yes", "healthcare": "hospital", "name": "Ospedale Guido Salvini", "official_name": "Presidio Ospedaliero - Garbagnate Milanese", "operator": "ASST Rhodense", "operator:type": "public", "operator:website": "https://www.asst-rhodense.it/", "phone": "+39 02 994301", "planimetry": "https://www.asst-rhodense.it/inew/ASST/strutture/planimetria-G.html", "website": "https://www.asst-rhodense.it/inew/nuovo-sito/home/ospedali/garbagnate-milanese.html"}}, {"name": "Ospedale Valduce", "latitude": 45.8104854, "longitude": 9.0881862, "source": "osm", "_tags": {"amenity": "hospital", "emergency": "yes", "healthcare": "hospital", "name": "Ospedale Valduce", "wheelchair": "yes", "wikidata": "Q3886649", "wikipedia": "it:Ospedale Valduce"}}, {"name": "Ospedale Sant'Anna di Como", "latitude": 45.7932817, "longitude": 9.0457312, "source": "osm", "_tags": {"amenity": "hospital", "emergency": "yes", "healthcare": "hospital", "name": "Ospedale Sant'Anna di Como", "wikidata": "Q3886644", "wikipedia": "it:Ospedale Sant'Anna"}}, {"name": "La Nostra Famiglia - Lungodegenza / Riabilitazione per Disabili Gravi", "latitude": 45.7879477, "longitude": 9.2887112, "source": "osm", "_tags": {"addr:city": "Bosisio Parini", "addr:housenumber": "20", "addr:postcode": "23842", "addr:street": "Via Don Luigi Monza", "amenity": "hospital", "emergency": "no", "healthcare": "hospital", "name": "La Nostra Famiglia - Lungodegenza / Riabilitazione per Disabili Gravi", "opening_hours": "Mo-Fr 08:15-17:30; Sa 09:00-12:00", "operator": "La Nostra Famiglia", "operator:type": "private", "wheelchair": "yes"}}, {"name": "RSA", "latitude": 45.4697525, "longitude": 9.1275627, "source": "osm", "_tags": {"amenity": "hospital", "barrier": "fence", "construction": "residential", "healthcare": "hospital", "landuse": "construction", "name": "RSA"}}, {"name": "Presidio Ospedaliero IRCCS San Matteo \"Ugo Dozzio\"", "latitude": 45.1562664, "longitude": 9.3133054, "source": "osm", "_tags": {"amenity": "hospital", "healthcare": "hospital", "name": "Presidio Ospedaliero IRCCS San Matteo \"Ugo Dozzio\""}}, {"name": "Istituto Clinico Humanitas", "latitude": 45.3734364, "longitude": 9.1651239, "source": "osm", "_tags": {"amenity": "hospital", "healthcare": "hospital", "name": "Istituto Clinico Humanitas", "wikidata": "Q3803602"}}, {"name": "ASST Brianza - Ospedale di Carate Brianza", "latitude": 45.6706491, "longitude": 9.2463629, "source": "osm", "_tags": {"addr:city": "Carate Brianza", "addr:country": "IT", "addr:housenumber": "9", "addr:postcode": "20841", "addr:street": "Viale Mosè Bianchi", "alt_name": "Ospedale di Carate Brianza", "amenity": "hospital", "emergency": "yes", "healthcare": "hospital", "image": "https://www.asst-brianza.it/web/img/presidi/carate.png", "name": "ASST Brianza - Ospedale di Carate Brianza", "old_name": "Ospedale Vittorio Emanuele III", "operator": "Azienda Socio Sanitaria Territoriale della Brianza", "operator:type": "public", "phone": "+39 0362 9841", "website": "https://www.asst-brianza.it"}}, {"name": "Ospedale di Lissone", "latitude": 45.6202613, "longitude": 9.2383477, "source": "osm", "_tags": {"addr:city": "Lissone", "addr:country": "IT", "addr:housenumber": "16", "addr:postcode": "20851", "addr:street": "Via Monsignore Ennio Bernasconi", "amenity": "hospital", "fax": "+39 039 2333918", "healthcare": "hospital", "name": "Ospedale di Lissone", "opening_hours": "Mo-Fr 07:30-16:00", "operator": "Azienda Ospedaliera San Gerardo", "phone": "+39 039 2333931", "wheelchair": "yes"}}, {"name": "Ospedale Costantino Cantù", "latitude": 45.3941714, "longitude": 8.912882, "source": "osm", "_tags": {"amenity": "hospital", "emergency": "yes", "healthcare": "hospital", "layer": "1", "name": "Ospedale Costantino Cantù", "source": "survey", "source:geometry": "bing", "wikidata": "Q112173502"}}, {"name": "Policlinico San Marco", "latitude": 45.6042366, "longitude": 9.5909715, "source": "osm", "_tags": {"addr:housenumber": "7", "addr:street": "Corso Europa", "amenity": "hospital", "barrier": "wall", "check_date": "2025-03-18", "email": "info.psm@grupposandonato.it", "emergency": "yes", "healthcare": "hospital", "name": "Policlinico San Marco", "phone": "+39 035 886111", "website": "https://www.grupposandonato.it/strutture/policlinico-san-marco", "wheelchair": "yes"}}, {"name": "Ospedale Asilo Vittoria", "latitude": 45.2502683, "longitude": 8.7569697, "source": "osm", "_tags": {"amenity": "hospital", "healthcare": "hospital", "name": "Ospedale Asilo Vittoria"}}, {"name": "Presidio Ospedaliero di Vizzolo Predabissi", "latitude": 45.3584424, "longitude": 9.3410013, "source": "osm", "_tags": {"addr:city": "Vizzolo Predabissi", "addr:housenumber": "1", "addr:postcode": "20070", "addr:street": "Via Pandina", "amenity": "hospital", "check_date": "2024-04-28", "emergency": "yes", "healthcare": "hospital", "name": "Presidio Ospedaliero di Vizzolo Predabissi"}}, {"name": "Ospedale di Cuggiono", "latitude": 45.5094367, "longitude": 8.8225645, "source": "osm", "_tags": {"amenity": "hospital", "name": "Ospedale di Cuggiono", "operator": "Azienda Ospedaliera \"Ospedale Civico di Legnano\""}}, {"name": "ASST Brianza - Ospedale di Giussano", "latitude": 45.6912134, "longitude": 9.2078321, "source": "osm", "_tags": {"addr:city": "Giussano", "addr:housenumber": "65", "addr:postcode": "20833", "addr:street": "Via Milano", "amenity": "hospital", "healthcare": "hospice", "image": "https://www.asst-brianza.it/web/img/presidi/giussano.png", "name": "ASST Brianza - Ospedale di Giussano", "operator": "Azienda Socio Sanitaria Territoriale della Brianza", "operator:type": "public", "phone": "+39 0362 4851", "website": "https://www.asst-brianza.it"}}, {"name": "Villa Bianca - Multimedica", "latitude": 45.604836, "longitude": 9.1166304, "source": "osm", "_tags": {"addr:city": "Limbiate", "addr:country": "IT", "addr:housenumber": "3", "addr:postcode": "20812", "addr:street": "Via Fratelli Bandiera", "amenity": "hospital", "building": "yes", "name": "Villa Bianca - Multimedica"}}, {"name": "", "latitude": 45.7018054, "longitude": 9.6194209, "source": "osm", "_tags": {"amenity": "hospital", "building": "yes"}}, {"name": "Centro di riabilitazione \"La Nostra Famiglia\"", "latitude": 45.7706522, "longitude": 8.8951923, "source": "osm", "_tags": {"amenity": "hospital", "building": "hospital", "email": "vedano.olona@lanostrafamiglia.it", "healthcare": "hospital", "name": "Centro di riabilitazione \"La Nostra Famiglia\"", "operator": "Associazione \"La Nostra Famiglia\"", "phone": "+39 0332 866080", "website": "https://lanostrafamiglia.it/"}}, {"name": "Fondazione Raimondi Francesco", "latitude": 45.6367509, "longitude": 8.8997374, "source": "osm", "_tags": {"addr:city": "Gorla Minore", "addr:housenumber": "1", "addr:postcode": "21055", "addr:street": "Via Alessandro Volta", "amenity": "hospital", "email": "info@fondazioneraimondi.it", "emergency": "no", "healthcare": "hospital", "healthcare:speciality": "general", "name": "Fondazione Raimondi Francesco", "operator": "Fondazione Raimondi Francesco", "operator:type": "private", "phone": "+39 0331 601133", "website": "https://www.fondazioneraimondi.it/"}}, {"name": "Humanitas San Pio X", "latitude": 45.4947802, "longitude": 9.189372, "source": "osm", "_tags": {"addr:housenumber": "31", "addr:street": "Via Francesco Nava", "amenity": "hospital", "check_date": "2025-08-09", "healthcare": "hospital", "name": "Humanitas San Pio X", "phone": "+39 02 69511", "website": "https://www.humanitas-sanpiox.it/"}}, {"name": "Habilita San Marco s.p.a. - sede", "latitude": 45.6985143, "longitude": 9.667238, "source": "osm", "_tags": {"amenity": "hospital", "building": "hospital", "name": "Habilita San Marco s.p.a. - sede"}}, {"name": "Habilita San Marco s.p.a. - sezione", "latitude": 45.6993611, "longitude": 9.6687872, "source": "osm", "_tags": {"amenity": "hospital", "building": "hospital", "name": "Habilita San Marco s.p.a. - sezione"}}, {"name": "Istituto di Neuroriabilitazione ad Alta Complessità Habilita", "latitude": 45.5900776, "longitude": 9.6052573, "source": "osm", "_tags": {"addr:city": "Ciserano", "addr:housenumber": "1", "addr:postcode": "24040", "addr:street": "Via Bologna", "amenity": "hospital", "emergency": "no", "healthcare": "hospital", "name": "Istituto di Neuroriabilitazione ad Alta Complessità Habilita", "operator": "Habilita S.p.A.", "operator:type": "private"}}, {"name": "Istituto Clinico Beato Matteo", "latitude": 45.3071276, "longitude": 8.8701463, "source": "osm", "_tags": {"addr:housenumber": "84", "addr:street": "Corso Pavia", "amenity": "hospital", "building": "yes", "healthcare": "hospital", "name": "Istituto Clinico Beato Matteo"}}, {"name": "ASST Brianza - Ospedale di Seregno", "latitude": 45.6539069, "longitude": 9.2056786, "source": "osm", "_tags": {"addr:city": "Seregno", "addr:housenumber": "1", "addr:postcode": "20831", "addr:street": "Via Giuseppe Verdi", "amenity": "hospital", "contact:phone": "+39 0362 385400", "healthcare": "hospital", "image": "https://www.asst-brianza.it/web/img/presidi/seregno.png", "name": "ASST Brianza - Ospedale di Seregno", "operator": "Azienda Socio Sanitaria Territoriale della Brianza", "operator:type": "public", "phone": "+39 0362 385 400", "website": "https://www.asst-brianza.it"}}, {"name": "RSA Mons. Speranza", "latitude": 45.793657, "longitude": 9.6668858, "source": "osm", "_tags": {"amenity": "hospital", "emergency": "no", "name": "RSA Mons. Speranza"}}, {"name": "RSA Mons. Speranza", "latitude": 45.7934084, "longitude": 9.6666148, "source": "osm", "_tags": {"amenity": "hospital", "emergency": "no", "name": "RSA Mons. Speranza"}}, {"name": "Ospedale dei Bambini \"Vittore Buzzi\"", "latitude": 45.4856999, "longitude": 9.1666368, "source": "osm", "_tags": {"amenity": "hospital", "email": "obm@obmonlus.com", "fax": "+39 02 57995452", "healthcare": "hospital", "name": "Ospedale dei Bambini \"Vittore Buzzi\"", "phone": "+39 02 57995359", "website": "https://ospedaledeibambini.it/", "wikidata": "Q30279919", "wikipedia": "it:Ospedale dei bambini Vittore Buzzi"}}, {"name": "Istituto Stomatologico Italiano", "latitude": 45.4579776, "longitude": 9.2036151, "source": "osm", "_tags": {"amenity": "hospital", "building": "hospital", "building:levels": "6", "email": "info@isimilano.eu", "fax": "+39 02 5513071", "healthcare": "hospital", "name": "Istituto Stomatologico Italiano", "phone": "+39 02 541761", "website": "https://www.isimilano.eu/"}}, {"name": "Ospedale San Giuseppe", "latitude": 45.4635012, "longitude": 9.1719085, "source": "osm", "_tags": {"amenity": "hospital", "emergency": "yes", "healthcare": "hospital", "name": "Ospedale San Giuseppe", "phone": "+39 02 85991", "website": "https://www.multimedica.it/it/hospital/ospedale-san-giuseppe/030367", "wheelchair": "yes", "wikidata": "Q87648925", "wikipedia": "it:Ospedale San Giuseppe (Milano)"}}, {"name": "ATS Milano Centro vaccinale", "latitude": 45.4424871, "longitude": 9.2184622, "source": "osm", "_tags": {"amenity": "hospital", "building": "yes", "emergency": "no", "healthcare": "hospital", "healthcare:speciality": "vaccination", "name": "ATS Milano Centro vaccinale", "operator": "ASL", "operator:type": "public", "operator:wikidata": "Q3631467", "operator:wikipedia": "it:Azienda sanitaria locale"}}, {"name": "", "latitude": 45.0119627, "longitude": 9.4407366, "source": "osm", "_tags": {"amenity": "hospital", "healthcare": "hospital"}}, {"name": "Azienda Ospedaliera Anastasio Zappatoni", "latitude": 45.5227857, "longitude": 9.5162542, "source": "osm", "_tags": {"addr:city": "Cassano d'Adda", "addr:street": "Via Quintiliano Di Vona", "amenity": "hospital", "contact:website": "https://www.asst-melegnano-martesana.it/lazienda/strutture-ospedaliere/ospedale-di-cassano-dadda/", "emergency": "no", "healthcare": "hospital", "name": "Azienda Ospedaliera Anastasio Zappatoni"}}, {"name": "Ospedale Gaetano Pini", "latitude": 45.454707, "longitude": 9.1938577, "source": "osm", "_tags": {"amenity": "hospital", "healthcare": "hospital", "name": "Ospedale Gaetano Pini"}}, {"name": "Ospedale Macedonio Melloni", "latitude": 45.4663415, "longitude": 9.2190851, "source": "osm", "_tags": {"amenity": "hospital", "emergency": "yes", "healthcare": "hospital", "name": "Ospedale Macedonio Melloni", "wikidata": "Q116153015"}}, {"name": "Istituti Clinici Scientifici Maugeri", "latitude": 45.720346, "longitude": 8.911369, "source": "osm", "_tags": {"addr:city": "Tradate", "addr:street": "Via Crotto Roncaccio", "amenity": "hospital", "healthcare": "hospital", "name": "Istituti Clinici Scientifici Maugeri"}}, {"name": "Ospedale Giuseppe Fornaroli", "latitude": 45.4709187, "longitude": 8.8936127, "source": "osm", "_tags": {"addr:city": "Magenta", "addr:housenumber": "50", "addr:postcode": "20013", "addr:street": "Via al donatore di sangue", "amenity": "hospital", "emergency": "yes", "healthcare": "hospital", "loc_name": "Ospedale di Magenta", "name": "Ospedale Giuseppe Fornaroli", "phone": "+39 02 979631", "website": "https://www.asst-ovestmi.it/"}}, {"name": "Clinica Castelli", "latitude": 45.6954383, "longitude": 9.6591941, "source": "osm", "_tags": {"amenity": "hospital", "building": "hospital", "name": "Clinica Castelli", "wheelchair": "yes"}}, {"name": "Ospedale Maggiore", "latitude": 45.3144781, "longitude": 9.5108779, "source": "osm", "_tags": {"amenity": "hospital", "healthcare": "hospital", "name": "Ospedale Maggiore", "wikidata": "Q30281220"}}, {"name": "Ospedale Vecchio", "latitude": 45.3138376, "longitude": 9.5084256, "source": "osm", "_tags": {"amenity": "hospital", "healthcare": "hospital", "name": "Ospedale Vecchio", "wikidata": "Q63959075"}}, {"name": "Istituto di riabilitazione e di cura Santa Margherita", "latitude": 45.195233, "longitude": 9.1720118, "source": "osm", "_tags": {"amenity": "hospital", "emergency": "no", "healthcare": "hospital", "name": "Istituto di riabilitazione e di cura Santa Margherita", "website": "http://www.asppavia.it/web/html/client.aspx?did=253"}}, {"name": "Istituto di Cura Città di Pavia", "latitude": 45.192302, "longitude": 9.1673877, "source": "osm", "_tags": {"addr:city": "Pavia", "addr:housenumber": "27", "addr:postcode": "27100", "addr:street": "Via Parco Vecchio", "amenity": "hospital", "emergency": "no", "healthcare": "hospital", "name": "Istituto di Cura Città di Pavia", "operator": "Gruppo San Donato", "operator:type": "private"}}, {"name": "Presidio Giuseppe Corberi", "latitude": 45.6108423, "longitude": 9.122904, "source": "osm", "_tags": {"amenity": "hospital", "healthcare": "hospital", "name": "Presidio Giuseppe Corberi"}}, {"name": "", "latitude": 45.5921114, "longitude": 8.9416073, "source": "osm", "_tags": {"amenity": "hospital", "healthcare": "hospital"}}, {"name": "Policlinico San Pietro", "latitude": 45.6989952, "longitude": 9.5753796, "source": "osm", "_tags": {"amenity": "hospital", "emergency": "yes", "healthcare": "hospital", "name": "Policlinico San Pietro"}}, {"name": "Fondazione Casimiro Mondino", "latitude": 45.2034996, "longitude": 9.1396363, "source": "osm", "_tags": {"amenity": "hospital", "email": "info@mondino.it", "healthcare": "hospital", "name": "Fondazione Casimiro Mondino", "phone": "+39 0382 3801", "website": "https://www.mondino.it/"}}, {"name": "Fondazione Salvatore Maugeri", "latitude": 45.2042825, "longitude": 9.1416922, "source": "osm", "_tags": {"amenity": "hospital", "email": "pavia@icsmaugeri.it", "healthcare": "hospital", "layer": "-1", "name": "Fondazione Salvatore Maugeri", "phone": "+39 0382 5921", "website": "https://www.icsmaugeri.it/"}}, {"name": "Centro Nazionale di Adroterapia Oncologica (CNAO)", "latitude": 45.2010906, "longitude": 9.1439222, "source": "osm", "_tags": {"amenity": "hospital", "healthcare": "hospital", "name": "Centro Nazionale di Adroterapia Oncologica (CNAO)", "phone": "+39 0382 0781", "website": "https://fondazionecnao.it", "wikidata": "Q3664732", "wikipedia": "it:Centro Nazionale di Adroterapia Oncologica"}}, {"name": "Centro Riabilitativo Media Assistenza", "latitude": 45.1919907, "longitude": 9.1356929, "source": "osm", "_tags": {"addr:city": "Pavia", "addr:housenumber": "19", "addr:postcode": "27100", "addr:street": "Strada Torchietto", "amenity": "hospital", "emergency": "no", "healthcare": "hospital", "healthcare:speciality": "psychiatry", "name": "Centro Riabilitativo Media Assistenza", "operator": "Unità Operativa di Psichiatria n. 57/58 - Pavia", "operator:type": "public"}}, {"name": "Poliambulatori Policlinico San Matteo", "latitude": 45.1960091, "longitude": 9.1499038, "source": "osm", "_tags": {"addr:housenumber": "5", "addr:street": "Viale Camillo Golgi", "amenity": "hospital", "check_date": "2023-06-27", "healthcare": "hospital", "name": "Poliambulatori Policlinico San Matteo", "payment:cards": "yes", "payment:contactless": "yes", "payment:mastercard": "yes", "payment:visa": "yes", "wheelchair": "yes"}}, {"name": "Istituto Clinico Scientifico \"Salvatore Maugeri\" di via Boezio", "latitude": 45.1890084, "longitude": 9.1501559, "source": "osm", "_tags": {"amenity": "hospital", "healthcare": "hospital", "name": "Istituto Clinico Scientifico \"Salvatore Maugeri\" di via Boezio", "operator": "IRCCS Salvatore Maugeri"}}, {"name": "", "latitude": 44.865819, "longitude": 9.6442734, "source": "osm", "_tags": {"amenity": "hospital", "healthcare": "hospital"}}, {"name": "Presidio territoriale Ippocrate", "latitude": 45.5206542, "longitude": 9.1629409, "source": "osm", "_tags": {"amenity": "hospital", "email": "info@ospedaleniguarda.it", "healthcare": "hospital", "name": "Presidio territoriale Ippocrate", "oneway": "no", "operator": "ASST Grande Ospedale Metropolitano Niguarda", "phone": "+39 02 6444.1", "surface": "asphalt", "website": "http://www.asst-nordmilano.it/ippocrate", "wheelchair": "yes"}}, {"name": "I.R.C.C.S. Policlinico San Donato", "latitude": 45.4104114, "longitude": 9.2771243, "source": "osm", "_tags": {"amenity": "hospital", "emergency": "yes", "healthcare": "hospital", "healthcare:speciality": "emergency;cardiology;surgery;orthopaedics;dermatology;plastic_surgery;vascular_surgery;radiology;endocrinology;gastroenterology;pathology;general;neurology;nephrology;ophthalmology;orthodontics;oncology;gynaecology;otolaryngology;pulmonology;radiotherapy", "name": "I.R.C.C.S. Policlinico San Donato", "operator": "Gruppo San Donato", "website": "https://www.grupposandonato.it/strutture/policlinico-san-donato", "wikidata": "Q30282161"}}, {"name": "", "latitude": 45.3150215, "longitude": 9.5131746, "source": "osm", "_tags": {"amenity": "hospital", "healthcare": "hospital"}}, {"name": "Ospedale Fissiraga", "latitude": 45.314412, "longitude": 9.5062355, "source": "osm", "_tags": {"amenity": "hospital", "healthcare": "hospital", "name": "Ospedale Fissiraga", "wikidata": "Q63959051"}}, {"name": "", "latitude": 45.315594, "longitude": 9.5139087, "source": "osm", "_tags": {"amenity": "hospital", "healthcare": "hospital"}}, {"name": "Unità Operativa di Neuropsichiatria dell’Infanzia e dell’Adolescenza - Polo Territoriale Rhodense", "latitude": 45.5327542, "longitude": 9.0539573, "source": "osm", "_tags": {"addr:city": "Rho", "addr:housenumber": "25", "addr:postcode": "20017", "addr:street": "Via Gorizia", "amenity": "hospital", "barrier": "fence", "email": "segreterianpirho@asst-rhodense.it", "emergency": "no", "fax": "+3902994303029", "healthcare": "hospital", "healthcare:for": "mental_health;0-18", "healthcare:speciality": "child_neuropsychiatry", "name": "Unità Operativa di Neuropsichiatria dell’Infanzia e dell’Adolescenza - Polo Territoriale Rhodense", "network": "Unità Operativa di Neuropsichiatria dell’Infanzia e dell’Adolescenza", "operator": "Azienda Socio Sanitaria Territoriale Rhodense", "operator:type": "public", "phone": "+390299430302", "short_name": "UONPIA", "website": "https://www.asst-rhodense.it/inew/ASST/DSM-dipendenze/polo-territoriale-rhodense.html"}}, {"name": "", "latitude": 45.5952016, "longitude": 9.2304698, "source": "osm", "_tags": {"amenity": "hospital", "healthcare": "hospital", "operator": "CRI Muggiò"}}, {"name": "", "latitude": 45.5831611, "longitude": 9.0946521, "source": "osm", "_tags": {"amenity": "hospital", "healthcare": "hospital"}}, {"name": "", "latitude": 45.7816432, "longitude": 8.8946247, "source": "osm", "_tags": {"amenity": "hospital", "healthcare": "hospital"}}, {"name": "RSA Santa Maria", "latitude": 45.8080154, "longitude": 9.5963281, "source": "osm", "_tags": {"amenity": "hospital", "healthcare": "hospital", "healthcare:speciality": "community", "name": "RSA Santa Maria"}}, {"name": "", "latitude": 45.6550107, "longitude": 9.1325437, "source": "osm", "_tags": {"amenity": "hospital", "healthcare": "hospital"}}, {"name": "Ospedale Galeazzi Sant'Ambrogio", "latitude": 45.5223366, "longitude": 9.0963815, "source": "osm", "_tags": {"addr:city": "Milano", "addr:housenumber": "173", "addr:postcode": "20157", "addr:street": "Via Cristina Belgioioso", "amenity": "hospital", "building": "hospital", "building:levels": "16", "emergency": "yes", "healthcare": "hospital", "name": "Ospedale Galeazzi Sant'Ambrogio", "operator": "Gruppo San Donato", "operator:type": "private", "phone": "+39 02 8350 0010", "start_date": "2022-08", "website": "https://www.grupposandonato.it/strutture/ospedale-galeazzi-sant-ambrogio", "wikidata": "Q124362082"}}, {"name": "", "latitude": 45.1905641, "longitude": 8.9358622, "source": "osm", "_tags": {"amenity": "hospital", "healthcare": "hospital"}}, {"name": "Ospedale Caimi", "latitude": 45.4623701, "longitude": 9.6037109, "source": "osm", "_tags": {"amenity": "hospital", "emergency": "no", "healthcare": "hospital", "name": "Ospedale Caimi", "operator": "Fondazione Caimi Onlus"}}, {"name": "Ex Consorzio Provinciale Antitubercolare di Milano - Sezione Dispensariale", "latitude": 45.5093368, "longitude": 9.4258875, "source": "osm", "_tags": {"abandoned:amenity": "hospital", "access": "no", "emergency": "no", "healthcare": "hospital", "healthcare:speciality": "tuberculosis", "name": "Ex Consorzio Provinciale Antitubercolare di Milano - Sezione Dispensariale"}}, {"name": "Policlinico di Milano - Hospice Cascina Brandezzata", "latitude": 45.4135127, "longitude": 9.2053052, "source": "osm", "_tags": {"amenity": "hospital", "emergency": "no", "healthcare": "hospital", "name": "Policlinico di Milano - Hospice Cascina Brandezzata", "website": "https://www.fondazioneluvi.org/hospice-cascina-brandezzata/"}}, {"name": "Centro Traumatologico Ortopedico", "latitude": 45.5250412, "longitude": 9.2128881, "source": "osm", "_tags": {"amenity": "hospital", "building": "hospital", "healthcare": "hospital", "name": "Centro Traumatologico Ortopedico", "type": "multipolygon"}}, {"name": "Clinica Piacenza", "latitude": 45.0465705, "longitude": 9.6755018, "source": "osm", "_tags": {"amenity": "hospital", "building": "yes", "name": "Clinica Piacenza", "source": "Regione Emilia Romagna", "type": "multipolygon"}}, {"name": "Ospedale Papa Giovanni XXIII", "latitude": 45.6856531, "longitude": 9.6368563, "source": "osm", "_tags": {"amenity": "hospital", "emergency": "yes", "name": "Ospedale Papa Giovanni XXIII", "type": "multipolygon", "wikidata": "Q56871067"}}, {"name": "Humanitas Gavazzeni", "latitude": 45.6882467, "longitude": 9.6803696, "source": "osm", "_tags": {"amenity": "hospital", "healthcare": "hospital", "name": "Humanitas Gavazzeni", "type": "multipolygon", "wheelchair": "yes"}}, {"name": "San Raffaele – Turro", "latitude": 45.4996433, "longitude": 9.2306061, "source": "osm", "_tags": {"amenity": "hospital", "healthcare": "hospital", "name": "San Raffaele – Turro", "phone": "+39 02 26431", "type": "multipolygon", "website": "https://www.hsr.it/"}}, {"name": "Ospedale Bolognini", "latitude": 45.6831767, "longitude": 9.7179959, "source": "osm", "_tags": {"addr:city": "Seriate", "addr:housenumber": "21", "addr:postcode": "24068", "addr:street": "Via Paderno", "alt_name": "Ospedale di Seriate", "amenity": "hospital", "baby_feeding": "yes", "contact:email": "protocollo@pec.asst-bergamoest.it", "contact:phone": "+39 035 306 3111", "healthcare": "hospital", "kids_area": "yes", "name": "Ospedale Bolognini", "operator": "Regione Lombardia", "ref:vatin": "IT04114380167", "type": "multipolygon", "website": "https://www.asst-bergamoest.it/it/sedi/lista-sedi/ospedale-bolognini-seriate"}}, {"name": "Humanitas", "latitude": 45.3739934, "longitude": 9.1654937, "source": "osm", "_tags": {"amenity": "hospital", "healthcare": "hospital", "name": "Humanitas", "type": "multipolygon"}}, {"name": "Fatebenefratelli", "latitude": 45.4788391, "longitude": 9.1910444, "source": "osm", "_tags": {"amenity": "hospital", "emergency": "yes", "healthcare": "hospital", "name": "Fatebenefratelli", "phone": "+39 02 63631", "type": "multipolygon", "wikidata": "Q112318838"}}, {"name": "Istituto di recupero e rieducazine funzionale", "latitude": 45.7015262, "longitude": 9.6198125, "source": "osm", "_tags": {"amenity": "hospital", "name": "Istituto di recupero e rieducazine funzionale", "type": "multipolygon"}}, {"name": "Ospedale San Martino", "latitude": 45.0913834, "longitude": 8.7312523, "source": "osm", "_tags": {"amenity": "hospital", "name": "Ospedale San Martino", "type": "multipolygon"}}, {"name": "Casa di Cura Beato Luigi Palazzolo", "latitude": 45.689233, "longitude": 9.6640508, "source": "osm", "_tags": {"addr:housenumber": "56", "addr:street": "Via San Bernardino", "amenity": "hospital", "building": "hospital", "check_date": "2024-05-17", "emergency": "no", "healthcare:speciality": "general;orthopaedics;otolaryngology;surgery", "name": "Casa di Cura Beato Luigi Palazzolo", "operator:type": "private", "payment:cash": "yes", "payment:contactless": "yes", "payment:credit_cards": "yes", "payment:mastercard": "yes", "payment:visa": "yes", "type": "multipolygon", "wheelchair": "yes"}}, {"name": "R.S.A. Santa Chiara", "latitude": 45.6958305, "longitude": 9.6643447, "source": "osm", "_tags": {"amenity": "hospital", "building": "hospital", "name": "R.S.A. Santa Chiara", "type": "multipolygon"}}, {"name": "Presidio ASL Matteo Rota", "latitude": 45.6964553, "longitude": 9.6627887, "source": "osm", "_tags": {"amenity": "hospital", "name": "Presidio ASL Matteo Rota", "type": "multipolygon"}}, {"name": "Casa di Cura San Francesco", "latitude": 45.6971673, "longitude": 9.6562835, "source": "osm", "_tags": {"addr:city": "Bergamo", "addr:housenumber": "7", "addr:postcode": "24128", "addr:street": "Via Quattro Novembre", "alt_name": "Clinica San Francesco", "amenity": "hospital", "name": "Casa di Cura San Francesco", "type": "multipolygon"}}, {"name": "Policlinico di Milano", "latitude": 45.4581817, "longitude": 9.1996916, "source": "osm", "_tags": {"alt_name": "Ospedale Maggiore di Milano", "amenity": "hospital", "emergency": "yes", "healthcare": "hospital", "name": "Policlinico di Milano", "type": "multipolygon", "website": "https://www.policlinico.mi.it/", "wikidata": "Q1413761", "wikipedia": "it:Policlinico di Milano"}}, {"name": "Casa della Comunità di Besana Brianza", "latitude": 45.7004858, "longitude": 9.2854684, "source": "osm", "_tags": {"addr:city": "Besana in Brianza", "addr:housenumber": "38", "addr:postcode": "20842", "addr:street": "Via Luigi Viarana", "amenity": "hospital", "building": "yes", "emergency": "no", "healthcare": "hospital", "healthcare:speciality": "neuropsychiatry;psychiatry;child_psychiatry", "name": "Casa della Comunità di Besana Brianza", "old_name": "Villa Viarana", "operator": "Azienda Socio Sanitaria Territoriale della Brianza", "operator:type": "government", "type": "multipolygon", "website": "https://www.asst-brianza.it/web/uploads/pagine_statiche/files/beaf75fc-a723-49cc-b95f-5780f4b42031.pdf"}}, {"name": "Fondazione I.R.C.C.S. Policlinico San Matteo", "latitude": 45.1991833, "longitude": 9.1469967, "source": "osm", "_tags": {"amenity": "hospital", "healthcare": "hospital", "name": "Fondazione I.R.C.C.S. Policlinico San Matteo", "operator": "Fondazione I.R.C.C.S. Policlinico San Matteo", "operator:type": "public", "type": "multipolygon", "wikidata": "Q3747180", "wikipedia": "it:Fondazione IRCCS Policlinico San Matteo"}}, {"name": "Ospedale Santa Maria delle Stelle", "latitude": 45.5081093, "longitude": 9.42628, "source": "osm", "_tags": {"addr:city": "Melzo", "addr:postcode": "20066", "amenity": "hospital", "emergency": "yes", "healthcare": "hospital", "loc_name": "Ospedale di Melzo", "name": "Ospedale Santa Maria delle Stelle", "operator": "ASL 2 Melegnano", "type": "multipolygon", "wheelchair": "yes"}}, {"name": "Ospedale Maggiore di Crema", "latitude": 45.3536127, "longitude": 9.6805692, "source": "osm", "_tags": {"amenity": "hospital", "emergency": "yes", "healthcare": "hospital", "name": "Ospedale Maggiore di Crema", "type": "multipolygon", "wikidata": "Q55138952"}}, {"name": "Ospedale Ambrogio Uboldo", "latitude": 45.5230282, "longitude": 9.3285896, "source": "osm", "_tags": {"amenity": "hospital", "emergency": "yes", "healthcare": "hospital", "name": "Ospedale Ambrogio Uboldo", "operator": "ASST Melegnano Martesana", "short_name": "Ospedale Uboldo", "type": "multipolygon", "wheelchair": "yes"}}, {"name": "Centro Sant'Ambrogio - Fatebenefratelli", "latitude": 45.5230717, "longitude": 9.3465063, "source": "osm", "_tags": {"amenity": "hospital", "emergency": "no", "healthcare": "hospital", "healthcare:speciality": "psychiatry", "name": "Centro Sant'Ambrogio - Fatebenefratelli", "operator": "Ordine Ospedaliero di San Giovanni di Dio Fatebenefratelli", "operator:type": "religious", "phone": "+39 02 92761", "social_facility:for": "mental_health", "start_date": "2004-07", "type": "multipolygon", "website": "https://www.fatebenefratelli.it/"}}, {"name": "Fondazione Salvatore Maugeri", "latitude": 45.4366751, "longitude": 9.2643792, "source": "osm", "_tags": {"amenity": "hospital", "healthcare": "hospital", "name": "Fondazione Salvatore Maugeri", "type": "multipolygon"}}, {"name": "", "latitude": 45.05574, "longitude": 9.6798618, "source": "osm", "_tags": {"amenity": "hospital", "healthcare": "hospital", "type": "multipolygon"}}, {"name": "Guglielmo Da Saliceto", "latitude": 45.0553479, "longitude": 9.6831626, "source": "osm", "_tags": {"amenity": "hospital", "healthcare": "hospital", "name": "Guglielmo Da Saliceto", "type": "multipolygon"}}, {"name": "Azienda Ospedaliera Treviglio Caravaggio", "latitude": 45.5100233, "longitude": 9.6115303, "source": "osm", "_tags": {"addr:city": "Treviglio", "addr:housenumber": "1", "addr:postcode": "24047", "addr:street": "Piazzale Ospedale", "alt_name": "Ospedale di Treviglio e Caravaggio", "amenity": "hospital", "check_date": "2024-09-13", "contact:phone": "+39 0363 4241", "emergency": "yes", "healthcare": "hospital", "healthcare:speciality": "paediatrics;ophthalmology;gynaecology;radiology;cardiology;surgery;urology;neurology;emergency;dialysis;maternity;oncology;gastroenterology;optometry;pulmonology;trauma;endocrinology", "internet_access": "no", "name": "Azienda Ospedaliera Treviglio Caravaggio", "opening_hours": "24/7", "operator:type": "public", "payment:cash": "yes", "payment:mastercard": "yes", "payment:visa": "yes", "type": "multipolygon", "website": "http://www.ospedale.treviglio.bg.it", "wheelchair": "yes"}}, {"name": "Ospedale Delmati", "latitude": 45.2295374, "longitude": 9.415326, "source": "osm", "_tags": {"amenity": "hospital", "emergency": "no", "healthcare": "hospital", "name": "Ospedale Delmati", "operator": "A.S.S.T Lodi", "operator:type": "public", "type": "multipolygon"}}]