[{"name": "Clinique Jean Villar", "latitude": 44.8889561, "longitude": -0.616115, "source": "osm", "_tags": {"amenity": "hospital", "healthcare": "hospital", "healthcare:speciality": "intensive", "name": "Clinique Jean Villar", "phone": "+33 8 26 30 81 81", "ref:FR:FINESS": "330782582", "type:FR:FINESS": "365", "wheelchair": "yes"}}, {"name": "Hôpital de jour Le Magniola", "latitude": 44.9976082, "longitude": -0.4460299, "source": "osm", "_tags": {"amenity": "hospital", "fax": "+33 5 57 55 34 20", "name": "Hôpital de jour Le Magniola", "phone": "+33 5 57 43 08 24", "ref:FR:FINESS": "330008103", "type:FR:FINESS": "355"}}, {"name": "Centre hospitalier de Saintonge", "latitude": 45.7462346, "longitude": -0.6555984, "source": "osm", "_tags": {"addr:city": "Saintes", "addr:postcode": "17100", "amenity": "hospital", "emergency": "yes", "healthcare": "hospital", "healthcare:speciality": "paediatrics;radiology;orthopaedics;gastroenterology;endocrinology;otolaryngology;geriatrics;oncology;emergency;trauma", "internet_access": "yes", "internet_access:fee": "yes", "name": "Centre hospitalier de Saintonge", "opening_hours": "24/7", "wheelchair": "limited"}}, {"name": "Polyclinique Bordeaux Rive-Droite", "latitude": 44.8645858, "longitude": -0.521939, "source": "osm", "_tags": {"addr:city": "Lormont", "addr:housenumber": "24", "addr:postcode": "33310", "addr:street": "Rue des Cavailles", "amenity": "hospital", "emergency": "yes", "fax": "+33 5 56 94 47 53", "healthcare": "hospital", "name": "Polyclinique Bordeaux Rive-Droite", "old_name": "Clinique des Quatre Pavillons", "operator": "Groupe Bordeaux Nord Aquitaine", "operator:type": "private", "phone": "+33 8 26 30 04 84", "ref:FR:FINESS": "330780263", "ref:FR:NAF": "86.10Z", "ref:FR:SIREN": "458201910", "ref:FR:SIRET": "45820191000023", "short_name": "PBRD", "source": "INSEE - 2025-01", "toilets:wheelchair": "yes", "website": "http://pbrd.gbna-polycliniques.com/", "wheelchair": "yes"}}, {"name": "Groupe hospitalier Pellegrin", "latitude": 44.8275153, "longitude": -0.6078081, "source": "osm", "_tags": {"alt_name": "Centre Hospitalier Universitaire Pellegrin", "amenity": "hospital", "contact:fax": "+33 5 56 37 24 42", "contact:phone": "+33 5 56 79 56 79", "emergency": "yes", "fax": "+33 5 56 37 24 42", "healthcare": "hospital", "healthcare:speciality": "intensive", "name": "Groupe hospitalier Pellegrin", "operator": "CHU de Bordeaux", "operator:type": "public", "phone": "+33 5 56 79 56 79", "ref:FR:FINESS": "330781360", "source": "Le ministère des solidarités et de la santé - 08/2018", "type:FR:FINESS": "101", "website": "https://www.chu-bordeaux.fr/CHU-de-Bordeaux/H%C3%B4pitaux-et-sites-du-CHU/Groupe-hospitalier-Pellegrin/", "wikidata": "Q2945756"}}, {"name": "Hôpital Charles Perrens", "latitude": 44.8245038, "longitude": -0.602547, "source": "osm", "_tags": {"amenity": "hospital", "barrier": "wall", "healthcare": "hospital", "name": "Hôpital Charles Perrens", "ref:FR:FINESS": "330000639", "source": "Le ministère des solidarités et de la santé - 03/2019"}}, {"name": "Institut Bergonié", "latitude": 44.82373, "longitude": -0.5806117, "source": "osm", "_tags": {"addr:housenumber": "229", "addr:street": "Cours de l'Argonne", "amenity": "hospital", "healthcare": "hospital", "name": "Institut Bergonié", "ref:FR:FINESS": "330000662", "ref:FR:NAF": "86.10Z", "ref:FR:SIREN": "781831714", "ref:FR:SIRET": "78183171400014", "source": "INSEE - 2025-03", "wikidata": "Q3151716"}}, {"name": "Centre hospitalier intercommunal du Pays de Cognac", "latitude": 45.6850651, "longitude": -0.2976675, "source": "osm", "_tags": {"amenity": "hospital", "emergency": "yes", "healthcare": "hospital", "name": "Centre hospitalier intercommunal du Pays de Cognac", "operator:type": "public", "phone": "+33 5 45 80 15 15", "ref:FR:FINESS": "160015368", "source": "cadastre-dgi-fr source : Direction Générale des Impôts - Cadastre. Mise à jour : 2016", "type:FR:FINESS": "355", "website": "https://www.ch-cognac.fr/"}}, {"name": "Clinique de Cognac", "latitude": 45.6845072, "longitude": -0.2964003, "source": "osm", "_tags": {"addr:housenumber": "71", "addr:street": "Avenue d'Angoulême", "amenity": "hospital", "check_date": "2025-05-12", "emergency": "no", "healthcare": "hospital", "name": "Clinique de Cognac", "operator:type": "private", "phone": "+33 806 003 003", "ref:FR:FINESS": "160000279", "source": "cadastre-dgi-fr source : Direction Générale des Impôts - Cadastre. Mise à jour : 2010", "type:FR:FINESS": "128"}}, {"name": "Polyclinique Bordeaux Nord Aquitaine", "latitude": 44.8636751, "longitude": -0.5791694, "source": "osm", "_tags": {"addr:street": "Rue Docteur Finlay", "amenity": "hospital", "contact:city": "Bordeaux", "contact:housenumber": "33", "contact:postcode": "33300", "contact:street": "Rue du Docteur Finlay", "emergency": "yes", "fax": "+33 5 56 43 77 36", "healthcare": "hospital", "healthcare:speciality": "intensive", "name": "Polyclinique Bordeaux Nord Aquitaine", "operator": "Groupe Bordeaux Nord Aquitaine", "operator:type": "private", "phone": "+33 5 56 43 71 11", "ref:FR:FINESS": "330780479", "ref:FR:NAF": "86.10Z", "ref:FR:SIREN": "403149685", "ref:FR:SIRET": "40314968500030", "short_name": "PBNA", "source": "INSEE - 2025-02", "toilets:wheelchair": "yes", "type:FR:FINESS": "365", "website": "https://polycliniquebordeauxnordaquitaine.fr/", "wheelchair": "yes", "wikidata": "Q50039809"}}, {"name": "Centre de Réeducation Fonctionnelle de la Tour de Gassies", "latitude": 44.8860547, "longitude": -0.6243285, "source": "osm", "_tags": {"amenity": "hospital", "healthcare": "hospital", "healthcare:speciality": "physiatry", "name": "Centre de Réeducation Fonctionnelle de la Tour de Gassies", "phone": "+33 5 56 16 33 33", "ref:FR:FINESS": "330781139", "type:FR:FINESS": "109"}}, {"name": "Clinique Tivoli", "latitude": 44.8573421, "longitude": -0.5878555, "source": "osm", "_tags": {"addr:housenumber": "91", "addr:street": "Rue de Rivière", "amenity": "hospital", "check_date": "2024-08-13", "healthcare": "hospital", "name": "Clinique Tivoli", "phone": "+33 5 56 11 60 00", "ref:FR:FINESS": "330780115", "ref:FR:NAF": "86.10Z", "ref:FR:SIREN": "460202575", "ref:FR:SIRET": "46020257500011", "source": "INSEE - 2025-03", "type:FR:FINESS": "365"}}, {"name": "Polyclinique Bordeaux-Caudéran Les Pins Francs", "latitude": 44.8596866, "longitude": -0.6245044, "source": "osm", "_tags": {"addr:housenumber": "19", "addr:postcode": "33200", "addr:street": "Rue Jude", "amenity": "hospital", "healthcare": "hospital", "name": "Polyclinique Bordeaux-Caudéran Les Pins Francs", "phone": "+33 8 26 30 16 16", "ref:FR:FINESS": "330780354", "ref:FR:NAF": "86.10Z", "ref:FR:SIREN": "331141010", "ref:FR:SIRET": "33114101000016", "source": "INSEE - 2025-03", "type:FR:FINESS": "365", "website": "http://pbca.gbna-polycliniques.com"}}, {"name": "Hôpital Saint-André", "latitude": 44.8337112, "longitude": -0.5791508, "source": "osm", "_tags": {"amenity": "hospital", "emergency": "yes", "fax": "+33 5 56 37 24 42", "healthcare": "hospital", "healthcare:speciality": "intensive", "layer": "1", "name": "Hôpital Saint-André", "operator:type": "public", "phone": "+33 5 56 79 56 79", "ref:FR:FINESS": "330781352", "ref:FR:NAF": "86.10Z", "ref:FR:SIREN": "263305823", "ref:FR:SIRET": "26330582300076", "source": "cadastre-dgi-fr source : Direction Générale des Impôts - Cadastre. Mise à jour : 2010", "type:FR:FINESS": "101", "website": "https://www.chu-bordeaux.fr/CHU-de-Bordeaux/H%C3%B4pitaux-et-sites-du-CHU/Groupe-hospitalier-Saint-Andr%C3%A9/", "wikidata": "Q16508267"}}, {"name": "Centre de consultation", "latitude": 44.8170347, "longitude": -0.6801088, "source": "osm", "_tags": {"addr:city": "Mérignac", "addr:housenumber": "2", "addr:postcode": "33700", "addr:street": "Rue Georges Negrevergne", "amenity": "clinic", "building": "yes", "healthcare": "hospital", "name": "Centre de consultation", "short_name": "C.C.O.S."}}, {"name": "Clinique Richelieu", "latitude": 45.7509048, "longitude": -0.6429859, "source": "osm", "_tags": {"amenity": "hospital", "email": "renseignements@clinique-richelieu.fr", "emergency": "no", "fax": "+33 5 46 74 09 42", "name": "Clinique Richelieu", "operator:type": "private", "phone": "+33 5 46 90 58 00", "ref:FR:FINESS": "170780647", "type:FR:FINESS": "365", "website": "http://www.clinique-richelieu.fr/"}}, {"name": "Centre hospitalier de Saintonge", "latitude": 45.7466605, "longitude": -0.6540077, "source": "osm", "_tags": {"amenity": "hospital", "emergency": "yes", "fax": "+33 5 46 95 12 63", "healthcare:speciality": "intensive", "name": "Centre hospitalier de Saintonge", "operator:type": "public", "phone": "+33 5 46 95 15 15", "ref:FR:FINESS": "170000103", "type:FR:FINESS": "355", "website": "https://www.ch-saintonge.fr/", "wikidata": "Q2945704"}}, {"name": "Nouvelle Clinique Bel Air", "latitude": 44.8390317, "longitude": -0.6063369, "source": "osm", "_tags": {"addr:city": "Bordeaux", "addr:housenumber": "138", "addr:postcode": "33200", "addr:street": "Avenue de la République", "amenity": "hospital", "healthcare": "hospital", "name": "Nouvelle Clinique Bel Air", "phone": "+33 826 300 606", "ref:FR:FINESS": "330780040", "ref:FR:NAF": "86.10Z", "ref:FR:SIREN": "459200499", "ref:FR:SIRET": "45920049900018", "source": "INSEE - 2025-02", "toilets:wheelchair": "yes", "type:FR:FINESS": "365", "website": "http://ncba.gbna-polycliniques.com", "wheelchair": "yes"}}, {"name": "Centre hospitalier de Jonzac", "latitude": 45.439374, "longitude": -0.4347988, "source": "osm", "_tags": {"amenity": "hospital", "email": "direction.hopital@ch-jonzac.fr", "emergency": "yes", "fax": "+33 5 46 48 75 00", "healthcare": "hospital", "name": "Centre hospitalier de Jonzac", "operator:type": "public", "phone": "+33 5 46 48 75 75", "ref:FR:FINESS": "170000038", "ref:FR:NAF": "8610Z", "ref:FR:SIREN": "261700272", "ref:FR:SIRET": "26170027200048", "source": "INSEE - 2024-10", "type:FR:FINESS": "355", "website": "http://www.ch-jonzac.com/"}}, {"name": "Domaine des Fossés", "latitude": 45.4595589, "longitude": -0.4383276, "source": "osm", "_tags": {"alt_name": "Domaine des Fosses", "amenity": "hospital", "fax": "+33 5 46 48 75 00", "healthcare:speciality": "psychiatry", "name": "Domaine des Fossés", "operator": "Centre hospitalier spécialisé de Jonzac", "operator:type": "public", "phone": "+33 5 46 48 75 75", "ref:FR:FINESS": "170783146", "type": "355"}}, {"name": "Clinique de SMR Les Grands Chênes", "latitude": 44.8535983, "longitude": -0.6236398, "source": "osm", "_tags": {"addr:city": "Bordeaux", "addr:housenumber": "40-52", "addr:postcode": "33200", "addr:street": "Rue Stéhélin", "amenity": "hospital", "healthcare": "hospital", "healthcare:speciality": "physiatry", "name": "Clinique de SMR Les Grands Chênes", "opening_hours": "Mo-Su 09:00-12:00, 14:00-18:00", "operator": "Inicea (Clariane)", "operator:type": "private", "ref:FR:FINESS": "330781154", "ref:FR:SIRET": "46920244400011", "type:FR:FINESS": "109"}}, {"name": "Clinique Pasteur", "latitude": 45.6529456, "longitude": -1.0245654, "source": "osm", "_tags": {"amenity": "hospital", "emergency": "yes", "name": "Clinique Pasteur", "name:etymology:wikidata": "Q529", "operator:type": "private", "phone": "+33 5 46 22 22 22", "ref:FR:FINESS": "170022826", "source": "cadastre-dgi-fr source : Direction Générale des Impôts - Cadastre. Mise à jour : 2010", "type:FR:FINESS": "697", "website": "http://www.clinique-pasteur-royan.fr/"}}, {"name": "Centre hospitalier de Royan", "latitude": 45.6339888, "longitude": -1.0607822, "source": "osm", "_tags": {"alt_name": "Hôpital Malakoff", "amenity": "hospital", "emergency": "yes", "fax": "+33 5 46 38 69 25", "healthcare": "hospital", "name": "Centre hospitalier de Royan", "operator:type": "public", "phone": "+33 5 46 39 52 52", "ref:FR:FINESS": "170000129", "source": "cadastre-dgi-fr source : Direction Générale des Impôts - Cadastre. Mise à jour : 2010", "type:FR:FINESS": "355", "website": "https://www.ch-royan.fr/"}}, {"name": "", "latitude": 45.6026325, "longitude": -1.0038088, "source": "osm", "_tags": {"addr:housename": "Polyclinique Saint-Georges", "amenity": "hospital", "emergency": "yes", "operator:type": "private", "phone": "+33 5 46 05 07 94", "ref:FR:FINESS": "170022818", "type:FR:FINESS": "697", "website": "http://www.polycliniquesaintgeorges.com/"}}, {"name": "", "latitude": 44.8635831, "longitude": -0.5803757, "source": "osm", "_tags": {"building": "hospital", "description": "Chirurgie", "healthcare": "hospital", "healthcare:speciality": "surgery", "source": "cadastre-dgi-fr source : Direction Générale des Impôts - Cadastre. Mise à jour : 2019"}}, {"name": "Centre hospitalier de Blaye", "latitude": 45.1351106, "longitude": -0.6595592, "source": "osm", "_tags": {"alt_name": "Centre hospitalier de la Haute Gironde", "amenity": "hospital", "email": "contact@chblaye.fr", "emergency": "yes", "fax": "+33 5 57 42 88 09", "healthcare": "hospital", "name": "Centre hospitalier de Blaye", "old_name": "Hopital Saint-Nicolas", "phone": "+33 5 57 33 40 00", "ref:FR:FINESS": "330000571", "ref:FR:NAF": "86.10Z", "ref:FR:SIREN": "263305617", "ref:FR:SIRET": "26330561700015", "source": "Le ministère des solidarités et de la santé - 08/2018", "website": "https://www.chblaye.fr/index.php"}}, {"name": "Hôpital Suburbain du Bouscat", "latitude": 44.8678382, "longitude": -0.6188681, "source": "osm", "_tags": {"amenity": "hospital", "healthcare": "hospital", "name": "Hôpital Suburbain du Bouscat", "phone": "+33 5 56 42 49 49", "ref:FR:FINESS": "330000332", "type:FR:FINESS": "365"}}, {"name": "Polyclinique de Bordeaux Tondu", "latitude": 44.8257198, "longitude": -0.5300068, "source": "osm", "_tags": {"addr:city": "Floirac", "addr:housenumber": "46", "addr:postcode": "33270", "addr:street": "Avenue Jean Alfonsea", "amenity": "hospital", "check_date": "2025-05-06", "contact:PagesJaunes": "https://pagesjaunes.fr/pros/59052396", "contact:doctolib": "https://www.doctolib.fr/clinique-privee/floirac-cedex/nouvelle-clinique-bordeaux-tondu-ncbt", "contact:facebook": "Clinique.du.Tondu.Bordeaux", "healthcare": "hospital", "healthcare:speciality": "radiology;anaesthetics;paediatric_surgery;gynaecology;cardiology;hepatology;gastroenterology;dental_oral_maxillo_facial_surgery;oncology;ophthalmology;orthodontics;otolaryngology;plastic_surgery;physiatry;urology", "name": "Polyclinique de Bordeaux Tondu", "operator": "NOUVELLE CLINIQUE BORDEAUX TONDU (NCBT) SAS", "owner": "Groupe Saint-Gatien", "owner:website": "https://groupesaintgatien.com", "panoramax": "45a4dbc0-d64b-4b9c-93e6-3770c5f4d5fa", "phone": "+33 5 56 00 26 26", "ref:FR:FINESS": "330781402", "ref:FR:NAF": "86.10Z", "ref:FR:SIREN": "353212848", "ref:FR:SIRET": "35321284800033", "ref:vatin": "FR80353212848", "start_date": "2019-02-25", "type:FR:FINESS": "365", "website": "https://bordeauxtondu.fr"}}, {"name": "Clinique Saint-Augustin", "latitude": 44.8359863, "longitude": -0.6054351, "source": "osm", "_tags": {"addr:housenumber": "112", "addr:street": "Avenue d'Arès", "amenity": "hospital", "healthcare": "hospital", "name": "Clinique Saint-Augustin", "ref:FR:NAF": "86.10Z", "ref:FR:SIREN": "455203539", "ref:FR:SIRET": "45520353900016", "source": "INSEE - 2025-02"}}, {"name": "Korian Clinique Sur Moreau", "latitude": 45.7290033, "longitude": -0.6499263, "source": "osm", "_tags": {"building": "hospital", "healthcare": "hospital", "name": "Korian Clinique Sur Moreau", "opening_hours": "Mo-Fr 08:30-17:30; Sa-Su 14:00-18:30", "operator": "Korian", "ref:FR:NAF": "8610Z", "ref:FR:SIREN": "655520245", "ref:FR:SIRET": "65552024500060", "source": "INSEE - 2024-09"}}, {"name": "Centre Jean Abadie", "latitude": 44.823926, "longitude": -0.5756845, "source": "osm", "_tags": {"addr:housenumber": "89", "addr:street": "Rue des Sablières", "building": "no", "healthcare": "hospital", "layer": "-1", "name": "Centre Jean Abadie", "ref:FR:NAF": "86.10Z", "ref:FR:SIREN": "263305823", "ref:FR:SIRET": "26330582300068", "source": "INSEE - 2025-02", "website": "https://www.chu-bordeaux.fr/CHU-de-Bordeaux/H%C3%B4pitaux-et-sites-du-CHU/Groupe-hospitalier-Saint-Andr%C3%A9/Centre-Jean-Abadie/"}}, {"name": "Clinique mutualiste du Médoc", "latitude": 45.3031583, "longitude": -0.9380409, "source": "osm", "_tags": {"amenity": "hospital", "emergency": "yes", "fax": "+33 5 56 41 69 04", "healthcare": "yes", "name": "Clinique mutualiste du Médoc", "operator:type": "private", "phone": "+33 5 56 73 10 00", "ref:FR:FINESS": "330780495", "ref:FR:SIRET": "77558497200126", "source": "cadastre-dgi-fr source : Direction Générale des Impôts - Cadastre. Mise à jour : 2019", "type:FR:FINESS": "365", "website": "https://www.pavillon-mutualite.com/27-services-et-soins/3-clinique-de-lesparre-medoc.html"}}, {"name": "Hopital de jour", "latitude": 44.8213672, "longitude": -0.5814217, "source": "osm", "_tags": {"access": "private", "addr:housenumber": "11", "addr:street": "Rue Dubourdieu", "garden:type": "private", "healthcare": "hospital", "name": "Hopital de jour", "ref:FR:NAF": "86.10Z", "ref:FR:SIREN": "320463672", "ref:FR:SIRET": "32046367200016", "source": "INSEE - 2025-02"}}, {"name": "Clinique Ophtalmologique ORL Thiers", "latitude": 44.8454363, "longitude": -0.5521292, "source": "osm", "_tags": {"addr:city": "Bordeaux", "addr:housenumber": "144", "addr:postcode": "33100", "addr:street": "Avenue Thiers", "amenity": "hospital", "building": "yes", "building:levels": "6", "contact:phone": "+335 57 77 67 33", "healthcare": "hospital", "healthcare:speciality": "ophthalmology", "name": "Clinique Ophtalmologique ORL Thiers", "ref:FR:NAF": "86.10Z", "ref:FR:SIREN": "401561782", "ref:FR:SIRET": "40156178200046", "roof:shape": "flat", "source": "INSEE - 2025-01", "website": "https://cliniquethiers.fr/"}}, {"name": "Clinique de SMR Les Hauts de Cenon", "latitude": 44.8470847, "longitude": -0.5299419, "source": "osm", "_tags": {"addr:city": "Cenon", "addr:housenumber": "2", "addr:postcode": "33150", "addr:street": "allée Saint Romain", "amenity": "hospital", "healthcare": "hospital", "healthcare:speciality": "general;cardiology", "name": "Clinique de SMR Les Hauts de Cenon", "opening_hours": "Mo-Su 09:00-12:00, 14:00-18:00", "operator": "Inicea (Clariane)", "operator:type": "private", "ref:FR:SIRET": "42085555300061"}}, {"name": "", "latitude": 44.8159031, "longitude": -0.5729794, "source": "osm", "_tags": {"amenity": "hospital", "healthcare": "hospital"}}, {"name": "Hôpital de jour de Caychac", "latitude": 44.9326883, "longitude": -0.6351105, "source": "osm", "_tags": {"amenity": "hospital", "healthcare": "hospital", "name": "Hôpital de jour de Caychac", "type": "multipolygon"}}]