[{"name": "Hôpital local de Saint-Symphorien-sur-Coise", "latitude": 45.6346792, "longitude": 4.4585941, "source": "osm", "_tags": {"addr:city": "Saint-Symphorien-sur-Coise", "addr:housenumber": "257", "addr:postcode": "69590", "addr:street": "Avenue de la Libération", "amenity": "hospital", "description": "EHPAD", "emergency": "no", "name": "Hôpital local de Saint-Symphorien-sur-Coise", "ref:FR:FINESS": "690000039", "type:FR:FINESS": "106", "wikidata": "Q92062568"}}, {"name": "Hopital de St Bonnet le Château", "latitude": 45.4246597, "longitude": 4.0669193, "source": "osm", "_tags": {"amenity": "hospital", "name": "Hopital de St Bonnet le Château", "ref:FR:FINESS": "420000275", "source": "Le ministère des solidarités et de la santé - 03/2019", "wikidata": "Q92062899"}}, {"name": "Hôpital du Gier", "latitude": 45.5264843, "longitude": 4.6193494, "source": "osm", "_tags": {"amenity": "hospital", "emergency": "no", "healthcare": "hospital", "name": "Hôpital du Gier", "ref:FR:FINESS": "420780678", "source": "Le ministère des solidarités et de la santé - 10/2018"}}, {"name": "L'Hort des Melleyrines", "latitude": 44.9372759, "longitude": 3.9949689, "source": "osm", "_tags": {"amenity": "hospital", "description": "Maison de convalescence", "name": "L'Hort des Melleyrines", "phone": "+33 4 71 03 80 51", "ref:FR:FINESS": "430000182", "ref:FR:SIRET": "33053348000019", "type:FR:FINESS": "109", "website": "http://hdm43.fr"}}, {"name": "Centre hospitalier", "latitude": 45.7404918, "longitude": 4.4669212, "source": "osm", "_tags": {"amenity": "hospital", "healthcare": "hospital", "name": "Centre hospitalier", "ref:FR:FINESS": "690000062", "source": "Le ministère des solidarités et de la santé - 03/2019", "wikidata": "Q92062552"}}, {"name": "Médecine générale et SSR", "latitude": 45.0082306, "longitude": 4.3998939, "source": "osm", "_tags": {"alt_name": "soins de suite et de réadaptation", "healthcare": "hospital", "healthcare:speciality": "physiatry", "name": "Médecine générale et SSR", "type:FR:FINESS": "109"}}, {"name": "Centre Périnatal de Proximité", "latitude": 45.008105, "longitude": 4.4000305, "source": "osm", "_tags": {"alt_name": "soins de suite et de réadaptation", "health_facility:type": "department", "health_person:type": "midwife", "healthcare": "hospital", "healthcare:speciality": "gynaecology;paediatrics", "name": "Centre Périnatal de Proximité", "type:FR:FINESS": "109"}}, {"name": "Pharmacie hospitalière", "latitude": 45.0080215, "longitude": 4.4001592, "source": "osm", "_tags": {"alt_name": "pharmacie hospitalière", "contact:phone": "+33 4 75 30 39 78", "dispensing": "restricted", "health_facility:type": "department", "health_person:type": "doctor", "healthcare": "hospital", "healthcare:speciality": "general", "name": "Pharmacie hospitalière"}}, {"name": "Radiographie et échographie", "latitude": 45.0079556, "longitude": 4.4002626, "source": "osm", "_tags": {"alt_name": "Echographie et Echodoppler", "alt_name_1": "Radiologie Générale et Mammographie", "contact:phone": "+33 4 75 30 39 01", "health_facility:type": "department", "health_person:type": "doctor", "healthcare": "hospital", "healthcare:speciality": "radiology", "name": "Radiographie et échographie"}}, {"name": "Consultations externes", "latitude": 45.0082985, "longitude": 4.399733, "source": "osm", "_tags": {"contact:phone": "+33 4 75 30 39 00", "health_facility:type": "office", "health_person:type": "doctor", "healthcare": "hospital", "healthcare:speciality": "internal;dermatology;urology;cardiology;gynaecology;otolaryngology;pneumology;allergology", "name": "Consultations externes"}}, {"name": "Hopital", "latitude": 45.2418875, "longitude": 4.6658992, "source": "osm", "_tags": {"addr:city": "Annonay", "addr:postcode": "07100", "amenity": "hospital", "healthcare": "hospital", "healthcare:speciality": "paediatrics", "name": "Hopital", "wheelchair": "yes"}}, {"name": "Clinique des Cévennes", "latitude": 45.2608739, "longitude": 4.6693694, "source": "osm", "_tags": {"addr:housenumber": "122", "addr:street": "Avenue Ferdinand Janvier", "amenity": "hospital", "fax": "+33 4 75 69 21 52", "healthcare": "hospital", "name": "Clinique des Cévennes", "operator:type": "private", "phone": "+33 4 75 69 21 00", "ref:FR:FINESS": "070780408", "source": "cadastre-dgi-fr source : Direction Générale des Impôts - Cadastre;mise à jour : 2010", "type:FR:FINESS": "128", "website": "http://clinique-des-cevennes.fr/"}}, {"name": "Centre hospitalier Ardèche Nord", "latitude": 45.2416541, "longitude": 4.6653019, "source": "osm", "_tags": {"amenity": "hospital", "emergency": "yes", "fax": "+33 4 75 67 35 90", "healthcare": "hospital", "healthcare:speciality": "intensive", "loc_name": "Hôpital d'Annonay", "name": "Centre hospitalier Ardèche Nord", "old_name": "Centre Hospitalier d'Annonay", "operator:type": "public", "phone": "+33 4 75 67 35 00", "ref:FR:FINESS": "070000179", "source": "cadastre-dgi-fr source : Direction Générale des Impôts - Cadastre ; mise à jour : 2010", "type:FR:FINESS": "355", "website": "https://ch-ardeche-nord.fr/"}}, {"name": "Clinique mutualiste chirurgicale", "latitude": 45.4144011, "longitude": 4.394414, "source": "osm", "_tags": {"alt_name": "Clinique mutualiste de Bellevue", "amenity": "hospital", "building": "hospital", "email": "clinique-mutualiste@mutualite-loire.com", "emergency": "yes", "fax": "+33 4 77 48 10 20", "healthcare": "hospital", "healthcare:speciality": "intensive", "name": "Clinique mutualiste chirurgicale", "operator": "Mutualité française Loire - Haute-Loire - Puy-de-Dôme", "operator:type": "private", "phone": "+33 4 77 12 12 12", "ref:FR:FINESS": "420010050", "ref:FR:SIRET": "77560243600369", "source": "cadastre-dgi-fr source : Direction Générale des Impôts - Cadastre. Mise à jour : 2010", "type:FR:FINESS": "365", "website": "https://www.mutualite.fr/services/trouver-un-service-de-sante/clinique-mutualiste-chirurgicale-saint-etienne-cedex/"}}, {"name": "Hôpital Privé de la Loire", "latitude": 45.4282522, "longitude": 4.4180059, "source": "osm", "_tags": {"amenity": "hospital", "building": "hospital", "emergency": "yes", "fax": "+33 4 77 42 29 29", "healthcare": "hospital", "healthcare:speciality": "intensive", "name": "Hôpital Privé de la Loire", "operator": "Ramsay Santé", "operator:type": "private", "operator:wikidata": "Q3123085", "phone": "+33 826 30 42 42", "ref:FR:FINESS": "420011413", "source": "cadastre-dgi-fr source : Direction Générale des Impôts - Cadastre ; mise à jour : 2009", "type:FR:FINESS": "365", "website": "https://hopital-prive-de-la-loire-saint-etienne.ramsaygds.fr/", "wheelchair": "yes"}}, {"name": "Hôpital Local de Saint-Félicien", "latitude": 45.0865194, "longitude": 4.6295054, "source": "osm", "_tags": {"amenity": "hospital", "building": "yes", "healthcare": "hospital", "loc_name": "Hôpital de Saint-Félicien", "name": "Hôpital Local de Saint-Félicien", "ref:FR:FINESS": "070000203", "source": "cadastre-dgi-fr source : Direction Générale des Impôts - Cadastre. Mise à jour : 2010", "wikidata": "Q92062649"}}, {"name": "Centre de Réadaptation Cardio-Respiratoire de la Loire", "latitude": 45.4772479, "longitude": 4.3655736, "source": "osm", "_tags": {"amenity": "hospital", "building": "yes", "healthcare": "hospital", "name": "Centre de Réadaptation Cardio-Respiratoire de la Loire", "ref:FR:FINESS": "420011512", "short_name": "CRCRL", "type:FR:FINESS": "109"}}, {"name": "Clinique Psychiatrique Joseph Chiron", "latitude": 45.2429347, "longitude": 4.6640366, "source": "osm", "_tags": {"amenity": "hospital", "building": "yes", "description": "Hôpital spécialisé", "healthcare": "hospital", "name": "Clinique Psychiatrique Joseph Chiron", "source": "cadastre-dgi-fr source : Direction Générale des Impôts - Cadastre. Mise à jour : 2010", "source:amenity": "BDTopo IGN"}}, {"name": "Clinique Bon secours", "latitude": 45.0335682, "longitude": 3.8882924, "source": "osm", "_tags": {"addr:housenumber": "67", "addr:street": "Avenue du Maréchal Foch", "amenity": "hospital", "building": "yes", "check_date": "2024-07-27", "healthcare": "hospital", "name": "Clinique Bon secours", "ref:FR:FINESS": "430000109", "source": "cadastre-dgi-fr source : Direction Générale des Impôts - Cadastre. Mise à jour : 2010", "type:FR:FINESS": "365"}}, {"name": "Hôpital Fernand Lafont", "latitude": 44.9042308, "longitude": 4.4214383, "source": "osm", "_tags": {"alt_name": "Centre Hospitalier Fernand Lafont", "amenity": "hospital", "building": "yes", "healthcare": "hospital", "loc_name": "Hôpital du Cheylard", "name": "Hôpital Fernand Lafont", "phone": "+33 4 75 29 86 00", "ref:FR:FINESS": "070000070", "source": "cadastre-dgi-fr source : Direction Générale des Impôts - Cadastre. Mise à jour : 2012", "website": "https://ch-lecheylard.fr/", "wikidata": "Q92063132"}}, {"name": "Hôpital Maurice André", "latitude": 45.5981778, "longitude": 4.3018601, "source": "osm", "_tags": {"alt_name": "Centre Hospitalier Maurice André", "amenity": "hospital", "building": "yes", "healthcare": "hospital", "name": "Hôpital Maurice André", "ref:FR:FINESS": "420789067", "type:FR:FINESS": "362"}}, {"name": "Centre hospitalier de Pélussin", "latitude": 45.4175195, "longitude": 4.6718995, "source": "osm", "_tags": {"amenity": "hospital", "building": "yes", "healthcare": "hospital", "name": "Centre hospitalier de Pélussin", "ref:FR:FINESS": "420000317", "source": "cadastre-dgi-fr source : Direction Générale des Finances Publiques - Cadastre. Mise à jour : 2014", "type:FR:FINESS": "106", "wikidata": "Q92063316"}}, {"name": "Hôpital local", "latitude": 45.6368395, "longitude": 4.38968, "source": "osm", "_tags": {"amenity": "hospital", "building": "hospital", "name": "Hôpital local", "ref:FR:FINESS": "420000283", "source": "cadastre-dgi-fr source : Direction Générale des Finances Publiques - Cadastre. Mise à jour : 2014", "wikidata": "Q92063077"}}, {"name": "Centre médical de l'Argentière", "latitude": 45.6891003, "longitude": 4.45631, "source": "osm", "_tags": {"addr:housenumber": "980", "addr:street": "Route du Pont Grizon", "amenity": "hospital", "healthcare": "hospital", "name": "Centre médical de l'Argentière", "source": "cadastre-dgi-fr source : Direction Générale des Impôts - Cadastre. Mise à jour : 2012"}}, {"name": "Centre hospitalier du Forez", "latitude": 45.7459489, "longitude": 4.2215808, "source": "osm", "_tags": {"amenity": "hospital", "emergency": "yes", "fax": "+33 4 77 27 52 21", "healthcare": "hospital", "name": "Centre hospitalier du Forez", "operator:type": "public", "phone": "+33 4 77 27 54 54", "ref:FR:FINESS": "420000267", "type:FR:FINESS": "355", "website": "https://www.ch-forez.fr/"}}, {"name": "Centre hospitalier du Forez", "latitude": 45.6130683, "longitude": 4.0489306, "source": "osm", "_tags": {"amenity": "hospital", "emergency": "yes", "fax": "+33 4 77 96 78 98", "healthcare": "hospital", "name": "Centre hospitalier du Forez", "operator:type": "public", "phone": "+33 4 77 96 78 00", "ref:FR:FINESS": "420000226", "type:FR:FINESS": "355", "website": "https://www.ch-forez.fr/"}}, {"name": "Centre hospitalier Sainte-Marie", "latitude": 45.0529978, "longitude": 3.9030662, "source": "osm", "_tags": {"addr:housenumber": "50", "addr:street": "Route de Montredon", "amenity": "hospital", "healthcare": "hospital", "name": "Centre hospitalier Sainte-Marie", "ref:FR:FINESS": "430000026", "type:FR:FINESS": "292"}}, {"name": "Centre hospitalier Émile Roux", "latitude": 45.051103, "longitude": 3.8786249, "source": "osm", "_tags": {"amenity": "hospital", "emergency": "yes", "fax": "+33 4 71 04 33 70", "healthcare": "hospital", "healthcare:speciality": "intensive", "name": "Centre hospitalier Émile Roux", "operator:type": "public", "phone": "+33 4 71 04 32 10", "ref:FR:FINESS": "430000117", "type:FR:FINESS": "355", "website": "https://www.ch-lepuy.fr/", "wikidata": "Q30279881"}}, {"name": "Hôpital Nord", "latitude": 45.4816019, "longitude": 4.3615623, "source": "osm", "_tags": {"addr:city": "Saint-Priest-en-Jarez", "addr:full": "CHU de Saint-Étienne Hôpital Nord - 42055 SAINT-ÉTIENNE CEDEX 2", "addr:postcode": "42055", "addr:street": "Avenue Albert Raimond", "amenity": "hospital", "emergency": "yes", "fax": "+33 4 77 82 80 05", "healthcare:speciality": "intensive", "name": "Hôpital Nord", "operator:type": "public", "phone": "+33 4 77 82 80 00", "ref:FR:FINESS": "420785354", "type:FR:FINESS": "101", "website": "https://www.chu-st-etienne.fr/", "wikidata": "Q23021255"}}, {"name": "centre hospitalier de Craponne sur Arzon", "latitude": 45.3282384, "longitude": 3.8407967, "source": "osm", "_tags": {"amenity": "hospital", "name": "centre hospitalier de Craponne sur Arzon", "ref:FR:FINESS": "430000299", "source": "Le ministère des solidarités et de la santé - 03/2019"}}, {"name": "Hôpital du Gier - Site Pinay", "latitude": 45.4691451, "longitude": 4.5198946, "source": "osm", "_tags": {"addr:city": "Saint-Chamond", "addr:housenumber": "19", "addr:postcode": "42400", "addr:street": "Rue Laurent Charles", "amenity": "hospital", "emergency": "no", "fax": "+33 4 77 29 35 06", "healthcare": "hospital", "name": "Hôpital du Gier - Site Pinay", "operator:type": "public", "phone": "+33 4 77 31 19 19", "ref:FR:FINESS": "420009599", "type:FR:FINESS": "355", "website": "https://hopitaldugier.fr/"}}, {"name": "Hôpital de la Charité", "latitude": 45.432957, "longitude": 4.3913404, "source": "osm", "_tags": {"amenity": "hospital", "emergency": "no", "healthcare": "hospital", "name": "Hôpital de la Charité", "ref:FR:FINESS": "420782567", "source": "Le ministère des solidarités et de la santé - 10/2018", "wikidata": "Q22996892", "wikimedia_commons": "Category:Hôpital de La Charité (Saint-Étienne)", "wikipedia": "fr:Hôpital de la Charité (Saint-Étienne)"}}, {"name": "Hôpital Bellevue", "latitude": 45.4108886, "longitude": 4.3909928, "source": "osm", "_tags": {"amenity": "hospital", "healthcare": "hospital", "name": "Hôpital Bellevue", "ref:FR:FINESS": "420782559"}}, {"name": "Clinique du Parc", "latitude": 45.4777038, "longitude": 4.3674597, "source": "osm", "_tags": {"amenity": "hospital", "emergency": "yes", "fax": "+33 4 77 92 21 05", "name": "Clinique du Parc", "operator:type": "private", "phone": "+33 4 77 92 22 22", "ref:FR:FINESS": "420780504", "type:FR:FINESS": "365", "website": "https://www.elsan.care/fr/clinique-parc-saint-priest"}}, {"name": "Centre hospitalier d'Ambert", "latitude": 45.5529195, "longitude": 3.7412012, "source": "osm", "_tags": {"amenity": "hospital", "emergency": "yes", "fax": "+33 4 73 82 73 83", "healthcare": "hospital", "name": "Centre hospitalier d'Ambert", "operator:type": "public", "phone": "+33 4 73 82 73 82", "ref:FR:FINESS": "630000412", "type:FR:FINESS": "355", "website": "http://ch-ambert.fr/"}}, {"name": "Centre Hospitalier Jacques Barrot", "latitude": 45.1441744, "longitude": 4.1266974, "source": "osm", "_tags": {"amenity": "hospital", "healthcare": "hospital", "name": "Centre Hospitalier Jacques Barrot", "ref:FR:FINESS": "430000356", "source": "Le ministère des solidarités et de la santé - 10/2018"}}, {"name": "Hôpital Le Corbusier", "latitude": 45.3877514, "longitude": 4.2902175, "source": "osm", "_tags": {"addr:city": "Firminy", "addr:housenumber": "2", "addr:postcode": "42704", "addr:street": "Rue Robert Plotton", "amenity": "hospital", "contact:phone": "+33 4 77 40 41 42", "contact:website": "https://hopital-lecorbusier.fr/", "healthcare": "hospital", "name": "Hôpital Le Corbusier", "ref:FR:FINESS": "420000234", "ref:FR:SIRET": "26420013000013", "source": "cadastre-dgi-fr source : Direction Générale des Impôts - Cadastre. Mise à jour : 2010", "type:FR:FINESS": "355"}}, {"name": "Centre hospitalier Georges Claudinon", "latitude": 45.3911254, "longitude": 4.3209545, "source": "osm", "_tags": {"addr:city": "Le Chambon Feugerolles", "addr:postcode": "42500", "addr:street": "Rue Paul Langevin", "amenity": "hospital", "contact:website": "http://www.ch-claudinon.fr", "emergency": "no", "healthcare": "hospital", "name": "Centre hospitalier Georges Claudinon", "ref:FR:FINESS": "420000242", "source": "cadastre-dgi-fr source : Direction Générale des Impôts - Cadastre. Mise à jour : 2010"}}, {"name": "Hôpital de Moze Saint-Agrève", "latitude": 45.0080619, "longitude": 4.3997602, "source": "osm", "_tags": {"addr:housenumber": "1", "addr:street": "Rue du Docteur Tourasse", "amenity": "hospital", "contact:email": "accueil@hopdemoze-stagreve.fr", "contact:phone": "+33 4 75 30 39 00", "contact:website": "https://www.hopitaldemoze.fr/contact/contact.php", "emergency": "no", "healthcare": "hospital", "name": "Hôpital de Moze Saint-Agrève", "operator": "association du Moze", "operator:type": "community", "ref:FR:FINESS": "070000096", "type:FR:FINESS": "365"}}, {"name": "Hôpital Elisée Charra Lamastre", "latitude": 44.9888951, "longitude": 4.5797024, "source": "osm", "_tags": {"addr:housenumber": "5", "addr:street": "Avenue Docteur Élisée Charra", "alt_name": "Hôpital Locale Lamastre", "amenity": "hospital", "name": "Hôpital Elisée Charra Lamastre", "phone": "+33 4 75 06 15 15", "ref:FR:FINESS": "070000187", "short_name": "Hôpital Elisée Charra", "source": "cadastre-dgi-fr source : Direction Générale des Finances Publiques - Cadastre. Mise à jour : 2014", "type:FR:FINESS": "106", "website": "http://www.hopital-lamastre.fr/", "wikidata": "Q92062867"}}, {"name": "Clinique Nouvelle du Forez", "latitude": 45.6069756, "longitude": 4.0475043, "source": "osm", "_tags": {"addr:housenumber": "28", "addr:street": "Route Nouvelle", "amenity": "hospital", "healthcare": "hospital", "layer": "1", "name": "Clinique Nouvelle du Forez", "ref:FR:FINESS": "420782591", "ref:FR:SIRET": "88645021200016", "website": "https://www.elsan.care/fr/clinique-forez"}}, {"name": "Clinique Le Clos Montaigne", "latitude": 45.6466394, "longitude": 4.2352951, "source": "osm", "_tags": {"addr:city": "Montrond-les-Bains", "addr:housenumber": "282", "addr:postcode": "42210", "addr:street": "Rue Montaigne", "amenity": "hospital", "emergency": "no", "healthcare": "hospital", "healthcare:speciality": "psychiatry", "name": "Clinique Le Clos Montaigne", "opening_hours": "Mo-Su 09:00-12:00, 14:00-18:00", "phone": "+33477360100", "ref:FR:SIRET": "81915896500072", "website": "https://www.inicea.fr/sante-mentale/clinique-le-clos-montaigne-loire-42210"}}, {"name": "Hôpital du Gier", "latitude": 45.4756052, "longitude": 4.5156458, "source": "osm", "_tags": {"addr:city": "Saint-Chamond", "addr:housenumber": "19", "addr:postcode": "42400", "addr:street": "Rue Victor Hugo", "amenity": "hospital", "emergency": "yes", "fax": "+33 4 77 29 35 06", "healthcare": "hospital", "name": "Hôpital du Gier", "operator": "Hôpital du Gier", "operator:type": "public", "phone": "+33 4 77 31 19 19", "ref:FR:FINESS": "420780637", "type": "multipolygon", "type:FR:FINESS": "355", "website": "https://hopitaldugier.fr/"}}, {"name": "Hôpital de Moze Saint-Agrève", "latitude": 45.0080619, "longitude": 4.3997602, "source": "osm", "_tags": {"addr:city": "Saint Agrève", "addr:housenumber": "1", "addr:postcode": "07320", "addr:street": "Rue du Docteur Tourasse", "amenity": "hospital", "contact:email": "accueil@hopdemoze-stagreve.fr", "contact:phone": "+33 4 75 30 39 00", "contact:website": "https://www.hopitaldemoze.fr/contact/contact.php", "emergency": "no", "healthcare": "hospital", "name": "Hôpital de Moze Saint-Agrève", "operator": "association du Moze", "operator:type": "community", "ref:FR:FINESS": "070000096", "ref:FR:NAF": "8610Z", "site": "hospital", "type": "site", "type:FR:FINESS": "365"}}]