[{"name": "Urgenca", "latitude": 45.800322, "longitude": 15.1636788, "source": "osm", "_tags": {"emergency": "emergency_ward_entrance", "healthcare": "hospital", "name": "Urgenca"}}, {"name": "Zdravstveni dom", "latitude": 45.8013095, "longitude": 15.1626576, "source": "osm", "_tags": {"amenity": "hospital", "building": "yes", "healthcare": "hospital", "name": "Zdravstveni dom", "wheelchair": "yes"}}, {"name": "", "latitude": 45.8017253, "longitude": 15.1640268, "source": "osm", "_tags": {"amenity": "hospital", "building": "yes", "healthcare": "hospital", "wheelchair": "limited"}}, {"name": "", "latitude": 45.8011748, "longitude": 15.1644543, "source": "osm", "_tags": {"amenity": "hospital", "building": "yes", "healthcare": "hospital", "wheelchair": "yes"}}, {"name": "Splošna bolnišnica", "latitude": 45.7999676, "longitude": 15.1638289, "source": "osm", "_tags": {"addr:city": "Novo mesto", "addr:housenumber": "1", "addr:postcode": "8000", "addr:street": "Šmihelska cesta", "amenity": "hospital", "building": "yes", "healthcare": "hospital", "name": "Splošna bolnišnica", "wheelchair": "yes"}}, {"name": "", "latitude": 45.8006322, "longitude": 15.1620567, "source": "osm", "_tags": {"amenity": "hospital", "building": "yes", "healthcare": "hospital", "wheelchair": "yes"}}, {"name": "", "latitude": 45.8002545, "longitude": 15.1619231, "source": "osm", "_tags": {"amenity": "hospital", "building": "yes", "healthcare": "hospital", "wheelchair": "yes"}}, {"name": "Dom zdravlja Senj", "latitude": 44.9898129, "longitude": 14.9061346, "source": "osm", "_tags": {"addr:city": "Senj", "addr:housenumber": "43", "addr:postcode": "53270", "addr:street": "Stara cesta", "building": "yes", "healthcare": "hospital", "name": "Dom zdravlja Senj", "name:en": "Health center Senj", "website": "https://dzsenj.hr/"}}, {"name": "Opća bolnica i bolnica branitelja domovinskog rata Ogulin", "latitude": 45.2573699, "longitude": 15.2313454, "source": "osm", "_tags": {"addr:housenumber": "38", "addr:street": "Bolnička ulica", "amenity": "hospital", "healthcare": "hospital", "name": "Opća bolnica i bolnica branitelja domovinskog rata Ogulin", "operator": "Opća bolnica i bolnica branitelja domovinskog rata Ogulin", "operator:type": "public", "website": "https://bolnica-ogulin.hr"}}, {"name": "Specijalna bolnica za produženo liječenje Duga Resa", "latitude": 45.4534219, "longitude": 15.4997876, "source": "osm", "_tags": {"addr:city": "Duga Resa", "addr:housenumber": "7", "addr:street": "Ulica Jozefa Jeruzalema", "amenity": "hospital", "healthcare": "hospital", "name": "Specijalna bolnica za produženo liječenje Duga Resa", "operator": "Specijalna bolnica Duga Resa", "operator:type": "public", "website": "http://www.bolnica-dugaresa.hr/"}}, {"name": "Standardna lokacija pristajališča helikopterja z ekipo HNMP", "latitude": 45.6386149, "longitude": 14.8664586, "source": "osm", "_tags": {"addr:city": "Kočevje", "addr:postcode": "1330", "addr:street": "Črnomeljska cesta - Od križišča pri Coni 30 do pokopališča Kočevje", "amenity": "hospital", "emergency": "yes", "healthcare": "hospital", "healthcare:speciality": "emergency", "name": "Standardna lokacija pristajališča helikopterja z ekipo HNMP", "phone": "112"}}]