[{"name": "Landeskrankenhaus Laas", "latitude": 46.6995002, "longitude": 12.9887397, "source": "osm", "_tags": {"amenity": "hospital", "healthcare": "hospital", "name": "Landeskrankenhaus Laas"}}, {"name": "", "latitude": 45.8731437, "longitude": 13.0416996, "source": "osm", "_tags": {"amenity": "hospital", "emergency": "no"}}, {"name": "Pronto Soccorso Monfalcone", "latitude": 45.8154951, "longitude": 13.5198196, "source": "osm", "_tags": {"addr:city": "Monfalcone", "addr:housenumber": "1", "addr:postcode": "34074", "addr:street": "Via Luigi Galvani", "amenity": "hospital", "emergency": "emergency_ward_entrance", "entrance": "yes", "healthcare": "hospital", "name": "Pronto Soccorso Monfalcone", "name:en": "Emergency Room Monfalcone"}}, {"name": "Ambulatorio", "latitude": 46.0570193, "longitude": 12.9844709, "source": "osm", "_tags": {"amenity": "hospital", "emergency": "no", "name": "Ambulatorio"}}, {"name": "ASS 4 - Friuli Centrale", "latitude": 46.2140347, "longitude": 13.2207258, "source": "osm", "_tags": {"addr:city": "Tarcento", "addr:housenumber": "6", "addr:postcode": "33017", "addr:street": "Piazza del Mercato", "amenity": "hospital", "healthcare": "hospital", "name": "ASS 4 - Friuli Centrale", "operator": "ASL", "operator:wikidata": "Q3631467"}}, {"name": "Pronto Soccorso Udine", "latitude": 46.0773643, "longitude": 13.2288534, "source": "osm", "_tags": {"addr:city": "Udine", "addr:housenumber": "1", "addr:postcode": "33100", "addr:street": "Piazzale Santa Maria della Misericordia", "amenity": "hospital", "emergency": "yes", "name": "Pronto Soccorso Udine", "name:it": "Pronto Soccorso Udine", "wheelchair": "yes"}}, {"name": "Punto di Primo Intervento Gemona", "latitude": 46.288039, "longitude": 13.125322, "source": "osm", "_tags": {"addr:city": "Gemona del Friuli", "addr:housenumber": "1", "addr:postcode": "33013", "addr:street": "Piazza Rodolone", "amenity": "hospital", "emergency": "no", "healthcare": "hospital", "name": "Punto di Primo Intervento Gemona", "name:en": "First aid Gemona", "operator": "ASUFC", "operator:type": "public"}}, {"name": "Pronto Soccorso Presidio Ospedaliero Sant'Antonio Abate", "latitude": 46.1548036, "longitude": 13.0089878, "source": "osm", "_tags": {"addr:city": "San Daniele del Friuli", "addr:housenumber": "33", "addr:postcode": "33038", "addr:street": "Viale Trento Trieste", "amenity": "hospital", "emergency": "yes", "name": "Pronto Soccorso Presidio Ospedaliero Sant'Antonio Abate"}}, {"name": "Pronto Soccorso Ospedale Santa Maria dei Battuti", "latitude": 45.91223, "longitude": 12.8565098, "source": "osm", "_tags": {"addr:city": "San Vito al Tagliamento", "addr:postcode": "33078", "addr:street": "Via Patriarcato", "amenity": "hospital", "emergency": "yes", "healthcare": "hospital", "name": "Pronto Soccorso Ospedale Santa Maria dei Battuti"}}, {"name": "Policlinico Città di Udine Polo 2", "latitude": 46.0552407, "longitude": 13.223203, "source": "osm", "_tags": {"amenity": "hospital", "healthcare": "hospital", "name": "Policlinico Città di Udine Polo 2"}}, {"name": "Ambulatorio", "latitude": 46.3153334, "longitude": 13.1059172, "source": "osm", "_tags": {"amenity": "hospital", "healthcare": "doctor", "name": "Ambulatorio"}}, {"name": "ASS 4 - Friuli Centrale", "latitude": 46.2182405, "longitude": 13.2234956, "source": "osm", "_tags": {"addr:city": "Tarcento", "addr:housenumber": "13", "addr:postcode": "33017", "addr:street": "Via Julia", "amenity": "hospital", "healthcare": "hospital", "name": "ASS 4 - Friuli Centrale"}}, {"name": "Poliambulatorio", "latitude": 46.5069032, "longitude": 13.3023754, "source": "osm", "_tags": {"amenity": "hospital", "building": "hospital", "height": "8 m", "it:fvg:ctrn:code": "4AED", "it:fvg:ctrn:revision": "000", "name": "Poliambulatorio"}}, {"name": "Ambulatori", "latitude": 46.2420586, "longitude": 13.156562, "source": "osm", "_tags": {"amenity": "hospital", "healthcare": "hospital", "height": "10 m", "it:fvg:ctrn:code": "4AED", "it:fvg:ctrn:revision": "1A0", "name": "Ambulatori"}}, {"name": "Policlinico Città di Udine Polo 1", "latitude": 46.05205, "longitude": 13.2106696, "source": "osm", "_tags": {"amenity": "hospital", "building": "yes", "emergency": "no", "height": "32 m", "it:fvg:ctrn:code": "4AED", "it:fvg:ctrn:revision": "1A0", "name": "Policlinico Città di Udine Polo 1", "old_name": "Casa di cura Città di Udine"}}, {"name": "ASS4 - Centro territoriale di Tricesimo", "latitude": 46.1584772, "longitude": 13.2246429, "source": "osm", "_tags": {"amenity": "hospital", "building": "yes", "emergency": "no", "height": "2 m", "it:fvg:ctrn:code": "4AED", "it:fvg:ctrn:revision": "1A0", "name": "ASS4 - Centro territoriale di Tricesimo", "name:fur": "ASS4 - Centri teritoriâl di Tresesin"}}, {"name": "Distretto Sanitario ASL n.5 Bassa Friulana", "latitude": 45.9080571, "longitude": 13.312342, "source": "osm", "_tags": {"amenity": "hospital", "building": "hospital", "building:levels": "2", "healthcare": "hospital", "height": "8 m", "it:fvg:ctrn:code": "4AED", "it:fvg:ctrn:revision": "1A0", "name": "Distretto Sanitario ASL n.5 Bassa Friulana", "roof:levels": "0", "wheelchair": "yes"}}, {"name": "Ospedale Civile \"Santa Maria della Misericordia\"", "latitude": 46.078745, "longitude": 13.2280837, "source": "osm", "_tags": {"amenity": "hospital", "emergency": "yes", "healthcare": "hospital", "name": "Ospedale Civile \"Santa Maria della Misericordia\""}}, {"name": "Ospedale San Giovanni di Dio", "latitude": 45.9357301, "longitude": 13.604934, "source": "osm", "_tags": {"addr:city": "Gorizia", "addr:housenumber": "34", "addr:postcode": "34170", "addr:street": "Via Fatebenefratelli", "amenity": "hospital", "emergency": "yes", "healthcare": "hospital", "name": "Ospedale San Giovanni di Dio", "operator": "Azienda sanitaria universitaria Giuliano Isontina (ASUGI)", "website": "https://asugi.sanita.fvg.it/it/presidi-ospedalieri/ospedale-gorizia/mappa/"}}, {"name": "Zdravstveni dom Kobarid", "latitude": 46.2471819, "longitude": 13.5783024, "source": "osm", "_tags": {"addr:city": "Kobarid", "addr:housenumber": "3a", "addr:postcode": "5222", "addr:street": "Trg svobode", "amenity": "hospital", "building": "yes", "healthcare": "hospital", "name": "Zdravstveni dom Kobarid", "note": "apartments", "ref:gurs:hs_mid": "15281952", "ref:gurs:sta_sid": "10147811", "source:addr": "GURS"}}, {"name": "Ospedale San Antonio", "latitude": 46.154825, "longitude": 13.0086119, "source": "osm", "_tags": {"addr:city": "San Daniele del Friuli", "addr:housenumber": "2", "addr:postcode": "33038", "addr:street": "Via Trento Trieste", "amenity": "hospital", "emergency": "yes", "healthcare": "hospital", "name": "Ospedale San Antonio", "operator": "ASUIUD", "operator:type": "public"}}, {"name": "Ospedale \"Santa Maria dei Battuti\"", "latitude": 45.9115865, "longitude": 12.855502, "source": "osm", "_tags": {"addr:city": "San Vito al Tagliamento", "addr:housenumber": "2", "addr:postcode": "33078", "addr:street": "Via Savorgnano", "amenity": "hospital", "area": "yes", "emergency": "yes", "healthcare": "hospital", "name": "Ospedale \"Santa Maria dei Battuti\"", "operator": "Azienda per l'Assistenza Sanitaria 5 \"Friuli Occidentale\"", "wheelchair": "yes"}}, {"name": "Krankenhaus Spittal/Drau", "latitude": 46.8019631, "longitude": 13.4911705, "source": "osm", "_tags": {"addr:city": "Spittal an der Drau", "addr:country": "AT", "addr:housenumber": "1", "addr:postcode": "9800", "addr:street": "Billrothstraße", "amenity": "hospital", "contact:phone": "+43 4762 622-0", "healthcare": "hospital", "healthcare:speciality": "emergency", "name": "Krankenhaus Spittal/Drau", "name:en": "Hospital Spittal/Drau", "website": "https://www.khspittal.com", "wheelchair": "yes"}}, {"name": "", "latitude": 46.0914456, "longitude": 13.4386765, "source": "osm", "_tags": {"amenity": "hospital", "healthcare": "hospital"}}, {"name": "Ospedale \"San Giovanni dei Battuti\"", "latitude": 46.111804, "longitude": 12.8905518, "source": "osm", "_tags": {"addr:city": "Spilimbergo", "addr:housenumber": "1", "addr:postcode": "33097", "addr:street": "Via Raffaello Sanzio", "amenity": "hospital", "check_date": "2024-12-01", "emergency": "yes", "healthcare": "hospital", "name": "Ospedale \"San Giovanni dei Battuti\"", "operator": "Azienda per l'Assistenza Sanitaria n.5 \"Friuli Occidentale\"", "phone": "+390427595595"}}, {"name": "Ospedale San Polo", "latitude": 45.8159639, "longitude": 13.519067, "source": "osm", "_tags": {"amenity": "hospital", "healthcare": "hospital", "name": "Ospedale San Polo", "wheelchair": "yes"}}, {"name": "Dipartimento di Salute Mentale A.S.S. 4", "latitude": 46.0348122, "longitude": 13.2223734, "source": "osm", "_tags": {"amenity": "hospital", "healthcare": "hospital", "name": "Dipartimento di Salute Mentale A.S.S. 4"}}, {"name": "Distretto Sanitario Codroipo", "latitude": 45.961852, "longitude": 12.9956812, "source": "osm", "_tags": {"amenity": "hospital", "emergency": "no", "healthcare": "hospital", "name": "Distretto Sanitario Codroipo"}}, {"name": "Splošna bolnišnica »Dr. Franca Derganca« Nova Gorica", "latitude": 45.9314871, "longitude": 13.6415612, "source": "osm", "_tags": {"addr:city": "Šempeter pri Gorici", "addr:housenumber": "13A", "addr:postcode": "5290", "addr:street": "Ulica padlih borcev", "amenity": "hospital", "emergency": "yes", "healthcare": "hospital", "healthcare:speciality": "ophthalmology;orthopaedics;gynaecology;surgery;paediatrics;emergency;cardiology;geriatrics;radiology;internal", "name": "Splošna bolnišnica »Dr. Franca Derganca« Nova Gorica", "website": "https://www.bolnisnica-go.si/"}}, {"name": "Istituto di Medicina Fisica e di Riabilitazione \"Gervasutta\"", "latitude": 46.0495519, "longitude": 13.2374329, "source": "osm", "_tags": {"amenity": "hospital", "healthcare": "hospital", "name": "Istituto di Medicina Fisica e di Riabilitazione \"Gervasutta\"", "old_operator": "Azienda per i Servizi Sanitari n. 4 Medio Friuli", "operator": "Azienda Sanitaria Universitaria Integrata di Udine"}}, {"name": "Ospedale Civile Sant’Antonio Abate di Tolmezzo", "latitude": 46.4059041, "longitude": 13.0060995, "source": "osm", "_tags": {"amenity": "hospital", "healthcare": "hospital", "name": "Ospedale Civile Sant’Antonio Abate di Tolmezzo"}}, {"name": "Ospedale Civile di Palmanova", "latitude": 45.9083365, "longitude": 13.3365933, "source": "osm", "_tags": {"amenity": "hospital", "emergency": "yes", "healthcare": "hospital", "healthcare:speciality": "general", "name": "Ospedale Civile di Palmanova", "name:fur": "Ospedâl di Palme", "name:it": "Ospedale Civile di Palmanova", "wikipedia": "it:Ospedale civile di Palmanova"}}, {"name": "", "latitude": 46.0519274, "longitude": 13.210414, "source": "osm", "_tags": {"amenity": "hospital", "healthcare": "hospital"}}, {"name": "", "latitude": 46.5029924, "longitude": 13.5763771, "source": "osm", "_tags": {"amenity": "hospital", "healthcare": "hospital"}}, {"name": "Ospedale Civile San Michele", "latitude": 46.2885561, "longitude": 13.1248025, "source": "osm", "_tags": {"addr:city": "Gemona del Friuli", "addr:housenumber": "2", "addr:postcode": "33013", "addr:street": "Piazza Rodolone", "amenity": "hospital", "emergency": "no", "healthcare": "hospital", "it:fvg:ctrn:code": "4AED", "it:fvg:ctrn:revision": "1AM", "name": "Ospedale Civile San Michele", "operator": "ASUFC", "operator:type": "public", "website": "https://asufc.sanita.fvg.it/it/presidi-ospedalieri/ospedale_imfr_gemona/"}}, {"name": "Dipartimento di salute mentale", "latitude": 45.9120528, "longitude": 12.8577648, "source": "osm", "_tags": {"amenity": "hospital", "healthcare": "hospital", "name": "Dipartimento di salute mentale"}}, {"name": "", "latitude": 45.8942155, "longitude": 13.4971743, "source": "osm", "_tags": {"amenity": "hospital", "healthcare": "hospital"}}, {"name": "Distretto sociosanitario della Carnia", "latitude": 46.4068922, "longitude": 13.0103825, "source": "osm", "_tags": {"addr:city": "Tolmezzo", "addr:housenumber": "3c", "addr:postcode": "33028", "addr:street": "Via Dante Alighieri", "amenity": "hospital", "emergency": "no", "healthcare": "hospital", "name": "Distretto sociosanitario della Carnia", "operator": "ASU - Friuli Centrale", "operator:type": "public"}}, {"name": "Ospedale Civile di Cormons", "latitude": 45.9598372, "longitude": 13.4615457, "source": "osm", "_tags": {"amenity": "hospital", "building": "yes", "healthcare": "hospital", "height": "25 m", "it:fvg:ctrn:code": "4AED", "name": "Ospedale Civile di Cormons", "type": "multipolygon"}}, {"name": "Ospedale Civile di Palmanova", "latitude": 45.9089489, "longitude": 13.3364983, "source": "osm", "_tags": {"amenity": "hospital", "emergency": "yes", "name": "Ospedale Civile di Palmanova", "name:fur": "Ospedâl Civîl di Palme", "type": "site"}}, {"name": "Ospedale Civile di Cividale", "latitude": 46.0914456, "longitude": 13.4386765, "source": "osm", "_tags": {"amenity": "hospital", "disused:emergency": "yes", "healthcare": "hospital", "name": "Ospedale Civile di Cividale", "type": "site"}}, {"name": "Ospedale San Giovanni di Dio", "latitude": 45.9357301, "longitude": 13.604934, "source": "osm", "_tags": {"amenity": "hospital", "emergency": "yes", "name": "Ospedale San Giovanni di Dio", "type": "site"}}]