[{"name": "Ospedale Moriggia Pelascini", "latitude": 46.142383, "longitude": 9.2996831, "source": "osm", "_tags": {"amenity": "hospital", "name": "Ospedale Moriggia Pelascini", "wikidata": "Q50036583"}}, {"name": "", "latitude": 45.9882545, "longitude": 9.2610845, "source": "osm", "_tags": {"amenity": "hospital"}}, {"name": "Villa Aprica", "latitude": 45.8234998, "longitude": 9.06106, "source": "osm", "_tags": {"amenity": "hospital", "healthcare": "hospital", "name": "Villa Aprica"}}, {"name": "ASST Lecco - Presidio di Introbio", "latitude": 45.9774908, "longitude": 9.4461681, "source": "osm", "_tags": {"amenity": "hospital", "emergency": "no", "name": "ASST Lecco - Presidio di Introbio", "not:operator:wikidata": "Q3631467", "operator": "ASST Lecco"}}, {"name": "Pronto Soccorso Ospedale Moriggia Pelascini", "latitude": 46.1420975, "longitude": 9.2994208, "source": "osm", "_tags": {"addr:city": "Gravedona", "addr:postcode": "22015", "addr:street": "Via Moriggia Pelascini", "amenity": "hospital", "emergency": "yes", "healthcare": "hospital", "name": "Pronto Soccorso Ospedale Moriggia Pelascini"}}, {"name": "Pronto Soccorso Ospedale Erba Renaldi", "latitude": 46.0182053, "longitude": 9.2274732, "source": "osm", "_tags": {"addr:city": "Croce", "addr:postcode": "22017", "addr:street": "Via Virginia Casartelli", "emergency": "emergency_ward_entrance", "healthcare": "hospital", "name": "Pronto Soccorso Ospedale Erba Renaldi"}}, {"name": "Pronto Soccorso Ospedale  Morbegno", "latitude": 46.1337274, "longitude": 9.5736467, "source": "osm", "_tags": {"addr:city": "Morbegno", "addr:postcode": "23017", "amenity": "hospital", "check_date": "2024-11-10", "emergency": "yes", "healthcare": "hospital", "name": "Pronto Soccorso Ospedale  Morbegno"}}, {"name": "Pronto soccorso ospedale di Chiavenna", "latitude": 46.3217151, "longitude": 9.3992887, "source": "osm", "_tags": {"addr:city": "Chiavenna", "addr:postcode": "23022", "amenity": "hospital", "emergency": "yes", "healthcare": "hospital", "name": "Pronto soccorso ospedale di Chiavenna"}}, {"name": "Deserto", "latitude": 45.9119859, "longitude": 8.8606241, "source": "osm", "_tags": {"amenity": "hospital", "healthcare": "hospital", "name": "Deserto"}}, {"name": "Ferraroli ESP", "latitude": 46.0337727, "longitude": 8.9226749, "source": "osm", "_tags": {"amenity": "hospital", "healthcare": "hospital", "name": "Ferraroli ESP"}}, {"name": "Spital regiunal Surselva", "latitude": 46.7769296, "longitude": 9.2052594, "source": "osm", "_tags": {"addr:city": "Ilanz/Glion", "addr:postcode": "7130", "addr:street": "Via ospedal", "amenity": "hospital", "healthcare": "hospital", "name": "Spital regiunal Surselva", "operator": "Regionalspital Surselva AG", "operator:type": "public"}}, {"name": "Pronto Soccorso", "latitude": 45.996501, "longitude": 8.7464596, "source": "osm", "_tags": {"addr:city": "Luino", "addr:housenumber": "6", "addr:postcode": "21016", "addr:street": "Via Enrico Forlanini", "amenity": "hospital", "emergency": "emergency_ward_entrance", "healthcare": "hospital", "name": "Pronto Soccorso", "operator": "Ospedale di Luino", "operator:type": "public", "website": "https://www.asst-settelaghi.it/pronto-soccorso-ospedale-di-luino"}}, {"name": "Studio dentistico Mesenzana", "latitude": 45.9564571, "longitude": 8.760924, "source": "osm", "_tags": {"addr:city": "Mesenzana", "addr:housenumber": "55", "addr:postcode": "21030", "addr:street": "Via Provinciale", "amenity": "hospital", "healthcare": "dentist", "healthcare:speciality": "dentist", "name": "Studio dentistico Mesenzana"}}, {"name": "Ospedale Regionale di Lugano", "latitude": 46.0098269, "longitude": 8.9610242, "source": "osm", "_tags": {"addr:city": "Lugano", "addr:postcode": "6900", "addr:street": "Via Capelli", "amenity": "hospital", "emergency": "yes", "healthcare": "hospital", "name": "Ospedale Regionale di Lugano", "opening_hours": "07:00-23:00", "operator": "Ente Ospedaliero Cantonale", "operator:type": "government", "phone": "+41 91 811 61 11", "toilets:wheelchair": "yes", "website": "https://www.eoc.ch/Ospedali-e-Istituti/Ospedale-Regionale-di-Lugano/Civico-e-Italiano/Presentazione.html", "wheelchair": "yes"}}, {"name": "Ospedale Civico", "latitude": 46.0177046, "longitude": 8.9527798, "source": "osm", "_tags": {"addr:city": "Lugano", "addr:housenumber": "46", "addr:postcode": "6900", "addr:street": "Via Tesserete", "amenity": "hospital", "emergency": "yes", "healthcare": "hospital", "healthcare:speciality": "intensive", "name": "Ospedale Civico", "phone": "+41 91 811 61 11", "toilets:wheelchair": "yes", "website": "https://www.eoc.ch/Ospedali-e-Istituti/Ospedale-Regionale-di-Lugano/Civico-e-Italiano/Presentazione.html", "wheelchair": "yes"}}, {"name": "Ospedale Sacra Famiglia Fatebenefratelli", "latitude": 45.8165571, "longitude": 9.2264991, "source": "osm", "_tags": {"amenity": "hospital", "emergency": "yes", "name": "Ospedale Sacra Famiglia Fatebenefratelli"}}, {"name": "Casa di Cura Quarenghi", "latitude": 45.8370123, "longitude": 9.6629566, "source": "osm", "_tags": {"addr:city": "San Pellegrino Terme", "addr:housenumber": "70", "addr:postcode": "24016", "addr:street": "Via San Carlo", "amenity": "hospital", "building": "hospital", "name": "Casa di Cura Quarenghi"}}, {"name": "Centro Sanitario Valcuvia", "latitude": 45.8988569, "longitude": 8.7333671, "source": "osm", "_tags": {"amenity": "hospital", "healthcare": "hospital", "name": "Centro Sanitario Valcuvia"}}, {"name": "Clinica La Quiete", "latitude": 45.8211574, "longitude": 8.8148094, "source": "osm", "_tags": {"amenity": "hospital", "emergency": "no", "healthcare": "hospital", "name": "Clinica La Quiete", "wheelchair": "yes"}}, {"name": "Ospedale Filippo Del Ponte", "latitude": 45.8155782, "longitude": 8.8344288, "source": "osm", "_tags": {"amenity": "hospital", "baby_feeding": "yes", "emergency": "yes", "healthcare": "hospital", "kids_area": "yes", "name": "Ospedale Filippo Del Ponte", "wikidata": "Q19369275", "wikipedia": "it:Ospedale Filippo del Ponte"}}, {"name": "ASL Mandello del Lario", "latitude": 45.9181318, "longitude": 9.3226192, "source": "osm", "_tags": {"amenity": "hospital", "building": "hospital", "healthcare": "hospital", "name": "ASL Mandello del Lario", "operator": "ASL", "operator:wikidata": "Q3631467", "wheelchair": "yes"}}, {"name": "Soccorso degli Alpini", "latitude": 45.9181046, "longitude": 9.3228785, "source": "osm", "_tags": {"addr:city": "Mandello del Lario", "addr:housenumber": "3", "addr:postcode": "23826", "addr:street": "Via degli Alpini", "amenity": "hospital", "building": "hospital", "emergency": "yes", "healthcare": "hospital", "name": "Soccorso degli Alpini", "website": "https://www.soccorsodeglialpini.it/", "wheelchair": "yes"}}, {"name": "Ospedale di Chiavenna", "latitude": 46.3217759, "longitude": 9.399787, "source": "osm", "_tags": {"addr:city": "Chiavenna", "addr:housenumber": "4", "addr:postcode": "23022", "addr:street": "Via della Cereria", "amenity": "hospital", "email": "direzionemedica.ch@asst-val.it", "emergency": "yes", "fax": "+39034367380", "healthcare": "hospital", "name": "Ospedale di Chiavenna", "official_name": "Presidio ospedalerio di Chiavenna", "operator": "Azienda Socio Sanitaria Territoriale Valtellina e dell'Alto Lario", "operator:type": "public", "operator:website": "https://www.asst-val.it/", "phone": "+39034367111", "website": "https://www.asst-val.it/chiavenna"}}, {"name": "Presidio Ospedaliero Territoriale di Morbegno", "latitude": 46.1336778, "longitude": 9.5734544, "source": "osm", "_tags": {"addr:city": "Morbegno", "addr:housenumber": "1", "addr:postcode": "23017", "addr:street": "Via Morelli", "amenity": "hospital", "check_date": "2024-11-10", "emergency": "ambulance_station", "name": "Presidio Ospedaliero Territoriale di Morbegno", "operator": "Azienda Ospedaliera Valtellina Valchiavenna", "wheelchair": "yes"}}, {"name": "Ospedale Alessandro Manzoni", "latitude": 45.852056, "longitude": 9.415021, "source": "osm", "_tags": {"addr:city": "Lecco", "addr:housenumber": "9;11", "addr:postcode": "23900", "addr:street": "Via dell'Eremo", "amenity": "hospital", "emergency": "yes", "healthcare": "hospital", "name": "Ospedale Alessandro Manzoni", "wheelchair": "yes", "wikidata": "Q16585332", "wikipedia": "it:Ospedale Alessandro Manzoni"}}, {"name": "", "latitude": 46.0484031, "longitude": 9.3067486, "source": "osm", "_tags": {"amenity": "hospital"}}, {"name": "Ospedale Regionale di Mendrisio Beata Vergine", "latitude": 45.8670575, "longitude": 8.9824244, "source": "osm", "_tags": {"addr:city": "Mendrisio", "addr:country": "CH", "addr:housenumber": "23", "addr:postcode": "6850", "addr:street": "Via Alfonso Turconi", "amenity": "hospital", "emergency": "yes", "healthcare": "hospital", "healthcare:speciality": "intensive", "name": "Ospedale Regionale di Mendrisio Beata Vergine", "operator": "Ente Ospedaliero Cantonale", "website": "https://www.eoc.ch/", "wikidata": "Q30270308"}}, {"name": "Istituto Madonna della Croce", "latitude": 45.8676667, "longitude": 8.9084545, "source": "osm", "_tags": {"addr:city": "Viggiù", "addr:housenumber": "1", "addr:postcode": "21059", "addr:street": "Via Ospedale", "amenity": "hospital", "building": "hospital", "contact:phone": "+39 0332 486121", "healthcare": "hospital", "name": "Istituto Madonna della Croce", "ref:vatin": "IT00577510126", "website": "https://www.madonnadellacroce.it/"}}, {"name": "COF Lanzo", "latitude": 45.9932411, "longitude": 9.0393882, "source": "osm", "_tags": {"amenity": "hospital", "building": "yes", "name": "COF Lanzo"}}, {"name": "Le Terrazze", "latitude": 45.9346914, "longitude": 8.8067278, "source": "osm", "_tags": {"addr:city": "Cunardo", "addr:housenumber": "6b", "addr:postcode": "21035", "addr:street": "Via Ugo Foscolo", "amenity": "hospital", "building": "hospital", "contact:phone": "+39 0332 992111", "healthcare": "hospital", "name": "Le Terrazze", "opening_hours": "Mo,We-Fr 08:00-18:00, Tu 08:00-20:00; Sa 08:00-13:00; Su closed; PH closed", "toilets": "yes", "toilets:access": "customers", "toilets:wheelchair": "yes", "website": "https://www.clinicaleterrazze.com/", "wheelchair": "yes"}}, {"name": "CLINICA DI RIABILITAZIONE EOC - NOVAGGIO", "latitude": 46.0103245, "longitude": 8.8507853, "source": "osm", "_tags": {"addr:city": "Novaggio", "addr:housenumber": "6", "addr:postcode": "6986", "addr:street": "Via Dr. E. Schwarz", "amenity": "hospital", "healthcare": "rehabilitation", "name": "CLINICA DI RIABILITAZIONE EOC - NOVAGGIO", "operator": "EOC Ente Ospedaliero Cantonale", "phone": "+41 (91) 811 22 11", "short_name": "Reha Novaggio"}}, {"name": "Protezione Civile della Comunità Montana del Piambello", "latitude": 45.8590102, "longitude": 8.8569834, "source": "osm", "_tags": {"amenity": "hospital", "healthcare": "hospital", "name": "Protezione Civile della Comunità Montana del Piambello"}}, {"name": "ASST Sette Laghi - Casa di Comunità di Arcisate", "latitude": 45.8591571, "longitude": 8.8571887, "source": "osm", "_tags": {"addr:city": "Arcisate", "addr:housenumber": "20", "addr:postcode": "21051", "addr:street": "Via Giacomo Matteotti", "amenity": "hospital", "healthcare": "hospital", "name": "ASST Sette Laghi - Casa di Comunità di Arcisate", "operator": "ASL", "operator:type": "public", "operator:wikidata": "Q3631467", "website": "https://www.asst-settelaghi.it/consultorio-arcisate"}}, {"name": "Ospedale Regionale di Bellinzona e Valli", "latitude": 46.1834935, "longitude": 9.0265359, "source": "osm", "_tags": {"addr:city": "Bellinzona", "addr:country": "CH", "addr:housenumber": "12", "addr:postcode": "6500", "addr:street": "Via Ospedale", "amenity": "hospital", "emergency": "yes", "healthcare": "hospital", "healthcare:speciality": "intensive;paediatrics;gynaecology;cardiology;orthopaedics;oncology;dermatology;dialysis;radiology;maternity;surgery;ophthalmology", "name": "Ospedale Regionale di Bellinzona e Valli", "operator": "EOC Ente Ospedaliero Cantonale", "phone": "+41 91 811 91 11", "website": "https://www.eoc.ch/Ospedali-e-Istituti/Ospedale-Regionale-di-Bellinzona-e-Valli/Bellinzona/Presentazione.html", "wikidata": "Q30281240"}}, {"name": "Spital regiunal Surselva", "latitude": 46.7769359, "longitude": 9.2052749, "source": "osm", "_tags": {"addr:city": "Glion", "addr:housenumber": "6", "addr:postcode": "7130", "addr:street": "Spitalstrasse", "amenity": "hospital", "email": "info@spitalilanz.ch", "emergency": "yes", "healthcare": "hospital", "name": "Spital regiunal Surselva", "name:de": "Regionalspital Bündner Oberland", "name:rm": "Spital regiunal Surselva", "old_name": "Spital St. Niklaus Ilanz", "phone": "+41 81 926 51 11", "url": "http://www.spitalilanz.ch"}}, {"name": "Clinica Santa Croce", "latitude": 46.1784812, "longitude": 8.7975805, "source": "osm", "_tags": {"addr:city": "Orselina", "addr:country": "CH", "addr:housenumber": "27", "addr:postcode": "6644", "addr:street": "Via al Parco", "amenity": "hospital", "email": "info@santacroce.ch", "emergency": "no", "healthcare": "hospital", "name": "Clinica Santa Croce", "phone": "+41 91 735 41 41", "website": "https://www.santacroce.ch/index.php?view=1000", "wheelchair": "limited"}}, {"name": "Clinica Luganese SA Sede San Rocco", "latitude": 46.0070343, "longitude": 8.9377555, "source": "osm", "_tags": {"addr:city": "Lugano", "addr:country": "CH", "addr:housenumber": "30", "addr:postcode": "6900", "addr:street": "Via Soldino", "amenity": "hospital", "healthcare": "hospital", "name": "Clinica Luganese SA Sede San Rocco"}}, {"name": "Clinica Luganese Moncucco", "latitude": 46.0051129, "longitude": 8.9398717, "source": "osm", "_tags": {"addr:city": "Lugano", "addr:country": "CH", "addr:housenumber": "10", "addr:postcode": "6903", "addr:street": "Via Moncucco", "amenity": "hospital", "email": "info@moncucco.ch", "emergency": "yes", "healthcare": "hospital", "healthcare:speciality": "intensive", "name": "Clinica Luganese Moncucco", "phone": "+41 91 960 81 11", "website": "https://moncucco.ch/", "wikidata": "Q33121077"}}, {"name": "Ospedale Sant'Anna", "latitude": 46.0001818, "longitude": 8.939075, "source": "osm", "_tags": {"addr:city": "Sorengo", "addr:country": "CH", "addr:housenumber": "1", "addr:postcode": "6924", "addr:street": "Via S. Anna", "amenity": "hospital", "healthcare": "hospital", "name": "Ospedale Sant'Anna", "phone": "+41 91 985 12 11", "website": "https://www.clinicasantanna.ch/it/"}}, {"name": "Centro Sanitario Bregaglia", "latitude": 46.3366446, "longitude": 9.5426459, "source": "osm", "_tags": {"addr:city": "Promontogno", "addr:housenumber": "5", "addr:place": "Flin", "addr:postcode": "7606", "amenity": "hospital", "healthcare": "hospital", "name": "Centro Sanitario Bregaglia", "website": "https://www.csbregaglia.ch/"}}, {"name": "Spital Thusis", "latitude": 46.6970981, "longitude": 9.436782, "source": "osm", "_tags": {"amenity": "hospital", "emergency": "yes", "healthcare": "hospital", "name": "Spital Thusis", "phone": "+41 81 632 11 11", "website": "https://www.spitalthusis.ch/"}}, {"name": "Ospedale Regionale La Carità", "latitude": 46.168628, "longitude": 8.7907474, "source": "osm", "_tags": {"amenity": "hospital", "emergency": "yes", "healthcare": "hospital", "healthcare:speciality": "intensive", "name": "Ospedale Regionale La Carità", "phone": "+41 91 811 41 11", "website": "https://www.eoc.ch/Ospedali-e-Istituti/Ospedale-Regionale-di-Locarno/Presentazione.html"}}, {"name": "Clinica Santa Chiara SA", "latitude": 46.1670449, "longitude": 8.7999805, "source": "osm", "_tags": {"amenity": "hospital", "healthcare": "hospital", "name": "Clinica Santa Chiara SA", "phone": "+41 91 756 41 11", "website": "https://www.clinicasantachiara.ch/"}}, {"name": "clinica ARS medica", "latitude": 46.0398632, "longitude": 8.9242408, "source": "osm", "_tags": {"addr:city": "Gravesano", "addr:housenumber": "16", "addr:postcode": "6929", "addr:street": "Via Grumo", "amenity": "hospital", "healthcare": "hospital", "name": "clinica ARS medica", "phone": "+41 91 611 62 11", "website": "https://www.arsmedica.ch/it/"}}, {"name": "Kreisspital Surses", "latitude": 46.595191, "longitude": 9.6005996, "source": "osm", "_tags": {"amenity": "hospital", "healthcare": "hospital", "name": "Kreisspital Surses", "operator": "Center da Sanadad Savognin SA", "phone": "+41 81 669 14 00", "website": "https://www.spital-savognin.ch/"}}, {"name": "CLINICA DI RIABILITAZIONE EOC - FAIDO", "latitude": 46.4781316, "longitude": 8.8050559, "source": "osm", "_tags": {"addr:city": "Faido", "addr:housenumber": "32", "addr:postcode": "6760", "addr:street": "Via Ospedale", "amenity": "hospital", "name": "CLINICA DI RIABILITAZIONE EOC - FAIDO", "note": "Outline guessed", "phone": "+41 (91) 811 21 11", "short_name": "Reha Faido EOC"}}, {"name": "", "latitude": 45.8420316, "longitude": 9.6681593, "source": "osm", "_tags": {"amenity": "hospital", "healthcare": "hospital"}}, {"name": "Ospedale Civile di San Giovanni Bianco", "latitude": 45.871144, "longitude": 9.6546571, "source": "osm", "_tags": {"addr:city": "San Giovanni Bianco", "addr:housenumber": "5", "addr:postcode": "24015", "addr:street": "Via Castelli", "amenity": "hospital", "check_date": "2025-07-26", "emergency": "yes", "healthcare": "hospital", "healthcare:speciality": "orthopaedics;emergency;cardiology;dialysis;surgery;internal;physiatry", "name": "Ospedale Civile di San Giovanni Bianco", "operator": "A.S.S.T. Papa Giovanni XXIII", "operator:type": "public", "website": "http://www.asst-pg23.it/2017/02/_ospedale_s_g_bianco/#"}}, {"name": "LAVS Brembilla", "latitude": 45.8218719, "longitude": 9.5939474, "source": "osm", "_tags": {"amenity": "hospital", "healthcare": "hospital", "name": "LAVS Brembilla"}}, {"name": "ex Villa Fiorita", "latitude": 45.8201729, "longitude": 9.5959424, "source": "osm", "_tags": {"amenity": "hospital", "healthcare": "hospital", "name": "ex Villa Fiorita"}}, {"name": "", "latitude": 45.845967, "longitude": 8.7886403, "source": "osm", "_tags": {"amenity": "hospital", "healthcare": "hospital", "layer": "-1", "operator": "ASST SETTE LAGHI"}}, {"name": "ASST Lariana", "latitude": 46.0185516, "longitude": 9.2280077, "source": "osm", "_tags": {"amenity": "hospital", "emergency": "yes", "healthcare": "hospital", "name": "ASST Lariana", "operator:type": "public"}}, {"name": "Villa Rovera Molina Onlys", "latitude": 45.8459735, "longitude": 8.7526613, "source": "osm", "_tags": {"amenity": "hospital", "name": "Villa Rovera Molina Onlys"}}, {"name": "", "latitude": 45.8827781, "longitude": 8.8806612, "source": "osm", "_tags": {"amenity": "hospital", "healthcare": "hospital"}}, {"name": "Protezione Civile di Cuasso al Monte", "latitude": 45.9073118, "longitude": 8.8607544, "source": "osm", "_tags": {"amenity": "hospital", "healthcare": "hospital", "name": "Protezione Civile di Cuasso al Monte"}}, {"name": "Studio Dr. med. Giunchi presso Ars Medica Centro Medico", "latitude": 46.0348249, "longitude": 8.9245469, "source": "osm", "_tags": {"addr:city": "Manno", "addr:housenumber": "38", "addr:postcode": "6928", "addr:street": "Via Cantonale", "amenity": "hospital", "currency:XBT": "yes", "description": "First orthopaedic surgeon allowing Bitcoin as payment.\nFluent in English and French, he is specialized in knee and hip surgery.", "healthcare": "hospital", "healthcare:speciality": "orthopaedics;knee_and_hip_surgery", "name": "Studio Dr. med. Giunchi presso Ars Medica Centro Medico", "operator": "Hip and Knee Surgeon", "operator:type": "private", "payment:lightning": "yes", "payment:lightning_contactless": "yes", "payment:onchain": "yes", "survey:date": "2024-04-17"}}, {"name": "Ospedale di Cuasso al Monte", "latitude": 45.9105553, "longitude": 8.8591064, "source": "osm", "_tags": {"amenity": "hospital", "emergency": "yes", "healthcare": "hospital", "healthcare:speciality": "cardiology;neurology;pulmonology;allergology", "name": "Ospedale di Cuasso al Monte", "note": "In fase di ristrutturazione.", "operator": "ASST Sette Laghi", "operator:type": "public"}}, {"name": "Ospedale del Ponte", "latitude": 45.8155904, "longitude": 8.8343925, "source": "osm", "_tags": {"amenity": "hospital", "name": "Ospedale del Ponte", "type": "site"}}, {"name": "Ospedale di Circolo Fondazione Macchi Varese - Odontostomatologia Velate", "latitude": 45.8459494, "longitude": 8.7886403, "source": "osm", "_tags": {"addr:city": "Varese", "addr:housenumber": "10", "addr:postcode": "21100", "addr:street": "Via Giuseppe Piatti", "amenity": "hospital", "name": "Ospedale di Circolo Fondazione Macchi Varese - Odontostomatologia Velate", "note": "FIXME: check exact usage (it does belong to the local hospital)", "phone": "+39 0332 825640", "type": "site"}}, {"name": "Ospedale Luini Confalonieri", "latitude": 45.9961249, "longitude": 8.7461885, "source": "osm", "_tags": {"addr:city": "Luino", "addr:housenumber": "6", "addr:postcode": "21016", "addr:street": "Via Enrico Forlanini", "alt_name": "Ospedale di Luino", "amenity": "hospital", "baby_feeding": "no", "healthcare": "hospital", "kids_area": "no", "name": "Ospedale Luini Confalonieri", "operator": "ASL", "operator:wikidata": "Q3631467", "type": "multipolygon", "website": "https://www.asst-settelaghi.it/it/ospedale-luino-presentazione"}}]