[{"name": "Centre de la Planchonnerie", "latitude": 46.2137483, "longitude": 0.4832402, "source": "osm", "_tags": {"addr:city": "Payroux", "addr:housenumber": "36", "addr:street": "Rue René Fumeron", "alt_name": "Communauté d’accueil familial thérapeutique", "amenity": "social_facility", "contact:phone": "+33 5 49 87 69 72", "healthcare": "hospital", "healthcare:speciality": "psychiatry", "name": "Centre de la Planchonnerie", "operator": "Centre Hospitalier Henri Laborit", "ref:FR:FINESS": "860005123", "short_name": "CAFT", "social_facility": "assisted_living", "social_facility:for": "mental_health;senior", "source": "cadastre-dgi-fr source : Direction Générale des Impôts - Cadastre. Mise à jour : 2010", "type:FR:FINESS": "425", "website": "https://ch-laborit.fr/services-de-soins/adultes/alternatives-a-lhospitalisation/"}}, {"name": "", "latitude": 46.5545131, "longitude": 0.3946388, "source": "osm", "_tags": {"alt_name": "Fédération psychiatrique de la personne âgée", "contact:phone": "+33 5 49 44 58 42", "healthcare": "hospital", "healthcare:speciality": "psychiatry"}}, {"name": "Urgences cardiologiques", "latitude": 46.5574212, "longitude": 0.3862961, "source": "osm", "_tags": {"healthcare": "hospital", "healthcare:speciality": "cardiology;emergency", "name": "Urgences cardiologiques"}}, {"name": "Urgences générales", "latitude": 46.5588358, "longitude": 0.3874629, "source": "osm", "_tags": {"healthcare": "hospital", "healthcare:speciality": "emergency", "name": "Urgences générales"}}, {"name": "Centre hospitalier Saint-Maixent", "latitude": 46.4103287, "longitude": -0.2208437, "source": "osm", "_tags": {"amenity": "hospital", "building": "hospital", "emergency": "no", "name": "Centre hospitalier Saint-Maixent", "ref:FR:FINESS": "790000111", "source": "cadastre-dgi-fr source : Direction Générale des Impôts - Cadastre. Mise à jour : 2010"}}, {"name": "Pavillon Tony Lainé", "latitude": 46.5510829, "longitude": 0.3961196, "source": "osm", "_tags": {"building": "hospital", "emergency": "no", "healthcare": "hospital", "name": "Pavillon Tony Lainé", "operator": "Centre hospitalier Henri Laborit", "operator:type": "public", "source": "cadastre-dgi-fr source : Direction Générale des Impôts - Cadastre. Mise à jour : 2010", "wheelchair": "yes"}}, {"name": "Pavillon Lagrange", "latitude": 46.553969, "longitude": 0.395156, "source": "osm", "_tags": {"building": "hospital", "contact:phone": "+33549445757", "healthcare": "hospital", "healthcare:speciality": "psychiatry", "name": "Pavillon Lagrange", "operator": "Centre hospitalier Henri Laborit", "ref:FR:FINESS": "860000017", "source": "cadastre-dgi-fr source : Direction Générale des Impôts - Cadastre. Mise à jour : 2010", "type:FR:FINESS": "292"}}, {"name": "Pavillon Pinel", "latitude": 46.5550924, "longitude": 0.3926565, "source": "osm", "_tags": {"alt_name": "Secteur 3", "building": "hospital", "healthcare": "hospital", "healthcare:speciality": "psychiatry", "name": "Pavillon Pinel", "operator": "Centre hospitalier Henri Laborit", "source": "cadastre-dgi-fr source : Direction Générale des Impôts - Cadastre. Mise à jour : 2010", "wheelchair": "yes"}}, {"name": "EMPE (Classes)", "latitude": 46.5521617, "longitude": 0.3952046, "source": "osm", "_tags": {"building": "hospital", "building:levels": "1", "healthcare": "hospital", "name": "EMPE (Classes)"}}, {"name": "Hôpital local de Melle", "latitude": 46.2295397, "longitude": -0.1527691, "source": "osm", "_tags": {"amenity": "hospital", "healthcare": "hospital", "name": "Hôpital local de Melle", "ref:FR:FINESS": "790000137", "short_name": "Hôpital", "source": "Le ministère des solidarités et de la santé - 03/2019"}}, {"name": "", "latitude": 46.5573338, "longitude": 0.3896781, "source": "osm", "_tags": {"building": "hospital", "healthcare": "hospital", "source": "cadastre-dgi-fr source : Direction Générale des Impôts - Cadastre. Mise à jour : 2012", "wall": "no"}}, {"name": "Unité de Recherche Clinique Pierre Deniker", "latitude": 46.553471, "longitude": 0.3954076, "source": "osm", "_tags": {"building": "hospital", "building:levels": "1", "healthcare": "hospital", "healthcare:speciality": "psychiatry", "name": "Unité de Recherche Clinique Pierre Deniker", "operator": "Centre Hospitalier Henri Laborit", "source": "cadastre-dgi-fr source : Direction Générale des Impôts - Cadastre. Mise à jour : 2010", "wheelchair": "yes"}}, {"name": "Centre hospitalier de la Milétrie", "latitude": 46.5568804, "longitude": 0.3848482, "source": "osm", "_tags": {"addr:city": "Poitiers", "addr:housenumber": "2", "addr:postcode": "86021", "addr:street": "Rue de la Milétrie", "amenity": "hospital", "emergency": "yes", "healthcare": "hospital", "healthcare:speciality": "intensive", "name": "Centre hospitalier de la Milétrie", "operator:type": "public", "phone": "+33 5 49 44 44 44", "ref:FR:FINESS": "860000223", "type:FR:FINESS": "355", "website": "https://www.chu-poitiers.fr/", "wikidata": "Q2945769"}}, {"name": "Centre hospitalier de Parthenay", "latitude": 46.6525456, "longitude": -0.2204548, "source": "osm", "_tags": {"addr:housenumber": "13", "amenity": "hospital", "emergency": "limited", "fax": "+33 5 49 68 30 00", "name": "Centre hospitalier de Parthenay", "operator": "Centre hospitalier Nord Deux-Sèvres", "operator:type": "public", "phone": "+33 5 49 68 49 68", "ref:FR:FINESS": "790000103", "source": "cadastre-dgi-fr source : Direction Générale des Impôts - Cadastre. Mise à jour : 2010", "type:FR:FINESS": "355", "website": "https://www.chnds.fr/accueil.aspx", "wheelchair": "yes"}}, {"name": "Centre hospitalier Henri Laborit", "latitude": 46.553135, "longitude": 0.3931416, "source": "osm", "_tags": {"amenity": "hospital", "contact:phone": "+33549445757", "emergency": "yes", "healthcare": "hospital", "healthcare:speciality": "psychiatry", "name": "Centre hospitalier Henri Laborit", "operator": "Centre hospitalier Henri Laborit", "operator:type": "public", "ref:FR:FINESS": "860000017", "source": "cadastre-dgi-fr source : Direction Générale des Impôts - Cadastre. Mise à jour : 2010", "type:FR:FINESS": "292", "website": "https://ch-laborit.fr/"}}, {"name": "Centre hospitalier de Ruffec", "latitude": 46.0279874, "longitude": 0.1957332, "source": "osm", "_tags": {"amenity": "hospital", "emergency": "yes", "fax": "+33 5 45 31 20 88", "healthcare": "hospital", "name": "Centre hospitalier de Ruffec", "operator:type": "public", "phone": "+33 5 45 29 50 00", "ref:FR:FINESS": "160000337", "ref:FR:NAF": "8610Z", "ref:FR:SIREN": "261600282", "ref:FR:SIRET": "26160028200014", "source": "cadastre-dgi-fr source : Direction Générale des Impôts - Cadastre. Mise à jour : 2011", "type:FR:FINESS": "355"}}, {"name": "Clinique Saint-Charles", "latitude": 46.5635171, "longitude": 0.368942, "source": "osm", "_tags": {"addr:housenumber": "3", "addr:street": "Rue de la Providence", "amenity": "hospital", "healthcare": "hospital", "name": "Clinique Saint-Charles", "ref:FR:FINESS": "860790419", "ref:FR:NAF": "8610Z", "ref:FR:SIREN": "349829952", "ref:FR:SIRET": "34982995200028", "source": "INSEE - 2024-12", "type:FR:FINESS": "109"}}, {"name": "CECAT", "latitude": 46.562045, "longitude": 0.3676426, "source": "osm", "_tags": {"alt_name": "Centre d’écoute, de consultations et d’activités thérapeutiques", "amenity": "health_care", "emergency": "no", "healthcare": "hospital", "healthcare:speciality": "psychiatry", "name": "CECAT", "opening_hours": "Mo-Fr 08:00-17:00", "operator_type": "public", "ref:FR:FINESS": "860005677", "type:FR:FINESS": "292", "website": "https://www.ch-laborit.fr"}}, {"name": "USLD de Lusignan", "latitude": 46.4349876, "longitude": 0.1263445, "source": "osm", "_tags": {"amenity": "hospital", "check_date": "2024-07-11", "fax": "+33549437644", "healthcare": "hospital", "name": "USLD de Lusignan", "phone": "+33549893800", "ref:FR:FINESS": "860000041", "ref:FR:SIRET": "20005535800085", "type:FR:FINESS": "362", "website": "https://www.chu-poitiers.fr/les-plans-des-sites-de-lusignan/"}}, {"name": "CESAM", "latitude": 46.5564785, "longitude": 0.392388, "source": "osm", "_tags": {"building": "hospital", "building:levels": "1", "healthcare": "hospital", "name": "CESAM", "wheelchair": "yes"}}, {"name": "", "latitude": 46.0049905, "longitude": 0.6701137, "source": "osm", "_tags": {"amenity": "hospital", "healthcare": "hospital"}}, {"name": "Polyclinique de Poitiers", "latitude": 46.5643924, "longitude": 0.3669809, "source": "osm", "_tags": {"addr:housenumber": "1", "addr:street": "Rue de la Providence", "alt_name": "Clinique Saint Charles", "amenity": "hospital", "email": "contact@polycliniquepoitiers.fr", "emergency": "yes", "fax": "+33 5 49 61 71 99", "healthcare": "hospital", "name": "Polyclinique de Poitiers", "operator": "Elsan", "operator:type": "private", "operator:wikidata": "Q48747106", "operator:wikipedia": "fr:Elsan", "phone": "+33 5 49 61 70 00", "ref:FR:FINESS": "860010321", "ref:FR:NAF": "8610Z", "ref:FR:SIREN": "342977683", "ref:FR:SIRET": "34297768300024", "source": "cadastre-dgi-fr source : Direction Générale des Impôts - Cadastre. Mise à jour : 2010", "type:FR:FINESS": "365", "website": "http://www.polycliniquepoitiers.fr/fr/"}}, {"name": "EMPE", "latitude": 46.5521923, "longitude": 0.3956426, "source": "osm", "_tags": {"amenity": "hospital", "emergency": "no", "healthcare": "hospital", "healthcare:speciality": "psychiatry", "name": "EMPE", "operator": "Centre Hospitalier Henri Laborit", "operator:type": "public", "source": "cadastre-dgi-fr source : Direction Générale des Impôts - Cadastre. Mise à jour : 2010", "type": "multipolygon", "website": "https://www.ch-laborit.fr", "wheelchair": "yes"}}, {"name": "Pavillon Toulouse", "latitude": 46.5528539, "longitude": 0.3941037, "source": "osm", "_tags": {"amenity": "social_facility", "building": "hospital", "emergency": "no", "healthcare": "hospital", "healthcare:speciality": "psychiatry", "name": "Pavillon Toulouse", "operator": "Centre Hospitalier Henri Laborit", "operator:type": "public", "phone": "+33 5 49 44 57 57", "social_facility": "nursing_home", "social_facility:for": "mental_health", "source": "cadastre-dgi-fr source : Direction Générale des Impôts - Cadastre. Mise à jour : 2020", "type": "multipolygon", "wheelchair": "yes"}}, {"name": "Centre hospitalier de Confolens", "latitude": 46.0049891, "longitude": 0.6699491, "source": "osm", "_tags": {"amenity": "hospital", "building": "hospital", "emergency": "yes", "fax": "+33 5 45 84 40 04", "healthcare": "hospital", "name": "Centre hospitalier de Confolens", "operator:type": "public", "phone": "+33 5 45 84 40 00", "ref:FR:FINESS": "160000311", "roof:shape": "flat", "source": "cadastre-dgi-fr source : Direction Générale des Finances Publiques - Cadastre. Mise à jour : 2018", "type": "multipolygon", "type:FR:FINESS": "355", "website": "http://www.ch-confolens.fr/"}}]