[{"name": "Pronto Soccorso Ospedale Edolo", "latitude": 46.1789742, "longitude": 10.3317757, "source": "osm", "_tags": {"check_date": "2024-08-15", "emergency": "emergency_ward_entrance", "healthcare": "hospital", "name": "Pronto Soccorso Ospedale Edolo"}}, {"name": "centro servizi Tonale", "latitude": 46.2593713, "longitude": 10.5854065, "source": "osm", "_tags": {"amenity": "hospital", "emergency": "yes", "healthcare": "doctor", "name": "centro servizi Tonale"}}, {"name": "Casa della Sanità", "latitude": 46.5176969, "longitude": 10.1244373, "source": "osm", "_tags": {"addr:city": "Livigno", "addr:housenumber": "1521", "addr:postcode": "23030", "addr:street": "Via Freita", "amenity": "hospital", "building": "yes", "emergency": "yes", "healthcare": "hospital", "healthcare:speciality": "emergency;general;guardia_medica", "name": "Casa della Sanità", "note": "Punto di Primo Intervento (Pronto Soccorso)\nGuardia Medica attiva dal Lunedì al Giovedì dalle 20.00 alle 8.00 e dal Venerdì alle ore 20.00 al Lunedì alle 8.00 (contatto al 116117)", "operator": "ASST Valtellina", "operator:type": "public"}}, {"name": "Spital Davos", "latitude": 46.787518, "longitude": 9.8145124, "source": "osm", "_tags": {"amenity": "hospital", "emergency": "yes", "healthcare": "hospital", "healthcare:speciality": "paediatrics;emergency;community;surgery;internal", "name": "Spital Davos", "wheelchair": "yes", "wikidata": "Q2311207"}}, {"name": "Spital Oberengadin / Ospidel Engiadin'Ota", "latitude": 46.5400078, "longitude": 9.8787667, "source": "osm", "_tags": {"amenity": "hospital", "contact:phone": "+41 818518111", "emergency": "yes", "healthcare": "hospital", "healthcare:speciality": "intensive", "name": "Spital Oberengadin / Ospidel Engiadin'Ota", "name:de": "Spital Oberengadin", "name:rm": "Ospidel Engiadin'Ota", "website": "https://www.spital-oberengadin.ch/", "wikidata": "Q2311225"}}, {"name": "Centro Dialisi", "latitude": 45.8900595, "longitude": 9.9183168, "source": "osm", "_tags": {"amenity": "hospital", "building": "yes", "healthcare": "hospital", "name": "Centro Dialisi"}}, {"name": "Ospedale Civile di Sondrio", "latitude": 46.1714805, "longitude": 9.8809616, "source": "osm", "_tags": {"amenity": "hospital", "healthcare": "hospital", "name": "Ospedale Civile di Sondrio", "operator": "Azienda Socio Sanitaria Territoriale della Valtellina e dell'Alto Lario"}}, {"name": "Ospedale di Edolo", "latitude": 46.178818, "longitude": 10.3311917, "source": "osm", "_tags": {"addr:city": "Edolo", "addr:housenumber": "1", "addr:postcode": "25048", "addr:street": "Piazza Donatori di Sangue", "amenity": "hospital", "contact:phone": "+39 0364 7721", "healthcare": "hospital", "name": "Ospedale di Edolo"}}, {"name": "Ospedale San Sisto", "latitude": 46.3226166, "longitude": 10.062212, "source": "osm", "_tags": {"addr:city": "Poschiavo", "addr:housenumber": "1", "addr:postcode": "7742", "addr:street": "Via da li Clüsüri", "amenity": "hospital", "building": "yes", "healthcare": "hospital", "name": "Ospedale San Sisto", "source": "Bing", "website": "https://www.csvp.ch"}}, {"name": "International Medical Center", "latitude": 46.5526792, "longitude": 10.132561, "source": "osm", "_tags": {"amenity": "hospital", "building": "yes", "healthcare": "hospital", "name": "International Medical Center"}}, {"name": "Infermeria", "latitude": 45.9692568, "longitude": 10.038452, "source": "osm", "_tags": {"amenity": "hospital", "fixme": "hospital?", "healthcare": "hospital", "name": "Infermeria", "name:en": "Infirmary"}}, {"name": "", "latitude": 45.8191979, "longitude": 10.0748938, "source": "osm", "_tags": {"amenity": "hospital", "healthcare": "hospital"}}, {"name": "Center da sandà Val Müstair", "latitude": 46.6066148, "longitude": 10.4327189, "source": "osm", "_tags": {"amenity": "hospital", "check_date": "2024-01-29", "emergency": "yes", "healthcare": "hospital", "name": "Center da sandà Val Müstair", "name:de": "Gesundheitszentrum Val Müstair", "phone": "+41 81 851 61 00", "website": "https://www.csvm.ch/", "wheelchair": "yes"}}, {"name": "Ospidal d'Engiadina Bassa", "latitude": 46.7998634, "longitude": 10.3038206, "source": "osm", "_tags": {"addr:city": "Scuol", "addr:country": "CH", "addr:housenumber": "280", "addr:postcode": "7550", "addr:street": "Via da l'Ospidal", "amenity": "hospital", "emergency": "yes", "healthcare": "hospital", "name": "Ospidal d'Engiadina Bassa", "name:de": "Gesundheitszentrum Unterengadin", "old_name": "Spital Schuls, Regionalspital Unterengadin", "phone": "+41 81 861 10 00", "website": "https://cseb.ch/"}}, {"name": "Presidio socio sanitario territoriale di Tirano", "latitude": 46.2185556, "longitude": 10.1688097, "source": "osm", "_tags": {"amenity": "hospital", "healthcare": "hospital", "name": "Presidio socio sanitario territoriale di Tirano"}}, {"name": "Ospedale di Tione", "latitude": 46.0418028, "longitude": 10.7241874, "source": "osm", "_tags": {"addr:city": "Tione di Trento", "addr:housenumber": "11", "addr:postcode": "38079", "addr:street": "Via Ospedale", "amenity": "hospital", "emergency": "yes", "healthcare": "hospital", "name": "Ospedale di Tione", "operator": "Azienda Provinciale per i Servizi Sanitari", "operator:wikidata": "Q114902510", "phone": "+39 0465 331111", "website": "https://www.apss.tn.it/Azienda/Luoghi/Ospedale-di-Tione-di-Trento", "wikidata": "Q120032582"}}, {"name": "Struttura Sanitaria di Bormio", "latitude": 46.4615201, "longitude": 10.3595803, "source": "osm", "_tags": {"addr:city": "Bormio", "addr:housenumber": "8", "addr:postcode": "23032", "addr:street": "Via Agoi", "amenity": "hospital", "emergency": "yes", "healthcare": "hospital", "healthcare:speciality": "general", "name": "Struttura Sanitaria di Bormio", "operator": "ASST VALTELLINA", "operator:type": "public", "wheelchair": "yes"}}, {"name": "Klinik Gut", "latitude": 46.4834824, "longitude": 9.8352633, "source": "osm", "_tags": {"addr:city": "St. Moritz", "addr:housenumber": "2", "addr:postcode": "7500", "addr:street": "Plazza Paracelsus", "amenity": "hospital", "building": "hospital", "healthcare": "hospital", "name": "Klinik Gut", "name:de": "Klinik Gut", "name:rm": "Clinica Gut"}}, {"name": "Ospedale di Piario", "latitude": 45.8887294, "longitude": 9.9188891, "source": "osm", "_tags": {"amenity": "hospital", "healthcare": "hospital", "name": "Ospedale di Piario", "type": "multipolygon"}}, {"name": "Casa di Riposo Fondazione Monsignor Giacomo Carettoni O.N.L.U.S.", "latitude": 46.25393, "longitude": 10.4956024, "source": "osm", "_tags": {"addr:city": "Ponte di Legno", "addr:housenumber": "100", "addr:postcode": "25056", "addr:street": "Via Roma", "amenity": "social_facility", "contact:email": "info@fondazionecarettoni.it", "contact:fax": "+39 0364 902035", "contact:phone": "+39 0364 91161", "contact:website": "https://www.fondazionecarettoni.com", "emergency": "no", "healthcare": "hospital", "healthcare:speciality": "geriatrics", "landuse": "social_facility", "name": "Casa di Riposo Fondazione Monsignor Giacomo Carettoni O.N.L.U.S.", "operator": "Fondazione Monsignor Giacomo Carettoni O.N.L.U.S.", "social_facility": "nursing_home", "social_facility:for": "senior", "type": "multipolygon"}}, {"name": "Ospedale Eugenio Morelli", "latitude": 46.3350593, "longitude": 10.3274638, "source": "osm", "_tags": {"addr:city": "Sondalo", "addr:housenumber": "33", "addr:postcode": "23035", "addr:street": "Via Ausonio Zubiani", "amenity": "hospital", "email": "direzionemedica.sl@asst-val.it", "emergency": "yes", "fax": "+39 0342 808 299", "healthcare": "hospital", "name": "Ospedale Eugenio Morelli", "operator": "A.S.S.T. Valtellina e Alto Lario", "phone": "+39 0342 808 111", "type": "multipolygon", "website": "https://www.asst-val.it/90_Sondalo.html", "wikipedia": "it:Sondalo#Ospedale Eugenio Morelli"}}, {"name": "Ospedale di Vallecamonica", "latitude": 45.9282436, "longitude": 10.2477235, "source": "osm", "_tags": {"amenity": "hospital", "name": "Ospedale di Vallecamonica", "type": "multipolygon"}}]