[{"name": "Ospedale Madonna del Popolo", "latitude": 45.8729382, "longitude": 8.4118021, "source": "osm", "_tags": {"amenity": "hospital", "emergency": "yes", "name": "Ospedale Madonna del Popolo"}}, {"name": "Opera Pia \"Dr. Domenico Uccelli\"", "latitude": 46.059841, "longitude": 8.6925088, "source": "osm", "_tags": {"amenity": "hospital", "healthcare": "hospital", "name": "Opera Pia \"Dr. Domenico Uccelli\""}}, {"name": "Distretto Sanitario ASL 14", "latitude": 46.0068349, "longitude": 8.2702021, "source": "osm", "_tags": {"amenity": "hospital", "healthcare": "hospital", "name": "Distretto Sanitario ASL 14"}}, {"name": "Praxis Dr. Tolouei", "latitude": 46.7878415, "longitude": 8.1604844, "source": "osm", "_tags": {"addr:city": "Lungern", "addr:country": "CH", "addr:housenumber": "69", "addr:postcode": "6078", "addr:street": "Brünigstrasse", "amenity": "doctors", "emergency": "no", "healthcare": "hospital", "healthcare:speciality": "general", "name": "Praxis Dr. Tolouei", "operator": "Mir Tolouei M. Reza", "phone": "+41 41 678 18 69", "wheelchair": "yes"}}, {"name": "Ambulatorio Medico", "latitude": 45.8274187, "longitude": 7.8219878, "source": "osm", "_tags": {"amenity": "hospital", "emergency": "no", "healthcare": "hospital", "name": "Ambulatorio Medico", "operator": "Medico della Mutua"}}, {"name": "Casa della Salute Varallo", "latitude": 45.8172739, "longitude": 8.2531492, "source": "osm", "_tags": {"amenity": "hospital", "emergency": "no", "healthcare": "hospital", "healthcare:speciality": "physiatry;neuropsychiatry;consultorio_familiare", "name": "Casa della Salute Varallo", "operator": "asl vc", "operator:type": "public"}}, {"name": "Presidio ospedalieri G. Castelli", "latitude": 45.9257896, "longitude": 8.5487406, "source": "osm", "_tags": {"addr:city": "Verbania", "addr:housenumber": "18", "addr:postcode": "28900", "addr:street": "Via Fiume", "amenity": "hospital", "building": "yes", "emergency": "yes", "healthcare": "hospital", "name": "Presidio ospedalieri G. Castelli", "operator": "Azienda sanitaria locale del Verbano Cusio Ossola"}}, {"name": "Istituto Auxologico Piancavallo", "latitude": 46.009738, "longitude": 8.6300421, "source": "osm", "_tags": {"addr:housenumber": "90", "addr:postcode": "28824", "addr:street": "Piancavallo - Morissolo \"Strada Cadorna\"", "amenity": "hospital", "healthcare": "hospital", "name": "Istituto Auxologico Piancavallo", "website": "https://www.auxologico.com/hospitals/auxologico-piancavallo"}}, {"name": "ASST Sette Laghi - Casa di Comunità di Laveno Mombello", "latitude": 45.9073949, "longitude": 8.6227494, "source": "osm", "_tags": {"addr:city": "Laveno-Mombello", "addr:housenumber": "8", "addr:postcode": "21014", "addr:street": "Via Emilia Ceretti", "alt_name": "Guardia Medica di Laveno", "amenity": "hospital", "building": "hospital", "contact:phone": "+39 0332 625318;+39 0332 625317", "healthcare": "hospital", "name": "ASST Sette Laghi - Casa di Comunità di Laveno Mombello", "operator": "ASL", "operator:type": "public", "operator:wikidata": "Q3631467", "social_facility": "ambulatory_care", "toilets:access": "permissive", "toilets:wheelchair": "yes", "website": "https://www.asst-settelaghi.it/cdc-laveno-mombello", "wheelchair": "yes"}}, {"name": "Ospedale San Biagio", "latitude": 46.1167277, "longitude": 8.2872309, "source": "osm", "_tags": {"amenity": "hospital", "emergency": "yes", "healthcare": "hospital", "name": "Ospedale San Biagio"}}, {"name": "Spitalzentrum Oberwallis (SZO) Brig", "latitude": 46.3169632, "longitude": 7.9816376, "source": "osm", "_tags": {"addr:city": "Brig", "addr:housenumber": "14", "addr:postcode": "3902", "addr:street": "Ueberlandstrasse", "amenity": "hospital", "emergency": "yes", "healthcare": "hospital", "healthcare:speciality": "intensive", "name": "Spitalzentrum Oberwallis (SZO) Brig", "operator": "Hôpital du Valais", "phone": "+41 27 604 33 33", "website": "https://www.hopitalvs.ch/de/spital-wallis/standorte/spitalzentrum-oberwallis.html"}}, {"name": "Fondazione Gaetano e Piera Borghi", "latitude": 45.8332065, "longitude": 8.6591764, "source": "osm", "_tags": {"amenity": "hospital", "healthcare": "hospital", "kids_area": "no", "name": "Fondazione Gaetano e Piera Borghi"}}, {"name": "Spital Visp", "latitude": 46.2873615, "longitude": 7.8836502, "source": "osm", "_tags": {"addr:city": "Visp", "addr:country": "CH", "addr:housenumber": "8", "addr:postcode": "3930", "addr:street": "Pflanzettastrasse", "amenity": "hospital", "emergency": "yes", "healthcare": "hospital", "name": "Spital Visp", "name:de": "Spital Visp", "name:fr": "Hôpital de Visp", "phone": "+41 (0)27 970 33 33", "toilets:wheelchair": "yes", "website": "https://www.hopitalduvalais.ch/de/spital-wallis/standorte/visp.html", "wheelchair": "yes"}}, {"name": "Regionalspital Interlaken", "latitude": 46.6803444, "longitude": 7.8433744, "source": "osm", "_tags": {"addr:city": "Unterseen", "addr:housenumber": "27", "addr:postcode": "3800", "addr:street": "Weissenaustrasse", "amenity": "hospital", "email": "info@spitalfmi.ch", "emergency": "yes", "healthcare": "hospital", "healthcare:speciality": "intensive", "name": "Regionalspital Interlaken", "operator": "FMI", "phone": "+41 33 826 26 26", "type": "multipolygon", "website": "https://www.spitalfmi.ch/index.php?id=2217", "wheelchair": "yes", "wikidata": "Q2311218", "wikipedia": "de:Spital Interlaken"}}, {"name": "Ospedale Causa Maria Pia Luvini di Cittiglio", "latitude": 45.8938265, "longitude": 8.6677334, "source": "osm", "_tags": {"addr:city": "Cittiglio", "addr:housenumber": "2", "addr:postcode": "21033", "addr:street": "Via Don Carlo Luvini", "alt_name": "Ospedale di Cittiglio", "amenity": "hospital", "baby_feeding": "yes", "building": "hospital", "contact:phone": "+39 0332 607111", "healthcare": "hospital", "name": "Ospedale Causa Maria Pia Luvini di Cittiglio", "operator": "ASST Sette Laghi", "ref:vatin": "IT03510050127", "type": "multipolygon", "website": "https://www.asst-settelaghi.it/ospedale-cittiglio-presentazione"}}]