[{"name": "Centre Hospitalier Site Rabelais", "latitude": 46.4687001, "longitude": -0.8160647, "source": "osm", "_tags": {"amenity": "hospital", "healthcare": "hospital", "name": "Centre Hospitalier Site Rabelais", "phone": "+33 2 51 53 51 53", "ref:FR:FINESS": "850000183", "ref:FR:NAF": "8610Z", "ref:FR:SIREN": "268500196", "ref:FR:SIRET": "26850019600012", "source": "INSEE - 2024-10", "type:FR:FINESS": "355"}}, {"name": "Centre Médico-Psychologique et Hôpital de Jour", "latitude": 46.4699693, "longitude": -0.8183071, "source": "osm", "_tags": {"amenity": "hospital", "healthcare": "hospital", "name": "Centre Médico-Psychologique et Hôpital de Jour", "opening_hours": "Mo-Fr 09:00-17:00", "phone": "+33 2 51 50 16 76", "ref:FR:FINESS": "850025941", "short_name": "CMP", "type:FR:FINESS": "292"}}, {"name": "Mélioris Le Grand Feu", "latitude": 46.3431837, "longitude": -0.4815531, "source": "osm", "_tags": {"amenity": "hospital", "name": "Mélioris Le Grand Feu", "ref:FR:NAF": "8610Z", "ref:FR:SIREN": "312962301", "ref:FR:SIRET": "31296230100023", "source": "INSEE - 2024-11"}}, {"name": "Centre Descartes", "latitude": 46.3165995, "longitude": -0.4717118, "source": "osm", "_tags": {"amenity": "hospital", "check_date": "2025-06-22", "healthcare": "hospital", "healthcare:speciality": "cardiology", "name": "Centre Descartes"}}, {"name": "Centre d'oncologie et de radiothérapie", "latitude": 46.1594269, "longitude": -1.1446317, "source": "osm", "_tags": {"amenity": "hospital", "healthcare:speciality": "oncology;radiotherapy", "name": "Centre d'oncologie et de radiothérapie"}}, {"name": "Centre hospitalier de Niort - Site de Goise", "latitude": 46.3127287, "longitude": -0.4550271, "source": "osm", "_tags": {"amenity": "hospital", "healthcare": "hospital", "name": "Centre hospitalier de Niort - Site de Goise", "operator": "Centre hospitalier de Niort", "ref:FR:FINESS": "790012355", "source": "cadastre-dgi-fr source : Direction Générale des Impôts - Cadastre. Mise à jour : 2011"}}, {"name": "Cabinet médical", "latitude": 45.9482295, "longitude": -1.0762725, "source": "osm", "_tags": {"addr:city": "Port-des-Barques", "addr:housenumber": "5", "addr:postcode": "17730", "addr:street": "Rue Pierre Loti", "amenity": "doctors", "healthcare": "hospital", "healthcare:speciality": "general", "name": "Cabinet médical", "source": "cadastre-dgi-fr source : Direction Générale des Impôts - Cadastre. Mise à jour : 2012"}}, {"name": "Hôpital Psychiatrique Marius Lacroix", "latitude": 46.1743298, "longitude": -1.1357032, "source": "osm", "_tags": {"amenity": "hospital", "fax": "+33 5 46 45 50 00", "healthcare": "hospital", "healthcare:speciality": "psychiatry", "name": "Hôpital Psychiatrique Marius Lacroix", "operator": "Groupe hospitalier La Rochelle - Ré - Aunis", "operator:type": "public", "phone": "+33 5 46 45 50 50", "ref:FR:FINESS": "170782981", "type:FR:FINESS": "355"}}, {"name": "Pôle santé sud Vendée", "latitude": 46.4656541, "longitude": -0.8276112, "source": "osm", "_tags": {"amenity": "hospital", "healthcare": "hospital", "name": "Pôle santé sud Vendée", "operator:type": "public", "phone": "+33 2 51 53 51 53", "ref:FR:FINESS": "850009630", "ref:FR:NAF": "8610Z", "ref:FR:SIREN": "268500196", "ref:FR:SIRET": "26850019600137", "source": "cadastre-dgi-fr source : Direction Générale des Impôts - Cadastre. Mise à jour : 2011", "type:FR:FINESS": "355"}}, {"name": "Centre de réadaptation fonctionnelle Richelieu", "latitude": 46.1533836, "longitude": -1.1756477, "source": "osm", "_tags": {"amenity": "hospital", "email": "centre.richelieu@croix-rouge.fr", "fax": "+33 5 46 43 48 22", "healthcare": "hospital", "name": "Centre de réadaptation fonctionnelle Richelieu", "operator": "Croix-Rouge française", "operator:type": "private", "operator:wikidata": "Q3003244", "phone": "+33 5 46 43 12 05", "ref": "1808", "ref:FR:FINESS": "170780043", "ref:FR:NAF": "8610Z", "ref:FR:SIREN": "775672272", "ref:FR:SIRET": "77567227210503", "source": "INSEE - 2024-09", "type:FR:FINESS": "109", "website": "https://pourvous.croix-rouge.fr/centre-de-readaptation-fonctionnelle-richelieu"}}, {"name": "Centre hospitalier de La Rochelle", "latitude": 46.1600855, "longitude": -1.1437911, "source": "osm", "_tags": {"alt_name": "Hôpital Saint-Louis", "amenity": "hospital", "emergency": "yes", "healthcare": "hospital", "healthcare:speciality": "intensive", "name": "Centre hospitalier de La Rochelle", "operator": "Groupe hospitalier La Rochelle - Ré - Aunis", "phone": "+33 5 46 45 50 50", "ref:FR:FINESS": "170000087", "source": "cadastre-dgi-fr source : Direction Générale des Impôts - Cadastre ; mise à jour : 2008", "type:FR:FINESS": "355", "website": "http://www.ch-larochelle.fr/", "wheelchair": "yes", "wikidata": "Q30269709"}}, {"name": "Centre Hospitalier Départemental - Site de Luçon", "latitude": 46.4505788, "longitude": -1.1722113, "source": "osm", "_tags": {"amenity": "hospital", "email": "direction.lucon@chd-vendee.fr", "emergency": "yes", "fax": "+33 2 51 27 98 23", "name": "Centre Hospitalier Départemental - Site de Luçon", "operator:type": "public", "phone": "+33 2 51 28 33 33", "ref:FR:FINESS": "850000209", "type:FR:FINESS": "355", "website": "https://www.chd-vendee.fr/index.php?id_site=1"}}, {"name": "Centre hospitalier de Rochefort", "latitude": 45.9670999, "longitude": -0.9633878, "source": "osm", "_tags": {"amenity": "hospital", "emergency": "yes", "fax": "+33 5 46 88 50 61", "name": "Centre hospitalier de Rochefort", "operator:type": "public", "phone": "+33 5 46 88 50 50", "ref:FR:FINESS": "170000152", "type:FR:FINESS": "355", "website": "https://ch-rochefort.fr/fr/", "wikidata": "Q2945701"}}, {"name": "Centre hospitalier de Marennes", "latitude": 45.8214531, "longitude": -1.0981627, "source": "osm", "_tags": {"alt_name": "Hôpital Dubois Meynardie", "amenity": "hospital", "healthcare": "hospital", "name": "Centre hospitalier de Marennes", "operator:type": "public", "phone": "+33 5 46 85 01 38", "ref:FR:FINESS": "170000137", "type:FR:FINESS": "106", "website": "https://ch-rochefort.fr/fr/", "wikidata": "Q92061573"}}, {"name": "Centre hospitalier de Saint-Jean-d'Angely", "latitude": 45.9469795, "longitude": -0.5296298, "source": "osm", "_tags": {"amenity": "hospital", "emergency": "yes", "fax": "+33 5 46 59 50 96", "healthcare": "hospital", "name": "Centre hospitalier de Saint-Jean-d'Angely", "operator:type": "public", "phone": "+33 5 46 59 50 50", "ref:FR:FINESS": "170000095", "type:FR:FINESS": "355", "website": "https://www.ch-angely.fr/"}}, {"name": "Polyclinique Inkermann", "latitude": 46.3149991, "longitude": -0.4526615, "source": "osm", "_tags": {"addr:housenumber": "8", "addr:street": "Route d'Aiffres", "amenity": "hospital", "emergency": "yes", "healthcare": "hospital", "name": "Polyclinique Inkermann", "operator": "Groupe Elsan", "operator:type": "private", "phone": "+33 8 26 30 28 28", "ref:FR:FINESS": "790009948", "type:FR:FINESS": "365", "website": "http://www.inkermann.groupe-elsan.com/"}}, {"name": "Hôpital des Collines Vendéennes", "latitude": 46.6459354, "longitude": -0.7403017, "source": "osm", "_tags": {"amenity": "hospital", "healthcare": "hospital", "name": "Hôpital des Collines Vendéennes", "ref:FR:FINESS": "850000647", "source": "Le ministère des solidarités et de la santé - 03/2019", "type:FR:FINESS": "106", "wikidata": "Q92062812"}}, {"name": "APAJH - Association Pour Adultes et Jeunes Handicapés", "latitude": 46.1511163, "longitude": -1.1431982, "source": "osm", "_tags": {"addr:street": "Rue Jean Bouche", "amenity": "hospital", "emergency": "no", "healthcare": "hospital", "healthcare:speciality": "psychiatry", "name": "APAJH - Association Pour Adultes et Jeunes Handicapés", "phone": "+33546452919", "website": "https://www.apajh17.fr"}}, {"name": "", "latitude": 46.469233, "longitude": -0.8167244, "source": "osm", "_tags": {"amenity": "hospital", "healthcare": "hospital"}}, {"name": "Centre de réadaptation cardio-vasculaire Cardiocéan", "latitude": 46.1898863, "longitude": -1.0987818, "source": "osm", "_tags": {"addr:city": "Puilboreau", "addr:housenumber": "25", "addr:postcode": "17139", "addr:street": "Allée de la Tourtillière", "amenity": "hospital", "healthcare": "hospital", "name": "Centre de réadaptation cardio-vasculaire Cardiocéan"}}, {"name": "Clinique d'Angoulins", "latitude": 46.0996653, "longitude": -1.0952496, "source": "osm", "_tags": {"addr:city": "Angoulins", "addr:housenumber": "9", "addr:postcode": "17690", "addr:street": "Avenue des Ormeaux", "amenity": "hospital", "healthcare": "hospital", "name": "Clinique d'Angoulins", "operator": "INICEA", "operator:type": "private"}}, {"name": "Centre hospitalier de Niort", "latitude": 46.3173673, "longitude": -0.4617038, "source": "osm", "_tags": {"amenity": "hospital", "contact:twitter": "HopitaldeNiort", "emergency": "yes", "fax": "+33 5 49 78 27 00", "healthcare": "hospital", "healthcare:speciality": "intensive", "name": "Centre hospitalier de Niort", "operator:type": "public", "phone": "+33 5 49 32 79 79", "ref:FR:FINESS": "790000087", "source": "cadastre-dgi-fr source : Direction Générale des Impôts - Cadastre. Mise à jour : 2009", "type": "multipolygon", "type:FR:FINESS": "355", "website": "https://www.ch-niort.fr/"}}]