[{"name": "Zdravstvena postaja Vipava", "latitude": 45.8474468, "longitude": 13.9603184, "source": "osm", "_tags": {"addr:city": "Vipava", "addr:housenumber": "7", "addr:postcode": "5271", "addr:street": "Beblerjeva ulica", "amenity": "hospital", "fixme": "\"addr:housenumber\" changed from 5 to 7.", "healthcare": "hospital", "name": "Zdravstvena postaja Vipava", "operator": "ZD Ajdovščina", "ref:gurs:hs_mid": "11088481", "source:addr": "GURS"}}, {"name": "Študentski zdravstveni dom", "latitude": 46.046922, "longitude": 14.4992677, "source": "osm", "_tags": {"amenity": "hospital", "emergency": "no", "healthcare": "hospital", "name": "Študentski zdravstveni dom", "phone": "012007425", "wheelchair": "yes"}}, {"name": "zdravstveni dom", "latitude": 46.2530859, "longitude": 14.4874597, "source": "osm", "_tags": {"amenity": "hospital", "name": "zdravstveni dom"}}, {"name": "Studio ANK", "latitude": 46.0855184, "longitude": 14.4713241, "source": "osm", "_tags": {"amenity": "hospital", "check_date": "2024-03-30", "healthcare": "hospital", "name": "Studio ANK", "note": "Preventivni pregledi organizma"}}, {"name": "Fizioterapija", "latitude": 46.1038044, "longitude": 14.5306399, "source": "osm", "_tags": {"amenity": "hospital", "healthcare": "hospital", "name": "Fizioterapija"}}, {"name": "Zasebna ambulanta", "latitude": 46.0428542, "longitude": 14.4980703, "source": "osm", "_tags": {"addr:city": "Ljubljana", "addr:housenumber": "2", "addr:postcode": "1000", "addr:street": "Zeljarska ulica", "amenity": "hospital", "healthcare": "hospital", "name": "Zasebna ambulanta", "opening_hours": "Tu,Fr 15:30-18:30", "operator": "Helena Andrenšek", "phone": "040173000"}}, {"name": "Ambulanta Kus", "latitude": 46.0440743, "longitude": 14.5083665, "source": "osm", "_tags": {"addr:city": "Ljubljana", "addr:housenumber": "2", "addr:postcode": "1000", "addr:street": "Prijateljeva ulica", "amenity": "hospital", "check_date": "2024-05-08", "healthcare": "hospital", "name": "Ambulanta Kus", "operator": "Primož Kus, dr. med., spec."}}, {"name": "Urgenca", "latitude": 46.0546351, "longitude": 14.5200892, "source": "osm", "_tags": {"addr:city": "Ljubljana", "addr:housenumber": "7", "addr:postcode": "1000", "addr:street": "Zaloška cesta", "amenity": "hospital", "emergency": "yes", "healthcare": "hospital", "healthcare:speciality": "emergency", "name": "Urgenca", "name:en": "Emergency Department", "opening_hours": "24/7", "operator": "University Medical Centre Ljubljana", "operator:type": "public", "phone": "112", "website": "https://www.kclj.si/index.php?dir=/pacienti_in_obiskovalci/klinike_in_oddelki/urgenca", "wheelchair": "yes"}}, {"name": "Zdravstveni dom Šiška", "latitude": 46.0686621, "longitude": 14.4878457, "source": "osm", "_tags": {"addr:city": "Ljubljana", "addr:housenumber": "5", "addr:postcode": "1000", "addr:street": "Derčeva ulica", "amenity": "clinic", "building": "hospital", "email": "taj.sis@zd-lj.si", "healthcare": "hospital", "healthcare:speciality": "general", "name": "Zdravstveni dom Šiška", "name:etymology:wikidata": "Q2354591", "phone": "+386 1 581 52 00", "source": "yahoo", "website": "https://www.zd-lj.si/zdlj/index.php?option=com_content&view=article&id=15&Itemid=271&lang=sl"}}, {"name": "Bolnica Dr. Petra Držaja", "latitude": 46.0676149, "longitude": 14.4871428, "source": "osm", "_tags": {"addr:city": "Ljubljana", "addr:housenumber": "62", "addr:postcode": "1000", "addr:street": "Vodnikova cesta", "amenity": "hospital", "building": "yes", "emergency": "yes", "healthcare": "hospital", "name": "Bolnica Dr. Petra Držaja", "name:etymology:wikidata": "Q12798610", "name:etymology:wikipedia": "sl:Peter Držaj", "wikidata": "Q19932888", "wikipedia": "sl:Bolnica dr. Petra Držaja"}}, {"name": "Univerzitetni klinični center Ljubljana", "latitude": 46.0540659, "longitude": 14.5211339, "source": "osm", "_tags": {"addr:city": "Ljubljana", "addr:housenumber": "7", "addr:postcode": "1000", "addr:street": "Zaloška cesta", "alt_name": "UKC Ljubljana", "amenity": "hospital", "building": "yes", "check_date": "2024-10-24", "emergency": "yes", "healthcare": "hospital", "name": "Univerzitetni klinični center Ljubljana", "name:en": "University Medical Centre Ljubljana", "name:sl": "Univerzitetni klinični center", "payment:cash": "yes", "payment:credit_cards": "yes", "payment:debit_cards": "yes", "source": "survey", "website": "https://www.kclj.si/", "wheelchair": "yes", "wikidata": "Q6470942", "wikipedia": "en:Ljubljana University Medical Centre"}}, {"name": "Leonišče - ginekološka klinika", "latitude": 46.0533358, "longitude": 14.523705, "source": "osm", "_tags": {"addr:city": "Ljubljana", "addr:housenumber": "2", "addr:street": "Šlajmerjeva ulica", "amenity": "hospital", "building": "yes", "healthcare": "hospital", "name": "Leonišče - ginekološka klinika", "website": "https://leonisce.si/"}}, {"name": "Klinikum Klagenfurt am Wörthersee", "latitude": 46.6341247, "longitude": 14.3049771, "source": "osm", "_tags": {"addr:city": "Klagenfurt am Wörthersee", "addr:housenumber": "11", "addr:postcode": "9020", "addr:street": "Feschnigstraße", "amenity": "hospital", "contact:email": "help@lkh-klu.at", "contact:phone": "+434635380", "contact:website": "http://www.klinikum-klagenfurt.at", "emergency": "yes", "health_specialty": "stroke_unit", "healthcare": "hospital", "healthcare:speciality": "emergency", "name": "Klinikum Klagenfurt am Wörthersee", "operator": "KABEG", "outdoor_seating": "no", "source": "geoimage. at", "toilets:wheelchair": "yes", "wheelchair": "yes", "wikidata": "Q1774626", "wikipedia": "de:Klinikum Klagenfurt am Wörthersee"}}, {"name": "Psihiatrična klinika Ljubljana", "latitude": 46.0521389, "longitude": 14.5697058, "source": "osm", "_tags": {"amenity": "hospital", "building": "yes", "healthcare": "hospital", "name": "Psihiatrična klinika Ljubljana"}}, {"name": "Unfallkrankenhaus", "latitude": 46.6182386, "longitude": 14.2961352, "source": "osm", "_tags": {"addr:city": "Klagenfurt am Wörthersee", "addr:country": "AT", "addr:housenumber": "35", "addr:postcode": "9020", "addr:street": "Waidmannsdorfer Straße", "alt_name": "Unfallkrankenhaus Klagenfurt", "amenity": "hospital", "building": "hospital", "emergency": "yes", "healthcare": "hospital", "level": "1", "name": "Unfallkrankenhaus", "roof:shape": "flat", "url": "http://www.auva.at/ukhklagenfurt/", "wheelchair": "yes", "wikidata": "Q2493167", "wikipedia": "de:Unfallkrankenhaus Klagenfurt"}}, {"name": "Krankenhaus der Barmherzigen Brüder St.Veit/Glan", "latitude": 46.7692181, "longitude": 14.3534516, "source": "osm", "_tags": {"addr:city": "Sankt Veit an der Glan", "addr:country": "AT", "addr:housenumber": "26", "addr:postcode": "9300", "addr:street": "Spitalgasse", "amenity": "hospital", "at_bev:addr_date": "2017-10-01", "building": "yes", "healthcare": "hospital", "healthcare:speciality": "emergency", "name": "Krankenhaus der Barmherzigen Brüder St.Veit/Glan", "operator": "Barmherzige Brüder", "operator:type": "religious", "wheelchair": "yes"}}, {"name": "LKH Klagenfurt", "latitude": 46.6316192, "longitude": 14.3028755, "source": "osm", "_tags": {"amenity": "hospital", "contact:email": "geriatrie.klagenfurt@kabeg.at", "contact:fax": "+43 (0)463 538 23024", "contact:phone": "+43 (0)463 538 22667", "emergency": "no", "healthcare": "hospital", "name": "LKH Klagenfurt", "source": "bing"}}, {"name": "Privatklinik Maria Hilf", "latitude": 46.6274106, "longitude": 14.2963656, "source": "osm", "_tags": {"addr:city": "Klagenfurt am Wörthersee", "addr:country": "AT", "amenity": "hospital", "building": "hospital", "building:levels": "5", "emergency": "no", "healthcare": "hospital", "name": "Privatklinik Maria Hilf", "operator": "Humanomed", "roof:levels": "0", "website": "https://www.humanomed.at/privatklinik-maria-hilf/"}}, {"name": "Zdravstveni dom Škofljica", "latitude": 45.980678, "longitude": 14.5767796, "source": "osm", "_tags": {"addr:city": "Škofljica", "addr:housenumber": "25", "addr:postcode": "1291", "addr:street": "Kočevska cesta", "amenity": "hospital", "building": "yes", "emergency": "no", "healthcare": "hospital", "name": "Zdravstveni dom Škofljica"}}, {"name": "Zdravstveni dom", "latitude": 46.0645222, "longitude": 14.5109974, "source": "osm", "_tags": {"addr:city": "Ljubljana", "addr:country": "SI", "addr:housenumber": "10", "addr:postcode": "1000", "addr:street": "Kržičeva ulica", "amenity": "hospital", "building": "yes", "healthcare": "hospital", "name": "Zdravstveni dom", "wheelchair": "yes"}}, {"name": "", "latitude": 46.0540679, "longitude": 14.5238928, "source": "osm", "_tags": {"addr:housenumber": "3", "addr:street": "Šlajmerjeva ulica", "amenity": "hospital", "building": "hospital", "healthcare": "hospital"}}, {"name": "University Medical Centre Ljubljana", "latitude": 46.0512788, "longitude": 14.5211984, "source": "osm", "_tags": {"amenity": "hospital", "building": "hospital", "healthcare": "hospital", "name": "University Medical Centre Ljubljana"}}, {"name": "", "latitude": 46.0518501, "longitude": 14.5258505, "source": "osm", "_tags": {"addr:city": "Ljubljana", "addr:housenumber": "58", "addr:postcode": "1000", "addr:street": "Poljanski nasip", "building": "hospital", "healthcare": "hospital"}}, {"name": "Ortopedska klinika", "latitude": 46.053284, "longitude": 14.5221825, "source": "osm", "_tags": {"addr:city": "Ljubljana", "addr:housenumber": "9", "addr:street": "Zaloška cesta", "amenity": "hospital", "building": "yes", "healthcare": "hospital", "name": "Ortopedska klinika", "wikidata": "Q132855955", "wikipedia": "sl:Šlajmerjev dom"}}, {"name": "Klinika za infekcijske bolezni in vročinska stanja", "latitude": 46.0560861, "longitude": 14.5223904, "source": "osm", "_tags": {"addr:housenumber": "2", "addr:street": "Japljeva ulica", "amenity": "hospital", "building": "hospital", "healthcare": "hospital", "name": "Klinika za infekcijske bolezni in vročinska stanja", "name:en": "Department of infectious diseases", "operator": "UKC", "roof:shape": "flat"}}, {"name": "Negovalna bolnišnica", "latitude": 46.051313, "longitude": 14.5173202, "source": "osm", "_tags": {"addr:city": "Ljubljana", "addr:housenumber": "1", "addr:postcode": "1000", "addr:street": "Vrazov trg", "amenity": "hospital", "building": "yes", "emergency": "no", "healthcare": "hospital", "healthcare:speciality": "physiatry", "name": "Negovalna bolnišnica"}}, {"name": "Zdravstveni dom Kamnik", "latitude": 46.2214271, "longitude": 14.613087, "source": "osm", "_tags": {"addr:city": "Kamnik", "addr:housenumber": "26", "addr:postcode": "1241", "addr:street": "Novi trg", "amenity": "hospital", "building": "yes", "emergency": "yes", "healthcare": "hospital", "name": "Zdravstveni dom Kamnik", "wheelchair": "yes"}}, {"name": "Zavod RS za transfuzijsko medicino", "latitude": 46.0542602, "longitude": 14.5252645, "source": "osm", "_tags": {"addr:city": "Ljubljana", "addr:housenumber": "6", "addr:postcode": "1000", "addr:street": "Šlajmerjeva ulica", "amenity": "hospital", "building": "yes", "emergency": "no", "healthcare": "hospital", "name": "Zavod RS za transfuzijsko medicino", "name:en": "Institute for transfusionary medicine", "name:sl": "Zavod RS za transfuzijsko medicino"}}, {"name": "Zdravstveni dom Metelkova", "latitude": 46.0565249, "longitude": 14.5151803, "source": "osm", "_tags": {"addr:city": "Ljubljana", "addr:housenumber": "9", "addr:postcode": "1000", "addr:street": "Metelkova ulica", "amenity": "hospital", "building": "yes", "emergency": "yes", "healthcare": "hospital", "name": "Zdravstveni dom Metelkova", "wheelchair": "yes"}}, {"name": "Očesna klinika Ljubljana", "latitude": 46.0549799, "longitude": 14.5283903, "source": "osm", "_tags": {"addr:city": "Ljubljana", "addr:housenumber": "46", "addr:postcode": "1000", "addr:street": "Grablovičeva ulica", "amenity": "hospital", "building": "hospital", "building:levels": "3", "healthcare": "hospital", "name": "Očesna klinika Ljubljana", "roof:levels": "1", "roof:shape": "half-hipped"}}, {"name": "Kirurški sanatorij", "latitude": 46.0461618, "longitude": 14.481049, "source": "osm", "_tags": {"addr:housenumber": "6", "addr:street": "Rožna dolina Cesta XV", "amenity": "hospital", "building": "yes", "healthcare": "hospital", "name": "Kirurški sanatorij", "source": "Bing"}}, {"name": "Zdravstveni dom Črnuče", "latitude": 46.1033501, "longitude": 14.5318442, "source": "osm", "_tags": {"addr:city": "Ljubljana - Črnuče", "addr:housenumber": "2", "addr:postcode": "1231", "addr:street": "Primožičeva ulica", "amenity": "hospital", "building": "yes", "healthcare": "hospital", "name": "Zdravstveni dom Črnuče"}}, {"name": "ZD Ljubljana - MOSTE-POLJE", "latitude": 46.0559172, "longitude": 14.5315141, "source": "osm", "_tags": {"amenity": "hospital", "building": "yes", "healthcare": "hospital", "name": "ZD Ljubljana - MOSTE-POLJE", "name:etymology:wikidata": "Q6916919"}}, {"name": "Železniški zdravstveni dom", "latitude": 46.0606929, "longitude": 14.5007043, "source": "osm", "_tags": {"addr:city": "Ljubljana", "addr:housenumber": "1", "addr:postcode": "1000", "addr:street": "Pivovarniška ulica", "amenity": "hospital", "building": "train_station", "healthcare": "hospital", "name": "Železniški zdravstveni dom", "operator": "Splošna ambulanta 5, Fizioterapija"}}, {"name": "", "latitude": 46.1620391, "longitude": 14.5710855, "source": "osm", "_tags": {"addr:city": "Mengeš", "addr:country": "SI", "addr:housenumber": "3", "addr:postcode": "1234", "addr:street": "Zoranina ulica", "amenity": "hospital", "building": "yes", "healthcare": "hospital", "ref:gurs:hs_mid": "11492100", "ref:gurs:sta_sid": "21370991"}}, {"name": "", "latitude": 46.0528784, "longitude": 14.5705551, "source": "osm", "_tags": {"amenity": "hospital", "building": "yes", "healthcare": "hospital"}}, {"name": "", "latitude": 46.0531475, "longitude": 14.5710237, "source": "osm", "_tags": {"amenity": "hospital", "building": "yes", "healthcare": "hospital"}}, {"name": "", "latitude": 46.0536812, "longitude": 14.571447, "source": "osm", "_tags": {"amenity": "hospital", "building": "yes", "healthcare": "hospital"}}, {"name": "", "latitude": 46.0525328, "longitude": 14.5716737, "source": "osm", "_tags": {"amenity": "hospital", "building": "yes", "healthcare": "hospital"}}, {"name": "", "latitude": 46.0532937, "longitude": 14.5702454, "source": "osm", "_tags": {"amenity": "hospital", "building": "yes", "healthcare": "hospital"}}, {"name": "Öffentliches Krankenhaus Waiern", "latitude": 46.733311, "longitude": 14.0870468, "source": "osm", "_tags": {"addr:city": "Waiern", "addr:country": "AT", "addr:housenumber": "14", "addr:postcode": "9560", "addr:street": "Martin-Luther-Straße", "amenity": "hospital", "at_bev:addr_date": "2017-10-01", "building": "hospital", "building:levels": "5", "healthcare": "hospital", "name": "Öffentliches Krankenhaus Waiern"}}, {"name": "Öffentliches Krankenhaus Waiern Feldkirchen", "latitude": 46.7333698, "longitude": 14.0870691, "source": "osm", "_tags": {"amenity": "hospital", "healthcare": "hospital", "name": "Öffentliches Krankenhaus Waiern Feldkirchen"}}, {"name": "Zdravstveni dom Škofja Loka", "latitude": 46.1660844, "longitude": 14.3131208, "source": "osm", "_tags": {"amenity": "hospital", "building": "yes", "check_date": "2022-07-17", "email": "info@zd-loka.si", "emergency": "yes", "fax": "+386 4 502 00 57", "name": "Zdravstveni dom Škofja Loka", "opening_hours": "24/7", "operator:type": "public", "phone": "+386 4 502 00 00", "website": "https://www.zd-loka.si/", "wheelchair": "yes"}}, {"name": "Splošna bolnišnica Jesenice", "latitude": 46.4427253, "longitude": 14.0367225, "source": "osm", "_tags": {"amenity": "hospital", "healthcare": "hospital", "name": "Splošna bolnišnica Jesenice", "wikidata": "Q48767298"}}, {"name": "Zdravstveni dom Vrhnika", "latitude": 45.9627486, "longitude": 14.2936299, "source": "osm", "_tags": {"addr:city": "Vrhnika", "addr:housenumber": "11", "addr:postcode": "1360", "addr:street": "Cesta 6. maja", "amenity": "hospital", "building": "yes", "construction_date": "1975", "emergency": "yes", "healthcare": "hospital", "healthcare:speciality": "emergency", "name": "Zdravstveni dom Vrhnika", "ref:gurs:hs_mid": "15581166", "ref:gurs:sta_sid": "25023156"}}, {"name": "Dermatologija Rogl Fabjan", "latitude": 46.0711869, "longitude": 14.4829581, "source": "osm", "_tags": {"addr:city": "Ljubljana", "addr:housenumber": "35", "addr:postcode": "1000", "addr:street": "Derčeva ulica", "amenity": "clinic", "building": "office", "building:levels": "2", "healthcare": "hospital", "name": "Dermatologija Rogl Fabjan"}}, {"name": "Zdravstveni dom Domžale", "latitude": 46.1396236, "longitude": 14.5964577, "source": "osm", "_tags": {"addr:city": "Domžale", "addr:housenumber": "2", "addr:postcode": "1230", "addr:street": "Mestni trg", "amenity": "hospital", "building": "yes", "check_date": "2025-03-21", "emergency": "yes", "healthcare": "hospital", "name": "Zdravstveni dom Domžale"}}, {"name": "IATROS", "latitude": 46.0645172, "longitude": 14.5025407, "source": "osm", "_tags": {"addr:city": "Ljubljana", "addr:housenumber": "51B", "addr:postcode": "1000", "addr:street": "Parmova ulica", "amenity": "hospital", "building": "yes", "check_date": "2024-07-25", "healthcare": "hospital", "healthcare:speciality": "paediatrics", "name": "IATROS", "operator": "dr. Košorok", "website": "https://iatros.si/"}}, {"name": "Zdravstveni dom Medvode", "latitude": 46.1456099, "longitude": 14.4054868, "source": "osm", "_tags": {"addr:city": "Medvode", "addr:housenumber": "6", "addr:postcode": "1215", "addr:street": "Ostrovrharjeva ulica", "amenity": "hospital", "building": "yes", "check_date": "2025-03-17", "emergency": "no", "healthcare": "hospital", "name": "Zdravstveni dom Medvode", "ref:gurs:hs_mid": "12998945", "ref:gurs:sta_sid": "22379750"}}, {"name": "Zdravstveni dom Kranj", "latitude": 46.2490178, "longitude": 14.353431, "source": "osm", "_tags": {"addr:city": "Kranj", "addr:housenumber": "10", "addr:postcode": "4000", "addr:street": "Gosposvetska ulica", "amenity": "hospital", "building": "hospital", "healthcare": "hospital", "name": "Zdravstveni dom Kranj", "operator": "Osnovno zdravstvo Gorenjske", "ref:gurs:sta_sid": "22363965"}}, {"name": "Bolnišnica za ginekologijo in porodništvo Kranj", "latitude": 46.2487076, "longitude": 14.3540813, "source": "osm", "_tags": {"addr:city": "Kranj", "addr:housenumber": "38a", "addr:postcode": "4000", "addr:street": "Kidričeva cesta", "amenity": "hospital", "building": "hospital", "check_date": "2024-05-10", "healthcare": "hospital", "name": "Bolnišnica za ginekologijo in porodništvo Kranj", "ref:gurs:hs_mid": "17497057", "ref:gurs:sta_sid": "27618124"}}, {"name": "Zdravstveni dom Jesenice", "latitude": 46.440175, "longitude": 14.0446605, "source": "osm", "_tags": {"addr:city": "Jesenice", "addr:housenumber": "78", "addr:postcode": "4270", "addr:street": "Cesta maršala Tita", "amenity": "hospital", "building": "yes", "healthcare": "hospital", "name": "Zdravstveni dom Jesenice", "ref:gurs:hs_mid": "11912575", "ref:gurs:sta_sid": "25543218"}}, {"name": "ZD Grosuplje", "latitude": 45.9596852, "longitude": 14.6531538, "source": "osm", "_tags": {"addr:city": "Grosuplje", "addr:housenumber": "14", "addr:postcode": "1290", "addr:street": "Pod gozdom cesta I", "amenity": "hospital", "building": "yes", "healthcare": "hospital", "name": "ZD Grosuplje"}}, {"name": "Ärztezentrum", "latitude": 46.6115567, "longitude": 14.3593205, "source": "osm", "_tags": {"amenity": "hospital", "healthcare": "hospital", "name": "Ärztezentrum"}}, {"name": "Zdravstveni dom Ljubljana Vič-Rudnik pediatrics", "latitude": 46.0465401, "longitude": 14.4869438, "source": "osm", "_tags": {"amenity": "hospital", "healthcare": "hospital", "name": "Zdravstveni dom Ljubljana Vič-Rudnik pediatrics", "roof:colour": "silver", "roof:shape": "flat"}}, {"name": "Klinični oddelek za gastroenterologijo", "latitude": 46.0558331, "longitude": 14.5217199, "source": "osm", "_tags": {"amenity": "hospital", "building": "hospital", "healthcare": "hospital", "name": "Klinični oddelek za gastroenterologijo", "operator": "UKC", "roof:material": "roof_tiles", "roof:shape": "hipped"}}, {"name": "Bolnica Dr. Petra Držaja", "latitude": 46.0677458, "longitude": 14.487244, "source": "osm", "_tags": {"amenity": "hospital", "healthcare": "hospital", "name": "Bolnica Dr. Petra Držaja", "name:etymology:wikidata": "Q12798610"}}, {"name": "Landeskrankenhaus Villach", "latitude": 46.6156342, "longitude": 13.8575407, "source": "osm", "_tags": {"addr:city": "Villach", "addr:housenumber": "43", "addr:postcode": "9500", "addr:street": "Nikolaigasse", "amenity": "hospital", "emergency": "yes", "health_specialty": "stroke_unit", "healthcare": "hospital", "healthcare:speciality": "emergency", "name": "Landeskrankenhaus Villach", "operator": "KABEG", "operator:type": "public", "wikidata": "Q59385756", "wikipedia": "de:Landeskrankenhaus Villach"}}, {"name": "Privatklinik Villach", "latitude": 46.5941478, "longitude": 13.8263497, "source": "osm", "_tags": {"addr:city": "Villach", "addr:housenumber": "4", "addr:postcode": "9504", "addr:street": "Doktor-Walter-Hochsteiner-Straße", "amenity": "hospital", "healthcare": "hospital", "name": "Privatklinik Villach"}}, {"name": "", "latitude": 46.0519651, "longitude": 14.5258747, "source": "osm", "_tags": {"amenity": "hospital"}}, {"name": "Zdravstveni dom Cerklje", "latitude": 46.2497346, "longitude": 14.4866965, "source": "osm", "_tags": {"addr:housenumber": "28", "addr:postcode": "4207", "addr:street": "Slovenska cesta", "amenity": "hospital", "building": "yes", "healthcare": "hospital", "healthcare:speciality": "general", "name": "Zdravstveni dom Cerklje"}}, {"name": "Zdravstveni dom Kranj", "latitude": 46.2486505, "longitude": 14.3534271, "source": "osm", "_tags": {"addr:city": "Kranj", "addr:housenumber": "10a", "addr:postcode": "4000", "addr:street": "Kidričeva cesta", "amenity": "hospital", "building": "hospital", "construction_date": "2006", "healthcare": "hospital", "name": "Zdravstveni dom Kranj", "operator": "Osnovno zdravstvo Gorenjske", "ref:gurs:hs_mid": "17503375", "ref:gurs:sta_sid": "31329699", "wikidata": "Q107607848"}}, {"name": "Zdravstveni dom Bled", "latitude": 46.371358, "longitude": 14.1088774, "source": "osm", "_tags": {"amenity": "hospital", "building": "public", "construction_date": "1967", "healthcare": "hospital", "layer": "1", "name": "Zdravstveni dom Bled", "ref:gurs:sta_sid": "25560066"}}, {"name": "", "latitude": 46.0062538, "longitude": 14.0208325, "source": "osm", "_tags": {"amenity": "hospital", "healthcare": "hospital"}}, {"name": "Porodnišnica Ljubljana", "latitude": 46.0536695, "longitude": 14.5243944, "source": "osm", "_tags": {"addr:city": "Ljubljana", "addr:housenumber": "4", "addr:postcode": "1000", "addr:street": "Šlajmerjeva ulica", "amenity": "hospital", "building": "hospital", "healthcare": "hospital", "name": "Porodnišnica Ljubljana", "type": "multipolygon"}}, {"name": "Univerzitetni rehabilitacijski inštitut Republike Slovenije - Soča", "latitude": 46.0678143, "longitude": 14.5247667, "source": "osm", "_tags": {"addr:city": "Ljubljana", "addr:housenumber": "51", "addr:postcode": "1000", "addr:street": "Linhartova cesta", "amenity": "hospital", "building": "hospital", "healthcare": "hospital", "name": "Univerzitetni rehabilitacijski inštitut Republike Slovenije - Soča", "short_name": "Soča;URI Soča", "toilets:wheelchair": "yes", "type": "multipolygon", "website": "https://www.uri-soca.si/", "wheelchair": "yes", "wikidata": "Q30281847", "wikipedia": "sl:Univerzitetni rehabilitacijski inštitut Republike Slovenije Soča"}}, {"name": "Krankenhaus der Elisabethinen", "latitude": 46.626093, "longitude": 14.31737, "source": "osm", "_tags": {"addr:city": "Klagenfurt am Wörthersee", "addr:country": "AT", "addr:housenumber": "19", "addr:street": "Völkermarkter Straße", "amenity": "hospital", "building": "hospital", "emergency": "no", "healthcare": "hospital", "healthcare:speciality": "emergency", "name": "Krankenhaus der Elisabethinen", "type": "multipolygon"}}, {"name": "ZD Grosuplje", "latitude": 45.95961, "longitude": 14.6531538, "source": "osm", "_tags": {"addr:city": "Grosuplje", "addr:housenumber": "14", "addr:postcode": "1290", "addr:street": "Pod gozdom cesta I", "amenity": "hospital", "building": "yes", "name": "ZD Grosuplje", "type": "building"}}, {"name": "Psihiatrična bolnišnica", "latitude": 46.3767914, "longitude": 14.2011785, "source": "osm", "_tags": {"addr:city": "Begunje na Gorenjskem", "addr:housenumber": "55", "addr:postcode": "4275", "addr:street": "Begunje na Gorenjskem", "amenity": "hospital", "building": "yes", "construction_date": "1900", "healthcare": "hospital", "name": "Psihiatrična bolnišnica", "ref:gurs:hs_mid": "14402110", "ref:gurs:sta_sid": "25562731", "social_facility": "ambulatory_care", "type": "multipolygon"}}]