[{"name": "Ass. La Nostra Famiglia", "latitude": 45.8955334, "longitude": 12.2863221, "source": "osm", "_tags": {"amenity": "hospital", "healthcare": "hospital", "healthcare:speciality": "paediatrics;neurology;rehabilitation", "name": "Ass. La Nostra Famiglia"}}, {"name": "SUEM 118 GUARDIA MEDICA", "latitude": 45.828192, "longitude": 11.8374924, "source": "osm", "_tags": {"amenity": "hospital", "emergency": "yes", "healthcare": "hospital", "name": "SUEM 118 GUARDIA MEDICA"}}, {"name": "Centro di medicina", "latitude": 45.8713349, "longitude": 12.2798476, "source": "osm", "_tags": {"amenity": "hospital", "healthcare": "hospital", "name": "Centro di medicina"}}, {"name": "Ambulatorio dott.sa Vizzini", "latitude": 46.4810344, "longitude": 12.4586947, "source": "osm", "_tags": {"addr:city": "Lorenzago di Cadore", "addr:postcode": "32040", "addr:street": "Via Costola", "amenity": "hospital", "emergency": "yes", "healthcare": "hospital", "name": "Ambulatorio dott.sa Vizzini"}}, {"name": "obitorio", "latitude": 46.1386377, "longitude": 12.2008393, "source": "osm", "_tags": {"amenity": "hospital", "name": "obitorio"}}, {"name": "Pronto Soccorso Ospedale Santa Maria degli Angeli", "latitude": 45.9684637, "longitude": 12.6526503, "source": "osm", "_tags": {"addr:city": "Pordenone", "addr:housenumber": "24", "addr:postcode": "33170", "addr:street": "Via Montereale", "amenity": "hospital", "emergency": "yes", "healthcare": "hospital", "healthcare:speciality": "general", "name": "Pronto Soccorso Ospedale Santa Maria degli Angeli"}}, {"name": "Pronto Soccorso Pediatrico Ospedale Santa Maria degli Angeli", "latitude": 45.9681862, "longitude": 12.6539207, "source": "osm", "_tags": {"addr:city": "Pordenone", "addr:housenumber": "24", "addr:postcode": "33170", "addr:street": "Via Montereale", "amenity": "hospital", "emergency": "yes", "healthcare": "hospital", "healthcare:speciality": "paediatrics", "name": "Pronto Soccorso Pediatrico Ospedale Santa Maria degli Angeli"}}, {"name": "Pronto Soccorso Ospedale San Martino", "latitude": 46.139364, "longitude": 12.2014938, "source": "osm", "_tags": {"addr:city": "Belluno", "amenity": "hospital", "check_date": "2025-01-19", "emergency": "yes", "healthcare": "hospital", "name": "Pronto Soccorso Ospedale San Martino"}}, {"name": "Pronto Soccorso Ospedale del Cadore \"Giovanni Paolo II\"", "latitude": 46.4313582, "longitude": 12.3763845, "source": "osm", "_tags": {"addr:city": "Pieve di Cadore", "amenity": "hospital", "emergency": "yes", "healthcare": "hospital", "name": "Pronto Soccorso Ospedale del Cadore \"Giovanni Paolo II\""}}, {"name": "Pronto Soccorso Ospedale Civile Feltre", "latitude": 46.0238437, "longitude": 11.9079481, "source": "osm", "_tags": {"addr:city": "Feltre", "addr:postcode": "32032", "amenity": "hospital", "emergency": "yes", "healthcare": "hospital", "name": "Pronto Soccorso Ospedale Civile Feltre"}}, {"name": "Pronto Soccorso Ospedale Vittorio Veneto", "latitude": 45.9872338, "longitude": 12.318724, "source": "osm", "_tags": {"addr:city": "Vittorio Veneto", "amenity": "hospital", "emergency": "yes", "healthcare": "hospital", "name": "Pronto Soccorso Ospedale Vittorio Veneto"}}, {"name": "Pronto Soccorso Ospedale Conegliano", "latitude": 45.8816369, "longitude": 12.2903922, "source": "osm", "_tags": {"addr:city": "Conegliano Veneto", "amenity": "hospital", "check_date": "2024-04-23", "emergency": "yes", "healthcare": "hospital", "name": "Pronto Soccorso Ospedale Conegliano", "opening_hours": "24/7", "phone": "+39 0438 663111", "website": "http://aulss2.veneto.it"}}, {"name": "Ex casa di cura Villabruna Bellati", "latitude": 46.0188052, "longitude": 11.9052581, "source": "osm", "_tags": {"addr:street": "Viale Guglielmo Marconi", "amenity": "hospital", "check_date": "2025-01-05", "healthcare": "hospital", "name": "Ex casa di cura Villabruna Bellati", "operator": "ULSS 1 Dolomiti", "operator:type": "public", "wheelchair": "yes"}}, {"name": "Posto di Soccorso", "latitude": 46.2963287, "longitude": 11.788147, "source": "osm", "_tags": {"amenity": "hospital", "check_date": "2025-08-15", "healthcare": "hospital", "name": "Posto di Soccorso"}}, {"name": "Servizio Antincendio Aeroporto di Belluno LIDB", "latitude": 46.1680808, "longitude": 12.2493895, "source": "osm", "_tags": {"amenity": "hospital", "description": "Servizio di Antincendio Aeroportuale H12 6 su 7", "healthcare": "hospital", "name": "Servizio Antincendio Aeroporto di Belluno LIDB"}}, {"name": "Ospedale Santa Maria degli Angeli", "latitude": 45.9689826, "longitude": 12.6534976, "source": "osm", "_tags": {"addr:city": "Pordenone", "addr:housenumber": "24", "addr:postcode": "33170", "addr:street": "Via Montereale", "amenity": "hospital", "emergency": "yes", "healthcare": "hospital", "name": "Ospedale Santa Maria degli Angeli", "operator": "Azienda per l'Assistenza Sanitaria n. 5 \"Friuli Occidentale\"", "operator:type": "public"}}, {"name": "", "latitude": 46.2654569, "longitude": 12.3006813, "source": "osm", "_tags": {"amenity": "hospital", "building": "yes"}}, {"name": "Ospedale \"Immacolata Concezione\"", "latitude": 46.1723814, "longitude": 12.7133961, "source": "osm", "_tags": {"addr:city": "Maniago", "addr:housenumber": "7", "addr:postcode": "33085", "addr:street": "Via Unità d'Italia", "amenity": "hospital", "check_date": "2024-03-13", "emergency": "yes", "healthcare": "hospital", "name": "Ospedale \"Immacolata Concezione\"", "operator": "Azienda per l'Assistenza Sanitaria n. 5 \"Friuli Occidentale\""}}, {"name": "Ospedale San Martino", "latitude": 46.1386993, "longitude": 12.2006341, "source": "osm", "_tags": {"amenity": "hospital", "healthcare": "hospital", "name": "Ospedale San Martino"}}, {"name": "Presidio Ospedaliero \"De Gironcoli\"", "latitude": 45.8787269, "longitude": 12.2925602, "source": "osm", "_tags": {"alt_name": "Clinica De Gironcoli", "amenity": "hospital", "contact:phone": "+39 0438654111", "emergency": "no", "healthcare": "hospital", "name": "Presidio Ospedaliero \"De Gironcoli\"", "operator": "Azienda ULSS 2 Marca Trevigiana"}}, {"name": "Presidio Ospedaliero di Conegliano", "latitude": 45.8818988, "longitude": 12.2892107, "source": "osm", "_tags": {"alt_name": "Ospedale di Conegliano", "amenity": "hospital", "healthcare": "hospital", "name": "Presidio Ospedaliero di Conegliano", "operator": "Azienda ULSS n. 2 Marca Trevigiana", "operator:type": "public", "phone": "+39 0438 663111"}}, {"name": "", "latitude": 46.1589012, "longitude": 12.222696, "source": "osm", "_tags": {"amenity": "hospital", "healthcare": "hospital", "note": "Area di pertinenza ospedale"}}, {"name": "Ospedale Santa Maria del Prato", "latitude": 46.0235925, "longitude": 11.9080353, "source": "osm", "_tags": {"amenity": "hospital", "emergency": "yes", "healthcare": "hospital", "name": "Ospedale Santa Maria del Prato", "note": "Area di pertinenza ospedale"}}, {"name": "Presidio Ospedaliero di Vittorio Veneto", "latitude": 45.987437, "longitude": 12.3206109, "source": "osm", "_tags": {"alt_name": "Ospedale di Vittorio Veneto", "amenity": "hospital", "contact:phone": "+39 0438665111", "emergency": "yes", "healthcare": "hospital", "name": "Presidio Ospedaliero di Vittorio Veneto", "operator": "Azienda ULSS n. 7 Pieve Di Soligo"}}, {"name": "Ospedale di Agordo", "latitude": 46.283964, "longitude": 12.0383381, "source": "osm", "_tags": {"amenity": "hospital", "healthcare": "hospital", "name": "Ospedale di Agordo", "note": "Area di pertinenza ospedale", "operator": "Azienda ULSS n. 1 Dolomiti", "operator:type": "public", "phone": "+39 0437 645111", "website": "https://www.aulss1.veneto.it/sezione/ospedale-di-agordo/", "wheelchair": "yes"}}, {"name": "Ospedale \"San Gregorio\"", "latitude": 45.9566552, "longitude": 12.4994712, "source": "osm", "_tags": {"addr:city": "Sacile", "addr:housenumber": "4", "addr:postcode": "33077", "addr:street": "Via Ettoreo", "amenity": "hospital", "emergency": "yes", "emergency:conditional": "no @ (20:00-08:00)", "healthcare": "hospital", "healthcare:speciality": "general;vaccination", "name": "Ospedale \"San Gregorio\"", "operator": "Azienda per l'Assistenza Sanitaria n. 5 \"Friuli Occidentale\"", "operator:type": "public"}}, {"name": "Ospedale Codivilla-Putti", "latitude": 46.5544625, "longitude": 12.1316703, "source": "osm", "_tags": {"amenity": "hospital", "building": "hospital", "emergency": "yes", "name": "Ospedale Codivilla-Putti"}}, {"name": "Ospedale Codivilla-Putti", "latitude": 46.5579823, "longitude": 12.1337991, "source": "osm", "_tags": {"amenity": "hospital", "building": "hospital", "building:colour": "#B28E6C", "building:levels": "6", "emergency": "yes", "name": "Ospedale Codivilla-Putti", "roof:levels": "1"}}, {"name": "Ospedale del Cadore Giovanni Paolo II", "latitude": 46.4315529, "longitude": 12.3762688, "source": "osm", "_tags": {"amenity": "hospital", "emergency": "yes", "name": "Ospedale del Cadore Giovanni Paolo II"}}, {"name": "", "latitude": 46.0471463, "longitude": 11.7476976, "source": "osm", "_tags": {"amenity": "hospital", "note": "Area di pertinenza ospedale"}}, {"name": "Krankenhaus Innichen - Ospedale San Candido", "latitude": 46.7338003, "longitude": 12.2841809, "source": "osm", "_tags": {"addr:city": "Innichen - San Candido", "addr:city:de": "Innichen", "addr:city:it": "San Candido", "addr:housenumber": "2", "addr:postcode": "39038", "addr:street": "Freisinger Straße - Via Freising", "addr:street:de": "Freisinger Straße", "addr:street:it": "Via Freising", "amenity": "hospital", "building": "yes", "contact:phone": "+39 0474 917111", "contact:website": "https://www.sabes.it/de/krankenhaus-innichen", "emergency": "yes", "healthcare": "hospital", "name": "Krankenhaus Innichen - Ospedale San Candido", "name:de": "Krankenhaus Innichen", "name:it": "Ospedale San Candido", "opening_hours": "24/7", "operator": "Sanitätsbetrieb Bruneck", "operator:wikidata": "Q16294907", "wikidata": "Q107264895"}}, {"name": "Krankenhaus Bruneck - Ospedale Brunico", "latitude": 46.7998584, "longitude": 11.9364199, "source": "osm", "_tags": {"amenity": "hospital", "emergency": "yes", "healthcare": "hospital", "name": "Krankenhaus Bruneck - Ospedale Brunico", "name:de": "Krankenhaus Bruneck", "name:it": "Ospedale Brunico", "operator:wikidata": "Q16294907", "wikidata": "Q30293534"}}, {"name": "Ospedale di Pederobba", "latitude": 45.8775851, "longitude": 11.9479272, "source": "osm", "_tags": {"amenity": "hospital", "healthcare": "hospital", "name": "Ospedale di Pederobba"}}, {"name": "", "latitude": 45.8986738, "longitude": 12.1758499, "source": "osm", "_tags": {"amenity": "hospital", "healthcare": "hospital", "note": "Area di pertinenza ospedale"}}, {"name": "", "latitude": 45.897937, "longitude": 11.9867447, "source": "osm", "_tags": {"amenity": "hospital"}}, {"name": "", "latitude": 45.9004257, "longitude": 11.9904413, "source": "osm", "_tags": {"amenity": "hospital", "healthcare": "hospital"}}, {"name": "Poliambulatorio", "latitude": 46.1780246, "longitude": 11.8315377, "source": "osm", "_tags": {"amenity": "hospital", "healthcare": "hospital", "name": "Poliambulatorio", "wikidata": "Q120032569"}}, {"name": "Bellunomedica - Salus", "latitude": 46.1478532, "longitude": 12.21784, "source": "osm", "_tags": {"amenity": "hospital", "healthcare": "hospital", "name": "Bellunomedica - Salus"}}, {"name": "", "latitude": 46.1374208, "longitude": 12.2053219, "source": "osm", "_tags": {"amenity": "hospital", "healthcare": "hospital"}}, {"name": "Casa di Cura San Giorgio", "latitude": 45.94655, "longitude": 12.6598849, "source": "osm", "_tags": {"amenity": "hospital", "emergency": "no", "healthcare": "hospital", "name": "Casa di Cura San Giorgio", "operator": "Policlinico San Giorgio SpA"}}, {"name": "", "latitude": 45.88825, "longitude": 12.3499703, "source": "osm", "_tags": {"amenity": "hospital", "healthcare": "hospital"}}, {"name": "Ospedale Civile di Auronzo", "latitude": 46.5534385, "longitude": 12.4401442, "source": "osm", "_tags": {"amenity": "hospital", "healthcare": "hospital", "name": "Ospedale Civile di Auronzo"}}, {"name": "Centro Esperia", "latitude": 45.9656602, "longitude": 12.6108985, "source": "osm", "_tags": {"addr:city": "Porcia", "addr:postcode": "33080", "addr:street": "Via dei Serviti", "amenity": "hospital", "healthcare": "hospital", "healthcare:speciality": "general;orthopaedics;cardiology;vaccination;radiology", "name": "Centro Esperia"}}, {"name": "Medicina di gruppo integrata Vallata Feltrina", "latitude": 46.0194597, "longitude": 11.9050712, "source": "osm", "_tags": {"amenity": "hospital", "check_date": "2025-01-05", "healthcare": "hospital", "name": "Medicina di gruppo integrata Vallata Feltrina"}}, {"name": "", "latitude": 46.1533271, "longitude": 12.2143113, "source": "osm", "_tags": {"amenity": "hospital", "healthcare": "hospital"}}, {"name": "Istituto Zooprofilattico delle Venezie - sede di Belluno", "latitude": 46.1468519, "longitude": 12.209694, "source": "osm", "_tags": {"amenity": "hospital", "healthcare": "hospital", "name": "Istituto Zooprofilattico delle Venezie - sede di Belluno"}}, {"name": "", "latitude": 45.9164726, "longitude": 12.356513, "source": "osm", "_tags": {"amenity": "hospital", "healthcare": "hospital"}}, {"name": "", "latitude": 45.9163547, "longitude": 12.3491028, "source": "osm", "_tags": {"amenity": "hospital", "healthcare": "hospital"}}, {"name": "", "latitude": 45.9722645, "longitude": 12.6506444, "source": "osm", "_tags": {"amenity": "hospital", "healthcare": "hospital"}}, {"name": "CRO - Centro di Riferimento Oncologico", "latitude": 46.0631968, "longitude": 12.5636094, "source": "osm", "_tags": {"amenity": "hospital", "building": "yes", "healthcare": "hospital", "healthcare:speciality": "radiology;radiotherapy;diagnostic_radiology", "height": "33 m", "it:fvg:ctrn:code": "4AED", "man_made": "particle_accelerator", "name": "CRO - Centro di Riferimento Oncologico", "name:it": "Centro di Riferimento Oncologico di Aviano", "particle_accelerator": "circular", "substance": "proton", "type": "multipolygon", "website": "https://www.cro.it/"}}, {"name": "Ospedale \"Immacolata Concezione\"", "latitude": 46.1723856, "longitude": 12.7133961, "source": "osm", "_tags": {"amenity": "hospital", "emergency": "yes", "name": "Ospedale \"Immacolata Concezione\"", "site": "hospital", "type": "site"}}, {"name": "Ospedale \"San Gregorio\"", "latitude": 45.9566552, "longitude": 12.4994712, "source": "osm", "_tags": {"amenity": "hospital", "emergency": "yes", "emergency:conditional": "no @ (20:00-08:00)", "name": "Ospedale \"San Gregorio\"", "operator": "Azienda per i Servizi Sanitari n° 6 \"Friuli Occidentale\"", "type": "site"}}]