[{"name": "Clinique Chirurgicale Porte Océane", "latitude": 46.5152343, "longitude": -1.7494534, "source": "osm", "_tags": {"addr:street": "Rue Jacques Monod", "amenity": "hospital", "email": "cliniqueporteoceane@sa3h.fr", "fax": "+33 2 51 21 01 13", "healthcare": "hospital", "name": "Clinique Chirurgicale Porte Océane", "operator:type": "private", "phone": "+33 2 51 21 15 15", "ref:FR:FINESS": "850000134", "type:FR:FINESS": "365", "website": "http://www.clinique-porte-oceane.fr"}}, {"name": "C.H.S Georges Mazurelle", "latitude": 46.647586, "longitude": -1.4296711, "source": "osm", "_tags": {"amenity": "hospital", "healthcare": "hospital", "name": "C.H.S Georges Mazurelle", "ref:FR:FINESS": "850000258", "type:FR:FINESS": "292"}}, {"name": "Centre Hospitalier Côte de Lumière", "latitude": 46.5149052, "longitude": -1.7517761, "source": "osm", "_tags": {"addr:city": "Olonne-sur-Mer", "addr:housenumber": "4", "addr:street": "Rue Jacques Monod", "alt_name": "Centre Hospitalier Jacques Monod", "amenity": "hospital", "emergency": "yes", "fax": "+33 2 51 21 85 60", "healthcare": "hospital", "name": "Centre Hospitalier Côte de Lumière", "operator:type": "public", "phone": "+33 2 51 21 85 85", "ref:FR:FINESS": "850000241", "ref:FR:NAF": "8610Z", "ref:FR:SIREN": "268500303", "ref:FR:SIRET": "26850030300212", "source": "INSEE - 2024-11", "type:FR:FINESS": "355", "website": "https://www.ch-cotedelumiere.fr/lrportal/"}}, {"name": "Hopital Saint-Honoré", "latitude": 46.2007097, "longitude": -1.366394, "source": "osm", "_tags": {"amenity": "hospital", "emergency": "no", "fax": "+33 5 46 09 19 54", "mhs:inscription_date": "1903-12-29", "name": "Hopital Saint-Honoré", "operator": "Groupe hospitalier La Rochelle - Ré - Aunis", "operator:type": "public", "phone": "+33 5 46 09 20 01", "ref:FR:FINESS": "170000111", "ref:mhs": "PA17000015", "type:FR:FINESS": "355", "website": "http://www.ch-larochelle.fr/", "wheelchair": "yes", "wikidata": "Q22995915"}}, {"name": "Centre Hospitalier Départemental - La-Roche-sur-Yon", "latitude": 46.6683138, "longitude": -1.4137027, "source": "osm", "_tags": {"alt_name": "Centre Hospitalier des Oudairies", "amenity": "hospital", "email": "dg@chd-vendee.fr", "fax": "+33 2 51 44 60 64", "healthcare": "hospital", "healthcare:speciality": "intensive", "name": "Centre Hospitalier Départemental - La-Roche-sur-Yon", "operator:type": "public", "phone": "+33 2 51 44 61 61", "ref:FR:FINESS": "850000142", "type:FR:FINESS": "355", "website": "https://www.chd-vendee.fr/"}}, {"name": "Centre hospitalier Saint-Pierre d'Oléron", "latitude": 45.9427144, "longitude": -1.3037878, "source": "osm", "_tags": {"amenity": "hospital", "emergency": "limited", "fax": "+33 5 46 76 31 12", "healthcare": "hospital", "name": "Centre hospitalier Saint-Pierre d'Oléron", "operator:type": "public", "phone": "+33 5 46 76 31 00", "ref:FR:FINESS": "170000079", "type:FR:FINESS": "106", "website": "https://hopitaloleron.net/", "wikidata": "Q92063030"}}, {"name": "Centre Hospitalier Loire Vendée", "latitude": 46.6961685, "longitude": -1.9227093, "source": "osm", "_tags": {"amenity": "hospital", "fax": "+33251551020", "healthcare": "hospital", "name": "Centre Hospitalier Loire Vendée", "phone": "+33251608300", "ref:FR:FINESS": "850000233", "ref:FR:SIRET": "26850445300278", "source": "Le ministère des solidarités et de la santé - 2022-07", "type:FR:FINESS": "355"}}, {"name": "Clinique Saint-Charles", "latitude": 46.6579517, "longitude": -1.4145491, "source": "osm", "_tags": {"amenity": "clinic", "emergency": "yes", "fax": "+33251444510", "healthcare": "hospital", "name": "Clinique Saint-Charles", "operator:type": "private", "phone": "+33251444444", "ref:FR:FINESS": "850000118", "ref:FR:SIRET": "33836135500021", "source": "Le ministère des solidarités et de la santé - 2022-07", "type:FR:FINESS": "365"}}]