[{"name": "La Chênaie", "latitude": 45.8483578, "longitude": 1.1316269, "source": "osm", "_tags": {"addr:city": "Verneuil-sur-Vienne", "addr:housenumber": "8", "addr:postcode": "87430", "addr:street": "Rue de Limoges", "amenity": "hospital", "healthcare": "hospital", "healthcare:speciality": "community", "name": "La Chênaie", "operator": "personnel medical et personnes agées", "operator:type": "private", "phone": "+33 5 55 43 33 00", "ref:FR:FINESS": "870000171", "type:FR:FINESS": "109", "wheelchair": "yes"}}, {"name": "Centre de Proximité en Santé Mentale Val de Vienne", "latitude": 45.8910686, "longitude": 0.8971905, "source": "osm", "_tags": {"addr:city": "Saint Junien", "addr:housenumber": "2", "addr:postcode": "87200", "addr:street": "Avenue de Précoin", "healthcare": "hospital", "healthcare:speciality": "psychiatry", "name": "Centre de Proximité en Santé Mentale Val de Vienne", "operator": "Centre Hospitalier Esquirol", "phone": "0555431333", "short_name": "CPSM", "website": "https://www.ch-esquirol-limoges.fr/offre-de-soin/hopital-de-jour-val-de-vienne-centre-de-proximite-en-sante-mentale-cpsm/"}}, {"name": "Centre hospitalier de Châteauroux", "latitude": 46.7982767, "longitude": 1.6951978, "source": "osm", "_tags": {"emergency": "yes", "fax": "+33 2 54 29 60 40", "healthcare": "hospital", "healthcare:speciality": "intensive", "name": "Centre hospitalier de Châteauroux", "operator:type": "public", "phone": "+33 2 54 29 60 00", "ref:FR:FINESS": "360000137", "source": "cadastre-dgi-fr : Direction Général des Impots - Cadastre;mise à jour : 2008", "type:FR:FINESS": "355", "website": "http://www.ch-chateauroux.fr/"}}, {"name": "Centre hospitalier Esquirol", "latitude": 45.8171988, "longitude": 1.2393511, "source": "osm", "_tags": {"amenity": "hospital", "contact:phone": "+33 5 55 43 10 10", "healthcare": "hospital", "healthcare:speciality": "psychiatry", "name": "Centre hospitalier Esquirol", "name:etymology:wikidata": "Q517981", "ref:FR:FINESS": "870006137", "ref:FR:NAF": "8610Z", "ref:FR:SIRET": "26870850000015", "source": "cadastre-dgi-fr source : Direction Générale des Impôts - Cadastre;mise à jour : 2009", "type:FR:FINESS": "292", "website": "https://www.ch-esquirol-limoges.fr/"}}, {"name": "Polyclinique de Limoges, site Émailleurs", "latitude": 45.8151871, "longitude": 1.2262204, "source": "osm", "_tags": {"addr:housenumber": "1", "addr:street": "Rue Victor Schoelcher", "amenity": "hospital", "description": "Le site Emailleurs-Colombier de la Polyclinique de Limoges assure une permanence des urgences gynécologiques et obstétricales 24h/24 et 7j/7. Tél. 05 55 43 39 16", "emergency": "yes", "healthcare": "clinic", "healthcare:speciality": "gynaecology;paediatrics", "name": "Polyclinique de Limoges, site Émailleurs", "operator": "type 1", "operator:type": "private", "phone": "+33 5 55 43 38 69", "ref:FR:FINESS": "870000411", "ref:FR:NAF": "8610Z", "ref:FR:SIREN": "453102717", "ref:FR:SIRET": "45310271700031", "short_name": "Clinique des Émailleurs", "source": "cadastre-dgi-fr source : Direction Générale des Impôts - Cadastre;mise à jour : 2009", "website": "https://polyclinique-limoges.com"}}, {"name": "Centre hospitalier de La Souterraine", "latitude": 46.236147, "longitude": 1.4814307, "source": "osm", "_tags": {"alt_name": "Centre hospitalier Eugène Jamot", "amenity": "hospital", "email": "direction@ch-lasouterraine.fr", "emergency": "no", "fax": "+33 5 55 63 77 31", "healthcare": "hospital", "name": "Centre hospitalier de La Souterraine", "operator:type": "public", "phone": "+33 5 55 89 58 00", "ref:FR:FINESS": "230000960", "source": "Le ministère des solidarités et de la santé - 08/2018", "type:FR:FINESS": "355", "website": "https://www.ch-lasouterraine.fr/"}}, {"name": "Hôpital Chastaingt", "latitude": 45.8284577, "longitude": 1.2851021, "source": "osm", "_tags": {"amenity": "hospital", "healthcare": "hospital", "name": "Hôpital Chastaingt", "operator:type": "public", "ref:FR:FINESS": "870008042", "source": "cadastre-dgi-fr source : Direction Générale des Impôts - Cadastre ; mise à jour : 2010", "type:FR:FINESS": "362"}}, {"name": "Centre hospitalier du Blanc", "latitude": 46.6340936, "longitude": 1.059714, "source": "osm", "_tags": {"amenity": "hospital", "building": "hospital", "emergency": "yes", "fax": "+33 2 54 28 28 38", "healthcare": "hospital", "name": "Centre hospitalier du Blanc", "operator:type": "public", "phone": "+33 2 54 28 28 28", "ref:FR:FINESS": "360000160", "source": "extraction vectorielle v1 cadastre-dgi-fr source : Direction Générale des Impôts - Cadas. Mise à jour : 2010", "type:FR:FINESS": "355", "website": "http://www.ch-leblanc.fr/"}}, {"name": "Centre de Réadaptation Fonctionnelle André Lalande", "latitude": 46.2363085, "longitude": 1.5609778, "source": "osm", "_tags": {"amenity": "hospital", "building": "yes", "emergency": "no", "healthcare": "hospital", "healthcare:speciality": "physiatry", "name": "Centre de Réadaptation Fonctionnelle André Lalande", "ref:FR:FINESS": "230782617", "short_name": "CRRF André Lalande", "source": "cadastre-dgi-fr source : Direction Générale des Impôts - Cadastre. Mise à jour : 2010", "type:FR:FINESS": "109"}}, {"name": "Centre hospitalier universitaire de Limoges", "latitude": 45.8123105, "longitude": 1.2362064, "source": "osm", "_tags": {"addr:city": "Limoges", "addr:housenumber": "2", "addr:postcode": "87000", "addr:street": "Avenue Martin Luther King", "amenity": "hospital", "emergency": "yes", "healthcare": "hospital", "healthcare:speciality": "intensive", "name": "Centre hospitalier universitaire de Limoges", "phone": "+33 5 55 05 55 55", "ref:FR:FINESS": "870000015", "ref:FR:SIREN": "268 708 518", "source": "cadastre-dgi-fr source : Direction Générale des Impôts - Cadastre;mise à jour : 2009", "website": "https://www.chu-limoges.fr/", "wikidata": "Q2945742", "wikipedia": "fr:Centre hospitalier régional universitaire de Limoges"}}, {"name": "Hôpital Intercommunal du Haut-Limousin", "latitude": 46.2172028, "longitude": 1.0766033, "source": "osm", "_tags": {"addr:housenumber": "9", "addr:street": "Avenue de la Josniere", "amenity": "hospital", "building": "hospital", "healthcare": "hospital", "name": "Hôpital Intercommunal du Haut-Limousin", "ref:FR:NAF": "86.10Z", "ref:FR:SIREN": "268700424", "ref:FR:SIRET": "26870042400065", "source": "extraction vectorielle v1 cadastre-dgi-fr source : Direction Générale des Impôts - Cadas. Mise à jour : 2010"}}, {"name": "Clinique psychiatrique Korian Saint-Maurice", "latitude": 46.0005268, "longitude": 1.4699385, "source": "osm", "_tags": {"addr:city": "La Jonchère-Saint-Maurice", "addr:housenumber": "49", "addr:postcode": "87340", "addr:street": "Rue de Limoges", "amenity": "hospital", "building": "hospital", "healthcare": "hospital", "healthcare:speciality": "psychiatry", "name": "Clinique psychiatrique Korian Saint-Maurice", "opening_hours": "Mo-Su 09:00-12:00, 14:00-18:00", "operator": "Korian", "ref:FR:FINESS": "870000221", "ref:FR:SIRET": "75550044400012", "source": "cadastre-dgi-fr source : Direction Générale des Impôts - Cadastre. Mise à jour : 2012", "type:FR:FINESS": "161", "website": "https://www.korian.fr/clinique-psychiatrique/psy-korian-saint-maurice-la-jonchere-87340"}}, {"name": "Hôpital de Jour Baudin", "latitude": 45.8190793, "longitude": 1.2474544, "source": "osm", "_tags": {"amenity": "hospital", "emergency": "no", "healthcare": "hospital", "healthcare:speciality": "functional_rehabilitation;visual_rehabilitation;childhood_obesity", "name": "Hôpital de Jour Baudin", "name:etymology:wikidata": "Q3163863", "operator": "Mutualité Française", "ref:FR:FINESS": "870007358"}}, {"name": "Hôpital du Haut Limousin", "latitude": 46.1242029, "longitude": 1.0622201, "source": "osm", "_tags": {"amenity": "hospital", "healthcare": "hospital", "name": "Hôpital du Haut Limousin", "ref:FR:FINESS": "870000551", "source": "Le ministère des solidarités et de la santé - 08/2018", "wikidata": "Q92062774"}}, {"name": "", "latitude": 45.8152364, "longitude": 1.226288, "source": "osm", "_tags": {"building": "hospital", "healthcare": "hospital", "healthcare:speciality": "orthopaedics;paediatrics;dermatology;stomatology;dental_oral_maxillo_facial_surgery;physiotherapist;implantology", "source": "cadastre-dgi-fr source : Direction Générale des Finances Publiques - Cadastre. Mise à jour : 2017"}}, {"name": "Centre hospitalier de Montmorillon", "latitude": 46.4284979, "longitude": 0.8669039, "source": "osm", "_tags": {"amenity": "hospital", "email": "direction.ch-montmorillon@chu-poitiers.fr", "emergency": "yes", "healthcare": "hospital", "name": "Centre hospitalier de Montmorillon", "operator:type": "public", "ref:FR:FINESS": "860000058", "type:FR:FINESS": "355", "website": "https://www.chu-poitiers.fr/specialites/pole-montmorillon/"}}, {"name": "cabinet de kinesitheraphie", "latitude": 46.785741, "longitude": 0.8812941, "source": "osm", "_tags": {"amenity": "doctors", "building": "retail", "healthcare": "hospital", "healthcare:speciality": "kinésithéraphie", "name": "cabinet de kinesitheraphie"}}, {"name": "Centre hospitalier Esquirol", "latitude": 45.81655, "longitude": 1.246134, "source": "osm", "_tags": {"amenity": "hospital", "contact:phone": "+33 5 55 43 10 10", "healthcare:speciality": "psychiatry", "name": "Centre hospitalier Esquirol", "name:etymology:wikidata": "Q517981", "ref:FR:FINESS": "870006137", "ref:FR:NAF": "8610Z", "ref:FR:SIRET": "26870850000015", "type:FR:FINESS": "292", "website": "https://www.ch-esquirol-limoges.fr/"}}, {"name": "Hôpital", "latitude": 45.8417365, "longitude": 1.4831888, "source": "osm", "_tags": {"amenity": "hospital", "healthcare": "hospital", "name": "Hôpital"}}, {"name": "Centre de soins de suite et de réadaptation", "latitude": 46.7926127, "longitude": 1.7053706, "source": "osm", "_tags": {"amenity": "hospital", "healthcare": "hospital", "name": "Centre de soins de suite et de réadaptation", "operator": "Centre hospitalier Châteauroux - Le Blanc", "operator:type": "public", "ref:FR:FINESS": "360003149", "type:FR:FINESS": "355", "website": "https://www.ch-chateauroux-leblanc.fr/offresoinsch/27/le-centre-de-soins-de-suite-et-de-readaptation-c-s-s-r-"}}, {"name": "", "latitude": 45.8148047, "longitude": 1.2819141, "source": "osm", "_tags": {"amenity": "hospital", "healthcare": "hospital"}}, {"name": "Centre Hospitalier Intercommunal Monts et Barrages", "latitude": 45.8417003, "longitude": 1.4832848, "source": "osm", "_tags": {"addr:city": "Saint-Léonard de Noblat", "addr:postcode": "87400", "addr:street": "Chemin du Panaud", "amenity": "hospital", "building": "yes", "email": "accueil@chimb.fr", "emergency": "no", "healthcare": "hospital", "name": "Centre Hospitalier Intercommunal Monts et Barrages", "phone": "+33 5 55 56 43 00", "ref:FR:FINESS": "870000601", "source": "Le ministère des solidarités et de la santé - 08/2018", "wikidata": "Q92062743"}}, {"name": "Pôle Ophtalmologique Chénieux", "latitude": 45.8144892, "longitude": 1.2823803, "source": "osm", "_tags": {"amenity": "hospital", "building": "yes", "healthcare": "clinic", "healthcare:speciality": "ophthalmology", "name": "Pôle Ophtalmologique Chénieux", "source": "cadastre-dgi-fr source : Direction Générale des Finances Publiques - Cadastre. Mise à jour : 2022", "website": "https://chenieux-ophtalmologie.com/"}}, {"name": "Hôpital de Magnac Laval", "latitude": 46.2188635, "longitude": 1.174193, "source": "osm", "_tags": {"addr:housenumber": "8", "addr:street": "Avenue George Sand", "amenity": "hospital", "emergency": "no", "healthcare": "hospital", "name": "Hôpital de Magnac Laval", "ref:FR:FINESS": "870000403", "ref:FR:NAF": "86.10Z", "ref:FR:SIREN": "268700424", "ref:FR:SIRET": "26870042400057", "source": "Le ministère des solidarités et de la santé - 08/2018", "type:FR:FINESS": "106", "website": "https://www.hihl.fr/hopital-de-magnac-laval", "wikidata": "Q92063066"}}, {"name": "Centre de Soins de Suite et de Réadaptation La Colline Ensoleillée", "latitude": 46.7733844, "longitude": 0.8039628, "source": "osm", "_tags": {"amenity": "hospital", "healthcare": "hospital", "name": "Centre de Soins de Suite et de Réadaptation La Colline Ensoleillée", "operator": "UGECAM", "ref:FR:FINESS": "860780436", "type:FR:FINESS": "109"}}, {"name": "ITEP Suzanne Léger", "latitude": 46.2429998, "longitude": 0.985979, "source": "osm", "_tags": {"addr:city": "Oradour-Saint-Genest", "addr:postcode": "87210", "addr:street": "Le Prat", "amenity": "hospital", "description": "Institut Thérapeutique Éducatif et Pédagogique (I.T.E.P.)", "emergency": "no", "healthcare": "hospital", "healthcare:speciality": "behavior", "name": "ITEP Suzanne Léger", "phone": "+33 5 55 47 61 00", "ref:UAI": "0870710Z"}}, {"name": "", "latitude": 45.8944688, "longitude": 0.91396, "source": "osm", "_tags": {"amenity": "hospital", "healthcare": "hospital"}}, {"name": "Pôle Gériatrique Chantemerle", "latitude": 45.8941639, "longitude": 0.9144478, "source": "osm", "_tags": {"amenity": "hospital", "building": "hospital", "fax": "+33 5 55 43 50 75", "healthcare": "hospital", "name": "Pôle Gériatrique Chantemerle", "phone": "+33 5 55 43 50 00", "ref:FR:FINESS": "870002516", "ref:FR:SIRET": "26871540600024", "source": "Le ministère des solidarités et de la santé - 2023-03", "type": "multipolygon"}}, {"name": "Centre Hospitalier Saint-Junien Roland Mazoin", "latitude": 45.8893908, "longitude": 0.897608, "source": "osm", "_tags": {"amenity": "hospital", "healthcare": "hospital", "name": "Centre Hospitalier Saint-Junien Roland Mazoin", "type": "multipolygon"}}]