[{"name": "Volontari Soccorso Valle d'Ayas", "latitude": 45.8258283, "longitude": 7.7149356, "source": "osm", "_tags": {"amenity": "hospital", "name": "Volontari Soccorso Valle d'Ayas"}}, {"name": "Maison de la Santé de la Gravenne", "latitude": 46.0780451, "longitude": 7.1462937, "source": "osm", "_tags": {"addr:city": "Sembrancher", "addr:housenumber": "14", "addr:postcode": "1933", "addr:street": "Route de la Gravenne", "amenity": "hospital", "emergency": "yes", "healthcare": "hospital", "healthcare:speciality": "general", "name": "Maison de la Santé de la Gravenne", "operator": "Médidranses", "operator:type": "public", "website": "https://www.medidranse.ch/", "wheelchair": "yes"}}, {"name": "Le Refuge Centre thérapeutique et de bien-être", "latitude": 46.2543892, "longitude": 7.5314593, "source": "osm", "_tags": {"addr:city": "Vercorin", "addr:postcode": "3967", "addr:street": "Chemin de Tracuit", "amenity": "hospital", "emergency": "no", "healthcare": "hospital", "healthcare:speciality": "massage_therapy", "name": "Le Refuge Centre thérapeutique et de bien-être"}}, {"name": "Clinic Les Alpes", "latitude": 46.4574666, "longitude": 6.9390021, "source": "osm", "_tags": {"addr:housenumber": "37", "addr:street": "Route de Sonloup", "amenity": "hospital", "emergency": "no", "healthcare": "rehabilitation", "name": "Clinic Les Alpes", "website": "https://www.cliniclesalpes.com/"}}, {"name": "Clinique Bernoise Montana", "latitude": 46.2997051, "longitude": 7.481131, "source": "osm", "_tags": {"addr:city": "Crans-Montana", "addr:housenumber": "87", "addr:postcode": "3963", "addr:street": "Route de la Moubra", "amenity": "hospital", "healthcare": "hospital", "healthcare:speciality": "physiatry", "name": "Clinique Bernoise Montana", "name:de": "Berner Klinik Montana", "name:fr": "Clinique Bernoise Montana", "phone": "+41 27 485 51 21"}}, {"name": "Swiss Visio Palézieux", "latitude": 46.555841, "longitude": 6.8301668, "source": "osm", "_tags": {"addr:city": "Palézieux", "addr:housenumber": "3B", "addr:postcode": "1607", "addr:street": "Grand-Rue", "amenity": "hospital", "healthcare": "hospital", "healthcare:speciality": "ophthalmology;optometry", "name": "Swiss Visio Palézieux", "operator": "Swiss Visio Network", "website": "https://www.swissmedical.net/fr/swiss-visio/centres/swiss-visio-palezieux"}}, {"name": "Urgences / Notfall", "latitude": 46.8020019, "longitude": 7.1383068, "source": "osm", "_tags": {"alt_name": "Hopital Cantonal Fribourg HFR urgences notfall emergency spital hospital fribourg FR", "amenity": "hospital", "healthcare": "hospital", "name": "Urgences / Notfall", "name:hr": "Kantonalna bolnica Fribourg - hitni prijem"}}, {"name": "Notfallzentrum Spital Thun", "latitude": 46.7617707, "longitude": 7.6322587, "source": "osm", "_tags": {"addr:city": "Thun", "addr:housenumber": "12", "addr:postcode": "3600", "addr:street": "Krankenhausstrasse", "amenity": "hospital", "email": "notfall@spitalstsag.ch", "emergency": "yes", "healthcare": "hospital", "healthcare:speciality": "emergency", "name": "Notfallzentrum Spital Thun", "opening_hours": "24/7", "operator": "Spital Thun", "operator:type": "public", "phone": "+41 58 636 99 99", "website": "https://www.spitalthun.ch/notfallzentrum"}}, {"name": "Centre hospitalier Chamonix Mont Blanc", "latitude": 45.9140617, "longitude": 6.8623294, "source": "osm", "_tags": {"amenity": "hospital", "building": "hospital", "check_date": "2025-04-21", "emergency": "yes", "fax": "+33 4 50 53 84 74", "name": "Centre hospitalier Chamonix Mont Blanc", "operator:type": "public", "phone": "+33 4 50 53 84 00", "ref:FR:FINESS": "740781166", "source": "cadastre-dgi-fr source : Direction Générale des Impôts - Cadastre. Mise à jour : 2011", "type:FR:FINESS": "355", "website": "http://www.chi-mont-blanc.fr/"}}, {"name": "Hôpital Riaz", "latitude": 46.6413224, "longitude": 7.0601546, "source": "osm", "_tags": {"addr:city": "Riaz", "addr:country": "CH", "addr:housenumber": "9", "addr:postcode": "1632", "addr:street": "Rue de l'Hôpital", "amenity": "hospital", "healthcare": "hospital", "name": "Hôpital Riaz", "operator": "HFR", "phone": "+41263064000", "website": "https://www.h-fr.ch/hfr/fr/pub/index.htm"}}, {"name": "Hôpital de Marsens", "latitude": 46.6560894, "longitude": 7.066967, "source": "osm", "_tags": {"amenity": "hospital", "healthcare": "hospital", "name": "Hôpital de Marsens"}}, {"name": "Fondation de Nant", "latitude": 46.4790737, "longitude": 6.8528152, "source": "osm", "_tags": {"addr:city": "Corsier-sur-Vevey", "addr:country": "CH", "addr:postcode": "1804", "addr:street": "Route de Nant", "amenity": "hospital", "email": "info@nant.ch", "healthcare": "hospital", "healthcare:speciality": "psychiatry;child_psychiatry;neuropsychiatry", "name": "Fondation de Nant", "phone": "+41 21 965 70 00", "source": "Bing", "website": "https://nant.ch/", "wikidata": "Q33121341"}}, {"name": "Hôpital Riviera-Chablais, Site de la Providence", "latitude": 46.4578729, "longitude": 6.8543525, "source": "osm", "_tags": {"amenity": "hospital", "healthcare": "hospital", "name": "Hôpital Riviera-Chablais, Site de la Providence", "phone": "+41 21 977 55 55"}}, {"name": "E - Ateliers & Centre de jour & ADP", "latitude": 46.4703993, "longitude": 6.8615525, "source": "osm", "_tags": {"amenity": "hospital", "healthcare": "hospital", "name": "E - Ateliers & Centre de jour & ADP", "operator": "la Fondation Eben-Hézer."}}, {"name": "Réception & Administration & Piscine", "latitude": 46.4706187, "longitude": 6.8615533, "source": "osm", "_tags": {"addr:city": "Saint-Légier-La Chiésaz", "addr:housenumber": "e", "addr:street": "Chemin du Genévrier", "amenity": "hospital", "healthcare": "hospital", "name": "Réception & Administration & Piscine", "operator": "la Fondation Eben-Hézer", "source": "Bing"}}, {"name": "Canopée & Les Roseaux", "latitude": 46.471, "longitude": 6.8625745, "source": "osm", "_tags": {"addr:city": "Saint-Légier-La Chiésaz", "addr:housenumber": "f", "addr:street": "Chemin du Genévrier", "amenity": "hospital", "healthcare": "hospital", "name": "Canopée & Les Roseaux", "operator": "la Fondation Eben-Hézer.", "source": "Bing"}}, {"name": "HRC Hôpital Riviera-Chablais", "latitude": 46.3799917, "longitude": 6.9206744, "source": "osm", "_tags": {"addr:city": "Rennaz", "addr:housenumber": "20", "addr:postcode": "1847", "addr:street": "Route du Vieux-Séquoia", "amenity": "hospital", "construction": "hospital", "construction:amenity": "hospital", "emergency": "yes", "healthcare": "hospital", "healthcare:speciality": "general;paediatrics;gynaecology;maternity;emergency;orthopaedics", "name": "HRC Hôpital Riviera-Chablais", "operator": "Hôpital Riviera-Chablais", "operator:type": "public", "phone": "+41 58 773 21 12", "website": "https://www.hopitalrivierachablais.ch", "wheelchair": "yes", "wikidata": "Q16642757"}}, {"name": "Hôpital de Sion", "latitude": 46.23534, "longitude": 7.3869208, "source": "osm", "_tags": {"addr:city": "Sion", "addr:housenumber": "80", "addr:postcode": "1951", "addr:street": "Avenue du Grand-Champsec", "amenity": "hospital", "emergency": "yes", "healthcare": "hospital", "name": "Hôpital de Sion", "name:de": "Spital Sitten", "name:fr": "Hôpital de Sion", "toilets:wheelchair": "yes", "website": "https://www.hopitalduvalais.ch/fr/lhopital-du-valais/sites/sion.html", "wheelchair": "yes", "wikidata": "Q3145292"}}, {"name": "Clinique Genevoise", "latitude": 46.3163739, "longitude": 7.4941989, "source": "osm", "_tags": {"addr:city": "Crans-Montana", "addr:country": "CH", "addr:housenumber": "2", "addr:postcode": "3963", "addr:street": "Impasse Clairmont", "amenity": "hospital", "healthcare": "hospital", "name": "Clinique Genevoise", "phone": "+41 27 485 61 22", "website": "https://www.hug-ge.ch/crans-montana"}}, {"name": "Spital Thun", "latitude": 46.7610936, "longitude": 7.6324954, "source": "osm", "_tags": {"addr:city": "Thun", "addr:housenumber": "12", "addr:postcode": "3600", "addr:street": "Krankenhausstrasse", "amenity": "hospital", "email": "info@spitalstsag.ch", "emergency": "yes", "healthcare": "hospital", "healthcare:speciality": "intensive", "name": "Spital Thun", "operator": "Spital STS AG", "phone": "+41 33 226 26 26", "source": "https://geodienste.ch/", "toilets:wheelchair": "yes", "website": "https://spitalthun.ch/", "wheelchair": "yes"}}, {"name": "Spital Zweisimmen", "latitude": 46.5577131, "longitude": 7.3729799, "source": "osm", "_tags": {"amenity": "hospital", "healthcare": "hospital", "healthcare:speciality": "intensive", "name": "Spital Zweisimmen", "phone": "+41 33 729 26 26", "website": "https://spitalstsag.ch/", "wikidata": "Q23783977"}}, {"name": "Hôpital de Martigny", "latitude": 46.0995954, "longitude": 7.0683195, "source": "osm", "_tags": {"addr:city": "Martigny", "addr:housenumber": "27", "addr:postcode": "1920", "addr:street": "Avenue de la Fusion", "amenity": "hospital", "emergency": "yes", "healthcare": "hospital", "layer": "1", "name": "Hôpital de Martigny", "name:de": "Spital Martigny", "name:fr": "Hôpital de Martigny", "operator": "Hôpital du Valais", "phone": "+41 27 603 90 00", "source": "Bing", "website": "https://www.hopitalduvalais.ch/fr/lhopital-du-valais/sites/martigny.html"}}, {"name": "Clinique Saint-Amé", "latitude": 46.213274, "longitude": 6.9979625, "source": "osm", "_tags": {"addr:city": "Saint-Maurice", "addr:country": "CH", "addr:housenumber": "10", "addr:postcode": "1890", "addr:street": "Vers Saint-Amé", "amenity": "hospital", "name": "Clinique Saint-Amé", "phone": "+41 24 486 26 62", "website": "https://www.hopitalduvalais.ch/fr/lhopital-du-valais/sites/clinique-saint-ame.html?ct=0&cHash=58be177c5705953f44610229d3e65550"}}, {"name": "Hôpital du Chablais de Monthey", "latitude": 46.2515885, "longitude": 6.9411151, "source": "osm", "_tags": {"addr:city": "Monthey", "addr:housenumber": "54", "addr:postcode": "1870", "addr:street": "Route de Morgins", "amenity": "hospital", "emergency": "yes", "name": "Hôpital du Chablais de Monthey", "phone": "+41 24 473 17 31", "website": "https://www.hopitalrivierachablais.ch/jcms/c_5020/fr/monthey"}}, {"name": "EMS Miremont", "latitude": 46.3417075, "longitude": 7.0083453, "source": "osm", "_tags": {"addr:city": "Leysin", "addr:housenumber": "21", "addr:postcode": "1854", "addr:street": "Avenue Rollier", "amenity": "hospital", "email": "direction.miremont@miremont.ch", "healthcare": "hospital", "name": "EMS Miremont", "phone": "+41 24 493 29 29", "website": "https://www.miremont.ch/jcms/c_5027/fr/bienvenue-a-la-fondation-miremont-une-clinique-centenaire"}}, {"name": "Hôpital de Sierre", "latitude": 46.2921619, "longitude": 7.5214331, "source": "osm", "_tags": {"addr:city": "Sierre", "addr:country": "CH", "addr:housenumber": "14", "addr:postcode": "3960", "addr:street": "Rue Saint-Charles", "amenity": "hospital", "emergency": "yes", "name": "Hôpital de Sierre", "phone": "+41 27 603 70 00", "source": "bing", "website": "https://www.hopitalduvalais.ch/fr/lhopital-du-valais/sites/sierre.html", "wikidata": "Q3145291"}}, {"name": "Hôpital du Pays d'Enhaut", "latitude": 46.478179, "longitude": 7.1407194, "source": "osm", "_tags": {"addr:city": "Château-d'Oex", "addr:housenumber": "17", "addr:postcode": "1660", "addr:street": "Route de l'Hôpital", "amenity": "hospital", "emergency": "yes", "healthcare": "hospital", "name": "Hôpital du Pays d'Enhaut", "phone": "+41 26 923 43 43", "website": "https://www.hopital-pae.ch/jcms/pae_10300/en/bienvenue"}}, {"name": "HFR Fribourg – Hôpital cantonal", "latitude": 46.8020355, "longitude": 7.1379925, "source": "osm", "_tags": {"addr:city": "Villars-sur-Glâne", "addr:country": "CH", "addr:housenumber": "2-6", "addr:postcode": "1752", "addr:street": "Chemin des Pensionnats", "amenity": "hospital", "email": "info@h-fr.ch", "healthcare": "hospital", "name": "HFR Fribourg – Hôpital cantonal", "name:de": "HFR Freiburg – Kantonsspital", "name:hr": "Kantonalna bolnica Fribourg", "phone": "+41 264267111", "website": "https://www.h-fr.ch/", "wikidata": "Q23013010"}}, {"name": "Hôpital Daler", "latitude": 46.800929, "longitude": 7.140671, "source": "osm", "_tags": {"addr:city": "Fribourg", "addr:country": "CH", "addr:housenumber": "34", "addr:postcode": "1700", "addr:street": "Route de Bertigny", "amenity": "hospital", "email": "hopital@daler.ch", "fax": "+41 26 429 94 11", "healthcare": "hospital", "name": "Hôpital Daler", "name:de": "Daler Spital", "name:fr": "Hôpital Daler", "phone": "+41 26 429 91 11", "website": "https://www.daler.ch/", "wikidata": "Q28778458"}}, {"name": "Clinique Générale Ste-Anne", "latitude": 46.7997462, "longitude": 7.1544687, "source": "osm", "_tags": {"addr:city": "Fribourg", "addr:country": "CH", "addr:housenumber": "6", "addr:postcode": "1700", "addr:street": "Rue Hans-Geiler", "amenity": "hospital", "healthcare": "hospital", "name": "Clinique Générale Ste-Anne", "website": "https://www.cliniquegenerale.ch/de/"}}, {"name": "HFR Spital Tafers", "latitude": 46.8102126, "longitude": 7.2120315, "source": "osm", "_tags": {"addr:city": "Tafers", "addr:country": "CH", "addr:housenumber": "1", "addr:postcode": "1712", "addr:street": "Maggenberg", "amenity": "hospital", "contact:email": "empfang.tafers@h-fr.ch", "emergency": "yes", "healthcare": "hospital", "name": "HFR Spital Tafers", "name:de": "HFR Tafers", "name:fr": "HFR Tafers", "operator": "HFR", "phone": "+41 26 306 60 00", "website": "https://www.h-fr.ch/nos-sites-hospitaliers/hfr-tafers"}}, {"name": "Spital Riggisberg", "latitude": 46.8137387, "longitude": 7.4781597, "source": "osm", "_tags": {"addr:city": "Riggisberg", "addr:country": "CH", "addr:housenumber": "2", "addr:postcode": "3132", "addr:street": "Eyweg", "amenity": "hospital", "emergency": "yes", "name": "Spital Riggisberg", "operator": "Insel", "website": "https://www.spitalriggisberg.ch/de/"}}, {"name": "Hohmad Privatklinik", "latitude": 46.7495656, "longitude": 7.6249706, "source": "osm", "_tags": {"addr:city": "Thun", "addr:country": "CH", "addr:housenumber": "1", "addr:postcode": "3600", "addr:street": "Hohmadstrasse", "amenity": "hospital", "emergency": "no", "internet_access": "wlan", "internet_access:fee": "customers", "name": "Hohmad Privatklinik", "operator": "Medaxo", "operator:type": "private", "phone": "+41 33 225 25 80", "source": "https://geodienste.ch/", "website": "https://www.klinikhohmad.ch"}}, {"name": "Hôpital psychiatrique de Malévoz", "latitude": 46.2566666, "longitude": 6.9442305, "source": "osm", "_tags": {"addr:city": "Monthey", "addr:housenumber": "10", "addr:postcode": "1870", "addr:street": "Route de Morgins", "amenity": "hospital", "healthcare": "psychotherapist", "healthcare:speciality": "psychiatry", "name": "Hôpital psychiatrique de Malévoz", "phone": "+41 27 604 73 33", "website": "https://www.hopitalduvalais.ch/de/spital-wallis/standorte/malevoz.html"}}, {"name": "HFR Hôpital de Billens", "latitude": 46.6942617, "longitude": 6.9022021, "source": "osm", "_tags": {"addr:city": "Billens-Hennens", "addr:housenumber": "1", "addr:postcode": "1681", "addr:street": "Route de l'Hôpital", "amenity": "hospital", "healthcare": "hospital", "healthcare:speciality": "intensive;rehabilitation", "name": "HFR Hôpital de Billens", "operator": "HFR", "phone": "+41 26 651 61 11", "source": "survey", "website": "https://www.h-fr.ch/hfr/de/pub/dashfr/standorte/billens.htm"}}, {"name": "Reha Heiligenschwendi", "latitude": 46.7499272, "longitude": 7.6936799, "source": "osm", "_tags": {"addr:city": "Heiligenschwendi", "addr:housenumber": "299", "addr:postcode": "3625", "addr:street": "Schwendi", "amenity": "hospital", "healthcare:speciality": "rehabilitation", "name": "Reha Heiligenschwendi", "phone": "+41 33 244 33 33", "website": "https://www.rehabern.ch/", "wheelchair": "yes"}}, {"name": "Espace Santé Rennaz", "latitude": 46.3778253, "longitude": 6.9201111, "source": "osm", "_tags": {"amenity": "hospital", "building": "yes", "emergency": "no", "healthcare": "hospital", "name": "Espace Santé Rennaz"}}, {"name": "Spital Frutigen", "latitude": 46.584114, "longitude": 7.6416826, "source": "osm", "_tags": {"addr:city": "Frutigen", "amenity": "hospital", "healthcare": "hospital", "name": "Spital Frutigen"}}, {"name": "Clinique romande de réadaptation Sion", "latitude": 46.2362816, "longitude": 7.3888534, "source": "osm", "_tags": {"amenity": "hospital", "healthcare": "hospital", "name": "Clinique romande de réadaptation Sion", "operator": "CRR SuvaCare", "operator:type": "private"}}]