[{"name": "CMP L'aquarelle", "latitude": 46.626934, "longitude": 5.223479, "source": "osm", "_tags": {"alt_name": "Centre médico-psychologique", "amenity": "hospital", "healthcare": "hospital", "name": "CMP L'aquarelle", "operator": "CHS Sevrey", "phone": "+33 3 85 75 43 00", "ref:FR:FINESS": "710009598", "short_name": "CMP", "source": "Le ministère des solidarités et de la santé - 03/2019"}}, {"name": "", "latitude": 46.5599702, "longitude": 4.9085031, "source": "osm", "_tags": {"amenity": "hospital", "fax": "+33385321698", "phone": "+33385513684", "ref:FR:FINESS": "710009929", "source": "Le ministère des solidarités et de la santé - 03/2019", "type:FR:FINESS": "292"}}, {"name": "Maison médicale", "latitude": 45.8900411, "longitude": 4.7425726, "source": "osm", "_tags": {"addr:city": "Les Chères", "addr:postcode": "69380", "addr:street": "Route Nationale 6", "amenity": "hospital", "contact:housenumber": "58", "healthcare": "hospital", "name": "Maison médicale", "wheelchair": "yes"}}, {"name": "Maison de Santé Porte de Lyon", "latitude": 45.8214961, "longitude": 4.7601689, "source": "osm", "_tags": {"addr:city": "Dardilly", "addr:housenumber": "10", "addr:postcode": "69570", "addr:street": "Avenue de la Porte de Lyon", "amenity": "hospital", "healthcare": "hospital", "healthcare:speciality": "general;dental_oral_maxillo_facial_surgery;gynaecology;emergency;biology;occupational;psychology", "name": "Maison de Santé Porte de Lyon", "operator": "Maison de Santé Porte de Lyon", "website": "https://www.mspl-dardilly.fr/"}}, {"name": "", "latitude": 46.2079453, "longitude": 5.2249343, "source": "osm", "_tags": {"amenity": "hospital", "phone": "+33474522497", "ref:FR:FINESS": "010008217", "ref:FR:SIRET": "77554456200900", "source": "Le ministère des solidarités et de la santé - 2024-01", "type:FR:FINESS": "292"}}, {"name": "Centre Psychothérapique de l'Ain", "latitude": 46.2273742, "longitude": 5.2358644, "source": "osm", "_tags": {"addr:city": "Bourg-en-Bresse", "addr:postcode": "01000", "addr:street": "Avenue de Marboz", "amenity": "hospital", "healthcare": "hospital", "healthcare:speciality": "psychiatry", "name": "Centre Psychothérapique de l'Ain", "old_name": "Hôpital Saint Georges", "operator": "Orsac", "ref:FR:FINESS": "010000495", "short_name": "CPA", "source": "Union européenne - SOeS, CORINE Land Cover, 2006.", "website": "https://www.cpa01.fr/", "wikidata": "Q107347947"}}, {"name": "Centre hospitalier de Lons-le-Saunier", "latitude": 46.6766896, "longitude": 5.5503522, "source": "osm", "_tags": {"alt_name": "Hôpital de Lons-le-Saunier", "amenity": "hospital", "emergency": "yes", "fax": "+33 3 84 35 60 70", "healthcare": "hospital", "healthcare:speciality": "intensive", "name": "Centre hospitalier de Lons-le-Saunier", "operator": "GHT Hôpitaux du Jura", "phone": "+33 3 84 35 60 00", "ref:FR:FINESS": "390000040", "ref:FR:NAF": "8610Z", "ref:FR:SIREN": "263900052", "ref:FR:SIRET": "26390005200014", "short_name": "C.H. de Lons", "source": "cadastre-dgi-fr source : Direction Générale des Impôts - Cadastre. Mise à jour : 2010", "type:FR:FINESS": "355", "website": "https://hopitaux-jura.fr/", "wikidata": "Q2945696", "wikipedia": "fr:Centre hospitalier de Lons-le-Saunier"}}, {"name": "Centre hospitalier de Mâcon", "latitude": 46.3159965, "longitude": 4.8136687, "source": "osm", "_tags": {"alt_name": "Hôpital des Chanaux", "amenity": "hospital", "email": "chmacon@ch-macon.fr", "emergency": "yes", "fax": "+33 3 85 27 59 94", "healthcare:speciality": "intensive", "name": "Centre hospitalier de Mâcon", "operator:type": "public", "phone": "+33 3 85 20 30 40", "ref:FR:FINESS": "710978289", "source": "cadastre-dgi-fr source : Direction Générale des Impôts - Cadastre. Mise à jour : 2009", "type:FR:FINESS": "355", "website": "https://www.ch-macon.fr/"}}, {"name": "Polyclinique du Val de Saône", "latitude": 46.3173599, "longitude": 4.8116636, "source": "osm", "_tags": {"amenity": "hospital", "fax": "+33 3 85 23 23 24", "healthcare": "hospital", "name": "Polyclinique du Val de Saône", "operator:type": "private", "phone": "+33 3 85 23 23 23", "ref:FR:FINESS": "710006859", "ref:FR:SIRET": "37841772900035", "source": "cadastre-dgi-fr source : Direction Générale des Impôts - Cadastre. Mise à jour : 2009", "type:FR:FINESS": "365", "website": "http://www.cliniquevaldesaone.fr/"}}, {"name": "Pavillon La Ferté", "latitude": 46.6796039, "longitude": 5.5577701, "source": "osm", "_tags": {"addr:housenumber": "305", "amenity": "hospital", "building": "yes", "description": "Unité d'évaluation et de traitement de la douleur", "emergency": "no", "healthcare": "hospital", "name": "Pavillon La Ferté", "phone": "+33 3 84 35 61 07", "source": "cadastre-dgi-fr source : Direction Générale des Impôts - Cadastre. Mise à jour : 2010", "website": "https://hopitaux-jura.fr/chipr/vos-droits/prise-en-charge-de-la-douleur/"}}, {"name": "Maison médicale", "latitude": 46.646632, "longitude": 5.539325, "source": "osm", "_tags": {"amenity": "hospital", "healthcare": "hospital", "healthcare:speciality": "general;stomatology", "name": "Maison médicale", "source": "cadastre-dgi-fr source : Direction Générale des Impôts - Cadastre. Mise à jour : 2011"}}, {"name": "Hôpital de Fleyriat", "latitude": 46.2240864, "longitude": 5.2102101, "source": "osm", "_tags": {"addr:city": "Bourg-en-Bresse", "addr:housenumber": "900", "addr:postcode": "01012", "addr:street": "Route de Paris", "amenity": "hospital", "emergency": "yes", "fax": "+33 4 74 45 41 14", "healthcare": "hospital", "healthcare:speciality": "intensive", "name": "Hôpital de Fleyriat", "operator:type": "public", "phone": "+33 4 74 45 46 47", "ref:FR:FINESS": "010000024", "source": "cadastre-dgi-fr source : Direction Générale des Impôts - Cadastre. Mise à jour : 2011", "type:FR:FINESS": "355", "website": "https://www.ch-bourg-en-bresse.fr/", "wikidata": "Q56887147"}}, {"name": "Hôpital de Jour", "latitude": 46.7818445, "longitude": 4.8501532, "source": "osm", "_tags": {"amenity": "hospital", "building": "yes", "healthcare": "hospital", "name": "Hôpital de Jour", "ref:FR:FINESS": "710007881", "source": "extraction vectorielle v1 cadastre-dgi-fr source : Direction Générale des Impôts - Cadas. Mise à jour : 2010", "type:FR:FINESS": "292"}}, {"name": "", "latitude": 45.8646957, "longitude": 4.8329828, "source": "osm", "_tags": {"amenity": "hospital"}}, {"name": "", "latitude": 45.8617568, "longitude": 4.83231, "source": "osm", "_tags": {"amenity": "hospital"}}, {"name": "", "latitude": 45.8622499, "longitude": 4.8314939, "source": "osm", "_tags": {"amenity": "hospital"}}, {"name": "Centre hospitalier gériatrique des Monts d'Or", "latitude": 45.8618098, "longitude": 4.8339898, "source": "osm", "_tags": {"amenity": "hospital", "emergency": "no", "name": "Centre hospitalier gériatrique des Monts d'Or", "source": "http://www.ch-montdor.fr/"}}, {"name": "Centre hospitalier gériatrique des Mont d'Or", "latitude": 45.8596401, "longitude": 4.8342334, "source": "osm", "_tags": {"amenity": "hospital", "emergency": "no", "name": "Centre hospitalier gériatrique des Mont d'Or", "ref:FR:FINESS": "690000773", "source": "Le ministère des solidarités et de la santé - 08/2018"}}, {"name": "Hôpital Gériatrique intercommunal Neuville-Fontaines", "latitude": 45.8676763, "longitude": 4.8481069, "source": "osm", "_tags": {"amenity": "hospital", "healthcare": "hospital", "name": "Hôpital Gériatrique intercommunal Neuville-Fontaines", "ref:FR:FINESS": "690000054", "source": "Le ministère des solidarités et de la santé - 08/2018", "type:FR:FINESS": "106", "wikidata": "Q92062958"}}, {"name": "Maison médicale", "latitude": 46.678309, "longitude": 5.1099414, "source": "osm", "_tags": {"amenity": "hospital", "building": "yes", "healthcare": "hospital", "name": "Maison médicale", "ref:FR:FINESS": "710013889", "source": "cadastre-dgi-fr source : Direction Générale des Impôts - Cadastre. Mise à jour : 2012", "type:FR:FINESS": "603"}}, {"name": "Centre Hospitalier Spécialisé de Sevrey", "latitude": 46.7258781, "longitude": 4.8335304, "source": "osm", "_tags": {"addr:city": "Sevrey", "addr:postcode": "71100", "alt_name": "Hôpital Psychiatrique de Sevrey", "amenity": "hospital", "healthcare": "hospital", "name": "Centre Hospitalier Spécialisé de Sevrey", "phone": "+33 3 85 92 82 00", "ref:FR:FINESS": "710978230", "short_name": "CHS", "source": "Le ministère des solidarités et de la santé - 03/2019", "type:FR:FINESS": "292", "website": "https://www.ch-sevrey.fr/"}}, {"name": "Centre Hospitalier William Morey", "latitude": 46.7770519, "longitude": 4.840724, "source": "osm", "_tags": {"amenity": "hospital", "emergency": "yes", "fax": "+33 3 85 44 66 99", "healthcare": "hospital", "healthcare:speciality": "intensive", "loc_name": "nouvel hôpital", "name": "Centre Hospitalier William Morey", "phone": "+33 3 85 44 66 88", "ref:FR:FINESS": "710978263", "ref:FR:SIRET": "26710076600109", "type:FR:FINESS": "355", "website": "https://www.ch-chalon71.fr/"}}, {"name": "Dracy santé : Centre Orthopédique Médico Chirurgical de Dracy-Le Fort", "latitude": 46.7959521, "longitude": 4.7820726, "source": "osm", "_tags": {"amenity": "hospital", "healthcare": "hospital", "name": "Dracy santé : Centre Orthopédique Médico Chirurgical de Dracy-Le Fort", "ref:FR:FINESS": "710781824", "source": "Bing", "type:FR:FINESS": "365"}}, {"name": "Clinique Convert", "latitude": 46.2109352, "longitude": 5.2533088, "source": "osm", "_tags": {"amenity": "hospital", "check_date": "2025-08-10", "emergency": "yes", "fax": "+33 4 74 45 26 56", "healthcare:speciality": "intensive", "name": "Clinique Convert", "operator": "Ramsay Santé", "operator:type": "private", "operator:wikidata": "Q3123085", "phone": "+33 4 74 45 64 45", "ref:FR:FINESS": "010780195", "type:FR:FINESS": "365", "website": "https://clinique-convert-bourg-en-bresse.ramsaygds.fr/", "wikidata": "Q56887159"}}, {"name": "Hôpital Privé Sainte-Marie", "latitude": 46.7979224, "longitude": 4.8565233, "source": "osm", "_tags": {"amenity": "hospital", "healthcare": "hospital", "name": "Hôpital Privé Sainte-Marie", "old_name": "Clinique Sainte-Marie", "ref:FR:FINESS": "710977075", "type:FR:FINESS": "109"}}, {"name": "Hôpital C.J. Ruivet", "latitude": 45.9064086, "longitude": 5.1940007, "source": "osm", "_tags": {"alt_name": "Centre Hospitalier de Meximieux", "amenity": "hospital", "emergency": "no", "name": "Hôpital C.J. Ruivet", "ref:FR:FINESS": "010000099", "source": "Le ministère des solidarités et de la santé - 08/2018", "wikidata": "Q92062702"}}, {"name": "Centre hospitalier Montpensier", "latitude": 45.9408891, "longitude": 4.7714356, "source": "osm", "_tags": {"amenity": "hospital", "emergency": "no", "healthcare": "hospital", "name": "Centre hospitalier Montpensier", "ref:FR:FINESS": "010000065", "source": "Le ministère des solidarités et de la santé - 08/2018", "wikidata": "Q72694289"}}, {"name": "Centre hospitalier du Haut-Bugey", "latitude": 46.2596557, "longitude": 5.6302218, "source": "osm", "_tags": {"addr:city": "Oyonnax", "addr:housenumber": "1", "addr:postcode": "01117", "addr:street": "Route de Veyziat", "amenity": "hospital", "emergency": "yes", "fax": "+33 4 74 73 10 02", "healthcare": "hospital", "name": "Centre hospitalier du Haut-Bugey", "operator:type": "public", "phone": "+33 4 74 73 10 01", "ref:FR:FINESS": "010005239", "type:FR:FINESS": "355", "website": "https://www.ch-hautbugey.fr/", "wheelchair": "yes"}}, {"name": "Centre hospitalier de Pont-de-Vaux", "latitude": 46.4351073, "longitude": 4.9438203, "source": "osm", "_tags": {"amenity": "hospital", "emergency": "no", "healthcare": "hospital", "name": "Centre hospitalier de Pont-de-Vaux", "ref:FR:FINESS": "010000107", "source": "cadastre-dgi-fr source : Direction Générale des Impôts - Cadastre. Mise à jour : 2014", "wikidata": "Q92061581"}}, {"name": "Centre Médical Nicolas de Pontoux", "latitude": 46.7980596, "longitude": 4.8538263, "source": "osm", "_tags": {"amenity": "hospital", "healthcare": "hospital", "name": "Centre Médical Nicolas de Pontoux", "source": "cadastre-dgi-fr source : Direction Générale des Impôts - Cadastre. Mise à jour : 2014"}}, {"name": "Centre hospitalier Ain Val de Saône", "latitude": 46.2637571, "longitude": 4.890336, "source": "osm", "_tags": {"amenity": "hospital", "emergency": "no", "healthcare": "hospital", "name": "Centre hospitalier Ain Val de Saône", "ref:FR:FINESS": "010000115", "source": "cadastre-dgi-fr source : Direction Générale des Finances Publiques - Cadastre. Mise à jour : 2016", "type:FR:FINESS": "355"}}, {"name": "Centre hospitalier Ain Val de Saône", "latitude": 46.1727039, "longitude": 4.8049753, "source": "osm", "_tags": {"amenity": "hospital", "healthcare": "hospital", "name": "Centre hospitalier Ain Val de Saône", "ref:FR:FINESS": "010000131", "source": "Le ministère des solidarités et de la santé - 08/2018"}}, {"name": "Centre hospitalier d'Hauteville - Unité Albarine", "latitude": 45.9834253, "longitude": 5.6107702, "source": "osm", "_tags": {"amenity": "hospital", "name": "Centre hospitalier d'Hauteville - Unité Albarine", "ref:FR:FINESS": "010000214"}}, {"name": "Centre hospitalier d'Hauteville - Unité Espérance", "latitude": 45.976425, "longitude": 5.604532, "source": "osm", "_tags": {"addr:city": "Plateau d'Hauteville", "addr:housenumber": "101", "addr:postcode": "01110", "addr:street": "Rue du Docteur Crépin", "amenity": "hospital", "healthcare": "hospital", "name": "Centre hospitalier d'Hauteville - Unité Espérance", "ref:FR:FINESS": "010000180", "source": "Le ministère des solidarités et de la santé - 10/2018"}}, {"name": "Centre hospitalier d'Hauteville - Unité Inter", "latitude": 45.9747937, "longitude": 5.6115481, "source": "osm", "_tags": {"amenity": "hospital", "emergency": "no", "healthcare": "hospital", "name": "Centre hospitalier d'Hauteville - Unité Inter", "ref:FR:FINESS": "010000198", "wikimedia_commons": "Category:Centre Hospitalier d'Hauteville - Unité Inter (Plateau-d'Hauteville)"}}, {"name": "Hôpital Privé d’Ambérieu", "latitude": 45.9804471, "longitude": 5.3506411, "source": "osm", "_tags": {"amenity": "hospital", "emergency": "yes", "fax": "+33 4 74 38 95 29", "name": "Hôpital Privé d’Ambérieu", "operator:type": "private", "phone": "+33 4 74 38 95 95", "ref:FR:FINESS": "010780203", "source": "cadastre-dgi-fr source : Direction Générale des Impôts - Cadastre. Mise à jour : 2010", "type:FR:FINESS": "365"}}, {"name": "Polyclinique Lyon-Nord Rillieux", "latitude": 45.8211472, "longitude": 4.8870198, "source": "osm", "_tags": {"alt_name": "Clinique Lyon-Nord Rillieux", "amenity": "hospital", "emergency": "yes", "fax": "+33 4 72 01 38 14", "name": "Polyclinique Lyon-Nord Rillieux", "operator": "Groupe Vivalto Santé", "operator:type": "private", "phone": "+33 8 26 28 29 30", "ref:FR:FINESS": "690780390", "source": "Grand Lyon", "type:FR:FINESS": "365", "website": "https://www.clinique-lyon-nord.fr/", "wheelchair": "yes", "wikidata": "Q63929756"}}, {"name": "Centre hospitaliser spécialisé Saint-Cyr", "latitude": 45.8193575, "longitude": 4.8344872, "source": "osm", "_tags": {"amenity": "hospital", "fax": "+33472421985", "healthcare": "hospital", "name": "Centre hospitaliser spécialisé Saint-Cyr", "phone": "+33472421919", "ref:FR:FINESS": "690000096", "ref:FR:SIRET": "26690019000015", "source": "Le ministère des solidarités et de la santé - 03/2019", "type:FR:FINESS": "292"}}, {"name": "Centre Hospitalier de la Bresse Louhannaise", "latitude": 46.6230087, "longitude": 5.2307274, "source": "osm", "_tags": {"amenity": "hospital", "healthcare": "hospital", "name": "Centre Hospitalier de la Bresse Louhannaise", "ref:FR:FINESS": "710978156", "wikidata": "Q92062625"}}, {"name": "Centre hospitalier Jura sud", "latitude": 46.51455, "longitude": 5.6052959, "source": "osm", "_tags": {"addr:city": "Orgelet", "addr:housenumber": "4", "addr:postcode": "39270", "addr:street": "Rue des Prés Millats", "alt_name": "CH Pierre Futin", "amenity": "hospital", "barrier": "hedge", "healthcare": "hospital", "name": "Centre hospitalier Jura sud", "old_name": "Centre hospitalier intercommunal d'Orgelet", "phone": "+33 3 84 35 02 02", "ref:FR:FINESS": "390006161", "source": "cadastre-dgi-fr source : Direction Générale des Impôts - Cadastre. Mise à jour : 2013", "website": "https://hopitaux-jura.fr/ch-orgelet-arinthod-st-julien/vous-venez-en-ssr/presentation-du-ssr/"}}, {"name": "Centre hospitalier de Tournus - Romenay", "latitude": 46.5676194, "longitude": 4.8927487, "source": "osm", "_tags": {"amenity": "hospital", "emergency": "no", "fax": "+33 3 85 27 49 69", "healthcare": "hospital", "name": "Centre hospitalier de Tournus - Romenay", "operator:type": "public", "phone": "+33 3 85 27 47 67", "ref:FR:FINESS": "710978180", "type:FR:FINESS": "106", "wikidata": "Q92062366"}}, {"name": "Hôtel-Dieu", "latitude": 46.3088788, "longitude": 4.8305031, "source": "osm", "_tags": {"capacity": "71", "disused:amenity": "hospital", "healthcare": "hospital", "name": "Hôtel-Dieu", "operator": "Centre hospitalier de Mâcon", "operator:type": "public", "ref:FR:FINESS": "710973645", "type:FR:FINESS": "500", "wikidata": "Q112922679"}}, {"name": "Centre hospitalier de Belleville", "latitude": 46.1105168, "longitude": 4.7479001, "source": "osm", "_tags": {"amenity": "hospital", "healthcare": "hospital", "name": "Centre hospitalier de Belleville", "ref:FR:FINESS": "690000583", "source": "Le ministère des solidarités et de la santé - 03/2019", "wikidata": "Q92062380"}}, {"name": "", "latitude": 46.200818, "longitude": 5.2339241, "source": "osm", "_tags": {"amenity": "hospital", "healthcare": "hospital"}}, {"name": "Centre Winnicott", "latitude": 46.7641431, "longitude": 4.8321531, "source": "osm", "_tags": {"addr:housename": "1", "addr:street": "Avenue de l'Europe", "amenity": "hospital", "healthcare": "hospital", "name": "Centre Winnicott", "operator": "Centre hospitalier de Sevrey", "ref:FR:FINESS": "710015769", "type:FR:FINESS": "292"}}, {"name": "Centre Hospitalier Spécialisé de Sevrey", "latitude": 46.7438727, "longitude": 4.8335304, "source": "osm", "_tags": {"amenity": "hospital", "name": "Centre Hospitalier Spécialisé de Sevrey", "type": "site"}}]