[{"name": "Hôpital de Thizy", "latitude": 46.0292495, "longitude": 4.312775, "source": "osm", "_tags": {"addr:housenumber": "6", "addr:street": "Rue de l'Hospice", "amenity": "hospital", "name": "Hôpital de Thizy", "ref:FR:FINESS": "690000633", "source": "Le ministère des solidarités et de la santé - 03/2019", "wikidata": "Q104874593"}}, {"name": "EMERGENCY SERVICE", "latitude": 46.4647245, "longitude": 4.1085741, "source": "osm", "_tags": {"healthcare": "hospital", "healthcare:speciality": "emergency", "name": "EMERGENCY SERVICE", "name:fr": "URGENCES", "opening_hours": "24/7"}}, {"name": "Centre hospitalier de Roanne", "latitude": 46.0426487, "longitude": 4.0790163, "source": "osm", "_tags": {"addr:city": "Roanne", "addr:housenumber": "28", "addr:postcode": "42300", "addr:street": "Rue de Charlieu", "amenity": "hospital", "emergency": "yes", "fax": "+33 4 77 44 31 98", "healthcare": "hospital", "healthcare:speciality": "intensive", "name": "Centre hospitalier de Roanne", "operator:type": "public", "phone": "+33 4 77 44 30 00", "ref:FR:FINESS": "420000010", "type:FR:FINESS": "355", "website": "https://www.ch-roanne.fr/"}}, {"name": "Centre hospitalier Nord Ouest Villefranche", "latitude": 46.0049714, "longitude": 4.695272, "source": "osm", "_tags": {"amenity": "hospital", "emergency": "yes", "fax": "+33 4 74 09 25 00", "healthcare": "hospital", "healthcare:speciality": "intensive", "name": "Centre hospitalier Nord Ouest Villefranche", "operator:type": "public", "phone": "+33 4 74 09 25 03", "ref:FR:FINESS": "690000575", "type:FR:FINESS": "355", "website": "https://www.lhopitalnordouest.fr/", "wikidata": "Q3145187"}}, {"name": "Hôtel-Dieu", "latitude": 46.4304407, "longitude": 4.6604354, "source": "osm", "_tags": {"addr:city": "Cluny", "addr:postcode": "71250", "addr:street": "Place de l'Hôpital", "amenity": "hospital", "healthcare": "hospital", "name": "Hôtel-Dieu", "ref:FR:FINESS": "710978131", "source": "cadastre-dgi-fr source : Direction Générale des Impôts - Cadastre. Mise à jour : 2010", "start_date": "1703", "type:FR:FINESS": "106", "website": "http://www.ch-cluny.fr/l-hotel-dieu-et-son-apothicairerie", "wikidata": "Q92062374"}}, {"name": "Hôpital Corsin", "latitude": 46.3054406, "longitude": 4.6017127, "source": "osm", "_tags": {"amenity": "hospital", "building": "yes", "healthcare": "hospital", "name": "Hôpital Corsin", "ref:FR:FINESS": "710978198", "source": "cadastre-dgi-fr source : Direction Générale des Impôts - Cadastre ; mise à jour : 2010", "type:FR:FINESS": "106", "wikidata": "Q92063321"}}, {"name": "Hôpital du Creusot - Site Foch", "latitude": 46.8041229, "longitude": 4.4485131, "source": "osm", "_tags": {"addr:city": "Le Creusot", "addr:housenumber": "175", "addr:postcode": "71200", "addr:street": "Rue du Maréchal Foch", "alt_name": "Hôtel-Dieu", "amenity": "hospital", "emergency": "yes", "fax": "+33 3 85 77 24 30", "healthcare": "hospital", "name": "Hôpital du Creusot - Site Foch", "operator": "Groupe SOS Santé", "operator:type": "private", "phone": "+33 3 85 77 20 00", "ref:FR:FINESS": "710978347", "ref:FR:NAF": "86.10Z", "ref:FR:SIRET": "77857784100019", "start_date": "2009-01-01", "type:FR:FINESS": "365", "website": "https://www.hopital-lecreusot.com/"}}, {"name": "Hôpital du Creusot - Site Harfleur", "latitude": 46.7968638, "longitude": 4.4530196, "source": "osm", "_tags": {"amenity": "hospital", "emergency": "no", "fax": "+33 3 85 77 24 30", "name": "Hôpital du Creusot - Site Harfleur", "operator": "Groupe SOS Santé", "operator:type": "private", "phone": "+33 3 85 77 74 00", "ref:FR:FINESS": "710781154", "type:FR:FINESS": "365", "website": "https://www.hopital-lecreusot.com/"}}, {"name": "Centre hospitalier Les Marronniers", "latitude": 46.6920702, "longitude": 4.1375515, "source": "osm", "_tags": {"amenity": "hospital", "healthcare": "centre", "name": "Centre hospitalier Les Marronniers", "ref:FR:FINESS": "710978214", "source": "Le ministère des solidarités et de la santé - 10/2018", "type:FR:FINESS": "106", "wheelchair": "yes", "wikidata": "Q92063442"}}, {"name": "Hôpital de Beaujeu", "latitude": 46.1534995, "longitude": 4.5892554, "source": "osm", "_tags": {"amenity": "hospital", "emergency": "yes", "healthcare": "hospital", "name": "Hôpital de Beaujeu", "ref:FR:FINESS": "690000591", "source": "Le ministère des solidarités et de la santé - 03/2019", "wikidata": "Q92062385"}}, {"name": "Hôpital de l'Arbresle", "latitude": 45.8408025, "longitude": 4.6166112, "source": "osm", "_tags": {"amenity": "hospital", "name": "Hôpital de l'Arbresle", "ref:FR:FINESS": "690041223", "source": "Le ministère des solidarités et de la santé - 2025-07", "type:FR:FINESS": "292"}}, {"name": "Polyclinique du Beaujolais", "latitude": 46.0115538, "longitude": 4.7078581, "source": "osm", "_tags": {"amenity": "hospital", "emergency": "yes", "fax": "+33 4 74 65 66 68", "healthcare": "hospital", "name": "Polyclinique du Beaujolais", "operator": "Groupe Capio", "operator:type": "private", "phone": "+33 8 26 96 90 00", "ref:FR:FINESS": "690807367", "type:FR:FINESS": "365", "website": "https://polyclinique-beaujolais.capio.fr/"}}, {"name": "Clinique du Renaison", "latitude": 46.0334072, "longitude": 4.0524627, "source": "osm", "_tags": {"aeroway": "no", "amenity": "hospital", "emergency": "yes", "fax": "+33 4 77 44 45 45", "healthcare": "hospital", "name": "Clinique du Renaison", "operator:type": "private", "phone": "+33 8 26 46 45 00", "ref:FR:FINESS": "420782310", "type:FR:FINESS": "365", "website": "http://www.clinique-renaison.fr/"}}, {"name": "Hôpital Jean Bouveri", "latitude": 46.649008, "longitude": 4.3326406, "source": "osm", "_tags": {"addr:city": "Saint-Vallier", "addr:place": "Galuzot", "amenity": "hospital", "emergency": "yes", "fax": "+33 3 85 67 60 20", "healthcare": "hospital", "name": "Hôpital Jean Bouveri", "operator:type": "public", "phone": "+33 3 85 67 60 60", "ref:FR:FINESS": "710978313", "type:FR:FINESS": "355", "website": "https://www.ch-montceau71.fr/"}}, {"name": "Centre hospitalier de Charolles", "latitude": 46.4322047, "longitude": 4.2806149, "source": "osm", "_tags": {"addr:city": "Charolles", "addr:housenumber": "6", "addr:postcode": "71120", "addr:street": "Rue du Prieuré", "amenity": "hospital", "healthcare": "hospital", "name": "Centre hospitalier de Charolles", "ref:FR:FINESS": "710978271", "source": "Le ministère des solidarités et de la santé - 03/2019", "website": "http://www.ch-charolles.fr/"}}, {"name": "Centre médico-psychologique", "latitude": 46.0441918, "longitude": 4.0778823, "source": "osm", "_tags": {"amenity": "hospital", "healthcare": "hospital", "name": "Centre médico-psychologique", "ref:FR:FINESS": "420785255", "type:FR:FINESS": "156"}}, {"name": "Centre de Réadaptation et de Rééducation Fonctionnelles Le Bourbonnais", "latitude": 46.6166173, "longitude": 3.7662755, "source": "osm", "_tags": {"addr:city": "Bourbon-Lancy", "addr:housenumber": "7", "addr:postcode": "71140", "addr:street": "Rue de la Roche", "amenity": "hospital", "email": "bourbon.ug@ugecam.assurance-maladie.fr", "fax": "+33 3 85 89 65 00", "healthcare": "hospital", "name": "Centre de Réadaptation et de Rééducation Fonctionnelles Le Bourbonnais", "phone": "+33 3 85 89 64 00", "ref:FR:FINESS": "710781535", "ref:FR:SIRET": "42416376400071", "type:FR:FINESS": "109", "website": "http://www.ugecam-bfc.fr/etablissements/crrf-le-bourbonnais"}}, {"name": "Centre Hospitalier Fondation d'Aligre", "latitude": 46.6179686, "longitude": 3.7651421, "source": "osm", "_tags": {"addr:city": "Bourbon-Lancy", "addr:postcode": "71140", "addr:street": "Allée de l'Aligre", "amenity": "hospital", "beds": "306", "email": "direction@ch-aligre.fr", "fax": "+33385890791", "healthcare": "hospital", "name": "Centre Hospitalier Fondation d'Aligre", "phone": "+33385896060", "ref:FR:FINESS": "710978255", "ref:FR:SIRET": "26710004800011", "source": "Le ministère des solidarités et de la santé - 2021-09", "type:FR:FINESS": "355", "website": "https://etablissements.fhf.fr/annuaire/hopital-fiche.php?id_struct=1913"}}, {"name": "Centre hospitalier de Charlieu", "latitude": 46.1596055, "longitude": 4.1649049, "source": "osm", "_tags": {"amenity": "hospital", "healthcare": "hospital", "name": "Centre hospitalier de Charlieu", "ref:FR:FINESS": "420000036", "source": "Le ministère des solidarités et de la santé - 03/2019", "wikidata": "Q92063129"}}, {"name": "L’Hôpital Nord-Ouest Tarare", "latitude": 45.8893651, "longitude": 4.4386599, "source": "osm", "_tags": {"addr:housenumber": "6", "addr:street": "Boulevard Garibaldi", "amenity": "hospital", "contact:phone": "+33 4 74 05 46 46", "emergency": "yes", "fax": "+33 4 74 05 33 64", "healthcare": "hospital", "name": "L’Hôpital Nord-Ouest Tarare", "operator:type": "public", "ref:FR:FINESS": "690000625", "type:FR:FINESS": "355", "website": "https://hno.fr/hopital-de-tarare", "wikidata": "Q3145187"}}, {"name": "Hôpital du Pays Dunois", "latitude": 46.2886344, "longitude": 4.305594, "source": "osm", "_tags": {"addr:city": "La Clayette", "addr:housenumber": "19", "addr:postcode": "71800", "addr:street": "Rue de l'Hôpital", "amenity": "hospital", "beds": "102", "email": "communication@ch-laclayette.fr", "emergency": "yes", "fax": "+33 3 85 26 84 38", "healthcare": "hospital", "name": "Hôpital du Pays Dunois", "phone": "+33 3 85 28 91 10", "ref:FR:FINESS": "710978123", "source": "Observations personnelles / BDOrtho IGN 2018", "type:FR:FINESS": "106"}}, {"name": "Centre hospitalier des Charmes", "latitude": 46.4642699, "longitude": 4.1092839, "source": "osm", "_tags": {"addr:city": "Paray-le-Monial", "addr:postcode": "71600", "addr:street": "Boulevard des Charmes", "amenity": "hospital", "email": "contact@ch-paray.fr", "emergency": "yes", "fax": "+33 3 85 81 82 82", "healthcare": "hospital", "name": "Centre hospitalier des Charmes", "operator:type": "public", "phone": "+33 3 85 81 80 00", "ref:FR:FINESS": "710010067", "type:FR:FINESS": "355", "website": "https://www.ch-paray.fr/"}}, {"name": "Hôpital Nord-Ouest Grandris Haute Azergues", "latitude": 46.0430551, "longitude": 4.4775832, "source": "osm", "_tags": {"addr:city": "Grandris", "addr:postcode": "69870", "addr:street": "Rue de l'Hôpital", "amenity": "hospital", "fax": "+33474030220", "healthcare": "hospital", "name": "Hôpital Nord-Ouest Grandris Haute Azergues", "phone": "+33474030258", "ref:FR:FINESS": "690000617", "source": "Le ministère des solidarités et de la santé - 03/2019", "type:FR:FINESS": "355", "website": "http://www.hopitalgrandrisletra.fr"}}, {"name": "Centre hospitalier du Beaujolais Vert", "latitude": 46.0976833, "longitude": 4.3177621, "source": "osm", "_tags": {"amenity": "hospital", "name": "Centre hospitalier du Beaujolais Vert", "ref:FR:FINESS": "690000609", "source": "Le ministère des solidarités et de la santé - 03/2019"}}]