[{"name": "Zdravstveni dom Velenje", "latitude": 46.3618431, "longitude": 15.1161402, "source": "osm", "_tags": {"amenity": "hospital", "name": "Zdravstveni dom Velenje"}}, {"name": "Zdravstveni dom Litija", "latitude": 46.0537335, "longitude": 14.8365257, "source": "osm", "_tags": {"amenity": "hospital", "name": "Zdravstveni dom Litija"}}, {"name": "Splošna bolnišnica Celje", "latitude": 46.2338491, "longitude": 15.2613706, "source": "osm", "_tags": {"addr:city": "Celje", "addr:postcode": "3000", "addr:street": "Oblakova ulica", "amenity": "hospital", "name": "Splošna bolnišnica Celje", "toilets:wheelchair": "yes", "wheelchair": "yes"}}, {"name": "LKH Südweststeiermark, Standort Deutschlandsberg", "latitude": 46.8120796, "longitude": 15.230693, "source": "osm", "_tags": {"addr:city": "Deutschlandsberg", "addr:country": "AT", "addr:housenumber": "29", "addr:postcode": "8530", "addr:street": "Radlpaßstraße", "amenity": "hospital", "emergency": "yes", "healthcare": "hospital", "healthcare:speciality": "emergency", "name": "LKH Südweststeiermark, Standort Deutschlandsberg", "old_name": "Landeskrankenhaus Deutschlandsberg", "operator": "Steiermärkische Krankenanstaltengesellschaft m.b.H.", "operator:type": "private", "operator:wikidata": "Q15849047", "operator:wikipedia": "de:Steiermärkische Krankenanstaltengesellschaft", "phone": "+43 3462 4411 0", "short_name": "LKH Deutschlandsberg", "source": "GeoImage.at", "toilets:wheelchair": "yes", "website": "https://www.lkh-suedweststeiermark.at", "wheelchair": "yes"}}, {"name": "Zdravstveni dom Sevnica", "latitude": 46.0104764, "longitude": 15.3025188, "source": "osm", "_tags": {"addr:city": "Sevnica", "addr:country": "SI", "addr:housenumber": "14", "addr:postcode": "8290", "addr:street": "Trg svobode", "amenity": "hospital", "building": "yes", "building:levels": "3", "email": "info@zd-sevnica.si", "healthcare": "hospital", "healthcare:speciality": "general;gynaecology;physiatry;psychiatry", "name": "Zdravstveni dom Sevnica", "phone": "+38678161500", "website": "https://www.zd-sevnica.si/"}}, {"name": "Zdravstveni dom Celje", "latitude": 46.2322367, "longitude": 15.2623121, "source": "osm", "_tags": {"amenity": "hospital", "building": "yes", "name": "Zdravstveni dom Celje", "wheelchair": "yes"}}, {"name": "Splošna Bolnišnica Slovenj Gradec", "latitude": 46.50839, "longitude": 15.0815866, "source": "osm", "_tags": {"amenity": "hospital", "emergency": "yes", "healthcare": "hospital", "name": "Splošna Bolnišnica Slovenj Gradec", "wheelchair": "yes"}}, {"name": "Zdravstveni dom Moravče", "latitude": 46.1374175, "longitude": 14.7472841, "source": "osm", "_tags": {"addr:city": "Moravče", "addr:housenumber": "22", "addr:postcode": "1251", "addr:street": "Vegova ulica", "amenity": "hospital", "building": "yes", "name": "Zdravstveni dom Moravče", "ref:gurs:hs_mid": "11498337", "ref:gurs:sta_sid": "22346801", "source:addr": "GURS"}}, {"name": "Zdravstveni dom Krško", "latitude": 45.9429958, "longitude": 15.4835543, "source": "osm", "_tags": {"addr:city": "Krško", "addr:housenumber": "132c", "addr:postcode": "8270", "addr:street": "Cesta Krških žrtev", "amenity": "hospital", "building": "yes", "contact:phone": "+386 7 4880200", "emergency": "yes", "healthcare": "hospital", "name": "Zdravstveni dom Krško"}}, {"name": "Bolnišnica za otroke Šentvid pri Stični", "latitude": 45.9538689, "longitude": 14.8353717, "source": "osm", "_tags": {"addr:city": "Šentvid pri Stični", "addr:housenumber": "44", "addr:place": "Šentvid pri Stični", "addr:postcode": "1296", "amenity": "hospital", "building": "hospital", "email": "info@bos-sentvid.si", "fax": "38617887470", "healthcare": "hospital", "healthcare:speciality": "paediatrics", "name": "Bolnišnica za otroke Šentvid pri Stični", "phone": "+38617887450", "website": "https://www.bos-sentvid.si/"}}, {"name": "", "latitude": 46.1535361, "longitude": 15.0471599, "source": "osm", "_tags": {"amenity": "hospital", "healthcare": "hospital"}}, {"name": "Zdravstveni dom Ivančna Gorica", "latitude": 45.9376675, "longitude": 14.8057886, "source": "osm", "_tags": {"amenity": "hospital", "healthcare": "hospital", "name": "Zdravstveni dom Ivančna Gorica"}}]