[{"name": "", "latitude": 46.3014623, "longitude": 10.809961, "source": "osm", "_tags": {"amenity": "hospital"}}, {"name": "Istituto Ortopedico Elioterapico", "latitude": 45.8805961, "longitude": 11.4378456, "source": "osm", "_tags": {"amenity": "hospital", "name": "Istituto Ortopedico Elioterapico"}}, {"name": "Spital Sarnthein", "latitude": 46.6422599, "longitude": 11.3560954, "source": "osm", "_tags": {"amenity": "hospital", "healthcare": "hospital", "name": "Spital Sarnthein"}}, {"name": "Guardia Medica", "latitude": 46.1874416, "longitude": 11.2585751, "source": "osm", "_tags": {"addr:city": "Scancio", "amenity": "hospital", "emergency": "no", "name": "Guardia Medica"}}, {"name": "Guardia Medica", "latitude": 46.2747699, "longitude": 11.0490774, "source": "osm", "_tags": {"addr:city": "Denno", "addr:postcode": "38010", "amenity": "hospital", "emergency": "no", "name": "Guardia Medica"}}, {"name": "Guardia Medica", "latitude": 45.8511471, "longitude": 10.9813247, "source": "osm", "_tags": {"addr:city": "Mori", "amenity": "hospital", "emergency": "no", "healthcare": "hospital", "name": "Guardia Medica"}}, {"name": "Guardia Medica", "latitude": 46.3203409, "longitude": 11.0661113, "source": "osm", "_tags": {"addr:city": "Taio", "amenity": "hospital", "emergency": "no", "name": "Guardia Medica"}}, {"name": "Ospedale Civile - ULSS 7 Pedemontana", "latitude": 45.8621074, "longitude": 11.5226356, "source": "osm", "_tags": {"addr:city": "Asiago", "addr:housenumber": "42", "addr:postcode": "36012", "addr:street": "Via Martiri di Granezza", "alt_name": "Ospedale di Asiago", "amenity": "hospital", "check_date": "2025-06-03", "contact:phone": "+39 0424 604111", "contact:website": "https://www.aulss7.veneto.it/ospedale-di-asiago", "healthcare": "hospital", "name": "Ospedale Civile - ULSS 7 Pedemontana", "operator": "ULSS 7 Pedemontana"}}, {"name": "Guardia Medica e Punto Prelievi", "latitude": 46.16377, "longitude": 11.0032233, "source": "osm", "_tags": {"addr:city": "Andalo", "addr:housenumber": "3", "addr:postcode": "38010", "addr:street": "Piazzale Paganella", "amenity": "hospital", "healthcare": "hospital", "name": "Guardia Medica e Punto Prelievi"}}, {"name": "Casa della Salute Raphael", "latitude": 46.0502479, "longitude": 11.4094525, "source": "osm", "_tags": {"amenity": "hospital", "healthcare": "hospital", "name": "Casa della Salute Raphael"}}, {"name": "Centro di Riabilitazione Villa San Pietro", "latitude": 45.9156576, "longitude": 10.8903326, "source": "osm", "_tags": {"addr:city": "Arco", "addr:housenumber": "6", "addr:postcode": "38062", "addr:street": "Via Paolo Leonardi", "amenity": "hospital", "email": "villasanpietro@codess.org", "emergency": "no", "healthcare": "hospital", "name": "Centro di Riabilitazione Villa San Pietro", "phone": "+39 0464 516789", "website": "https://www.villasanpietro.org/"}}, {"name": "Ambulatorium", "latitude": 46.5502272, "longitude": 11.0060915, "source": "osm", "_tags": {"amenity": "hospital", "healthcare": "hospital", "name": "Ambulatorium"}}, {"name": "Gesundheitssprengel Kardaun - Azienda Sanitaria Comprensorio Salto-Sciliar", "latitude": 46.4948, "longitude": 11.3903333, "source": "osm", "_tags": {"amenity": "hospital", "healthcare": "hospital", "name": "Gesundheitssprengel Kardaun - Azienda Sanitaria Comprensorio Salto-Sciliar", "name:de": "Gesundheitssprengel Kardaun", "name:it": "Azienda Sanitaria Comprensorio Salto-Sciliar", "operator": "ASL", "operator:wikidata": "Q3631467"}}, {"name": "Ambulatorium", "latitude": 46.5486943, "longitude": 11.0033788, "source": "osm", "_tags": {"amenity": "hospital", "healthcare": "hospital", "name": "Ambulatorium"}}, {"name": "Ospedale di Bolzano - Krankenhaus Bozen", "latitude": 46.4984112, "longitude": 11.310759, "source": "osm", "_tags": {"amenity": "hospital", "emergency": "yes", "healthcare": "hospital", "name": "Ospedale di Bolzano - Krankenhaus Bozen", "name:de": "Krankenhaus Bozen", "name:it": "Ospedale di Bolzano", "operator": "Südtiroler Sanitätsbetriebe", "operator:type": "public", "operator:wikidata": "Q16294907", "phone": "+39 0471 908111", "website": "https://www.asdaa.it/it/osp-bolzano.asp", "website:de": "https://www.sabes.it/de/krankenhaus-bozen", "wikidata": "Q2138395"}}, {"name": "Villa Igea", "latitude": 46.0617369, "longitude": 11.1280866, "source": "osm", "_tags": {"addr:housenumber": "6", "addr:postcode": "38122", "addr:street": "Via Malta", "alt_name": "Presidio ospedaliero Villa Igea", "amenity": "hospital", "building": "hospital", "emergency": "no", "healthcare": "hospital", "name": "Villa Igea", "operator": "Azienda Provinciale per i Servizi Sanitari", "operator:wikidata": "Q114902510", "phone": "+39 0461 903111", "website": "https://www.apss.tn.it/Azienda/Luoghi/Presidio-ospedaliero-Villa-Igea", "wikidata": "Q120032575"}}, {"name": "San Camillo", "latitude": 46.0650211, "longitude": 11.1320498, "source": "osm", "_tags": {"addr:housenumber": "19", "addr:postcode": "38122", "addr:street": "Via Benedetto Giovanelli", "amenity": "hospital", "building": "yes", "check_date": "2025-05-17", "contact:phone": "+39 0461 216111", "emergency": "no", "healthcare": "hospital", "name": "San Camillo", "operator": "Istituto figlie di San Camillo", "operator:type": "religious", "website": "https://www.figliedisancamillo.it/trento/ospedale-san-camillo/", "wheelchair": "yes"}}, {"name": "Casa di Cura \"Villa Bianca\"", "latitude": 46.0625766, "longitude": 11.1267243, "source": "osm", "_tags": {"addr:housenumber": "78", "addr:postcode": "38122", "addr:street": "Via Piave", "amenity": "hospital", "building": "yes", "contact:fax": "+39 0461 916874", "contact:phone": "+39 0461 916000", "emergency": "no", "healthcare": "hospital", "name": "Casa di Cura \"Villa Bianca\"", "operator:type": "private", "website": "https://www.villabiancatrento.it/", "wikidata": "Q30281055"}}, {"name": "Casa di cura Eremo", "latitude": 45.9193805, "longitude": 10.8702956, "source": "osm", "_tags": {"amenity": "hospital", "building": "yes", "healthcare": "hospital", "name": "Casa di cura Eremo"}}, {"name": "Croce Rossa e Guardia Medica", "latitude": 45.9170096, "longitude": 11.1671318, "source": "osm", "_tags": {"amenity": "hospital", "building": "hospital", "building:levels": "4", "name": "Croce Rossa e Guardia Medica", "source": "PCN ortofoto_colore 2006 - autorizzazione 10687/TRI"}}, {"name": "Franz-Tappeiner-Krankenhaus - Ospedale Franz Tappeiner", "latitude": 46.676957, "longitude": 11.1521831, "source": "osm", "_tags": {"amenity": "hospital", "emergency": "yes", "healthcare": "hospital", "name": "Franz-Tappeiner-Krankenhaus - Ospedale Franz Tappeiner", "name:de": "Franz-Tappeiner-Krankenhaus", "name:it": "Ospedale Franz Tappeiner", "operator": "Azienda Sanitaria Alto Adige - Südtiroler Sanitätsbetrieb", "operator:type": "public", "operator:wikidata": "Q16294907", "phone": "+39 0473 263333", "website": "https://www.asdaa.it/it/osp-merano.asp", "wheelchair": "yes", "wikidata": "Q30270038"}}, {"name": "Ambulatori Medico e Guardia Medica", "latitude": 45.9757561, "longitude": 11.0925788, "source": "osm", "_tags": {"addr:city": "Aldeno", "addr:housenumber": "1", "addr:postcode": "38060", "addr:street": "Via Florida", "amenity": "hospital", "emergency": "yes", "healthcare": "hospital", "name": "Ambulatori Medico e Guardia Medica", "operator": "APSS Trento", "wheelchair": "yes"}}, {"name": "Croce bianca Fai della Paganella", "latitude": 46.1781759, "longitude": 11.0709429, "source": "osm", "_tags": {"amenity": "hospital", "name": "Croce bianca Fai della Paganella"}}, {"name": "Bezirkskrankenhaus Schlanders - Ospedale di distretto Silandro", "latitude": 46.6290074, "longitude": 10.7783469, "source": "osm", "_tags": {"addr:city": "Schlanders", "addr:housenumber": "3", "addr:postcode": "39028", "addr:street": "Krankenhausstraße", "amenity": "hospital", "building": "yes", "building:levels": "7", "check_date": "2024-05-09", "emergency": "yes", "healthcare": "hospital", "name": "Bezirkskrankenhaus Schlanders - Ospedale di distretto Silandro", "name:de": "Bezirkskrankenhaus Schlanders", "name:it": "Ospedale di distretto Silandro", "operator:wikidata": "Q16294907", "source": "bing", "wikidata": "Q53734597"}}, {"name": "Santa Chiara", "latitude": 46.0563229, "longitude": 11.1332908, "source": "osm", "_tags": {"addr:housenumber": "9", "addr:street": "Largo Medaglie d'Oro", "alt_name": "Presidio Ospedaliero Santa Chiara", "amenity": "hospital", "barrier": "fence", "emergency": "yes", "fence_type": "bars", "healthcare": "hospital", "importance": "regional", "name": "Santa Chiara", "operator": "Azienda Provinciale per i Servizi Sanitari", "operator:wikidata": "Q114902510", "phone": "+39 0461 903111", "website": "https://www.apss.tn.it/Azienda/Luoghi/Ospedale-Santa-Chiara-di-Trento", "wikidata": "Q54554839", "wikipedia": "it:Presidio Ospedaliero Santa Chiara di Trento"}}, {"name": "Krankenhaus Brixen - Ospedale Bressanone", "latitude": 46.7238727, "longitude": 11.64795, "source": "osm", "_tags": {"amenity": "hospital", "emergency": "yes", "name": "Krankenhaus Brixen - Ospedale Bressanone", "name:de": "Krankenhaus Brixen", "name:it": "Ospedale Bressanone", "operator:wikidata": "Q16294907", "wheelchair": "yes", "wikidata": "Q30270035"}}, {"name": "Ospedale Valli del Noce", "latitude": 46.3608615, "longitude": 11.0327172, "source": "osm", "_tags": {"addr:city": "Cles", "addr:country": "IT", "addr:housenumber": "31", "addr:postcode": "38023", "addr:street": "Viale Alcide De Gasperi", "amenity": "hospital", "emergency": "yes", "healthcare": "hospital", "name": "Ospedale Valli del Noce", "operator": "Azienda Provinciale per i Servizi Sanitari", "operator:wikidata": "Q114902510", "website": "https://www.apss.tn.it/Azienda/Luoghi/Ospedale-Valli-del-noce-di-Cles", "wikidata": "Q111665289"}}, {"name": "Le Palme", "latitude": 45.9192521, "longitude": 10.8837391, "source": "osm", "_tags": {"addr:housenumber": "1", "addr:street": "Largo Arciduca Alberto d'Asburgo", "amenity": "hospital", "healthcare": "hospital", "name": "Le Palme", "wheelchair": "yes"}}, {"name": "Ospedale di Arco", "latitude": 45.9196657, "longitude": 10.8745067, "source": "osm", "_tags": {"addr:city": "Arco", "addr:housenumber": "48", "addr:postcode": "38062", "addr:street": "Viale dei Capitelli", "amenity": "hospital", "emergency": "yes", "healthcare": "hospital", "name": "Ospedale di Arco", "operator": "Azienda Provinciale per i Servizi Sanitari", "operator:wikidata": "Q114902510", "phone": "+39 0464 582222", "website": "https://www.apss.tn.it/Azienda/Luoghi/Ospedale-di-Arco", "wikidata": "Q55093684"}}, {"name": "Regina", "latitude": 45.9169437, "longitude": 10.8875084, "source": "osm", "_tags": {"amenity": "hospital", "healthcare": "hospital", "name": "Regina"}}, {"name": "", "latitude": 45.9194093, "longitude": 10.8703904, "source": "osm", "_tags": {"amenity": "hospital", "emergency": "no", "healthcare": "hospital", "wheelchair": "yes"}}, {"name": "San Pancrazio", "latitude": 45.9153041, "longitude": 10.879615, "source": "osm", "_tags": {"amenity": "hospital", "check_date": "2025-09-18", "healthcare": "hospital", "name": "San Pancrazio"}}, {"name": "Ospedale di Fiemme", "latitude": 46.2884945, "longitude": 11.4552307, "source": "osm", "_tags": {"addr:city": "Cavalese", "addr:housenumber": "21", "addr:postcode": "38033", "addr:street": "Via dei Dossi", "alt_name": "Ospedale di Cavalese", "amenity": "hospital", "emergency": "yes", "healthcare": "hospital", "name": "Ospedale di Fiemme", "operator": "Azienda Provinciale per i Servizi Sanitari", "operator:wikidata": "Q114902510", "phone": "+39 0462 242111", "website": "https://www.apss.tn.it/Azienda/Luoghi/Ospedale-di-Cavalese"}}, {"name": "Ospedale Riabilitativo Villa Rosa", "latitude": 46.0645264, "longitude": 11.2489497, "source": "osm", "_tags": {"addr:city": "Pergine Valsugana", "addr:housenumber": "84", "addr:postcode": "38057", "addr:street": "Via Spolverine", "amenity": "hospital", "contact:phone": "+39 0461 501500", "contact:website": "https://www.apss.tn.it/Azienda/Luoghi/Struttura-semplice-riabilitazione-cardiologica-Villa-Rosa", "emergency": "no", "healthcare": "hospital", "name": "Ospedale Riabilitativo Villa Rosa", "operator": "Azienda Provinciale per i Servizi Sanitari", "operator:wikidata": "Q114902510"}}, {"name": "", "latitude": 45.9154746, "longitude": 10.8904421, "source": "osm", "_tags": {"amenity": "hospital", "healthcare": "hospital"}}, {"name": "Centro di Protonterapia", "latitude": 46.0493446, "longitude": 11.1156938, "source": "osm", "_tags": {"addr:housenumber": "14", "addr:postcode": "38122", "addr:street": "Via al Desert", "amenity": "hospital", "emergency": "no", "healthcare": "hospital", "healthcare:speciality": "nuclear", "name": "Centro di Protonterapia", "name:en": "Proton Therapy Center Trento", "operator": "Azienda Provinciale per i Servizi Sanitari", "operator:wikidata": "Q114902510", "particle_accelerator": "circular", "phone": "+39 0461 1953100", "substance": "proton", "website": "https://protonterapia.provincia.tn.it/", "wikidata": "Q65010366"}}, {"name": "Ospedale Santa Maria del Carmine", "latitude": 45.8820855, "longitude": 11.0417814, "source": "osm", "_tags": {"addr:city": "Rovereto", "addr:housenumber": "4", "addr:postcode": "38068", "addr:street": "Corso Verona", "amenity": "hospital", "contact:fax": "+39 0464 403573", "contact:phone": "+39 0464 403111", "email": "urp@apss.tn.it", "emergency": "yes", "healthcare": "hospital", "name": "Ospedale Santa Maria del Carmine", "operator": "Azienda Provinciale per i Servizi Sanitari", "operator:wikidata": "Q114902510", "type": "multipolygon", "website": "https://www.apss.tn.it/Azienda/Luoghi/Ospedale-Santa-Maria-del-Carmine-di-Rovereto", "wikidata": "Q51472110"}}, {"name": "Ospedale San Lorenzo", "latitude": 46.0569877, "longitude": 11.4639841, "source": "osm", "_tags": {"addr:city": "Borgo Valsugana", "addr:housenumber": "9", "addr:postcode": "38051", "addr:street": "Corso Vicenza", "amenity": "hospital", "emergency": "yes", "healthcare": "hospital", "name": "Ospedale San Lorenzo", "operator": "Azienda Provinciale per i Servizi Sanitari", "operator:wikidata": "Q114902510", "phone": "+39 0461 755111", "type": "multipolygon", "website": "https://www.apss.tn.it/Azienda/Luoghi/Ospedale-San-Lorenzo-di-Borgo-Valsugana", "wikidata": "Q120032570"}}, {"name": "A.S.L.", "latitude": 46.0628518, "longitude": 11.2446902, "source": "osm", "_tags": {"amenity": "hospital", "building": "yes", "healthcare": "hospital", "name": "A.S.L.", "operator": "ASL", "operator:wikidata": "Q3631467", "type": "multipolygon"}}]