[{"name": "Landeskrankenhaus Murtal, Standort Stolzalpe Haus 2", "latitude": 47.1206241, "longitude": 14.1937758, "source": "osm", "_tags": {"addr:city": "Stolzalpe", "addr:country": "AT", "addr:housenumber": "38", "addr:place": "Stolzalpe", "addr:postcode": "8852", "amenity": "hospital", "building": "yes", "healthcare": "hospital", "heritage": "2", "heritage:operator": "bda", "name": "Landeskrankenhaus Murtal, Standort Stolzalpe Haus 2", "operator": "Steiermärkische Krankenanstaltengesellschaft m.b.H.", "operator:type": "private", "operator:wikidata": "Q15849047", "phone": "+43 3532 2424 0", "ref:at:bda": "117834", "source": "geoimage.at", "website": "https://www.lkh-murtal.at/", "wheelchair": "yes", "wikidata": "Q37788165"}}, {"name": "LKH Rottenmann", "latitude": 47.5252873, "longitude": 14.3671184, "source": "osm", "_tags": {"addr:city": "Rottenmann", "addr:country": "AT", "addr:housenumber": "2-4", "addr:place": "Sankt Georgen", "addr:postcode": "8786", "amenity": "hospital", "at_bev:addr_date": "2016-10-02", "building": "hospital", "building:levels": "4", "emergency": "yes", "healthcare": "hospital", "healthcare:speciality": "general", "name": "LKH Rottenmann", "source": "geoimage.at", "wheelchair": "yes"}}, {"name": "Landeskrankenhaus Rottenmann-Bad Aussee, Standort Rottenmann", "latitude": 47.5247349, "longitude": 14.3685137, "source": "osm", "_tags": {"addr:city": "Rottenmann", "addr:country": "AT", "addr:housenumber": "2-4", "addr:postcode": "8786", "addr:street": "Sankt Georgen", "amenity": "hospital", "emergency": "yes", "healthcare": "hospital", "healthcare:speciality": "emergency", "name": "Landeskrankenhaus Rottenmann-Bad Aussee, Standort Rottenmann", "operator": "Steiermärkische Krankenanstaltengesellschaft m.b.H.", "operator:type": "private", "operator:wikidata": "Q15849047", "operator:wikipedia": "de:Steiermärkische Krankenanstaltengesellschaft", "phone": "+43 3614 2431 0", "short_name": "LKH Rottenmann", "toilets:wheelchair": "yes", "website": "https://www.lkh-rottenmann.at/", "wheelchair": "yes"}}, {"name": "Landeskrankenhaus Murtal, Standort Judenburg", "latitude": 47.1660657, "longitude": 14.6555788, "source": "osm", "_tags": {"addr:city": "Judenburg", "addr:country": "AT", "addr:housenumber": "18", "addr:postcode": "8750", "addr:street": "Oberweggasse", "amenity": "hospital", "contact:phone": "+43 3572 82560 0", "emergency": "yes", "healthcare": "hospital", "healthcare:speciality": "emergency", "name": "Landeskrankenhaus Murtal, Standort Judenburg", "operator": "Steiermärkische Krankenanstaltengesellschaft m.b.H.", "operator:type": "government", "operator:wikidata": "Q15849047", "short_name": "LKH Judenburg", "source": "GeoImage.at High-Res", "website": "https://www.lkh-murtal.at", "wheelchair": "yes"}}, {"name": "Landesklinik Tamsweg", "latitude": 47.129165, "longitude": 13.8093774, "source": "osm", "_tags": {"addr:city": "Tamsweg", "addr:country": "AT", "addr:housenumber": "7", "addr:postcode": "5580", "addr:street": "Bahnhofstraße", "amenity": "hospital", "at_bev:addr_date": "2018-04-02", "building": "yes", "emergency": "yes", "healthcare": "hospital", "healthcare:speciality": "emergency", "layer": "1", "name": "Landesklinik Tamsweg", "operator": "Salzburger Landeskliniken - Universitätsklinikum Salzburg", "wheelchair": "yes"}}, {"name": "Landeskrankenhaus Rottenmann-Bad Aussee, Standort Bad Aussee", "latitude": 47.6066301, "longitude": 13.7743263, "source": "osm", "_tags": {"addr:city": "Lerchenreith", "addr:country": "AT", "addr:housenumber": "396", "addr:postcode": "8990", "addr:street": "Sommersbergseestraße", "amenity": "hospital", "at_bev:addr_date": "2018-10-01", "building": "yes", "emergency": "yes", "healthcare": "hospital", "healthcare:speciality": "emergency", "name": "Landeskrankenhaus Rottenmann-Bad Aussee, Standort Bad Aussee", "operator": "Steiermärkische Krankenanstaltengesellschaft m.b.H.", "operator:type": "government", "operator:wikidata": "Q15849047", "short_name": "LKH Bad Aussee"}}, {"name": "Landeskrankenhaus Murtal, Standort Stolzalpe", "latitude": 47.1186163, "longitude": 14.1885041, "source": "osm", "_tags": {"addr:city": "Stolzalpe", "addr:country": "AT", "addr:housenumber": "38", "addr:postcode": "8852", "addr:street": "Stolzalpenstraße", "amenity": "hospital", "building": "yes", "emergency": "yes", "healthcare": "hospital", "healthcare:speciality": "emergency", "name": "Landeskrankenhaus Murtal, Standort Stolzalpe", "operator": "Steiermärkische Krankenanstaltengesellschaft m.b.H.", "operator:type": "private", "operator:wikidata": "Q15849047", "phone": "+43 3532 2424 0", "short_name": "LKH Stolzalpe", "source": "geoimage.at", "website": "https://www.lkh-murtal.at/", "wheelchair": "yes", "wikidata": "Q125578870"}}, {"name": "Krankenhaus des Deutschen Ordens Friesach", "latitude": 46.9466295, "longitude": 14.4103425, "source": "osm", "_tags": {"addr:city": "Friesach", "addr:housenumber": "12", "addr:postcode": "9360", "addr:street": "St.Veiter Straße", "amenity": "hospital", "emergency": "yes", "healthcare": "hospital", "healthcare:speciality": "emergency", "name": "Krankenhaus des Deutschen Ordens Friesach", "operator": "A.ö. Krankenhaus des Deutschen Ordens Friesach GmbH", "operator:type": "private_non_profit", "website": "https://www.dokh.at/"}}, {"name": "Landeskrankenhaus Judenburg-Knittelfeld", "latitude": 47.1909487, "longitude": 14.7381077, "source": "osm", "_tags": {"amenity": "hospital", "healthcare": "hospital", "name": "Landeskrankenhaus Judenburg-Knittelfeld", "operator": "Steiermärkische Krankenanstaltengesellschaft m.b.H.", "operator:wikidata": "Q15849047", "operator:wikipedia": "de:Steiermärkische Krankenanstaltengesellschaft", "type": "site", "website": "https://www.lkh-judenburg.at/"}}, {"name": "Landeskrankenhaus Rottenmann-Bad Aussee", "latitude": 47.5247349, "longitude": 14.3685137, "source": "osm", "_tags": {"amenity": "hospital", "healthcare": "hospital", "name": "Landeskrankenhaus Rottenmann-Bad Aussee", "operator": "Steiermärkische Krankenanstaltengesellschaft m.b.H.", "operator:type": "private", "operator:wikidata": "Q15849047", "operator:wikipedia": "de:Steiermärkische Krankenanstaltengesellschaft", "type": "site", "website": "https://www.lkh-rottenmann.at/"}}]