[{"name": "Fachklinik Lindenberg-Ried", "latitude": 47.5891154, "longitude": 9.8845632, "source": "osm", "_tags": {"amenity": "hospital", "emergency": "no", "healthcare": "hospital", "name": "Fachklinik Lindenberg-Ried"}}, {"name": "Fachklinik für Othopädie und Rheumatologie", "latitude": 47.4237644, "longitude": 10.2530977, "source": "osm", "_tags": {"amenity": "hospital", "check_date": "2024-09-12", "name": "Fachklinik für Othopädie und Rheumatologie", "source": "survey"}}, {"name": "Hochgrat Klinik", "latitude": 47.5816525, "longitude": 10.0084155, "source": "osm", "_tags": {"amenity": "hospital", "contact:email": "info@hochgrat-klinik.de", "contact:phone": "+49 8386 96220", "contact:website": "http://www.dr-reisach-kliniken.de/hochgrat-klinik.html", "emergency": "no", "healthcare": "hospital", "healthcare:speciality": "psychotherapie", "name": "Hochgrat Klinik", "toilets:wheelchair": "no", "wheelchair": "limited"}}, {"name": "Krankenhaus Dornbirn", "latitude": 47.4062965, "longitude": 9.7402125, "source": "osm", "_tags": {"addr:city": "Dornbirn", "addr:country": "AT", "addr:housenumber": "4", "addr:postcode": "6850", "addr:street": "Lustenauerstraße", "amenity": "hospital", "email": "verwaltung.kh@dornbirn.at", "fax": "+43 5572 303 109", "healthcare": "hospital", "healthcare:speciality": "internal;orthopaedics;trauma;radiology;anaesthetics;gynaecology;general;emergency", "name": "Krankenhaus Dornbirn", "operator": "Stadt Dornbirn", "phone": "+43 5572 303 0", "source": "http://krankenhaus.dornbirn.at/", "website": "http://krankenhaus.dornbirn.at/", "wheelchair": "yes", "wikidata": "Q1786528", "wikipedia": "de:Krankenhaus Dornbirn"}}, {"name": "Klinik Schwabenland", "latitude": 47.7096632, "longitude": 10.0347099, "source": "osm", "_tags": {"addr:city": "Isny im Allgäu", "addr:country": "DE", "addr:housenumber": "5", "addr:postcode": "88316", "addr:street": "Waldburgallee", "addr:suburb": "Neutrauchburg", "amenity": "hospital", "healthcare": "hospital", "healthcare:speciality": "internal", "name": "Klinik Schwabenland", "source": "Datenübernahme von Gebäude-Teil;Homepage", "website": "https://www.klinik-schwabenland.de/", "wheelchair": "yes"}}, {"name": "Zahnarzt Andreas Schmid", "latitude": 47.7845949, "longitude": 10.6166917, "source": "osm", "_tags": {"amenity": "hospital", "healthcare": "hospital", "healthcare:speciality": "dentist", "name": "Zahnarzt Andreas Schmid", "operator": "Dr. Manfred Schmid"}}, {"name": "Hochgebirgsklinik Mittelberg", "latitude": 47.6354698, "longitude": 10.4216733, "source": "osm", "_tags": {"addr:city": "Oy-Mittelberg", "addr:country": "DE", "addr:housename": "Hochgebirgsklinik Mittelberg", "addr:housenumber": "45", "addr:postcode": "87466", "addr:street": "Alois-Wagner-Straße", "addr:suburb": "Mittelberg", "amenity": "hospital", "email": "info@hochgebirgs-klinik.de", "healthcare": "hospital", "healthcare:speciality": "paediatrics;child_psychiatry;physiatry", "name": "Hochgebirgsklinik Mittelberg", "phone": "+49 8366 9800", "toilets:wheelchair": "yes", "website": "https://www.hochgebirgs-klinik.de/", "wheelchair": "yes"}}, {"name": "Klinik Füssen", "latitude": 47.5668266, "longitude": 10.7045526, "source": "osm", "_tags": {"addr:city": "Füssen", "addr:country": "DE", "addr:housenumber": "1", "addr:postcode": "87629", "addr:street": "Stadtbleiche", "amenity": "hospital", "email": "info.fuessen@kliniken-oal-kf.de", "fax": "+49 8362 500-113", "healthcare": "hospital", "name": "Klinik Füssen", "operator": "Kliniken Ostallgäu-Kaufbeuren", "phone": "+49 8362 500-0", "website": "https://www.kliniken-oal-kf.de/kliniken/klinik-fuessen", "wikidata": "Q130424747", "wikipedia": "de:Klinik Füssen"}}, {"name": "Hochgebirgsklinik Davos", "latitude": 46.8286753, "longitude": 9.8558114, "source": "osm", "_tags": {"addr:city": "Davos Wolfgang", "addr:housenumber": "1", "addr:postcode": "7265", "addr:street": "Herman-Burchard-Strasse", "alt_name": "Rehaklinik Davos Wolfgang", "amenity": "hospital", "emergency": "no", "healthcare": "hospital", "healthcare:speciality": "pulmonology;allergology;psychosomatik;paediatrics;dermatology;cardiology", "name": "Hochgebirgsklinik Davos", "operator": "Hochgebirgsklinik Davos AG", "website": "https://hochgebirgsklinik.ch/", "wheelchair": "yes", "wikidata": "Q1621810", "wikipedia": "de:Hochgebirgsklinik Davos"}}, {"name": "St. Vinzenz Klinik", "latitude": 47.5843258, "longitude": 10.5560213, "source": "osm", "_tags": {"addr:city": "Pfronten", "addr:country": "DE", "addr:housenumber": "15", "addr:postcode": "87459", "addr:street": "Kirchenweg", "addr:suburb": "Ried", "amenity": "hospital", "emergency": "yes", "healthcare": "hospital", "healthcare:speciality": "surgery;internal;radiology;geriatrics;anaesthetics", "name": "St. Vinzenz Klinik", "opening_hours": "24/7", "operator": "St. Vinzenz Klinik Pfronten im Allgäu GmbH", "operator:type": "corporation", "website": "https://www.vinzenz-klinik.de/", "wheelchair": "yes", "wikidata": "Q50038888"}}, {"name": "Reha-Klinik Sonthofen", "latitude": 47.5085377, "longitude": 10.2777794, "source": "osm", "_tags": {"amenity": "hospital", "check_date": "2024-07-13", "emergency": "no", "healthcare": "hospital", "healthcare:speciality": "internal", "name": "Reha-Klinik Sonthofen", "operator": "Klinikverbund Kempten Oberallgäu"}}, {"name": "Bezirkskrankenhaus Reutte", "latitude": 47.4735749, "longitude": 10.7124447, "source": "osm", "_tags": {"addr:city": "Ehenbichl", "addr:housenumber": "39", "addr:postcode": "6600", "addr:street": "Krankenhausstraße", "amenity": "hospital", "healthcare": "hospital", "healthcare:speciality": "emergency;trauma", "name": "Bezirkskrankenhaus Reutte", "official_name": "Allgemein öffentliches Bezirkskrankenhaus Reutte", "short_name": "Krankenhaus Reutte", "website": "https://www.bkh-reutte.at/", "wikidata": "Q106824954"}}, {"name": "Josefinum KJF Fachklinik", "latitude": 47.7261557, "longitude": 10.2987142, "source": "osm", "_tags": {"addr:city": "Kempten (Allgäu)", "addr:country": "DE", "addr:housenumber": "40", "addr:postcode": "87439", "addr:street": "Haubensteigweg", "amenity": "hospital", "healthcare": "hospital", "name": "Josefinum KJF Fachklinik", "operator": "Katholische Jugendfürsorge", "wheelchair": "yes"}}, {"name": "Klinikum Kempten-Oberallgäu", "latitude": 47.7324861, "longitude": 10.3025829, "source": "osm", "_tags": {"amenity": "hospital", "emergency": "yes", "healthcare": "hospital", "name": "Klinikum Kempten-Oberallgäu", "website": "https://www.klinikum-kempten.de/", "wheelchair": "yes", "wikidata": "Q12342348"}}, {"name": "", "latitude": 47.3261426, "longitude": 9.9771178, "source": "osm", "_tags": {"amenity": "hospital", "building": "hospital", "healthcare": "hospital", "source": "geoimage.at"}}, {"name": "Stillachhaus", "latitude": 47.4070258, "longitude": 10.2585415, "source": "osm", "_tags": {"addr:city": "Oberstdorf", "addr:country": "DE", "addr:housenumber": "15", "addr:postcode": "87561", "addr:street": "Alte Walserstraße", "building": "hospital", "building:levels": "4", "contact:email": "info@stillachhaus.de", "healthcare": "hospital", "healthcare:speciality": "psychiatry", "name": "Stillachhaus", "operator": "CuraMed Kliniken GmbH", "operator:type": "business", "operator:website": "https://www.curamed-kliniken.de/", "website": "https://www.stillachhaus.de", "wikidata": "Q116446129"}}, {"name": "Argentalklinik 1", "latitude": 47.7094653, "longitude": 10.025604, "source": "osm", "_tags": {"amenity": "hospital", "healthcare": "hospital", "name": "Argentalklinik 1"}}, {"name": "Argentalklinik 2", "latitude": 47.7078788, "longitude": 10.0232845, "source": "osm", "_tags": {"amenity": "hospital", "healthcare": "hospital", "name": "Argentalklinik 2"}}, {"name": "Kliniken Oberallgäu", "latitude": 47.562394, "longitude": 10.2286366, "source": "osm", "_tags": {"amenity": "hospital", "healthcare": "hospital", "name": "Kliniken Oberallgäu"}}, {"name": "Landeskrankenhaus Bludenz", "latitude": 47.1596454, "longitude": 9.8207834, "source": "osm", "_tags": {"addr:city": "Bludenz", "addr:country": "AT", "addr:housenumber": "13", "addr:postcode": "6700", "addr:street": "Spitalgasse", "amenity": "hospital", "building": "yes", "healthcare": "hospital", "healthcare:speciality": "emergency", "name": "Landeskrankenhaus Bludenz", "wheelchair": "yes", "wikidata": "Q1802320", "wikipedia": "de:Landeskrankenhaus Bludenz"}}, {"name": "Rehaklinik Überruh", "latitude": 47.6811828, "longitude": 10.1101691, "source": "osm", "_tags": {"addr:city": "Isny im Allgäu", "addr:housenumber": "4", "addr:place": "Überruh", "addr:postcode": "88316", "addr:suburb": "Bolsternang", "amenity": "hospital", "building": "hospital", "healthcare": "hospital", "name": "Rehaklinik Überruh", "source": "Maps4BW (LGL-BW, www.lgl-bw.de) 10.2020; Bing 2020", "website": "https://www.rehaklinik-ueberruh.de/"}}, {"name": "Adula Klinik", "latitude": 47.4149784, "longitude": 10.2608633, "source": "osm", "_tags": {"addr:city": "Oberstdorf", "addr:country": "DE", "addr:housenumber": "6", "addr:postcode": "87561", "addr:street": "In der Leite", "amenity": "hospital", "healthcare": "hospital", "name": "Adula Klinik", "website": "https://www.dr-reisach-kliniken.de/adula-klinik.html", "wikidata": "Q124220499", "wikipedia": "de:Adula-Klinik"}}, {"name": "Fachklinik St. Marien", "latitude": 47.6039515, "longitude": 10.4057852, "source": "osm", "_tags": {"amenity": "hospital", "contact:email": "info@haus-st-marien.de/", "contact:fax": "+49 8365 700-333", "contact:phone": "+49 8365 700-0", "elevator": "yes", "female": "yes", "healthcare": "rehabilitation", "internet_access": "wlan", "name": "Fachklinik St. Marien", "rooms": "70", "service:bicycle:rental": "yes", "source": "Unterkunftsverzeichnis Wertach 2021, S. 36 mit schriftlicher Erlaubnis der Tourist-Info Wertach vom 2019-11-04 für die Verwendung der Daten für OSM", "source:date": "2021-03-31", "swimming_pool": "yes", "washing_machine": "yes", "website": "https://www.haus-st-marien.de/", "wheelchair": "yes"}}, {"name": "Klinik Maximilian", "latitude": 47.5773838, "longitude": 9.8610689, "source": "osm", "_tags": {"amenity": "hospital", "healthcare": "hospital", "name": "Klinik Maximilian", "website": "https://www.klinik-maximilian.de", "wheelchair": "yes"}}, {"name": "Fachklinik Enzensberg", "latitude": 47.6143706, "longitude": 10.6887028, "source": "osm", "_tags": {"addr:city": "Füssen", "addr:country": "DE", "addr:housenumber": "56", "addr:postcode": "87629", "addr:street": "Höhenstraße", "amenity": "hospital", "email": "info@fachklinik-enzensberg.de", "fax": "+49 (0)8362 12-3060", "healthcare": "hospital", "healthcare:speciality": "orthopaedics;physiatry;neurology;internal;geriatrics", "name": "Fachklinik Enzensberg", "operator": "m&i-Fachklinik Enzensberg", "phone": "+49 (0)8362 12-0", "website": "https://www.fachklinik-enzensberg.de"}}, {"name": "Oberberg Fachklinik", "latitude": 47.5751938, "longitude": 9.8586626, "source": "osm", "_tags": {"amenity": "hospital", "healthcare": "hospital", "name": "Oberberg Fachklinik", "website": "https://www.oberbergkliniken.de/scheidegg-im-allgaeu"}}, {"name": "Panorama Fachklinik", "latitude": 47.5741787, "longitude": 9.8587288, "source": "osm", "_tags": {"amenity": "hospital", "healthcare": "hospital", "name": "Panorama Fachklinik", "website": "https://www.panorama-fachklinik.de"}}, {"name": "", "latitude": 47.5760728, "longitude": 9.8596245, "source": "osm", "_tags": {"amenity": "hospital", "healthcare": "hospital"}}, {"name": "Klinik Sonnenalm", "latitude": 47.5336375, "longitude": 10.0246423, "source": "osm", "_tags": {"amenity": "hospital", "check_date": "2024-03-13", "name": "Klinik Sonnenalm", "website": "https://www.klinik-sonnenalm.de/"}}, {"name": "Fachkliniken Wangen", "latitude": 47.6988406, "longitude": 9.8361987, "source": "osm", "_tags": {"addr:city": "Wangen im Allgäu", "addr:country": "DE", "addr:housenumber": "14", "addr:postcode": "88239", "addr:street": "Am Vogelherd", "amenity": "hospital", "check_date": "2024-05-19", "healthcare": "hospital", "name": "Fachkliniken Wangen", "operator": "Waldburg-Zeil Kliniken"}}, {"name": "Krankenhaus St. Vinzenz Zams", "latitude": 47.16121, "longitude": 10.5934954, "source": "osm", "_tags": {"amenity": "hospital", "healthcare": "hospital", "healthcare:speciality": "emergency", "name": "Krankenhaus St. Vinzenz Zams", "short_name": "Krankenhaus Zams", "wikidata": "Q38046333", "wikipedia": "de:Krankenhaus St. Vinzenz Zams"}}, {"name": "Oberschwabenklinik Wangen", "latitude": 47.6941254, "longitude": 9.8443755, "source": "osm", "_tags": {"addr:city": "Wangen im Allgäu", "addr:country": "DE", "addr:housenumber": "29", "addr:postcode": "88239", "addr:street": "Am Engelberg", "amenity": "hospital", "healthcare": "hospital", "name": "Oberschwabenklinik Wangen"}}, {"name": "Oberschwaben Klinik - Krankenhaus Isny Notfall-Ambulanz", "latitude": 47.6890463, "longitude": 10.0400081, "source": "osm", "_tags": {"amenity": "hospital", "healthcare": "hospital", "name": "Oberschwaben Klinik - Krankenhaus Isny Notfall-Ambulanz"}}, {"name": "Alpenklinik Santa Maria", "latitude": 47.5171647, "longitude": 10.4037554, "source": "osm", "_tags": {"amenity": "hospital", "contact:email": "info@santa-maria.de", "emergency": "no", "healthcare": "rehabilitation", "healthcare:speciality": "paediatrics", "landuse": "residential", "name": "Alpenklinik Santa Maria", "phone": "+49 8324 780", "website": "https://www.santa-maria.de"}}, {"name": "Landeskrankenhaus Bregenz", "latitude": 47.4971598, "longitude": 9.7457525, "source": "osm", "_tags": {"addr:city": "Bregenz", "addr:country": "AT", "addr:housenumber": "2", "addr:postcode": "6900", "addr:street": "Carl-Pedenz-Straße", "amenity": "hospital", "email": "office@lkhb.at", "emergency": "yes", "fax": "+43 5574 401 80", "fixme": "exact geometry", "healthcare": "hospital", "healthcare:speciality": "emergency;paediatrics;intensive;surgery;gynaecology;maternity;internal;neonatology;urology", "name": "Landeskrankenhaus Bregenz", "name:en": "Bregenz State Hospital", "note": "Klinikgelände nur ungefähr eingezeichnet", "operator": "Vorarlberger Krankenhaus-Betriebsgesellschaft.m.b.h.", "phone": "+43 5574 401 0", "source": "plan.at 2009, http://www.lkhb.at", "toilets:wheelchair": "yes", "website": "http://www.lkhb.at", "wheelchair": "yes", "wikidata": "Q1802321", "wikipedia": "de:Landeskrankenhaus Bregenz"}}, {"name": "Klinik Oberstdorf", "latitude": 47.4105032, "longitude": 10.2820922, "source": "osm", "_tags": {"addr:city": "Oberstdorf", "addr:country": "DE", "addr:housenumber": "16", "addr:postcode": "87561", "addr:street": "Trettachstraße", "amenity": "hospital", "healthcare": "hospital", "name": "Klinik Oberstdorf", "operator": "Klinikverbund Allgäu gGmbH"}}, {"name": "CuraMed Privatklinik Stillachhaus", "latitude": 47.4067939, "longitude": 10.2581675, "source": "osm", "_tags": {"amenity": "hospital", "healthcare": "hospital", "healthcare:speciality": "psychiatry", "name": "CuraMed Privatklinik Stillachhaus", "operator": "CuraMed Kliniken GmbH", "operator:type": "private", "website": "https://www.stillachhaus.de"}}, {"name": "Klinik Alpenblick", "latitude": 47.7081629, "longitude": 10.0303496, "source": "osm", "_tags": {"addr:city": "Isny im Allgäu", "addr:country": "DE", "addr:housenumber": "9", "addr:postcode": "88316", "addr:street": "Kurweg", "amenity": "hospital", "building": "hospital", "email": "info@klinik-alpenblick.de", "fax": "+49 7562 71-1495", "healthcare": "hospital", "healthcare:speciality": "psychiatry", "name": "Klinik Alpenblick", "operator": "Waldburg-Zeil Kliniken", "phone": "+49 7562 71-1411", "type": "multipolygon", "website": "https://www.klinik-alpenblick.de/"}}]