[{"name": "Centre hospitalier Port-Louis et Riantec", "latitude": 47.7193193, "longitude": -3.3180593, "source": "osm", "_tags": {"amenity": "hospital", "emergency": "no", "healthcare": "hospital", "name": "Centre hospitalier Port-Louis et Riantec", "name:br": "Porzh-Loeiz Rianteg", "ref:FR:FINESS": "560015422", "source:name:br": "proper translation", "type:FR:FINESS": "355"}}, {"name": "Clinique du Ter", "latitude": 47.7357265, "longitude": -3.3984031, "source": "osm", "_tags": {"addr:housenumber": "5", "addr:street": "Allée de la Clinique du Ter", "amenity": "hospital", "email": "ter-lorient@groupe-vitalia.com", "healthcare": "hospital", "name": "Clinique du Ter", "name:br": "Klinikenn an Ter", "operator": "Elsan", "operator:type": "private", "operator:wikidata": "Q48747106", "phone": "+33 2 97 37 04 22", "ref:FR:FINESS": "560030165", "ref:FR:NAF": "86.10Z", "ref:FR:SIREN": "265613349", "ref:FR:SIRET": "26561334900389", "source": "INSEE - 2025-08", "source:name:br": "ofis publik ar brezhoneg", "type:FR:FINESS": "365", "website": "http://www.ter.groupe-elsan.com/"}}, {"name": "Hôpital du Scorff", "latitude": 47.7530774, "longitude": -3.3570464, "source": "osm", "_tags": {"amenity": "hospital", "contact:city": "Lorient", "contact:housenumber": "5", "contact:phone": "+33 2 97 06 90 90", "contact:postcode": "56100", "contact:street": "Avenue de Choiseul", "contact:website": "https://www.ghbs.bzh/", "emergency": "yes", "healthcare": "hospital", "healthcare:speciality": "intensive", "name": "Hôpital du Scorff", "name:br": "Ospital ar Skorf", "operator": "Centre Hospitalier de Bretagne Sud", "operator:type": "public", "ref:FR:FINESS": "560000135", "short_name": "Centre Hospitalier du Scorff", "source": "Centre Hospitalier de Bretagne Sud", "source:name:br": "ofis publik ar brezhoneg", "type:FR:FINESS": "355", "wikidata": "Q3145328"}}, {"name": "Clinique mutualiste de la Porte de l'Orient", "latitude": 47.7520357, "longitude": -3.3856066, "source": "osm", "_tags": {"addr:housenumber": "3", "addr:street": "Rue Robert de la Croix", "amenity": "hospital", "healthcare": "hospital", "name": "Clinique mutualiste de la Porte de l'Orient", "name:br": "Klinikenn Genwarez Dor An Oriant", "ref:FR:FINESS": "560002933", "ref:FR:NAF": "86.10Z", "ref:FR:SIREN": "818613663", "ref:FR:SIRET": "81861366300017", "source": "INSEE - 2025-07", "source:name:br": "proper translation", "type:FR:FINESS": "128"}}, {"name": "Eudo de Kerlivio - Centre de Réadaptation et de Gériatrie", "latitude": 47.7993682, "longitude": -3.3035324, "source": "osm", "_tags": {"amenity": "hospital", "healthcare": "hospital", "name": "Eudo de Kerlivio - Centre de Réadaptation et de Gériatrie", "name:br": "Ospital Izeon Gerlivioù - Kreizenn Azgouestaat ha Mezegiezh ar Re Gozh", "ref:FR:FINESS": "560000275", "source:name:br": "ofis publik ar brezhoneg", "type:FR:FINESS": "355"}}]