[{"name": "", "latitude": 46.9824929, "longitude": 1.6115239, "source": "osm", "_tags": {"amenity": "hospital", "phone": "+33 2 54 29 10 00", "ref:FR:FINESS": "360000251", "ref:FR:NAF": "86.10Z", "ref:FR:SIRET": "26360010800017", "source": "cadastre-dgi-fr source : Direction Générale des Impôts - Cadastre. Mise à jour : 2012", "wikidata": "Q92063041"}}, {"name": "Centre de Psychiatrie Les Tournesols", "latitude": 47.8020584, "longitude": 1.0571699, "source": "osm", "_tags": {"amenity": "hospital", "healthcare": "hospital", "name": "Centre de Psychiatrie Les Tournesols", "operator": "Centre hospitalier de Vendôme-Montoire", "phone": "+33 2 54 23 36 41", "ref:FR:FINESS": "410003768", "source": "cadastre-dgi-fr source : Direction Générale des Impôts - Cadastre ; mise à jour :2008"}}, {"name": "Clinique du Saint-Coeur", "latitude": 47.7970162, "longitude": 1.0651958, "source": "osm", "_tags": {"amenity": "hospital", "fax": "+33 2 54 23 50 87", "name": "Clinique du Saint-Coeur", "operator": "Groupe Elsan", "operator:type": "private", "phone": "+33 8 26 39 99 32", "ref:FR:FINESS": "410004998", "source": "cadastre-dgi-fr source : Direction Générale des Impôts - Cadastre ; mise à jour :2008", "type:FR:FINESS": "365", "website": "http://www.saint-coeur.groupe-elsan.com/"}}, {"name": "Centre hospitalier de Romorantin-Lanthenay", "latitude": 47.3597689, "longitude": 1.7312802, "source": "osm", "_tags": {"addr:city": "Romorantin-Lanthenay", "addr:housenumber": "96", "addr:postcode": "41200", "addr:street": "Rue des Capucins", "amenity": "hospital", "emergency": "yes", "fax": "+33 2 54 88 35 50", "healthcare": "hospital", "name": "Centre hospitalier de Romorantin-Lanthenay", "operator:type": "public", "phone": "+33 2 54 88 33 00", "ref:FR:FINESS": "410000046", "short_name": "CHRL", "type:FR:FINESS": "355", "website": "https://www.ch-romorantin.fr/"}}, {"name": "Centre Hospitalier Saint-Roch", "latitude": 46.8918925, "longitude": 1.4205295, "source": "osm", "_tags": {"amenity": "hospital", "name": "Centre Hospitalier Saint-Roch", "ref:FR:FINESS": "360000186", "source": "Le ministère des solidarités et de la santé - 03/2019", "wikidata": "Q92063231"}}, {"name": "Clinique Saint-François", "latitude": 46.8153685, "longitude": 1.697506, "source": "osm", "_tags": {"amenity": "hospital", "check_date": "2025-07-14", "healthcare": "hospital", "name": "Clinique Saint-François", "phone": "+33 2 54 53 60 14", "ref:FR:FINESS": "360000129", "ref:FR:SIRET": "81672003100011", "source": "cadastre-dgi-fr source : Direction Générale des Impôts - Cadastre. Mise à jour : 2012", "type:FR:FINESS": "365"}}, {"name": "Centre Hospitalier Simone Veil de Blois", "latitude": 47.6037254, "longitude": 1.3433445, "source": "osm", "_tags": {"addr:city": "Blois", "addr:postcode": "41000", "alt_name": "Hôpital Simone Veil", "amenity": "hospital", "check_date": "2024-12-31", "emergency": "yes", "fax": "+33 2 54 55 60 78", "healthcare": "hospital", "healthcare:speciality": "intensive", "name": "Centre Hospitalier Simone Veil de Blois", "operator:type": "public", "phone": "+33 2 54 55 66 33", "ref:FR:FINESS": "410000020", "short_name": "CH Blois", "type:FR:FINESS": "355", "website": "https://www.ch-blois.fr/"}}, {"name": "L'Hospitalet", "latitude": 47.7542467, "longitude": 0.8762277, "source": "osm", "_tags": {"addr:housenumber": "33", "addr:street": "Rue Pasteur", "amenity": "hospital", "name": "L'Hospitalet", "ref:FR:FINESS": "410005391"}}, {"name": "Polyclinique de Blois", "latitude": 47.6171252, "longitude": 1.3416585, "source": "osm", "_tags": {"amenity": "hospital", "healthcare": "hospital", "name": "Polyclinique de Blois", "ref:FR:FINESS": "410000202", "website": "https://www.clinique-blois.com"}}, {"name": "Le Clos d'Alban", "latitude": 47.2607389, "longitude": 0.9124809, "source": "osm", "_tags": {"addr:city": "Cigogné", "addr:postcode": "37310", "addr:street": "La Marquetterie", "amenity": "hospital", "description": "Établissement d'hébergement et de soins pour adultes polyhandicapés", "email": "arc-en-ciel4@wanadoo.fr", "emergency": "no", "fax": "+33 2 47 43 29 10", "healthcare": "hospital", "name": "Le Clos d'Alban", "operator": "Arc-en-Ciel", "phone": "+33 2 47 65 72 72", "ref:FR:FINESS": "370009078", "type:FR:FINESS": "255", "website": "http://www.arcenciel-asso.org/le-clos-dalban/", "wheelchair": "yes"}}, {"name": "Centre Hospitalier de Chatillon-sur-Indre", "latitude": 46.9879422, "longitude": 1.1641627, "source": "osm", "_tags": {"amenity": "hospital", "emergency": "no", "healthcare": "hospital", "name": "Centre Hospitalier de Chatillon-sur-Indre", "ref:FR:FINESS": "360000202", "source": "Le ministère des solidarités et de la santé - 03/2019", "wikidata": "Q92063420"}}, {"name": "Centre hospitalier de Vendôme-Montoire", "latitude": 47.7939371, "longitude": 1.0629287, "source": "osm", "_tags": {"alt_name": "Hôpital Daniel Chanet", "amenity": "hospital", "email": "direction@ch-vendome.fr", "healthcare": "hospital", "name": "Centre hospitalier de Vendôme-Montoire", "operator:type": "public", "phone": "+33 2 54 23 33 33", "ref:FR:FINESS": "410000038", "type:FR:FINESS": "355", "website": "https://www.ch-vendome.fr"}}, {"name": "Centre hospitalier de Château-Renault", "latitude": 47.5876376, "longitude": 0.9193976, "source": "osm", "_tags": {"alt_name": "Hôpital Jean Delaneau", "amenity": "hospital", "email": "contact@chicacr.fr", "fax": "+33 2 47 23 32 67", "name": "Centre hospitalier de Château-Renault", "operator": "Centre hospitalier intercommunal Amboise - Château-Renault", "operator:type": "public", "phone": "+33 2 47 23 33 33", "ref:FR:FINESS": "370000580", "type:FR:FINESS": "355", "website": "https://www.ch-amboise-chateaurenault.fr/"}}, {"name": "Centre hospitalier d'Amboise", "latitude": 47.4078141, "longitude": 0.9813468, "source": "osm", "_tags": {"alt_name": "Hôpital Robert Debré", "amenity": "hospital", "email": "contact@chicacr.fr", "emergency": "yes", "name": "Centre hospitalier d'Amboise", "operator": "Centre hospitalier intercommunal Amboise - Château-Renault", "operator:type": "public", "phone": "+33 2 47 23 33 33", "ref:FR:FINESS": "370000879", "short_name": "CHICACR", "source": "cadastre-dgi-fr source : Direction Générale des Impôts - Cadastre. Mise à jour : 2010", "type:FR:FINESS": "355", "website": "https://www.ch-amboise-chateaurenault.fr/"}}, {"name": "Centre hospitalier Paul Martinais", "latitude": 47.1300719, "longitude": 1.0027633, "source": "osm", "_tags": {"amenity": "hospital", "emergency": "yes", "fax": "+33 2 47 91 32 00", "name": "Centre hospitalier Paul Martinais", "phone": "+33 2 47 91 33 33", "ref:FR:FINESS": "370000903", "type:FR:FINESS": "355", "website": "https://www.ch-loches.fr/"}}, {"name": "L'Arc en Ciel", "latitude": 47.272622, "longitude": 0.8575022, "source": "osm", "_tags": {"amenity": "hospital", "healthcare": "yes", "name": "L'Arc en Ciel", "ref:FR:FINESS": "370103129", "type:FR:FINESS": "448", "website": "http://www.arcenciel-asso.org/le-hameau-de-larc-en-ciel/"}}, {"name": "Centre Hospitalier de Saint-Aignan", "latitude": 47.2606751, "longitude": 1.3481399, "source": "osm", "_tags": {"amenity": "hospital", "healthcare": "hospital", "name": "Centre Hospitalier de Saint-Aignan", "ref:FR:FINESS": "410000053", "type:FR:FINESS": "106", "wikidata": "Q92062698"}}, {"name": "Foyer d'Accueil Médicalisé la Vallée Germain", "latitude": 47.6600073, "longitude": 0.7536002, "source": "osm", "_tags": {"amenity": "hospital", "name": "Foyer d'Accueil Médicalisé la Vallée Germain"}}, {"name": "Centre Hospitalier de Montrichard", "latitude": 47.3482507, "longitude": 1.1800345, "source": "osm", "_tags": {"amenity": "hospital", "check_date": "2025-06-21", "healthcare": "hospital", "name": "Centre Hospitalier de Montrichard", "ref:FR:FINESS": "410000210", "source": "Le ministère des solidarités et de la santé - 03/2019", "wikidata": "Q92062472"}}, {"name": "Hopital de Jour Adulte", "latitude": 47.5803701, "longitude": 1.3237693, "source": "osm", "_tags": {"amenity": "hospital", "healthcare": "hospital", "name": "Hopital de Jour Adulte"}}, {"name": "Clinique du Domaine de Vontes", "latitude": 47.2779903, "longitude": 0.8010302, "source": "osm", "_tags": {"addr:city": "Esvres", "addr:housename": "Clinique du Domaine de Vontes", "addr:postcode": "37320", "addr:street": "Clinique du Domaine de Vontes", "amenity": "hospital", "building": "yes", "healthcare": "hospital", "name": "Clinique du Domaine de Vontes", "opening_hours": "Mo-Sa 08:30-13:00, 13:30-19:15; Su 09:00-13:00, 14:00-19:00", "ref:FR:FINESS": "370000119", "ref:FR:SIRET": "32407644700014", "type": "multipolygon", "type:FR:FINESS": "161"}}]