[{"name": "Ziegelfeld-Klinik", "latitude": 47.7590658, "longitude": 8.1156043, "source": "osm", "_tags": {"amenity": "hospital", "emergency": "no", "healthcare": "hospital", "name": "Ziegelfeld-Klinik", "wheelchair": "yes"}}, {"name": "St. Marienhaus", "latitude": 47.5546527, "longitude": 7.9480721, "source": "osm", "_tags": {"amenity": "hospital", "healthcare": "hospital", "name": "St. Marienhaus", "wheelchair": "yes"}}, {"name": "Reha-Klinikum", "latitude": 47.5611199, "longitude": 7.9403001, "source": "osm", "_tags": {"amenity": "hospital", "name": "Reha-Klinikum", "toilets:wheelchair": "yes", "wheelchair": "yes"}}, {"name": "St. Georg", "latitude": 47.7351291, "longitude": 8.1657674, "source": "osm", "_tags": {"addr:city": "Höchenschwand", "addr:country": "DE", "addr:housenumber": "1", "addr:postcode": "79862", "addr:street": "Kurhausplatz", "amenity": "hospital", "check_date": "2025-02-02", "name": "St. Georg", "website": "http://www.st-georg-kliniken.de/"}}, {"name": "ADUS Klinik", "latitude": 47.4785723, "longitude": 8.4512043, "source": "osm", "_tags": {"amenity": "hospital", "healthcare": "hospital", "name": "ADUS Klinik", "phone": "+41 44 854 64 90", "website": "https://www.adus-klinik.ch/", "wheelchair": "yes"}}, {"name": "Notfallstation Spital Männedorf", "latitude": 47.250619, "longitude": 8.697132, "source": "osm", "_tags": {"amenity": "hospital", "email": "notfall@spitalmaennedorf.ch", "emergency_ward_entrance": "all", "entrance": "yes", "name": "Notfallstation Spital Männedorf", "operator": "Spital Männedorf", "phone": "+41 44 922 25 30", "website": "https://www.spitalmaennedorf.ch/notfall/"}}, {"name": "TellKlinik", "latitude": 47.0106466, "longitude": 8.6435199, "source": "osm", "_tags": {"addr:city": "Ibach", "addr:housenumber": "62", "addr:postcode": "6438", "addr:street": "Gotthardstrasse", "amenity": "hospital", "email": "tellklinik@hin.ch", "fax": "+41 41 818 68 69", "healthcare": "hospital", "healthcare:speciality": "orthopädische_chirurgie;orthopaedics;trauma;paediatric_surgery;kinder-orthopädie;schmerztherapie;rückentherapie", "name": "TellKlinik", "operator": "Tell-Klinik AG", "operator:type": "private", "phone": "+41 41 818 68 68", "website": "https://www.tellklinik.ch"}}, {"name": "Klinik für Mund-, Kiefer- und Gesichtschirurgie", "latitude": 47.389129, "longitude": 8.0587386, "source": "osm", "_tags": {"amenity": "clinic", "healthcare": "hospital", "healthcare:speciality": "dental_oral_maxillo_facial_surgery", "name": "Klinik für Mund-, Kiefer- und Gesichtschirurgie", "phone": "+41 62 838 45 08", "website": "https://www.ksa.ch/de/kantonsspital-aarau/aufenthalt-und-besuch/fachbereiche/mkg-mund-kiefer-gesichtschirurgie"}}, {"name": "", "latitude": 47.2463476, "longitude": 8.1898328, "source": "osm", "_tags": {"amenity": "hospital", "healthcare": "hospital"}}, {"name": "SRO Spital Oberaargau Langenthal", "latitude": 47.2159329, "longitude": 7.793667, "source": "osm", "_tags": {"addr:housenumber": "67", "addr:postcode": "4900", "addr:street": "St. Urbanstrasse", "amenity": "hospital", "emergency": "yes", "healthcare": "hospital", "healthcare:speciality": "intensive", "name": "SRO Spital Oberaargau Langenthal", "opening_hours": "24/7", "operator": "SRO AG, Langenthal", "phone": "+41 62 916 3131", "toilets:wheelchair": "yes", "website": "https://www.sro.ch/", "wheelchair": "yes"}}, {"name": "Kreiskrankenhaus-Schopfheim", "latitude": 47.6464532, "longitude": 7.823227, "source": "osm", "_tags": {"addr:city": "Schopfheim", "addr:housenumber": "40", "addr:postcode": "79650", "addr:street": "Schwarzwaldstraße", "amenity": "hospital", "building": "hospital", "check_date": "2025-08-23", "emergency": "yes", "healthcare": "hospital", "name": "Kreiskrankenhaus-Schopfheim", "source:geometry": "maps4bw (LGL, www.lgl-bw.de);Mapbox Satellite"}}, {"name": "Luzerner Kantonsspital", "latitude": 47.0585605, "longitude": 8.2969782, "source": "osm", "_tags": {"addr:city": "Luzern 16", "addr:postcode": "6000", "addr:street": "Spitalstrasse", "alt_name": "Kantonsspital Luzern", "amenity": "hospital", "emergency": "yes", "healthcare": "hospital", "name": "Luzerner Kantonsspital", "operator": "Luzerner Kantonsspital", "operator:type": "government", "phone": "+41 41 205 11 11", "short_name": "LUKS", "website": "https://www.luks.ch", "wikidata": "Q1878385", "wikipedia": "de:Luzerner Kantonsspital"}}, {"name": "Fachspital Sune-Egge", "latitude": 47.4149478, "longitude": 8.5174371, "source": "osm", "_tags": {"addr:city": "Zürich", "addr:country": "CH", "addr:housenumber": "11", "addr:postcode": "8046", "addr:street": "Riedenhaldenstrasse", "alt_name": "Sozialwerk Pfarrer Sieber", "amenity": "hospital", "building": "yes", "building:levels": "4", "email": "info@swsieber.ch", "name": "Fachspital Sune-Egge", "opening_hours": "Mo-Fr 08:00-17:00; Sa 10:00-16:00", "operator": "Sozialwerk Pfarrer Sieber", "phone": "+41 43 336 50 80", "social_facility": "outreach", "website": "https://www.swsieber.ch/"}}, {"name": "Kantonsspital Aarau", "latitude": 47.3883663, "longitude": 8.0602927, "source": "osm", "_tags": {"addr:city": "Aarau", "addr:housenumber": "25", "addr:postcode": "5001", "addr:street": "Tellstrasse", "amenity": "hospital", "emergency": "yes", "healthcare": "hospital", "name": "Kantonsspital Aarau", "phone": "+41 62 838 41 41", "short_name": "KSA", "website": "https://www.ksa.ch/", "wikidata": "Q1728146", "wikimedia_commons": "File:2018-Aarau-Kantonsspital-Verwaltung.jpg", "wikipedia": "de:Kantonsspital Aarau"}}, {"name": "Hirslanden Klinik Aarau", "latitude": 47.3907026, "longitude": 8.04256, "source": "osm", "_tags": {"amenity": "hospital", "emergency": "yes", "healthcare": "hospital", "name": "Hirslanden Klinik Aarau", "phone": "+41 62 8367000", "toilets:wheelchair": "yes", "website": "https://www.hirslanden.ch/", "wheelchair": "yes", "wikidata": "Q17123639"}}, {"name": "Haus 31 (Spitalzentrum)", "latitude": 47.059224, "longitude": 8.2968884, "source": "osm", "_tags": {"addr:city": "Luzern 16", "addr:housenumber": "31", "addr:postcode": "6000", "addr:street": "Spitalstrasse", "amenity": "hospital", "building": "hospital", "building:levels": "18", "height": "67", "name": "Haus 31 (Spitalzentrum)", "note": "Die offiziellen Gebäudenamen am Luzerner Kantonsspital sind \"Haus NN\" und werden so in allen Konversationen verwendet.", "roof:shape": "flat", "source": "guesswork, Bing"}}, {"name": "Haus C", "latitude": 47.2308284, "longitude": 7.8427958, "source": "osm", "_tags": {"addr:city": "St. Urban", "addr:country": "CH", "addr:housenumber": "1c", "addr:postcode": "4915", "addr:street": "Schafmattstrasse", "amenity": "hospital", "building": "yes", "emergency": "no", "healthcare": "hospital", "name": "Haus C"}}, {"name": "Hirslanden Herzzentrum", "latitude": 47.351893, "longitude": 8.5761561, "source": "osm", "_tags": {"addr:city": "Zürich", "addr:country": "CH", "addr:housenumber": "36", "addr:postcode": "8008", "addr:street": "Witellikerstrasse", "amenity": "hospital", "building": "yes", "email": "herzzentrum@herzzentrum.ch", "healthcare": "hospital", "name": "Hirslanden Herzzentrum", "phone": "+41 44 387 37 11", "website": "https://www.herzzentrum.ch/"}}, {"name": "Psychiatrische Tagesklinik", "latitude": 47.5629427, "longitude": 7.9431448, "source": "osm", "_tags": {"addr:city": "Bad Säckingen", "addr:country": "DE", "addr:housenumber": "3", "addr:postcode": "79713", "addr:street": "Nagaistraße", "amenity": "hospital", "building": "yes", "healthcare": "hospital", "name": "Psychiatrische Tagesklinik", "note": "Krankenhaus statt Klinik, da sonst nicht in Karte dargestellt"}}, {"name": "Rhein-Jura Klinik", "latitude": 47.562439, "longitude": 7.9392384, "source": "osm", "_tags": {"access": "customers", "addr:city": "Bad Säckingen", "addr:country": "DE", "addr:housenumber": "13", "addr:postcode": "79713", "addr:street": "Schneckenhalde", "amenity": "hospital", "building": "hospital", "contact:email": "info@rhein-jura-klinik.de", "contact:fax": "+49 7761 5600105", "contact:phone": "+49 7761 56000", "contact:website": "http://www.rhein-jura-klinik.de", "health_facility:type": "therapy", "healthcare": "clinic", "healthcare:speciality": "psychiatry", "medical_system:western": "yes", "name": "Rhein-Jura Klinik", "note": "Krankenhaus statt Klinik, da sonst nicht in Karte dargestellt"}}, {"name": "Hans Carossa Klinik", "latitude": 47.7452887, "longitude": 8.4470214, "source": "osm", "_tags": {"addr:city": "Stühlingen", "addr:housenumber": "19", "addr:postcode": "79780", "addr:street": "Hauptstraße", "amenity": "hospital", "building": "hospital", "healthcare": "hospital", "healthcare:speciality": "psychiatry", "name": "Hans Carossa Klinik", "operator": "Klinik für Psychiatrie, Psychosomatik und Psychotherapeutische Medizin Stühlingen GmbH", "operator:type": "private"}}, {"name": "Janus-Klinik-Eltern-Kind", "latitude": 47.6997625, "longitude": 8.0063932, "source": "osm", "_tags": {"addr:city": "Herrischried", "addr:country": "DE", "addr:housenumber": "20", "addr:postcode": "79737", "addr:street": "Höfstraße", "addr:suburb": "Wehrhalden", "amenity": "hospital", "email": "info@jkek.de", "healthcare": "hospital", "name": "Janus-Klinik-Eltern-Kind", "phone": "+49 7764 94 99 777 7", "website": "https://janus-klinik-eltern-kind.de/"}}, {"name": "DRK Görwihl", "latitude": 47.6418822, "longitude": 8.0754346, "source": "osm", "_tags": {"addr:city": "Görwihl", "addr:country": "DE", "addr:housenumber": "4", "addr:postcode": "79733", "addr:street": "Mühleberg", "amenity": "hospital", "brand": "Deutsches Rotes Kreuz", "brand:wikidata": "Q694104", "building": "yes", "healthcare": "hospital", "name": "DRK Görwihl"}}, {"name": "Luzerner Psychiatrie St.Urban LUPS", "latitude": 47.2299171, "longitude": 7.8425103, "source": "osm", "_tags": {"addr:city": "St. Urban", "addr:country": "CH", "addr:housenumber": "1", "addr:postcode": "4915", "addr:street": "Schafmattstrasse", "amenity": "hospital", "building": "yes", "healthcare": "hospital", "healthcare:speciality": "psychiatry", "name": "Luzerner Psychiatrie St.Urban LUPS", "operator": "Luzener Psychiatrie LUPS"}}, {"name": "Kantonsspital Winterthur", "latitude": 47.506883, "longitude": 8.7282975, "source": "osm", "_tags": {"addr:city": "Winterthur", "addr:housenumber": "15", "addr:postcode": "8401", "addr:street": "Brauerstrasse", "amenity": "hospital", "contact:phone": "+41 52 266 21 21", "emergency": "yes", "healthcare": "hospital", "healthcare:speciality": "intensive", "name": "Kantonsspital Winterthur", "short_name": "KSW", "toilets:wheelchair": "yes", "website": "https://www.ksw.ch/", "wheelchair": "yes", "wikidata": "Q1728154"}}, {"name": "Privatklinik Lindberg", "latitude": 47.5103058, "longitude": 8.7299074, "source": "osm", "_tags": {"addr:city": "Winterthur", "addr:housenumber": "11", "addr:postcode": "8400", "addr:street": "Schickstrasse", "alt_name": "Spital Lindberg: Klinik Lindberg", "amenity": "hospital", "email": "info@lindberg.ch", "healthcare": "hospital", "name": "Privatklinik Lindberg", "phone": "+41 52 266 11 11", "short_name": "Lindberg", "website": "https://www.lindberg.ch/", "wheelchair": "yes"}}, {"name": "Klinik Barmelweid", "latitude": 47.4211947, "longitude": 7.971805, "source": "osm", "_tags": {"addr:city": "Barmelweid", "addr:postcode": "5017", "addr:street": "Klinik Barmelweid", "amenity": "hospital", "emergency": "no", "name": "Klinik Barmelweid", "official_name": "Klinik und Pflegezentrum Barmelweid", "operator": "Klinik und Pflegezentrum Barmelweid", "place": "neighbourhood", "website": "https://www.barmelweid.ch/", "wheelchair": "yes", "wikidata": "Q1670503"}}, {"name": "Kur- und Gesundheitszentrum Friedborn", "latitude": 47.5892512, "longitude": 7.9961969, "source": "osm", "_tags": {"addr:city": "Rickenbach", "addr:country": "DE", "addr:housenumber": "4", "addr:postcode": "79736", "addr:street": "Lehnhof", "addr:suburb": "Lehnhof", "amenity": "hospital", "building": "hospital", "name": "Kur- und Gesundheitszentrum Friedborn", "website": "https://www.friedborn.de/"}}, {"name": "Rehaklinik Kandertal", "latitude": 47.780733, "longitude": 7.7327064, "source": "osm", "_tags": {"amenity": "hospital", "name": "Rehaklinik Kandertal", "note": "Umriss geschätzt"}}, {"name": "Luzerner Kantonsspital Sursee", "latitude": 47.1682627, "longitude": 8.1173534, "source": "osm", "_tags": {"building": "hospital", "building:levels": "10", "healthcare": "hospital", "name": "Luzerner Kantonsspital Sursee", "roof:levels": "0", "roof:shape": "flat", "wheelchair": "yes"}}, {"name": "Privatklinik Hohenegg", "latitude": 47.2743619, "longitude": 8.6598389, "source": "osm", "_tags": {"addr:city": "Meilen", "addr:housenumber": "1", "addr:postcode": "8706", "addr:street": "Hohenegg", "amenity": "hospital", "emergency": "no", "healthcare": "hospital", "healthcare:speciality": "psychiatry;psychotherapy", "name": "Privatklinik Hohenegg", "website": "https://www.hohenegg.ch/", "wikidata": "Q18629951", "wikipedia": "de:Privatklinik Hohenegg"}}, {"name": "Spital Männedorf", "latitude": 47.2508784, "longitude": 8.6959614, "source": "osm", "_tags": {"addr:city": "Männedorf", "addr:country": "CH", "addr:housenumber": "10", "addr:postcode": "8708", "addr:street": "Asylstrasse", "amenity": "hospital", "contact:phone": "+41 44 922 22 11", "emergency": "yes", "healthcare": "hospital", "healthcare:speciality": "intensive", "name": "Spital Männedorf", "website": "https://www.spitalmaennedorf.ch/", "wikidata": "Q55503256", "wikipedia": "de:Spital Männedorf"}}, {"name": "Integrierte Psychiatrie Winterthur, Klinik Schlosstal", "latitude": 47.5073011, "longitude": 8.6849022, "source": "osm", "_tags": {"addr:city": "Winterthur", "addr:housenumber": "102", "addr:postcode": "8408", "addr:street": "Wieshofstrasse", "amenity": "hospital", "healthcare": "hospital", "healthcare:speciality": "psychiatry", "name": "Integrierte Psychiatrie Winterthur, Klinik Schlosstal", "old_name": "Klinik Schlosstal", "operator": "Integrierte Psychiatrie Winterthur – Zürcher Unterland (ipw)", "operator:type": "government", "short_name": "IPW Schlosstal"}}, {"name": "Kantonsspital Liestal", "latitude": 47.4884481, "longitude": 7.7308515, "source": "osm", "_tags": {"amenity": "hospital", "contact:phone": "+41 61 925 25 25", "contact:website": "http://www.ksbl.ch/das-ksbl/standorte/der-standort-liestal", "emergency": "yes", "healthcare": "hospital", "healthcare:speciality": "intensive", "name": "Kantonsspital Liestal", "wheelchair": "yes"}}, {"name": "Spital Langnau", "latitude": 46.9432894, "longitude": 7.7865727, "source": "osm", "_tags": {"addr:city": "Langnau im Emmental", "addr:housenumber": "10", "addr:postcode": "3550", "addr:street": "Dorfbergstrasse", "amenity": "hospital", "emergency": "yes", "name": "Spital Langnau", "operator": "Spital Emmental", "website": "https://www.spital-emmental.ch/"}}, {"name": "Spital Zofingen", "latitude": 47.2964109, "longitude": 7.9470705, "source": "osm", "_tags": {"amenity": "hospital", "healthcare": "hospital", "name": "Spital Zofingen"}}, {"name": "Weissenstein-Klinik", "latitude": 47.7609214, "longitude": 8.1203643, "source": "osm", "_tags": {"addr:city": "St. Blasien", "addr:country": "DE", "addr:housenumber": "14", "addr:postcode": "79837", "addr:street": "Johann-Rothmeier-Straße", "amenity": "hospital", "building": "hospital", "healthcare": "hospital", "name": "Weissenstein-Klinik", "website": "https://www.weissenstein-klinik.de/", "wheelchair": "yes"}}, {"name": "Kohlwald-Klinik", "latitude": 47.7602936, "longitude": 8.1167799, "source": "osm", "_tags": {"addr:city": "St. Blasien", "addr:country": "DE", "addr:housenumber": "10", "addr:postcode": "79837", "addr:street": "Johann-Rothmeier-Straße", "amenity": "hospital", "building": "hospital", "healthcare": "hospital", "name": "Kohlwald-Klinik", "wheelchair": "yes"}}, {"name": "Zentrum für Stationäre Forensische Therapie und Zentrum für Integrative Psychiatrie", "latitude": 47.6349183, "longitude": 8.6078052, "source": "osm", "_tags": {"addr:city": "Rheinau", "addr:country": "CH", "addr:housenumber": "57", "addr:postcode": "8462", "addr:street": "Alleestrasse", "amenity": "hospital", "emergency": "no", "healthcare": "hospital", "name": "Zentrum für Stationäre Forensische Therapie und Zentrum für Integrative Psychiatrie", "operator": "Psychiatrische Universitätsklinik Zürich", "phone": "+41 52 304 91 11", "website": "https://www.pukzh.ch/standorte/?locationId=07956ecd-155d-0010-0152-012983939def", "wikipedia": "de:Rheinau ZH"}}, {"name": "See-Spital Horgen", "latitude": 47.2627145, "longitude": 8.5899964, "source": "osm", "_tags": {"addr:city": "Horgen", "addr:housenumber": "19", "addr:postcode": "8810", "addr:street": "Asylstrasse", "amenity": "hospital", "emergency": "yes", "healthcare": "hospital", "name": "See-Spital Horgen", "website": "https://www.see-spital.ch/"}}, {"name": "Spital Muri", "latitude": 47.277857, "longitude": 8.329881, "source": "osm", "_tags": {"addr:city": "Muri", "addr:housenumber": "144", "addr:postcode": "5630", "addr:street": "Spitalstrasse", "amenity": "hospital", "area": "yes", "contact:email": "info@spital-muri.ch", "contact:fax": "+41 56 675 11 43", "contact:phone": "+41 56 675 11 11", "contact:website": "www.spital-muri.ch", "healthcare": "hospital", "healthcare:speciality": "intensive", "name": "Spital Muri", "wikidata": "Q33121446"}}, {"name": "Spital Uster", "latitude": 47.3529244, "longitude": 8.7241311, "source": "osm", "_tags": {"addr:city": "Uster", "addr:housenumber": "42", "addr:postcode": "8610", "addr:street": "Brunnenstrasse", "amenity": "hospital", "check_date": "2025-03-02", "emergency": "yes", "healthcare": "hospital", "healthcare:speciality": "intensive", "name": "Spital Uster", "phone": "+41 44 911 11 11", "website": "https://www.spitaluster.ch", "wikidata": "Q30270431"}}, {"name": "Stadtspital Triemli", "latitude": 47.3664766, "longitude": 8.4974544, "source": "osm", "_tags": {"addr:city": "Zürich", "addr:country": "CH", "addr:housenumber": "497", "addr:postcode": "8063", "addr:street": "Birmensdorferstrasse", "amenity": "hospital", "emergency": "yes", "healthcare": "hospital", "healthcare:speciality": "intensive", "name": "Stadtspital Triemli", "operator": "Stadt Zürich, GUD", "phone": "+41 44 416 11 11", "website": "http://www.triemli.ch/", "wikidata": "Q1535635", "wikimedia_commons": "Category:Stadtspital Triemli", "wikipedia": "de:Stadtspital Triemli"}}, {"name": "Klinik Bethanien", "latitude": 47.3808225, "longitude": 8.5575122, "source": "osm", "_tags": {"addr:city": "Zürich", "addr:housenumber": "51", "addr:postcode": "8044", "addr:street": "Toblerstrasse", "amenity": "hospital", "email": "info@klinikbethanien.ch", "emergency": "no", "healthcare": "hospital", "name": "Klinik Bethanien", "operator": "Swiss Medical Network", "phone": "+41 43 268 70 70", "toilets:wheelchair": "yes", "website": "https://www.klinikbethanien.ch/", "wheelchair": "yes"}}, {"name": "Stadtspital Waid", "latitude": 47.3984054, "longitude": 8.5204274, "source": "osm", "_tags": {"addr:city": "Zürich", "addr:housenumber": "99", "addr:postcode": "8037", "addr:street": "Tièchestrasse", "amenity": "hospital", "healthcare": "hospital", "healthcare:speciality": "intensive", "name": "Stadtspital Waid", "name:tr": "Waid Şehir Hastanesi", "operator": "Stadt Zürich, GUD", "phone": "+41 44 366 22 11", "website": "http://www.waidspital.ch/", "wikidata": "Q1519815", "wikimedia_commons": "Category:Stadtspital Waid"}}, {"name": "Spital Schwyz", "latitude": 47.0156387, "longitude": 8.6596382, "source": "osm", "_tags": {"addr:city": "Schwyz", "addr:housenumber": "10", "addr:postcode": "6430", "addr:street": "Waldeggstrasse", "amenity": "hospital", "healthcare": "hospital", "healthcare:speciality": "intensive", "name": "Spital Schwyz", "phone": "+41 41 818 41 11", "website": "https://www.spital-schwyz.ch/startseite.html", "wheelchair": "limited"}}, {"name": "Universitätsspital Zürich", "latitude": 47.3777544, "longitude": 8.5507671, "source": "osm", "_tags": {"addr:city": "Zürich", "addr:country": "CH", "addr:housenumber": "100", "addr:postcode": "8091", "addr:street": "Rämistrasse", "alt_name": "USZ Campus;Universitätsspital Zürich Zentrum", "amenity": "hospital", "emergency": "yes", "healthcare": "hospital", "healthcare:speciality": "intensive", "int_ref": "USZ", "name": "Universitätsspital Zürich", "name:tr": "Zürih Üniversitesi Hastanesi", "phone": "+41 44 255 11 11", "short_name": "USZ", "website": "https://www.usz.ch/", "wheelchair": "yes", "wikidata": "Q450139", "wikimedia_commons": "Category:Universitätsspital Zürich", "wikipedia": "en:University Hospital of Zürich"}}, {"name": "Luzerner Psychiatrie St. Urban", "latitude": 47.2301944, "longitude": 7.8433054, "source": "osm", "_tags": {"addr:city": "St. Urban", "addr:housenumber": "1", "addr:postcode": "4915", "addr:street": "Schafmattstrasse", "amenity": "hospital", "healthcare": "hospital", "name": "Luzerner Psychiatrie St. Urban", "website": "https://www.lups.ch/standorte/"}}, {"name": "Kinder-Reha Schweiz", "latitude": 47.2773326, "longitude": 8.466881, "source": "osm", "_tags": {"addr:city": "Affoltern am Albis", "addr:country": "CH", "addr:housenumber": "104", "addr:postcode": "8910", "addr:street": "Mühlebergstrasse", "amenity": "hospital", "check_date": "2023-05-20", "email": "rehab@kispi.uzh.ch", "fax": "+41 44 762 51 22", "healthcare": "rehabilitation", "loc_name": "Rehabilitationszentrum des Kinderspitals Zürich", "name": "Kinder-Reha Schweiz", "operator": "Kinderspital Zürich - Eleonorenstiftung", "phone": "+41 44 762 51 11", "website": "https://www.kispi.uzh.ch/rza/de/Seiten/default.aspx"}}, {"name": "Spital Limmattal", "latitude": 47.3935618, "longitude": 8.4304696, "source": "osm", "_tags": {"addr:city": "Schlieren", "addr:housenumber": "100", "addr:postcode": "8952", "addr:street": "Urdorferstrasse", "amenity": "hospital", "contact:phone": "+41 44 733 11 11", "healthcare": "hospital", "healthcare:speciality": "intensive", "name": "Spital Limmattal", "operator": "Spital Limmattal", "website": "https://www.spital-limmattal.ch/", "wikidata": "Q30260556"}}, {"name": "Kantonsspital Baden", "latitude": 47.4546891, "longitude": 8.2783045, "source": "osm", "_tags": {"addr:city": "Baden", "addr:housenumber": "1", "addr:postcode": "5404", "addr:street": "Im Ergel", "amenity": "hospital", "emergency": "yes", "healthcare": "hospital", "healthcare:speciality": "intensive", "name": "Kantonsspital Baden", "opening_hours": "24/7", "operator": "Kantonsspital Baden AG", "phone": "+41 56 486 21 11", "short_name": "KSB", "website": "https://www.kantonsspitalbaden.ch/", "wikidata": "Q1728147", "wikipedia": "de:Kantonsspital Baden"}}, {"name": "Psychiatriezentrum Uster Alterstagesklinik", "latitude": 47.3522233, "longitude": 8.7277794, "source": "osm", "_tags": {"addr:city": "Uster", "addr:housenumber": "30", "addr:postcode": "8610", "addr:street": "Asylstrasse", "amenity": "hospital", "healthcare": "hospital", "name": "Psychiatriezentrum Uster Alterstagesklinik", "phone": "+41 44 931 39 39", "website": "https://adressverzeichnis.sozialearbeit.zhaw.ch/Detail/Index/Clienia_Schloessli_AG_-_Psychiatriezentrum_Uster-Alterstagesklinik-Uster-2ba9eb04-bc44-e311-8b4f-005056a606f6"}}, {"name": "Gesundheitszentrum Dielsdorf", "latitude": 47.4782993, "longitude": 8.451156, "source": "osm", "_tags": {"amenity": "hospital", "contact:city": "Dielsdorf", "contact:housenumber": "11", "contact:postcode": "8157", "contact:street": "Breitestrasse", "email": "info@gzdielsdorf.ch", "emergency": "no", "healthcare": "hospital", "name": "Gesundheitszentrum Dielsdorf", "operator": "Zweckverband Gesundheitszentrum Dielsdorf", "phone": "+41 44 854 64 64", "website": "https://www.gzdielsdorf.ch/"}}, {"name": "Spital Zollikerberg", "latitude": 47.3486971, "longitude": 8.5989214, "source": "osm", "_tags": {"addr:city": "Zollikerberg", "addr:country": "CH", "addr:housenumber": "20", "addr:postcode": "8125", "addr:street": "Trichtenhauserstrasse", "amenity": "hospital", "emergency": "yes", "healthcare": "hospital", "healthcare:speciality": "intensive", "name": "Spital Zollikerberg", "official_name": "Trichtenhauser Strasse", "phone": "+41 44 397 21 11", "website": "https://www.spitalzollikerberg.ch/", "wikidata": "Q30270433"}}, {"name": "Kantonsspital Nidwalden", "latitude": 46.9598812, "longitude": 8.3574082, "source": "osm", "_tags": {"addr:city": "Stans", "addr:housenumber": "19", "addr:postcode": "6370", "addr:street": "Ennetmooserstrasse", "amenity": "hospital", "emergency": "yes", "healthcare": "hospital", "healthcare:speciality": "intensive", "name": "Kantonsspital Nidwalden", "phone": "+41 41 618 18 18", "website": "http://www.ksnw.ch", "wikidata": "Q1728152"}}, {"name": "Rehaklinik Rheinfelden", "latitude": 47.5586655, "longitude": 7.8073257, "source": "osm", "_tags": {"addr:city": "Rheinfelden", "addr:housenumber": "98", "addr:postcode": "4310", "addr:street": "Salinenstrasse", "amenity": "hospital", "healthcare": "hospital", "name": "Rehaklinik Rheinfelden", "phone": "+41 61 836 51 51", "website": "https://www.reha-rheinfelden.ch/"}}, {"name": "Luzerner Kantonsspital Wolhusen", "latitude": 47.0664718, "longitude": 8.0742143, "source": "osm", "_tags": {"addr:city": "Wolhusen", "addr:country": "CH", "addr:housenumber": "50", "addr:postcode": "6110", "addr:street": "Spitalstrasse", "amenity": "hospital", "emergency": "yes", "healthcare": "hospital", "name": "Luzerner Kantonsspital Wolhusen", "operator": "Luzerner Kantonsspital", "operator:type": "public", "phone": "+41 41 492 82 82", "short_name": "LUKS Wolhusen", "website": "https://www.luks.ch/"}}, {"name": "Luzerner Kantonsspital Sursee", "latitude": 47.1684133, "longitude": 8.1176292, "source": "osm", "_tags": {"addr:city": "Sursee", "addr:country": "CH", "addr:housenumber": "16a", "addr:postcode": "6210", "addr:street": "Spitalstrasse", "amenity": "hospital", "healthcare": "hospital", "healthcare:speciality": "intensive", "name": "Luzerner Kantonsspital Sursee", "phone": "+41 41 926 45 45", "short_name": "LUKS Sursee", "website": "https://www.luks.ch/standorte/standort-sursee"}}, {"name": "Klinik Adelheid", "latitude": 47.1412944, "longitude": 8.5911604, "source": "osm", "_tags": {"addr:city": "Unterägeri", "addr:country": "CH", "addr:housenumber": "71", "addr:postcode": "6314", "addr:street": "Höhenweg", "amenity": "hospital", "email": "info@klinik-adelheid.ch", "healthcare": "hospital", "name": "Klinik Adelheid", "operator": "Klinik Adelheid AG", "phone": "+41 41 754 30 00", "source": "bing", "website": "https://www.klinik-adelheid.ch/"}}, {"name": "Gesundheitszentrum Fricktal - Spital Rheinfelden", "latitude": 47.5560072, "longitude": 7.8068831, "source": "osm", "_tags": {"addr:city": "Rheinfelden", "addr:housenumber": "12", "addr:postcode": "4310", "addr:street": "Riburger Strasse", "amenity": "hospital", "emergency": "yes", "healthcare": "hospital", "name": "Gesundheitszentrum Fricktal - Spital Rheinfelden", "phone": "+41 61 835 66 66", "short_name": "GZF Rheinfelden", "shortest_name": "GZF", "source": "AGIS 2016", "website": "https://www.gzf.ch/startseite.html"}}, {"name": "", "latitude": 47.4813099, "longitude": 8.2172012, "source": "osm", "_tags": {"addr:city": "Windisch", "addr:housenumber": "1", "addr:street": "Königsfelderstrasse", "amenity": "hospital", "fixme": "Gelände nur geschätzt", "healthcare": "hospital", "healthcare:speciality": "psychiatry", "loc_name": "Psychiatrie Königsfelden", "short_name": "PDAG", "website": "https://www.pdag.ch/", "wikidata": "Q60607340", "wikimedia_commons": "File:Psychiatrische_Klinik_Königsfelden_-_panoramio.jpg"}}, {"name": "Kantonsspital Uri", "latitude": 46.8822997, "longitude": 8.6371561, "source": "osm", "_tags": {"addr:city": "Altdorf UR", "addr:country": "CH", "addr:housenumber": "1", "addr:postcode": "6460", "addr:street": "Spitalstrasse", "amenity": "hospital", "email": "info@ksuri.ch", "emergency": "yes", "healthcare": "hospital", "healthcare:speciality": "intensive", "name": "Kantonsspital Uri", "opening_hours": "Mo-Su 00:00-24:00", "phone": "+41 41 875 51 51", "website": "https://www.ksuri.ch/"}}, {"name": "Psychiatriezentrum Breitenau", "latitude": 47.7060913, "longitude": 8.6254954, "source": "osm", "_tags": {"addr:city": "Schaffhausen", "addr:country": "CH", "addr:housenumber": "111", "addr:postcode": "8200", "addr:street": "Nordstrasse", "amenity": "hospital", "email": "psychiatriezentrum@spitaeler-sh.ch", "healthcare:speciality": "psychiatry", "name": "Psychiatriezentrum Breitenau", "website": "https://www.spitaeler-sh.ch/Patienten-Besucher/Psychiatriezentrum/index.php"}}, {"name": "ZURZACH Care", "latitude": 47.5905075, "longitude": 8.2878156, "source": "osm", "_tags": {"addr:city": "Bad Zurzach", "addr:country": "CH", "addr:housenumber": "36", "addr:postcode": "5330", "addr:street": "Quellenstrasse", "amenity": "hospital", "healthcare": "hospital", "name": "ZURZACH Care", "website": "https://www.rehaclinic.ch"}}, {"name": "Asana Spital Leuggern", "latitude": 47.5807315, "longitude": 8.2173226, "source": "osm", "_tags": {"addr:city": "Leuggern", "addr:country": "CH", "addr:housenumber": "12", "addr:postcode": "5316", "addr:street": "Kommendeweg", "amenity": "hospital", "contact:phone": "+41 56 269 42 30", "contact:website": "http://www.spitalleuggern.ch/", "emergency": "yes", "healthcare": "hospital", "name": "Asana Spital Leuggern", "operator": "Asana"}}, {"name": "Seeklinik Brunnen", "latitude": 46.9961632, "longitude": 8.6046354, "source": "osm", "_tags": {"addr:city": "Brunnen", "addr:housenumber": "8", "addr:postcode": "6440", "addr:street": "Gersauerstrasse", "amenity": "hospital", "healthcare": "hospital", "healthcare:speciality": "burnout", "name": "Seeklinik Brunnen", "operator": "AMEOS Gruppe", "phone": "+41 41 825 48 48", "website": "https://seeklinik-brunnen.ch/"}}, {"name": "Schweizer Paraplegiker-Zentrum (SPZ)", "latitude": 47.1421149, "longitude": 8.1308554, "source": "osm", "_tags": {"addr:city": "Nottwil", "addr:housenumber": "1", "addr:postcode": "6207", "addr:street": "Guido A. Zäch Strasse", "amenity": "hospital", "emergency": "yes", "healthcare": "hospital", "healthcare:speciality": "intensive", "name": "Schweizer Paraplegiker-Zentrum (SPZ)", "phone": "+41 41 939 54 54", "website": "https://www.paraplegie.ch/spz/de", "wikidata": "Q16854951", "wikipedia": "de:Schweizer Paraplegiker-Zentrum"}}, {"name": "Asana Spital Menziken", "latitude": 47.2459567, "longitude": 8.1902855, "source": "osm", "_tags": {"addr:city": "Menziken", "addr:country": "CH", "addr:housenumber": "1", "addr:postcode": "5737", "addr:street": "Spitalstrasse", "amenity": "hospital", "email": "info@spitalmenziken.ch", "fax": "+41 62 765 35 25", "healthcare": "hospital", "name": "Asana Spital Menziken", "opening_hours": "Mo-Su 10:00-20:00", "phone": "+41 62 765 31 31", "website": "https://www.spitalmenziken.ch/"}}, {"name": "Spital Laufenburg", "latitude": 47.5620777, "longitude": 8.0644031, "source": "osm", "_tags": {"amenity": "hospital", "emergency": "yes", "healthcare": "hospital", "name": "Spital Laufenburg", "operator": "Gesundheitszentrum Fricktal", "phone": "+41 62 874 50 00", "short_name": "GZF Laufenburg", "shortest_name": "GZF", "website": "https://www.gzf.ch/", "wheelchair": "yes"}}, {"name": "Privatklinik Belair", "latitude": 47.7010763, "longitude": 8.6239373, "source": "osm", "_tags": {"addr:city": "Schaffhausen", "addr:country": "CH", "addr:housenumber": "30", "addr:postcode": "8201", "addr:street": "Rietstrasse", "amenity": "hospital", "healthcare": "hospital", "name": "Privatklinik Belair", "phone": "+41 52 632 19 00", "website": "https://www.hirslanden.ch/de/klinik-belair/home.html", "wikidata": "Q23783939"}}, {"name": "Klinik St. Blasien", "latitude": 47.763476, "longitude": 8.1283313, "source": "osm", "_tags": {"addr:city": "St. Blasien", "addr:country": "DE", "addr:housenumber": "4", "addr:postcode": "79837", "addr:street": "Muchenländer Straße", "amenity": "hospital", "description": "ehemalige Klinik, leerstehend", "disused": "yes", "emergency": "no", "healthcare": "hospital", "name": "Klinik St. Blasien", "wikidata": "Q1774568"}}, {"name": "Klinikum Hochrhein", "latitude": 47.6224996, "longitude": 8.2077841, "source": "osm", "_tags": {"addr:city": "Waldshut-Tiengen", "addr:country": "DE", "addr:housenumber": "93-101", "addr:postcode": "79761", "addr:street": "Kaiserstraße", "amenity": "hospital", "contact:email": "service@klhr.de", "contact:fax": "+49 7751 854177", "contact:phone": "+49 7751 850", "contact:website": "https://www.klinikum-hochrhein.de/", "emergency": "yes", "healthcare": "hospital", "name": "Klinikum Hochrhein", "old_name": "Spital Waldshut", "operator": "Klinikum Hochrhein GmbH", "start_date": "1411", "wheelchair": "yes", "wikidata": "Q1599015", "wikipedia": "de:Klinikum Hochrhein"}}, {"name": "Sigma-Zentrum", "latitude": 47.5568076, "longitude": 7.9393969, "source": "osm", "_tags": {"addr:city": "Bad Säckingen", "addr:country": "DE", "addr:housenumber": "1", "addr:postcode": "79713", "addr:street": "Weihermatten", "amenity": "hospital", "healthcare": "hospital", "name": "Sigma-Zentrum"}}, {"name": "", "latitude": 47.2666723, "longitude": 8.1228539, "source": "osm", "_tags": {"amenity": "hospital", "healthcare": "hospital"}}, {"name": "Universitätsspital Flughafen", "latitude": 47.449175, "longitude": 8.5658071, "source": "osm", "_tags": {"addr:city": "Zürich-Flughafen", "addr:housenumber": "59", "addr:postcode": "8058", "addr:street": "The Circle", "amenity": "hospital", "email": "info@usz.ch", "name": "Universitätsspital Flughafen", "operator": "Universitätsspital Zürich", "phone": "+41 44 255 11 11", "short_name": "USZ Flughafen", "website": "https://www.usz.ch/standorte/usz-flughafen/", "wheelchair": "yes"}}, {"name": "Haus B", "latitude": 47.2303761, "longitude": 7.8438973, "source": "osm", "_tags": {"addr:city": "St. Urban", "addr:country": "CH", "addr:housenumber": "1b", "addr:postcode": "4915", "addr:street": "Schafmattstrasse", "amenity": "hospital", "building": "yes", "healthcare": "hospital", "healthcare:speciality": "psychiatry", "name": "Haus B", "operator": "Luzerner Psychiatrie LUPS", "source": "AGIS2019"}}, {"name": "Haus 33 Kinderspital", "latitude": 47.0586814, "longitude": 8.2980087, "source": "osm", "_tags": {"addr:city": "Luzern 16", "addr:housename": "Haus 33", "addr:housenumber": "33", "addr:postcode": "6000", "addr:street": "Spitalstrasse", "alt_name": "Kinderspital Luzern", "amenity": "hospital", "building": "hospital", "building:levels": "5", "emergency": "yes", "internet_access": "wlan", "name": "Haus 33 Kinderspital", "name:en": "Children's Hospital", "note": "Die offiziellen Gebäudenamen am Luzerner Kantonsspital sind \"Haus NN\" und werden so in allen Konversationen verwendet.", "phone": "+41 41 205 31 66", "roof:shape": "flat", "website": "https://www.luks.ch/standorte/standort-luzern/kinderspital", "wheelchair": "yes"}}, {"name": "Zuger Kantonsspital", "latitude": 47.1938832, "longitude": 8.5181932, "source": "osm", "_tags": {"addr:city": "Baar", "addr:country": "CH", "addr:housenumber": "11", "addr:postcode": "6340", "addr:street": "Landhausstrasse", "amenity": "hospital", "contact:phone": "+41 41 399 11 11", "healthcare": "hospital", "healthcare:speciality": "intensive", "name": "Zuger Kantonsspital", "operator": "Zuger Kantonsspital AG", "website": "https://www.zgks.ch/", "wheelchair": "yes"}}, {"name": "Luzerner Psychiatrie Sarnen", "latitude": 46.8870035, "longitude": 8.2476343, "source": "osm", "_tags": {"addr:city": "Sarnen", "addr:housenumber": "8", "addr:postcode": "6060", "addr:street": "Militärstrasse", "amenity": "hospital", "email": "klinik-sarnen@lups.ch", "healthcare": "hospital", "healthcare:speciality": "psychiatry", "name": "Luzerner Psychiatrie Sarnen", "operator": "Luzerner Psychiatrie", "phone": "+41 58 856 59 59", "website": "https://www.lups.ch/erwachsenen-psychiatrie/allgemeinpsychiatrie/kliniken/"}}, {"name": "Luzerner Psychiatrie", "latitude": 47.0572462, "longitude": 8.2934118, "source": "osm", "_tags": {"addr:city": "Luzern 16", "addr:postcode": "6000", "addr:street": "Spitalstrasse", "amenity": "hospital", "emergency": "yes", "healthcare": "hospital", "healthcare:speciality": "psychiatry", "name": "Luzerner Psychiatrie", "operator": "Luzerner Psychiatrie AG", "short_name": "lups", "website": "https://www.lups.ch"}}, {"name": "Spital Affoltern am Albis", "latitude": 47.2847406, "longitude": 8.4565599, "source": "osm", "_tags": {"addr:city": "Affoltern am Albis", "addr:housenumber": "27", "addr:postcode": "8910", "addr:street": "Sonnenbergstrasse", "amenity": "hospital", "email": "kontakt@spitalaffoltern.ch", "emergency": "yes", "fax": "+41 44 714 25 32", "healthcare": "hospital", "name": "Spital Affoltern am Albis", "phone": "+41 44 714 21 11", "type": "multipolygon", "website": "https://www.spitalaffoltern.ch"}}, {"name": "Spital Bülach", "latitude": 47.521322, "longitude": 8.5335901, "source": "osm", "_tags": {"addr:city": "Bülach", "addr:country": "CH", "addr:housenumber": "24", "addr:postcode": "8180", "addr:street": "Spitalstrasse", "amenity": "hospital", "emergency": "yes", "healthcare": "hospital", "healthcare:speciality": "intensive", "name": "Spital Bülach", "phone": "+41 44 863 22 11", "type": "multipolygon", "website": "https://www.spitalbuelach.ch/", "wheelchair": "yes", "wikidata": "Q51682761"}}, {"name": "", "latitude": 47.7119506, "longitude": 8.635888, "source": "osm", "_tags": {"amenity": "hospital", "type": "building"}}, {"name": "Kantonsspital Schaffhausen", "latitude": 47.7122807, "longitude": 8.6361076, "source": "osm", "_tags": {"addr:city": "Schaffhausen", "addr:country": "CH", "addr:housenumber": "81", "addr:postcode": "8208", "addr:street": "Geissbergstrasse", "amenity": "hospital", "emergency": "yes", "healthcare": "hospital", "healthcare:speciality": "intensive", "name": "Kantonsspital Schaffhausen", "phone": "+41 52 634 34 34", "short_name": "KSSH", "type": "multipolygon", "website": "https://www.spitaeler-sh.ch/Patienten-Besucher/Kantonsspital-SH/index.php", "wikimedia_commons": "File:Kantonsspital Schaffhausen. Erweiterungsbau 1976.jpg"}}, {"name": "AndreasKlinik Cham Zug", "latitude": 47.1813399, "longitude": 8.4553047, "source": "osm", "_tags": {"amenity": "hospital", "emergency": "yes", "healthcare": "hospital", "name": "AndreasKlinik Cham Zug", "phone": "+41 41 784 07 84", "type": "multipolygon", "website": "https://www.andreasklinik.ch/", "wheelchair": "yes", "wikidata": "Q23783969", "wikipedia": "de:AndreasKlinik"}}, {"name": "Klinik St. Anna", "latitude": 47.0586431, "longitude": 8.3262071, "source": "osm", "_tags": {"addr:city": "Luzern", "addr:housenumber": "32", "addr:postcode": "6006", "addr:street": "St.-Anna-Strasse", "amenity": "hospital", "emergency": "yes", "healthcare": "hospital", "healthcare:speciality": "intensive", "name": "Klinik St. Anna", "operator": "Hirslanden", "type": "multipolygon", "website": "http://www.st-anna.ch", "wheelchair": "yes", "wikidata": "Q21036361", "wikipedia": "de:Klinik St. Anna (Luzern)"}}, {"name": "Clienia Schlössli", "latitude": 47.2687567, "longitude": 8.7201265, "source": "osm", "_tags": {"addr:city": "Oetwil am See", "addr:housenumber": "8", "addr:postcode": "8618", "addr:street": "Schlösslistrasse", "amenity": "hospital", "healthcare": "hospital", "healthcare:speciality": "psychiatry", "name": "Clienia Schlössli", "operator": "Clienia", "operator:type": "private", "type": "multipolygon", "website": "https://www.clienia.ch/"}}, {"name": "Universitäts-Kinderspital Zürich", "latitude": 47.3523955, "longitude": 8.571234, "source": "osm", "_tags": {"alt_name": "Kinderspital Zürich", "amenity": "hospital", "contact:city": "Zürich", "contact:email": "info@kispi.uzh.ch", "contact:housenumber": "30", "contact:phone": "+41 44 249 49 49", "contact:postcode": "8008", "contact:street": "Lenggstrasse", "contact:website": "https://www.kispi.uzh.ch/", "description": "Specialized on hospitalized children.", "emergency": "yes", "healthcare": "hospital", "healthcare:speciality": "intensive;paediatric_surgery;paediatrics", "name": "Universitäts-Kinderspital Zürich", "operator": "Eleonorenstiftung", "short_name": "Kispi ZH", "type": "multipolygon", "wikidata": "Q1374004"}}, {"name": "Kantonsspital Olten", "latitude": 47.356448, "longitude": 7.9037129, "source": "osm", "_tags": {"amenity": "hospital", "emergency": "yes", "healthcare": "hospital", "healthcare:speciality": "intensive;anaesthetics;cardiology;emergency;endocrinology;gastroentereology;geriatrics;gynaecology;haematology;infectious_diseases;internal;nephrology;oncology;orthopaedics;otolaryngology;palliative;proctology;pulmonology;radiology;surgery;urology;", "name": "Kantonsspital Olten", "operator": "Solothurner Spitäler AG", "phone": "+41 62 311 41 11", "type": "multipolygon", "website": "https://www.solothurnerspitaeler.ch/unsere-spitaeler/kantonsspital-olten/", "wheelchair": "yes"}}, {"name": "Kantonsspital Obwalden", "latitude": 46.8895511, "longitude": 8.245999, "source": "osm", "_tags": {"amenity": "hospital", "emergency": "yes", "healthcare": "hospital", "name": "Kantonsspital Obwalden", "phone": "+41 41 666 44 22", "type": "multipolygon", "website": "https://www.ksow.ch", "wikidata": "Q14956909"}}]