[{"name": "Clos Saint-Victor", "latitude": 47.3595793, "longitude": 0.6665068, "source": "osm", "_tags": {"amenity": "hospital", "healthcare": "hospital", "name": "Clos Saint-Victor", "phone": "+33 2 47 48 70 70", "ref:FR:FINESS": "370000218", "type:FR:FINESS": "109"}}, {"name": "Centre de Rééducation Fonctionnelle Neurologique Bel-Air", "latitude": 47.4378803, "longitude": 0.645396, "source": "osm", "_tags": {"alt_name": "Centre de Rééducation Bel-Air", "amenity": "hospital", "name": "Centre de Rééducation Fonctionnelle Neurologique Bel-Air", "operator": "Croix Rouge Française", "phone": "+33 2 47 42 43 00", "ref:FR:FINESS": "370011223", "type:FR:FINESS": "379"}}, {"name": "", "latitude": 47.1966968, "longitude": 0.4832764, "source": "osm", "_tags": {"amenity": "hospital", "operator": "Minisitère des Armées - Service de Santé des Armées"}}, {"name": "Clinique de la Loire", "latitude": 47.2465466, "longitude": -0.0610068, "source": "osm", "_tags": {"amenity": "hospital", "healthcare": "hospital", "name": "Clinique de la Loire", "ref:FR:FINESS": "490007929", "type:FR:FINESS": "128"}}, {"name": "Centre Médico-Psychologique enfants adolescents de Loudun", "latitude": 47.0117994, "longitude": 0.0835966, "source": "osm", "_tags": {"addr:housenumber": "42", "addr:street": "Avenue de Leuze", "amenity": "social_facility", "contact:phone": "+33 5 16 52 61 03", "emergency": "no", "healthcare": "hospital", "healthcare:speciality": "psychiatry", "name": "Centre Médico-Psychologique enfants adolescents de Loudun", "operator": "Hôpital Henri Laborit", "ref:FR:FINESS": "860782374", "social_facility": "ambulatory_care", "social_facility:for": "mental_health", "type:FR:FINESS": "156", "website": "https://ch-laborit.fr/presentation-du-chl/sectorisation-soins-adultes/secteur-1-poitiers-loudun/", "wheelchair": "yes"}}, {"name": "Centre Médico-Psychologique adulte de Loudun", "latitude": 47.0105526, "longitude": 0.077432, "source": "osm", "_tags": {"amenity": "social_facility", "emergency": "no", "fax": "+33 5 49 98 89 16", "healthcare": "hospital", "healthcare:speciality": "psychiatry", "name": "Centre Médico-Psychologique adulte de Loudun", "operator": "Hôpital Henri Laborit", "phone": "+33 5 49 98 33 33", "ref:FR:FINESS": "860005651", "ref:FR:SIRET": "26860002000401", "social_facility": "ambulatory_care", "social_facility:for": "mental_health", "source": "cadastre-dgi-fr source : Direction Générale des Impôts - Cadastre. Mise à jour : 2010", "type:FR:FINESS": "156", "website": "https://ch-laborit.fr/presentation-du-chl/sectorisation-soins-adultes/secteur-1-poitiers-loudun/"}}, {"name": "", "latitude": 47.010635, "longitude": 0.0774007, "source": "osm", "_tags": {"amenity": "hospital", "fax": "+33549988916", "healthcare": "hospital", "phone": "+33549983333", "ref:FR:FINESS": "860789882", "ref:FR:SIRET": "26860002000468", "source": "Le ministère des solidarités et de la santé - 03/2019", "type:FR:FINESS": "292"}}, {"name": "Pharmacie les 3 Tours", "latitude": 47.3257455, "longitude": 0.4085015, "source": "osm", "_tags": {"addr:city": "Langeais", "addr:housenumber": "4", "addr:postcode": "37130", "addr:street": "Rue Thiers", "amenity": "hospital", "healthcare": "hospital", "name": "Pharmacie les 3 Tours"}}, {"name": "Équipe Mobile Liaison Accompagnement", "latitude": 47.3875559, "longitude": 0.6971402, "source": "osm", "_tags": {"amenity": "hospital", "contact:city": "Tours", "contact:housenumber": "19", "contact:postcode": "37000", "contact:street": "Rue Édouard Vaillant", "email": "emla@chu-tours.fr", "healthcare": "hospital", "name": "Équipe Mobile Liaison Accompagnement", "phone": "+33 2 47 47 71 55", "short_name": "EMLA", "website": "https://www.chu-tours.fr/etre-soigne-et-rendre-visite-a-un-patient/joindre-le-chru/liste-des-services/equipe-mobile-liaison-accompagnement-emla/"}}, {"name": "Centre Hospitalier de Saumur", "latitude": 47.2467403, "longitude": -0.0603091, "source": "osm", "_tags": {"amenity": "hospital", "email": "direction@ch-saumur.fr", "emergency": "yes", "fax": "+33 2 41 53 31 29", "healthcare": "hospital", "name": "Centre Hospitalier de Saumur", "operator:type": "public", "phone": "+33 2 41 53 30 30", "ref:FR:FINESS": "490001765", "type:FR:FINESS": "355", "website": "https://www.ch-saumur.fr/"}}, {"name": "Hôpital Bretonneau", "latitude": 47.3877879, "longitude": 0.6696187, "source": "osm", "_tags": {"amenity": "hospital", "contact:city": "Tours", "contact:housenumber": "2", "contact:postcode": "37000", "contact:street": "Boulevard Tonnelé", "emergency": "yes", "fax": "+33 2 47 47 47 84", "healthcare": "hospital", "healthcare:speciality": "intensive", "name": "Hôpital Bretonneau", "name:etymology:wikidata": "Q2004700", "operator": "CHU de Tours", "operator:type": "public", "phone": "+33 2 47 47 47 47", "ref:FR:FINESS": "370000861", "ref:FR:SIRET": "26370018900016", "type:FR:FINESS": "101", "website": "https://www.chu-tours.fr/hopital-bretonneau/", "wikidata": "Q17373221", "wikipedia": "fr:Hôpital Bretonneau (Tours)"}}, {"name": "Hôpital Trousseau", "latitude": 47.350201, "longitude": 0.7119498, "source": "osm", "_tags": {"alt_name": "CHRU de Tours", "amenity": "hospital", "emergency": "yes", "fax": "+33 2 47 47 46 89", "healthcare": "hospital", "healthcare:speciality": "intensive", "name": "Hôpital Trousseau", "operator": "CHU de Tours", "operator:type": "public", "phone": "+33 2 47 47 47 47", "ref:FR:FINESS": "370004467", "type:FR:FINESS": "101", "website": "https://www.chu-tours.fr/hopital-trousseau.html"}}, {"name": "Hôpital de jour de psychothérapie pour adultes", "latitude": 47.1722132, "longitude": 0.2480297, "source": "osm", "_tags": {"addr:city": "Chinon", "addr:country": "FR", "addr:housenumber": "17", "addr:postcode": "37500", "addr:street": "Rue Saint-Jean", "amenity": "hospital", "building": "yes", "name": "Hôpital de jour de psychothérapie pour adultes", "ref:FR:FINESS": "370000895", "source": "cadastre-dgi-fr source : Direction Générale des Impôts - Cadastre. Mise à jour : 2010"}}, {"name": "Centre de soins Louis Sevestre", "latitude": 47.4390524, "longitude": 0.6459352, "source": "osm", "_tags": {"amenity": "hospital", "building": "hospital", "name": "Centre de soins Louis Sevestre", "phone": "+33 2 47 42 46 46", "ref:FR:FINESS": "370000986", "source": "cadastre-dgi-fr source : Direction Générale des Impôts - Cadastre. Mise à jour : 2010", "type:FR:FINESS": "355"}}, {"name": "T23 - Centre Psychothérapique de Tours Sud (CHU)", "latitude": 47.3521445, "longitude": 0.71156, "source": "osm", "_tags": {"amenity": "hospital", "building": "yes", "healthcare": "hospital", "name": "T23 - Centre Psychothérapique de Tours Sud (CHU)", "phone": "+33 2 47 47 47 47", "ref:FR:FINESS": "370004418", "source": "cadastre-dgi-fr source : Direction Générale des Impôts - Cadastre. Mise à jour : 2010", "type:FR:FINESS": "101"}}, {"name": "Pôle Santé Sarthe et Loir", "latitude": 47.773904, "longitude": -0.207147, "source": "osm", "_tags": {"addr:city": "Le Bailleul", "addr:country": "FR", "addr:postcode": "72200", "addr:street": "La Chasse du Point du Jour", "amenity": "hospital", "email": "direction@pole-pssl.fr", "emergency": "yes", "fax": "+33 2 44 71 30 09", "healthcare": "hospital", "name": "Pôle Santé Sarthe et Loir", "operator:type": "public", "phone": "+33 2 44 71 30 00", "ref:FR:FINESS": "720016179", "type:FR:FINESS": "355", "website": "https://www.ch-polesantesartheloir.fr/contact"}}, {"name": "Hôpital Clocheville", "latitude": 47.3899785, "longitude": 0.6804971, "source": "osm", "_tags": {"alt_name": "Hôpital pédiatrique Gatien de Clocheville", "amenity": "hospital", "children": "only", "contact:city": "Tours", "contact:housenumber": "49", "contact:postcode": "37000", "contact:street": "Boulevard Béranger", "emergency": "yes", "fax": "+33 2 47 47 82 02", "healthcare": "hospital", "healthcare:speciality": "paediatrics;intensive", "name": "Hôpital Clocheville", "name:etymology:wikidata": "Q110197530", "operator": "CHU de Tours", "operator:type": "public", "phone": "+33 2 47 47 60 99", "ref:FR:FINESS": "370000499", "ref:FR:SIRET": "26370018900024", "type:FR:FINESS": "101", "website": "https://www.chu-tours.fr/hopital-clocheville/", "wikidata": "Q28039965"}}, {"name": "Centre Hospitalier de Château du Loir", "latitude": 47.6912221, "longitude": 0.4198578, "source": "osm", "_tags": {"amenity": "hospital", "building": "hospital", "emergency": "yes", "fax": "+33 2 43 44 51 00", "healthcare": "hospital", "name": "Centre Hospitalier de Château du Loir", "phone": "+33 2 43 44 77 77", "ref:FR:FINESS": "720000124", "ref:FR:RNB": "51VWT8CM49Q3", "source": "cadastre-dgi-fr source : Direction Générale des Finances Publiques - Cadastre. Mise à jour : 2013", "type:FR:FINESS": "355", "website": "http://ch-chateauduloir.fr/accueil.php"}}, {"name": "Hôpital François de Daillon", "latitude": 47.6494857, "longitude": 0.1544717, "source": "osm", "_tags": {"addr:city": "Le Lude", "addr:housenumber": "1", "addr:postcode": "72800", "addr:street": "Chemin des Bichousières", "amenity": "hospital", "healthcare": "hospital", "name": "Hôpital François de Daillon", "phone": "+33243484848", "ref:FR:FINESS": "720000314", "source": "Le ministère des solidarités et de la santé - 03/2019", "wikidata": "Q92063115"}}, {"name": "Centre Médico-Chirurgical de Touraine", "latitude": 47.4328286, "longitude": 0.6698341, "source": "osm", "_tags": {"addr:housenumber": "6", "addr:street": "rue Thérèse et René Planiol", "alt_name": "CMCT", "amenity": "clinic", "building": "hospital", "healthcare": "hospital", "healthcare:speciality": "dermatology;orthopaedics;dentistry;gynaecology;internal", "name": "Centre Médico-Chirurgical de Touraine", "note": "Pas de ref:FR:FINESS", "short_name": "CMCT", "source": "cadastre-dgi-fr source : Direction Générale des Impôts - Cadastre. Mise à jour : 2018", "website": "http://cmct-touraine.com/"}}, {"name": "Clinique NCT+ Saint Gatien Alliance", "latitude": 47.4332673, "longitude": 0.6679201, "source": "osm", "_tags": {"addr:housenumber": "1", "addr:street": "Boulevard Alfred Nobel", "alt_name": "NCT+", "alt_name_1": "Clinique Saint Gatien", "amenity": "hospital", "emergency": "yes", "fax": "+33 2 47 49 11 62", "healthcare": "hospital", "healthcare:speciality": "intensive", "name": "Clinique NCT+ Saint Gatien Alliance", "old_name": "Clinique de l'Alliance", "operator": "Nouvelle Clinique de Tours Plus • Saint-Gatien • Alliance", "operator:type": "private", "phone": "+33 2 47 88 37 37", "ref:FR:FINESS": "370000093", "source": "cadastre-dgi-fr source : Direction Générale des Impôts - Cadastre. Mise à jour : 2018", "type:FR:FINESS": "365", "website": "https://nctplus.com/"}}, {"name": "Clinique Jeanne d'Arc", "latitude": 47.1883928, "longitude": 0.2922774, "source": "osm", "_tags": {"amenity": "hospital", "healthcare": "hospital", "name": "Clinique Jeanne d'Arc", "operator:type": "private", "phone": "+33 2 47 93 70 00", "ref:FR:FINESS": "370000051", "source": "cadastre-dgi-fr source : Direction Générale des Impôts - Cadastre. Mise à jour : 2012", "type:FR:FINESS": "128", "website": "https://cjda37.fr/"}}, {"name": "Centre hospitalier de Thouars", "latitude": 46.9725263, "longitude": -0.181652, "source": "osm", "_tags": {"amenity": "hospital", "emergency": "limited", "healthcare:speciality": "psychiatry", "name": "Centre hospitalier de Thouars", "operator": "Centre hospitalier Nord Deux-Sèvres", "operator:type": "public", "phone": "+33 5 49 66 50 42", "ref:FR:FINESS": "790003537", "source": "cadastre-dgi-fr source : Direction Générale des Impôts - Cadastre. Mise à jour : 2011", "type:FR:FINESS": "355", "website": "https://www.chnds.fr/accueil.aspx"}}, {"name": "Centre hospitalier de Loudun", "latitude": 47.0115783, "longitude": 0.0766145, "source": "osm", "_tags": {"alt_name": "Hôpital Renaudot", "amenity": "hospital", "emergency": "yes", "healthcare": "hospital", "name": "Centre hospitalier de Loudun", "operator": "Groupe hospitalier Nord-Vienne", "operator:type": "public", "phone": "+33 5 49 98 45 42", "ref:FR:FINESS": "860000033", "type:FR:FINESS": "355", "website": "https://www.ghnv.fr/"}}, {"name": "Centre hospitalier de Chatellerault", "latitude": 46.8315333, "longitude": 0.5556605, "source": "osm", "_tags": {"amenity": "hospital", "emergency": "yes", "healthcare": "hospital", "name": "Centre hospitalier de Chatellerault", "operator": "Groupe hospitalier Nord-Vienne", "operator:type": "public", "phone": "+33 5 49 02 90 90", "ref:FR:FINESS": "860000025", "source": "cadastre-dgi-fr source : Direction Générale des Impôts - Cadastre. Mise à jour : 2010", "type:FR:FINESS": "355", "website": "https://www.ghnv.fr/"}}, {"name": "Hôpital de Sainte-Maure", "latitude": 47.1062673, "longitude": 0.6117688, "source": "osm", "_tags": {"amenity": "hospital", "healthcare": "hospital", "name": "Hôpital de Sainte-Maure", "official_name": "Centre Hospitalier de Sainte-Maure", "ref:FR:FINESS": "370001158", "ref:FR:NAF": "8610Z", "source": "Le ministère des solidarités et de la santé - 03/2019", "wikidata": "Q92062712"}}, {"name": "Hôpital Intercommunal Baugeois la Vallée", "latitude": 47.5364048, "longitude": -0.1052753, "source": "osm", "_tags": {"amenity": "hospital", "healthcare": "hospital", "name": "Hôpital Intercommunal Baugeois la Vallée", "ref:FR:FINESS": "490000239", "source": "Le ministère des solidarités et de la santé - 03/2019", "website": "https://www.esbv.fr/", "wikidata": "Q92062760"}}, {"name": "Centre hospitalier du Chinonais", "latitude": 47.1876235, "longitude": 0.2938709, "source": "osm", "_tags": {"alt_name": "Hôpital François Rabelais", "amenity": "hospital", "emergency": "yes", "healthcare": "hospital", "name": "Centre hospitalier du Chinonais", "phone": "+33 2 47 93 75 15", "ref:FR:FINESS": "370000531", "type:FR:FINESS": "355", "website": "https://www.ch-chinon.fr/"}}, {"name": "Centre hospitalier Henri laborit", "latitude": 46.8305888, "longitude": 0.5573503, "source": "osm", "_tags": {"amenity": "hospital", "healthcare": "hospital", "healthcare:speciality": "psychiatry", "name": "Centre hospitalier Henri laborit", "ref:FR:FINESS": "860000017", "type:FR:FINESS": "292"}}, {"name": "Clinique de Châtellerault", "latitude": 46.818912, "longitude": 0.5389461, "source": "osm", "_tags": {"amenity": "hospital", "contact:city": "Châtellerault", "contact:housenumber": "17", "contact:postcode": "86100", "contact:street": "Rue de Verdun", "emergency": "yes", "healthcare": "hospital", "name": "Clinique de Châtellerault", "operator": "Groupe KAPA", "operator:type": "private"}}, {"name": "Centre Hospitalier de Château du Loir", "latitude": 47.6910027, "longitude": 0.4199027, "source": "osm", "_tags": {"amenity": "hospital", "building": "hospital", "diff:ref:FR:RNB": "not_needed", "emergency": "yes", "fax": "+33 2 43 44 51 00", "healthcare": "hospital", "name": "Centre Hospitalier de Château du Loir", "phone": "+33 2 43 44 77 77", "ref:FR:FINESS": "720000124", "source": "cadastre-dgi-fr source : Direction Générale des Finances Publiques - Cadastre. Mise à jour : 2013", "type:FR:FINESS": "355", "website": "http://ch-chateauduloir.fr/accueil.php"}}, {"name": "Centre Hospitalier de Château du Loir", "latitude": 47.6907316, "longitude": 0.4199112, "source": "osm", "_tags": {"amenity": "hospital", "building": "hospital", "emergency": "yes", "fax": "+33 2 43 44 51 00", "healthcare": "hospital", "name": "Centre Hospitalier de Château du Loir", "phone": "+33 2 43 44 77 77", "ref:FR:FINESS": "720000124", "ref:FR:RNB": "3MB2FHP6T1BZ", "source": "cadastre-dgi-fr source : Direction Générale des Finances Publiques - Cadastre. Mise à jour : 2013", "type:FR:FINESS": "355", "website": "http://ch-chateauduloir.fr/accueil.php"}}, {"name": "Centre Hospitalier Jean Pagès", "latitude": 47.3946711, "longitude": 0.5535611, "source": "osm", "_tags": {"addr:city": "Luynes", "addr:postcode": "37230", "addr:street": "Avenue du Clos Mignot", "amenity": "hospital", "building": "hospital", "emergency": "no", "healthcare": "hospital", "name": "Centre Hospitalier Jean Pagès", "ref:FR:FINESS": "370001109", "source": "Le ministère des solidarités et de la santé - 03/2019", "type": "multipolygon", "type:FR:FINESS": "355"}}]