[{"name": "Unité de Soins Palliatifs La Mirandière", "latitude": 47.3062449, "longitude": 5.1082535, "source": "osm", "_tags": {"addr:postcode": "21800", "amenity": "hospital", "healthcare": "hospital", "name": "Unité de Soins Palliatifs La Mirandière", "ref:FR:FINESS": "210986840", "short_name": "La Mirandière", "source": "Le ministère des solidarités et de la santé - 10/2018"}}, {"name": "Centre Hospitalier Nuits-Saint-Georges", "latitude": 47.1342736, "longitude": 4.9489009, "source": "osm", "_tags": {"amenity": "hospital", "healthcare": "hospital", "heritage": "3", "heritage:operator": "mhs", "mhs:inscription_date": "2015-08-26", "name": "Centre Hospitalier Nuits-Saint-Georges", "old_name": "Hôtel-Dieu", "ref:FR:FINESS": "210987590", "ref:mhs": "PA21000079", "source": "Le ministère des solidarités et de la santé - 10/2018", "source:heritage": "Ministère de la Culture - 07/2018", "website": "http://www.hopitaldenuits.fr", "wikidata": "Q26219783"}}, {"name": "Foyer de Vie et de Progres Odette Versey", "latitude": 47.1915742, "longitude": 5.4059265, "source": "osm", "_tags": {"amenity": "hospital", "healthcare": "hospital", "name": "Foyer de Vie et de Progres Odette Versey", "ref:FR:FINESS": "210987020", "type:FR:FINESS": "437"}}, {"name": "", "latitude": 47.3257828, "longitude": 5.0133124, "source": "osm", "_tags": {"amenity": "hospital", "fax": "+33380459752", "phone": "+33380451523", "ref:FR:FINESS": "210010633", "ref:FR:SIRET": "26210006800085", "source": "Le ministère des solidarités et de la santé - 03/2019", "type:FR:FINESS": "292"}}, {"name": "Hôpital de jour pédopsychiatrie Les Rondeaux", "latitude": 47.3531459, "longitude": 5.0503781, "source": "osm", "_tags": {"amenity": "hospital", "fax": "+33380280616", "healthcare": "hospital", "name": "Hôpital de jour pédopsychiatrie Les Rondeaux", "phone": "+33380280610", "ref:FR:FINESS": "210010567", "ref:FR:SIRET": "26210006800168", "source": "Le ministère des solidarités et de la santé - 03/2019", "type:FR:FINESS": "292"}}, {"name": "Unité de Soins et d’Accompagnement Long Personnalisé", "latitude": 47.3198478, "longitude": 5.0156861, "source": "osm", "_tags": {"amenity": "hospital", "healthcare": "hospital", "name": "Unité de Soins et d’Accompagnement Long Personnalisé", "short_name": "USALP"}}, {"name": "CMP Beauce en Vergy", "latitude": 47.3268493, "longitude": 5.0602593, "source": "osm", "_tags": {"healthcare": "hospital", "name": "CMP Beauce en Vergy", "note": "Centre Médico Psychologique / Hôpital de jour (Hôpital psychiatrique de La Chartreuse)"}}, {"name": "Centre Hospitalier de Poligny", "latitude": 46.8323146, "longitude": 5.7082467, "source": "osm", "_tags": {"addr:city": "Poligny", "addr:housenumber": "2", "addr:postcode": "39800", "addr:street": "Avenue Foch", "amenity": "hospital", "capacity": "188", "contact:phone": "+33 3 84 66 46 00", "emergency": "yes", "facebook": "https://www.facebook.com/CentreHospitalierIntercommunalduPaysduRevermont39", "healthcare": "hospital", "name": "Centre Hospitalier de Poligny", "operator": "Centre Hospitalier intercommunal du Pays du Revermont", "operator:type": "public", "ref:FR:FINESS": "390000131", "ref:FR:NAF": "8610Z", "ref:FR:SIRET": "26390009400016", "type:FR:FINESS": "106", "website": "https://hopitaux-jura.fr/chipr/centre-hospitalier-intercommunal-du-pays-du-revermont/poligny-sellieres"}}, {"name": "Centre Hospitalier Spécialisé la Chartreuse", "latitude": 47.3205126, "longitude": 5.0165128, "source": "osm", "_tags": {"addr:city": "Dijon", "addr:housenumber": "1", "addr:postcode": "21000", "addr:street": "Boulevard Chanoine Kir", "amenity": "hospital", "emergency": "yes", "healthcare": "hospital", "healthcare:speciality": "psychiatry", "name": "Centre Hospitalier Spécialisé la Chartreuse", "phone": "+33 3 80 42 48 48", "ref:FR:FINESS": "210987632", "source": "cadastre-dgi-fr source : Direction Générale des Impôts - Cadastre. Mise à jour : 2010", "type:FR:FINESS": "292", "website": "https://www.ch-lachartreuse-dijon-cotedor.fr/"}}, {"name": "Clinique Clément Drevon", "latitude": 47.3122515, "longitude": 5.043416, "source": "osm", "_tags": {"addr:city": "Dijon", "addr:housenumber": "18", "addr:postcode": "21000", "addr:street": "Cours du Général de Gaulle", "amenity": "hospital", "building": "hospital", "check_date": "2024-03-16", "email": "contact@cliniquedrevon.fr", "healthcare": "hospital", "healthcare:speciality": "ophthalmology;surgery", "name": "Clinique Clément Drevon", "phone": "+33 3 80 29 45 00", "ref:FR:FINESS": "210011847", "type:FR:FINESS": "365", "website": "http://www.cliniquedrevon.fr/"}}, {"name": "Centre Hospitalier Louis Pasteur", "latitude": 47.0827662, "longitude": 5.4726169, "source": "osm", "_tags": {"amenity": "hospital", "emergency": "yes", "fax": "+33 3 84 79 80 82", "healthcare": "hospital", "name": "Centre Hospitalier Louis Pasteur", "operator:type": "public", "phone": "+33 3 84 79 80 80", "ref:FR:FINESS": "390000222", "source": "cadastre-dgi-fr source : Direction Générale des Impôts - Cadastre ; mise à jour : 2009", "type:FR:FINESS": "355", "website": "https://www.ch-dole.fr/"}}, {"name": "Polyclinique du Parc", "latitude": 47.0971687, "longitude": 5.5074938, "source": "osm", "_tags": {"amenity": "hospital", "healthcare": "hospital", "name": "Polyclinique du Parc", "ref:FR:FINESS": "390780575", "source": "cadastre-dgi-fr source : Direction Générale des Impôts - Cadastre. Mise à jour : 2010", "type:FR:FINESS": "128"}}, {"name": "CHU - Bâtiment Marion", "latitude": 47.3191146, "longitude": 5.0706359, "source": "osm", "_tags": {"addr:city": "Dijon", "addr:postcode": "21000", "addr:street": "Rue du Professeur Marion", "building": "hospital", "check_date": "2025-03-04", "healthcare": "hospital", "name": "CHU - Bâtiment Marion"}}, {"name": "Centre Georges-François Leclerc", "latitude": 47.3195511, "longitude": 5.0692351, "source": "osm", "_tags": {"addr:city": "Dijon", "addr:housenumber": "1", "addr:postcode": "21000", "addr:street": "Rue du Professeur Marion", "amenity": "hospital", "check_date": "2025-01-04", "fax": "+33 3 80 67 19 15", "healthcare": "hospital", "healthcare:speciality": "oncology", "name": "Centre Georges-François Leclerc", "phone": "+33 3 80 73 75 00", "ref:FR:FINESS": "210987731", "source": "cadastre-dgi-fr source : Direction Générale des Impôts - Cadastre. Mise à jour : 2012", "type:FR:FINESS": "131", "website": "https://www.cgfl.fr/", "wikidata": "Q30281556", "wikipedia": "fr:Centre Georges-François Leclerc"}}, {"name": "Hôpital François Mitterrand", "latitude": 47.3204203, "longitude": 5.0693484, "source": "osm", "_tags": {"alt_name": "Bocage central", "amenity": "hospital", "emergency": "yes", "fax": "+33 3 80 29 34 21", "healthcare": "hospital", "healthcare:speciality": "intensive", "name": "Hôpital François Mitterrand", "old_name": "Hôpital du Bocage", "operator": "CHU Dijon Bourgogne", "operator:type": "public", "phone": "+33 3 80 29 30 31", "ref:FR:FINESS": "210987558", "source": "cadastre-dgi-fr source : Direction Générale des Impôts - Cadastre. Mise à jour : 2012 / Connaissance locale", "type:FR:FINESS": "101", "website": "https://www.chu-dijon.fr/fr", "wikidata": "Q2945762"}}, {"name": "Centre Hospitalier de Chagny", "latitude": 46.9103356, "longitude": 4.750432, "source": "osm", "_tags": {"amenity": "hospital", "building": "hospital", "name": "Centre Hospitalier de Chagny", "ref:FR:FINESS": "710978107", "source": "cadastre-dgi-fr source : Direction Générale des Impôts - Cadastre. Mise à jour : 2012", "type:FR:FINESS": "106", "wikidata": "Q92063305"}}, {"name": "Centre Hospitalier Seurre", "latitude": 46.995799, "longitude": 5.146579, "source": "osm", "_tags": {"amenity": "hospital", "building": "yes", "healthcare": "hospital", "name": "Centre Hospitalier Seurre", "ref:FR:FINESS": "210987616", "source": "cadastre-dgi-fr source : Direction Générale des Impôts - Cadastre. Mise à jour : 2012"}}, {"name": "Centre gériatrique de Champmaillot", "latitude": 47.3188238, "longitude": 5.0567555, "source": "osm", "_tags": {"amenity": "hospital", "healthcare": "hospital", "name": "Centre gériatrique de Champmaillot", "operator": "Centre Hospitalier Régional Universitaire de Dijon", "ref:FR:FINESS": "210986089", "source": "Le ministère des solidarités et de la santé - 10/2018"}}, {"name": "Clinique Bénigne Joly", "latitude": 47.3347288, "longitude": 5.0102465, "source": "osm", "_tags": {"amenity": "hospital", "healthcare": "hospital", "name": "Clinique Bénigne Joly", "ref:FR:FINESS": "210780789", "source": "cadastre-dgi-fr source : Direction Générale des Impôts - Cadastre;mise à jour : 2014", "type:FR:FINESS": "365"}}, {"name": "Centre hospitalier d'Is-sur-Tille", "latitude": 47.5190198, "longitude": 5.1048838, "source": "osm", "_tags": {"addr:city": "Is-sur-Tille", "addr:postcode": "21120", "amenity": "hospital", "check_date": "2024-09-21", "emergency": "no", "fax": "+33 3 80 95 62 63", "healthcare": "hospital", "healthcare:speciality": "general", "name": "Centre hospitalier d'Is-sur-Tille", "operator:type": "public", "phone": "+33 3 80 95 62 62", "ref:FR:FINESS": "210987582", "type:FR:FINESS": "106", "wikidata": "Q92062917"}}, {"name": "Hopital Philippe Lebon", "latitude": 47.033376, "longitude": 4.8322362, "source": "osm", "_tags": {"amenity": "hospital", "emergency": "yes", "fax": "+33 3 80 24 45 90", "healthcare": "hospital", "name": "Hopital Philippe Lebon", "operator": "Hospice de Beaune", "operator:type": "public", "phone": "+33 3 80 24 44 44", "ref:FR:FINESS": "210987657", "source": "cadastre-dgi-fr source : Direction Générale des Impôts - Cadastre;mise à jour : 2008", "type:FR:FINESS": "355", "website": "https://www.hospices-de-beaune.com/index.php?/hospicesdebeaune"}}, {"name": "Hôpital privé Dijon Bourgogne", "latitude": 47.3621832, "longitude": 5.0523191, "source": "osm", "_tags": {"amenity": "hospital", "emergency": "yes", "fax": "+33 3 80 40 02 55", "healthcare": "hospital", "name": "Hôpital privé Dijon Bourgogne", "operator": "Ramsay Santé", "operator:type": "private", "operator:wikidata": "Q3123085", "operator:wikipedia": "fr:Ramsay Santé", "phone": "+33 3 74 82 21 21", "ref:FR:FINESS": "210012670", "type:FR:FINESS": "365", "website": "https://hopital-prive-dijon-bourgogne.ramsaygds.fr/"}}, {"name": "Hopital d'Auxonne", "latitude": 47.1920715, "longitude": 5.3852909, "source": "osm", "_tags": {"addr:housenumber": "5", "addr:street": "Rue du Château", "amenity": "hospital", "check_date": "2025-04-06", "healthcare": "hospital", "name": "Hopital d'Auxonne", "ref:FR:FINESS": "210987640", "source": "Le ministère des solidarités et de la santé - 03/2019", "wikidata": "Q92063309"}}, {"name": "Pôle Infanto Juvénile Nord", "latitude": 47.07284, "longitude": 5.4651762, "source": "osm", "_tags": {"amenity": "hospital", "healthcare": "hospital", "name": "Pôle Infanto Juvénile Nord", "operator": "CHS du Jura"}}, {"name": "Maison Médicale Valmy", "latitude": 47.3620354, "longitude": 5.0508667, "source": "osm", "_tags": {"amenity": "hospital", "healthcare": "hospital", "name": "Maison Médicale Valmy"}}, {"name": "Centre hospitalier de Gray", "latitude": 47.4461168, "longitude": 5.5859069, "source": "osm", "_tags": {"alt_name": "Centre hospitalier Pierre Vitter", "amenity": "hospital", "email": "direction@ch-gray.fr", "emergency": "yes", "fax": "+33 3 84 64 60 65", "healthcare": "hospital", "name": "Centre hospitalier de Gray", "operator": "Centre hospitalier du Val de Saône", "operator:type": "public", "phone": "+33 3 84 64 61 61", "ref:FR:FINESS": "700000011", "source": "cadastre-dgi-fr source : Direction Générale des Impôts - Cadastre. Mise à jour : 2009", "type": "multipolygon", "type:FR:FINESS": "355", "website": "https://www.centre-hospitalier-gray.fr/", "wikidata": "Q21099756"}}, {"name": "Centre Hospitalier Spécialisé du Jura", "latitude": 47.0700519, "longitude": 5.4589285, "source": "osm", "_tags": {"amenity": "hospital", "healthcare": "hospital", "name": "Centre Hospitalier Spécialisé du Jura", "ref:FR:FINESS": "390000164", "type": "multipolygon", "type:FR:FINESS": "292"}}]