[{"name": "Centre Hospitalier Intercommunal Châtillon Montbard", "latitude": 47.6244755, "longitude": 4.3402321, "source": "osm", "_tags": {"amenity": "hospital", "healthcare": "hospital", "name": "Centre Hospitalier Intercommunal Châtillon Montbard", "ref:FR:FINESS": "210987673", "source": "Le ministère des solidarités et de la santé - 03/2019"}}, {"name": "Hôpital Local de Saulieu", "latitude": 47.2821634, "longitude": 4.2296359, "source": "osm", "_tags": {"amenity": "hospital", "heritage": "3", "heritage:operator": "mhs", "mhs:inscription_date": "1984", "name": "Hôpital Local de Saulieu", "ref:FR:FINESS": "210987681", "ref:mhs": "PA00112655", "source": "Le ministère des solidarités et de la santé - 08/2018", "source:heritage": "data.gouv.fr:Ministère de la Culture - 08/2011", "wikidata": "Q22964982"}}, {"name": "Hôpital Les Cygnes", "latitude": 47.2913209, "longitude": 3.8149279, "source": "osm", "_tags": {"addr:housenumber": "8", "addr:street": "Rue du Panorama", "amenity": "hospital", "fax": "+33 3 86 22 30 96", "healthcare": "hospital", "name": "Hôpital Les Cygnes", "phone": "+33 3 86 22 30 00", "ref:FR:FINESS": "580972610", "type:FR:FINESS": "106", "wikidata": "Q92062664"}}, {"name": "Centre hospitalier d'Autun - Site Latouche", "latitude": 46.9521471, "longitude": 4.301781, "source": "osm", "_tags": {"alt_name": "Hôpital Saint-Gabriel", "amenity": "hospital", "healthcare": "hospital", "heritage:operator": "mhs", "mhs:inscription_date": "1971-10-15", "name": "Centre hospitalier d'Autun - Site Latouche", "ref:FR:FINESS": "710978248", "ref:mhs": "PA00113079", "source:heritage": "data.gouv.fr:Ministère de la Culture - 04/2015", "type:FR:FINESS": "355", "wikidata": "Q22965602"}}, {"name": "Clinique du Parc", "latitude": 46.950618, "longitude": 4.29382, "source": "osm", "_tags": {"amenity": "hospital", "fax": "+33 3 85 86 57 09", "healthcare": "hospital", "name": "Clinique du Parc", "operator:type": "private", "phone": "+33 3 85 86 56 56", "ref:FR:FINESS": "710781410", "type:FR:FINESS": "365", "website": "http://www.clinique-chirurgicale-autun.com/"}}, {"name": "Centre hospitalier Robert Morlevat", "latitude": 47.495375, "longitude": 4.3456141, "source": "osm", "_tags": {"addr:full": "3 avenue Pasteur 21140 Semur-en-Auxois", "amenity": "hospital", "contact:facebook": "CHSemur", "contact:fax": "+33 3 80 89 64 63", "contact:phone": "+33 3 80 89 64 64", "emergency": "yes", "healthcare": "hospital", "name": "Centre hospitalier Robert Morlevat", "operator:type": "public", "ref:FR:FINESS": "210987699", "type:FR:FINESS": "355", "website": "http://www.ch-semur.fr/"}}, {"name": "Centre hospitalier de la Haute Côte-d'Or", "latitude": 47.3966549, "longitude": 4.5386863, "source": "osm", "_tags": {"amenity": "hospital", "fax": "+33 3 80 33 91 99", "healthcare": "hospital", "name": "Centre hospitalier de la Haute Côte-d'Or", "phone": "+33 3 80 33 91 91", "ref:FR:FINESS": "210987608", "type:FR:FINESS": "355", "website": "https://hopital-amplitude.fr/"}}, {"name": "Centre hospitalier d'Avallon", "latitude": 47.4901981, "longitude": 3.9046059, "source": "osm", "_tags": {"amenity": "hospital", "emergency": "yes", "fax": "+33 3 86 31 61 51", "healthcare": "hospital", "name": "Centre hospitalier d'Avallon", "operator:type": "public", "phone": "+33 3 86 34 66 00", "ref:FR:FINESS": "890975535", "type:FR:FINESS": "355", "website": "https://www.ght-unyon.fr/"}}, {"name": "Centre hospitalier de Chateau-Chinon", "latitude": 47.0602896, "longitude": 3.9350308, "source": "osm", "_tags": {"amenity": "hospital", "emergency": "no", "fax": "+33 3 86 79 60 05", "name": "Centre hospitalier de Chateau-Chinon", "operator:type": "public", "phone": "+33 3 86 79 60 00", "ref:FR:FINESS": "580972651", "type:FR:FINESS": "355"}}, {"name": "Centre hospitalier d'Autun - Site Parpas", "latitude": 46.951331, "longitude": 4.2931641, "source": "osm", "_tags": {"amenity": "hospital", "emergency": "yes", "fax": "+33 3 85 86 83 00", "healthcare": "hospital", "name": "Centre hospitalier d'Autun - Site Parpas", "operator:type": "public", "phone": "+33 3 85 86 84 84", "ref:FR:FINESS": "710010786", "type:FR:FINESS": "355", "website": "https://ch-autun.fr/", "wikidata": "Q22965602"}}]