[{"name": "Orthopädische Kinderklinik Aschau", "latitude": 47.7825833, "longitude": 12.3277791, "source": "osm", "_tags": {"addr:city": "Aschau im Chiemgau", "addr:housenumber": "18", "addr:postcode": "83229", "addr:street": "Bernauer Straße", "amenity": "hospital", "emergency": "no", "healthcare": "hospital", "healthcare:speciality": "orthopaedics", "name": "Orthopädische Kinderklinik Aschau", "operator": "Caritas", "toilets:wheelchair": "yes", "wheelchair": "yes"}}, {"name": "", "latitude": 47.281006, "longitude": 12.484111, "source": "osm", "_tags": {"addr:city": "Mittersill", "addr:country": "AT", "addr:housenumber": "1", "addr:postcode": "5730", "addr:street": "Felberstraße", "at_bev:addr_date": "2017-10-01", "building": "hospital", "building:levels": "4", "healthcare": "hospital", "healthcare:speciality": "emergency", "roof:levels": "1", "source": "bing"}}, {"name": "Medical Park Reithofpark", "latitude": 47.7884622, "longitude": 12.0077274, "source": "osm", "_tags": {"amenity": "hospital", "name": "Medical Park Reithofpark", "phone": "+49 8066 18-0"}}, {"name": "Klinik Bad Trissl", "latitude": 47.6579684, "longitude": 12.1546945, "source": "osm", "_tags": {"addr:country": "DE", "addr:housenumber": "73", "addr:postcode": "83080", "addr:street": "Bad-Trißl-Straße", "amenity": "hospital", "name": "Klinik Bad Trissl", "website": "https://www.klinik-bad-trissl.de/"}}, {"name": "", "latitude": 47.5709917, "longitude": 12.1504669, "source": "osm", "_tags": {"addr:city": "Kufstein", "addr:country": "AT", "addr:housenumber": "27", "addr:postcode": "6330", "addr:street": "Endach", "building": "hospital", "emergency": "yes", "healthcare": "hospital", "healthcare:speciality": "ophthalmology;surgery;otolaryngology;internal;paediatrics;neurology;radiology;trauma;urology", "source": "geoimage.at", "wheelchair": "yes"}}, {"name": "A. ö. Bezirkskrankenhaus Kufstein", "latitude": 47.5713033, "longitude": 12.1499529, "source": "osm", "_tags": {"addr:city": "Kufstein", "addr:country": "AT", "addr:housenumber": "27", "addr:postcode": "6330", "addr:street": "Endach", "amenity": "hospital", "health_specialty": "stroke_unit", "healthcare": "hospital", "healthcare:speciality": "emergency", "name": "A. ö. Bezirkskrankenhaus Kufstein", "short_name": "KH Kufstein", "website": "https://www.bkh-kufstein.at/"}}, {"name": "Veramed Klinik am Wendelstein", "latitude": 47.739184, "longitude": 12.0924539, "source": "osm", "_tags": {"addr:city": "Brannenburg", "addr:country": "DE", "addr:housenumber": "60", "addr:postcode": "83098", "addr:street": "Mühlenstraße", "amenity": "hospital", "building": "yes", "emergency": "no", "healthcare": "hospital", "healthcare:speciality": "oncology", "name": "Veramed Klinik am Wendelstein", "website": "https://www.veramed.de/"}}, {"name": "Chiemgau Klinik Marquartstein", "latitude": 47.7485582, "longitude": 12.4600552, "source": "osm", "_tags": {"addr:city": "Marquartstein", "addr:housenumber": "1", "addr:postcode": "83250", "addr:suburb": "Geisenhausen", "amenity": "hospital", "check_date": "2024-12-14", "contact:phone": "+49 8641 6290", "contact:website": "https://www.kbs.de/DE/Kliniken/RehaKliniken/KlinikauswahlNachStandort/Marquartstein/Kontakt/marquartstein_kontakt_node.html", "name": "Chiemgau Klinik Marquartstein"}}, {"name": "Bezirkskrankenhaus St. Johann in Tirol", "latitude": 47.5207383, "longitude": 12.429818, "source": "osm", "_tags": {"addr:city": "St. Johann in Tirol", "addr:country": "AT", "addr:housenumber": "14", "addr:postcode": "6380", "addr:street": "Bahnhofstraße", "amenity": "hospital", "healthcare": "hospital", "healthcare:speciality": "emergency", "name": "Bezirkskrankenhaus St. Johann in Tirol", "note": "Chirurgie;Unfallchirurgie;Innere Medizin;Allgemeine Chirurgie;Orthopädie und orthopädische Chirurgie;Gynäkologie und Geburtshilfe;Kinder- und Jugendabteilung;Anästhesie;Radiologie;Physiotherapie", "phone": "+43 5352 606-0", "source": "Lokalerhebung 2012-2019", "website": "https://www.khsj.at/", "wheelchair": "yes", "wikidata": "Q15391777", "wikipedia": "de:Bezirkskrankenhaus St. Johann in Tirol"}}, {"name": "Tauernklinikum Standort Mittersill", "latitude": 47.2810313, "longitude": 12.483945, "source": "osm", "_tags": {"addr:city": "Mittersill", "addr:housenumber": "1", "addr:postcode": "5730", "addr:street": "Felberstraße", "amenity": "hospital", "emergency": "yes", "healthcare": "hospital", "name": "Tauernklinikum Standort Mittersill", "operator": "Tauernkliniken GmbH", "website": "https://www.tauernklinikum.at/"}}, {"name": "Krankenhaus Agatharied", "latitude": 47.7677815, "longitude": 11.8271574, "source": "osm", "_tags": {"addr:city": "Hausham", "addr:country": "DE", "addr:suburb": "Agatharied", "amenity": "hospital", "building": "yes", "email": "pr@khagatharied.de", "emergency": "yes", "fax": "+49 8026 3934700", "name": "Krankenhaus Agatharied", "operator": "Krankenhaus Agatharied GmbH", "phone": "+49 8026 3930", "type": "multipolygon", "website": "https://www.khagatharied.de/", "wheelchair": "yes"}}]