[{"name": "Krankenhaus Maria Ebene", "latitude": 47.2208372, "longitude": 9.6041706, "source": "osm", "_tags": {"addr:city": "Frastanz", "addr:country": "AT", "addr:housenumber": "17", "addr:postcode": "6820", "addr:street": "Maria Ebene", "amenity": "hospital", "email": "krankenhaus@mariaebene.at", "healthcare": "hospital", "name": "Krankenhaus Maria Ebene", "operator": "Stiftung Maria Ebene", "phone": "+43 5522 727460", "website": "https://krankenhaus.mariaebene.at", "wikidata": "Q85911977"}}, {"name": "Heilig-Geist-Spital", "latitude": 47.7811065, "longitude": 9.6094139, "source": "osm", "_tags": {"amenity": "hospital", "emergency": "no", "healthcare": "hospital", "name": "Heilig-Geist-Spital", "website": "https://www.spital-ravensburg.de/", "wheelchair": "yes", "wikidata": "Q34355079"}}, {"name": "Sinova Klinik", "latitude": 47.7863565, "longitude": 9.623197, "source": "osm", "_tags": {"addr:city": "Ravensburg", "addr:housenumber": "14", "addr:postcode": "88212", "addr:street": "Nikolausstraße", "amenity": "hospital", "healthcare": "hospital", "name": "Sinova Klinik", "operator": "Sinova", "phone": "+49 751 35530"}}, {"name": "Tagesklinik", "latitude": 47.7866185, "longitude": 9.623219, "source": "osm", "_tags": {"addr:city": "Ravensburg", "addr:housenumber": "14", "addr:postcode": "88212", "addr:street": "Nikolausstraße", "amenity": "hospital", "healthcare": "hospital", "name": "Tagesklinik", "operator": "Sinova"}}, {"name": "", "latitude": 47.3342494, "longitude": 9.4167256, "source": "osm", "_tags": {"amenity": "hospital", "entrance": "yes", "healthcare": "hospital"}}, {"name": "Pforte", "latitude": 47.7639917, "longitude": 9.5978102, "source": "osm", "_tags": {"amenity": "hospital", "contact:email": "poststelle@sfk-weissenau.schule.bwl.de", "contact:fax": "+49 751 7601-2057", "contact:phone": "+49 751 7601-2460", "contact:website": "http://www.sfk-weissenau.de", "healthcare": "hospital", "name": "Pforte"}}, {"name": "Luisenklinik - Ast. Radolfzell", "latitude": 47.7370726, "longitude": 8.9771061, "source": "osm", "_tags": {"amenity": "hospital", "contact:email": "tkradolfzell@luisenklinik.de", "contact:phone": "+49 7732 30276-0", "contact:website": "https://www.luisenklinik.de/startseite.html", "description": "Tagesklinik für Kinder- und Jugendpsychiatrie", "healthcare": "hospital", "name": "Luisenklinik - Ast. Radolfzell"}}, {"name": "Notfallzentrum", "latitude": 47.2981793, "longitude": 9.0838531, "source": "osm", "_tags": {"amenity": "hospital", "healthcare": "hospital", "name": "Notfallzentrum", "operator": "Berit Klinik"}}, {"name": "GNZ Wattwil", "latitude": 47.2980571, "longitude": 9.0843135, "source": "osm", "_tags": {"amenity": "hospital", "healthcare": "hospital", "name": "GNZ Wattwil", "operator": "Berit Klinik", "operator:type": "community", "wheelchair": "yes"}}, {"name": "Tumor Zentrum Ostschweiz", "latitude": 47.2975781, "longitude": 9.0838964, "source": "osm", "_tags": {"amenity": "hospital", "healthcare": "hospital", "name": "Tumor Zentrum Ostschweiz"}}, {"name": "Augenklinik Bellavista", "latitude": 47.4160259, "longitude": 9.4377694, "source": "osm", "_tags": {"amenity": "hospital", "healthcare": "hospital", "name": "Augenklinik Bellavista"}}, {"name": "", "latitude": 46.9696081, "longitude": 9.5637212, "source": "osm", "_tags": {"addr:housenumber": "14a", "addr:street": "Karlihofstrasse", "amenity": "hospital"}}, {"name": "Landeskrankenhaus Feldkirch", "latitude": 47.2306926, "longitude": 9.5806788, "source": "osm", "_tags": {"addr:city": "Feldkirch", "addr:country": "AT", "addr:housenumber": "47", "addr:postcode": "6807", "addr:street": "Carinagasse", "amenity": "hospital", "contact:email": "krankenhausleitung@lkhf.at", "contact:fax": "+43 5522 303 750", "contact:phone": "+43 5522 303 0", "emergency": "yes", "health_specialty": "stroke_unit", "healthcare": "hospital", "healthcare:speciality": "emergency", "name": "Landeskrankenhaus Feldkirch", "operator": "Vlbg. Krankenhaus- Betriebsgesellschaft.m.b.h.", "source": "https://www.landeskrankenhaus.at/gesundheitsunternehmen/standorte", "toilets:wheelchair": "yes", "website": "https://www.landeskrankenhaus.at/gesundheitsunternehmen/standorte/lkh-feldkirch", "wheelchair": "yes", "wikidata": "Q1802323"}}, {"name": "Hegau-Bodensee-Klinikum", "latitude": 47.7594886, "longitude": 8.8217946, "source": "osm", "_tags": {"addr:city": "Singen (Hohentwiel)", "addr:country": "DE", "addr:housenumber": "10", "addr:postcode": "78224", "addr:street": "Virchowstraße", "amenity": "hospital", "backup_generator": "yes", "content": "Diesel", "emergency": "yes", "hazard_danger": "30", "hazmat": "3", "healthcare": "hospital", "image": "File:Singen_-_Hegau-Bodensee-Klinikum_(Wilhelmswacht)_01_ies.jpg", "name": "Hegau-Bodensee-Klinikum", "operating_time": "- h", "phone": "+49 7731 89 0", "un_number": "1202", "volume": "- m3", "wikimedia_commons": "Category:Hegau-Bodensee_Klinikum_Singen"}}, {"name": "GZO Spital Wetzikon", "latitude": 47.3214755, "longitude": 8.8014015, "source": "osm", "_tags": {"addr:city": "Wetzikon", "addr:housenumber": "48", "addr:postcode": "8620", "addr:street": "Spitalstrasse", "amenity": "hospital", "healthcare": "hospital", "healthcare:speciality": "intensive", "name": "GZO Spital Wetzikon", "toilets:wheelchair": "yes", "website": "https://www.gzo.ch/", "wheelchair": "yes", "wikidata": "Q33121500"}}, {"name": "Klinik Tettnang", "latitude": 47.672512, "longitude": 9.5979795, "source": "osm", "_tags": {"addr:city": "Tettnang", "addr:country": "DE", "addr:housenumber": "16", "addr:postcode": "88069", "addr:street": "Emil-Münch-Straße", "amenity": "hospital", "building": "yes", "building:levels": "4", "email": "INFO.TT@medizincampus.de", "emergency": "yes", "fax": "+49 7542 531178", "healthcare": "hospital", "name": "Klinik Tettnang", "operator": "Klinik Tettnang GmbH", "phone": "+49 7542 5310", "toilets:wheelchair": "yes", "website": "https://www.medizin-campus-bodensee.de/ueber-uns/standorte/tettnang", "wheelchair": "yes"}}, {"name": "Psychiatrische Klinik Waldhaus", "latitude": 46.8693507, "longitude": 9.5408535, "source": "osm", "_tags": {"addr:city": "Chur", "addr:housenumber": "220", "addr:postcode": "7000", "addr:street": "Loëstrasse", "amenity": "hospital", "healthcare": "hospital", "healthcare:speciality": "psychiatry", "name": "Psychiatrische Klinik Waldhaus", "name:rm": "Clinica Waldhaus", "phone": "+41 58 225 25 25", "website": "https://www.pdgr.ch/standorte/klinik-waldhaus-chur/", "wheelchair": "yes", "wikidata": "Q10964876", "wikipedia": "de:Klinik Waldhaus"}}, {"name": "St. Elisabethen-Klinikum", "latitude": 47.787999, "longitude": 9.6225671, "source": "osm", "_tags": {"amenity": "hospital", "emergency": "yes", "healthcare": "hospital", "name": "St. Elisabethen-Klinikum", "operator": "Oberschwabenklinik gGmbH", "wheelchair": "yes", "wikidata": "Q1786550", "wikipedia": "de:Krankenhaus St. Elisabeth (Ravensburg)"}}, {"name": "", "latitude": 47.7370496, "longitude": 8.9771302, "source": "osm", "_tags": {"addr:city": "Radolfzell am Bodensee", "addr:country": "DE", "addr:housenumber": "10", "addr:postcode": "78315", "addr:street": "Strandbadstraße", "addr:suburb": "Mettnau", "building": "hospital", "healthcare": "hospital"}}, {"name": "Villa Seehalde", "latitude": 47.7353751, "longitude": 8.9770486, "source": "osm", "_tags": {"addr:city": "Radolfzell am Bodensee", "addr:country": "DE", "addr:housenumber": "14/2", "addr:postcode": "78315", "addr:street": "Scheffelstraße", "addr:suburb": "Mettnau", "building": "hospital", "building:levels": "1", "description:de": "Ehem. Wohnsitz von Joseph Victor v. Scheffel (1", "healthcare": "hospital", "name": "Villa Seehalde", "roof:levels": "1", "roof:shape": "gabled"}}, {"name": "", "latitude": 47.7350428, "longitude": 8.9771996, "source": "osm", "_tags": {"addr:city": "Radolfzell am Bodensee", "addr:country": "DE", "addr:housenumber": "14", "addr:postcode": "78315", "addr:street": "Scheffelstraße", "addr:suburb": "Mettnau", "building": "hospital", "building:levels": "3", "healthcare": "hospital", "roof:levels": "1", "source": "Luftbilder Radolfzell"}}, {"name": "", "latitude": 47.7346527, "longitude": 8.9777173, "source": "osm", "_tags": {"building": "hospital", "healthcare": "hospital"}}, {"name": "Kantonsspital Graubünden, Standort Walenstadt", "latitude": 47.1208057, "longitude": 9.3105107, "source": "osm", "_tags": {"addr:city": "Walenstadt", "addr:housenumber": "5", "addr:postcode": "8880", "addr:street": "Spitalstrasse", "amenity": "hospital", "emergency": "yes", "healthcare": "hospital", "name": "Kantonsspital Graubünden, Standort Walenstadt", "operator": "Kantonsspital Graubünden", "phone": "+41817361111"}}, {"name": "Kliniken Schmieder Allensbach", "latitude": 47.715273, "longitude": 9.0834563, "source": "osm", "_tags": {"addr:city": "Allensbach", "addr:country": "DE", "addr:housenumber": "8", "addr:postcode": "78476", "addr:street": "Zum Tafelholz", "amenity": "hospital", "building": "hospital", "healthcare": "hospital", "name": "Kliniken Schmieder Allensbach", "phone": "+49 7533 8080", "website": "https://www.kliniken-schmieder.de/kliniken-und-standorte/allensbach.html", "wheelchair": "yes", "wikidata": "Q1732754", "wikimedia_commons": "Category:Kliniken Schmieder", "wikipedia": "de:Kliniken Schmieder"}}, {"name": "siebenzwerge", "latitude": 47.7591098, "longitude": 9.3553601, "source": "osm", "_tags": {"amenity": "hospital", "check_date": "2024-11-03", "contact:email": "mail@siebenzwerge.info", "contact:phone": "+49 7544 50733", "contact:website": "https://www.siebenzwerge.info", "description": "Fachklinik für Drogenkrankheiten", "emergency": "no", "healthcare": "hospital", "healthcare:speciality": "rehabilitation", "name": "siebenzwerge", "operator": "Kultur-therapeutische Gemeinschaft GmbH"}}, {"name": "Seniorenzentrum Horn", "latitude": 47.4949456, "longitude": 9.463187, "source": "osm", "_tags": {"addr:city": "Horn", "addr:country": "CH", "addr:housenumber": "9", "addr:postcode": "9326", "addr:street": "Tübacherstrasse", "amenity": "hospital", "healthcare": "hospital", "healthcare:speciality": "seniorenzentrum;seniorenzentrum_/_pflegeheim", "name": "Seniorenzentrum Horn"}}, {"name": "Birkle Klinik", "latitude": 47.7658686, "longitude": 9.1815241, "source": "osm", "_tags": {"addr:city": "Überlingen", "addr:country": "DE", "addr:housenumber": "55", "addr:postcode": "88662", "addr:street": "Obere Sankt-Leonhard-Straße", "amenity": "hospital", "building": "hospital", "description": "Fachklinik für Innere Medizin und Orthopädie", "fax": "+497551803711", "healthcare": "hospital", "name": "Birkle Klinik", "phone": "+4975518030", "source": "Maps4BW, LGL, www.lgl-bw.de", "website": "https://www.birkle-klinik.de"}}, {"name": "Kantonsspital St. Gallen", "latitude": 47.430683, "longitude": 9.3882991, "source": "osm", "_tags": {"addr:city": "St. Gallen", "addr:housenumber": "95", "addr:postcode": "9007", "addr:street": "Rorschacher Strasse", "amenity": "hospital", "emergency": "yes", "healthcare": "hospital", "healthcare:speciality": "intensive", "name": "Kantonsspital St. Gallen", "phone": "+41 71 494 11 11", "short_name": "KSSG", "toilets:wheelchair": "yes", "website": "https://www.kssg.ch/", "wheelchair": "yes", "wikidata": "Q1728153"}}, {"name": "Landeskrankenhaus Hohenems", "latitude": 47.3628515, "longitude": 9.6813683, "source": "osm", "_tags": {"addr:city": "Hohenems", "addr:country": "AT", "addr:housenumber": "31", "addr:postcode": "6845", "addr:street": "Bahnhofstraße", "amenity": "hospital", "building": "hospital", "contact:email": "office@lkhh.at", "contact:phone": "+43 5576 703 0", "contact:website": "https://www.landeskrankenhaus.at/gesundheitsunternehmen/standorte/lkh-hohenems", "healthcare": "hospital", "healthcare:speciality": "emergency", "name": "Landeskrankenhaus Hohenems", "short_name": "LKH Hohenems", "toilets:wheelchair": "yes", "wheelchair": "yes", "wikidata": "Q14532161", "wikipedia": "de:Landeskrankenhaus Hohenems"}}, {"name": "Kliniken Schmieder Gailingen", "latitude": 47.7023526, "longitude": 8.7536698, "source": "osm", "_tags": {"addr:city": "Gailingen am Hochrhein", "addr:country": "DE", "addr:postcode": "78262", "addr:street": "Auf dem Berg", "amenity": "hospital", "check_date": "2025-08-29", "healthcare": "hospital", "name": "Kliniken Schmieder Gailingen", "phone": "+49 7734 860", "toilets:wheelchair": "yes", "website": "https://www.kliniken-schmieder.de/kliniken-und-standorte/gailingen.html", "wheelchair": "limited"}}, {"name": "Klinikum Friedrichshafen", "latitude": 47.6728866, "longitude": 9.4303514, "source": "osm", "_tags": {"addr:city": "Friedrichshafen", "addr:country": "DE", "addr:housenumber": "2", "addr:postcode": "88048", "addr:street": "Röntgenstraße", "alt_name": "Medizin Campus Bodensee", "amenity": "hospital", "emergency": "yes", "fax": "+497541961185", "healthcare": "hospital", "internet_access": "wlan", "name": "Klinikum Friedrichshafen", "operator": "Franz Klöckner", "operator:type": "public", "phone": "+49 7541 96 0", "short_name": "MCB", "start_date": "2005", "toilets:wheelchair": "yes", "website": "https://www.medizin-campus-bodensee.de/", "wheelchair": "yes", "wikidata": "Q1774614", "wikimedia_commons": "Category:Klinikum Friedrichshafen", "wikipedia": "de:Klinikum Friedrichshafen"}}, {"name": "Ambi Wattwil Berit Klinik", "latitude": 47.2981091, "longitude": 9.0839204, "source": "osm", "_tags": {"addr:city": "Wattwil", "addr:postcode": "9630", "addr:street": "Steig", "amenity": "hospital", "emergency": "yes", "healthcare": "hospital", "name": "Ambi Wattwil Berit Klinik", "operator": "Berit Klinik", "operator:type": "private", "website": "https://beritklinik.ch/berit-klinik-wattwil-landingpage/"}}, {"name": "Kantonsspital Winterthur", "latitude": 47.506883, "longitude": 8.7282975, "source": "osm", "_tags": {"addr:city": "Winterthur", "addr:housenumber": "15", "addr:postcode": "8401", "addr:street": "Brauerstrasse", "amenity": "hospital", "contact:phone": "+41 52 266 21 21", "emergency": "yes", "healthcare": "hospital", "healthcare:speciality": "intensive", "name": "Kantonsspital Winterthur", "short_name": "KSW", "toilets:wheelchair": "yes", "website": "https://www.ksw.ch/", "wheelchair": "yes", "wikidata": "Q1728154"}}, {"name": "Privatklinik Lindberg", "latitude": 47.5103058, "longitude": 8.7299074, "source": "osm", "_tags": {"addr:city": "Winterthur", "addr:housenumber": "11", "addr:postcode": "8400", "addr:street": "Schickstrasse", "alt_name": "Spital Lindberg: Klinik Lindberg", "amenity": "hospital", "email": "info@lindberg.ch", "healthcare": "hospital", "name": "Privatklinik Lindberg", "phone": "+41 52 266 11 11", "short_name": "Lindberg", "website": "https://www.lindberg.ch/", "wheelchair": "yes"}}, {"name": "Gesundheitszentrum Rorschach", "latitude": 47.4789563, "longitude": 9.5168002, "source": "osm", "_tags": {"addr:city": "Rorschacherberg", "addr:housenumber": "32", "addr:postcode": "9404", "addr:street": "Neuseeland", "amenity": "hospital", "building": "industrial", "building:levels": "3", "email": "gesundheitszentrum.rorschach@h-och.ch", "name": "Gesundheitszentrum Rorschach", "phone": "+41 71 858 31 11", "roof:shape": "gabled", "website": "https://www.h-och.ch/ueber-uns/standorte/rorschach/"}}, {"name": "Psychiatrische Klinik Münsterlingen", "latitude": 47.6341206, "longitude": 9.2310244, "source": "osm", "_tags": {"addr:city": "Münsterlingen", "addr:housenumber": "3", "addr:postcode": "8596", "addr:street": "Seeblickstrasse", "amenity": "hospital", "contact:email": "aaz.pdt@stgag.ch", "contact:phone": "+41 848 41 41 41", "contact:website": "https://www.stgag.ch/fachbereiche/psychiatrische-klinik/psychiatrische-klinik-muensterlingen/", "healthcare": "hospital", "name": "Psychiatrische Klinik Münsterlingen", "short_name": "PKM", "wheelchair": "limited"}}, {"name": "Zentrum für Psychiatrie Reichenau", "latitude": 47.6945646, "longitude": 9.1235823, "source": "osm", "_tags": {"addr:city": "Reichenau", "addr:housenumber": "55", "addr:postcode": "78479", "addr:street": "Feursteinstraße", "amenity": "hospital", "healthcare": "hospital", "name": "Zentrum für Psychiatrie Reichenau", "toilets:wheelchair": "yes", "website": "https://www.zfp-reichenau.de/", "wheelchair": "yes", "wikidata": "Q19312055", "wikipedia": "de:Zentrum für Psychiatrie Reichenau"}}, {"name": "Psychiatrie St.Gallen", "latitude": 47.4674812, "longitude": 9.0374547, "source": "osm", "_tags": {"addr:city": "Wil", "addr:housenumber": "30", "addr:postcode": "9500", "addr:street": "Zürcherstrasse", "amenity": "hospital", "emergency": "no", "healthcare": "hospital", "healthcare:speciality": "psychiatry", "name": "Psychiatrie St.Gallen", "operator": "Psychiatrie St.Gallen", "phone": "+41 71 913 11 11", "website": "https://www.psychiatrie-sg.ch/", "wheelchair": "yes", "wikidata": "Q29787004"}}, {"name": "Clean.Kids", "latitude": 47.7575304, "longitude": 9.5928709, "source": "osm", "_tags": {"addr:city": "Ravensburg", "addr:housenumber": "17/2", "addr:postcode": "88214", "addr:street": "Mariatal", "amenity": "hospital", "building": "yes", "building:levels": "2", "email": "clean.kids@zfp-zentrum.de", "emergency": "no", "fax": "+49 751 7601 2451", "healthcare": "hospital", "healthcare:speciality": "child_psychiatry", "name": "Clean.Kids", "operator": "Zentrum für Psychiatrie Südwürttemberg", "phone": "+49 751 7601 2070", "source": "Bing, 2013-02;local knowledge", "website": "https://www.zfp-web.de/fachgebiete/kinder-und-jugendpsychiatrie/weissenau/cleankids/station/"}}, {"name": "Clean.Kick", "latitude": 47.7572366, "longitude": 9.5927888, "source": "osm", "_tags": {"addr:city": "Ravensburg", "addr:housenumber": "17/2", "addr:postcode": "88214", "addr:street": "Mariatal", "amenity": "hospital", "building": "yes", "building:levels": "2", "email": "clean.kick@zfp-zentrum.de", "emergency": "no", "fax": "+49 751 7601 2451", "healthcare": "hospital", "healthcare:speciality": "child_psychiatry", "name": "Clean.Kick", "operator": "Zentrum für Psychiatrie Südwürttemberg", "phone": "+49 751 7601 2844", "source": "Bing, 2013-02;local knowledge", "website": "https://www.zfp-web.de/fachgebiete/kinder-und-jugendpsychiatrie/weissenau/cleankick/station/"}}, {"name": "Buchinger Wilhelmi - Fachklinik für Heilfasten", "latitude": 47.7709436, "longitude": 9.14544, "source": "osm", "_tags": {"addr:city": "Überlingen", "addr:country": "DE", "addr:housenumber": "27", "addr:postcode": "88662", "addr:street": "Wilhelm-Beck-Straße", "amenity": "hospital", "healthcare": "hospital", "name": "Buchinger Wilhelmi - Fachklinik für Heilfasten"}}, {"name": "", "latitude": 47.549136, "longitude": 8.9103893, "source": "osm", "_tags": {"building:colour": "#DCE1D8", "building:levels": "3", "building:material": "concrete", "building:part": "yes", "healthcare": "hospital", "roof:colour": "#6E7472", "roof:shape": "flat", "toilets:wheelchair": "yes", "wheelchair": "yes"}}, {"name": "Oberwaid Hotel & Klink", "latitude": 47.4512529, "longitude": 9.4198354, "source": "osm", "_tags": {"addr:city": "St. Gallen", "addr:housenumber": "311", "addr:postcode": "9016", "addr:street": "Rorschacher Strasse", "amenity": "hospital", "building": "yes", "email": "info@oberweid.ch", "emergency": "no", "healthcare": "hospital", "internet_access": "yes", "name": "Oberwaid Hotel & Klink", "operator": "Oberweid AG", "operator:type": "private", "phone": "+41 71 282 00 00", "tourism": "hotel", "website": "https://oberwaid.ch/"}}, {"name": "", "latitude": 47.4445743, "longitude": 9.1411384, "source": "osm", "_tags": {"amenity": "hospital", "healthcare": "hospital"}}, {"name": "Landeskrankenhaus Rankweil", "latitude": 47.2602974, "longitude": 9.6473235, "source": "osm", "_tags": {"addr:city": "Rankweil", "addr:country": "AT", "addr:housenumber": "16", "addr:postcode": "6830", "addr:street": "Valdunastraße", "alt_name": "LKH Rankweil", "amenity": "hospital", "contact:email": "office@lkhr.at", "contact:fax": "+43 5522 403 6500", "contact:phone": "+43 5522 403 0", "contact:website": "http://www.lkhr.at", "healthcare": "hospital", "name": "Landeskrankenhaus Rankweil", "note": "Umriss laut Flächenwidmungsplan", "opening_hours": "Mo-Fr 07:30-16:00", "operator": "Vorarlberger Krankenhaus-Betriebsgesellschaft.m.b.H.", "reg_name": "Valduna", "wikidata": "Q1802326", "wikipedia": "de:Landeskrankenhaus Rankweil"}}, {"name": "Spital Lachen", "latitude": 47.1889798, "longitude": 8.8593168, "source": "osm", "_tags": {"addr:city": "Lachen", "addr:housenumber": "41", "addr:postcode": "8853", "addr:street": "Oberdorfstrasse", "amenity": "hospital", "emergency": "yes", "healthcare": "hospital", "name": "Spital Lachen", "old_name": "Bezirksspital March", "website": "https://www.spital-lachen.ch/", "wikidata": "Q33121372"}}, {"name": "Liechtensteinisches Landesspital", "latitude": 47.1346464, "longitude": 9.5226891, "source": "osm", "_tags": {"addr:city": "Vaduz", "addr:country": "LI", "addr:housenumber": "25", "addr:postcode": "9490", "addr:street": "Heiligkreuz", "amenity": "hospital", "emergency": "yes", "healthcare": "hospital", "name": "Liechtensteinisches Landesspital", "phone": "+423 235 44 11", "website": "https://www.landesspital.li/", "wikidata": "Q15825831", "wikipedia": "de:Liechtensteinisches Landesspital"}}, {"name": "Spital und Gesundheitszentrum Einsiedeln", "latitude": 47.1307253, "longitude": 8.7398853, "source": "osm", "_tags": {"amenity": "hospital", "contact:email": "info@spital-einsiedeln.ch", "contact:phone": "+41 55 418 51 11", "contact:website": "https://www.spital-einsiedeln.ch", "name": "Spital und Gesundheitszentrum Einsiedeln", "wikidata": "Q15838825", "wikipedia": "de:Spital Einsiedeln"}}, {"name": "Zentrum für Psychatrie Weißenau", "latitude": 47.7615983, "longitude": 9.5995499, "source": "osm", "_tags": {"addr:city": "Ravensburg", "addr:housenumber": "2", "addr:postcode": "88214", "addr:street": "Weingartshofer Straße", "amenity": "hospital", "healthcare": "hospital", "healthcare:speciality": "psychiatry", "name": "Zentrum für Psychatrie Weißenau"}}, {"name": "Klinik Wollmarshöhe", "latitude": 47.7196883, "longitude": 9.6750646, "source": "osm", "_tags": {"amenity": "hospital", "healthcare": "hospital", "healthcare:speciality": "psychosomatic", "name": "Klinik Wollmarshöhe", "operator": "Klinik Wollmarshöhe GmbH", "website": "https://www.wollmarshoehe.de/"}}, {"name": "Frauenklinik Fontana", "latitude": 46.8609503, "longitude": 9.5420706, "source": "osm", "_tags": {"addr:city": "Chur", "addr:housenumber": "118", "addr:postcode": "7000", "addr:street": "Lürlibadstrasse", "amenity": "hospital", "email": "frauenklinik@ksgr.ch", "healthcare": "hospital", "name": "Frauenklinik Fontana", "operator": "Kantonsspital Graubünden", "phone": "+41 81 254 81 11", "website": "https://www.ksgr.ch/frauenklinik"}}, {"name": "Kantonsspital Graubünden", "latitude": 46.8636829, "longitude": 9.5396867, "source": "osm", "_tags": {"addr:city": "Chur", "addr:housenumber": "170", "addr:postcode": "7000", "addr:street": "Loëstrasse", "amenity": "hospital", "contact:phone": "+41 812566111", "contact:website": "https://www.ksgr.ch/", "emergency": "yes", "healthcare": "hospital", "healthcare:speciality": "intensive", "name": "Kantonsspital Graubünden", "wikidata": "Q1728149", "wikimedia_commons": "File:Kantonsspital Graubünden, Haus D.jpg", "wikipedia": "de:Kantonsspital Graubünden"}}, {"name": "Kreuzspital Chur", "latitude": 46.8602687, "longitude": 9.536271, "source": "osm", "_tags": {"addr:city": "Chur", "addr:housenumber": "99", "addr:postcode": "7000", "addr:street": "Loëstrasse", "amenity": "hospital", "contact:phone": "+41 812552111", "contact:website": "https://www.ksgr.ch/", "healthcare": "hospital", "name": "Kreuzspital Chur", "operator": "Kantonsspital Graubünden", "phone": "+41 81 255 21 11", "wheelchair": "yes"}}, {"name": "Kantonsspital Frauenfeld", "latitude": 47.548984, "longitude": 8.9107944, "source": "osm", "_tags": {"addr:city": "Frauenfeld", "addr:housenumber": "4", "addr:postcode": "8501", "addr:street": "Pfaffenholzstrasse", "amenity": "hospital", "emergency": "yes", "healthcare": "hospital", "healthcare:speciality": "intensive", "name": "Kantonsspital Frauenfeld", "operator": "Spital Thurgau AG", "operator:type": "public", "phone": "+41 52 723 77 11", "short_name": "KSF", "website": "https://www.stgag.ch/", "wikidata": "Q30260511"}}, {"name": "Spital Linth", "latitude": 47.2235934, "longitude": 8.994834, "source": "osm", "_tags": {"addr:city": "Uznach", "addr:country": "CH", "addr:housenumber": "25", "addr:postcode": "8730", "addr:street": "Gasterstrasse", "amenity": "hospital", "emergency": "yes", "name": "Spital Linth", "phone": "+41 55 285 41 11", "website": "https://www.spital-linth.ch/", "wikidata": "Q33121426"}}, {"name": "Kantonsspital Münsterlingen", "latitude": 47.6300701, "longitude": 9.2358445, "source": "osm", "_tags": {"addr:city": "Münsterlingen", "addr:country": "CH", "addr:housenumber": "1", "addr:place": "Spitalcampus", "addr:postcode": "8596", "amenity": "hospital", "emergency": "yes", "healthcare": "hospital", "healthcare:speciality": "intensive", "name": "Kantonsspital Münsterlingen", "phone": "+41 71 686 11 11", "short_name": "KSM", "website": "https://www.stgag.ch/patienten-besucher/kantonsspital-muensterlingen/besuchszeiten/", "wikidata": "Q30260513", "wikimedia_commons": "Category:Kantonsspital Münsterlingen", "wikipedia": "de:Kantonsspital Münsterlingen"}}, {"name": "Ostschweizer Kinderspital St. Gallen", "latitude": 47.4298355, "longitude": 9.3938903, "source": "osm", "_tags": {"addr:city": "St. Gallen", "addr:housenumber": "6", "addr:postcode": "9006", "addr:street": "Claudiusstrasse", "amenity": "hospital", "description": "Spezialized on children's hospitalization.", "emergency": "yes", "healthcare": "hospital", "healthcare:speciality": "intensive", "name": "Ostschweizer Kinderspital St. Gallen", "phone": "+41 71 243 71 11", "short_name": "Kispi SG", "source": "bing", "website": "https://www.kispisg.ch/de", "wheelchair": "yes", "wikidata": "Q30279877"}}, {"name": "Geriatrische Klinik St. Gallen", "latitude": 47.4287761, "longitude": 9.3891044, "source": "osm", "_tags": {"addr:city": "St. Gallen", "addr:country": "CH", "addr:housenumber": "94", "addr:postcode": "9000", "addr:street": "Rorschacher Strasse", "alt_name": "Rehazentrum St. Gallen", "amenity": "hospital", "description": "Geriatrie", "emergency": "no", "healthcare": "hospital", "name": "Geriatrische Klinik St. Gallen", "phone": "+41 71 243 81 11", "website": "https://geriatrie-sg.ch/"}}, {"name": "Spital Wil", "latitude": 47.4653191, "longitude": 9.0579104, "source": "osm", "_tags": {"addr:city": "Wil (SG)", "addr:housenumber": "32", "addr:postcode": "9500", "addr:street": "Fürstenlandstrasse", "amenity": "hospital", "emergency": "yes", "healthcare": "hospital", "healthcare:speciality": "internal;gynaecology;emergency;surgery;orthopaedics;trauma;geriatrics;anaesthetics", "name": "Spital Wil", "operator": "Spitalregion Fürstenland Toggenburg", "phone": "+41 71 914 61 11", "website": "https://www.srft.ch/"}}, {"name": "Spital Grabs", "latitude": 47.1735033, "longitude": 9.4488832, "source": "osm", "_tags": {"addr:city": "Grabs", "addr:country": "CH", "addr:housenumber": "44", "addr:postcode": "9472", "addr:street": "Spitalstrasse", "amenity": "hospital", "emergency": "yes", "healthcare": "hospital", "healthcare:speciality": "intensive", "name": "Spital Grabs", "phone": "+41 81 772 51 11", "source": "survey", "website": "https://srrws.ch/", "wheelchair": "yes"}}, {"name": "Hirslanden Klinik am Rosenberg", "latitude": 47.4463911, "longitude": 9.52702, "source": "osm", "_tags": {"amenity": "hospital", "healthcare": "hospital", "name": "Hirslanden Klinik am Rosenberg", "phone": "+41 71 898 52 52", "website": "https://www.hirslanden.ch/global/de/startseite/kliniken_zentren/klinik_am_rosenberg.html", "wikidata": "Q23783920", "wikipedia": "de:Klinik Am Rosenberg"}}, {"name": "Kantonsspital Glarus", "latitude": 47.0451334, "longitude": 9.0653615, "source": "osm", "_tags": {"addr:city": "Glarus", "addr:country": "CH", "addr:housenumber": "99", "addr:postcode": "8750", "addr:street": "Burgstrasse", "amenity": "hospital", "emergency": "yes", "internet_access": "wlan", "name": "Kantonsspital Glarus", "name:de": "Kantonsspital Glarus", "opening_hours": "24/7", "phone": "+41 55 646 33 33", "website": "https://www.ksgl.ch"}}, {"name": "Reha Seewis", "latitude": 46.9892048, "longitude": 9.6370067, "source": "osm", "_tags": {"addr:city": "Seewis Dorf", "addr:country": "CH", "addr:housename": "Reha Seewis", "addr:housenumber": "1", "addr:postcode": "7212", "addr:street": "Schlossstrasse", "amenity": "hospital", "check_date": "2025-04-21", "healthcare": "rehabilitation", "healthcare:speciality": "cardiology", "name": "Reha Seewis", "phone": "+4181 307 5252", "website": "https://www.rehaseewis.ch/home.html"}}, {"name": "Spital Altstätten", "latitude": 47.3824331, "longitude": 9.5412378, "source": "osm", "_tags": {"addr:city": "Altstätten", "addr:country": "CH", "addr:housenumber": "6", "addr:postcode": "9450", "addr:street": "F.-Marolanistrasse", "amenity": "hospital", "emergency": "yes", "healthcare": "hospital", "name": "Spital Altstätten", "operator": "Spitalregion Rheintal Werdenberg Sarganserland", "phone": "+41 71 757 44 11", "website": "https://www.srrws.ch/ueber-uns/organisation/spitaeler/spital-altstaetten.html"}}, {"name": "Medizinisches Ambulatorium", "latitude": 47.4425154, "longitude": 9.5315038, "source": "osm", "_tags": {"addr:city": "Heiden", "addr:country": "CH", "addr:housenumber": "1a", "addr:postcode": "9410", "addr:street": "Werdstrasse", "amenity": "hospital", "emergency": "yes", "healthcare": "hospital", "name": "Medizinisches Ambulatorium", "operator": "Spitalverbund Appenzell-Ausserrhoden", "phone": "+41 71 898 61 11", "short_name": "KSH", "source": "Bing", "website": "https://www.spitalverbund.ch/angebote-heiden-herisau/home-spital-heiden/", "wheelchair": "yes"}}, {"name": "Spital Schiers", "latitude": 46.9710672, "longitude": 9.6861621, "source": "osm", "_tags": {"addr:city": "Schiers", "addr:country": "CH", "addr:housenumber": "7", "addr:postcode": "7220", "addr:street": "Tersierstrasse", "amenity": "hospital", "name": "Spital Schiers", "phone": "+41 81 308 08 08", "website": "https://www.flurystiftung.ch/Startseite.20.0.html"}}, {"name": "Klinik Stephanshorn", "latitude": 47.4463812, "longitude": 9.4123366, "source": "osm", "_tags": {"amenity": "hospital", "emergency": "yes", "healthcare": "hospital", "healthcare:speciality": "intensive", "name": "Klinik Stephanshorn", "phone": "+41 71 282 71 11", "website": "https://www.stephanshorn.ch/", "wikidata": "Q23783916"}}, {"name": "Clienia Littenheid", "latitude": 47.4405264, "longitude": 9.0079695, "source": "osm", "_tags": {"addr:city": "Littenheid", "addr:country": "CH", "addr:housenumber": "130", "addr:postcode": "9573", "addr:street": "Hauptstrasse", "amenity": "hospital", "healthcare": "hospital", "healthcare:speciality": "psychiatry", "name": "Clienia Littenheid", "operator": "Clienia Littenheid AG", "phone": "+41 71 929 60 60", "website": "https://www.clienia.ch/de/standorte/standorte-stationaer/thurgau/littenheid", "wheelchair": "yes"}}, {"name": "Klinik Schloss Mammern", "latitude": 47.6463404, "longitude": 8.9188426, "source": "osm", "_tags": {"addr:city": "Mammern", "addr:country": "CH", "addr:housenumber": "3", "addr:postcode": "8265", "addr:street": "Dr. A. O. Fleisch-Strasse", "amenity": "hospital", "contact:phone": "+41 52 7421111", "contact:website": "http://www.klinik-schloss-mammern.ch", "healthcare": "rehabilitation", "name": "Klinik Schloss Mammern", "phone": "+41 52 742 11 11", "website": "https://klinik-schloss-mammern.ch/de/"}}, {"name": "Klinik Gais", "latitude": 47.3715437, "longitude": 9.4736806, "source": "osm", "_tags": {"addr:city": "Gais", "addr:country": "CH", "addr:housenumber": "1172", "addr:postcode": "9056", "addr:street": "Gäbrisstrasse", "amenity": "hospital", "emergency": "no", "healthcare": "rehabilitation", "healthcare:speciality": "rehabilitation", "name": "Klinik Gais", "operator": "Klinik Gais AG", "phone": "+41 71 791 66 33", "website": "https://www.klinik-gais.ch/home/"}}, {"name": "Klinikum Konstanz, Haus 2", "latitude": 47.6723304, "longitude": 9.1878288, "source": "osm", "_tags": {"building:levels": "7", "building:material": "metal", "building:part": "yes", "check_date": "2024-04-26", "emergency": "yes", "healthcare": "hospital", "name": "Klinikum Konstanz, Haus 2", "roof:material": "metal", "roof:shape": "flat", "source": "Bing", "wheelchair": "yes"}}, {"name": "Klinikum Konstanz, Haus 2", "latitude": 47.6728512, "longitude": 9.1884265, "source": "osm", "_tags": {"addr:city": "Konstanz", "addr:country": "DE", "addr:housenumber": "7", "addr:postcode": "78464", "addr:street": "Luisenstraße", "amenity": "hospital", "building": "hospital", "check_date": "2024-04-26", "emergency": "yes", "healthcare": "hospital", "name": "Klinikum Konstanz, Haus 2", "source": "Bing", "wheelchair": "yes"}}, {"name": "Klinikum Konstanz, Haus 1 / Vincentius Krankenhaus", "latitude": 47.6719114, "longitude": 9.1883742, "source": "osm", "_tags": {"addr:city": "Konstanz", "addr:country": "DE", "addr:housenumber": "35", "addr:postcode": "78464", "addr:street": "Mainaustraße", "amenity": "clinic", "building": "hospital", "healthcare": "hospital", "name": "Klinikum Konstanz, Haus 1 / Vincentius Krankenhaus", "opening_hours": "24/7", "roof:shape": "flat"}}, {"name": "Herz-Zentrum Bodensee", "latitude": 47.6717495, "longitude": 9.1859157, "source": "osm", "_tags": {"addr:city": "Konstanz", "addr:country": "DE", "addr:housenumber": "9a", "addr:postcode": "78464", "addr:street": "Luisenstraße", "addr:suburb": "Petershausen-Ost", "amenity": "hospital", "building": "yes", "email": "info@herz-zentrum.com", "emergency": "no", "fax": "+49 7531 897523", "healthcare": "hospital", "name": "Herz-Zentrum Bodensee", "phone": "+49 7531 8970", "url": "http://www.herz-zentrum.com", "wheelchair": "yes", "wikidata": "Q126391201"}}, {"name": "Helios Spital Überlingen", "latitude": 47.7747866, "longitude": 9.1506508, "source": "osm", "_tags": {"addr:city": "Überlingen", "addr:country": "DE", "addr:housenumber": "1", "addr:postcode": "88662", "addr:street": "Härlenweg", "amenity": "hospital", "healthcare": "hospital", "name": "Helios Spital Überlingen", "operator": "Helios Kliniken", "operator:wikidata": "Q1254151", "website": "https://www.helios-gesundheit.de/kliniken/ueberlingen/"}}, {"name": "Asklepios Klinik Lindau", "latitude": 47.5634767, "longitude": 9.6836747, "source": "osm", "_tags": {"amenity": "hospital", "name": "Asklepios Klinik Lindau", "wheelchair": "yes"}}, {"name": "Rehaklinik Dussnang AG", "latitude": 47.4305081, "longitude": 8.9638854, "source": "osm", "_tags": {"addr:city": "Dussnang", "addr:housenumber": "34", "addr:postcode": "8374", "addr:street": "Kurhausstrasse", "amenity": "hospital", "contact:phone": "+41 71 978 63 63", "healthcare": "hospital", "name": "Rehaklinik Dussnang AG"}}, {"name": "Bodenseeklinik", "latitude": 47.5453039, "longitude": 9.6778559, "source": "osm", "_tags": {"amenity": "hospital", "email": "info@bodenseeklinik.de", "healthcare": "hospital", "healthcare:speciality": "plastic_surgery", "name": "Bodenseeklinik", "operator": "Prof. Dr. Dr. Werner Mang", "phone": "+49 8382 260 18", "website": "https://www.bodenseeklinik.de/"}}, {"name": "Herz-Neuro-Zentrum Bodensee", "latitude": 47.6295277, "longitude": 9.2383282, "source": "osm", "_tags": {"addr:city": "Münsterlingen", "addr:country": "CH", "addr:housenumber": "15", "addr:postcode": "8596", "addr:street": "Spitalstrasse", "amenity": "hospital", "emergency": "yes", "healthcare": "hospital", "healthcare:speciality": "cardiology;neurosurgery", "name": "Herz-Neuro-Zentrum Bodensee", "note": "Klinikgelände grob geschätzt. Gerne korrigieren/anpassen", "operator": "CHC Holding AG", "operator:type": "private", "phone": "+41 71 677 51 51", "website": "https://www.herz-zentrum.com/muensterlingen/klinik/standorte"}}, {"name": "Klinik St.Pirminsberg", "latitude": 46.9903475, "longitude": 9.5008986, "source": "osm", "_tags": {"amenity": "hospital", "healthcare": "hospital", "name": "Klinik St.Pirminsberg"}}, {"name": "Hegau-Jugendwerk Gailingen", "latitude": 47.6909365, "longitude": 8.7681535, "source": "osm", "_tags": {"addr:city": "Gailingen am Hochrhein", "addr:country": "DE", "addr:housenumber": "31", "addr:postcode": "78262", "addr:street": "Kapellenstraße", "amenity": "hospital", "name": "Hegau-Jugendwerk Gailingen", "type": "multipolygon", "wheelchair": "yes"}}, {"name": "Asklepios Klinik Lindau", "latitude": 47.5636691, "longitude": 9.6839427, "source": "osm", "_tags": {"addr:city": "Lindau (Bodensee)", "addr:country": "DE", "addr:housenumber": "82", "addr:postcode": "88131", "addr:street": "Friedrichshafener Straße", "addr:suburb": "Hoyren", "amenity": "hospital", "building": "hospital", "contact:fax": "+49 8382 276 50 11 50", "contact:phone": "+49 8382 276 0", "emergency": "yes", "healthcare": "hospital", "name": "Asklepios Klinik Lindau", "opening_hours": "Mo-Su 06:00-22:00", "operator": "Asklepios Kliniken GmbH & Co. KGaA", "operator:type": "private", "operator:wikidata": "Q732068", "operator:wikipedia": "de:Asklepios Kliniken", "roof:shape": "hipped", "type": "multipolygon"}}, {"name": "Spital Herisau", "latitude": 47.3882537, "longitude": 9.2838516, "source": "osm", "_tags": {"amenity": "hospital", "healthcare": "hospital", "healthcare:speciality": "intensive", "name": "Spital Herisau", "phone": "+41 71 353 21 11", "type": "multipolygon"}}]