[{"name": "", "latitude": 47.3854043, "longitude": 13.4671278, "source": "osm", "_tags": {"amenity": "hospital", "healthcare": "hospital"}}, {"name": "MVZ", "latitude": 47.629768, "longitude": 13.000686, "source": "osm", "_tags": {"addr:country": "DE", "addr:housenumber": "6", "addr:postcode": "83471", "addr:street": "Franziskanerplatz", "amenity": "hospital", "contact:phone": "+49 8652 2925", "emergency": "no", "healthcare": "hospital", "internet_access": "wlan", "name": "MVZ", "official_name": "MVZ Berchtesgaden GmbH", "opening_hours": "Mo,Th 08:30-12:30,16:30-18:00; Tu,We,Fr 08:30-12:30"}}, {"name": "Ambulatorium Optimed Sportmedizin", "latitude": 47.2742309, "longitude": 12.7637302, "source": "osm", "_tags": {"amenity": "hospital", "emergency": "yes", "healthcare": "hospital", "name": "Ambulatorium Optimed Sportmedizin"}}, {"name": "", "latitude": 47.6513417, "longitude": 12.7312396, "source": "osm", "_tags": {"amenity": "hospital"}}, {"name": "Diakonissenkrankenhaus Schladming", "latitude": 47.3919391, "longitude": 13.6765402, "source": "osm", "_tags": {"addr:city": "Schladming", "addr:country": "AT", "addr:housenumber": "777", "addr:postcode": "8970", "addr:street": "Salzburger Straße", "amenity": "hospital", "emergency": "yes", "healthcare": "hospital", "name": "Diakonissenkrankenhaus Schladming", "operator": "Diakonie"}}, {"name": "PMU LKH Gynäkologie Geburtshilfe", "latitude": 47.8062598, "longitude": 13.0325787, "source": "osm", "_tags": {"amenity": "hospital", "healthcare": "hospital", "name": "PMU LKH Gynäkologie Geburtshilfe", "website": "https://salk.at/"}}, {"name": "Notaufnahme Erwachsene", "latitude": 47.8060751, "longitude": 13.0283207, "source": "osm", "_tags": {"amenity": "hospital", "emergency": "yes", "healthcare": "hospital", "healthcare:speciality": "emergency", "name": "Notaufnahme Erwachsene"}}, {"name": "Christian Doppler Klinik", "latitude": 47.8133916, "longitude": 13.017562, "source": "osm", "_tags": {"addr:housenumber": "79", "addr:postcode": "5020", "addr:street": "Ignaz-Harrer-Straße", "alt_name": "CDK Salzburg", "alt_name1": "CDK", "alt_name2": "Salzburg CDK", "amenity": "hospital", "health_specialty": "stroke_unit", "healthcare": "hospital", "name": "Christian Doppler Klinik", "operator": "Salzburger Landeskliniken", "wheelchair": "yes"}}, {"name": "", "latitude": 47.8075873, "longitude": 13.0340422, "source": "osm", "_tags": {"amenity": "hospital", "building": "yes", "healthcare": "hospital"}}, {"name": "Krankenhaus Abtenau", "latitude": 47.5655318, "longitude": 13.3467376, "source": "osm", "_tags": {"addr:city": "Abtenau", "addr:housenumber": "25", "addr:postcode": "5441", "addr:street": "Markt", "amenity": "hospital", "building": "yes", "healthcare": "hospital", "name": "Krankenhaus Abtenau"}}, {"name": "Landeskrankenhaus Salzburg - Universitätsklinikum der PMU", "latitude": 47.806236, "longitude": 13.0307488, "source": "osm", "_tags": {"addr:city": "Salzburg", "addr:housenumber": "48", "addr:postcode": "5020", "addr:street": "Müllner Hauptstraße", "alt_name": "Uniklinikum Salzburg - Landeskrankenhaus", "amenity": "hospital", "emergency": "yes", "healthcare": "hospital", "healthcare:speciality": "emergency", "name": "Landeskrankenhaus Salzburg - Universitätsklinikum der PMU", "operator": "Salzburger Landeskliniken", "operator:type": "gemeinnützige_salzburger_landeskliniken_betriebsgesellschaft_mbh", "short_name": "LKH Salzburg", "wheelchair": "yes"}}, {"name": "Salzkammergut Klinikum Bad Ischl", "latitude": 47.7061358, "longitude": 13.6243758, "source": "osm", "_tags": {"addr:city": "Bad Ischl", "addr:country": "AT", "addr:housenumber": "8-10", "addr:postcode": "4820", "addr:street": "Dr. Mayer Straße", "amenity": "hospital", "building": "yes", "healthcare": "hospital", "healthcare:speciality": "emergency", "name": "Salzkammergut Klinikum Bad Ischl", "name_alt": "LKH Bad Ischl", "operator": "Oberösterreichische Gesundheitsholding GmbH", "source": "bad-ischl.ooe.gv.at/Umpostung_von_PLZ_5351_Aigen-Voglhub_auf_PLZ_4820_Bad_Ischl_ab_26_Februar_2018", "wheelchair": "yes"}}, {"name": "Krankenhaus Hallein", "latitude": 47.6853087, "longitude": 13.1126417, "source": "osm", "_tags": {"addr:city": "Hallein", "addr:country": "AT", "addr:housenumber": "34", "addr:postcode": "5400", "addr:street": "Bürgermeisterstraße", "amenity": "hospital", "building": "hospital", "building:use": "hospital", "check_date": "2024-04-16", "emergency": "yes", "healthcare": "hospital", "name": "Krankenhaus Hallein", "operator": "Halleiner Krankenanstaltenbetriebsges. m.b.H.", "phone": "+43 6245 7990", "website": "http://www.kh-hallein.at/", "wheelchair": "yes", "wikidata": "Q55809105", "wikipedia": "de:Landesklinik_Hallein"}}, {"name": "Landesklinik St. Veit", "latitude": 47.3322531, "longitude": 13.1609612, "source": "osm", "_tags": {"amenity": "hospital", "healthcare": "hospital", "name": "Landesklinik St. Veit", "wikidata": "Q78197790", "wikipedia": "de:Landesklinik Sankt Veit im Pongau"}}, {"name": "Klinik Diakonissen Schladming", "latitude": 47.3920662, "longitude": 13.6763214, "source": "osm", "_tags": {"addr:city": "Schladming", "addr:country": "AT", "addr:housenumber": "777", "addr:postcode": "8970", "addr:street": "Salzburger Straße", "amenity": "hospital", "contact:email": "bewerbung.schladming@diakonissen.at", "contact:phone": "+43 3687 2020 0", "contact:website": "http://www.schladming.diakonissen.at/", "emergency": "yes", "healthcare": "hospital", "healthcare:speciality": "emergency", "name": "Klinik Diakonissen Schladming", "operator": "Diakoniewerk", "operator:type": "private", "source": "GeoImage.at High-Res", "toilets:wheelchair": "yes", "wheelchair": "yes"}}, {"name": "Lankesklinik Hallein", "latitude": 47.6853374, "longitude": 13.112522, "source": "osm", "_tags": {"addr:city": "Hallein", "addr:housenumber": "34", "addr:postcode": "5400", "addr:street": "Bürgermeisterstraße", "amenity": "hospital", "emergency": "yes", "healthcare": "hospital", "healthcare:speciality": "emergency", "name": "Lankesklinik Hallein", "operator": "Gemeinnützige Salzburger Landeskliniken Betriebsgesellschaft mbH", "short_name": "LKH Hallein", "website": "http://www.kh-hallein.at/", "wheelchair": "yes"}}, {"name": "Kreisklinik Bad Reichenhall", "latitude": 47.7278819, "longitude": 12.8720558, "source": "osm", "_tags": {"amenity": "hospital", "check_date": "2024-07-12", "emergency": "yes", "fax": "+49 8651 772244", "healthcare": "hospital", "name": "Kreisklinik Bad Reichenhall", "opening_hours": "24/7", "operator": "Kliniken Südostbayern AG", "phone": "+49 8651 7720"}}, {"name": "Rehazentrum Bayerisch Gmain - Klinik Hochstaufen", "latitude": 47.7183956, "longitude": 12.8973518, "source": "osm", "_tags": {"addr:city": "Bayerisch Gmain", "addr:country": "DE", "addr:housenumber": "2", "addr:postcode": "83457", "addr:street": "Herkommerstraße", "amenity": "hospital", "building": "yes", "emergency": "no", "healthcare": "hospital", "name": "Rehazentrum Bayerisch Gmain - Klinik Hochstaufen", "operator": "Deutsche Rentenversicherung Bund", "wheelchair": "yes"}}, {"name": "Unfallkrankenhaus Salzburg", "latitude": 47.7993089, "longitude": 13.0562265, "source": "osm", "_tags": {"addr:city": "Salzburg", "addr:housenumber": "5", "addr:postcode": "5010", "addr:street": "Dr.-Franz-Rehrl-Platz", "alt_name": "UKH Salzburg", "alt_name_1": "Salzburg UKH", "amenity": "hospital", "emergency": "yes", "healthcare": "hospital", "healthcare:speciality": "trauma", "name": "Unfallkrankenhaus Salzburg", "operator": "AUVA", "wheelchair": "yes", "wikidata": "Q2493177", "wikipedia": "de:Unfallkrankenhaus Salzburg"}}, {"name": "Krankenhaus Barmherzigen Brüder Salzburg", "latitude": 47.7974119, "longitude": 13.0515527, "source": "osm", "_tags": {"addr:city": "Salzburg", "addr:housenumber": "1", "addr:place": "Kajetanerplatz", "addr:postcode": "5010", "amenity": "hospital", "healthcare": "hospital", "healthcare:speciality": "emergency", "name": "Krankenhaus Barmherzigen Brüder Salzburg", "operator": "Konvent der Barmherzigen Brüder Salzburg", "operator:type": "religious", "short_name": "BHB Salzburg", "website": "https://www.barmherzige-brueder.at/portal/salzburg/home", "wheelchair": "yes"}}, {"name": "Tauernklinikum Standort Zell am See", "latitude": 47.3392159, "longitude": 12.8149074, "source": "osm", "_tags": {"addr:city": "Zell am See", "addr:country": "AT", "addr:housenumber": "8", "addr:postcode": "5700", "addr:street": "Paracelsusstraße", "amenity": "hospital", "emergency": "yes", "healthcare": "hospital", "healthcare:speciality": "emergency", "name": "Tauernklinikum Standort Zell am See", "official_name": "A. ö. Tauernklinikum Zell am See", "operator": "Tauernkliniken GmbH", "website": "https://www.tauernklinikum.at/", "wikidata": "Q64554264"}}, {"name": "Schön Klinik Berchtesgadener Land", "latitude": 47.6022882, "longitude": 12.9794508, "source": "osm", "_tags": {"addr:city": "Schönau am Königssee", "addr:country": "DE", "addr:housenumber": "1", "addr:postcode": "83471", "addr:street": "Malterhöh", "amenity": "hospital", "beds": "320", "emergency": "yes", "healthcare": "hospital", "healthcare:speciality": "intensive;emergency;rehabilitation;orthopaedics;pneumology;psychosomatic", "name": "Schön Klinik Berchtesgadener Land", "operator": "Schön Klinik", "operator:type": "private", "operator:wikidata": "Q2258661", "operator:wikipedia": "de:Schön Klinik", "phone": "+49 8652 930", "start_date": "1996", "website": "https://www.schoen-klinik.de/berchtesgadener-land"}}, {"name": "Bezirkskrankenhaus Lienz", "latitude": 46.8351071, "longitude": 12.7644367, "source": "osm", "_tags": {"addr:city": "Lienz", "addr:country": "AT", "addr:housenumber": "5", "addr:postcode": "9900", "addr:street": "Emanuel von Hibler-Straße", "amenity": "hospital", "emergency": "no", "health_specialty": "stroke_unit", "healthcare": "hospital", "healthcare:speciality": "emergency", "name": "Bezirkskrankenhaus Lienz", "website": "https://www.kh-lienz.at/de/", "wikidata": "Q854262", "wikipedia": "de:Bezirkskrankenhaus Lienz"}}, {"name": "Kardinal Schwarzenberg Klinikum", "latitude": 47.3216487, "longitude": 13.15368, "source": "osm", "_tags": {"addr:city": "Schwarzach im Pongau", "addr:country": "AT", "addr:postcode": "5620", "addr:street": "Kardinal Schwarzenbergplatz", "amenity": "hospital", "building": "yes", "contact:fax": "+43 6415 6766 2207", "contact:phone": "+43 6415 7101", "contact:website": "www.kh-schwarzach.at", "health_specialty": "stroke_unit", "healthcare": "hospital", "healthcare:speciality": "emergency;trauma", "layer": "1", "name": "Kardinal Schwarzenberg Klinikum", "source": "geoimage.at", "type": "multipolygon", "website": "https://www.kh-schwarzach.at/", "wikidata": "Q99943055"}}, {"name": "Unfallkrankenhaus Salzburg", "latitude": 47.7993041, "longitude": 13.0562578, "source": "osm", "_tags": {"amenity": "hospital", "emergency": "yes", "name": "Unfallkrankenhaus Salzburg", "type": "collection", "website": "http://www.ukh-salzburg.at", "wheelchair": "yes"}}, {"name": "Kreisklinik Berchtesgaden", "latitude": 47.6403557, "longitude": 13.0055155, "source": "osm", "_tags": {"addr:city": "Berchtesgaden", "addr:country": "DE", "addr:housenumber": "16", "addr:postcode": "83471", "addr:street": "Locksteinstraße", "amenity": "hospital", "building": "hospital", "emergency": "yes", "fax": "+49 8652 575499", "healthcare": "hospital", "name": "Kreisklinik Berchtesgaden", "operator": "Kliniken Südostbayern", "phone": "+49 8652 570", "type": "multipolygon", "website": "https://www.kliniken-suedostbayern.de/", "wheelchair": "yes"}}]