[{"name": "Psychatrie Adulte CHI HTE Comté", "latitude": 47.0580471, "longitude": 6.6061833, "source": "osm", "_tags": {"amenity": "hospital", "name": "Psychatrie Adulte CHI HTE Comté", "ref:FR:FINESS": "250009123", "source": "Le ministère des solidarités et de la santé - 08/2018"}}, {"name": "", "latitude": 47.246546, "longitude": 6.0254989, "source": "osm", "_tags": {"amenity": "hospital", "healthcare": "hospital", "ref:FR:FINESS": "250010493", "source": "Le ministère des solidarités et de la santé - 03/2019", "wheelchair": "no"}}, {"name": "", "latitude": 47.2503164, "longitude": 6.0370358, "source": "osm", "_tags": {"amenity": "hospital", "healthcare": "hospital", "ref:FR:FINESS": "250011186", "source": "Le ministère des solidarités et de la santé - 03/2019"}}, {"name": "Hopital de Jour Catalpa", "latitude": 47.2634514, "longitude": 6.0266114, "source": "osm", "_tags": {"amenity": "hospital", "healthcare": "hospital", "healthcare:speciality": "psychiatry", "name": "Hopital de Jour Catalpa", "ref:FR:FINESS": "250011160", "source": "Le ministère des solidarités et de la santé - 03/2019"}}, {"name": "Hôpital Saint-Jacques", "latitude": 47.2353629, "longitude": 6.0209741, "source": "osm", "_tags": {"amenity": "hospital", "healthcare": "hospital", "name": "Hôpital Saint-Jacques", "ref:FR:FINESS": "250016466", "source": "Le ministère des solidarités et de la santé - 03/2019", "wheelchair": "yes"}}, {"name": "Foyer Postcure Le Colombier", "latitude": 47.2405991, "longitude": 6.0132298, "source": "osm", "_tags": {"amenity": "clinic", "healthcare": "hospital", "healthcare:speciality": "psychiatry", "name": "Foyer Postcure Le Colombier", "opening_hours:signed": "no", "ref:FR:FINESS": "250008109", "source": "Le ministère des solidarités et de la santé - 03/2019"}}, {"name": "Unité d’Accueil Père-Mère-Bébé", "latitude": 47.239429, "longitude": 5.9941596, "source": "osm", "_tags": {"amenity": "hospital", "contact:city": "Besançon", "contact:housenumber": "8A", "contact:phone": "+33 3 81 88 33 62", "contact:postcode": "25000", "contact:street": "Rue Jacquard", "healthcare": "hospital", "name": "Unité d’Accueil Père-Mère-Bébé", "ref:FR:FINESS": "250017308", "source": "Le ministère des solidarités et de la santé - 03/2019", "wheelchair": "yes"}}, {"name": "USLD Bellevaux", "latitude": 47.2424339, "longitude": 6.0223078, "source": "osm", "_tags": {"addr:city": "Besançon", "addr:housenumber": "29", "addr:postcode": "25000", "addr:street": "Quai de Strasbourg", "amenity": "hospital", "description": "Etablissement de Soins Longue Durée", "healthcare": "hospital", "name": "USLD Bellevaux", "ref:FR:FINESS": "250001237", "ref:FR:NAF": "86.10Z", "ref:FR:SIRET": "26250175200188", "source": "Le ministère des solidarités et de la santé - 03/2019", "type:FR:FINESS": "362"}}, {"name": "Clinique Saint-Pierre", "latitude": 46.9053971, "longitude": 6.3489785, "source": "osm", "_tags": {"addr:housenumber": "6", "addr:street": "Rue Émile Thomas", "amenity": "clinic", "building": "yes", "contact:facebook": "https://www.facebook.com/clinique.saint.pierre.pontarlier/", "fax": "+33 3 81 39 26 94", "healthcare": "hospital", "name": "Clinique Saint-Pierre", "opening_hours": "Mo-Sa 08:30-17:00", "operator": "Ramsay Santé", "operator:wikidata": "Q3123085", "operator:wikipedia": "fr:Ramsay Santé", "phone": "+33 3 81 38 83 00", "ref:FR:FINESS": "250000288", "ref:FR:SIRET": "31945006000060", "source": "cadastre-dgi-fr source : Direction Générale des Impôts - Cadastre ; mise à jour : 2009", "start_date": "1956-10-25", "type:FR:FINESS": "365", "website": "https://www.elsan.care/fr/Clinique-saint-pierre-pontarlier"}}, {"name": "Centre hospitalier de Pontarlier", "latitude": 46.9009568, "longitude": 6.3597906, "source": "osm", "_tags": {"alt_name": "Hôpital Les Rives du Doubs", "amenity": "hospital", "contact:youtube": "https://www.youtube.com/channel/UCBRkUzVPWoXJqo_qqVUAcHA", "emergency": "yes", "fax": "+33 3 81 38 54 80", "healthcare": "hospital", "name": "Centre hospitalier de Pontarlier", "old_name": "Hôpital Saint-Etienne", "operator": "Centre hospitalier intercommunal Haute-Comté", "operator:type": "public", "phone": "+33 3 81 38 54 54", "ref:FR:FINESS": "250000700", "short_name": "CHIHC", "type:FR:FINESS": "355", "website": "https://pontarlier-hopital.chi-hautecomte.fr/", "wikidata": "Q98960407"}}, {"name": "Hôpital", "latitude": 46.8996341, "longitude": 5.7757575, "source": "osm", "_tags": {"amenity": "hospital", "capacity": "141", "contact:phone": "+33 3 84 66 44 00", "healthcare": "hospital", "name": "Hôpital", "ref:FR:FINESS": "390000081", "ref:FR:NAF": "8610Z", "ref:FR:SIRET": "26390001100010", "source": "cadastre-dgi-fr source : Direction Générale des Impôts - Cadastre. Mise à jour : 2010", "type:FR:FINESS": "106"}}, {"name": "Hôpital neuchâtelois Val-de-Travers", "latitude": 46.9255423, "longitude": 6.6300283, "source": "osm", "_tags": {"amenity": "hospital", "building": "hospital", "healthcare": "hospital", "name": "Hôpital neuchâtelois Val-de-Travers", "operator": "Hôpital neuchâtelois", "phone": "+41 32 864 64 64"}}, {"name": "Polyclinique de Franche-Comté", "latitude": 47.2153389, "longitude": 5.979924, "source": "osm", "_tags": {"addr:city": "Besançon", "addr:housenumber": "4", "addr:postcode": "25000", "addr:street": "Rue Auguste Rodin", "amenity": "hospital", "building": "hospital", "healthcare": "hospital", "name": "Polyclinique de Franche-Comté", "phone": "+33 3 81 41 81 41", "ref:FR:FINESS": "250011848", "source": "extraction vectorielle v1 cadastre-dgi-fr source : Direction Générale des Impôts - Cadas. Mise à jour : 2010", "type:FR:FINESS": "124", "website": "http://www.polyclinique-franchecomte.fr/", "wikidata": "Q50037297"}}, {"name": "Centre Hospitalier Paul Nappez Morteau", "latitude": 47.0606135, "longitude": 6.6029475, "source": "osm", "_tags": {"amenity": "hospital", "building": "yes", "name": "Centre Hospitalier Paul Nappez Morteau", "ref:FR:FINESS": "250000627", "source": "cadastre-dgi-fr source : Direction Générale des Impôts - Cadastre. Mise à jour : 2010", "wikidata": "Q92063152"}}, {"name": "Hôpital Sainte-Croix", "latitude": 47.3525099, "longitude": 6.3579448, "source": "osm", "_tags": {"amenity": "hospital", "email": "hopital-baume-direction@wanadoo.fr", "emergency": "no", "fax": "+33 3 81 84 70 21", "healthcare": "hospital", "name": "Hôpital Sainte-Croix", "operator:type": "public", "phone": "+33 3 81 84 70 00", "ref:FR:FINESS": "250000635", "ref:FR:SIRET": "26250047300018", "type:FR:FINESS": "106", "wikidata": "Q92062927"}}, {"name": "Centre hospitalier de Lure", "latitude": 47.68235, "longitude": 6.5027902, "source": "osm", "_tags": {"amenity": "hospital", "email": "contact@gh70.fr", "emergency": "yes", "fax": "+33 3 84 62 43 99", "healthcare": "hospital", "name": "Centre hospitalier de Lure", "operator": "Groupe hospitalier de la Haute-Saône", "operator:type": "public", "phone": "+33384624306", "ref:FR:FINESS": "700780208", "source": "cadastre-dgi-fr source : Direction Générale des Impôts - Cadastre. Mise à jour : 2011", "type:FR:FINESS": "355", "website": "https://www.gh70.fr/"}}, {"name": "Hôpital spécialisé Centre Psychiatrie Générale", "latitude": 47.685768, "longitude": 6.4892806, "source": "osm", "_tags": {"amenity": "hospital", "healthcare": "hospital", "name": "Hôpital spécialisé Centre Psychiatrie Générale", "ref:FR:FINESS": "700002439", "source": "cadastre-dgi-fr source : Direction Générale des Impôts - Cadastre. Mise à jour : 2011", "type": "292"}}, {"name": "Centre de Réadaptation Fonctionnelle", "latitude": 46.9401125, "longitude": 5.8768105, "source": "osm", "_tags": {"amenity": "hospital", "building": "yes", "healthcare": "hospital", "name": "Centre de Réadaptation Fonctionnelle", "ref:FR:FINESS": "390000073", "source": "cadastre-dgi-fr source : Direction Générale des Impôts - Cadastre. Mise à jour : 2012", "type:FR:FINESS": "355", "website": "https://hopitaux-jura.fr/chipr/centre-hospitalier-intercommunal-du-pays-du-revermont/salins-les-bains/ssr-salins-les-bains/"}}, {"name": "Centre hospitalier de Vesoul", "latitude": 47.6367477, "longitude": 6.1397503, "source": "osm", "_tags": {"amenity": "hospital", "email": "contact@gh70.fr", "emergency": "yes", "fax": "+33 3 84 96 65 90", "healthcare": "hospital", "healthcare:speciality": "intensive", "name": "Centre hospitalier de Vesoul", "operator": "Groupe hospitalier de la Haute-Saône", "operator:type": "public", "phone": "+33 3 84 96 60 60", "ref:FR:FINESS": "700000029", "type:FR:FINESS": "355", "website": "https://www.gh70.fr/", "wikidata": "Q2945707"}}, {"name": "", "latitude": 46.8194415, "longitude": 6.4948173, "source": "osm", "_tags": {"amenity": "hospital", "healthcare": "hospital", "source": "Bing"}}, {"name": "Centre de Soins et de Réadaptation Les Tilleroyes", "latitude": 47.234646, "longitude": 5.9619303, "source": "osm", "_tags": {"amenity": "hospital", "contact:phone": "+33 3 81 41 60 60", "healthcare": "hospital", "name": "Centre de Soins et de Réadaptation Les Tilleroyes", "operator": "CHRU de Besançon", "ref:FR:FINESS": "250000759", "ref:FR:NAF": "8610Z", "ref:FR:SIRET": "26250177800019", "type:FR:FINESS": "355"}}, {"name": "Centre de Réadaptation Cardiologique et Pneumologique de Franche-Comté", "latitude": 46.8821938, "longitude": 5.9087908, "source": "osm", "_tags": {"amenity": "hospital", "contact:phone": "+33 3 84 53 16 16", "healthcare": "hospital", "healthcare:speciality": "cardiology;pulmonology", "name": "Centre de Réadaptation Cardiologique et Pneumologique de Franche-Comté", "ref:FR:FINESS": "390000172", "ref:FR:SIRET": "32730845800139", "short_name": "CRCPFC", "type:FR:FINESS": "109"}}, {"name": "Centre Hospitalier Saint-Louis", "latitude": 47.1071037, "longitude": 6.143156, "source": "osm", "_tags": {"amenity": "hospital", "contact:phone": "+33 3 81 62 46 00", "healthcare": "hospital", "name": "Centre Hospitalier Saint-Louis", "ref:FR:FINESS": "250000726", "ref:FR:NAF": "8610Z", "ref:FR:SIRET": "26250434300019", "type:FR:FINESS": "106", "wikidata": "Q92063156"}}, {"name": "Centre Hospitalier de Novillars", "latitude": 47.2817354, "longitude": 6.1243232, "source": "osm", "_tags": {"amenity": "hospital", "contact:phone": "+33 381605800", "healthcare": "hospital", "name": "Centre Hospitalier de Novillars", "ref:FR:FINESS": "250000718", "ref:FR:SIRET": "26250429300016", "source": "Cadastre", "type:FR:FINESS": "292"}}, {"name": "Centre hospitalier régional universitaire Jean Minjoz", "latitude": 47.2250189, "longitude": 5.9616619, "source": "osm", "_tags": {"alt_name": "CHU de Besançon", "amenity": "hospital", "emergency": "yes", "healthcare": "hospital", "name": "Centre hospitalier régional universitaire Jean Minjoz", "phone": "+33 3 81 66 81 66", "ref:FR:FINESS": "250006954", "ref:FR:NAF": "8610Z", "ref:FR:SIRET": "26250176000066", "short_name": "CHRU Jean Minjoz", "source": "cadastre-dgi-fr source : Direction Générale des Impôts - Cadastre ; mise à jour : 2008", "toilets:wheelchair": "yes", "type:FR:FINESS": "101", "website": "https://www.chu-besancon.fr/", "wheelchair": "yes", "wikidata": "Q3145168", "wikipedia": "fr:Centre hospitalier régional universitaire de Besançon"}}, {"name": "Unité de psychiatrie Le Grandvallier", "latitude": 46.9038812, "longitude": 6.3705281, "source": "osm", "_tags": {"alt_name": "CHG Pontarlier", "amenity": "hospital", "check_date": "2025-08-31", "fax": "+33 3 81 38 64 00", "healthcare": "hospital", "name": "Unité de psychiatrie Le Grandvallier", "phone": "+33 3 81 38 64 43", "ref:FR:FINESS": "250000619", "source": "Le ministère des solidarités et de la santé - 10/2018"}}, {"name": "Centre de Long Séjour Bellevaux", "latitude": 47.2424256, "longitude": 6.0224605, "source": "osm", "_tags": {"addr:city": "Besançon", "addr:housenumber": "29", "addr:postcode": "25000", "addr:street": "Quai de Strasbourg", "amenity": "hospital", "healthcare": "hospital", "name": "Centre de Long Séjour Bellevaux", "ref:FR:FINESS": "250007598", "ref:FR:NAF": "86.10Z", "ref:FR:SIREN": "262501752", "source": "cadastre-dgi-fr source : Direction Générale des Impôts - Cadastre;mise à jour : 2009", "website": "https://www.clsbellevaux.com/"}}]