[{"name": "Staufer Grundschule Schongau", "latitude": 47.8103362, "longitude": 10.8934568, "source": "osm", "_tags": {"amenity": "school", "healthcare": "hospital", "name": "Staufer Grundschule Schongau"}}, {"name": "Sanatorium Kettenbrücke", "latitude": 47.2793504, "longitude": 11.4065587, "source": "osm", "_tags": {"addr:city": "Innsbruck", "addr:country": "AT", "addr:housenumber": "1", "addr:postcode": "6020", "addr:street": "Sennstraße", "amenity": "hospital", "email": "information@sanatorium-kettenbruecke.at", "fax": "+43 512 2112-418", "healthcare": "hospital", "name": "Sanatorium Kettenbrücke", "official_name": "Sanatorium Kettenbrücke der Barmherzigen Schwestern", "operator": "Sanatorium Kettenbrücke der Barmherzigen Schwestern GmbH", "phone": "+43 512 2112", "website": "https://www.sanatorium-kettenbruecke.at/", "wheelchair": "yes", "wikidata": "Q38066482"}}, {"name": "Landeskrankenhaus Natters", "latitude": 47.2395657, "longitude": 11.3665446, "source": "osm", "_tags": {"amenity": "hospital", "email": "hn.dion-sek@tirol-kliniken.at", "healthcare": "hospital", "healthcare:speciality": "pulmonology;internal;cardiology;oncology", "name": "Landeskrankenhaus Natters", "operator": "Tirol Kliniken GmbH", "operator:type": "public", "phone": "+43 50 504-48000", "website": "https://www.tirol-kliniken.at/page.cfm?vpath=standorte/oe-landeskrankenhaus-hochzirl---natters/standort-natters"}}, {"name": "Klinikum Garmisch-Partenkirchen", "latitude": 47.4833911, "longitude": 11.1279272, "source": "osm", "_tags": {"amenity": "hospital", "beds": "505", "emergency": "yes", "healthcare": "hospital", "name": "Klinikum Garmisch-Partenkirchen", "toilets:wheelchair": "yes", "wheelchair": "yes"}}, {"name": "Klinik Oberammergau - Zentrum für Rheumatologie, Orthopädie und Schmerztherapie", "latitude": 47.5912573, "longitude": 11.0757529, "source": "osm", "_tags": {"addr:city": "Oberammergau", "addr:country": "DE", "addr:housenumber": "40", "addr:postcode": "82487", "addr:street": "Hubertusstraße", "amenity": "hospital", "emergency": "no", "healthcare": "hospital", "name": "Klinik Oberammergau - Zentrum für Rheumatologie, Orthopädie und Schmerztherapie", "operator": "Waldburg-Zeil Kliniken GmbH & Co. KG", "phone": "+49 8822 9140", "website": "https://www.klinik-oberammergau.de/", "wheelchair": "yes"}}, {"name": "Fachklinik Bad Heilbrunn", "latitude": 47.7493784, "longitude": 11.4602813, "source": "osm", "_tags": {"addr:city": "Bad Heilbrunn", "addr:country": "DE", "addr:housenumber": "30", "addr:postcode": "83670", "addr:street": "Wörnerweg", "amenity": "hospital", "building": "yes", "contact:email": "info@fachklinik-bad-heilbrunn.de", "contact:phone": "+49 8046 180", "emergency": "no", "healthcare": "hospital", "healthcare:speciality": "nephrology;transplantationsmedizin;orthopaedics;schmerztherapie;neurology;diabetology", "name": "Fachklinik Bad Heilbrunn", "operator": "m&i Klinikgruppe Enzensberg", "operator:type": "private", "social_facility": "group_home", "url": "https://www.fachklinik-bad-heilbrunn.de/", "website": "https://www.fachklinik-bad-heilbrunn.de/", "wheelchair": "yes"}}, {"name": "Fachklinik Gaißach", "latitude": 47.7451665, "longitude": 11.5798641, "source": "osm", "_tags": {"alt_name": "Zentrum für Chronische Erkrankungen", "amenity": "hospital", "check_date": "2025-01-08", "email": "info@fachklinik-gaissach.de", "emergency": "no", "fax": "+49 8041 798-222", "name": "Fachklinik Gaißach", "operator": "Deutsche Rentenversicherung", "phone": "+49 8041 798-0", "website": "https://www.fachklinik-gaissach.de/"}}, {"name": "Buchberg-Klinik Bad Tölz", "latitude": 47.7595999, "longitude": 11.5396202, "source": "osm", "_tags": {"addr:city": "Bad Tölz", "addr:country": "DE", "addr:housename": "Buchberg-Klinik Bad Tölz", "addr:housenumber": "20", "addr:postcode": "83646", "addr:street": "Wengleinstraße", "amenity": "hospital", "building": "yes", "check_date": "2024-04-02", "fax": "+49 8041 803–793", "healthcare": "hospital", "healthcare:speciality": "physiatry", "name": "Buchberg-Klinik Bad Tölz", "note": "Fachklinik für Physikalische Medizin und Medizinische Rehabilitation", "phone": "+49 8041 803–0", "website": "http://www.buchberg-klinik.de", "wheelchair": "no"}}, {"name": "Rehaklinik Buching", "latitude": 47.6369143, "longitude": 10.7862779, "source": "osm", "_tags": {"addr:city": "Halblech", "addr:housenumber": "9", "addr:postcode": "87642", "addr:street": "Rauhenbichl", "amenity": "hospital", "description": "Psychosomatische Kurklinik", "email": "rehaklinik.buching@kur.org", "emergency": "no", "fax": "+49 8368 79171", "healthcare": "hospital", "name": "Rehaklinik Buching", "phone": "+49 8368 790", "website": "https://www.rehaklinik-buching.de/"}}, {"name": "Berufsgenossenschaftliche Unfallklinik Murnau", "latitude": 47.671591, "longitude": 11.217932, "source": "osm", "_tags": {"addr:city": "Murnau am Staffelsee", "addr:country": "DE", "addr:housenumber": "8", "addr:postcode": "82418", "addr:street": "Professor-Küntscher-Straße", "amenity": "hospital", "building": "yes", "emergency": "yes", "healthcare": "hospital", "name": "Berufsgenossenschaftliche Unfallklinik Murnau", "phone": "+49 (0)8841 48 -0", "source": "Survey", "toilets:wheelchair": "yes", "website": "https://www.bgu-murnau.de/de-DE/index.php", "wheelchair": "yes", "wikidata": "Q828948"}}, {"name": "Rehazentrum Isarwinkel", "latitude": 47.7570609, "longitude": 11.5622232, "source": "osm", "_tags": {"amenity": "hospital", "building": "yes", "check_date": "2024-10-09", "emergency": "no", "healthcare": "hospital", "name": "Rehazentrum Isarwinkel"}}, {"name": "OPAL Palliativteam", "latitude": 47.7595358, "longitude": 11.5860231, "source": "osm", "_tags": {"addr:city": "Bad Tölz", "addr:housenumber": "1b", "addr:postcode": "83646", "addr:street": "Albert-Schäffenacker-Straße", "amenity": "hospital", "building": "yes", "healthcare": "hospital", "name": "OPAL Palliativteam", "operator": "OPAL Oberland Hospiz- und Palliativversorgung GmbH", "phone": "+49 8041 79 621 0", "website": "http://www.sapv-im-oberland.de"}}, {"name": "Universitätsklinik Innsbruck", "latitude": 47.26208, "longitude": 11.3866339, "source": "osm", "_tags": {"amenity": "hospital", "emergency": "yes", "health_specialty": "stroke_unit", "healthcare": "hospital", "healthcare:speciality": "emergency", "name": "Universitätsklinik Innsbruck", "official_name": "Landeskrankenhaus Innsbruck", "operator": "Tirol Kliniken GmbH", "reg_name": "Klinik Innsbruck", "website": "https://www.tirol-kliniken.at/", "wheelchair": "yes", "wikidata": "Q1802327", "wikipedia": "de:Landeskrankenhaus Innsbruck"}}, {"name": "Landeskrankenhaus Hall", "latitude": 47.2838691, "longitude": 11.5142079, "source": "osm", "_tags": {"amenity": "hospital", "healthcare": "hospital", "healthcare:speciality": "emergency", "name": "Landeskrankenhaus Hall", "operator": "Tirol Kliniken GmbH", "website": "https://www.tirol-kliniken.at/page.cfm?vpath=standorte/landeskrankenhaus-hall", "wikidata": "Q1277028", "wikipedia": "de:Landeskrankenhaus Hall"}}, {"name": "", "latitude": 47.7106565, "longitude": 10.8063308, "source": "osm", "_tags": {"amenity": "hospital"}}, {"name": "Landeskrankenhaus Hochzirl", "latitude": 47.2836521, "longitude": 11.2445249, "source": "osm", "_tags": {"amenity": "hospital", "healthcare": "hospital", "healthcare:speciality": "internal;neurology", "name": "Landeskrankenhaus Hochzirl", "operator": "Tirol Kliniken GmbH", "website": "https://www.tirol-kliniken.at/page.cfm?vpath=standorte/oe-landeskrankenhaus-hochzirl---natters/standort-hochzirl", "wikidata": "Q64555518", "wikipedia": "de:Landeskrankenhaus Hochzirl"}}, {"name": "Bezirkskrankenhaus Schwaz", "latitude": 47.3440786, "longitude": 11.7044677, "source": "osm", "_tags": {"amenity": "hospital", "contact:email": "info@kh-schwaz.at", "contact:phone": "+43 5242 600 0", "healthcare": "hospital", "healthcare:speciality": "emergency", "name": "Bezirkskrankenhaus Schwaz", "short_name": "BKH Schwaz", "website": "https://www.kh-schwaz.at/"}}, {"name": "Asklepios Stadtklinik", "latitude": 47.7565875, "longitude": 11.550899, "source": "osm", "_tags": {"amenity": "hospital", "email": "badtoelz@asklepios.com", "emergency": "yes", "fax": "+49 8041 507-1889", "healthcare": "hospital", "name": "Asklepios Stadtklinik", "operator": "Asklepios Kliniken", "operator:type": "private", "operator:wikidata": "Q732068", "operator:wikipedia": "de:Asklepios Kliniken", "phone": "+49 8041 507-01", "website": "https://www.asklepios.com/badtoelz"}}, {"name": "", "latitude": 47.6709402, "longitude": 11.2174927, "source": "osm", "_tags": {"amenity": "hospital", "healthcare": "hospital"}}, {"name": "Krankenhaus Sterzing - Ospedale Vipiteno", "latitude": 46.8981647, "longitude": 11.425741, "source": "osm", "_tags": {"amenity": "hospital", "emergency": "yes", "healthcare": "hospital", "name": "Krankenhaus Sterzing - Ospedale Vipiteno", "name:de": "Krankenhaus Sterzing", "name:it": "Ospedale Vipiteno", "operator:wikidata": "Q16294907", "wheelchair": "yes", "wikidata": "Q107264870"}}, {"name": "Ohlstadtklinik", "latitude": 47.6318024, "longitude": 11.2317284, "source": "osm", "_tags": {"addr:city": "Ohlstadt", "addr:country": "DE", "addr:housenumber": "5", "addr:postcode": "82441", "addr:street": "Boschetstraße", "amenity": "hospital", "building": "hospital", "building:levels": "3", "email": "service@ohlstadtklinik.de", "healthcare": "hospital", "name": "Ohlstadtklinik", "operator": "Deutsche Rentenversicherung Nordbayern", "phone": "+49-8841-601-0", "roof:levels": "0", "roof:shape": "gabled", "website": "https://www.ohlstadtklinik.de/", "wheelchair": "yes"}}, {"name": "Klinikum Penzberg", "latitude": 47.7545897, "longitude": 11.3756617, "source": "osm", "_tags": {"addr:city": "Penzberg", "addr:country": "DE", "addr:housenumber": "7", "addr:postcode": "82377", "addr:street": "Am Schloßbichl", "amenity": "hospital", "emergency": "yes", "healthcare": "hospital", "name": "Klinikum Penzberg", "website": "https://www.klinikum-penzberg.de/", "wheelchair": "yes"}}, {"name": "Deutsches Zentrum für Kinder- und Jugendrheumatologie", "latitude": 47.4871299, "longitude": 11.1026021, "source": "osm", "_tags": {"addr:city": "Garmisch-Partenkirchen", "addr:country": "DE", "addr:housenumber": "24", "addr:postcode": "82467", "addr:street": "Gehfeldstraße", "amenity": "hospital", "healthcare": "hospital", "name": "Deutsches Zentrum für Kinder- und Jugendrheumatologie", "phone": "+49 8821 7010", "website": "https://www.rheuma-kinderklinik.de/", "wheelchair": "yes", "wikidata": "Q820562", "wikipedia": "de:Deutsches Zentrum für Kinder- und Jugendrheumatologie"}}, {"name": "Klinik Hochried", "latitude": 47.6753231, "longitude": 11.1799743, "source": "osm", "_tags": {"amenity": "hospital", "healthcare": "hospital", "healthcare:speciality": "psychiatry", "name": "Klinik Hochried", "operator": "Katholische Jugendfürsorge der Diözese Augsburg e.V.", "type": "multipolygon", "website": "https://www.klinikhochried.de/de/startseite.html"}}]