[{"name": "Clinique Saint-Didier", "latitude": 47.4852002, "longitude": -0.5878728, "source": "osm", "_tags": {"addr:housenumber": "13", "addr:street": "Avenue du Commandant Mesnard", "amenity": "hospital", "healthcare": "hospital", "name": "Clinique Saint-Didier", "ref:FR:FINESS": "490000247", "type:FR:FINESS": "161"}}, {"name": "Hôpital Thierry de Langeraye", "latitude": 47.7412399, "longitude": -1.1747178, "source": "osm", "_tags": {"amenity": "hospital", "healthcare": "hospital", "name": "Hôpital Thierry de Langeraye", "ref:FR:FINESS": "490000569", "source": "Le ministère des solidarités et de la santé - 08/2018", "type:FR:FINESS": "355"}}, {"name": "Centre hospitalier du Haut Anjou. Site de Segré", "latitude": 47.6780159, "longitude": -0.8663213, "source": "osm", "_tags": {"amenity": "hospital", "healthcare": "hospital", "name": "Centre hospitalier du Haut Anjou. Site de Segré", "operator": "Centre hospitalier du Haut Anjou", "ref:FR:FINESS": "490020245", "ref:FR:NAF": "8610Z", "type:FR:FINESS": "355"}}, {"name": "Clinique Saint-Léonard", "latitude": 47.4555828, "longitude": -0.5129094, "source": "osm", "_tags": {"amenity": "hospital", "name": "Clinique Saint-Léonard", "operator": "SA Clinique Saint-Léonard", "operator:type": "private", "ref:FR:FINESS": "490015906"}}, {"name": "Clinique Saint-Joseph", "latitude": 47.4560512, "longitude": -0.5135706, "source": "osm", "_tags": {"amenity": "hospital", "name": "Clinique Saint-Joseph", "operator": "SA Clinique Saint-Joseph", "operator:type": "private", "ref:FR:FINESS": "490000262"}}, {"name": "dentistes", "latitude": 47.35647, "longitude": -0.552351, "source": "osm", "_tags": {"amenity": "hospital", "healthcare": "hospital", "name": "dentistes"}}, {"name": "IRM du Choletais", "latitude": 47.0430257, "longitude": -0.8958864, "source": "osm", "_tags": {"amenity": "hospital", "check_date": "2024-05-02", "healthcare": "hospital", "healthcare:speciality": "radiology", "internet_access": "wlan", "internet_access:fee": "customers", "name": "IRM du Choletais", "wheelchair": "yes"}}, {"name": "Centre hospitalier de Cholet", "latitude": 47.0420669, "longitude": -0.8966101, "source": "osm", "_tags": {"addr:housenumber": "1", "addr:street": "Rue de Marengo", "amenity": "hospital", "check_date": "2024-01-08", "emergency": "yes", "fax": "+33 2 41 49 60 60", "healthcare": "hospital", "healthcare:speciality": "intensive", "name": "Centre hospitalier de Cholet", "operator:type": "public", "payment:cash": "yes", "payment:credit_cards": "yes", "payment:debit_cards": "yes", "phone": "+33 2 41 49 60 00", "ref:FR:FINESS": "490000635", "type:FR:FINESS": "355", "website": "https://www.ch-cholet.fr/", "wheelchair": "yes"}}, {"name": "Centre médico-psychologique - Hôpital de jour", "latitude": 47.6731985, "longitude": -0.8876315, "source": "osm", "_tags": {"addr:housenumber": "1", "addr:place": "Sainte-Gemmes-d'Andigné", "addr:street": "Rue du Stade", "amenity": "hospital", "building": "yes", "hospital:for": "adult", "name": "Centre médico-psychologique - Hôpital de jour", "operator": "Centre de santé mentale angevin", "operator:type": "public", "phone": "+33 2 41 80 76 21", "ref:FR:FINESS": "490010519", "ref:FR:SIRET": "26490061400290", "source": "cadastre-dgi-fr source : Direction Générale des Impôts - Cadastre. Mise à jour : 2012", "start_date": "2000-12-26", "website": "https://www.ch-cesame-angers.fr/"}}, {"name": "Hopital Local", "latitude": 47.2339122, "longitude": -0.4307711, "source": "osm", "_tags": {"amenity": "hospital", "building": "yes", "name": "Hopital Local", "ref:FR:FINESS": "490000494", "source": "cadastre-dgi-fr source : Direction Générale des Finances Publiques - Cadastre. Mise à jour : 2013", "wikidata": "Q92063299"}}, {"name": "Centre Hospitalier Saint-Louis", "latitude": 47.408875, "longitude": -0.7582325, "source": "osm", "_tags": {"amenity": "hospital", "building": "yes", "healthcare": "hospital", "name": "Centre Hospitalier Saint-Louis", "ref:FR:FINESS": "490001146", "source": "cadastre-dgi-fr source : Direction Générale des Finances Publiques - Cadastre. Mise à jour : 2013"}}, {"name": "Centre de Santé Mentale Angevin (CESAME)", "latitude": 47.4221183, "longitude": -0.5642764, "source": "osm", "_tags": {"alt_name": "CESAME", "amenity": "hospital", "healthcare": "hospital", "healthcare:speciality": "psychiatry", "name": "Centre de Santé Mentale Angevin (CESAME)", "ref:FR:FINESS": "490000106", "type:FR:FINESS": "292", "website": "https://www.ch-cesame-angers.fr/"}}, {"name": "La Chimotaie", "latitude": 47.0624505, "longitude": -1.2316559, "source": "osm", "_tags": {"amenity": "hospital", "healthcare": "hospital", "name": "La Chimotaie", "operator": "MGEN", "ref:FR:FANTOIR": "85076B040T", "ref:FR:FINESS": "850000399", "type:FR:FINESS": "109", "website": "https://proximite.mgen.fr/207-etablissement-ssr-de-la-chimotaie"}}, {"name": "Soins de Suite et de Réadaptation Les Claveries", "latitude": 47.4874116, "longitude": -0.5041018, "source": "osm", "_tags": {"amenity": "hospital", "name": "Soins de Suite et de Réadaptation Les Claveries", "operator": "CHU d'Angers", "ref:FR:FINESS": "490529005"}}, {"name": "Institut de Cancérologie de l'Ouest", "latitude": 47.4835364, "longitude": -0.555737, "source": "osm", "_tags": {"addr:city": "Angers", "addr:housenumber": "15", "addr:postbox": "Cedex 02", "addr:postcode": "49100", "addr:street": "Rue André Boquel", "alt_name": "Centre Paul Papin", "amenity": "hospital", "building": "hospital", "name": "Institut de Cancérologie de l'Ouest", "operator": "Institut de Cancérologie de l'Ouest", "operator:type": "private", "ref:FR:FINESS": "490000155", "roof:material": "concrete", "roof:shape": "flat", "short_name": "ICO", "type:FR:FINESS": "131", "wikidata": "Q91994374"}}, {"name": "Centre hospitalier de Faye L'Abbesse", "latitude": 46.8315167, "longitude": -0.3867401, "source": "osm", "_tags": {"amenity": "hospital", "emergency": "yes", "healthcare": "hospital", "name": "Centre hospitalier de Faye L'Abbesse", "operator": "Centre hospitalier Nord Deux-Sèvres", "operator:type": "public", "phone": "+33 5 49 68 49 68", "ref:FR:FINESS": "790019848", "type:FR:FINESS": "355", "website": "https://www.chnds.fr/accueil.aspx"}}, {"name": "Centre Hospitalier Francis Robert", "latitude": 47.3742632, "longitude": -1.1720355, "source": "osm", "_tags": {"amenity": "hospital", "emergency": "yes", "fax": "+33 2 40 09 44 15", "healthcare": "hospital", "name": "Centre Hospitalier Francis Robert", "name:br": "Pennospital Francis Robert", "operator:type": "public", "phone": "+33 2 40 09 44 00", "ref:FR:FANTOIR": "44003B052G", "ref:FR:FINESS": "440000396", "type:FR:FINESS": "355", "website": "http://www.ch-ancenis.fr/"}}, {"name": "Clinique de l'Anjou", "latitude": 47.4449635, "longitude": -0.5394554, "source": "osm", "_tags": {"addr:city": "Angers", "addr:housenumber": "9", "addr:postcode": "49000", "addr:street": "Rue de l'Hirondelle", "amenity": "hospital", "emergency": "yes", "fax": "+33 2 41 44 71 02", "healthcare": "hospital", "name": "Clinique de l'Anjou", "operator:type": "private", "phone": "+33 2 41 44 71 71", "ref:FR:FINESS": "490014909", "type:FR:FINESS": "365", "website": "https://www.clinique-anjou.fr/"}}, {"name": "CHU d'Angers", "latitude": 47.4835518, "longitude": -0.5570995, "source": "osm", "_tags": {"addr:full": "4 rue Larrey 49000 Angers", "addr:street": "Rue Larrey", "amenity": "hospital", "emergency": "yes", "fax": "+33 2 41 35 55 06", "healthcare": "hospital", "name": "CHU d'Angers", "operator:type": "public", "phone": "+33 2 41 35 36 37", "ref:FR:FINESS": "490000049", "type:FR:FINESS": "101", "website": "https://www.chu-angers.fr/", "wikidata": "Q2945753"}}, {"name": "Village Santé", "latitude": 47.4563574, "longitude": -0.512735, "source": "osm", "_tags": {"amenity": "hospital", "healthcare": "hospital", "name": "Village Santé", "operator": "Groupement de coopération sanitaire Béllinière", "operator:type": "private"}}, {"name": "Centre hospitalier intercommunal Lys Hyrôme", "latitude": 47.1454975, "longitude": -0.5418639, "source": "osm", "_tags": {"amenity": "hospital", "fax": "+33 2 41 75 09 46", "healthcare": "hospital", "name": "Centre hospitalier intercommunal Lys Hyrôme", "phone": "+33 2 41 75 80 36", "ref:FR:FINESS": "490001831", "type:FR:FINESS": "106"}}, {"name": "Hôpital Local", "latitude": 47.2082886, "longitude": -0.7251882, "source": "osm", "_tags": {"addr:city": "Chemillé", "addr:housenumber": "6", "addr:street": "Rue Saint Gilles", "amenity": "hospital", "check_date": "2024-11-23", "name": "Hôpital Local", "ref:FR:FINESS": "490000650", "wikidata": "Q92062935"}}, {"name": "Hôpital local sud-ouest mayennais - Site de Renazé", "latitude": 47.7943363, "longitude": -1.0655629, "source": "osm", "_tags": {"addr:housenumber": "28", "addr:street": "Rue Louis Daudier", "alt_name": "Hôpital Louis Daudier", "amenity": "hospital", "contact:facebook": "Centre Hospitalier Local Du Sud Ouest Mayennais - Chlsom", "fax": "+33 2 43 06 83 21", "healthcare": "hospital", "name": "Hôpital local sud-ouest mayennais - Site de Renazé", "operator": "Hôpital local sud-ouest mayennais", "operator:type": "public", "phone": "+33 2 43 09 27 00", "ref:FR:FINESS": "530000181", "short_name": "CHLSOM", "type:FR:FINESS": "106", "wikidata": "Q92061579"}}, {"name": "Hôpital Saint-Martin", "latitude": 47.2018802, "longitude": -0.982121, "source": "osm", "_tags": {"amenity": "hospital", "name": "Hôpital Saint-Martin", "ref:FR:FINESS": "490004256"}}, {"name": "Centre Hospitalier Doué-en-Anjou", "latitude": 47.1931, "longitude": -0.2721383, "source": "osm", "_tags": {"addr:housenumber": "30 Ter", "addr:postcode": "49700", "addr:street": "Rue Saint-François", "amenity": "hospital", "fax": "+33241831701", "healthcare": "hospital", "name": "Centre Hospitalier Doué-en-Anjou", "phone": "+33241834610", "ref:FR:FINESS": "490000338", "ref:FR:SIRET": "26490048100013", "source": "Le ministère des solidarités et de la santé - 03/2019", "type:FR:FINESS": "106", "wikidata": "Q92062951"}}, {"name": "", "latitude": 47.4463687, "longitude": -0.5389115, "source": "osm", "_tags": {"amenity": "hospital", "fixme": "Découper en plusieurs & nommer si pertinent"}}, {"name": "Institut du cœur", "latitude": 47.4556385, "longitude": -0.5143236, "source": "osm", "_tags": {"amenity": "clinic", "building": "hospital", "healthcare": "hospital", "healthcare:speciality": "cardiology", "name": "Institut du cœur", "operator": "Clinique Saint-Joseph", "ref": "2"}}, {"name": "Les Cyties CMP CATTP", "latitude": 46.875029, "longitude": -1.0121057, "source": "osm", "_tags": {"addr:city": "Les Herbiers", "addr:postcode": "85500", "addr:street": "Chemin de Bel Air", "healthcare": "hospital", "healthcare:speciality": "psychiatry", "name": "Les Cyties CMP CATTP", "operator": "EPSM de Vendée - Centre hospitalier Georges Mazurelle", "phone": "+33 2 51 66 81 06", "ref:FR:NAF": "86.10Z", "ref:FR:SIREN": "268502416", "ref:FR:SIRET": "26850241600160", "source": "INSEE - 2025-08"}}, {"name": "Centre de réadaptation spécialisée Les Capucins", "latitude": 47.4865381, "longitude": -0.5573845, "source": "osm", "_tags": {"addr:city": "Angers", "addr:housenumber": "11", "addr:postcode": "49100", "addr:street": "Boulevard Jean Sauvage", "amenity": "hospital", "emergency": "no", "name": "Centre de réadaptation spécialisée Les Capucins", "operator": "Association Les Capucins", "ref:FR:FINESS": "490531910", "ref:FR:NAF": "8610Z", "type:FR:FINESS": "109"}}, {"name": "IRM 1.5", "latitude": 47.4804738, "longitude": -0.5553774, "source": "osm", "_tags": {"amenity": "hospital", "building": "hospital", "building:colour": "grey", "building:levels": "1", "building:use": "medical", "healthcare": "hospital", "healthcare:speciality": "radiology", "name": "IRM 1.5", "opening_hours": "Mo-Fr 08:00-20:00", "ref": "B5", "roof:levels": "0", "roof:shape": "flat"}}]