[{"name": "Centre de Réadaptation", "latitude": 47.5240595, "longitude": -2.488785, "source": "osm", "_tags": {"addr:city": "Billiers", "addr:postcode": "56190", "addr:street": "Domaine de Prières", "amenity": "hospital", "name": "Centre de Réadaptation", "name:br": "Kreizenn Azgouestaat", "ref:FR:FINESS": "560000242", "source:name:br": "ofis publik ar brezhoneg", "type:FR:FINESS": "430"}}, {"name": "Cabinet infirmière Berthe/Le Moal", "latitude": 47.5021121, "longitude": -2.8362608, "source": "osm", "_tags": {"addr:city": "Saint-Gildas-de-Rhuys", "addr:housenumber": "14", "addr:postcode": "56730", "addr:street": "Chemin Jean-Bernard le Bot", "amenity": "hospital", "healthcare": "hospital", "healthcare:speciality": "vaccination;blood_check", "mobile": "+33 6 71 59 69 60", "name": "Cabinet infirmière Berthe/Le Moal", "operator": "Berthe Karine & Le Moal Catherine", "operator:type": "private", "phone": "+33 2 97 45 15 62"}}, {"name": "Hôpital du Croisic", "latitude": 47.2918194, "longitude": -2.5147926, "source": "osm", "_tags": {"amenity": "hospital", "healthcare": "hospital", "name": "Hôpital du Croisic", "name:br": "Ospital ar Groazig", "ref:FR:FINESS": "440001261", "source": "Le ministère des solidarités et de la santé - 03/2019", "source:name:br": "proper translation", "wikidata": "Q21418896"}}, {"name": "Hôpital de jour Pierre Thalbot", "latitude": 47.8118896, "longitude": -3.2604802, "source": "osm", "_tags": {"amenity": "hospital", "building": "hospital", "healthcare": "hospital", "name": "Hôpital de jour Pierre Thalbot", "name:br": "Ospital deiz Pierre Thalbot", "operator:type": "public", "phone": "+33 2 97 02 39 39", "ref:FR:FINESS": "560016339", "source": "cadastre-dgi-fr source : Direction Générale des Impôts - Cadastre. Mise à jour : 2010", "source:name:br": "proper translation", "type:FR:FINESS": "292"}}, {"name": "Hôpital Intercommunal de la Presqu'ile Guérande", "latitude": 47.3241861, "longitude": -2.4244148, "source": "osm", "_tags": {"amenity": "hospital", "building": "yes", "healthcare": "hospital", "name": "Hôpital Intercommunal de la Presqu'ile Guérande", "name:br": "Ospital etrekumunel Gourenez Gwenrann", "ref:FR:FINESS": "440001253", "source": "cadastre-dgi-fr source : Direction Générale des Impôts - Cadastre. Mise à jour : 2010", "type:FR:FINESS": "106", "wikidata": "Q92062539"}}, {"name": "Clinique du Golfe", "latitude": 47.6459603, "longitude": -2.7294445, "source": "osm", "_tags": {"addr:housenumber": "22", "addr:street": "Rue de Limur", "amenity": "hospital", "name": "Clinique du Golfe", "name:br": "Klinikenn ar Golf", "ref:FR:FINESS": "560002081", "ref:FR:NAF": "86.10Z", "ref:FR:SIREN": "788071959", "ref:FR:SIRET": "78807195900019", "source": "INSEE - 2025-07", "source:name:br": "proper translation", "type:FR:FINESS": "161"}}, {"name": "Hôpital Belle-Ile en Mer", "latitude": 47.3453038, "longitude": -3.1613017, "source": "osm", "_tags": {"addr:city": "Le Palais", "addr:postcode": "56360", "amenity": "hospital", "healthcare": "hospital", "name": "Hôpital Belle-Ile en Mer", "name:br": "Ospital ar Gerveur", "ref:FR:FINESS": "560000291", "source": "Le ministère des solidarités et de la santé - 08/2018", "source:name:br": "proper translation", "wikidata": "Q92062497"}}, {"name": "Hôpital Prosper Chubert", "latitude": 47.6643825, "longitude": -2.7456812, "source": "osm", "_tags": {"addr:city": "Vannes", "addr:housenumber": "20", "addr:postcode": "56000", "addr:street": "Boulevard du Général Guillaudot", "amenity": "hospital", "emergency": "yes", "health_facility:type": "hospital", "healthcare": "hospital", "healthcare:speciality": "intensive", "level": "0", "medical_system:western": "yes", "name": "Hôpital Prosper Chubert", "name:br": "Ospital Prosper Chubert", "operator": "Centre hospitalier Bretagne Atlantique", "phone": "+33 2 97 01 41 41", "ref:FR:FINESS": "560000127", "short_name": "Centre Hospitalier Chubert", "source": "cadastre-dgi-fr source : Direction Générale des Impôts - Cadastre. Mise à jour : 2012", "type:FR:FINESS": "355", "website": "https://www.ch-bretagne-atlantique.fr/", "wikidata": "Q3145199", "wikipedia": "fr:Hôpital Prosper-Chubert"}}, {"name": "Établissement Public de Santé Mentale", "latitude": 47.6995257, "longitude": -2.7551295, "source": "osm", "_tags": {"amenity": "hospital", "name": "Établissement Public de Santé Mentale", "name:br": "Diazezadur Publik ar Yec'hed-Spered", "ref:FR:FINESS": "560004343", "short_name:br": "DPYS", "source:name:br": "ofis publik ar brezhoneg", "type:FR:FINESS": "292"}}, {"name": "Hôpital Le Pratel", "latitude": 47.6694263, "longitude": -2.9788238, "source": "osm", "_tags": {"addr:city": "Auray", "addr:housenumber": "2", "addr:postcode": "56400", "addr:street": "Rue du Pratel", "amenity": "hospital", "emergency": "yes", "fax": "+33 2 97 24 83 79", "healthcare": "hospital", "name": "Hôpital Le Pratel", "name:br": "Ospital ar Bratell", "operator": "Centre hospitalier Bretagne Atlantique", "operator:type": "public", "phone": "+33 2 97 56 41 41", "ref:FR:FINESS": "560000200", "ref:FR:NAF": "86.10Z", "ref:FR:SIREN": "265613372", "ref:FR:SIRET": "26561337200027", "short_name": "Centre Hospitalier Pratel", "source": "INSEE - 2025-07", "source:name:br": "proper translation", "type:FR:FINESS": "355", "website": "https://www.ch-bretagne-atlantique.fr/"}}, {"name": "Clinique des Augustines", "latitude": 47.8127592, "longitude": -2.3855678, "source": "osm", "_tags": {"addr:housenumber": "4", "addr:street": "Faubourg Saint Michel", "amenity": "hospital", "fax": "+33297731850", "healthcare": "yes", "name": "Clinique des Augustines", "phone": "+33297731800", "ref:FR:FINESS": "560000184", "ref:FR:NAF": "86.10Z", "ref:FR:SIREN": "777852427", "ref:FR:SIRET": "77785242700015", "source": "Le ministère des solidarités et de la santé - 03/2019", "type:FR:FINESS": "365"}}, {"name": "Hopital local de Malestroit", "latitude": 47.8074448, "longitude": -2.3844562, "source": "osm", "_tags": {"amenity": "hospital", "healthcare": "hospital", "name": "Hopital local de Malestroit", "ref:FR:FINESS": "560027377", "source": "cadastre-dgi-fr source : Direction Générale des Impôts - Cadastre. Mise à jour : 2012", "type:FR:FINESS": "365"}}, {"name": "Clinique de la Brière", "latitude": 47.3327973, "longitude": -2.4336652, "source": "osm", "_tags": {"addr:city": "Guérande", "addr:postcode": "44350", "addr:street": "Route de Mesquer", "amenity": "hospital", "healthcare": "hospital", "name": "Clinique de la Brière", "name:br": "Klinikenn ar Briver", "ref:FR:FINESS": "440003390", "source": "cadastre-dgi-fr source : Direction Générale des Impôts - Cadastre. Mise à jour : 2010", "source:name:br": "proper translation", "type:FR:FINESS": "161"}}, {"name": "Clinique Océane", "latitude": 47.6796077, "longitude": -2.775448, "source": "osm", "_tags": {"amenity": "hospital", "check_date": "2025-04-29", "emergency": "no", "healthcare": "hospital", "name": "Clinique Océane", "name:br": "Klinikenn ar Meurvor", "ref:FR:FINESS": "560008799", "source:name:br": "ofis publik ar brezhoneg", "type:FR:FINESS": "365"}}, {"name": "Centre hospitalier de Basse Vilaine", "latitude": 47.5204083, "longitude": -2.2923902, "source": "osm", "_tags": {"amenity": "hospital", "healthcare": "hospital", "name": "Centre hospitalier de Basse Vilaine", "ref:FR:FINESS": "560000499", "ref:FR:NAF": "86.10Z", "ref:FR:SIREN": "265600437", "ref:FR:SIRET": "26560043700064", "source": "INSEE - 2025-05", "type:FR:FINESS": "106", "wikidata": "Q92063193"}}, {"name": "Maison d'Accueil Spécialisée de Kerblay", "latitude": 47.528361, "longitude": -2.7402222, "source": "osm", "_tags": {"amenity": "hospital", "healthcare": "hospital", "healthcare:speciality": "psychiatry", "name": "Maison d'Accueil Spécialisée de Kerblay", "name:br": "Ti degemer arbennikaet Kerbleiz", "operator": "Etablissement Public de Santé Mentale du Morbihan", "operator:type": "public", "source:name:br": "proper translation", "website": "https://www.epsm-morbihan.fr/"}}, {"name": "Centre hospitalier Saint-Nazaire - Site d'Heinlex", "latitude": 47.2630445, "longitude": -2.2703986, "source": "osm", "_tags": {"amenity": "hospital", "healthcare": "hospital", "name": "Centre hospitalier Saint-Nazaire - Site d'Heinlex", "ref:FR:FINESS": "440007607"}}]