[{"name": "Adullam Spital und Pflegezentren", "latitude": 47.5601759, "longitude": 7.5796527, "source": "osm", "_tags": {"amenity": "hospital", "check_date": "2024-09-05", "healthcare": "hospital", "name": "Adullam Spital und Pflegezentren"}}, {"name": "Centre neuchâtelois de psychiatrie CNP", "latitude": 47.005933, "longitude": 7.0077443, "source": "osm", "_tags": {"addr:city": "La Tène", "addr:postcode": "2074", "addr:street": "Prefargier", "amenity": "hospital", "healthcare": "hospital", "healthcare:speciality": "psychiatry", "name": "Centre neuchâtelois de psychiatrie CNP"}}, {"name": "Centre Hospitalier Spécialisé de Saint-Rémy et Nord Franche Comté - Centre de Psychiatrie Générale de Belfort", "latitude": 47.6316585, "longitude": 6.8480001, "source": "osm", "_tags": {"addr:housenumber": "53", "addr:street": "Boulevard Renaud de Bourgogne", "amenity": "hospital", "healthcare": "hospital", "healthcare:speciality": "psychiatry", "name": "Centre Hospitalier Spécialisé de Saint-Rémy et Nord Franche Comté - Centre de Psychiatrie Générale de Belfort", "opening_hours": "Mo-Fr 09:00-19:00", "operator": "Association hospitalière de Bourgogne-Franche-Comté (AHBFC)", "phone": "+33 3 84 57 45 30", "ref:FR:FINESS": "900002478", "short_name": "CHS St-Rémy et NFC - CPG Belfort", "type:FR:FINESS": "292", "website": "https://www.ahbfc.fr/psychiatrie.html"}}, {"name": "Urologie Praxis Schumacher/Strobel/Oumari", "latitude": 47.6233301, "longitude": 7.6754354, "source": "osm", "_tags": {"addr:city": "Lörrach", "addr:housenumber": "85", "addr:postcode": "79539", "addr:street": "Brombacher Straße", "amenity": "hospital", "healthcare": "hospital", "healthcare:speciality": "urology", "name": "Urologie Praxis Schumacher/Strobel/Oumari"}}, {"name": "Kinderkliniken Inselspital", "latitude": 46.9469004, "longitude": 7.4259426, "source": "osm", "_tags": {"amenity": "hospital", "contact:phone": "+41 31 632 21 11", "contact:website": "http://www.kinderkliniken.insel.ch/", "emergency": "yes", "healthcare": "hospital", "healthcare:speciality": "paediatrics", "name": "Kinderkliniken Inselspital", "operator": "Insel Gruppe AG", "wikidata": "Q30254034"}}, {"name": "Universitäre Psychiatrische Kliniken Basel", "latitude": 47.5712238, "longitude": 7.5650465, "source": "osm", "_tags": {"amenity": "hospital", "check_date": "2025-01-25", "emergency": "yes", "healthcare": "clinic", "name": "Universitäre Psychiatrische Kliniken Basel", "operator": "Universitäre Psychiatrische Kliniken (UPK) Basel", "phone": "+41 61 325 51 11", "short_name": "UPK", "website": "https://www.upk.ch/startseite.html"}}, {"name": "", "latitude": 47.6143421, "longitude": 7.6583697, "source": "osm", "_tags": {"addr:city": "Lörrach", "addr:country": "DE", "addr:housenumber": "25", "addr:postcode": "79539", "addr:street": "Spitalstraße", "building": "hospital", "contact:phone": "+49 7621 416-0", "emergency": "yes", "healthcare": "hospital", "lastcheck": "2016-02-23", "source": "Bing, Webside Krankenhaus", "website": "https://www.klinloe.de/", "wheelchair": "yes", "wikidata": "Q1774579"}}, {"name": "Réseau hospitalier neuchâtelois - Pourtalès", "latitude": 46.9968351, "longitude": 6.94278, "source": "osm", "_tags": {"addr:city": "Neuchâtel", "addr:country": "CH", "addr:housenumber": "45", "addr:postcode": "2000", "addr:street": "Rue de la Maladière 45", "amenity": "hospital", "check_date": "2025-05-24", "emergency": "yes", "healthcare": "hospital", "healthcare:speciality": "surgery;orthopaedics;gynaecology;emergency;intensive;radiology;maternity;oncology;paediatrics;cardiology;internal", "name": "Réseau hospitalier neuchâtelois - Pourtalès", "name:de": "Krankenhaus Neuenburg", "operator": "Réseau hospitalier neuchâtelois", "operator:type": "public", "phone": "+41 32 713 30 00", "website": "https://www.rhne.ch", "wheelchair": "yes"}}, {"name": "Hôpital du Hasenrain", "latitude": 47.7339563, "longitude": 7.3313447, "source": "osm", "_tags": {"amenity": "hospital", "contact:city": "Mulhouse", "contact:facebook": "CentreHospitalierDeMulhouse", "contact:fax": "+33 3 89 64 70 26", "contact:housenumber": "87", "contact:phone": "+33 3 89 64 64 64", "contact:postcode": "68100", "contact:street": "Avenue d'Altkirch", "contact:twitter": "ghrmsa", "contact:website": "http://www.ghrmsa.fr/", "description": "Établissement Public Hospitalier", "healthcare": "hospital", "name": "Hôpital du Hasenrain", "operator": "Groupe Hospitalier Région de Mulhouse Sud Alsace", "operator:type": "public", "ref:FR:FINESS": "680000627", "type:FR:FINESS": "355", "wheelchair": "no"}}, {"name": "Centre Hospitalier Émile Muller", "latitude": 47.7250109, "longitude": 7.3419435, "source": "osm", "_tags": {"amenity": "hospital", "contact:city": "Mulhouse", "contact:facebook": "CentreHospitalierDeMulhouse", "contact:housenumber": "20", "contact:phone": "+33 3 89 64 64 64", "contact:postcode": "68100", "contact:street": "Avenue du Docteur René Laennec", "contact:twitter": "ghrmsa", "contact:website": "http://www.ghrmsa.fr", "emergency": "yes", "healthcare": "hospital", "healthcare:speciality": "intensive", "name": "Centre Hospitalier Émile Muller", "operator:type": "public", "ref:FR:FINESS": "680004546", "type:FR:FINESS": "355", "wheelchair": "no"}}, {"name": "Spital Burgdorf", "latitude": 47.0483572, "longitude": 7.6206719, "source": "osm", "_tags": {"addr:city": "Burgdorf", "addr:country": "CH", "addr:housenumber": "54", "addr:postcode": "3400", "addr:street": "Oberburgstrasse", "amenity": "hospital", "emergency": "yes", "healthcare": "hospital", "name": "Spital Burgdorf", "operator": "Spital Emmental AG", "phone": "+41 34 421 21 21", "website": "https://www.spital-emmental.ch", "wheelchair": "yes"}}, {"name": "Centre Hospitalier de Pfastatt", "latitude": 47.7673805, "longitude": 7.3005788, "source": "osm", "_tags": {"amenity": "hospital", "healthcare": "hospital", "name": "Centre Hospitalier de Pfastatt", "ref:FR:FINESS": "680000577", "source": "cadastre-dgi-fr source : Direction Générale des Impôts - Cadastre. Mise à jour : 2009", "type:FR:FINESS": "355"}}, {"name": "Sonnenhofspital", "latitude": 46.942742, "longitude": 7.4744455, "source": "osm", "_tags": {"addr:city": "Bern", "addr:housenumber": "30", "addr:postcode": "3006", "addr:street": "Buchserstrasse", "amenity": "hospital", "contact:email": "sonnenhof@lindenhofgruppe.ch", "contact:fax": "+41 31 3581901", "contact:phone": "+41 31 3581111", "emergency": "yes", "healthcare": "hospital", "name": "Sonnenhofspital", "operator": "Lindenhofgruppe AG", "operator:type": "private", "source": "Orthofotos Bern", "website": "https://www.lindenhofgruppe.ch/de/standorte/sonnenhof/", "wheelchair": "yes", "wikidata": "Q2301941"}}, {"name": "Klinik Beau-Site", "latitude": 46.9526076, "longitude": 7.4482726, "source": "osm", "_tags": {"addr:city": "Bern", "addr:housenumber": "11", "addr:postcode": "3013", "addr:street": "Schänzlihalde", "amenity": "hospital", "healthcare": "hospital", "healthcare:speciality": "intensive", "name": "Klinik Beau-Site", "operator": "Hirslanden Gruppe", "phone": "+41 31 335 33 33", "website": "https://www.hirslanden.ch/de/klinik-beau-site/home.html", "wheelchair": "yes", "wikidata": "Q27926550"}}, {"name": "Betagtenzentrum Laupen", "latitude": 46.9090125, "longitude": 7.2429266, "source": "osm", "_tags": {"addr:city": "Laupen", "addr:housenumber": "12", "addr:postcode": "3177", "addr:street": "Krankenhausweg", "amenity": "hospital", "healthcare": "hospital", "name": "Betagtenzentrum Laupen"}}, {"name": "Réseau hospitalier neuchâtelois - La Chaux-de-Fonds", "latitude": 47.1136786, "longitude": 6.832978, "source": "osm", "_tags": {"addr:city": "La Chaux-de-Fonds", "addr:housenumber": "20", "addr:postcode": "2300", "addr:street": "Rue de Chasseral", "amenity": "hospital", "emergency": "yes", "healthcare": "hospital", "healthcare:speciality": "intensive;orthopaedics;gynaecology;ophthalmology;surgery;oncology;dialysis;radiology;internal", "name": "Réseau hospitalier neuchâtelois - La Chaux-de-Fonds", "operator": "Réseau hospitalier neuchâtelois", "operator:type": "public", "phone": "+41 32 967 21 11", "wheelchair": "yes"}}, {"name": "Obach", "latitude": 47.205135, "longitude": 7.5304309, "source": "osm", "_tags": {"amenity": "hospital", "email": "obach@obach.ch", "name": "Obach", "phone": "+41 32 626 23 23", "website": "https://www.obach.ch/"}}, {"name": "Engeriedspital", "latitude": 46.9598314, "longitude": 7.4369561, "source": "osm", "_tags": {"addr:city": "Bern", "addr:housenumber": "15", "addr:postcode": "3001", "addr:street": "Riedweg", "amenity": "hospital", "emergency": "no", "healthcare": "hospital", "name": "Engeriedspital", "operator": "Lindenhofgruppe", "operator:type": "private", "website": "https://www.lindenhofgruppe.ch/de/ueber-uns/standorte/", "wikidata": "Q33121316"}}, {"name": "Clinique de la Miotte", "latitude": 47.6431673, "longitude": 6.8635818, "source": "osm", "_tags": {"addr:housenumber": "1", "addr:street": "Avenue de la Miotte", "amenity": "hospital", "building": "hospital", "emergency": "no", "healthcare": "hospital", "name": "Clinique de la Miotte", "ref:FR:FINESS": "900000035", "source": "cadastre-dgi-fr source : Direction Générale des Impôts - Cadastre;mise à jour : 2009", "type:FR:FINESS": "365", "wheelchair": "yes"}}, {"name": "Hôpital Gériatrique de Cernay", "latitude": 47.8070396, "longitude": 7.1730318, "source": "osm", "_tags": {"building": "hospital", "emergency": "no", "fax": "+33 3 89 38 54 30", "healthcare": "hospital", "name": "Hôpital Gériatrique de Cernay", "operator": "Groupe hospitalier Mulhouse Sud-Alsace", "operator:type": "public", "phone": "+33 3 89 38 54 14", "ref:FR:FINESS": "680000122", "source": "extraction vectorielle v1 cadastre-dgi-fr source : Direction Générale des Impôts - Cadas. Mise à jour : 2010", "type:FR:FINESS": "355", "website": "https://www.ghrmsa.fr/presentation/nos-sites/cernay-433.html"}}, {"name": "Spital Aarberg", "latitude": 47.0480959, "longitude": 7.2796959, "source": "osm", "_tags": {"addr:city": "Aarberg", "addr:housenumber": "31", "addr:postcode": "3270", "addr:street": "Lyssstrasse", "amenity": "hospital", "healthcare": "hospital", "name": "Spital Aarberg"}}, {"name": "Lindenhofspital", "latitude": 46.9581739, "longitude": 7.427875, "source": "osm", "_tags": {"addr:city": "Bern", "addr:country": "CH", "addr:housenumber": "117", "addr:postcode": "3012", "addr:street": "Bremgartenstrasse", "amenity": "hospital", "contact:email": "lindenhof@lindenhofgruppe.ch", "contact:fax": "+41 31 3008057", "contact:phone": "+41 31 3008811", "emergency": "yes", "healthcare": "hospital", "healthcare:speciality": "intensive", "name": "Lindenhofspital", "source": "survey and website", "website": "https://www.lindenhofgruppe.ch/de/standorte/lindenhof/", "wikidata": "Q30280704"}}, {"name": "Th. Willy Bern-Bümpliz", "latitude": 46.9339171, "longitude": 7.3929916, "source": "osm", "_tags": {"addr:city": "Bern", "addr:housenumber": "443", "addr:postcode": "3018", "addr:street": "Freiburgstrasse", "amenity": "hospital", "healthcare": "hospital", "industrial": "auto-zentrum", "name": "Th. Willy Bern-Bümpliz"}}, {"name": "Centre de Réadaptation Fonctionnelle E. Bretegnier", "latitude": 47.5772953, "longitude": 6.7563985, "source": "osm", "_tags": {"amenity": "hospital", "check_date": "2025-05-24", "healthcare": "hospital", "name": "Centre de Réadaptation Fonctionnelle E. Bretegnier", "ref:FR:FINESS": "700780042", "toilets:wheelchair": "yes", "type:FR:FINESS": "109", "wheelchair": "yes"}}, {"name": "", "latitude": 47.7888822, "longitude": 7.6721213, "source": "osm", "_tags": {"amenity": "hospital", "healthcare": "hospital"}}, {"name": "Polyclinique des 3 Frontières", "latitude": 47.5824296, "longitude": 7.551222, "source": "osm", "_tags": {"addr:city": "Saint-Louis", "addr:housenumber": "8", "addr:postcode": "68300", "addr:street": "Rue Saint-Damien", "amenity": "hospital", "emergency": "yes", "name": "Polyclinique des 3 Frontières", "operator:type": "private", "phone": "+33 8 26 30 37 37", "ref:FR:FINESS": "680020096", "type:FR:FINESS": "365", "website": "https://www.ghrmsa.fr/presentation/nos-sites/clinique-des-trois-frontieres-de-saint-louis-431.html"}}, {"name": "Centre Médical Lalance", "latitude": 47.7608162, "longitude": 7.2914625, "source": "osm", "_tags": {"amenity": "hospital", "healthcare": "hospital", "name": "Centre Médical Lalance", "ref:FR:FINESS": "680000247", "ref:FR:SIRET": "42481025700156", "source": "Direction Générale des Finances Publiques - Cadastre. Mise à jour : 2012", "type:FR:FINESS": "109"}}, {"name": "HELIOS Klinik Müllheim", "latitude": 47.8115859, "longitude": 7.6349902, "source": "osm", "_tags": {"addr:city": "Müllheim im Markgräflerland", "addr:country": "DE", "addr:housenumber": "1", "addr:postcode": "79379", "addr:street": "Heliosweg", "amenity": "hospital", "building": "hospital", "building:levels": "4", "healthcare": "hospital", "name": "HELIOS Klinik Müllheim", "operator": "Helios Kliniken", "operator:wikidata": "Q1254151", "phone": "+49 7631 880", "source:geometry": "maps4bw (LGL, www.lgl-bw.de);Mapbox Satellite", "toilets:wheelchair": "yes", "website": "https://www.helios-gesundheit.de/kliniken/muellheim/", "wheelchair": "yes", "wheelchair:description": "auf jeder der 3 Etagen befindet sich eine Behinderten-Toilette. (nahe Betten-Aufzug)"}}, {"name": "Pôle de psychiatrie pour enfants", "latitude": 47.7376488, "longitude": 7.3510015, "source": "osm", "_tags": {"amenity": "hospital", "building": "yes", "healthcare": "doctor", "name": "Pôle de psychiatrie pour enfants", "phone": "+33 3 89 64 74 51", "ref:FR:FINESS": "680006269", "ref:FR:SIRET": "20004698500095", "source": "Direction Générale des Finances Publiques - Cadastre. Mise à jour : 2011;Mulhouse Alsace Agglomération 2013;Le ministère des solidarités et de la santé - 2025-03", "type:FR:FINESS": "355"}}, {"name": "Hôpital Saint-Jacques", "latitude": 47.8134072, "longitude": 7.0956402, "source": "osm", "_tags": {"addr:city": "Thann", "addr:country": "FR", "addr:housenumber": "1", "addr:postcode": "68800", "addr:street": "Rue Saint-Jacques", "amenity": "hospital", "emergency": "no", "fax": "+33 3 89 37 71 70", "healthcare": "hospital", "name": "Hôpital Saint-Jacques", "operator:type": "public", "phone": "+33 3 89 37 71 00", "ref:FR:FINESS": "680000601", "source": "cadastre-dgi-fr source : Direction Générale des Impôts - Cadastre. Mise à jour : 2011", "type:FR:FINESS": "355", "website": "https://www.ghrmsa.fr/presentation/nos-sites/hopital-saint-jacques-de-thann-432.html"}}, {"name": "Hôpital Nord Franche-Comté", "latitude": 47.5763149, "longitude": 6.8736241, "source": "osm", "_tags": {"addr:city": "Trévenans", "addr:housenumber": "100", "addr:postcode": "90400", "addr:street": "Route de Moval", "amenity": "hospital", "emergency": "yes", "healthcare": "hospital", "healthcare:speciality": "intensive", "name": "Hôpital Nord Franche-Comté", "operator:type": "public", "phone": "+33 3 84 98 20 20", "ref:FR:FINESS": "900003039", "short_name": "HNFC", "type:FR:FINESS": "355", "website": "https://www.hnfc.fr/", "wikidata": "Q2945688"}}, {"name": "Felix-Platter-Spital", "latitude": 47.5653971, "longitude": 7.5653389, "source": "osm", "_tags": {"amenity": "hospital", "contact:website": "https://www.felixplatter.ch/", "healthcare": "hospital", "name": "Felix-Platter-Spital", "wheelchair": "yes", "wikidata": "Q1403737"}}, {"name": "Rehaklinik Kandertal", "latitude": 47.7829113, "longitude": 7.7267756, "source": "osm", "_tags": {"amenity": "hospital", "name": "Rehaklinik Kandertal"}}, {"name": "Hôpital Nord Franche-Comté Site du Mittan", "latitude": 47.5254386, "longitude": 6.7865777, "source": "osm", "_tags": {"amenity": "hospital", "healthcare": "hospital", "name": "Hôpital Nord Franche-Comté Site du Mittan", "ref:FR:FINESS": "250004009", "source": "Le ministère des solidarités et de la santé - 08/2018", "website": "https://www.hnfc.fr/l-hopital/les-sites-annexes-de-l-hopital/le-site-du-mittan,303,390.html"}}, {"name": "Irides Pflege", "latitude": 47.5696473, "longitude": 7.6850246, "source": "osm", "_tags": {"addr:city": "Bettingen", "addr:country": "CH", "addr:housenumber": "30", "addr:postcode": "4126", "addr:street": "Hohe Strasse", "amenity": "hospital", "healthcare": "rehabilitation", "name": "Irides Pflege", "note": "Standort wegen Umbauphase bis Mitte 2024", "website": "https://irides.ch/"}}, {"name": "Salem-Spital", "latitude": 46.9520936, "longitude": 7.4536397, "source": "osm", "_tags": {"addr:city": "Bern", "addr:housenumber": "39", "addr:postcode": "3013", "addr:street": "Schänzlistrasse", "amenity": "hospital", "check_date": "2024-07-16", "healthcare": "hospital", "name": "Salem-Spital", "operator": "Hirslanden Gruppe", "phone": "+41 31 337 60 00", "toilets:wheelchair": "yes", "website": "https://www.hirslanden.ch/de/salem-spital/home.html", "wheelchair": "yes", "wikidata": "Q22001404"}}, {"name": "Kantonsspital Liestal", "latitude": 47.4884481, "longitude": 7.7308515, "source": "osm", "_tags": {"amenity": "hospital", "contact:phone": "+41 61 925 25 25", "contact:website": "http://www.ksbl.ch/das-ksbl/standorte/der-standort-liestal", "emergency": "yes", "healthcare": "hospital", "healthcare:speciality": "intensive", "name": "Kantonsspital Liestal", "wheelchair": "yes"}}, {"name": "Centre Medical le Schimmel", "latitude": 47.7657886, "longitude": 6.9846569, "source": "osm", "_tags": {"amenity": "hospital", "healthcare": "hospital", "name": "Centre Medical le Schimmel", "ref:FR:FINESS": "680000072", "type:FR:FINESS": "109"}}, {"name": "Institut für Pathologie Universitätsspital Basel", "latitude": 47.5605573, "longitude": 7.5815841, "source": "osm", "_tags": {"amenity": "hospital", "building": "hospital", "healthcare": "hospital", "name": "Institut für Pathologie Universitätsspital Basel", "opening_hours": "Mo-Fr 07:00-17:00", "phone": "+41 61 265 27 57", "website": "https://www.unispital-basel.ch/ueber-uns/bereiche/medizinische-querschnittsfunktionen/kliniken-institute-abteilungen/institut-fuer-medizinische-genetik-und-pathologie/pathologie/"}}, {"name": "Luppach", "latitude": 47.5066597, "longitude": 7.3302192, "source": "osm", "_tags": {"amenity": "hospital", "healthcare": "hospital", "name": "Luppach", "ref:FR:FINESS": "680000296", "type:FR:FINESS": "109"}}, {"name": "St. Elisabethen Krankenhaus", "latitude": 47.6173684, "longitude": 7.6650828, "source": "osm", "_tags": {"addr:city": "Lörrach", "addr:housenumber": "15", "addr:postcode": "79539", "addr:street": "Feldbergstraße", "amenity": "hospital", "check_date": "2025-08-11", "contact:phone": "+49 7621 1710", "contact:website": "https://www.elikh.de", "emergency": "yes", "healthcare": "hospital", "name": "St. Elisabethen Krankenhaus", "wheelchair": "yes", "wikidata": "Q14912423"}}, {"name": "Kinder- und Jugendpsychiatrie (KJPP), St. Elisabethen Krankenhaus Lörrach", "latitude": 47.6168105, "longitude": 7.6633745, "source": "osm", "_tags": {"amenity": "hospital", "name": "Kinder- und Jugendpsychiatrie (KJPP), St. Elisabethen Krankenhaus Lörrach"}}, {"name": "Inselspital", "latitude": 46.9473091, "longitude": 7.4243945, "source": "osm", "_tags": {"addr:city": "Bern", "addr:housenumber": "18", "addr:postcode": "3010", "addr:street": "Freiburgstrasse", "amenity": "hospital", "emergency": "yes", "healthcare": "hospital", "healthcare:speciality": "intensive", "name": "Inselspital", "operator": "Insel Gruppe AG", "phone": "+41 316322111", "toilets:wheelchair": "yes", "website": "https://www.insel.ch/", "wheelchair": "yes", "wheelchair:description": "Es ist immer ein wenig knapp mit Behindertenparkplätzen vor dem Bettenhochhaus (Haupteingang).", "wikidata": "Q678369", "wikipedia": "de:Inselspital"}}, {"name": "", "latitude": 47.6154837, "longitude": 6.8422308, "source": "osm", "_tags": {"amenity": "hospital", "healthcare": "hospital", "ref:FR:FINESS": "900003070", "source": "Le ministère des solidarités et de la santé - 08/2018"}}, {"name": "Hôpital Intercantonal de la Broye", "latitude": 46.851012, "longitude": 6.8441944, "source": "osm", "_tags": {"addr:city": "Estavayer-le-Lac", "addr:postcode": "1470", "addr:street": "Rue de la Rochette", "amenity": "hospital", "emergency": "yes", "healthcare": "hospital", "healthcare:speciality": "intensive", "name": "Hôpital Intercantonal de la Broye", "phone": "+41 26 664 71 11", "website": "https://www.hopital-broye.ch/", "wikidata": "Q33121134"}}, {"name": "Psychiatriezentrum Münsingen", "latitude": 46.8809311, "longitude": 7.552577, "source": "osm", "_tags": {"addr:city": "Münsingen", "addr:housenumber": "1", "addr:postcode": "3110", "addr:street": "Hunzigenallee", "amenity": "hospital", "name": "Psychiatriezentrum Münsingen", "operator": "PZM Psychiatriezentrum Münsingen AG", "wikidata": "Q976078", "wikipedia": "de:Psychiatriezentrum Münsingen"}}, {"name": "Psychiatrische Dienste", "latitude": 47.2185007, "longitude": 7.5224267, "source": "osm", "_tags": {"addr:city": "Solothurn", "addr:country": "CH", "addr:housenumber": "102", "addr:postcode": "4503", "addr:street": "Weissensteinstrasse", "amenity": "clinic", "healthcare": "hospital", "healthcare:speciality": "psychiatry", "name": "Psychiatrische Dienste", "operator": "Solothurner Spitäler", "phone": "+41 32 627 11 11", "website": "https://www.solothurnerspitaeler.ch/unsere-spitaeler/psychiatrische-dienste/"}}, {"name": "Hôpital neuchatelois Policlinique pédiatrique des Montagnes", "latitude": 47.10055, "longitude": 6.8249746, "source": "osm", "_tags": {"addr:city": "La Chaux-de-Fonds", "addr:country": "CH", "addr:housenumber": "63", "addr:postcode": "2300", "addr:street": "Rue de la Serre", "amenity": "hospital", "building": "hospital", "healthcare": "hospital", "name": "Hôpital neuchatelois Policlinique pédiatrique des Montagnes", "operator": "Hôpital neuchatelois", "phone": "+41 32 713 38 48"}}, {"name": "Centre hospitalier d'Altkirch", "latitude": 47.6241656, "longitude": 7.2519693, "source": "osm", "_tags": {"addr:city": "Altkirch", "addr:country": "FR", "addr:housenumber": "23", "addr:postcode": "68130", "addr:street": "Rue du 3e Zouaves", "alt_name": "Hôpital Saint-Morand", "amenity": "hospital", "fax": "+33 3 89 08 30 11", "name": "Centre hospitalier d'Altkirch", "operator:type": "public", "phone": "+33 3 89 08 30 30", "ref:FR:FINESS": "680000544", "type:FR:FINESS": "355", "website": "https://www.ghrmsa.fr/presentation/nos-sites/centre-hospitalier-saint-morand-d-altkirch-428.html"}}, {"name": "Centre hospitalier de Sierentz", "latitude": 47.6518619, "longitude": 7.4596976, "source": "osm", "_tags": {"addr:city": "Sierentz", "addr:housenumber": "35", "addr:postcode": "68510", "addr:street": "Rue Rogg-Haas", "alt_name": "Hôpital gériatrique de Sierentz", "amenity": "hospital", "emergency": "no", "fax": "+33 3 89 81 57 58", "healthcare": "hospital", "name": "Centre hospitalier de Sierentz", "operator": "GHR Mulhouse Sud Alsace", "operator:type": "public", "phone": "+33 3 89 26 60 00", "ref:FR:FINESS": "680000031", "source": "cadastre-dgi-fr source : Direction Générale des Impôts - Cadastre. Mise à jour : 2012", "type:FR:FINESS": "355", "website": "https://www.ghrmsa.fr/residents/nos-sites/centre-hospitalier-de-sierentz-619.html"}}, {"name": "Hirslanden Klinik Permanence", "latitude": 46.9445978, "longitude": 7.3922701, "source": "osm", "_tags": {"addr:city": "Bern", "addr:country": "CH", "addr:housenumber": "83", "addr:postcode": "3018", "addr:street": "Bümplizstrasse", "amenity": "hospital", "emergency": "yes", "name": "Hirslanden Klinik Permanence", "phone": "+41 31 990 41 11", "website": "https://www.hirslanden.ch/de/klinik-permanence/home.html", "wheelchair": "yes", "wikidata": "Q29015161"}}, {"name": "Universitätsspital Basel", "latitude": 47.5616684, "longitude": 7.5833861, "source": "osm", "_tags": {"addr:city": "Basel", "addr:country": "CH", "addr:housenumber": "21", "addr:postcode": "4031", "addr:street": "Spitalstrasse", "amenity": "hospital", "emergency": "yes", "healthcare": "hospital", "healthcare:speciality": "maternity;gynaecology;obstetrics", "name": "Universitätsspital Basel", "phone": "+41 61 265 25 25", "short_name": "USB", "website": "https://www.unispital-basel.ch/", "wheelchair": "yes", "wikidata": "Q1689257"}}, {"name": "REHAB Basel", "latitude": 47.5722186, "longitude": 7.5594525, "source": "osm", "_tags": {"addr:city": "Basel", "addr:country": "CH", "addr:housenumber": "40", "addr:postcode": "4055", "addr:street": "Im Burgfelderhof", "amenity": "hospital", "contact:email": "rehab@rehab.ch", "healthcare": "hospital", "name": "REHAB Basel", "phone": "+41 61 325 00 00", "website": "https://www.rehab.ch/home.html", "wheelchair": "yes"}}, {"name": "Spital und Altersheim Belp", "latitude": 46.8920224, "longitude": 7.4941604, "source": "osm", "_tags": {"addr:city": "Belp", "addr:housenumber": "89/91", "addr:postcode": "3123", "addr:street": "Seftigenstrasse", "amenity": "hospital", "emergency": "no", "name": "Spital und Altersheim Belp", "operator": "Inselgruppe", "phone": "+41 31 818 91 11", "website": "https://www.spitalbelp.ch/de/"}}, {"name": "Bethesda Spital", "latitude": 47.5480044, "longitude": 7.6168493, "source": "osm", "_tags": {"addr:city": "Basel", "addr:housenumber": "144", "addr:postcode": "4052", "addr:street": "Gellertstrasse", "amenity": "hospital", "check_date": "2025-02-22", "emergency": "yes", "healthcare": "hospital", "healthcare:speciality": "gynaecology;musculoskeletal", "name": "Bethesda Spital", "operator": "Bethesda Spital AG", "operator:type": "private", "phone": "+41 61 315 21 21", "website": "https://bethesda-spital.ch/", "wikidata": "Q33121165"}}, {"name": "Kantonsspital Bruderholz", "latitude": 47.5279276, "longitude": 7.5807917, "source": "osm", "_tags": {"amenity": "hospital", "check_date": "2024-08-28", "emergency": "yes", "healthcare": "hospital", "healthcare:speciality": "intensive", "name": "Kantonsspital Bruderholz", "payment:cash": "yes", "payment:credit_cards": "yes", "payment:debit_cards": "yes", "phone": "+41 61 436 36 36", "website": "https://www.ksbl.ch/das-ksbl/standorte/der-standort-bruderholz", "wikidata": "Q30279631"}}, {"name": "St. Clara-Spital", "latitude": 47.5661175, "longitude": 7.6143084, "source": "osm", "_tags": {"addr:city": "Basel", "addr:country": "CH", "addr:housenumber": "30", "addr:postcode": "4058", "addr:street": "Kleinriehenstrasse", "alt_name": "Rehaklinik Basel", "amenity": "hospital", "emergency": "yes", "healthcare": "hospital", "healthcare:speciality": "intensive;emergency;cardiology", "name": "St. Clara-Spital", "operator": "St. Claraspital AG", "operator:type": "private", "phone": "+41 61 685 85 85", "website": "https://www.claraspital.ch/", "wheelchair": "yes", "wikidata": "Q30274497"}}, {"name": "Merian Iselin Klinik für Orthopädie und Chirurgie", "latitude": 47.5555964, "longitude": 7.5695619, "source": "osm", "_tags": {"addr:city": "Basel", "addr:country": "CH", "addr:housenumber": "2", "addr:postcode": "4054", "addr:street": "Föhrenstrasse", "amenity": "hospital", "check_date": "2024-08-29", "emergency": "no", "level": "0", "name": "Merian Iselin Klinik für Orthopädie und Chirurgie", "payment:cash": "yes", "payment:credit_cards": "yes", "payment:debit_cards": "yes", "phone": "+41 61 305 11 11", "source": "GeoDaten Kanton Basel-Stadt", "website": "https://merianiselin.ch/klinik/", "wheelchair": "yes", "wikidata": "Q13142784", "wikipedia": "als:Merian Iiseli Spiddaal"}}, {"name": "Adullam Spital", "latitude": 47.5857598, "longitude": 7.6554819, "source": "osm", "_tags": {"addr:city": "Riehen", "addr:country": "CH", "addr:housenumber": "60", "addr:postcode": "4125", "addr:street": "Schützengasse", "amenity": "hospital", "name": "Adullam Spital", "phone": "+41 61 266 99 11", "website": "https://www.adullam.ch/"}}, {"name": "Klinik Arlesheim", "latitude": 47.4939289, "longitude": 7.6146237, "source": "osm", "_tags": {"amenity": "hospital", "emergency": "yes", "healthcare": "hospital", "name": "Klinik Arlesheim", "phone": "+41 61 705 71 11", "website": "https://www.klinik-arlesheim.ch/", "wikidata": "Q1675006"}}, {"name": "Spital des Seebezirks", "latitude": 46.9223007, "longitude": 7.1078727, "source": "osm", "_tags": {"addr:city": "Meyriez", "addr:country": "CH", "addr:housenumber": "24", "addr:street": "Chemin du Village", "amenity": "hospital", "emergency": "yes", "healthcare": "hospital", "name": "Spital des Seebezirks", "name:de": "Spital des Seebezirks", "official_name": "HFR Meyriez-Murten", "phone": "+41 26 306 70 00", "website": "https://www.h-fr.ch/hfr/de/pub/patienten/standorte/meyriez.htm"}}, {"name": "Haus Lukas", "latitude": 47.4953443, "longitude": 7.6151461, "source": "osm", "_tags": {"addr:city": "Arlesheim", "addr:country": "CH", "addr:housenumber": "19", "addr:postcode": "4144", "addr:street": "Brachmattstrasse", "amenity": "hospital", "healthcare": "hospital", "name": "Haus Lukas"}}, {"name": "Hôpital de Moutier", "latitude": 47.2819844, "longitude": 7.3737661, "source": "osm", "_tags": {"addr:city": "Moutier", "addr:country": "CH", "addr:postcode": "2740", "addr:street": "Rue Beausite", "amenity": "hospital", "healthcare": "hospital", "name": "Hôpital de Moutier"}}, {"name": "Hôpital du Jura", "latitude": 47.2570743, "longitude": 6.9969472, "source": "osm", "_tags": {"addr:city": "Saignelégier", "addr:country": "CH", "addr:housenumber": "11", "addr:postcode": "2350", "addr:street": "Rue de l'Hôpital", "amenity": "hospital", "name": "Hôpital du Jura", "phone": "+41 32 952 12 12", "website": "https://www.h-ju.ch/fr/L-Hopital-du-jura/Les-4-sites-de-l-hopital/Saignelegier/H-JU-site-de-Saignelegier.html"}}, {"name": "Hôpital du Jura bernois - St-Imier", "latitude": 47.1485952, "longitude": 6.9841363, "source": "osm", "_tags": {"addr:city": "St-Imier", "addr:country": "CH", "addr:housenumber": "17a", "addr:postcode": "2610", "addr:street": "Les Fontenayes", "amenity": "hospital", "check_date": "2024-03-25", "ele": "855", "name": "Hôpital du Jura bernois - St-Imier", "phone": "+41 32 942 24 22"}}, {"name": "Hôpital neuchâtelois Le Locle", "latitude": 47.0571082, "longitude": 6.7428744, "source": "osm", "_tags": {"addr:city": "Le Locle", "addr:country": "CH", "addr:housenumber": "40;42", "addr:postcode": "2400", "addr:street": "Rue Bellevue", "amenity": "hospital", "healthcare": "hospital", "name": "Hôpital neuchâtelois Le Locle", "operator": "Hôpital neuchâtelois", "phone": "+41 (32) 933 61 11", "source": "orthophotos2006sitn50cm", "website": "https://www.h-ne.ch/contact/le-locle"}}, {"name": "Hôpital neuchâtelois Val-de-Ruz", "latitude": 47.032509, "longitude": 6.9068031, "source": "osm", "_tags": {"addr:city": "Fontaines", "addr:country": "CH", "addr:postcode": "2046", "addr:street": "Route de Landeyeux", "amenity": "hospital", "healthcare": "hospital", "name": "Hôpital neuchâtelois Val-de-Ruz", "operator": "RHNe", "phone": "+41 32 854 45 45", "source": "Orthophotos 2006 SITN 50cm", "website": "https://www.h-ne.ch/contact/val-de-ruz", "wheelchair": "yes"}}, {"name": "Hôpital catholique de la Providence", "latitude": 46.995288, "longitude": 6.9391459, "source": "osm", "_tags": {"addr:city": "Neuchâtel", "addr:country": "CH", "addr:housenumber": "81", "addr:postcode": "2000", "addr:street": "Faubourg de l'Hôpital", "amenity": "hospital", "healthcare": "hospital", "name": "Hôpital catholique de la Providence", "phone": "+41 32 720 30 30", "source": "Orthophotos 2006 SITN 50cm", "website": "https://www.hopital-providence.ch/"}}, {"name": "Hirslanden - Privatklinik Linde - Clinique des Tilleuls", "latitude": 47.1331928, "longitude": 7.263077, "source": "osm", "_tags": {"addr:city": "Biel/Bienne", "addr:housenumber": "105", "addr:postcode": "2503", "addr:street": "Crêt-des-Fleurs / Blumenrain", "addr:street:de": "Blumenrain", "addr:street:fr": "Crêt-des-Fleurs", "amenity": "hospital", "contact:email": "klinik-linde@hirslanden.ch", "contact:phone": "+41 32 366 41 11", "contact:website": "https://www.hirslanden.ch/de/klinik-linde/home.html", "emergency": "yes", "healthcare": "hospital", "name": "Hirslanden - Privatklinik Linde - Clinique des Tilleuls", "name:de": "Hirslanden - Privatklinik Linde", "name:fr": "Hirslanden - Clinique des Tilleuls", "network": "Hirslanden", "operator": "Privatklinikgruppe Hirslanden"}}, {"name": "Clinique le Noirmont", "latitude": 47.2306661, "longitude": 6.959118, "source": "osm", "_tags": {"addr:city": "Le Noirmont", "addr:housenumber": "20", "addr:postcode": "2340", "addr:street": "Chemin Roc-Montès", "amenity": "hospital", "description": "Kardiovaskuläre, psychosomatische, muskuloskelettale Rehabilitation", "healthcare": "hospital", "healthcare:speciality": "rehabilitation", "loc_name": "Roc-Montès", "name": "Clinique le Noirmont", "old_name": "Villa Roc-Montès", "phone": "+41 32 957 51 11", "website": "http://www.clinique-le-noirmont.ch/"}}, {"name": "Hôpital du Jura - Delémont", "latitude": 47.3685294, "longitude": 7.3387326, "source": "osm", "_tags": {"addr:city": "Delémont", "addr:country": "CH", "addr:housenumber": "30", "addr:postcode": "2800", "addr:street": "Fbg des Capucins", "amenity": "hospital", "healthcare": "hospital", "healthcare:speciality": "intensive", "name": "Hôpital du Jura - Delémont", "phone": "+41 32 421 21 21", "website": "https://www.h-ju.ch/", "wheelchair": "yes"}}, {"name": "Hôpital du Jura", "latitude": 47.4193143, "longitude": 7.0584353, "source": "osm", "_tags": {"addr:city": "Porrentruy", "addr:housenumber": "9", "addr:postcode": "2900", "addr:street": "Chemin de l'Hôpital", "amenity": "hospital", "healthcare": "hospital", "name": "Hôpital du Jura", "phone": "+41 32 465 65 65", "website": "https://www.h-ju.ch/"}}, {"name": "Universitäre Psychiatrische Dienste Bern", "latitude": 46.9669309, "longitude": 7.4830216, "source": "osm", "_tags": {"alt_name": "Waldau", "amenity": "hospital", "email": "info@upd.ch", "healthcare": "hospital", "healthcare:speciality": "psychiatry", "name": "Universitäre Psychiatrische Dienste Bern", "phone": "+41 31 930 91 11", "short_name": "UPD", "website": "https://www.upd.ch/", "wikidata": "Q30254073", "wikimedia_commons": "Category:Universitäre Psychiatrische Dienste (UPD) Bern", "wikipedia": "de:Universitäre Psychiatrische Dienste Bern"}}, {"name": "Bürgerspital Solothurn", "latitude": 47.1995997, "longitude": 7.5394685, "source": "osm", "_tags": {"addr:city": "Solothurn", "addr:country": "CH", "addr:housenumber": "42", "addr:postcode": "4500", "addr:street": "Schöngrünstrasse", "amenity": "hospital", "email": "nicola.jedvaj@helion.ch", "emergency": "yes", "fax": "+41 32 627 30 79", "healthcare": "hospital", "healthcare:speciality": "intensive", "name": "Bürgerspital Solothurn", "operator": "Solothurner Spitäler", "phone": "+41 32 627 31 21", "short_name": "BSS", "website": "https://www.solothurnerspitaeler.ch/unsere-spitaeler/buergerspital-solothurn/"}}, {"name": "Kreiskrankenhaus Lörrach", "latitude": 47.6142821, "longitude": 7.6583759, "source": "osm", "_tags": {"addr:city": "Lörrach", "addr:country": "DE", "addr:housenumber": "25", "addr:postcode": "79539", "addr:street": "Spitalstraße", "amenity": "hospital", "emergency": "yes", "healthcare": "hospital", "name": "Kreiskrankenhaus Lörrach", "wikidata": "Q15117658"}}, {"name": "Clinique du Pays de Montbéliard", "latitude": 47.496731, "longitude": 6.8201535, "source": "osm", "_tags": {"amenity": "hospital", "healthcare": "hospital", "name": "Clinique du Pays de Montbéliard", "operator": "Noalys", "operator:type": "private", "website": "https://noalys.com/les-etablissements/"}}, {"name": "Universitäts-Kinderspital Beider Basel", "latitude": 47.5635952, "longitude": 7.5816117, "source": "osm", "_tags": {"addr:city": "Basel", "addr:housenumber": "33", "addr:postcode": "4056", "addr:street": "Spitalstrasse", "amenity": "hospital", "emergency": "yes", "healthcare": "hospital", "healthcare:speciality": "paediatrics;intensive", "name": "Universitäts-Kinderspital Beider Basel", "phone": "+41617041212", "short_name": "UKBB", "website": "https://www.ukbb.ch/", "wheelchair": "yes", "wikidata": "Q2496240"}}, {"name": "", "latitude": 47.6315497, "longitude": 6.8479987, "source": "osm", "_tags": {"amenity": "hospital", "healthcare": "hospital"}}, {"name": "Home les Bouleaux", "latitude": 47.1936523, "longitude": 7.1355309, "source": "osm", "_tags": {"addr:city": "Corgémont", "addr:housenumber": "16", "addr:postcode": "2606", "addr:street": "Sur le Crêt", "building": "hospital", "emergency": "no", "healthcare": "hospital", "name": "Home les Bouleaux"}}, {"name": "Hôpital intercantonal de la Broye", "latitude": 46.8186647, "longitude": 6.9462542, "source": "osm", "_tags": {"addr:city": "Payerne", "addr:housenumber": "3", "addr:postcode": "1530", "addr:street": "Avenue de la Colline", "amenity": "hospital", "check_date": "2025-08-02", "emergency": "yes", "fax": "+41 26 662 85 21", "healthcare": "hospital", "name": "Hôpital intercantonal de la Broye", "phone": "+41 26 662 80 11", "short_name": "HIB", "website": "https://www.hopital-broye.ch"}}, {"name": "Centre kinésithérapeute", "latitude": 47.6576427, "longitude": 6.7326934, "source": "osm", "_tags": {"addr:city": "Échavanne", "amenity": "hospital", "healthcare": "hospital", "healthcare:speciality": "community", "name": "Centre kinésithérapeute"}}, {"name": "Centre médico-psychologique: enfants et adolescents", "latitude": 47.4131486, "longitude": 7.0757734, "source": "osm", "_tags": {"amenity": "hospital", "check_date": "2025-06-17", "emergency": "yes", "healthcare": "hospital", "healthcare:speciality": "paediatrics;child_psychiatry", "name": "Centre médico-psychologique: enfants et adolescents"}}, {"name": "Centre Neuchâtelois de Psychiatrie Préfagier", "latitude": 47.0058526, "longitude": 7.0092221, "source": "osm", "_tags": {"amenity": "hospital", "healthcare": "hospital", "healthcare:speciality": "psychiatry", "name": "Centre Neuchâtelois de Psychiatrie Préfagier", "operator": "Centre neuchâtelois de psychiatrie (CNP)", "operator:type": "public"}}, {"name": "Spital Dornach", "latitude": 47.4862701, "longitude": 7.6137183, "source": "osm", "_tags": {"addr:city": "Dornach", "addr:country": "CH", "addr:housenumber": "11", "addr:postcode": "4143", "addr:street": "Spitalweg", "amenity": "hospital", "emergency": "yes", "healthcare": "hospital", "name": "Spital Dornach", "phone": "+41 61 704 44 44", "website": "https://www.solothurnerspitaeler.ch/unsere-spitaeler/spital-dornach/"}}, {"name": "Hôpital de la Béroche", "latitude": 46.8927435, "longitude": 6.7707596, "source": "osm", "_tags": {"addr:city": "St-Aubin-Sauges", "addr:country": "CH", "addr:housenumber": "15", "addr:postcode": "2024", "addr:street": "Rue de l'Hôpital", "amenity": "hospital", "healthcare": "hospital", "name": "Hôpital de la Béroche", "phone": "+41 32 836 42 42", "type": "multipolygon"}}, {"name": "Siloah", "latitude": 46.9315563, "longitude": 7.5176975, "source": "osm", "_tags": {"addr:city": "Gümligen", "addr:housenumber": "312", "addr:postcode": "3073", "addr:street": "Worbstrasse", "amenity": "hospital", "name": "Siloah", "phone": "+41 319581111", "type": "multipolygon", "website": "https://www.siloah.ch", "wheelchair": "yes"}}, {"name": "Centre hospitalier Bienne / Spitalzentrum Biel", "latitude": 47.146999, "longitude": 7.2448837, "source": "osm", "_tags": {"addr:city": "Biel/Bienne", "addr:city:de": "Biel", "addr:city:fr": "Bienne", "addr:country": "CH", "addr:housenumber": "84", "addr:postcode": "2501", "addr:street": "Chante-Merle / Vogelsang", "addr:street:de": "Vogelsang", "addr:street:fr": "Chante-Merle", "amenity": "hospital", "contact:phone": "+41 32 324 24 24", "contact:website": "https://www.spitalzentrum-biel.ch", "emergency": "yes", "healthcare": "hospital", "healthcare:speciality": "intensive", "name": "Centre hospitalier Bienne / Spitalzentrum Biel", "name:de": "Spitalzentrum Biel", "name:fr": "Centre hospitalier de Bienne", "toilets:wheelchair": "yes", "type": "multipolygon", "wheelchair": "yes", "wikidata": "Q2311339", "wikimedia_commons": "Category:Spitalzentrum Biel"}}]