[{"name": "Winghofer Medicum Klinik", "latitude": 48.4803926, "longitude": 8.9484496, "source": "osm", "_tags": {"addr:city": "Rottenburg am Neckar", "addr:country": "DE", "addr:housenumber": "38", "addr:postcode": "72108", "addr:street": "Röntgenstraße", "amenity": "hospital", "healthcare": "hospital", "name": "Winghofer Medicum Klinik", "website": "http://winghofer-medicum.de", "wheelchair": "yes", "wikidata": "Q30270618"}}, {"name": "Winghofer Medicum Praxis", "latitude": 48.4771888, "longitude": 8.9414347, "source": "osm", "_tags": {"addr:city": "Rottenburg am Neckar", "addr:country": "DE", "addr:housenumber": "42", "addr:postcode": "72108", "addr:street": "Winghoferstraße", "amenity": "hospital", "check_date": "2024-03-15", "healthcare": "hospital", "name": "Winghofer Medicum Praxis", "website": "http://winghofer-medicum.de", "wheelchair": "yes"}}, {"name": "Vinzenzklinik", "latitude": 48.5887359, "longitude": 9.7020334, "source": "osm", "_tags": {"amenity": "hospital", "contact:email": "kontakt@vinzenz.de", "contact:phone": "+49 7334 76-0", "contact:website": "http://www.vinzenzklinik.de", "healthcare": "hospital", "name": "Vinzenzklinik", "wheelchair": "yes"}}, {"name": "Dialysezentrum Sigmaringen", "latitude": 48.0982819, "longitude": 9.2337831, "source": "osm", "_tags": {"addr:city": "Sigmaringen", "addr:housenumber": "8", "addr:postcode": "72488", "addr:street": "Achbergstraße", "amenity": "hospital", "name": "Dialysezentrum Sigmaringen", "toilets:wheelchair": "yes", "website": "https://www.dtz-gmbh.de/de/standorte/sigmaringen.html", "wheelchair": "yes"}}, {"name": "Akutklinik Bad Saulgau", "latitude": 48.0136402, "longitude": 9.4828454, "source": "osm", "_tags": {"addr:city": "Bad Saulgau", "addr:country": "DE", "addr:housenumber": "9", "addr:postcode": "88348", "addr:street": "Am Schönen Moos", "amenity": "hospital", "healthcare": "hospital", "name": "Akutklinik Bad Saulgau", "website": "https://www.akutklinik-badsaulgau.de/"}}, {"name": "Schlossklinik Bad Buchau", "latitude": 48.0677469, "longitude": 9.6109477, "source": "osm", "_tags": {"addr:city": "Bad Buchau", "addr:country": "DE", "addr:housenumber": "2", "addr:postcode": "88422", "addr:street": "Schloßplatz", "amenity": "hospital", "healthcare": "rehabilitation", "name": "Schlossklinik Bad Buchau", "website": "https://schlossklinik-buchau.de/"}}, {"name": "m&i Fachkliniken Hohenurach Haus 1", "latitude": 48.5043782, "longitude": 9.376891, "source": "osm", "_tags": {"addr:city": "Bad Urach", "addr:housenumber": "33", "addr:postcode": "72574", "addr:street": "Immanuel-Kant-Straße", "healthcare": "hospital", "name": "m&i Fachkliniken Hohenurach Haus 1", "phone": "+49 7125 15101", "website": "https://www.fachkliniken-hohenurach.de/"}}, {"name": "i&m Fachkliniken Hohenurach Haus 2", "latitude": 48.5064833, "longitude": 9.3762711, "source": "osm", "_tags": {"addr:city": "Bad Urach", "addr:housenumber": "47", "addr:postcode": "72574", "addr:street": "Immanuel-Kant-Straße", "healthcare": "hospital", "name": "i&m Fachkliniken Hohenurach Haus 2", "operator": "i&m", "phone": "+49 7125 15101", "website": "https://www.fachkliniken-hohenurach.de/"}}, {"name": "Klinikum Esslingen, Psychiatrische Institutsambulanz", "latitude": 48.7359742, "longitude": 9.3321932, "source": "osm", "_tags": {"amenity": "hospital", "healthcare": "hospital", "name": "Klinikum Esslingen, Psychiatrische Institutsambulanz", "wheelchair": "yes"}}, {"name": "Dr. Römer Kliniken", "latitude": 48.7362333, "longitude": 8.7321104, "source": "osm", "_tags": {"amenity": "hospital", "healthcare": "hospital", "healthcare:speciality": "depth", "name": "Dr. Römer Kliniken", "source": "survey", "website": "https://www.roemerklinik.de/"}}, {"name": "Herzog Karl Klinik", "latitude": 48.7653516, "longitude": 9.165559, "source": "osm", "_tags": {"addr:city": "Stuttgart", "addr:housenumber": "7", "addr:postcode": "70178", "addr:street": "Hohenzollernstraße", "amenity": "hospital", "healthcare": "hospital", "healthcare:speciality": "plastic_surgery", "name": "Herzog Karl Klinik", "website": "https://www.plastische-chirurgie-s.de/"}}, {"name": "Luisenklinik - Stuttgart", "latitude": 48.7712998, "longitude": 9.1721348, "source": "osm", "_tags": {"addr:city": "Stuttgart", "addr:housenumber": "21", "addr:postcode": "70178", "addr:street": "Paulinenstraße", "amenity": "hospital", "healthcare": "hospital", "name": "Luisenklinik - Stuttgart", "website": "https://luisenklinik.de/"}}, {"name": "MVZ Hämatologie Onkologie Stuttgart", "latitude": 48.7765782, "longitude": 9.1649393, "source": "osm", "_tags": {"addr:city": "Stuttgart", "addr:housenumber": "119A", "addr:postcode": "70176", "addr:street": "Silberburgstraße", "amenity": "hospital", "healthcare": "hospital", "healthcare:speciality": "oncology", "name": "MVZ Hämatologie Onkologie Stuttgart", "website": "https://onkologie.dks-mvz.de/"}}, {"name": "Klinikum Stuttgart", "latitude": 48.7916756, "longitude": 9.1789558, "source": "osm", "_tags": {"addr:city": "Stuttgart", "addr:housenumber": "22", "addr:postcode": "70191", "addr:street": "Türlenstraße", "amenity": "hospital", "healthcare": "hospital", "healthcare:speciality": "psychology", "name": "Klinikum Stuttgart", "website": "https://www.klinikum-stuttgart.de/medizin-pflege/zentrum-seelische-gesundheit/wohnortnah-fuer-menschen-in-seelischer-not/behandlungszentrum-mitte"}}, {"name": "Robert-Bosch-Krankenhaus", "latitude": 48.8142575, "longitude": 9.1862984, "source": "osm", "_tags": {"amenity": "hospital", "beds": "677", "emergency": "yes", "healthcare": "hospital", "name": "Robert-Bosch-Krankenhaus", "opening_hours": "24/7", "phone": "+4971181010", "website": "https://www.rbk.de/", "wheelchair": "yes", "wikidata": "Q7341140", "wikimedia_commons": "Category:Robert-Bosch-Krankenhaus", "wikipedia": "de:Robert-Bosch-Krankenhaus"}}, {"name": "Berufsgenossenschaftliche Unfallklinik", "latitude": 48.5338518, "longitude": 9.035194, "source": "osm", "_tags": {"alt_name": "BG Klinik Tübingen", "amenity": "hospital", "healthcare": "hospital", "name": "Berufsgenossenschaftliche Unfallklinik", "wheelchair": "yes", "wikidata": "Q28778987", "wikimedia_commons": "File:BG in Tübingen zur blauen Stunde 1.jpg", "wikipedia": "de:BG Klinik Tübingen"}}, {"name": "Krankenhaus Leonberg", "latitude": 48.802829, "longitude": 9.0003844, "source": "osm", "_tags": {"amenity": "hospital", "beds": "239", "email": "info.leo@klinikverbund-suedwest.de", "healthcare": "hospital", "name": "Krankenhaus Leonberg", "opening_hours": "24/7", "operational_status": "Operational", "operator": "Kreiskliniken Böblingen gGmbH", "operator:type": "private", "phone": "+49 7152 2020", "toilets:wheelchair": "yes", "website": "https://www.klinikverbund-suedwest.de/krankenhaus-leonberg/", "wheelchair": "yes", "wikidata": "Q126371578"}}, {"name": "St. Anna-Klinik", "latitude": 48.8072049, "longitude": 9.2303812, "source": "osm", "_tags": {"addr:city": "Stuttgart", "addr:country": "DE", "addr:housenumber": "101", "addr:postcode": "70374", "addr:street": "Obere Waiblinger Straße", "amenity": "hospital", "building": "yes", "comment": "no helipad, congested area", "description": "Belegklinik", "designation": "St. Anna-Klinik", "emergency": "yes", "healthcare": "hospital", "name": "St. Anna-Klinik", "website": "https://www.st-anna-klinik.de/"}}, {"name": "Kliniken Sindelfingen", "latitude": 48.7152047, "longitude": 9.0248459, "source": "osm", "_tags": {"addr:city": "Sindelfingen", "addr:country": "DE", "addr:housenumber": "70", "addr:postcode": "71065", "addr:street": "Arthur-Gruber-Straße", "amenity": "hospital", "building": "hospital", "building:levels": "10", "check_date": "2024-06-28", "healthcare": "hospital", "name": "Kliniken Sindelfingen", "roof:levels": "0", "roof:shape": "flat", "wheelchair": "yes", "wheelchair:description": "Seit Umbau des Haupteingangs noch besser zugänglich."}}, {"name": "Klinikum Esslingen", "latitude": 48.7374468, "longitude": 9.3263819, "source": "osm", "_tags": {"addr:city": "Esslingen am Neckar", "addr:housenumber": "97", "addr:postcode": "73730", "addr:street": "Hirschlandstraße", "amenity": "hospital", "beds": "655", "contact:email": "info@klinikum-esslingen.de", "contact:phone": "+49 711 310 30", "contact:website": "https://www.klinikum-esslingen.de", "healthcare": "hospital", "name": "Klinikum Esslingen", "operator": "Klinikum Esslingen GmbH", "toilets:wheelchair": "yes", "wheelchair": "yes", "wikidata": "Q1774611"}}, {"name": "Klinik am Eichert", "latitude": 48.6903224, "longitude": 9.6512396, "source": "osm", "_tags": {"addr:city": "Göppingen", "addr:housenumber": "3", "addr:postcode": "73035", "addr:street": "Eichertstraße", "addr:suburb": "Jebenhausen", "amenity": "hospital", "beds": "625", "building": "hospital", "contact:fax": "+49 7161 64-1829", "contact:phone": "+49 7161 64-0", "contact:website": "http://www.kae.de", "name": "Klinik am Eichert", "wheelchair": "yes"}}, {"name": "Furtbachkrankenhaus", "latitude": 48.7703861, "longitude": 9.1716672, "source": "osm", "_tags": {"addr:city": "Stuttgart", "addr:country": "DE", "addr:housenumber": "6", "addr:postcode": "70178", "addr:street": "Furtbachstraße", "alt_name": "Furtbachhaus", "amenity": "hospital", "architect": "Heinrich Dolmetsch", "architect:wikidata": "Q1597057", "architect:wikipedia": "de:Heinrich Dolmetsch", "beds": "124", "building": "yes", "healthcare": "hospital", "name": "Furtbachkrankenhaus", "start_date": "1902", "website": "https://www.fbkh.org/", "wikidata": "Q62269165"}}, {"name": "Reha-Klinik Waldburg-Zeil", "latitude": 48.0146174, "longitude": 9.4862966, "source": "osm", "_tags": {"addr:city": "Bad Saulgau", "addr:country": "DE", "addr:housenumber": "18", "addr:postcode": "88348", "addr:street": "Siebenkreuzerweg", "amenity": "hospital", "building": "hospital", "building:levels": "4", "emergency": "no", "name": "Reha-Klinik Waldburg-Zeil", "website": "https://www.rehabilitationsklinik-saulgau.de/"}}, {"name": "Klinik am schönen Moos", "latitude": 48.0142075, "longitude": 9.4844975, "source": "osm", "_tags": {"addr:city": "Bad Saulgau", "addr:country": "DE", "addr:housenumber": "7", "addr:postcode": "88348", "addr:street": "Am Schönen Moos", "amenity": "hospital", "building": "hospital", "healthcare": "hospital", "name": "Klinik am schönen Moos", "source": "Maps4BW ( LGL, www.lgl-bw.de) / Bing"}}, {"name": "Kliniken Böblingen", "latitude": 48.6901578, "longitude": 9.0323573, "source": "osm", "_tags": {"amenity": "hospital", "healthcare": "hospital", "name": "Kliniken Böblingen", "wheelchair": "yes", "wikidata": "Q108791844"}}, {"name": "Kliniken Berg", "latitude": 48.529916, "longitude": 9.0387091, "source": "osm", "_tags": {"amenity": "hospital", "name": "Kliniken Berg", "wikimedia_commons": "File:Langzeitbelichtung der Crona in Tübingen mit Rettungshubschrauber.jpg"}}, {"name": "Gesundheitszentrum Engen", "latitude": 47.8534493, "longitude": 8.7666443, "source": "osm", "_tags": {"addr:city": "Engen", "addr:country": "DE", "addr:housenumber": "19", "addr:postcode": "78234", "addr:street": "Hewenstraße", "amenity": "hospital", "building": "yes", "emergency": "fire_detection_system", "healthcare": "hospital", "name": "Gesundheitszentrum Engen", "toilets:wheelchair": "yes", "wheelchair": "yes"}}, {"name": "", "latitude": 48.2139799, "longitude": 9.0201268, "source": "osm", "_tags": {"addr:city": "Albstadt", "addr:country": "DE", "addr:housenumber": "39", "addr:postcode": "72458", "addr:street": "Friedrichstraße", "addr:suburb": "Ebingen", "building": "hospital", "contact:phone": "+49 7431 9092-0", "contact:website": "http://www.zollernalb-klinikum.de", "emergency": "yes", "healthcare": "hospital", "lastcheck": "2016-01-28", "wheelchair": "yes"}}, {"name": "Katharinenhospital", "latitude": 48.7836788, "longitude": 9.1719798, "source": "osm", "_tags": {"addr:city": "Stuttgart", "addr:housenumber": "60", "addr:postcode": "70174", "addr:street": "Kriegsbergstraße", "amenity": "hospital", "brand": "Klinikum Stuttgart", "emergency": "yes", "healthcare": "hospital", "healthcare:speciality": "general;orthopaedics;ophthalmology;radiology;emergency;dermatology;osteopathy;surgery;cardiology;otolaryngology;oncology;neurology;urology;stomatology", "landuse": "healthcare", "name": "Katharinenhospital", "phone": "+49 711 27801", "website": "https://www.klinikum-stuttgart.de/ueber-uns/struktur/standorte/katharinenhospital.html", "website:map": "https://www.klinikum-stuttgart.de/patienten-besucher/ihr-aufenthalt/vor-dem-aufenthalt/anfahrt/katharinenhospital", "wheelchair": "yes", "wikidata": "Q1329014"}}, {"name": "KJP Mariaberg", "latitude": 48.2739922, "longitude": 9.2105992, "source": "osm", "_tags": {"addr:city": "Gammertingen", "addr:housenumber": "12", "addr:postcode": "72501", "addr:street": "Burghaldenstraße", "amenity": "hospital", "building": "yes", "emergency": "no", "healthcare": "hospital", "healthcare:speciality": "psychiatry", "name": "KJP Mariaberg", "operator": "Mariaberg", "website": "https://www.kjp-mariaberg.de/", "wheelchair": "yes"}}, {"name": "Zollernalb-Klinikum Balingen", "latitude": 48.277519, "longitude": 8.8575539, "source": "osm", "_tags": {"amenity": "hospital", "healthcare": "hospital", "name": "Zollernalb-Klinikum Balingen"}}, {"name": "medius KLINIK Kirchheim", "latitude": 48.652367, "longitude": 9.4416021, "source": "osm", "_tags": {"amenity": "hospital", "check_date": "2024-05-16", "emergency": "yes", "healthcare": "hospital", "name": "medius KLINIK Kirchheim", "phone": "+49 7021/88-0", "website": "http://www.kk-es.de/", "wheelchair": "yes"}}, {"name": "Karl-Olga-Krankenhaus", "latitude": 48.7897032, "longitude": 9.204228, "source": "osm", "_tags": {"addr:city": "Stuttgart", "addr:housenumber": "61", "addr:postcode": "70190", "addr:street": "Hackstraße", "amenity": "hospital", "check_date": "2024-03-16", "email": "kok-info@sana.de", "emergency": "yes", "fax": "+49 711 2639 2212", "healthcare": "hospital", "internet_access:fee": "yes", "name": "Karl-Olga-Krankenhaus", "operator": "Sana Kliniken AG", "phone": "+49 711 2639 0", "website": "https://www.karl-olga-krankenhaus.de/", "wheelchair": "yes", "wikidata": "Q1730121"}}, {"name": "", "latitude": 48.402521, "longitude": 9.0127677, "source": "osm", "_tags": {"amenity": "hospital"}}, {"name": "Die Filderklinik", "latitude": 48.6473198, "longitude": 9.2040008, "source": "osm", "_tags": {"amenity": "hospital", "beds": "225", "contact:phone": "+49 711 7703-0", "contact:website": "http://www.filderklinik.de/", "healthcare": "hospital", "name": "Die Filderklinik", "operator": "FILDERKLINIK gemeinnützige GmbH", "toilets:wheelchair": "yes", "wheelchair": "yes", "wikidata": "Q1412547", "wikipedia": "de:Filderklinik"}}, {"name": "Akutklinik Albstadt", "latitude": 48.2647401, "longitude": 9.020126, "source": "osm", "_tags": {"addr:city": "Albstadt", "addr:country": "DE", "addr:housenumber": "64", "addr:postcode": "72461", "addr:street": "Unter Nank", "addr:suburb": "Tailfingen", "amenity": "hospital", "building": "yes", "healthcare": "hospital", "healthcare:speciality": "psychiatry", "name": "Akutklinik Albstadt", "operator": "CuraMed", "source": "Maps4BW, LGL, www.lgl-bw.de, survey", "website": "https://www.akutklinik-albstadt.de/"}}, {"name": "Kreiskrankenhaus Ehingen", "latitude": 48.2797875, "longitude": 9.7187551, "source": "osm", "_tags": {"amenity": "hospital", "healthcare": "hospital", "name": "Kreiskrankenhaus Ehingen", "wheelchair": "yes"}}, {"name": "ACURA Kliniken Albstadt GmbH", "latitude": 48.2371761, "longitude": 9.0342015, "source": "osm", "_tags": {"addr:city": "Albstadt", "addr:country": "DE", "addr:housenumber": "26", "addr:postcode": "72461", "addr:street": "Robert-Koch-Straße", "addr:suburb": "Truchtelfingen", "amenity": "hospital", "building": "yes", "healthcare": "hospital", "name": "ACURA Kliniken Albstadt GmbH", "operator": "ACURA Kliniken", "wheelchair": "yes"}}, {"name": "Krankenhaus Stockach", "latitude": 47.8533142, "longitude": 9.0094838, "source": "osm", "_tags": {"addr:city": "Stockach", "addr:country": "DE", "addr:housename": "Krankenhaus Stockach GmbH", "addr:housenumber": "10", "addr:postcode": "78333", "addr:street": "Am Stadtgarten", "amenity": "hospital", "building": "hospital", "emergency": "yes", "healthcare": "hospital", "name": "Krankenhaus Stockach", "operator": "Krankenhaus Stockach GmbH", "phone": "+4977718030", "website": "https://www.krankenhaus-stockach.de/", "wikidata": "Q126483667"}}, {"name": "Marienhospital", "latitude": 48.7602668, "longitude": 9.1633591, "source": "osm", "_tags": {"amenity": "hospital", "check_date": "2025-06-05", "emergency": "yes", "healthcare": "hospital", "name": "Marienhospital", "name:de": "Marienhospital", "website": "https://www.marienhospital-stuttgart.de/", "wheelchair": "limited", "wikidata": "Q1552763"}}, {"name": "Olgahospital und Frauenklinik", "latitude": 48.784267, "longitude": 9.1722948, "source": "osm", "_tags": {"addr:city": "Stuttgart", "addr:housenumber": "60", "addr:postcode": "70174", "addr:street": "Kriegsbergstraße", "amenity": "hospital", "check_date": "2024-07-08", "emergency": "yes", "healthcare": "hospital", "healthcare:speciality": "paediatrics;gynaecology", "loc_name": "Olgäle", "name": "Olgahospital und Frauenklinik", "phone": "+49 711 27804", "toilets:wheelchair": "yes", "website": "https://www.klinikum-stuttgart.de/ueber-uns/startseite/olgahospital-frauenklinik/", "website:map": "https://www.klinikum-stuttgart.de/patienten-besucher/ihr-aufenthalt/vor-dem-aufenthalt/anfahrt/olgahospital-frauenklinik", "website:map:osm": "no", "wheelchair": "yes", "wikidata": "Q2019759", "wikimedia_commons": "Category:Olgahospital_(Stuttgart)"}}, {"name": "Rems-Murr-Klinik Schorndorf", "latitude": 48.7974547, "longitude": 9.5293051, "source": "osm", "_tags": {"amenity": "hospital", "beds": "248", "check_date": "2024-05-31", "healthcare": "hospital", "name": "Rems-Murr-Klinik Schorndorf", "operator": "Rems-Murr-Kliniken gGmbH", "phone": "+49 7181 67-0", "website": "https://rems-murr-kliniken.de", "wikidata": "Q2143132"}}, {"name": "MVZ Schelztorklinik", "latitude": 48.7415721, "longitude": 9.300691, "source": "osm", "_tags": {"amenity": "hospital", "email": "info@schelztor-klinik.de", "healthcare": "hospital", "name": "MVZ Schelztorklinik", "opening_hours": "Mo-Th 06:30-21:00; Fr 06:30-17:00", "phone": "+49 711 39 69 09 0", "website": "https://www.schelztor-klinik.de/"}}, {"name": "Christophsbad", "latitude": 48.7005764, "longitude": 9.6441051, "source": "osm", "_tags": {"addr:city": "Göppingen", "addr:housenumber": "6-28", "addr:postcode": "73035", "addr:street": "Faurndauer Straße", "amenity": "hospital", "beds": "491", "email": "info@christophsbad.de", "fax": "+49 7161 601-9332", "healthcare": "hospital", "name": "Christophsbad", "phone": "+49 7161 601-0", "website": "https://christophsbad.de", "wikidata": "Q1087117"}}, {"name": "Klinik Nürtingen", "latitude": 48.6294698, "longitude": 9.3570336, "source": "osm", "_tags": {"amenity": "hospital", "healthcare": "hospital", "name": "Klinik Nürtingen", "operator": "medius Klinik Nürtingen", "wheelchair": "yes"}}, {"name": "medius Klinik Ostfildern-Ruit", "latitude": 48.7412976, "longitude": 9.2549865, "source": "osm", "_tags": {"addr:city": "Ostfildern", "addr:country": "DE", "addr:housenumber": "166", "addr:postcode": "73760", "addr:street": "Hedelfinger Straße", "addr:suburb": "Ruit", "amenity": "hospital", "beds": "280", "emergency": "yes", "healthcare": "hospital", "loc_name": "Paracelsus-Krankenhaus Ruit", "name": "medius Klinik Ostfildern-Ruit", "operator": "medius Kliniken gemeinnützige GmbH", "phone": "+49 711 4488-0", "website": "https://www.medius-kliniken.de/standorte/medius-klinik-ostfildern-ruit/startseite-ostfildern-ruit/", "wheelchair": "yes", "wheelchair:description": "außen 5 Parkplätze und im Parkhaus 7 Stück"}}, {"name": "Tropenklinik Paul-Lechler-Krankenhaus", "latitude": 48.5311791, "longitude": 9.0606698, "source": "osm", "_tags": {"alt_name": "Paul-Lechler-Krankenhaus", "alt_name_1": "Tropenklinik", "amenity": "hospital", "check_date": "2024-12-08", "email": "info@tropenklinik.de", "name": "Tropenklinik Paul-Lechler-Krankenhaus", "phone": "+49 7071 206-0", "short_name": "PLK", "website": "https://www.tropenklinik.de/", "wikidata": "Q2455430", "wikimedia_commons": "File:Neubau des Paul-Lechler-Krankenhauses in Tübingen.jpg", "wikipedia": "de:Tropenklinik Paul-Lechler-Krankenhaus"}}, {"name": "Psychosomatisches Zentrum Aulendorf", "latitude": 47.9533587, "longitude": 9.6346461, "source": "osm", "_tags": {"addr:city": "Aulendorf", "addr:housenumber": "5", "addr:postcode": "88326", "addr:street": "Safranmoosstraße", "amenity": "hospital", "contact:phone": "+49 7525 9320", "contact:website": "http://www.schussental-klinik.de/", "emergency": "no", "name": "Psychosomatisches Zentrum Aulendorf", "wheelchair": "yes"}}, {"name": "SRH Krankenhaus Pfullendorf", "latitude": 47.9252713, "longitude": 9.2606862, "source": "osm", "_tags": {"addr:city": "Pfullendorf", "addr:country": "DE", "addr:housenumber": "2/1", "addr:postcode": "88630", "addr:street": "Zum Eichberg", "amenity": "hospital", "name": "SRH Krankenhaus Pfullendorf"}}, {"name": "Kreiskrankenhaus Sigmaringen", "latitude": 48.0964273, "longitude": 9.2256124, "source": "osm", "_tags": {"addr:city": "Sigmaringen", "addr:country": "DE", "addr:housenumber": "40", "addr:postcode": "72488", "addr:street": "Hohenzollernstraße", "alt_name": "SRH Krankenhaus Sigmaringen", "amenity": "hospital", "emergency": "yes", "name": "Kreiskrankenhaus Sigmaringen", "phone": "+49 7531 100-0", "toilets:wheelchair": "yes", "website": "http://www.klksig.de/", "wheelchair": "yes"}}, {"name": "Fachklinik Höchsten", "latitude": 48.0114444, "longitude": 9.4778903, "source": "osm", "_tags": {"addr:city": "Bad Saulgau", "addr:country": "DE", "addr:housenumber": "1", "addr:postcode": "88348", "addr:street": "Sonnenhof", "amenity": "hospital", "name": "Fachklinik Höchsten"}}, {"name": "Ermstalklinik", "latitude": 48.4963561, "longitude": 9.3888513, "source": "osm", "_tags": {"addr:city": "Bad Urach", "addr:country": "DE", "addr:housenumber": "100", "addr:postcode": "72574", "addr:street": "Stuttgarter Straße", "amenity": "hospital", "healthcare": "hospital", "name": "Ermstalklinik", "website": "https://www.kreiskliniken-reutlingen.de/ermstalklinik-bad-urach.html"}}, {"name": "Klinikum am Steinenberg", "latitude": 48.4838017, "longitude": 9.2187168, "source": "osm", "_tags": {"addr:city": "Reutlingen", "addr:country": "DE", "addr:housenumber": "31", "addr:postcode": "72764", "addr:street": "Steinenbergstraße", "amenity": "hospital", "check_date": "2025-04-01", "email": "info@kreiskliniken-reutlingen.de", "emergency": "yes", "healthcare": "hospital", "name": "Klinikum am Steinenberg", "operator": "Kreiskliniken Reutlingen GmbH", "phone": "+49 7121 2000", "website": "https://www.kreiskliniken-reutlingen.de"}}, {"name": "Albklinik Münsingen", "latitude": 48.4046356, "longitude": 9.4896202, "source": "osm", "_tags": {"addr:city": "Münsingen", "addr:country": "DE", "addr:housenumber": "47", "addr:postcode": "72525", "addr:street": "Lautertalstraße", "amenity": "hospital", "name": "Albklinik Münsingen", "wheelchair": "yes"}}, {"name": "Zollernalbklinikum Ebingen", "latitude": 48.2140524, "longitude": 9.0202833, "source": "osm", "_tags": {"addr:city": "Albstadt", "addr:country": "DE", "addr:housenumber": "39", "addr:postcode": "72458", "addr:street": "Friedrichstraße", "alt_name": "Zollernalb Klinikum Albstadt", "amenity": "hospital", "healthcare": "hospital", "name": "Zollernalbklinikum Ebingen"}}, {"name": "m&i Fachkliniken Hohenurach", "latitude": 48.5043405, "longitude": 9.3767138, "source": "osm", "_tags": {"addr:city": "Bad Urach", "addr:housenumber": "33", "addr:postcode": "72574", "addr:street": "Immanuel-Kant-Straße", "amenity": "hospital", "healthcare": "hospital", "name": "m&i Fachkliniken Hohenurach"}}, {"name": "m&i Fachkliniken Hohenurach Haus 2", "latitude": 48.5063734, "longitude": 9.375967, "source": "osm", "_tags": {"addr:city": "Bad Urach", "addr:housenumber": "47", "addr:postcode": "72574", "addr:street": "Immanuel-Kant-Straße", "amenity": "hospital", "healthcare": "hospital", "name": "m&i Fachkliniken Hohenurach Haus 2"}}, {"name": "Fachklinik Ringgenhof", "latitude": 47.8746658, "longitude": 9.4302607, "source": "osm", "_tags": {"addr:city": "Wilhelmsdorf", "addr:housenumber": "61", "addr:postcode": "88271", "addr:street": "Riedhauser Straße", "amenity": "hospital", "description": "Fachklinik für Suchthilfe", "healthcare": "hospital", "name": "Fachklinik Ringgenhof", "operator": "Die Zieglerschen", "operator:type": "private", "phone": "+4975039200", "website": "https://www.zieglersche.de/ringgenhof"}}, {"name": "Robert-Bosch-Krankenhaus, Standort City", "latitude": 48.7721051, "longitude": 9.1880601, "source": "osm", "_tags": {"addr:city": "Stuttgart", "addr:country": "DE", "addr:housenumber": "21", "addr:postcode": "70184", "addr:street": "Hohenheimer Straße", "amenity": "hospital", "beds": "150", "building": "yes", "building:levels": "1", "contact:phone": "+49 711 2156-0", "healthcare": "hospital", "name": "Robert-Bosch-Krankenhaus, Standort City", "old_name": "Sana Klinik Bethesda Stuttgart", "operator": "Robert-Bosch-Krankenhaus Standort City GmbH", "website": "https://www.rbk.de/standorte/robert-bosch-krankenhaus-standort-city.html", "wikidata": "Q121326941", "wikipedia": "de:Robert-Bosch-Krankenhaus"}}, {"name": "Krankenhaus Bad Cannstatt", "latitude": 48.8105206, "longitude": 9.2372339, "source": "osm", "_tags": {"addr:city": "Stuttgart", "addr:country": "DE", "addr:housenumber": "24", "addr:postcode": "70374", "addr:street": "Prießnitzweg", "addr:suburb": "Bad Cannstatt", "amenity": "hospital", "branch": "Bad Cannstatt", "brand": "Klinikum Stuttgart", "check_date": "2024-01-03", "emergency": "yes", "healthcare": "hospital;dialysis", "healthcare:speciality": "gastroenterology", "name": "Krankenhaus Bad Cannstatt", "operator": "Klinikum Stuttgart", "operator:wikidata": "Q1374794", "phone": "+49 711 27802", "website": "https://www.klinikum-stuttgart.de/ueber-uns/startseite/krankenhaus-bad-cannstatt/", "wheelchair": "yes", "wikidata": "Q85414785", "wikimedia_commons": "Category:Krankenhaus_Bad_Cannstatt", "wikipedia": "de:Klinikum_Stuttgart#Krankenhaus Bad Cannstatt"}}, {"name": "cts-Klinik Schloßberg", "latitude": 48.7790524, "longitude": 8.728919, "source": "osm", "_tags": {"addr:city": "Bad Liebenzell", "addr:housenumber": "47", "addr:postcode": "75378", "addr:street": "Hindenburgstraße", "amenity": "hospital", "email": "info-bl@cts-reha-bw.de", "fax": "+497052509111", "healthcare": "hospital", "name": "cts-Klinik Schloßberg", "note": "Die cts Rehakliniken Baden-Württemberg sind Teil des Verbundes der Caritas Trägergesellschaft Saarbrücken mbH (cts). Die cts ist ein großer konfessioneller Träger mit 34 Einrichtungen im Saarland, Rheinland-Pfalz und Baden-Württemberg und beschäftigt aktu", "operator": "cts Rehakliniken Baden-Württemberg GmbH", "operator:type": "religious", "operator:wikidata": "Q1036345", "phone": "+4970525090", "website": "https://www.cts-reha-bw.de/kliniken/bad-liebenzell/"}}, {"name": "Universitäts-Frauenklinik, Neonatologie und Medizinische-Genetik", "latitude": 48.5263949, "longitude": 9.0507914, "source": "osm", "_tags": {"amenity": "hospital", "building:colour": "#CC937F", "building:material": "brick", "emergency": "yes", "healthcare": "hospital", "healthcare:speciality": "gynaecology", "name": "Universitäts-Frauenklinik, Neonatologie und Medizinische-Genetik", "website": "https://www.medizin.uni-tuebingen.de/de/das-klinikum/einrichtungen/kliniken/frauenklinik", "wikimedia_commons": "File:UKT Frauenklinik.jpeg"}}, {"name": "Kreisklinik Tuttlingen", "latitude": 47.9847671, "longitude": 8.8320706, "source": "osm", "_tags": {"addr:city": "Tuttlingen", "addr:country": "DE", "addr:housenumber": "21", "addr:postcode": "78532", "addr:street": "Zeppelinstraße", "amenity": "hospital", "healthcare": "hospital", "name": "Kreisklinik Tuttlingen", "operator": "Kli­ni­kum Land­kreis Tutt­lin­gen gGmbH", "operator:type": "public", "wheelchair": "yes", "wikidata": "Q1774627", "wikipedia": "de:Klinikum Landkreis Tuttlingen"}}, {"name": "Krankenhaus Herrenberg", "latitude": 48.5916921, "longitude": 8.8751692, "source": "osm", "_tags": {"amenity": "hospital", "healthcare": "hospital", "name": "Krankenhaus Herrenberg", "toilets:wheelchair": "yes", "website": "https://www.klinikverbund-suedwest.de/krankenhaus-herrenberg", "wheelchair": "yes"}}, {"name": "", "latitude": 48.7153656, "longitude": 8.7452172, "source": "osm", "_tags": {"amenity": "hospital", "healthcare": "hospital"}}, {"name": "Marienhospital", "latitude": 48.7602668, "longitude": 9.1634667, "source": "osm", "_tags": {"addr:city": "Stuttgart", "addr:postcode": "70199", "amenity": "hospital", "name": "Marienhospital", "name:de": "Marienhospital", "site": "hospital", "type": "site", "website": "https://www.marienhospital-stuttgart.de/"}}, {"name": "Sonnenberg Klinik", "latitude": 48.7450539, "longitude": 9.1441912, "source": "osm", "_tags": {"addr:city": "Stuttgart", "addr:country": "DE", "addr:housenumber": "79", "addr:postcode": "70597", "addr:street": "Christian-Belser-Straße", "amenity": "hospital", "building": "yes", "healthcare": "hospital", "name": "Sonnenberg Klinik", "type": "multipolygon", "website": "https://www.sonnenbergklinik.de/"}}, {"name": "Diakonie-Klinikum Stuttgart", "latitude": 48.7816357, "longitude": 9.1639077, "source": "osm", "_tags": {"addr:city": "Stuttgart", "addr:country": "DE", "addr:housenumber": "38", "addr:postcode": "70176", "addr:street": "Rosenbergstraße", "alt_name": "Diakonissen", "amenity": "hospital", "beds": "400", "building": "hospital", "building:levels": "7", "emergency": "yes", "healthcare": "hospital", "name": "Diakonie-Klinikum Stuttgart", "old_name": "Diakonissenkrankenhaus Stuttgart", "roof:levels": "0", "type": "multipolygon", "website": "https://www.diakonie-klinik.de/", "wheelchair": "yes", "wikidata": "Q1000307", "wikimedia_commons": "Category:Diakonie-Klinikum_Stuttgart", "wikipedia": "de:Diakonie-Klinikum Stuttgart"}}, {"name": "Reha-Klinik Am schönen Moos", "latitude": 48.0138905, "longitude": 9.4839757, "source": "osm", "_tags": {"addr:city": "Bad Saulgau", "addr:country": "DE", "addr:housenumber": "7", "addr:postcode": "88348", "addr:street": "Am Schönen Moos", "amenity": "hospital", "name": "Reha-Klinik Am schönen Moos", "source": "Datenübernahme von Gebäude", "type": "site"}}, {"name": "Akut-Klinik Am schönen Moos", "latitude": 48.0135235, "longitude": 9.4826695, "source": "osm", "_tags": {"addr:city": "Bad Saulgau", "addr:country": "DE", "addr:housenumber": "9", "addr:postcode": "88348", "addr:street": "Am Schönen Moos", "amenity": "hospital", "name": "Akut-Klinik Am schönen Moos", "source": "Datenübernahme von Gebäude", "type": "site", "website": "https://www.akutklinik-badsaulgau.de/"}}, {"name": "Krankenhaus", "latitude": 48.2799558, "longitude": 9.7182921, "source": "osm", "_tags": {"amenity": "hospital", "building": "hospital", "healthcare": "hospital", "name": "Krankenhaus", "source": "Maps4BW ( LGL, www.lgl-bw.de) / Bing", "type": "multipolygon"}}]