[{"name": "Centre hospitalier Charcot", "latitude": 47.8304083, "longitude": -3.3175966, "source": "osm", "_tags": {"amenity": "hospital", "healthcare": "hospital", "healthcare:speciality": "psychiatry", "loc_name": "Charcot", "name": "Centre hospitalier Charcot", "name:br": "Pennospital Charcot", "name:etymology:wikidata": "Q20710", "official_name": "EPSM JM Charcot", "ref:FR:FINESS": "560000697", "source:name:br": "proper translation", "type:FR:FINESS": "292"}}, {"name": "Hôpital local du Faouët", "latitude": 48.0269527, "longitude": -3.4884486, "source": "osm", "_tags": {"addr:housenumber": "36", "addr:street": "Rue des Bergères", "amenity": "hospital", "healthcare": "hospital", "name": "Hôpital local du Faouët", "name:br": "Ospital lec'hel ar Faoued", "ref:FR:FINESS": "560000465", "source:name:br": "proper translation", "type:FR:FINESS": "355"}}, {"name": "Clinique mutualiste de Bretagne occidentale", "latitude": 48.0169463, "longitude": -4.0738242, "source": "osm", "_tags": {"healthcare": "hospital", "name": "Clinique mutualiste de Bretagne occidentale", "ref:FR:FINESS": "290036540"}}, {"name": "", "latitude": 48.682878, "longitude": -3.9964775, "source": "osm", "_tags": {"amenity": "hospital", "phone": "+33298690550", "ref:FR:FINESS": "290016724", "ref:FR:SIRET": "26290009500155", "source": "Le ministère des solidarités et de la santé - 2023-09", "type:FR:FINESS": "355"}}, {"name": "", "latitude": 48.5755051, "longitude": -3.8279431, "source": "osm", "_tags": {"amenity": "hospital", "phone": "+33298626160", "ref:FR:FINESS": "290024090", "ref:FR:SIRET": "26290009500247", "source": "Le ministère des solidarités et de la santé - 2023-11", "type:FR:FINESS": "355"}}, {"name": "MRC Morlaix Saint-Fiacre", "latitude": 48.5634108, "longitude": -3.8280071, "source": "osm", "_tags": {"amenity": "hospital", "fax": "+33298632628", "healthcare:speciality": "nephrology", "name": "MRC Morlaix Saint-Fiacre", "operator": "AUB Santé", "phone": "+33298631672", "ref:FR:FINESS": "290018555", "ref:FR:SIRET": "30854923700185", "source": "cadastre-dgi-fr source : Direction Générale des Impôts - Cadastre. Mise à jour : 2023", "type:FR:FINESS": "146"}}, {"name": "Centre Hospitalier des Pays de Morlaix", "latitude": 48.5694949, "longitude": -3.8306165, "source": "osm", "_tags": {"addr:city": "Plourin-lès-Morlaix", "addr:housenumber": "15", "addr:postcode": "29600", "addr:street": "Rue de Kersaint-Gilly", "amenity": "hospital", "name": "Centre Hospitalier des Pays de Morlaix", "phone": "+33 2 98 62 61 60", "source": "cadastre-dgi-fr source : Direction Générale des Impôts - Cadastre. Mise à jour : 2023", "website": "https://www.ch-morlaix.fr/"}}, {"name": "Hélène Gentils", "latitude": 47.9806771, "longitude": -4.1023679, "source": "osm", "_tags": {"addr:city": "Quimper", "addr:housenumber": "4", "addr:postcode": "29000", "addr:street": "Boulevard de Créac'h-Gwen", "amenity": "hospital", "healthcare": "physiotherapist", "healthcare:speciality": "physiotherapy;main;cancer_du_sein", "healthcare:speciality:fr": "Masseur Kinésithérapeute", "level": "1", "name": "Hélène Gentils", "note": "porte 12", "phone": "+33780972478", "wheelchair": "yes"}}, {"name": "Centre de santé sexuelle de Lannion", "latitude": 48.7220108, "longitude": -3.464703, "source": "osm", "_tags": {"amenity": "hospital", "description": "accès direct par passerelle extérieure", "healthcare": "hospital", "healthcare:speciality": "blood_check;gynaecology;community", "name": "Centre de santé sexuelle de Lannion", "operator": "CH LANNION", "operator:type": "public"}}, {"name": "Maison de santé", "latitude": 48.2438976, "longitude": -3.8187095, "source": "osm", "_tags": {"addr:city": "Plonévez-du-Faou", "addr:housenumber": "1", "addr:postcode": "29530", "addr:street": "place des caducées", "amenity": "hospital", "healthcare": "hospital", "healthcare:speciality": "maison de santé;general;speech_therapist;nurse", "name": "Maison de santé", "name:fr": "Maison de santé"}}, {"name": "Centre hospitalier intercommunal de Cornouaille", "latitude": 47.9859996, "longitude": -4.0955851, "source": "osm", "_tags": {"addr:housenumber": "14", "addr:street": "Avenue Yves Thépot", "alt_name": "Hôpital Laënnec", "amenity": "hospital", "check_date": "2025-04-10", "contact:phone": "+33 2 98 52 60 60", "dispensing": "no", "electricity": "generator", "emergency": "yes", "health_amenity:type": "dialysis;emergency_department;imaging_equipment;intensive_care_unit;laboratory;mri;operating_theater;ultrasound;x_ray", "healthcare": "birthing_centre;blood_donation;clinic;dentist;hospital;laboratory;optometrist;physiotherapist", "healthcare:speciality": "intensive", "name": "Centre hospitalier intercommunal de Cornouaille", "name:br": "Pennospital Kerne", "opening_hours": "24/7", "operator:type": "public", "phone": "+33 2 98 52 60 60", "ref:FR:FINESS": "290000025", "source": "cadastre-dgi-fr source : Direction Générale des Impôts - Cadastre. Mise à jour : 2009", "type:FR:FINESS": "355", "website": "https://www.ch-cornouaille.fr/", "wikidata": "Q30270270"}}, {"name": "Hôpital du Porzou", "latitude": 47.8653269, "longitude": -3.9048235, "source": "osm", "_tags": {"amenity": "hospital", "emergency": "yes", "healthcare": "hospital", "name": "Hôpital du Porzou", "name:br": "Pennospital ar Porzhoù", "operator:type": "public", "phone": "+33 2 98 50 30 30", "ref:FR:FINESS": "290000066", "type:FR:FINESS": "355", "website": "https://www.ch-cornouaille.fr/ch-quimper-concarneau/infos-pratiques/plan-dacces/concarneau-site-du-porzou", "wikidata": "Q133888812"}}, {"name": "Centre hospitalier des Pays de Morlaix", "latitude": 48.570405, "longitude": -3.8327882, "source": "osm", "_tags": {"amenity": "hospital", "email": "info@ch-morlaix.fr", "emergency": "yes", "healthcare": "hospital", "healthcare:speciality": "intensive", "name": "Centre hospitalier des Pays de Morlaix", "name:br": "Pennospital Bro Montroulez", "operator:type": "public", "phone": "+33 2 98 62 61 60", "ref:FR:FINESS": "290000033", "source": "cadastre-dgi-fr source : Direction Générale des Impôts - Cadastre;mise à jour : 2009", "source:name:br": "proper translation", "type:FR:FINESS": "355", "website": "https://www.ch-morlaix.fr/", "wikidata": "Q30270135"}}, {"name": "Bâtiment \"Les mouettes\" de la maison Saint-Luc", "latitude": 48.7211444, "longitude": -3.9921511, "source": "osm", "_tags": {"addr:city": "Roscoff", "addr:housenumber": "144", "addr:postcode": "29684", "addr:street": "Rue de la Marquise de Kergariou", "amenity": "hospital", "healthcare": "hospital", "healthcare:speciality": "cardiology", "name": "Bâtiment \"Les mouettes\" de la maison Saint-Luc", "operator": "Fondation ILDYS", "operator:type": "private", "source": "cadastre-dgi-fr source : Direction Générale des Impôts - Cadastre. Mise à jour : 2010;survey", "wheelchair": "yes"}}, {"name": "Maison Saint-Luc - Fondation ILDYS", "latitude": 48.7214489, "longitude": -3.9916455, "source": "osm", "_tags": {"addr:city": "Roscoff", "addr:housenumber": "144", "addr:postcode": "29684", "addr:street": "Rue de la Marquise de Kergariou", "amenity": "hospital", "building": "church", "denomination": "catholic", "healthcare": "hospital", "healthcare:speciality": "radiology", "name": "Maison Saint-Luc - Fondation ILDYS", "operator": "Fondation ILDYS", "operator:type": "private", "source": "cadastre-dgi-fr source : Direction Générale des Impôts - Cadastre. Mise à jour : 2010;survey", "wheelchair": "yes"}}, {"name": "Maison Saint-Luc, Fondation ILDYS", "latitude": 48.7215432, "longitude": -3.9917139, "source": "osm", "_tags": {"addr:city": "Roscoff", "addr:housenumber": "144", "addr:postcode": "29684", "addr:street": "Rue de la Marquise de Kergariou", "amenity": "clinic", "building": "hospital", "building:levels": "3", "building:levels:underground": "1", "description": "La Maison Saint-Luc accueille des patients en soins de suite et en réadaptation cardiovasculaire. Le site héberge également l’un des 2 centres de santé de la Fondation qui proposent des consultations de médecine générale et en nutrition et tabacologie", "fax": "+33298612764", "healthcare": "hospital", "name": "Maison Saint-Luc, Fondation ILDYS", "operator": "Fondation ILDYS", "phone": "+33298292525", "ref:FR:FINESS": "290000983", "ref:FR:SIRET": "77762928800039", "source": "Le ministère des solidarités et de la santé - 2023-09", "type:FR:FINESS": "109", "website": "https://www.ildys.org/etablissements/maison-saint-luc/", "wheelchair": "yes"}}, {"name": "", "latitude": 48.6829338, "longitude": -3.9966495, "source": "osm", "_tags": {"amenity": "hospital", "building": "hospital", "ref:FR:FINESS": "290016724", "source": "cadastre-dgi-fr source : Direction Générale des Impôts - Cadastre. Mise à jour : 2010"}}, {"name": "Clinique d'Addictologie", "latitude": 48.6293693, "longitude": -3.2994655, "source": "osm", "_tags": {"amenity": "hospital", "building": "yes", "check_date": "2024-05-07", "name": "Clinique d'Addictologie", "name:br": "Klinikenn Aaiktologiezh", "source": "cadastre-dgi-fr source : Direction Générale des Impôts - Cadastre. Mise à jour : 2010"}}, {"name": "Onco'Kerné", "latitude": 47.987024, "longitude": -4.095896, "source": "osm", "_tags": {"amenity": "hospital", "building": "hospital", "healthcare": "hospital", "healthcare:speciality": "oncology", "name": "Onco'Kerné", "source": "cadastre-dgi-fr source : Direction Générale des Impôts - Cadastre. Mise à jour : 2010"}}, {"name": "Centre hospitalier Bon Sauveur", "latitude": 48.6306357, "longitude": -3.2955812, "source": "osm", "_tags": {"amenity": "hospital", "healthcare": "hospital", "healthcare:speciality": "psychiatry", "name": "Centre hospitalier Bon Sauveur", "name:br": "Ospital ar Gwir Salver", "ref:FR:FINESS": "220000608", "source:name:br": "ofis publik ar brezhoneg", "type:FR:FINESS": "292"}}, {"name": "Centre hospitalier de Carhaix", "latitude": 48.2729793, "longitude": -3.5794846, "source": "osm", "_tags": {"amenity": "hospital", "emergency": "yes", "healthcare": "hospital", "name": "Centre hospitalier de Carhaix", "name:br": "Pennospital Karaez", "phone": "+33 2 98 99 20 20", "ref:FR:FINESS": "290000256", "source:name:br": "Ofis publik ar brezhoneg", "type:FR:FINESS": "101", "website": "https://www.chu-brest.fr/fr/decouvrir-chru/nos-hopitaux-residences/hopital-carhaix", "wikidata": "Q47466921", "wikipedia": "fr:Hôpital de Carhaix"}}, {"name": "Centre hospitalier de Lannion", "latitude": 48.7219669, "longitude": -3.4644414, "source": "osm", "_tags": {"amenity": "hospital", "emergency": "yes", "fax": "+33 2 96 05 70 84", "healthcare": "hospital", "name": "Centre hospitalier de Lannion", "name:br": "Pennospital Lannuon", "phone": "+33 2 96 05 71 11", "ref:FR:FINESS": "220000368", "source": "cadastre-dgi-fr source : Direction Générale des Impôts - Cadastre. Mise à jour : 2016 + Bing", "source:name:br": "proper translation", "type:FR:FINESS": "355", "website": "https://www.ch-lannion.fr/"}}, {"name": "Polyclinique du Trégor", "latitude": 48.7244486, "longitude": -3.4424882, "source": "osm", "_tags": {"amenity": "hospital", "healthcare": "hospital", "name": "Polyclinique du Trégor", "name:br": "Liesklinikenn Treger", "ref:FR:FINESS": "220000111", "source": "cadastre-dgi-fr source : Direction Générale des Impôts - Cadastre. Mise à jour : 2016 + Bing", "source:name:br": "ofis publik ar brezhoneg", "type:FR:FINESS": "365", "wheelchair": "yes"}}, {"name": "Centre hospitalier de Guervénan", "latitude": 48.5218388, "longitude": -3.7345058, "source": "osm", "_tags": {"amenity": "hospital", "healthcare": "hospital", "name": "Centre hospitalier de Guervénan", "name:br": "Pennospital Gwervenan", "phone": "+33 2 98 78 78 78", "ref:FR:FINESS": "290000553", "source:name:br": "proper translation", "type:FR:FINESS": "355"}}, {"name": "Hôtel-Dieu", "latitude": 47.8634684, "longitude": -4.2212275, "source": "osm", "_tags": {"addr:city": "Pont-l'Abbé", "addr:postcode": "29120", "addr:street": "Rue Roger Signor", "amenity": "hospital", "emergency": "yes", "fax": "+33 2 98 82 40 94", "healthcare": "hospital", "name": "Hôtel-Dieu", "name:br": "Ostel Doue", "operator": "Groupe HSTV", "operator:type": "private", "phone": "+33 2 98 82 40 40", "ref:FR:FINESS": "290000785", "source:name:br": "ofis publik ar brezhoneg", "type:FR:FINESS": "365", "website": "https://hdpontlabbe.hstv.fr/"}}, {"name": "Centre hospitalier Ferdinand Grall", "latitude": 48.4478313, "longitude": -4.2350272, "source": "osm", "_tags": {"alt_name": "Hôpital de Landerneau;Site Lavallot", "amenity": "hospital", "contact:housenumber": "1", "contact:street": "Route de Pencran", "emergency": "yes", "healthcare": "hospital", "healthcare:speciality": "general;psychiatry;gynaecology", "name": "Centre hospitalier Ferdinand Grall", "operator:wikidata": "Q105164575", "phone": "+33 2 98 21 80 00", "ref:FR:FINESS": "290000173", "ref:FR:NAF": "86.10Z", "ref:FR:SIREN": "262900038", "ref:FR:SIRET": "26290003800015", "source": "INSEE - 2025-07", "type:FR:FINESS": "355", "website": "https://www.hopital-landerneau.fr/", "wheelchair": "yes", "wikidata": "Q129264314"}}, {"name": "Centre hospitalier de Quimperlé", "latitude": 47.8698751, "longitude": -3.5561472, "source": "osm", "_tags": {"alt_name": "Hôpital de la Villeneuve", "amenity": "hospital", "emergency": "yes", "fax": "+33 2 98 96 60 06", "healthcare": "hospital", "healthcare:speciality": "intensive", "name": "Centre hospitalier de Quimperlé", "name:br": "Pennospital Kemperle", "operator": "Groupe Hospitalier Bretagne Sud", "operator:type": "public", "phone": "+33 2 98 96 60 00", "ref:FR:FINESS": "290000934", "type:FR:FINESS": "355", "website": "https://www.chbs.fr/"}}, {"name": "Établissement public de santé mentale Étienne Gourmelen", "latitude": 47.9993346, "longitude": -4.0852071, "source": "osm", "_tags": {"amenity": "hospital", "healthcare": "hospital", "name": "Établissement public de santé mentale Étienne Gourmelen", "name:br": "Diazezadur publik ar yec'hed-spered Steven Gourmelen", "phone": "+33298986600", "ref:FR:FINESS": "290000918", "social_facility": "group_home", "social_facility:for": "mental_health", "source": "Le ministère des solidarités et de la santé - 03/2019", "source:name:br": "proper translation", "type:FR:FINESS": "292"}}, {"name": "Centre hospitalier de Lanmeur", "latitude": 48.6470159, "longitude": -3.7093314, "source": "osm", "_tags": {"addr:city": "Lanmeur", "addr:housenumber": "9", "addr:postcode": "29620", "addr:street": "Rue de Traonbézéden", "amenity": "hospital", "healthcare": "hospital", "healthcare:speciality": "geriatrics", "name": "Centre hospitalier de Lanmeur", "name:br": "Pennospital Lanneur", "phone": "+33 2 98 78 84 84", "ref:FR:FINESS": "290000389", "source": "https://www.lanmeur.fr/index.php/vivre-a-lanmeur/vie-sociale-et-sante/176-centre-hospitalier-de-lanmeur", "source:name:br": "proper translation"}}, {"name": "Pôle santé de Kerlic", "latitude": 48.016863, "longitude": -4.0734838, "source": "osm", "_tags": {"amenity": "hospital", "name": "Pôle santé de Kerlic", "name:br": "Pol Yec'hed Kerlig", "source:name:br": "proper translation", "wheelchair": "yes"}}, {"name": "Centre de Perharidy", "latitude": 48.7234272, "longitude": -4.0060797, "source": "osm", "_tags": {"amenity": "hospital", "building": "yes", "name": "Centre de Perharidy", "name:br": "Kreizenn Perc'haridi", "ref:FR:FINESS": "290000975", "source:name:br": "proper translation", "type": "multipolygon", "type:FR:FINESS": "101"}}]