[{"name": "MEDIAN Klinik Gunzenbachhof", "latitude": 48.7486287, "longitude": 8.244032, "source": "osm", "_tags": {"addr:city": "Baden-Baden", "addr:country": "DE", "addr:housenumber": "6", "addr:postcode": "76530", "addr:street": "Gunzenbachstraße", "amenity": "hospital", "emergency": "yes", "healthcare": "hospital", "healthcare:speciality": "psychiatry", "name": "MEDIAN Klinik Gunzenbachhof", "operator": "MEDIAN Kliniken", "phone": "+49 7221 9360", "website": "https://www.median-kliniken.de/de/median-klinik-gunzenbachhof-baden-baden/"}}, {"name": "Klinik für Psychiatrie, Psychotherapie und Psychosomatik im Kindes- und Jugendalter", "latitude": 48.006963, "longitude": 7.8562083, "source": "osm", "_tags": {"addr:city": "Freiburg im Breisgau", "addr:housenumber": "8", "addr:postcode": "79104", "addr:street": "Hauptstraße", "check_date": "2025-08-17", "healthcare": "hospital", "healthcare:speciality": "psychiatry", "name": "Klinik für Psychiatrie, Psychotherapie und Psychosomatik im Kindes- und Jugendalter", "operator": "Universitätsklinikum Freiburg", "wheelchair": "yes"}}, {"name": "Clinique Sainte-Barbe", "latitude": 48.5819895, "longitude": 7.7353506, "source": "osm", "_tags": {"addr:city": "Strasbourg", "addr:country": "FR", "addr:housenumber": "19", "addr:postcode": "67000", "addr:street": "Faubourg National", "amenity": "hospital", "emergency": "no", "healthcare": "hospital", "name": "Clinique Sainte-Barbe", "ref:FR:FINESS": "670780188", "type:FR:FINESS": "365"}}, {"name": "Centre Régional de Réadaptation Fonctionnelle Clémenceau", "latitude": 48.59276, "longitude": 7.7543833, "source": "osm", "_tags": {"amenity": "hospital", "healthcare": "hospital", "name": "Centre Régional de Réadaptation Fonctionnelle Clémenceau", "ref:FR:FINESS": "670780121", "source": "cadastre-dgi-fr source : Direction Générale des Impôts - Cadastre ; mise à jour : 2009", "toilets:wheelchair": "yes", "type:FR:FINESS": "109", "wheelchair": "yes"}}, {"name": "Ortenau Klinikum Offenburg-Gengenbach", "latitude": 48.4761467, "longitude": 7.9555411, "source": "osm", "_tags": {"addr:city": "Offenburg", "addr:housenumber": "12", "addr:postcode": "77654", "addr:street": "Ebertplatz", "amenity": "hospital", "check_date": "2025-01-25", "contact:phone": "+49 781 472-0", "emergency": "yes", "healthcare": "hospital", "name": "Ortenau Klinikum Offenburg-Gengenbach", "website": "https://offenburg-gengenbach.ortenau-klinikum.de/", "wheelchair": "yes", "wikidata": "Q1359970", "wikipedia": "de:Ortenau Klinikum"}}, {"name": "Klinik in der Zarten", "latitude": 47.9004917, "longitude": 8.1058484, "source": "osm", "_tags": {"addr:city": "Hinterzarten", "addr:country": "DE", "addr:housenumber": "14", "addr:postcode": "79856", "addr:street": "Erlenbrucker Straße", "amenity": "hospital", "email": "info@klinik-in-der-zarten.de", "fax": "+49 7652 120969", "healthcare": "hospital", "healthcare:speciality": "psychotherapy", "name": "Klinik in der Zarten", "operator": "Klinik in der Zarten GmbH", "operator:type": "private_for_profit", "phone": "+49 7652 12090", "website": "http://www.klinik-in-der-zarten.de"}}, {"name": "CELENUS Klinik Schömberg", "latitude": 48.7895451, "longitude": 8.6560649, "source": "osm", "_tags": {"amenity": "hospital", "healthcare": "hospital", "name": "CELENUS Klinik Schömberg", "operator": "Psychosomatische Fachklinik Schömberg GmbH", "website": "https://www.klinik-schoemberg.de/", "wheelchair": "yes"}}, {"name": "Paracelsus Krankenhaus", "latitude": 48.7818812, "longitude": 8.7233692, "source": "osm", "_tags": {"addr:city": "Bad Liebenzell", "addr:country": "DE", "addr:housenumber": "60", "addr:postcode": "75378", "addr:street": "Burghaldenweg", "addr:suburb": "Unterlengenhardt", "amenity": "hospital", "check_date": "2024-05-10", "healthcare:speciality": "homeopathy;oncology;internal;physiotherapy;emergency;acupuncture;covid19;gastroenterology;blood_check;massage_therapy", "internet_access:fee": "customers", "name": "Paracelsus Krankenhaus", "website": "https://www.paracelsus-krankenhaus.de/", "wheelchair": "yes", "wikidata": "Q63342548"}}, {"name": "Centre Hospitalier Départemental de Bichwiller", "latitude": 48.7594984, "longitude": 7.8570413, "source": "osm", "_tags": {"amenity": "hospital", "name": "Centre Hospitalier Départemental de Bichwiller", "ref:FR:FINESS": "670000306", "source": "Le ministère des solidarités et de la santé - 03/2019"}}, {"name": "Kreiskrankenhaus Emmendingen", "latitude": 48.1252505, "longitude": 7.855804, "source": "osm", "_tags": {"addr:city": "Emmendingen", "addr:country": "DE", "addr:housenumber": "44", "addr:street": "Gartenstraße", "amenity": "hospital", "contact:email": "verwaltung@krankenhaus-emmendingen.de", "contact:fax": "+49 7641 4542520", "contact:phone": "+49 7641 4540", "contact:website": "http://www.krankenhaus-emmendingen.de/", "healthcare": "hospital", "name": "Kreiskrankenhaus Emmendingen", "toilets:wheelchair": "yes", "wheelchair": "yes", "wheelchair:description": "Rollstuhl-WC im EG", "wikidata": "Q34618638"}}, {"name": "Helios Klinik Titisee-Neustadt", "latitude": 47.9257773, "longitude": 8.1871541, "source": "osm", "_tags": {"addr:city": "Titisee-Neustadt", "addr:housenumber": "12", "addr:postcode": "79822", "addr:street": "Jostalstraße", "amenity": "hospital", "emergency": "yes", "healthcare": "hospital", "name": "Helios Klinik Titisee-Neustadt", "operator": "Helios Kliniken", "operator:wikidata": "Q1254151", "phone": "+49 7651 290", "website": "https://www.helios-gesundheit.de/titisee"}}, {"name": "Glücksbringer", "latitude": 47.9730065, "longitude": 8.2937502, "source": "osm", "_tags": {"addr:city": "Eisenbach", "addr:housenumber": "17", "addr:street": "Bubenbacher Straße", "healthcare": "hospital", "name": "Glücksbringer", "office": "therapist", "website": "https://www.therapiehof.org"}}, {"name": "Medizinisches Versorgungszentrum", "latitude": 48.4449541, "longitude": 8.6912146, "source": "osm", "_tags": {"addr:city": "Horb am Neckar", "addr:country": "DE", "addr:housenumber": "9", "addr:postcode": "72160", "addr:street": "Burgstall", "amenity": "hospital", "healthcare": "hospital", "name": "Medizinisches Versorgungszentrum", "website": "https://www.klf-web.de/"}}, {"name": "Klinik für Geriatrische Rehabilitation", "latitude": 48.4449328, "longitude": 8.6915405, "source": "osm", "_tags": {"addr:city": "Horb am Neckar", "addr:country": "DE", "addr:housenumber": "9", "addr:postcode": "72160", "addr:street": "Burgstall", "amenity": "hospital", "healthcare": "rehabilitation", "healthcare:speciality": "geriatrics", "name": "Klinik für Geriatrische Rehabilitation", "website": "https://www.klf-web.de/"}}, {"name": "Klinik für Onkologische Rehabilitation", "latitude": 48.0047732, "longitude": 7.8331721, "source": "osm", "_tags": {"amenity": "hospital", "check_date": "2024-03-19", "contact:website": "https://www.ukf-reha.de/", "healthcare": "hospital", "healthcare:speciality": "rehabilitation", "name": "Klinik für Onkologische Rehabilitation", "operator": "UKF Reha gGmbH"}}, {"name": "Deutsches Rotes Kreuz Sanitätsraum", "latitude": 48.0480977, "longitude": 7.9446854, "source": "osm", "_tags": {"addr:city": "Glottertal", "addr:housenumber": "16", "addr:postcode": "79286", "addr:street": "Rathausweg", "amenity": "hospital", "emergency": "no", "healthcare": "hospital", "healthcare:speciality": "general", "name": "Deutsches Rotes Kreuz Sanitätsraum", "operator": "DRK Glottertal", "operator:type": "DRK_Glottertal"}}, {"name": "Klinik für Psychosomatische Medizin und Psychotherapie", "latitude": 48.0071837, "longitude": 7.8565728, "source": "osm", "_tags": {"addr:city": "Freiburg im Breisgau", "addr:housenumber": "8", "addr:postcode": "79104", "addr:street": "Hauptstraße", "check_date": "2024-11-03", "healthcare": "hospital", "healthcare:speciality": "psychiatry", "name": "Klinik für Psychosomatische Medizin und Psychotherapie", "operator": "Universitätsklinikum Freiburg", "wheelchair": "yes"}}, {"name": "Asklepios Klinik Triberg", "latitude": 48.1280473, "longitude": 8.2315536, "source": "osm", "_tags": {"amenity": "hospital", "healthcare": "hospital", "name": "Asklepios Klinik Triberg", "operator": "Asklepios Kliniken", "operator:type": "private", "operator:wikidata": "Q732068", "phone": "+49 7722 9550", "website": "https://www.asklepios.com/triberg"}}, {"name": "Sozialpädiatrisches Zentrum", "latitude": 48.0027771, "longitude": 7.8435259, "source": "osm", "_tags": {"amenity": "clinic", "contact:email": "zkj.termin@uniklinik-freiburg.de", "contact:website": "https://www.uniklinik-freiburg.de/kinderklinik/behandlungsspektrum/sozialpaediatrisches-zentrum-spz.html", "healthcare": "hospital", "healthcare:speciality": "child_psychiatry", "name": "Sozialpädiatrisches Zentrum", "operator": "Universitätsklinikum Freiburg", "short_name": "SPZ"}}, {"name": "Espan Klinik", "latitude": 48.0166994, "longitude": 8.538748, "source": "osm", "_tags": {"addr:city": "Bad Dürrheim", "addr:country": "DE", "addr:housenumber": "9", "addr:postcode": "78073", "addr:street": "Gartenstraße", "amenity": "hospital", "contact:email": "info@espan-klinik.de", "contact:fax": "+49 7726 9395929", "contact:phone": "+49 7726 65-0", "contact:website": "https://espan-klinik.de/", "healthcare": "rehabilitation", "healthcare:speciality": "pulmonology; oncology", "name": "Espan Klinik", "operator": "Kliniken Benner GmbH & Co. KG"}}, {"name": "KINZIGDENTAL", "latitude": 48.2766753, "longitude": 8.0875609, "source": "osm", "_tags": {"addr:city": "Haslach im Kinzigtal", "addr:housenumber": "26", "addr:postcode": "77716", "addr:street": "Hauptstraße", "amenity": "hospital", "healthcare": "hospital", "healthcare:speciality": "stomatology", "image": "https://kinzig.dental/wp-content/uploads/2019/03/logo-full.svg", "name": "KINZIGDENTAL", "operator": "DRES. SANDER & KOLLEGEN"}}, {"name": "Franz-Alexander-Klinik", "latitude": 48.3998871, "longitude": 8.0821491, "source": "osm", "_tags": {"addr:city": "Nordrach", "addr:housenumber": "44", "addr:postcode": "77787", "addr:street": "Im Dorf", "amenity": "hospital", "healthcare": "hospital", "healthcare:speciality": "psychiatry", "name": "Franz-Alexander-Klinik", "operator": "Median Kliniken", "operator:type": "private", "operator:wikidata": "Q1916200", "phone": "+49 7838 929100"}}, {"name": "", "latitude": 48.6297934, "longitude": 7.753868, "source": "osm", "_tags": {"amenity": "hospital", "healthcare": "hospital", "operator": "Kinesitérapeuthe"}}, {"name": "Praxisklinik 2000", "latitude": 48.0238925, "longitude": 7.8144239, "source": "osm", "_tags": {"amenity": "hospital", "email": "info@praxisklinik2000.com", "healthcare": "clinic", "healthcare:speciality": "orthopaedics;surgery", "name": "Praxisklinik 2000", "opening_hours": "Mo-Fr 09:00-12:00,13:00-16:00", "phone": "+49 761 88 85 890", "website": "https://praxisklinik2000.com/orthopaede_freiburg.html"}}, {"name": "Clinique Sainte-Anne", "latitude": 48.6148875, "longitude": 7.7880104, "source": "osm", "_tags": {"addr:city": "Strasbourg", "addr:country": "FR", "addr:postcode": "67000", "addr:street": "Rue Philippe Thys", "amenity": "hospital", "email": "sainte-anne@ghsv.org", "fax": "+33 3 88 21 72 99", "healthcare": "hospital", "name": "Clinique Sainte-Anne", "operator": "Groupe Hospitalier Saint-Vincent", "operator:type": "private", "phone": "+33 3 88 45 81 81", "ref:FR:FINESS": "670780212", "source": "v2; Direction Générale des Finances Publiques - Cadastre ; mise à jour : 2009", "type:FR:FINESS": "365", "website": "https://www.ghsv.org/le-ghsv/nos-etablissements/clinique-sainte-anne/"}}, {"name": "SRH Krankenhaus Oberndorf a.N.", "latitude": 48.2958991, "longitude": 8.5784183, "source": "osm", "_tags": {"addr:city": "Oberndorf am Neckar", "addr:country": "DE", "addr:housenumber": "14", "addr:postcode": "78727", "addr:street": "Hölderlinstraße", "amenity": "hospital", "building": "yes", "check_date": "2025-07-03", "healthcare": "hospital", "name": "SRH Krankenhaus Oberndorf a.N.", "wikidata": "Q15843621"}}, {"name": "Rehabilitationsklinik Sonnhalde", "latitude": 47.9487766, "longitude": 8.469097, "source": "osm", "_tags": {"amenity": "hospital", "emergency": "no", "healthcare": "rehabilitation", "name": "Rehabilitationsklinik Sonnhalde", "website": "https://www.rehaklinik-sonnhalde.de/"}}, {"name": "Zentrum für Psychiatrie Emmendingen", "latitude": 48.1153595, "longitude": 7.8685622, "source": "osm", "_tags": {"addr:housenumber": "25", "addr:street": "Neubronnstraße", "amenity": "hospital", "contact:email": "info@zfp-emmendingen.de", "contact:fax": "+49 7641 4612901", "contact:phone": "+49 7641 4610", "contact:website": "https://www.zfp-emmendingen.de", "name": "Zentrum für Psychiatrie Emmendingen", "toilets:wheelchair": "yes", "wheelchair": "yes", "wikidata": "Q34614311"}}, {"name": "Quellenhof (Neurologisches Rehabilitationszentrum)", "latitude": 48.748649, "longitude": 8.5499421, "source": "osm", "_tags": {"addr:city": "Bad Wildbad", "addr:housenumber": "2", "addr:postcode": "75323", "addr:street": "Kuranlagenallee", "amenity": "hospital", "building": "hospital", "building:levels": "4", "check_date": "2025-07-19", "description": "Frühreha-Phase, der Phase C sowie der Phase D versorgt.Schwerpunkten der Klinik gehört Multiple Sklerose, Schlaganfall, Post-Polio-Syndrom, Guillain Barré-Syndrom.", "healthcare": "hospital", "name": "Quellenhof (Neurologisches Rehabilitationszentrum)", "phone": "+49 7081 173-0", "roof:levels": "1", "toilets:wheelchair": "yes", "website": "https://www.quellenhof.de/home.html", "wheelchair": "yes"}}, {"name": "Sana Kliniken", "latitude": 48.7496685, "longitude": 8.5493391, "source": "osm", "_tags": {"amenity": "hospital", "building": "hospital", "description": "Sana Gelenk- und Rheumazentrum Baden-Württemberg; Sana Klinik für Innere Medizin Bad Wildbad", "healthcare": "hospital", "name": "Sana Kliniken", "operator": "Sana Kliniken", "operator:wikidata": "Q2220152", "website": "https://www.sana-wildbad.de/", "wheelchair": "yes"}}, {"name": "Loretto-Krankenhaus", "latitude": 47.9829574, "longitude": 7.8398958, "source": "osm", "_tags": {"addr:city": "Freiburg im Breisgau", "addr:country": "DE", "addr:housenumber": "6-14", "addr:postcode": "79100", "addr:street": "Mercystraße", "amenity": "hospital", "contact:email": "info-lok@rkk-klinikum.de", "contact:fax": "+49 761 7084 239", "contact:phone": "+49 761 7084 0", "contact:website": "http://rkk-klinikum.de/", "healthcare": "hospital", "name": "Loretto-Krankenhaus", "name:en": "Loretto-Krankenhaus", "opening_hours": "24/7", "operational_status": "Operational", "operator": "RKK gGmbH", "operator:type": "public/government", "wikidata": "Q126178094"}}, {"name": "Argos", "latitude": 48.5746795, "longitude": 7.7448267, "source": "osm", "_tags": {"amenity": "social_facility", "building": "hospital", "building:use": "office", "email": "ithaque@ithaque-asso.fr", "healthcare": "hospital", "level": "0;1", "name": "Argos", "office": "supervised_injection_site", "opening_hours": "Mo-Su 13:00-19:00", "operator": "Ithaque", "phone": "+33 3 68 00 19 14", "social_facility": "group_home", "social_facility:for": "drug_addicted", "source": "cadastre-dgi-fr source : Direction Générale des Impôts - Cadastre ; mise à jour : 2009", "start_date": "2016-11-07", "website": "https://www.ithaque-asso.fr/"}}, {"name": "Kreiskrankenhaus Nagold", "latitude": 48.5420851, "longitude": 8.7223368, "source": "osm", "_tags": {"addr:city": "Nagold", "addr:country": "DE", "addr:housenumber": "20", "addr:postcode": "72202", "addr:street": "Röntgenstraße", "amenity": "hospital", "building": "yes", "emergency": "yes", "healthcare": "hospital", "name": "Kreiskrankenhaus Nagold", "toilets:wheelchair": "yes", "wheelchair": "yes"}}, {"name": "Centre médical et dentaire de la MGEN", "latitude": 48.5810293, "longitude": 7.7567544, "source": "osm", "_tags": {"addr:housenumber": "4", "addr:postcode": "67085", "addr:street": "Place du Pont aux Chats", "amenity": "clinic", "building": "yes", "check_date": "2024-03-15", "fax": "+33388240806", "healthcare": "hospital", "name": "Centre médical et dentaire de la MGEN", "opening_hours": "Mo-Fr 07:30-19:30; Sa 07:30-13:30", "phone": "+33388211460", "ref:FR:FINESS": "670017110", "source": "cadastre-dgi-fr source : Direction Générale des Impôts - Cadastre. Mise à jour : 2009;Le ministère des solidarités et de la santé - 03/2019", "type:FR:FINESS": "347", "website": "https://proximite.mgen.fr/177-centre-medical-et-dentaire-de-strasbourg"}}, {"name": "Hôpital Civil", "latitude": 48.5761071, "longitude": 7.7448917, "source": "osm", "_tags": {"addr:city": "Strasbourg", "addr:housenumber": "1", "addr:postcode": "67091", "addr:street": "Place de l'Hôpital", "amenity": "hospital", "fax": "+33 3 88 11 60 99", "healthcare": "hospital", "healthcare:speciality": "intensive", "name": "Hôpital Civil", "name:de": "Bürgerhospital", "name:fr": "Hôpital Civil", "phone": "+33 3 88 11 67 68", "ref:FR:FINESS": "670000025", "source": "cadastre-dgi-fr source : Direction Générale des Impôts - Cadastre;mise à jour : 2009", "type:FR:FINESS": "101", "website": "https://www.chru-strasbourg.fr/index.php", "wikidata": "Q3145261", "wikipedia": "fr:Hôpital civil (Strasbourg)"}}, {"name": "clinique Ste Barbe", "latitude": 48.5817039, "longitude": 7.735331, "source": "osm", "_tags": {"addr:city": "Strasbourg", "addr:country": "FR", "addr:housenumber": "19", "addr:postcode": "67000", "addr:street": "Faubourg National", "amenity": "hospital", "building": "hospital", "building:levels": "3", "emergency": "no", "healthcare": "hospital", "name": "clinique Ste Barbe", "operator": "Groupe hospitalier St Vincent", "operator:type": "ESPIC", "ref:FR:FINESS": "670780188", "source": "cadastre-dgi-fr source : Direction Générale des Impôts - Cadastre. Mise à jour : 2009"}}, {"name": "Hôpital de la Robertsau", "latitude": 48.6022549, "longitude": 7.7896583, "source": "osm", "_tags": {"addr:city": "Strasbourg", "addr:country": "FR", "addr:housenumber": "83", "addr:postcode": "67091", "addr:street": "Rue Himmerich", "amenity": "hospital", "healthcare": "hospital", "name": "Hôpital de la Robertsau", "ref:FR:FINESS": "670783133", "source": "cadastre-dgi-fr source : Direction Générale des Impôts - Cadastre. Mise à jour : 2009"}}, {"name": "Centre hospitalier de Haguenau", "latitude": 48.7973632, "longitude": 7.7778547, "source": "osm", "_tags": {"addr:city": "Haguenau", "addr:country": "FR", "addr:housenumber": "64", "addr:postcode": "67500", "addr:street": "Avenue du Professeur René Leriche", "amenity": "hospital", "emergency": "yes", "fax": "+33 3 88 06 30 30", "healthcare": "hospital", "healthcare:speciality": "intensive", "name": "Centre hospitalier de Haguenau", "operator:type": "public", "phone": "+33 3 88 06 33 33", "ref:FR:FINESS": "670000157", "source": "Direction Générale des Finances Publiques - Cadastre;mise à jour : 2009", "toilets:wheelchair": "yes", "type:FR:FINESS": "355", "website": "http://www.ch-haguenau.fr/", "wheelchair": "yes"}}, {"name": "Clinique Rhéna", "latitude": 48.5714423, "longitude": 7.7927311, "source": "osm", "_tags": {"addr:city": "Strasbourg", "addr:housenumber": "10", "addr:postcode": "67000", "addr:street": "Rue Catherine Kany", "amenity": "hospital", "emergency": "yes", "fax": "+33 3 69 06 07 27", "healthcare": "hospital", "name": "Clinique Rhéna", "operator:type": "private", "phone": "+33 3 69 06 07 08", "ref:FR:FINESS": "670018068", "source": "survey, BDOrtho IGN", "type:FR:FINESS": "697", "website": "https://www.clinique-rhena.fr/"}}, {"name": "Klinik am Doniswald", "latitude": 48.1398243, "longitude": 8.4168176, "source": "osm", "_tags": {"addr:city": "Königsfeld im Schwarzwald", "addr:country": "DE", "addr:housenumber": "10", "addr:postcode": "78126", "addr:street": "Hermann-Voland-Straße", "amenity": "clinic", "building": "yes", "description": "Klinik für Psychotherapie und Seelsorge", "healthcare": "hospital", "name": "Klinik am Doniswald", "phone": "+4977259320", "website": "https://doniswaldklinik.de/"}}, {"name": "Rommel-Klinik", "latitude": 48.7477428, "longitude": 8.5455201, "source": "osm", "_tags": {"addr:city": "Bad Wildbad", "addr:country": "DE", "addr:housenumber": "96", "addr:postcode": "75323", "addr:street": "Bätznerstraße", "amenity": "hospital", "building": "hospital", "healthcare:speciality": "orthopaedics", "name": "Rommel-Klinik", "phone": "+49 7081 171 106", "source": "Bing / Maps4BW, LGL, www.lgl-bw.de", "website": "https://www.rommel-klinik.de/", "wheelchair": "yes"}}, {"name": "MediClin Klinik am Vogelsang", "latitude": 47.9548281, "longitude": 8.4772873, "source": "osm", "_tags": {"addr:city": "Donaueschingen", "addr:country": "DE", "addr:housenumber": "68", "addr:postcode": "78166", "addr:street": "Alte-Wolterdinger-Straße", "amenity": "hospital", "building": "hospital", "contact:website": "https://www.klinik-am-vogelsang.de/", "name": "MediClin Klinik am Vogelsang"}}, {"name": "Reha-Zentrum Schömberg", "latitude": 48.798561, "longitude": 8.6511418, "source": "osm", "_tags": {"alt_name": "Klinik Schwarzwald", "amenity": "hospital", "healthcare": "hospital", "name": "Reha-Zentrum Schömberg", "website": "www.klinik-schwarzwald.de"}}, {"name": "", "latitude": 48.2931394, "longitude": 8.2169162, "source": "osm", "_tags": {"addr:city": "Wolfach", "addr:housenumber": "12-16", "addr:postcode": "77709", "addr:street": "Kreuzbergstraße", "building": "hospital", "healthcare": "hospital"}}, {"name": "Haus am Rödelsberg", "latitude": 48.4551928, "longitude": 8.559499, "source": "osm", "_tags": {"amenity": "hospital", "email": "info@haus-roedelsberg.de", "name": "Haus am Rödelsberg", "operator": "Maier Gruppe", "phone": "+49 7443 96806-0", "website": "https://unternehmensgruppe-maier.de/haeuser/haus-am-roedelsberg/"}}, {"name": "Haus Noeggerath", "latitude": 48.0032963, "longitude": 7.8431276, "source": "osm", "_tags": {"building": "hospital", "building:levels": "1", "healthcare": "hospital", "name": "Haus Noeggerath", "operator": "Universitätsklinikum Freiburg", "roof:shape": "hipped", "short_name": "SPZ", "source": "Bing"}}, {"name": "Haus Kandel", "latitude": 48.0027513, "longitude": 7.84368, "source": "osm", "_tags": {"addr:city": "Freiburg im Breisgau", "addr:housenumber": "1", "addr:postcode": "79106", "addr:street": "Mathildenstraße", "building": "hospital", "building:levels": "2", "healthcare": "hospital", "name": "Haus Kandel", "operator": "Universitätsklinikum Freiburg", "roof:shape": "hipped", "source": "Bing"}}, {"name": "Haus Sonne", "latitude": 48.0035902, "longitude": 7.8438115, "source": "osm", "_tags": {"building": "hospital", "building:levels": "3", "healthcare": "hospital", "name": "Haus Sonne", "operator": "Universitätsklinikum Freiburg", "roof:levels": "1", "roof:shape": "hipped", "source": "Bing"}}, {"name": "Haus Schauinsland", "latitude": 48.0040327, "longitude": 7.8431147, "source": "osm", "_tags": {"building": "hospital", "building:levels": "3", "healthcare": "hospital", "name": "Haus Schauinsland", "operator": "Universitätsklinikum Freiburg", "roof:levels": "1", "roof:shape": "gabled", "source": "Bing"}}, {"name": "Kinderklinik", "latitude": 48.0040115, "longitude": 7.8437315, "source": "osm", "_tags": {"building": "hospital", "building:levels": "2", "healthcare": "hospital", "name": "Kinderklinik", "operator": "Universitätsklinikum Freiburg", "roof:shape": "flat", "source": "Bing"}}, {"name": "Haus Feldberg", "latitude": 48.0037329, "longitude": 7.842512, "source": "osm", "_tags": {"building": "hospital", "building:levels": "3", "healthcare": "hospital", "name": "Haus Feldberg", "operator": "Universitätsklinikum Freiburg"}}, {"name": "Haus Belchen", "latitude": 48.0030171, "longitude": 7.8439614, "source": "osm", "_tags": {"building": "hospital", "building:levels": "2", "healthcare": "hospital", "name": "Haus Belchen", "operator": "Universitätsklinikum Freiburg", "roof:shape": "flat", "source": "Bing"}}, {"name": "Klinikum Mittelbaden Hub", "latitude": 48.6646757, "longitude": 8.135317, "source": "osm", "_tags": {"addr:city": "Ottersweier", "addr:country": "DE", "addr:housenumber": "66", "addr:postcode": "77833", "addr:street": "Hubstraße", "amenity": "hospital", "email": "info.hub@klinikum-mittelbaden.de", "emergency": "no", "name": "Klinikum Mittelbaden Hub", "phone": "+49 7223 810", "website": "https://www.klinikum-mittelbaden.de/de/pflegeangebote/klinikum-mittelbaden-hub/index.php", "wheelchair": "yes", "wikidata": "Q38015842", "wikipedia": "de:Klinikum Mittelbaden Hub"}}, {"name": "Thure-von-Uexküll-Klinik", "latitude": 48.0547463, "longitude": 7.9640344, "source": "osm", "_tags": {"addr:city": "Glottertal", "addr:country": "DE", "addr:housenumber": "2", "addr:postcode": "79286", "addr:street": "Badstraße", "alt_name": "ZDF Schwarzwaldklinik", "amenity": "hospital", "building": "yes", "building:colour": "white", "building:levels": "4", "contact:email": "uexkuell.klinik@kur.org", "contact:phone": "+49768490690", "healthcare": "hospital", "image": "https://commons.wikimedia.org/wiki/File:Klinik_Glotterbad_Schwarzwaldklinik.jpg", "int_name": "Schwarzwaldklinik", "name": "Thure-von-Uexküll-Klinik", "operator": "Kur + Reha GmbH des Paritätischen Wohlfahrtsverbandes Landesverband Baden-Württemberg", "roof:levels": "2", "roof:orientation": "along", "roof:shape": "half-hipped", "source": "Bing", "source:housenumber": "Datenquelle: LGL, www.lgl-bw.de", "tourism": "attraction", "website": "https://www.uexkuell-klinik.de/", "wikimedia_commons": "Category:Carlsbau (Glottertal)"}}, {"name": "", "latitude": 48.09824, "longitude": 7.952007, "source": "osm", "_tags": {"amenity": "hospital"}}, {"name": "", "latitude": 48.6825501, "longitude": 8.3578825, "source": "osm", "_tags": {"addr:city": "Forbach", "addr:country": "DE", "addr:housenumber": "17", "addr:postcode": "76596", "addr:street": "Friedrichstraße", "amenity": "hospital", "building": "hospital", "fax": "+49 7228 2031", "note": "ehemals Kreiskrankenhaus Forbach", "old_name": "Klinikum Mittelbaden Forbach"}}, {"name": "Rheumazentrum", "latitude": 48.7642913, "longitude": 8.2467357, "source": "osm", "_tags": {"addr:city": "Baden-Baden", "addr:country": "DE", "addr:housenumber": "5", "addr:postcode": "76530", "addr:street": "Rotenbachtalstraße", "amenity": "hospital", "building": "yes", "check_date": "2024-03-30", "contact:phone": "+49 7221 352-0", "emergency": "no", "healthcare": "hospital", "name": "Rheumazentrum", "source": "Aerowest", "website": "https://www.acura-kliniken.com/baden-baden/rheumazentrum/"}}, {"name": "Klinikum Mittelbaden Bühl", "latitude": 48.6852209, "longitude": 8.1410833, "source": "osm", "_tags": {"addr:city": "Bühl", "addr:country": "DE", "addr:housenumber": "70", "addr:postcode": "77815", "addr:street": "Robert-Koch-Straße", "amenity": "hospital", "emergency": "yes", "healthcare": "hospital", "name": "Klinikum Mittelbaden Bühl", "old_name": "Kreiskrankenhaus Bühl", "phone": "+49 7223 81-0", "website": "https://www.klinikum-mittelbaden.de/de/kliniken/klinikum-mittelbaden-buehl/index.php", "wheelchair": "yes", "wheelchair:description": "Um zu den Rollstuhl gerechten Aufzüge zu gelangen, muss an der Pforte (Haupteingang) angefragt werden. Die Personen-Aufzüge im Treppenhaus sind nicht Rollstuhl gerecht."}}, {"name": "Psychiatrie", "latitude": 48.0083461, "longitude": 7.8573389, "source": "osm", "_tags": {"addr:city": "Freiburg im Breisgau", "addr:housenumber": "5", "addr:postcode": "79104", "addr:street": "Hauptstraße", "building": "hospital", "building:levels": "4", "healthcare": "hospital", "healthcare:speciality": "psychiatry", "name": "Psychiatrie", "operator": "Universitätsklinikum Freiburg", "roof:levels": "1", "roof:shape": "hipped"}}, {"name": "Klinikum Balg", "latitude": 48.7842943, "longitude": 8.2165185, "source": "osm", "_tags": {"addr:city": "Baden-Baden", "addr:country": "DE", "addr:housenumber": "50", "addr:postcode": "76532", "addr:street": "Balger Straße", "building": "hospital", "building:levels": "6", "email": "info.stadtklinik@klinikum-mittelbaden.de", "emergency": "yes", "fax": "+49 7221 912800", "healthcare": "hospital", "name": "Klinikum Balg", "official_name": "Klinikum Mittelbaden Baden-Baden Balg", "old_name": "Stadtklinik Baden-Baden", "operator": "Klinikum Mittelbaden gGmbH", "operator:wikidata": "Q1774640", "phone": "+49 7221 910", "roof:shape": "flat", "source": "HiRes Aerial Image", "website": "https://www.klinikum-mittelbaden.de/de/kliniken/klinikum-mittelbaden-baden-baden/klinikum-mittelbaden-baden-baden-balg/", "wheelchair": "yes", "wikidata": "Q38110868", "wikipedia": "de:Klinikum Mittelbaden Baden-Baden Balg"}}, {"name": "Schwarzwald-Baar Klinikum", "latitude": 48.0651613, "longitude": 8.4968196, "source": "osm", "_tags": {"amenity": "hospital", "emergency": "yes", "healthcare": "hospital", "healthcare:speciality": "intensive;general;emergency;surgery;dialysis;radiology", "name": "Schwarzwald-Baar Klinikum", "operator": "Schwarzwald-Baar Klinikum Villingen-Schwenningen GmbH", "website": "https://www.sbk-vs.de/", "wikidata": "Q2254434"}}, {"name": "", "latitude": 48.1744944, "longitude": 8.0795961, "source": "osm", "_tags": {"amenity": "hospital", "wheelchair": "yes"}}, {"name": "", "latitude": 48.0927503, "longitude": 8.1888362, "source": "osm", "_tags": {"amenity": "hospital", "healthcare": "hospital", "wheelchair": "yes"}}, {"name": "Klinikum Nordschwarzwald", "latitude": 48.7454956, "longitude": 8.715852, "source": "osm", "_tags": {"addr:city": "Calw", "addr:country": "DE", "addr:place": "Im Lützenhardter Hof", "addr:postcode": "75365", "addr:suburb": "Hirsau", "amenity": "hospital", "barrier": "fence", "contact:email": "info@kn-calw.de", "contact:fax": "+49 7051 586-2700", "contact:phone": "+49 7051 586-0", "contact:website": "https://www.kn-calw.de/", "description": "Zentrum für Psychiatrie Calw - Klinikum Nordschwarzwald", "emergency": "no", "landuse": "residential", "name": "Klinikum Nordschwarzwald", "operator": "Zentren für Psychiatrie in Baden-Württemberg", "wikidata": "Q15823872", "wikipedia": "de:Klinikum Nordschwarzwald"}}, {"name": "Sankt Elisabeth-Krankenhaus", "latitude": 47.9910327, "longitude": 7.8511317, "source": "osm", "_tags": {"addr:city": "Freiburg im Breisgau", "addr:housenumber": "15-17", "addr:postcode": "79098", "addr:street": "Dreisamstraße", "amenity": "hospital", "contact:fax": "+49 761 3887444", "contact:phone": "+49 761 38870", "contact:website": "http://www.rkk-sek.de/index.php?st-elisabeth-krankenhaus", "healthcare": "hospital", "name": "Sankt Elisabeth-Krankenhaus", "operator": "Rkk"}}, {"name": "Friedrich-Husemann-Klinik", "latitude": 47.9682399, "longitude": 7.9964445, "source": "osm", "_tags": {"amenity": "hospital", "healthcare": "hospital", "healthcare:speciality": "psychiatry", "landuse": "residential", "name": "Friedrich-Husemann-Klinik", "operator": "Zentrum für anthroposophische Psychiatrie e.V.", "website": "https://www.friedrich-husemann-klinik.de/"}}, {"name": "", "latitude": 48.0043302, "longitude": 7.8435522, "source": "osm", "_tags": {"building": "hospital", "healthcare": "hospital", "operator": "Universitätsklinikum Freiburg"}}, {"name": "BDH-Klinik Waldkirch gGmbH", "latitude": 48.0980505, "longitude": 7.9521836, "source": "osm", "_tags": {"addr:housenumber": "10", "addr:street": "Heitereweg", "amenity": "hospital", "building": "yes", "emergency": "yes", "healthcare": "hospital", "name": "BDH-Klinik Waldkirch gGmbH", "operator": "BDH Bundesverband Rehabilitation", "phone": "+49 7681 2080"}}, {"name": "MediClin Reha-Zentrum", "latitude": 48.771068, "longitude": 8.3312429, "source": "osm", "_tags": {"amenity": "hospital", "contact:fax": "+49 7224 992410", "contact:phone": "+49 7224 9920", "contact:website": "http://reha-zentrum-gernsbach.de", "emergency": "no", "healthcare": "hospital", "name": "MediClin Reha-Zentrum", "operator": "Mediclin", "operator:wikidata": "Q1916295"}}, {"name": "pzm Physiotherapie Zentrum Mittelbaden", "latitude": 48.7658003, "longitude": 8.2542098, "source": "osm", "_tags": {"addr:city": "Baden-Baden", "addr:country": "DE", "addr:housenumber": "5", "addr:postcode": "76530", "addr:street": "Lilienmattstraße", "amenity": "hospital", "building": "yes", "healthcare": "hospital", "name": "pzm Physiotherapie Zentrum Mittelbaden", "name_official": "Klinikum Mittelbaden Baden-Baden Annaberg", "source": "Maps4BW, LGL, www.lgl-bw.de"}}, {"name": "Sankt Josefskrankenhaus", "latitude": 48.0016989, "longitude": 7.8524318, "source": "osm", "_tags": {"addr:city": "Freiburg im Breisgau", "addr:country": "DE", "addr:housenumber": "1", "addr:postcode": "79104", "addr:street": "Sautierstraße", "amenity": "hospital", "contact:email": "info@rkk-klinikum.de", "contact:fax": "+49 761 2711 2302", "contact:phone": "+49 761 2711 1", "contact:website": "https://rkk-klinikum.de/", "emergency": "yes", "healthcare": "hospital", "name": "Sankt Josefskrankenhaus", "opening_hours": "24/7", "operational_status": "Operational", "operator": "RKK gGmbH", "operator:type": "private/for-profit", "wheelchair": "yes"}}, {"name": "Neurologische Klinik Selzer", "latitude": 48.6046168, "longitude": 8.3584378, "source": "osm", "_tags": {"addr:city": "Baiersbronn", "addr:housenumber": "74", "addr:postcode": "72270", "addr:street": "Schifferstraße", "amenity": "hospital", "building": "hospital", "healthcare": "hospital", "name": "Neurologische Klinik Selzer"}}, {"name": "Ortenau Klinikum Wolfach", "latitude": 48.3031055, "longitude": 8.222656, "source": "osm", "_tags": {"amenity": "hospital", "name": "Ortenau Klinikum Wolfach", "toilets:wheelchair": "yes", "wheelchair": "yes"}}, {"name": "Parkinson-Klinik Wolfach", "latitude": 48.293281, "longitude": 8.217179, "source": "osm", "_tags": {"addr:city": "Wolfach", "addr:housenumber": "12-16", "addr:postcode": "77709", "addr:street": "Kreuzbergstraße", "amenity": "hospital", "healthcare": "hospital", "healthcare:speciality": "Parkinson_'s_disease", "name": "Parkinson-Klinik Wolfach", "operator": "Parkinson-Klinik Ortenau GmbH & Co. KG", "operator:type": "private", "wikidata": "Q16855548"}}, {"name": "Evangelisches Diakoniekrankenhaus Freiburg", "latitude": 48.0237959, "longitude": 7.8151903, "source": "osm", "_tags": {"alt_name": "Diakonissenkrankenhaus", "amenity": "hospital", "check_date": "2024-04-01", "email": "info@diak-fr.de", "emergency": "yes", "healthcare": "hospital", "healthcare:speciality": "gynaecology;surgery;internal", "name": "Evangelisches Diakoniekrankenhaus Freiburg", "phone": "+49 761 1301-01", "website": "https://www.diakoniekrankenhaus-freiburg.de/", "wikidata": "Q50038356"}}, {"name": "Schwarzwald-Baar-Kliniken Donaueschingen", "latitude": 47.9555596, "longitude": 8.4801206, "source": "osm", "_tags": {"amenity": "hospital", "contact:website": "https://www.sbk-vs.de/", "emergency": "yes", "healthcare": "hospital", "name": "Schwarzwald-Baar-Kliniken Donaueschingen", "wheelchair": "yes"}}, {"name": "Földi Klinik", "latitude": 47.9115589, "longitude": 8.1010269, "source": "osm", "_tags": {"amenity": "hospital", "check_date": "2024-05-30", "healthcare": "hospital", "name": "Földi Klinik", "website": "https://www.foeldiklinik.de", "wheelchair": "yes"}}, {"name": "MEDICLIN Herzzentrum Lahr", "latitude": 48.3397909, "longitude": 7.8905512, "source": "osm", "_tags": {"amenity": "hospital", "emergency": "yes", "healthcare": "hospital", "healthcare:speciality": "cardiology", "name": "MEDICLIN Herzzentrum Lahr", "operator": "Mediclin", "operator:wikidata": "Q1916295", "website": "https://www.herzzentrum-lahr.de/", "wheelchair": "yes", "wikidata": "Q23787843"}}, {"name": "Ortenau Klinikum Lahr-Ettenheim", "latitude": 48.3437239, "longitude": 7.8866992, "source": "osm", "_tags": {"amenity": "hospital", "emergency": "yes", "healthcare": "hospital", "name": "Ortenau Klinikum Lahr-Ettenheim", "operator": "Ortenau Klinikum", "toilets:wheelchair": "yes", "wheelchair": "yes", "wikidata": "Q88467260"}}, {"name": "Reha Klinik St. Landelin", "latitude": 48.2167971, "longitude": 7.8203867, "source": "osm", "_tags": {"amenity": "hospital", "healthcare": "rehabilitation", "healthcare:speciality": "behavior", "name": "Reha Klinik St. Landelin", "operator": "AGJ-Fachverbandes für Prävention und Rehabilitation in der Erzdiözese Freiburg e. V"}}, {"name": "Diakonie Kork", "latitude": 48.5667293, "longitude": 7.8657791, "source": "osm", "_tags": {"amenity": "hospital", "healthcare": "hospital", "name": "Diakonie Kork", "phone": "+49 7851 840", "toilets:wheelchair": "yes", "website": "https://www.diakonie-kork.de/", "wheelchair": "yes", "wikidata": "Q50038581", "wikipedia": "de:Epilepsiezentrum_Kork"}}, {"name": "Reha-Fachklinik Haus Renchtal", "latitude": 48.5815979, "longitude": 8.0182379, "source": "osm", "_tags": {"addr:city": "Renchen", "addr:housenumber": "14", "addr:postcode": "77871", "addr:street": "Renchtalstraße", "amenity": "hospital", "emergency": "no", "name": "Reha-Fachklinik Haus Renchtal", "phone": "+49 7843 949113", "website": "https://www.bw-lv.de/de/fachkliniken/fachklinik-haus-renchtal/"}}, {"name": "Centre de Réadaptation Château Walk", "latitude": 48.7932393, "longitude": 7.7691238, "source": "osm", "_tags": {"addr:city": "Haguenau", "addr:housenumber": "1", "addr:postcode": "67500", "addr:street": "Rue du Château Walk", "amenity": "hospital", "healthcare": "hospital", "name": "Centre de Réadaptation Château Walk", "ref:FR:FINESS": "670000249", "type:FR:FINESS": "109"}}, {"name": "SRH Gesundheitszentrum Dobel", "latitude": 48.8013782, "longitude": 8.5034876, "source": "osm", "_tags": {"addr:city": "Dobel", "addr:country": "DE", "addr:housenumber": "49", "addr:postcode": "75335", "addr:street": "Neuenbürger Straße", "amenity": "hospital", "fax": "+497083 747 3617", "healthcare": "hospital", "healthcare:speciality": "oncology;orthopaedics;neurology", "name": "SRH Gesundheitszentrum Dobel", "operator": "SRH Gesundheitszentren Nordschwarzwald GmbH", "phone": "+49 7083 7470", "website": "https://www.gesundheitszentren-nordschwarzwald.de", "wheelchair": "yes"}}, {"name": "Ortenauklinikum Achern", "latitude": 48.6253504, "longitude": 8.0659637, "source": "osm", "_tags": {"addr:city": "Achern", "addr:housenumber": "7", "addr:postcode": "77855", "addr:street": "Josef-Wurzler-Straße", "amenity": "hospital", "email": "verwaltung.ao@ortenau-klinikum.de", "emergency": "yes", "healthcare": "hospital", "name": "Ortenauklinikum Achern", "phone": "+49 7841 7000", "website": "https://achern-oberkirch.ortenau-klinikum.de/", "wheelchair": "yes"}}, {"name": "Centre Médico-Chirurgical et Obstétrical", "latitude": 48.6004476, "longitude": 7.7500196, "source": "osm", "_tags": {"addr:city": "Schiltigheim", "addr:country": "FR", "addr:housenumber": "19", "addr:postcode": "67300", "addr:street": "Rue Louis Pasteur", "alt_name": "C.M.C.O.", "amenity": "hospital", "check_date": "2025-03-25", "fax": "+33388628370", "healthcare": "hospital", "name": "Centre Médico-Chirurgical et Obstétrical", "phone": "+33388628300", "ref:FR:FINESS": "670780113", "ref:FR:SIRET": "26670057400459", "source": "Le ministère des solidarités et de la santé - 2021-01", "type:FR:FINESS": "101"}}, {"name": "Centre Paul Strauss", "latitude": 48.5764092, "longitude": 7.7510095, "source": "osm", "_tags": {"addr:city": "Strasbourg", "addr:country": "FR", "addr:housenumber": "3", "addr:postcode": "67065", "addr:street": "Rue de la Porte de l'Hôpital", "amenity": "hospital", "healthcare": "hospital", "name": "Centre Paul Strauss", "ref:FR:FINESS": "670000033", "type:FR:FINESS": "131", "website": "https://www.centre-paul-strauss.fr/", "wikidata": "Q89798279"}}, {"name": "Clinique de l'Orangerie", "latitude": 48.5881667, "longitude": 7.7647546, "source": "osm", "_tags": {"addr:city": "Strasbourg", "addr:country": "FR", "addr:housenumber": "29", "addr:postcode": "67000", "addr:street": "Allée de la Robertsau", "amenity": "hospital", "check_date": "2024-08-20", "healthcare": "hospital", "name": "Clinique de l'Orangerie", "ref:FR:FINESS": "670780170", "type:FR:FINESS": "365"}}, {"name": "Hallwang Clinic", "latitude": 48.4899872, "longitude": 8.5017389, "source": "osm", "_tags": {"addr:city": "Dornstetten", "addr:country": "DE", "addr:housenumber": "34", "addr:postcode": "72280", "addr:street": "Silberwaldstraße", "addr:suburb": "Hallwangen", "amenity": "hospital", "name": "Hallwang Clinic", "website": "https://www.hallwang-clinic.com/de", "wikidata": "Q62360128"}}, {"name": "Klinikum Freudenstadt", "latitude": 48.4760881, "longitude": 8.4053324, "source": "osm", "_tags": {"addr:city": "Freudenstadt", "addr:housenumber": "100", "addr:postcode": "72250", "addr:street": "Karl-von-Hahn-Straße", "amenity": "hospital", "building": "construction", "check_date": "2023-02-25", "emergency": "yes", "healthcare": "hospital", "healthcare:speciality": "psychiatry;paediatrics;orthopaedics;gynaecology;emergency;intensive;radiology;surgery;cardiology;oncology;internal;anaesthetics;gastroenterology;trauma", "name": "Klinikum Freudenstadt", "operator": "Landkreis Freudenstadt"}}, {"name": "Rehaklinik Feldberg für Mutter-Vater-Kind", "latitude": 47.8561694, "longitude": 8.1120681, "source": "osm", "_tags": {"addr:city": "Feldberg", "addr:country": "DE", "addr:housenumber": "2", "addr:postcode": "79868", "addr:street": "Falkauer Straße", "addr:suburb": "Altglashütten", "amenity": "hospital", "health_facility:type": "rehabilitation", "healthcare": "hospital", "name": "Rehaklinik Feldberg für Mutter-Vater-Kind", "website": "https://www.kur.org/kliniken/klinik-feldberg.html", "wheelchair": "limited"}}, {"name": "Mediclin Schlüsselbad Klinik", "latitude": 48.4296604, "longitude": 8.2054716, "source": "osm", "_tags": {"amenity": "hospital", "healthcare": "hospital", "healthcare:speciality": "orthopaedics;geriatrics", "name": "Mediclin Schlüsselbad Klinik", "operator": "Mediclin", "operator:type": "private", "operator:wikidata": "Q1916295", "phone": "+49 7806 860", "website": "https://www.schluesselbad-klinik.de/"}}, {"name": "Kinderklinik Schömberg", "latitude": 48.7921829, "longitude": 8.6473541, "source": "osm", "_tags": {"addr:city": "Schömberg", "addr:country": "DE", "addr:housenumber": "7", "addr:postcode": "75328", "addr:street": "Römerweg", "addr:suburb": "Schömberg", "amenity": "hospital", "healthcare": "hospital", "name": "Kinderklinik Schömberg", "toilets:wheelchair": "yes", "website": "http://www.kiklisch.de", "wheelchair": "yes"}}, {"name": "", "latitude": 48.4765074, "longitude": 7.9562046, "source": "osm", "_tags": {"amenity": "hospital", "healthcare": "hospital"}}, {"name": "Paracelsus-Krankenhaus", "latitude": 48.7817234, "longitude": 8.723877, "source": "osm", "_tags": {"amenity": "hospital", "healthcare": "hospital", "name": "Paracelsus-Krankenhaus"}}, {"name": "", "latitude": 48.1251202, "longitude": 7.8560276, "source": "osm", "_tags": {"amenity": "hospital", "healthcare": "hospital"}}, {"name": "Celenus Klinik Kinzigtal", "latitude": 48.4126652, "longitude": 8.0184914, "source": "osm", "_tags": {"addr:city": "Gengenbach", "addr:housenumber": "12", "addr:postcode": "77723", "addr:street": "Wolfsweg", "amenity": "hospital", "contact:facebook": "celenusklinikkinzigtal", "email": "info@klinik-kinzigtal.de", "emergency": "no", "fax": "+49 7803 1651", "healthcare": "clinic", "healthcare:speciality": "psychiatry", "name": "Celenus Klinik Kinzigtal", "phone": "+49 7803 8080", "toilets:wheelchair": "yes", "website": "https://www.klinik-kinzigtal.de/", "wheelchair": "yes"}}, {"name": "cts-Klinik Schloßberg", "latitude": 48.7790524, "longitude": 8.728919, "source": "osm", "_tags": {"addr:city": "Bad Liebenzell", "addr:housenumber": "47", "addr:postcode": "75378", "addr:street": "Hindenburgstraße", "amenity": "hospital", "email": "info-bl@cts-reha-bw.de", "fax": "+497052509111", "healthcare": "hospital", "name": "cts-Klinik Schloßberg", "note": "Die cts Rehakliniken Baden-Württemberg sind Teil des Verbundes der Caritas Trägergesellschaft Saarbrücken mbH (cts). Die cts ist ein großer konfessioneller Träger mit 34 Einrichtungen im Saarland, Rheinland-Pfalz und Baden-Württemberg und beschäftigt aktu", "operator": "cts Rehakliniken Baden-Württemberg GmbH", "operator:type": "religious", "operator:wikidata": "Q1036345", "phone": "+4970525090", "website": "https://www.cts-reha-bw.de/kliniken/bad-liebenzell/"}}, {"name": "", "latitude": 48.7762075, "longitude": 8.2743765, "source": "osm", "_tags": {"amenity": "hospital", "healthcare": "hospital"}}, {"name": "", "latitude": 48.7479399, "longitude": 8.2439177, "source": "osm", "_tags": {"amenity": "hospital", "healthcare": "hospital"}}, {"name": "NEXUS-Klinik Baden-Baden", "latitude": 48.7485892, "longitude": 8.2184347, "source": "osm", "_tags": {"addr:city": "Baden-Baden", "addr:housenumber": "80", "addr:postcode": "76530", "addr:street": "Hermann-Sielcken-Straße", "amenity": "hospital", "healthcare": "hospital", "name": "NEXUS-Klinik Baden-Baden", "website": "https://www.nexusklinik.de"}}, {"name": "", "latitude": 48.7644972, "longitude": 8.2345116, "source": "osm", "_tags": {"amenity": "hospital", "healthcare": "hospital"}}, {"name": "Klinikum Balg", "latitude": 48.7848348, "longitude": 8.2163815, "source": "osm", "_tags": {"amenity": "hospital", "healthcare": "hospital", "name": "Klinikum Balg", "wheelchair": "yes"}}, {"name": "Acura Kliniken", "latitude": 48.7642484, "longitude": 8.2468016, "source": "osm", "_tags": {"amenity": "hospital", "healthcare": "hospital", "name": "Acura Kliniken"}}, {"name": "Helios Klinik Titisee-Neustadt", "latitude": 47.925835, "longitude": 8.1870965, "source": "osm", "_tags": {"addr:city": "Titisee-Neustadt", "addr:housenumber": "12", "addr:postcode": "79822", "addr:street": "Jostalstraße", "amenity": "hospital", "emergency": "yes", "healthcare": "hospital", "name": "Helios Klinik Titisee-Neustadt", "operator": "Helios Kliniken", "operator:type": "private", "operator:wikidata": "Q1254151", "phone": "+49 7651 290", "website": "https://www.helios-gesundheit.de/titisee"}}, {"name": "", "latitude": 48.8013294, "longitude": 8.435923, "source": "osm", "_tags": {"amenity": "hospital", "healthcare": "hospital"}}, {"name": "Nouvel Hôpital Civil", "latitude": 48.5752252, "longitude": 7.7409899, "source": "osm", "_tags": {"addr:housename": "Nouvel hôpital civil", "addr:street": "Quai Menachem Taffel", "building": "hospital", "building:colour": "gray", "building:levels": "6", "building:material": "metal", "emergency": "yes", "healthcare": "hospital", "healthcare:speciality": "intensive", "name": "Nouvel Hôpital Civil", "operator:type": "public", "short_name": "NHC", "source": "cadastre-dgi-fr source : Direction Générale des Impôts - Cadastre;mise à jour : 2009", "type": "multipolygon", "wikidata": "Q3345109", "wikipedia": "fr:Nouvel Hôpital civil"}}, {"name": "Klinik für Dermatologie und Venerologie", "latitude": 48.0082021, "longitude": 7.8589591, "source": "osm", "_tags": {"addr:city": "Freiburg im Breisgau", "addr:housenumber": "7", "addr:postcode": "79104", "addr:street": "Hauptstraße", "alt_name": "Hautklinik", "amenity": "hospital", "healthcare": "hospital", "healthcare:speciality": "dermatology;venereology", "name": "Klinik für Dermatologie und Venerologie", "operator": "Universitätsklinikum Freiburg", "toilets:wheelchair": "yes", "type": "multipolygon", "wheelchair": "yes", "wikidata": "Q101837175"}}, {"name": "Klinik für Psychiatrie und Psychotherapie", "latitude": 48.0075812, "longitude": 7.8570823, "source": "osm", "_tags": {"addr:city": "Freiburg im Breisgau", "addr:housenumber": "5", "addr:postcode": "79104", "addr:street": "Hauptstraße", "amenity": "hospital", "fixme": "incomplete", "healthcare": "hospital", "name": "Klinik für Psychiatrie und Psychotherapie", "operator": "Universitätsklinikum Freiburg", "type": "multipolygon"}}, {"name": "Psychiatrie und Psychotherapie", "latitude": 48.0083192, "longitude": 7.8573391, "source": "osm", "_tags": {"addr:city": "Freiburg im Breisgau", "addr:housenumber": "5", "addr:postcode": "79104", "addr:street": "Hauptstraße", "amenity": "hospital", "fixme": "incomplete", "name": "Psychiatrie und Psychotherapie", "site": "hospital", "type": "site"}}, {"name": "Katharinenhöhe", "latitude": 48.0927113, "longitude": 8.1888676, "source": "osm", "_tags": {"amenity": "hospital", "name": "Katharinenhöhe", "phone": "+49 7723 65030", "type": "site", "website": "https://www.katharinenhoehe.de/"}}, {"name": "HELIOS Klinik Rottweil", "latitude": 48.1654458, "longitude": 8.6123458, "source": "osm", "_tags": {"addr:city": "Rottweil", "addr:country": "DE", "addr:housenumber": "30", "addr:postcode": "78628", "addr:street": "Krankenhausstraße", "amenity": "hospital", "building": "hospital", "emergency": "yes", "healthcare": "hospital", "healthcare:speciality": "emergency;intensive;surgery;internal;gynaecology;radiology", "name": "HELIOS Klinik Rottweil", "operator": "Helios Kliniken", "operator:type": "private", "operator:wikidata": "Q1254151", "operator:wikipedia": "de:Helios Kliniken", "roof:material": "concrete", "roof:shape": "flat", "type": "multipolygon", "website": "http://www.helios-kliniken.de/klinik/rottweil.html"}}, {"name": "Ortenau Klinikum Offenburg-Kehl", "latitude": 48.5677063, "longitude": 7.811834, "source": "osm", "_tags": {"addr:city": "Kehl", "addr:country": "DE", "addr:housenumber": "2", "addr:postcode": "77694", "addr:street": "Kanzmattstraße", "amenity": "hospital", "building": "yes", "emergency": "yes", "healthcare": "hospital", "name": "Ortenau Klinikum Offenburg-Kehl", "phone": "+49 7851 8730", "source": "LGL-BW", "type": "multipolygon", "website": "https://offenburg-kehl.ortenau-klinikum.de/", "wheelchair": "yes"}}, {"name": "Vinzenz von Paul Hospital", "latitude": 48.149497, "longitude": 8.6344904, "source": "osm", "_tags": {"alt_name": "Rottenmünster", "amenity": "hospital", "contact:email": "info@vvph.de", "contact:fax": "+49 741 241-2265", "contact:phone": "+49 741 241-0", "contact:website": "http://www.vvph.de/", "emergency": "yes", "healthcare": "hospital", "leisure": "park", "name": "Vinzenz von Paul Hospital", "official_name": "Vinzenz von Paul Hospital gGmbH", "operator": "Genossenschaft der Barmherzigen Schwestern vom hl. Vinzenz von Paul in Untermarchtal e.V.", "type": "multipolygon", "wikidata": "Q2527339", "wikipedia": "de:Vinzenz von Paul-Hospital"}}, {"name": "Universitätsklinikum Freiburg", "latitude": 48.006101, "longitude": 7.844759, "source": "osm", "_tags": {"amenity": "hospital", "contact:website": "https://www.uniklinik-freiburg.de/de.html", "emergency": "yes", "healthcare": "hospital", "name": "Universitätsklinikum Freiburg", "name:de": "Universitätsklinikum Freiburg", "name:gsw": "Universitätsklinikum Friburg", "name:ru": "Университетская клиника Фрайбурга", "operator": "Universitätsklinikum Freiburg", "type": "multipolygon", "wikidata": "Q127773", "wikipedia": "de:Universitätsklinikum Freiburg"}}, {"name": "Interdisziplinäres Tumorzentrum", "latitude": 48.0054903, "longitude": 7.840375, "source": "osm", "_tags": {"addr:housenumber": "53", "addr:street": "Hugstetter Straße", "building": "hospital", "building:levels": "5", "check_date": "2022-08-15", "healthcare": "hospital", "healthcare:speciality": "oncology;thoracic_surgery", "name": "Interdisziplinäres Tumorzentrum", "operator": "Universitätsklinikum Freiburg", "roof:shape": "flat", "short_name": "UTZ", "type": "multipolygon", "website": "https://www.uniklinik-freiburg.de/interdisziplinaeres-tumorzentrum-itz.html", "wheelchair": "yes"}}, {"name": "Kinder- und Jugendklinik", "latitude": 48.0051237, "longitude": 7.8366198, "source": "osm", "_tags": {"addr:city": "Freiburg im Breisgau", "addr:housenumber": "62", "addr:postcode": "79106", "addr:street": "Breisacher Straße", "architect": "Albert Wimmer, Wien", "architect:website": "https://www.awimmer.at/", "building": "hospital", "building:levels": "4", "check_date": "2024-09-21", "contact:fax": "+49 761 270 96 43000", "contact:phone": "+49 761 270 43000", "contact:website": "https://www.uniklinik-freiburg.de/kinderklinik.html", "healthcare": "hospital", "healthcare:speciality": "paediatrics;paediatric_surgery", "name": "Kinder- und Jugendklinik", "roof:levels": "0", "roof:shape": "flat", "short_name": "KJK", "start_date": "2024-09-11", "type": "multipolygon"}}, {"name": "MEDICLIN Klinik an der Lindenhöhe", "latitude": 48.4796176, "longitude": 7.9560549, "source": "osm", "_tags": {"addr:city": "Offenburg", "addr:country": "DE", "addr:housenumber": "1", "addr:postcode": "77654", "addr:street": "Bertha-von-Suttner-Straße", "amenity": "hospital", "building": "yes", "description": "Es handelt sich um eine rein psychiatrisch, psychosomatisch und psychotherapeutisch ausgerichtete Klinik. Allgemeine medizinische Notfälle können hier nicht betreut werden.", "emergency": "yes", "healthcare": "hospital", "leisure": "sports_centre", "name": "MEDICLIN Klinik an der Lindenhöhe", "operator": "Mediclin", "operator:type": "private", "operator:wikidata": "Q1916295", "phone": "078191920", "sport": "multi", "toilets:wheelchair": "yes", "type": "multipolygon", "website": "https://www.klinik-lindenhoehe.de/", "wheelchair": "yes"}}, {"name": "St. Josefsklinik", "latitude": 48.4687689, "longitude": 7.9665226, "source": "osm", "_tags": {"addr:city": "Offenburg", "addr:housenumber": "70", "addr:postcode": "77654", "addr:street": "Weingartenstraße", "amenity": "hospital", "emergency": "no", "healthcare": "hospital", "healthcare:speciality": "oncology", "name": "St. Josefsklinik", "phone": "+ 49 781 472 0", "toilets:wheelchair": "yes", "type": "multipolygon", "wheelchair": "yes", "wikidata": "Q119046636"}}]