[{"name": "Centre hospitalier Centre Bretagne", "latitude": 48.1790585, "longitude": -2.7541384, "source": "osm", "_tags": {"amenity": "hospital", "healthcare": "hospital", "name": "Centre hospitalier Centre Bretagne", "name:br": "Pennospital Kreiz-Breizh", "operator:type": "public", "phone": "+33 2 96 25 32 25", "ref:FR:FINESS": "220000483", "source:name:br": "ofis publik ar brezhoneg", "type:FR:FINESS": "355", "website": "https://www.ch-centre-bretagne.fr/"}}, {"name": "Hôpital de jour pour adolescents L'Olivier", "latitude": 48.5006474, "longitude": -2.7537467, "source": "osm", "_tags": {"amenity": "hospital", "contact:city": "Saint-Brieuc", "contact:housenumber": "23", "contact:postcode": "22000", "contact:street": "Rue Georges Palante", "healthcare": "hospital", "healthcare:for": "teen", "name": "Hôpital de jour pour adolescents L'Olivier", "ref:FR:FINESS": "220019574", "ref:FR:NAF": "8610Z", "ref:FR:SIRET": "75331332900132", "type:FR:FINESS": "292"}}, {"name": "Centre Benoit Menni - Fondation St Jean de Dieu", "latitude": 48.4999359, "longitude": -2.7520586, "source": "osm", "_tags": {"addr:city": "Saint-Brieuc", "addr:housenumber": "8", "addr:postcode": "22000", "addr:street": "Rue Charles Pradal", "amenity": "hospital", "check_date": "2025-04-27", "contact:city": "Saint-Brieuc", "contact:housenumber": "8", "contact:phone": "+33 2 96 77 27 17", "contact:postcode": "22000", "contact:street": "Rue Charles Pradal", "healthcare": "hospital", "healthcare:speciality": "psychiatry", "name": "Centre Benoit Menni - Fondation St Jean de Dieu", "operator": "Fondation Saint Jean de Dieu", "operator:type": "private", "ref:FR:FINESS": "220018402", "ref:FR:NAF": "8610Z", "ref:FR:SIRET": "75331332900165", "type:FR:FINESS": "292"}}, {"name": "Service Henri Garnier", "latitude": 48.2408706, "longitude": -3.2513395, "source": "osm", "_tags": {"addr:city": "Plouguernével", "addr:housenumber": "3", "addr:postcode": "22110", "addr:street": "Rue de la Gare", "amenity": "hospital", "description": "Située sur le site du Centre Hospitalier de Plouguernével, l’unité de Médecine du Service Henri Garnier complète l’offre hospitalière existante, spécialisée et qualifiée de proximité.", "emergency": "no", "healthcare": "clinic", "name": "Service Henri Garnier", "phone": "02 96 57 12 31", "website": "https://www.ahbretagne.com/usagers-proches/soins-et-hospitalisations/geriatrie/medecine/"}}, {"name": "CMP Saint-Brieuc Maria Estrella", "latitude": 48.4957811, "longitude": -2.7450507, "source": "osm", "_tags": {"addr:city": "Saint-Brieuc", "addr:housenumber": "19", "addr:postcode": "22000", "addr:street": "Rue des Gallois", "amenity": "hospital", "healthcare": "hospital", "healthcare:speciality": "psychiatry", "name": "CMP Saint-Brieuc Maria Estrella", "operator": "Fondation Saint Jean de Dieu"}}, {"name": "CMPEA Saint-Brieuc Maria Estrella", "latitude": 48.4959853, "longitude": -2.7447549, "source": "osm", "_tags": {"addr:city": "Saint-Brieuc", "addr:housenumber": "19", "addr:postcode": "22000", "addr:street": "Rue des Gallois", "amenity": "hospital", "healthcare": "hospital", "healthcare:speciality": "psychiatry", "name": "CMPEA Saint-Brieuc Maria Estrella", "operator": "Fondation Saint Jean de Dieu"}}, {"name": "CRP Saint-Brieuc - Fondation St Jean de Dieu", "latitude": 48.5170325, "longitude": -2.7690581, "source": "osm", "_tags": {"addr:city": "Saint-Brieuc", "addr:housenumber": "7", "addr:postcode": "22000", "addr:street": "Rue Jean XXIII", "amenity": "hospital", "healthcare": "hospital", "healthcare:speciality": "psychiatry", "name": "CRP Saint-Brieuc - Fondation St Jean de Dieu", "operator": "Fondation St Jean de Dieu"}}, {"name": "CMP Lamballe", "latitude": 48.4706385, "longitude": -2.516266, "source": "osm", "_tags": {"addr:city": "Lamballe-Armor", "addr:housenumber": "20", "addr:postcode": "22400", "addr:street": "Place du Champ de Foire", "amenity": "hospital", "healthcare": "hospital", "healthcare:speciality": "psychiatry", "name": "CMP Lamballe", "operator": "Fondation Saint Jean de Dieu"}}, {"name": "CMPEA Lamballe", "latitude": 48.4706191, "longitude": -2.5162229, "source": "osm", "_tags": {"addr:city": "Lamballe-Armor", "addr:housenumber": "20", "addr:postcode": "22400", "addr:street": "Place du Champ de Foire", "amenity": "hospital", "healthcare": "hospital", "healthcare:speciality": "psychiatry", "name": "CMPEA Lamballe", "operator": "Fondation Saint Jean de Dieu"}}, {"name": "CMPEA Saint-Brieuc Maria Estrella", "latitude": 48.4960363, "longitude": -2.7448033, "source": "osm", "_tags": {"addr:city": "Saint-Brieuc", "addr:housenumber": "19", "addr:postcode": "22000", "addr:street": "Rue des Gallois", "amenity": "hospital", "healthcare": "hospital", "healthcare:speciality": "psychiatry", "name": "CMPEA Saint-Brieuc Maria Estrella", "operator": "Fondation Saint Jean de Dieu", "source": "cadastre-dgi-fr source : Direction Générale des Impôts - Cadastre. Mise à jour : 2010"}}, {"name": "CMP Maria Estrella", "latitude": 48.4959026, "longitude": -2.7450295, "source": "osm", "_tags": {"addr:city": "Saint-Brieuc", "addr:housenumber": "19", "addr:postcode": "22000", "addr:street": "Rue des Gallois", "amenity": "hospital", "emergency": "no", "healthcare": "hospital", "healthcare:speciality": "psychiatry", "name": "CMP Maria Estrella", "operator": "Fondation Saint Jean de Dieu", "source": "cadastre-dgi-fr source : Direction Générale des Impôts - Cadastre. Mise à jour : 2010"}}, {"name": "Hôpital Psychiatrique de Plouguernevel", "latitude": 48.241631, "longitude": -3.2549718, "source": "osm", "_tags": {"amenity": "hospital", "emergency": "no", "healthcare": "hospital", "name": "Hôpital Psychiatrique de Plouguernevel", "name:br": "Bredospital Plougernevel", "ref:FR:FINESS": "220000236", "source:name:br": "proper translation", "type:FR:FINESS": "292", "wikidata": "Q16507360"}}, {"name": "Centre hospitalier de Guingamp", "latitude": 48.567396, "longitude": -3.1454255, "source": "osm", "_tags": {"amenity": "hospital", "emergency": "yes", "fax": "+33 2 96 44 56 56", "healthcare": "hospital", "name": "Centre hospitalier de Guingamp", "operator:type": "public", "phone": "+33 2 96 44 56 56", "ref:FR:FINESS": "220000343", "type:FR:FINESS": "355", "website": "http://www.ch-guingamp.fr/"}}, {"name": "Centre hospitalier de Tréguier", "latitude": 48.7806497, "longitude": -3.2347922, "source": "osm", "_tags": {"amenity": "hospital", "healthcare": "hospital", "name": "Centre hospitalier de Tréguier", "ref:FR:FINESS": "220001259", "source": "Le ministère des solidarités et de la santé - 03/2019", "type:FR:FINESS": "355", "website": "http://www.ch-treguier.fr/", "wheelchair": "yes"}}, {"name": "Centre hospitalier de Penthièvre CH2P", "latitude": 48.4695029, "longitude": -2.5204793, "source": "osm", "_tags": {"addr:city": "Lamballe", "addr:housenumber": "13", "addr:postcode": "22400", "addr:street": "Rue du Jeu de Paume", "amenity": "hospital", "healthcare": "hospital", "name": "Centre hospitalier de Penthièvre CH2P", "ref:FR:FINESS": "220000566", "source": "Le ministère des solidarités et de la santé - 03/2019", "type:FR:FINESS": "355"}}, {"name": "Centre hospitalier Yves Le Foll", "latitude": 48.4921293, "longitude": -2.750424, "source": "osm", "_tags": {"amenity": "hospital", "check_date": "2025-06-15", "emergency": "yes", "fax": "+33 2 96 01 71 11", "healthcare": "hospital", "healthcare:speciality": "intensive", "name": "Centre hospitalier Yves Le Foll", "name:br": "Pennospital Yves ar Foll", "operator:type": "public", "phone": "+33 2 96 01 71 23", "ref:FR:FINESS": "220000012", "source:geometry": "source=cadastre-dgi-fr source : Direction Générale des Impôts - Cadastre. Mise à jour : 2020", "source:name:br": "proper translation", "type:FR:FINESS": "355", "website": "https://www.ch-stbrieuc.fr/"}}, {"name": "Centre hospitalier Alphonse Guérin", "latitude": 47.9350691, "longitude": -2.3942843, "source": "osm", "_tags": {"addr:city": "Ploërmel", "addr:housenumber": "7", "addr:postcode": "56800", "addr:street": "Rue du Roi Arthur", "amenity": "hospital", "emergency": "yes", "fax": "+33 2 97 73 26 27", "healthcare": "hospital", "name": "Centre hospitalier Alphonse Guérin", "name:br": "Pennospital Alphonse Guérin", "operator:type": "public", "phone": "+33 2 97 73 26 26", "ref:FR:FINESS": "560000192", "source:name:br": "proper translation", "type:FR:FINESS": "355", "website": "https://www.ch-ploermel.fr/cht/actualites.php"}}, {"name": "Centre hospitalier du Centre-Bretagne", "latitude": 48.0867737, "longitude": -2.9121843, "source": "osm", "_tags": {"addr:city": "Noyal-Pontivy", "addr:place": "Kério", "addr:postcode": "56920", "amenity": "hospital", "emergency": "yes", "fax": "+33 2 97 28 40 00", "healthcare": "hospital", "name": "Centre hospitalier du Centre-Bretagne", "phone": "+33 2 97 79 00 00", "ref:FR:FINESS": "560000143", "type:FR:FINESS": "355", "website": "https://www.ch-centre-bretagne.fr/", "wikidata": "Q16507354"}}, {"name": "Centre hospitalier Max Querrien", "latitude": 48.7732286, "longitude": -3.0340223, "source": "osm", "_tags": {"addr:city": "Paimpol", "addr:housename": "CH Max Querrien", "addr:housenumber": "36", "addr:postcode": "22500", "addr:street": "Chemin de Kerpuns", "amenity": "hospital", "emergency": "yes", "healthcare": "hospital", "name": "Centre hospitalier Max Querrien", "operator:type": "public", "ref:FR:FINESS": "220000541", "source": "cadastre-dgi-fr source : Direction Générale des Impôts - Cadastre. Mise à jour : 2012", "type:FR:FINESS": "355"}}, {"name": "Centre Hospitalier du Penthièvre & du Poudouvre", "latitude": 48.4077597, "longitude": -2.9151269, "source": "osm", "_tags": {"addr:housenumber": "8", "addr:street": "Rue de la Corderie", "amenity": "hospital", "healthcare": "hospital", "name": "Centre Hospitalier du Penthièvre & du Poudouvre", "name:br": "Ospital Kintin", "phone": "02 96 79 66 66", "ref:FR:FINESS": "220000574", "type:FR:FINESS": "355", "website": "http://www.ch2p.bzh/"}}, {"name": "Centre hospitalier du Centre Bretagne - Centre de rééducation fonctionnelle", "latitude": 48.170692, "longitude": -2.5976865, "source": "osm", "_tags": {"amenity": "hospital", "healthcare": "hospital", "name": "Centre hospitalier du Centre Bretagne - Centre de rééducation fonctionnelle", "name:br": "Pennospital Kreiz Breizh", "ref:FR:FINESS": "220000194", "type:FR:FINESS": "355"}}, {"name": "Hôpital Privé des Côtes d'Armor", "latitude": 48.548163, "longitude": -2.7882703, "source": "osm", "_tags": {"amenity": "hospital", "contact:website": "http://www.hopitalprive22.fr/", "healthcare": "hospital", "name": "Hôpital Privé des Côtes d'Armor", "name:br": "Ospital prevez Aodoù-an-Arvor", "ref:FR:FINESS": "220022800", "source:name:br": "proper translation", "type:FR:FINESS": "365"}}, {"name": "Centre hospitalier de Josselin", "latitude": 47.957959, "longitude": -2.5479063, "source": "osm", "_tags": {"amenity": "hospital", "fax": "+33 2 97 73 13 59", "name": "Centre hospitalier de Josselin", "name:br": "Pennospital Josilin", "note": "Reconstruction du CH entre mi 2019 et mi 2022 #hopital", "operator:type": "public", "phone": "+33 2 97 73 13 13", "ref:FR:FINESS": "560000283", "source:name:br": "proper translation", "type:FR:FINESS": "106", "wikidata": "Q20971064"}}, {"name": "Clinique de la Cerisaie", "latitude": 48.4758135, "longitude": -2.73241, "source": "osm", "_tags": {"addr:housenumber": "53", "addr:street": "Rue de l'Atlantique", "amenity": "hospital", "healthcare": "hospital", "healthcare:speciality": "psychiatry", "name": "Clinique de la Cerisaie", "phone": "+33 2 96 71 31 00", "ref:FR:FINESS": "220000319", "source": "cadastre-dgi-fr source : Direction Générale des Impôts - Cadastre. Mise à jour : 2012", "type:FR:FINESS": "161", "website": "http://www.cliniquelacerisaie.com/"}}, {"name": "Centre Benoit Menni - Fondation St Jean de Dieu", "latitude": 48.5001338, "longitude": -2.7527037, "source": "osm", "_tags": {"addr:city": "Saint-Brieuc", "addr:housenumber": "8", "addr:postcode": "22000", "addr:street": "Rue Charles Pradal", "amenity": "hospital", "healthcare": "hospital", "name": "Centre Benoit Menni - Fondation St Jean de Dieu", "operator": "Fondation Saint Jean de Dieu", "operator:type": "private", "source": "cadastre-dgi-fr source : Direction Générale des Impôts - Cadastre. Mise à jour : 2020", "website": "https://www.chdinanstbrieuc.fsjd.fr/pages/pole-de-saint-brieuc"}}, {"name": "Altygo Soins de Suite", "latitude": 48.546307, "longitude": -2.7257326, "source": "osm", "_tags": {"amenity": "hospital", "name": "Altygo Soins de Suite", "name:br": "Altygo Prederioù Heuliañ", "note": "Réadaptation Pédiatrique,Institut d'éducation motrice,enfants et adolescents Polyhandicapés", "source:name:br": "proper translation"}}, {"name": "Hôpital Alfred Brard", "latitude": 48.0689147, "longitude": -3.1991818, "source": "osm", "_tags": {"alt_name": "Centre hospitalier de Guémené-sur-Scorff", "amenity": "hospital", "healthcare": "hospital", "name": "Hôpital Alfred Brard", "ref:FR:FINESS": "560000366", "source": "Le ministère des solidarités et de la santé - 08/2018", "type:FR:FINESS": "106", "wikidata": "Q92062661"}}, {"name": "Centre Hospitalier Alfred Brard;MAS Les Bruyères", "latitude": 48.0725798, "longitude": -3.2003061, "source": "osm", "_tags": {"addr:city": "Guémené-sur-Scorff", "addr:housenumber": "80 ter", "addr:postcode": "56160", "addr:street": "Rue Émile Mazé", "amenity": "hospital", "healthcare": "hospital", "name": "Centre Hospitalier Alfred Brard;MAS Les Bruyères", "operator": "Groupement Hospitalier du Centre Bretagne", "operator:type": "public", "type": "multipolygon", "website": "https://www.ch-centre-bretagne.fr/secteur-sanitaire-ch-a-brard/"}}]