[{"name": "Clinalliance Fontenay-aux-Roses", "latitude": 48.7863537, "longitude": 2.2917115, "source": "osm", "_tags": {"amenity": "hospital", "name": "Clinalliance Fontenay-aux-Roses", "ref:FR:FINESS": "920300381", "website": "https://www.clinalliance.fr/fontenay/"}}, {"name": "Centre Hospitalier Intercommunal Lucie et Raymond Aubrac", "latitude": 48.7222771, "longitude": 2.4525995, "source": "osm", "_tags": {"addr:city": "Villeneuve-Saint-Georges", "addr:housenumber": "40", "addr:postcode": "94190", "addr:street": "Allée de la Source", "amenity": "hospital", "description": "Hôpital : Paratonnerre : Base - Point vu en place en 2006", "ele": "107.43", "healthcare": "hospital", "name": "Centre Hospitalier Intercommunal Lucie et Raymond Aubrac", "note": "Ne pas déplacer ce point, cf. - Do not move this node, see - http://wiki.openstreetmap.org/wiki/WikiProject_France/Repères_Géodésiques#Permanence_des_rep.C3.A8res", "ref": "94078A - 1", "source": "©IGN 2010 dans le cadre de la cartographie réglementaire", "url": "http://geodesie.ign.fr/fiches/index.php?module=e&action=fichepdf&source=carte&sit_no=94078A"}}, {"name": "Clinique du Plateau", "latitude": 48.7904711, "longitude": 2.2617123, "source": "osm", "_tags": {"amenity": "hospital", "check_date": "2024-11-12", "emergency": "no", "fax": "+33146306323", "healthcare": "yes", "name": "Clinique du Plateau", "phone": "+33141281088", "ref:FR:FINESS": "920300266", "ref:FR:SIRET": "77569138900032", "source": "Le ministère des solidarités et de la santé - 03/2019", "type:FR:FINESS": "128"}}, {"name": "Hôpital des Cheminots", "latitude": 48.6648299, "longitude": 2.4218455, "source": "osm", "_tags": {"amenity": "hospital", "healthcare": "hospital", "name": "Hôpital des Cheminots", "ref:FR:FINESS": "910150085", "type:FR:FINESS": "129"}}, {"name": "Pole Femme Enfant", "latitude": 48.7220748, "longitude": 2.4519067, "source": "osm", "_tags": {"contact:website": "https://chiv.fr/offre-de-soins/femme-enfant/", "healthcare": "hospital", "healthcare:speciality": "gynaecology;paediatrics", "name": "Pole Femme Enfant"}}, {"name": "Hôpital de Jour Bleuler", "latitude": 48.8108048, "longitude": 2.1338697, "source": "osm", "_tags": {"amenity": "hospital", "healthcare": "hospital", "name": "Hôpital de Jour Bleuler", "ref:FR:FINESS": "780022703", "source": "Le ministère des solidarités et de la santé - 10/2018"}}, {"name": "Centre hospitalier de Perray-Vaucluse", "latitude": 48.6604599, "longitude": 2.3091577, "source": "osm", "_tags": {"addr:city": "Épinay-sur-Orge", "addr:postcode": "91360", "addr:street": "BP13", "healthcare": "hospital", "name": "Centre hospitalier de Perray-Vaucluse", "operator": "GHU Paris Psychiatrie et Neurosciences", "wikidata": "Q65130359", "wikipedia": "fr:Hôpital de Perray-Vaucluse"}}, {"name": "EPS Barthélémy Durand", "latitude": 48.6554492, "longitude": 2.3131832, "source": "osm", "_tags": {"addr:city": "Sainte-Geneviève-des-Bois", "addr:postcode": "91700", "addr:street": "Route de Longpont", "healthcare": "hospital", "name": "EPS Barthélémy Durand", "operator": "EPS Barthélémy Durand"}}, {"name": "Centre Médical Saint-Laurent", "latitude": 48.6658516, "longitude": 2.3379321, "source": "osm", "_tags": {"addr:city": "Villemoisson-sur-Orge", "addr:housenumber": "9", "addr:postcode": "91360", "addr:street": "Route de Corbeil", "healthcare": "hospital", "name": "Centre Médical Saint-Laurent", "operator": "Centre Médical Saint-Laurent"}}, {"name": "Hôpital de Jour pour Adolescents de l'Essonne", "latitude": 48.654779, "longitude": 2.3097121, "source": "osm", "_tags": {"alt_name": "Maison du Cèdre", "amenity": "hospital", "fax": "+33169925394", "healthcare": "hospital", "name": "Hôpital de Jour pour Adolescents de l'Essonne", "phone": "+33169925201", "ref:FR:FINESS": "910010198", "ref:FR:SIRET": "26910009500455", "source": "Le ministère des solidarités et de la santé - 03/2019", "type:FR:FINESS": "292"}}, {"name": "Centre de jour Marcel Proust", "latitude": 47.8996762, "longitude": 1.8784546, "source": "osm", "_tags": {"amenity": "hospital", "fax": "+33238867767", "healthcare": "hospital", "name": "Centre de jour Marcel Proust", "phone": "+33238721908", "ref:FR:FINESS": "450012620", "ref:FR:SIRET": "26450004200090", "source": "Le ministère des solidarités et de la santé - 03/2019", "type:FR:FINESS": "292"}}, {"name": "", "latitude": 48.8034798, "longitude": 2.6121174, "source": "osm", "_tags": {"amenity": "hospital", "fax": "+33160181536", "phone": "+33160181530", "ref:FR:FINESS": "770001261", "ref:FR:SIRET": "20006347700562", "source": "Le ministère des solidarités et de la santé - 03/2019", "type:FR:FINESS": "355"}}, {"name": "Pôle Santé Ivrymed", "latitude": 48.8054096, "longitude": 2.3768663, "source": "osm", "_tags": {"amenity": "hospital", "healthcare": "hospital", "name": "Pôle Santé Ivrymed"}}, {"name": "Clinique laser vision Orléans", "latitude": 47.9046127, "longitude": 1.9039452, "source": "osm", "_tags": {"addr:city": "Orléans", "addr:housenumber": "4", "addr:postcode": "45000", "amenity": "hospital", "check_date": "2024-11-01", "description": "La Clinique Laser Vision Orléans est ouverte les Lundis, Mercredis et Vendredis, de 08h30 à 12h30 et 13h30 à 17h30. Ouverture toute l'année sauf périodes de congés. Vous accèderez facilement à la Clinique par les transports en commun (tramway ou bus). Vo", "healthcare": "hospital", "healthcare:speciality": "ophthalmology", "image": "https://panoramax-storage-public-fast.s3.gra.perf.cloud.ovh.net/main-pictures/cb/fe/e4/ab/ca86-4037-b1c6-c3cdf0c0e409.jpg", "name": "Clinique laser vision Orléans", "phone": "+33 2 42 04 04 20", "website": "https://www.clvo.fr/", "wheelchair": "yes"}}, {"name": "Pharmacie du centre Hospitalier intercommunal", "latitude": 48.7973898, "longitude": 2.4656375, "source": "osm", "_tags": {"healthcare": "hospital", "name": "Pharmacie du centre Hospitalier intercommunal", "survey:date": "2022-11-24"}}, {"name": "Clinique Veterinaire Sevetys", "latitude": 48.7432593, "longitude": 2.2647179, "source": "osm", "_tags": {"addr:city": "Verrières-le-Buisson", "addr:housenumber": "34", "addr:postcode": "91370", "addr:street": "Boulevard du Maréchal Foch", "amenity": "hospital", "emergency": "yes", "healthcare": "hospital", "name": "Clinique Veterinaire Sevetys", "operator": "Sevetys", "operator:type": "public", "wheelchair": "yes"}}, {"name": "Pôle Santé Oréliance", "latitude": 47.9396092, "longitude": 1.8783795, "source": "osm", "_tags": {"addr:city": "Saran", "addr:housenumber": "555", "addr:postcode": "45770", "addr:street": "Avenue Jacqueline Auriol", "healthcare": "hospital", "image": "https://oreliance.com/wp-content/uploads/2021/12/pso_slide_urgradio.jpg", "name": "Pôle Santé Oréliance", "operator": "Groupe St Gatien", "phone": "+33 2 38 79 60 00", "website": "https://oreliance.com/"}}, {"name": "Cabinet infirmier", "latitude": 48.5672324, "longitude": 2.5977961, "source": "osm", "_tags": {"amenity": "hospital", "healthcare": "hospital", "name": "Cabinet infirmier"}}, {"name": "Centre hospitalier intercommunal de Créteil", "latitude": 48.79673, "longitude": 2.4657507, "source": "osm", "_tags": {"amenity": "hospital", "email": "contact@chicreteil.fr", "emergency": "yes", "fax": "+33 1 45 17 58 92", "healthcare": "hospital", "healthcare:speciality": "intensive", "name": "Centre hospitalier intercommunal de Créteil", "operator:type": "public", "phone": "+33 1 45 17 50 00", "ref:FR:FINESS": "940000573", "type:FR:FINESS": "355", "website": "https://www.chicreteil.fr/", "wikidata": "Q3145343"}}, {"name": "Polyclinique de la Forêt", "latitude": 48.4124171, "longitude": 2.7015247, "source": "osm", "_tags": {"amenity": "hospital", "healthcare": "hospital", "name": "Polyclinique de la Forêt", "ref:FR:FINESS": "770300275", "type:FR:FINESS": "365"}}, {"name": "Centre hospitalier de Fontainebleau", "latitude": 48.4111166, "longitude": 2.6973835, "source": "osm", "_tags": {"addr:city": "Fontainebleau", "addr:housenumber": "98", "addr:postcode": "65300", "addr:street": "Avenue de Verdun", "amenity": "hospital", "emergency": "yes", "fax": "+33 1 60 36 92 01", "healthcare": "hospital", "healthcare:speciality": "intensive;cardiology;maternity;physiatry", "name": "Centre hospitalier de Fontainebleau", "operator": "Centre hospitalier du sud Seine-et-Marne", "operator:type": "private", "phone": "+33 1 60 05 98 05", "ref:FR:FINESS": "770000149", "type:FR:FINESS": "355", "website": "https://www.ch-sud-seine-et-marne.fr/", "wikidata": "Q97959036"}}, {"name": "Centre Chirurgical Marie Lannelongue", "latitude": 48.7844443, "longitude": 2.2732334, "source": "osm", "_tags": {"addr:city": "Le Plessis-Robinson", "addr:housenumber": "133", "addr:postcode": "92350", "addr:street": "Avenue de la Résistance", "alt_name": "Hôpital Marie Lannelongue", "amenity": "hospital", "healthcare": "hospital", "healthcare:speciality": "intensive;cardiology", "name": "Centre Chirurgical Marie Lannelongue", "operator": "Groupe hospitalier Paris Saint-Joseph", "operator:type": "private", "phone": "+33 1 40 94 28 00", "ref:FR:FINESS": "920000684", "source": "cadastre-dgi-fr source : Direction Générale des Impôts - Cadastre. Mise à jour : 2010", "toilets:wheelchair": "yes", "type:FR:FINESS": "365", "website": "https://www.hopitalmarielannelongue.fr/", "wheelchair": "yes"}}, {"name": "Centre hospitalier d'Arpajon", "latitude": 48.584114, "longitude": 2.2413744, "source": "osm", "_tags": {"amenity": "hospital", "barrier": "fence", "emergency": "yes", "fax": "+33 1 64 92 91 28", "healthcare": "hospital", "name": "Centre hospitalier d'Arpajon", "operator:type": "public", "phone": "+33 1 64 92 92 92", "ref:FR:FINESS": "910000272", "type:FR:FINESS": "355", "website": "https://www.ch-arpajon.fr/"}}, {"name": "Centre Hospitalier Intercommunal Lucie et Raymond Aubrac", "latitude": 48.7218958, "longitude": 2.4527106, "source": "osm", "_tags": {"addr:city": "Villeneuve-Saint-Georges Cedex", "addr:housenumber": "40", "addr:postcode": "94195", "addr:street": "Allée de la Source", "alt_name": "Centre hospitalier intercommunal de Villeneuve-Saint-Georges", "amenity": "hospital", "emergency": "yes", "fax": "+33 1 43 86 23 00", "healthcare:speciality": "intensive", "name": "Centre Hospitalier Intercommunal Lucie et Raymond Aubrac", "operator:type": "public", "phone": "+33 1 43 86 20 00", "ref:FR:FINESS": "940000599", "short_name": "CHIV", "type:FR:FINESS": "355", "website": "https://chiv.fr/", "wikidata": "Q30281565"}}, {"name": "Centre Hospitalier Paul Guiraud", "latitude": 48.789995, "longitude": 2.3577044, "source": "osm", "_tags": {"addr:housenumber": "54", "addr:postcode": "94800", "addr:street": "Avenue de la République", "amenity": "hospital", "contact:facebook": "GROUPE-HOSPITALIER-PAUL-GUIRAUD-110424615727245", "healthcare": "hospital", "healthcare:speciality": "psychiatry", "name": "Centre Hospitalier Paul Guiraud", "phone": "+33 1 42 11 70 00", "ref:FR:FINESS": "940000631", "source": "cadastre-dgi-fr source : Direction Générale des Impôts - Cadastre ; mise à jour : 2016", "type:FR:FINESS": "292", "website": "https://www.gh-paulguiraud.fr/", "wikidata": "Q3591566"}}, {"name": "Hôpital Paul Brousse", "latitude": 48.7969523, "longitude": 2.361662, "source": "osm", "_tags": {"addr:city": "Villejuif", "addr:housenumber": "12", "addr:postcode": "94800", "addr:street": "Avenue Paul Vaillant-Couturier", "amenity": "hospital", "branch": "Université Paris Saclay", "healthcare": "hospital", "healthcare:speciality": "intensive", "name": "Hôpital Paul Brousse", "operator": "Assistance publique - Hôpitaux de Paris", "operator:short": "APHP", "operator:type": "public", "operator:wikidata": "Q2867205", "phone": "+33 1 45 59 30 00", "ref:FR:FINESS": "940100068", "ref:FR:SIRET": "26750045200292", "type:FR:FINESS": "101", "website": "https://hopital-paul-brousse.aphp.fr/", "wikidata": "Q586694"}}, {"name": "Hôpital Bicêtre", "latitude": 48.8102596, "longitude": 2.3538324, "source": "osm", "_tags": {"addr:city": "Le Kremlin-Bicêtre", "addr:housenumber": "78", "addr:postcode": "94270", "addr:street": "Rue du Général Leclerc", "amenity": "hospital", "branch": "Université Paris Saclay", "emergency": "yes", "fax": "+33 1 45 21 20 97", "healthcare": "hospital", "healthcare:speciality": "intensive", "name": "Hôpital Bicêtre", "operator": "Assistance publique - Hôpitaux de Paris", "operator:short": "APHP", "operator:type": "public", "operator:wikidata": "Q2867205", "phone": "+33 1 45 21 21 21", "ref:FR:FINESS": "940100043", "ref:FR:SIRET": "26750045200441", "type:FR:FINESS": "101", "website": "https://hopital-bicetre.aphp.fr/", "wikidata": "Q15217751"}}, {"name": "Hôpital Albert Chenevier", "latitude": 48.7886225, "longitude": 2.4586158, "source": "osm", "_tags": {"addr:city": "Créteil", "addr:housenumber": "40", "addr:postcode": "94010", "addr:street": "Rue de Mesly", "amenity": "hospital", "branch": "Hôpitaux Universitaires Henri Mondor", "healthcare": "hospital", "name": "Hôpital Albert Chenevier", "operator": "Assistance publique - Hôpitaux de Paris", "operator:short": "APHP", "operator:type": "public", "operator:wikidata": "Q2867205", "phone": "+33149813001", "ref:FR:FANTOIR": "940284461W", "ref:FR:FINESS": "940100019", "ref:FR:SIRET": "26750045200433", "source": "Le ministère des solidarités et de la santé - 03/2019", "type:FR:FINESS": "101", "website": "https://chu-mondor.aphp.fr/hopital-albert-chenevier1/", "wikidata": "Q3145126", "wikipedia": "fr:Hôpital Albert-Chenevier"}}, {"name": "Centre hospitalier de Longjumeau", "latitude": 48.6917048, "longitude": 2.2916106, "source": "osm", "_tags": {"amenity": "hospital", "emergency": "yes", "fax": "+33 1 69 34 85 72", "healthcare": "hospital", "healthcare:speciality": "intensive", "name": "Centre hospitalier de Longjumeau", "operator": "Groupe hospitalier Nord-Essonne", "operator:type": "public", "phone": "+33 1 64 54 33 33", "ref:FR:FINESS": "910000298", "source": "bing", "type:FR:FINESS": "355", "website": "https://www.gh-nord-essonne.fr/accueil.aspx"}}, {"name": "Clinique de l'Yvette", "latitude": 48.6894092, "longitude": 2.3032101, "source": "osm", "_tags": {"amenity": "hospital", "contact:city": "Longjumeau", "contact:housenumber": "67-71", "contact:postcode": "91160", "contact:street": "Route de Corbeil", "contact:website": "https://www.clinique-yvette.com/fr/", "healthcare": "hospital", "name": "Clinique de l'Yvette", "ref:FR:FINESS": "910300177", "type:FR:FINESS": "365"}}, {"name": "Centre de Gérontologie et d'Accueil Spécialisé Philippe Dugué", "latitude": 48.7077529, "longitude": 2.0356652, "source": "osm", "_tags": {"alt_name": "USLD Gérontologique de Chevreuse", "amenity": "hospital", "emergency": "no", "healthcare": "hospital", "name": "Centre de Gérontologie et d'Accueil Spécialisé Philippe Dugué", "phone": "+33 1 30 07 34 00", "ref:FR:FINESS": "780000360", "type:FR:FINESS": "362", "website": "https://www.hgchevreuse.fr/"}}, {"name": "Centre hospitalier de Bligny", "latitude": 48.6251005, "longitude": 2.1487273, "source": "osm", "_tags": {"CLC:code": "121", "CLC:id": "FR-40616", "CLC:year": "2006", "amenity": "hospital", "contact:phone": "01 69 26 30 00", "contact:website": "https://www.chbligny.fr", "emergency": "no", "healthcare": "hospital", "name": "Centre hospitalier de Bligny", "ref:FR:FINESS": "910150028", "source": "cadastre-dgi-fr source : Direction Générale des Finances Publiques - Cadastre. Mise à jour : 2014", "type:FR:FINESS": "129", "wikidata": "Q122222511"}}, {"name": "Hôpital Émile Roux", "latitude": 48.7490834, "longitude": 2.4854361, "source": "osm", "_tags": {"amenity": "hospital", "branch": "Hôpitaux Universitaires Henri Mondor", "emergency": "no", "healthcare": "hospital", "heritage": "3", "heritage:operator": "mhs", "mhs:inscription_date": "2002", "name": "Hôpital Émile Roux", "operator": "Assistance publique - Hôpitaux de Paris", "operator:short": "APHP", "operator:type": "public", "operator:wikidata": "Q2867205", "phone": "+33145958080", "ref:FR:FINESS": "940100050", "ref:FR:SIRET": "26750045200110", "ref:mhs": "PA00079884", "source": "Le ministère des solidarités et de la santé - 03/2019", "source:heritage": "data.gouv.fr:Ministère de la Culture - 08/2011", "type:FR:FINESS": "101", "website": "https://chu-mondor.aphp.fr/emileroux/", "wikidata": "Q3145367", "wikipedia": "fr:Hôpital Émile-Roux"}}, {"name": "Centre de protonthérapie", "latitude": 48.6976571, "longitude": 2.1761195, "source": "osm", "_tags": {"addr:street": "Avenue Irène et Frédéric Joliot-Curie", "addr:unit": "Bâtiment 101", "alt_name": "Institut Curie - Centre de protonthérapie", "amenity": "hospital", "building": "hospital", "emergency": "no", "fax": "+33 1 69 07 55 00", "healthcare": "hospital", "healthcare:speciality": "proton_therapy;oncology;radiotherapy", "man_made": "particle_accelerator", "name": "Centre de protonthérapie", "name:en": "The Proton Therapy Center", "name:fr": "Centre de protonthérapie", "operator": "Institut Curie", "operator:type": "private_non_profit", "particle_accelerator": "circular", "phone": "+33 1 69 29 87 00", "ref": "101", "ref:FR:FINESS": "910813732", "source": "cadastre-dgi-fr source : Direction Générale des Impôts - Cadastre;mise à jour : 2010", "substance": "electron", "type:FR:FINESS": "131", "website": "https://curie.fr/liste/centre-de-protontherapie", "wikidata": "Q2451973", "wikipedia": "fr:Institut Curie"}}, {"name": "Clinique du Mousseau", "latitude": 48.6303604, "longitude": 2.4497973, "source": "osm", "_tags": {"alt_name": "CMCO d'Evry", "amenity": "hospital", "building": "hospital", "emergency": "yes", "fax": "+33 1 60 78 29 07", "healthcare": "hospital", "name": "Clinique du Mousseau", "operator": "Ramsay Santé", "operator:type": "private", "operator:wikidata": "Q3123085", "operator:wikipedia": "fr:Ramsay Santé", "phone": "+33 1 60 90 10 10", "ref:FR:FINESS": "910300144", "source": "cadastre-dgi-fr source : Direction Générale des Impôts - Cadastre. Mise à jour : 2010", "type:FR:FINESS": "365", "website": "https://clinique-du-mousseau-evry.ramsaygds.fr/"}}, {"name": "Maison de Cure de l'Yvette", "latitude": 48.6999692, "longitude": 2.1901761, "source": "osm", "_tags": {"addr:city": "Orsay", "addr:country": "FR", "addr:housenumber": "3", "addr:postcode": "91401", "addr:street": "Rue Guy Môquet", "amenity": "hospital", "building": "public", "emergency": "no", "healthcare": "hospital", "name": "Maison de Cure de l'Yvette", "operator": "Groupe hospitalier Nord-Essonne", "operator:type": "public", "ref:FR:FINESS": "910800986", "source": "extraction vectorielle v1 cadastre-dgi-fr source : Direction Générale des Impôts - Cadas. Mise à jour : 2010", "type:FR:FINESS": "355", "wheelchair": "yes"}}, {"name": "Service Hospitalier Frédéric Joliot", "latitude": 48.6985247, "longitude": 2.185708, "source": "osm", "_tags": {"addr:housenumber": "4", "addr:postcode": "91401", "addr:street": "place du Général Leclerc", "alt_name": "SHFJ", "amenity": "hospital", "building": "hospital", "building:levels": "3", "emergency": "no", "healthcare": "hospital", "healthcare:speciality": "nuclear medicine", "internet_access": "no", "name": "Service Hospitalier Frédéric Joliot", "operator": "CEA (Commissariat à l'énergie atomique et aux énergies alternatives)", "operator:type": "public", "phone": "+33 1 69 86 77 09", "ref:FR:FINESS": "910811355", "roof:levels": "1", "roof:shape": "flat", "source": "extraction vectorielle v1 cadastre-dgi-fr source : Direction Générale des Impôts - Cadas. Mise à jour : 2010", "type:FR:FINESS": "355", "website": "https://joliot.cea.fr/drf/joliot/Pages/Entites_de_recherche/SHFJ.aspx", "wheelchair": "yes"}}, {"name": "Hôpital privé Jacques Cartier", "latitude": 48.7309145, "longitude": 2.2919351, "source": "osm", "_tags": {"amenity": "hospital", "building": "hospital", "emergency": "yes", "fax": "+33 1 60 13 46 34", "healthcare": "hospital", "healthcare:speciality": "intensive", "name": "Hôpital privé Jacques Cartier", "operator": "Ramsay Santé", "operator:type": "private", "operator:wikidata": "Q3123085", "phone": "+33 1 60 13 60 60", "ref:FR:FINESS": "910300219", "source": "cadastre-dgi-fr source : Direction Générale des Impôts - Cadastre. Mise à jour : 2010", "type:FR:FINESS": "365", "website": "https://hopital-prive-jacques-cartier-massy.ramsaygds.fr/"}}, {"name": "Centre Laennec", "latitude": 48.8108962, "longitude": 2.2948864, "source": "osm", "_tags": {"amenity": "hospital", "building": "yes", "healthcare": "hospital", "name": "Centre Laennec", "name:etymology:wikidata": "Q219621", "ref:FR:FINESS": "920300563", "source": "cadastre-dgi-fr source : Direction Générale des Impôts - Cadastre. Mise à jour : 2010", "type:FR:FINESS": "109", "url": "http://www.reeducation-laennec.fr/"}}, {"name": "Institut Robert Merle d'Aubigné", "latitude": 48.7504623, "longitude": 2.4650138, "source": "osm", "_tags": {"addr:city": "Valenton", "addr:housenumber": "2", "addr:postcode": "94460", "addr:street": "rue Emilion Michaut et Lucien Rabeux", "amenity": "hospital", "building": "hospital", "emergency": "no", "fax": "+33 1 43 82 69 89", "healthcare": "hospital", "healthcare:speciality": "orthopaedics", "name": "Institut Robert Merle d'Aubigné", "phone": "+33 1 45 10 80 80", "ref:FR:FINESS": "940700032", "source": "cadastre-dgi-fr source : Direction Générale des Impôts - Cadastre. Mise à jour : 2010", "type:FR:FINESS": "109", "website": "http://www.irma-valenton.fr/", "wheelchair": "yes"}}, {"name": "Domaine du Grand-Mesnil", "latitude": 48.6970015, "longitude": 2.1702679, "source": "osm", "_tags": {"access": "private", "amenity": "hospital", "healthcare": "hospital", "name": "Domaine du Grand-Mesnil", "ref:FR:FINESS": "910110071", "source": "Le ministère des solidarités et de la santé - 03/2019"}}, {"name": "Clinique Diététique", "latitude": 48.72197, "longitude": 2.5320735, "source": "osm", "_tags": {"amenity": "hospital", "building": "yes", "healthcare": "hospital", "name": "Clinique Diététique", "ref:FR:FINESS": "940300452", "source": "cadastre-dgi-fr source : Direction Générale des Impôts - Cadastre. Mise à jour : 2011", "type:FR:FINESS": "129"}}, {"name": "Clinique Gaston Métivet", "latitude": 48.804321, "longitude": 2.4783438, "source": "osm", "_tags": {"alt_name": "Clinique Alsace Lorraine", "amenity": "hospital", "emergency": "no", "healthcare": "hospital", "name": "Clinique Gaston Métivet", "ref:FR:FINESS": "940300379", "source": "bing", "type:FR:FINESS": "365"}}, {"name": "Clinique d'Yvelines", "latitude": 48.6640563, "longitude": 1.8680606, "source": "osm", "_tags": {"amenity": "hospital", "healthcare": "hospital", "name": "Clinique d'Yvelines", "ref:FR:FINESS": "780140042", "type:FR:FINESS": "161"}}, {"name": "Clinique Les Fontaines", "latitude": 48.5437075, "longitude": 2.651349, "source": "osm", "_tags": {"amenity": "hospital", "building": "hospital", "emergency": "yes", "fax": "+33 1 64 38 51 55", "healthcare": "hospital", "name": "Clinique Les Fontaines", "operator": "Groupe Saint-Gatien", "phone": "+33 1 60 56 40 00", "ref:FR:FINESS": "770300135", "source": "cadastre-dgi-fr source : Direction Générale des Impôts - Cadastre. Mise à jour : 2018", "type:FR:FINESS": "365", "website": "https://cliniquelesfontaines.com/", "wikidata": "Q30269610"}}, {"name": "Centre Hospitalier Manhès", "latitude": 48.6276285, "longitude": 2.3602425, "source": "osm", "_tags": {"amenity": "hospital", "building": "yes", "healthcare": "hospital", "name": "Centre Hospitalier Manhès", "ref:FR:FINESS": "910150010", "source": "cadastre-dgi-fr source : Direction Générale des Impôts - Cadastre. Mise à jour : 2011", "type:FR:FINESS": "365", "wikidata": "Q30281580"}}, {"name": "Clinique des Tournelles", "latitude": 48.7781735, "longitude": 2.3363925, "source": "osm", "_tags": {"amenity": "hospital", "building": "yes", "building:colour": "#9D685A", "building:levels": "4", "healthcare": "hospital", "name": "Clinique des Tournelles", "ref:FR:FINESS": "940300163", "roof:colour": "#859D95", "roof:shape": "flat", "source": "cadastre-dgi-fr source : Direction Générale des Impôts - Cadastre. Mise à jour : 2011", "type:FR:FINESS": "109"}}, {"name": "Hôpital privé du Val d'Yerres", "latitude": 48.712331, "longitude": 2.4956205, "source": "osm", "_tags": {"addr:city": "Yerres", "addr:housenumber": "31", "addr:postcode": "91330", "addr:street": "Avenue de l'Abbaye", "amenity": "hospital", "building": "hospital", "emergency": "yes", "fax": "+33 1 69 49 45 98", "healthcare": "hospital", "healthcare:speciality": "intensive", "name": "Hôpital privé du Val d'Yerres", "operator": "GIE Santé & Retraite", "operator:type": "private", "phone": "+33 1 69 48 48 13", "ref:FR:FINESS": "910300300", "source": "cadastre-dgi-fr source : Direction Générale des Impôts - Cadastre. Mise à jour : 2011", "type:FR:FINESS": "365", "website": "http://www.hopital-prive-du-val-dyerres.com/"}}, {"name": "Unité Didier Weil Adolescents - GHU Paris", "latitude": 48.65478, "longitude": 2.3132856, "source": "osm", "_tags": {"building": "yes", "healthcare": "hospital", "name": "Unité Didier Weil Adolescents - GHU Paris", "operator": "GHU Paris", "source": "cadastre-dgi-fr source : Direction Générale des Impôts - Cadastre. Mise à jour : 2011"}}, {"name": "Clinique des Charmilles", "latitude": 48.5928, "longitude": 2.249037, "source": "osm", "_tags": {"amenity": "hospital", "building": "yes", "healthcare": "hospital", "name": "Clinique des Charmilles", "ref:FR:FINESS": "910300011", "source": "cadastre-dgi-fr source : Direction Générale des Impôts - Cadastre. Mise à jour : 2011", "type:FR:FINESS": "128"}}, {"name": "Polyclinique de Villeneuve Saint-Georges", "latitude": 48.7218361, "longitude": 2.450781, "source": "osm", "_tags": {"addr:housenumber": "47", "addr:street": "Rue de Crosne", "amenity": "hospital", "building": "yes", "name": "Polyclinique de Villeneuve Saint-Georges", "ref:FR:FINESS": "940300494", "source": "cadastre-dgi-fr source : Direction Générale des Impôts - Cadastre. Mise à jour : 2011", "type:FR:FINESS": "365"}}, {"name": "Hôpital d'Instruction des Armées Percy", "latitude": 48.8142754, "longitude": 2.255685, "source": "osm", "_tags": {"amenity": "hospital", "emergency": "yes", "fax": "+33 1 41 46 64 91", "healthcare": "hospital", "healthcare:speciality": "intensive", "landuse": "military", "name": "Hôpital d'Instruction des Armées Percy", "phone": "+33 1 41 46 60 00", "ref:FR:FINESS": "920120011", "short_name": "HIA Percy", "source": "cadastre-dgi-fr source : Direction Générale des Impôts - Cadastre. Mise à jour : 2011", "type:FR:FINESS": "114", "website": "https://www.hiapercy.sante.defense.gouv.fr/", "wikidata": "Q1779588", "wikipedia": "fr:Hôpital d'instruction des armées Percy"}}, {"name": "Clinique de l'Archette", "latitude": 47.8583727, "longitude": 1.9086885, "source": "osm", "_tags": {"amenity": "hospital", "healthcare": "hospital", "name": "Clinique de l'Archette", "ref:FR:FINESS": "450000245", "type:FR:FINESS": "109"}}, {"name": "Hôpital privé de Vitry - Site Pasteur", "latitude": 48.785719, "longitude": 2.389519, "source": "osm", "_tags": {"addr:housenumber": "22", "amenity": "hospital", "building": "hospital", "building:levels": "3", "emergency": "yes", "fax": "+33 1 45 73 35 99", "healthcare": "hospital", "name": "Hôpital privé de Vitry - Site Pasteur", "operator": "Elsan", "operator:type": "private", "operator:wikidata": "Q48747106", "phone": "+33 1 45 73 35 35", "ref:FR:FINESS": "940300569", "source": "cadastre-dgi-fr source : Direction Générale des Impôts - Cadastre. Mise à jour : 2011", "type:FR:FINESS": "365", "website": "https://www.hopitalprivedevitry.fr/"}}, {"name": "Centre médical pédagogique", "latitude": 48.676943, "longitude": 2.5596053, "source": "osm", "_tags": {"amenity": "hospital", "healthcare": "hospital", "name": "Centre médical pédagogique", "ref:FR:FINESS": "910150077", "source": "cadastre-dgi-fr source : Direction Générale des Impôts - Cadastre. Mise à jour : 2015", "type:FR:FINESS": "109"}}, {"name": "Hôpital privé Claude Galien", "latitude": 48.6816353, "longitude": 2.5394854, "source": "osm", "_tags": {"amenity": "hospital", "building": "hospital", "emergency": "yes", "fax": "+33 1 69 39 90 95", "healthcare": "hospital", "healthcare:speciality": "intensive", "name": "Hôpital privé Claude Galien", "operator": "Ramsay Santé", "operator:type": "private", "operator:wikidata": "Q3123085", "operator:wikipedia": "fr:Ramsay Santé", "phone": "+33 1 69 39 90 00", "ref:FR:FINESS": "910803543", "source": "cadastre-dgi-fr source : Direction Générale des Impôts - Cadastre. Mise à jour : 2012", "type:FR:FINESS": "365", "website": "https://hopital-prive-claude-galien-quincy-sous-senart.ramsaygds.fr/"}}, {"name": "Pôle de Santé du Plateau", "latitude": 48.7843347, "longitude": 2.2328535, "source": "osm", "_tags": {"addr:city": "Meudon", "addr:housenumber": "3", "addr:postcode": "92360", "addr:street": "Avenue de Villacoublay", "alt_name": "Clinique de Meudon", "amenity": "hospital", "building": "hospital", "building:levels": "4", "contact:facebook": "https://www.facebook.com/people/P%C3%B4le-de-Sant%C3%A9-du-Plateau-Clamart-Meudon/100027720265837/", "contact:instagram": "https://www.instagram.com/poledesanteduplateau/", "contact:linkedin": "https://fr.linkedin.com/company/pole-de-sante-du-plateau", "contact:youtube": "https://www.youtube.com/@PoledeSanteduPlateau", "email": "info@poleduplateau.com", "emergency": "yes", "fax": "+33 1 46 31 83 88", "healthcare": "hospital", "name": "Pôle de Santé du Plateau", "phone": "+33 1 41 28 10 00", "ref:FR:FINESS": "920300597", "ref:FR:SIRET": "77569138900024", "source": "https://www.data.gouv.fr/fr/datasets/entreprises-de-grand-paris-seine-ouest-de-plus-de-50-salaries-2013/", "type:FR:FINESS": "365", "website": "https://poleduplateau.com/", "wheelchair": "yes"}}, {"name": "GHU Paris Psychiatrie et neurosciences - site Perray-Vaucluse", "latitude": 48.6602658, "longitude": 2.3134447, "source": "osm", "_tags": {"addr:city": "Épinay-sur-Orge", "addr:postcode": "91360", "addr:street": "BP 13", "amenity": "hospital", "emergency": "no", "healthcare": "hospital", "name": "GHU Paris Psychiatrie et neurosciences - site Perray-Vaucluse", "operator": "GHU Paris Psychiatrie et Neurosciences", "operator:type": "public", "ref:FR:FINESS": "910000322", "source": "Le ministère des solidarités et de la santé - 03/2019", "website": "https://www.ghu-paris.fr/fr", "wikipedia": "fr:GHU Paris Psychiatrie & neurosciences"}}, {"name": "Hôpital de Chevilly-Larue", "latitude": 48.7712001, "longitude": 2.3352688, "source": "osm", "_tags": {"amenity": "hospital", "contact:housenumber": "24", "contact:postcode": "94550", "contact:street": "Rue Albert Thuret", "healthcare": "hospital", "name": "Hôpital de Chevilly-Larue", "phone": "+33 1 42 11 42 11", "ref:FR:FINESS": "940000656", "website": "https://www.gustaveroussy.fr/fr/content/h%C3%B4pital-de-chevilly-larue-1", "wikidata": "Q91994389"}}, {"name": "Le Beach - Clinique-polyclinique", "latitude": 48.7913622, "longitude": 2.5204739, "source": "osm", "_tags": {"amenity": "hospital", "building": "apartments", "building:levels": "5", "healthcare": "hospital", "name": "Le Beach - Clinique-polyclinique", "roof:levels": "0", "source": "cadastre-dgi-fr source : Direction Générale des Impôts - Cadastre. Mise à jour : 2012"}}, {"name": "Groupe Hospitalier Les cheminots", "latitude": 48.6547412, "longitude": 2.4074556, "source": "osm", "_tags": {"amenity": "hospital", "building": "yes", "emergency": "no", "healthcare": "hospital", "name": "Groupe Hospitalier Les cheminots", "ref:FR:FINESS": "910500040", "source": "cadastre-dgi-fr source : Direction Générale des Impôts - Cadastre. Mise à jour : 2010", "type:FR:FINESS": "109", "website": "http://www.hopital-les-cheminots.com/"}}, {"name": "Clinique Médicale Les Jardins de Brunoy", "latitude": 48.7015406, "longitude": 2.5111988, "source": "osm", "_tags": {"addr:housenumber": "38", "amenity": "hospital", "emergency": "no", "healthcare": "hospital", "name": "Clinique Médicale Les Jardins de Brunoy", "ref:FR:FINESS": "910300045", "source": "Le ministère des solidarités et de la santé - 03/2019", "type:FR:FINESS": "109"}}, {"name": "Centre de soins \"Les Buissonnets\"", "latitude": 47.8569215, "longitude": 1.9101635, "source": "osm", "_tags": {"amenity": "hospital", "building": "yes", "healthcare": "hospital", "name": "Centre de soins \"Les Buissonnets\"", "ref:FR:FINESS": "450000286", "source": "cadastre-dgi-fr source : Direction Générale des Impôts - Cadastre. Mise à jour : 2013", "type:FR:FINESS": "109"}}, {"name": "Établissement Public de Santé de Fresnes", "latitude": 48.7653583, "longitude": 2.3204414, "source": "osm", "_tags": {"amenity": "hospital", "building": "yes", "capacity": "80", "healthcare": "hospital", "name": "Établissement Public de Santé de Fresnes", "note": "Prison Hôpital", "ref:FR:FINESS": "940806490", "short_name": "EPSNF", "source": "extraction vectorielle v1 cadastre-dgi-fr source : Direction Générale des Impôts - Cadas. Mise à jour : 2010", "type:FR:FINESS": "433"}}, {"name": "Hôpital de Jouars-Pontchartrain", "latitude": 48.8056938, "longitude": 1.9036926, "source": "osm", "_tags": {"amenity": "hospital", "emergency": "no", "healthcare": "hospital", "name": "Hôpital de Jouars-Pontchartrain", "ref:FR:FINESS": "780000386", "source": "Le ministère des solidarités et de la santé - 03/2019", "wikidata": "Q92063251"}}, {"name": "Centre hospitalier de Pithiviers", "latitude": 48.1711285, "longitude": 2.2501494, "source": "osm", "_tags": {"amenity": "hospital", "emergency": "yes", "fax": "+33 2 38 32 31 11", "name": "Centre hospitalier de Pithiviers", "operator:type": "public", "phone": "+33 2 38 32 31 31", "ref:FR:FINESS": "450000070", "source": "Bing", "type:FR:FINESS": "355", "website": "https://www.hopital-pithiviers.fr/", "wheelchair": "yes"}}, {"name": "Groupe Hospitalier Paul Guiraud - Site de Clamart", "latitude": 48.7867366, "longitude": 2.2524385, "source": "osm", "_tags": {"addr:city": "Clamart", "addr:housenumber": "1", "addr:postcode": "92140", "addr:street": "Rue Andras Beck", "amenity": "hospital", "building": "yes", "contact:facebook": "https://www.facebook.com/GROUPE-HOSPITALIER-PAUL-GUIRAUD-110424615727245/", "emergency": "no", "healthcare": "hospital", "healthcare:speciality": "psychiatry", "name": "Groupe Hospitalier Paul Guiraud - Site de Clamart", "operator": "Groupe Hospitalier Paul Guiraud", "operator:type": "private", "phone": "+33 1 42 11 70 00", "ref:FR:FINESS": "920027711", "ref:FR:NAF": "8610Z", "ref:FR:SIRET": "26940106300780", "ref:vatin": "FR74269401063", "website": "https://www.gh-paulguiraud.fr/", "wheelchair": "yes"}}, {"name": "Hôpital Psychiatrique Erasme", "latitude": 48.7456638, "longitude": 2.3172568, "source": "osm", "_tags": {"addr:housenumber": "143", "addr:street": "Avenue Armand Guillebaud", "amenity": "hospital", "check_date": "2025-04-16", "emergency": "no", "healthcare:speciality": "psychiatry", "name": "Hôpital Psychiatrique Erasme", "ref:FR:FINESS": "920002177", "type:FR:FINESS": "292", "website": "https://www.eps-erasme.fr"}}, {"name": "Hôpital Georges Clemenceau", "latitude": 48.5209879, "longitude": 2.4325344, "source": "osm", "_tags": {"addr:city": "Champcueil", "addr:housenumber": "1", "addr:postcode": "91750", "addr:street": "Rue Georges Clemenceau", "amenity": "hospital", "branch": "Hôpitaux Universitaires Henri Mondor", "healthcare": "hospital", "name": "Hôpital Georges Clemenceau", "operator": "Assistance publique - Hôpitaux de Paris", "operator:short": "APHP", "operator:type": "public", "operator:wikidata": "Q2867205", "phone": "+33 1 69 23 20 20", "ref:FR:FINESS": "910100015", "ref:FR:SIRET": "26750045200417", "social_facility": "group_home", "social_facility:for": "senior", "type:FR:FINESS": "101", "website": "https://chu-mondor.aphp.fr/georgesclemenceau/", "wikidata": "Q3145157"}}, {"name": "Hôpital Dupuytren", "latitude": 48.6759788, "longitude": 2.4131969, "source": "osm", "_tags": {"addr:city": "Draveil", "addr:country": "FR", "addr:postcode": "91210", "amenity": "hospital", "branch": "Hôpitaux Universitaires Henri Mondor", "healthcare": "hospital", "image": "https://upload.wikimedia.org/wikipedia/commons/c/cb/DraveilHopitalDupuytren.JPG", "name": "Hôpital Dupuytren", "operator": "Assistance publique - Hôpitaux de Paris", "operator:short": "APHP", "operator:type": "public", "operator:wikidata": "Q2867205", "phone": "+33169836363", "ref:FR:FINESS": "910100031", "ref:FR:SIRET": "26750045200540", "source": "cadastre-dgi-fr source : Direction Générale des Impôts - Cadastre. Mise à jour : 2013 + Bing", "type:FR:FINESS": "101", "website": "https://chu-mondor.aphp.fr/joffredupuytren/", "wikidata": "Q3145169"}}, {"name": "", "latitude": 47.9164236, "longitude": 1.8723399, "source": "osm", "_tags": {"amenity": "hospital", "healthcare": "hospital"}}, {"name": "Centre Hospitalier de Rambouillet", "latitude": 48.6514303, "longitude": 1.8251817, "source": "osm", "_tags": {"amenity": "hospital", "email": "hopital@ch-rambouillet.fr", "emergency": "yes", "fax": "+33 1 34 83 76 65", "healthcare": "hospital", "healthcare:speciality": "intensive", "name": "Centre Hospitalier de Rambouillet", "operator:type": "public", "phone": "+33 1 34 83 78 78", "ref:FR:FINESS": "780000329", "type:FR:FINESS": "355", "website": "https://www.ch-rambouillet.fr/"}}, {"name": "Centre hospitalier d'Étampes", "latitude": 48.4213801, "longitude": 2.1496533, "source": "osm", "_tags": {"amenity": "hospital", "check_date": "2024-07-19", "emergency": "yes", "facebook": "Centre Hospitalier Sud Essonne Dourdan-Etampes", "fax": "+33 1 60 80 78 78", "healthcare": "hospital", "healthcare:speciality": "intensive", "name": "Centre hospitalier d'Étampes", "operator": "Centre hospitalier Sud-Essonne", "operator:type": "public", "phone": "+33 1 60 80 76 76", "ref:FR:FINESS": "910001973", "source": "cadastre-dgi-fr source : Direction Générale des Impôts - Cadastre. Mise à jour : 2015", "twitter": "CHSudEssonne", "type:FR:FINESS": "355", "website": "http://www.ch-sudessonne.fr/"}}, {"name": "Centre Hospitalier Universitaire d'Orléans", "latitude": 47.8358832, "longitude": 1.9209414, "source": "osm", "_tags": {"addr:housenumber": "14", "addr:postcode": "45100", "addr:street": "Avenue de l'Hôpital", "alt_name": "Hôpital de la Source", "amenity": "hospital", "contact:facebook": "chrorleans", "contact:instagram": "chu.orleans", "contact:twitter": "chr_orleans", "emergency": "yes", "fax": "+33 2 38 51 49 50", "healthcare": "hospital", "name": "Centre Hospitalier Universitaire d'Orléans", "operator:type": "public", "phone": "+33 2 38 51 44 44", "ref:FR:FINESS": "450002613", "short_name": "CHRO", "type:FR:FINESS": "101", "website": "https://www.chu-orleans.fr/", "wikidata": "Q30739541"}}, {"name": "", "latitude": 47.9154017, "longitude": 2.0296158, "source": "osm", "_tags": {"amenity": "hospital", "healthcare": "hospital"}}, {"name": "Centre hospitalier départemental Georges Daumézon", "latitude": 47.9454553, "longitude": 1.9428807, "source": "osm", "_tags": {"addr:postcode": "45400", "amenity": "hospital", "healthcare": "hospital", "name": "Centre hospitalier départemental Georges Daumézon", "ref:FR:FINESS": "450000930", "source": "Bing", "start_date": "1913", "type:FR:FINESS": "292", "website": "http://www.ch-daumezon45.fr/"}}, {"name": "Maison des Consultations", "latitude": 47.9401413, "longitude": 1.8796473, "source": "osm", "_tags": {"addr:housenumber": "551", "addr:street": "Avenue Jacqueline Auriol", "amenity": "hospital", "building": "yes", "healthcare": "hospital", "name": "Maison des Consultations", "ref:FR:FINESS": "450000294", "type:FR:FINESS": "129"}}, {"name": "Centre hospitalier de Dourdan", "latitude": 48.5337972, "longitude": 1.9996316, "source": "osm", "_tags": {"amenity": "hospital", "emergency": "yes", "facebook": "Centre Hospitalier Sud Essonne Dourdan-Etampes", "fax": "+33 1 60 81 58 57", "healthcare": "hospital", "name": "Centre hospitalier de Dourdan", "operator": "Centre hospitalier Sud-Essonne", "operator:type": "public", "phone": "+33 1 60 81 58 58", "ref:FR:FINESS": "910000280", "twitter": "CHSudEssonne", "type:FR:FINESS": "355", "website": "http://www.ch-sudessonne.fr/"}}, {"name": "Centre Hospitalier des Murets", "latitude": 48.7877295, "longitude": 2.580151, "source": "osm", "_tags": {"amenity": "hospital", "healthcare": "hospital", "healthcare:speciality": "psychiatry", "name": "Centre Hospitalier des Murets", "ref:FR:FINESS": "940000615", "source": "Le ministère des solidarités et de la santé - 03/2019", "type:FR:FINESS": "292"}}, {"name": "", "latitude": 47.9388679, "longitude": 1.8821088, "source": "osm", "_tags": {"addr:city": "Saran", "addr:postcode": "45770", "amenity": "hospital", "healthcare": "hospital", "source": "Le ministère des solidarités et de la santé - 03/2019"}}, {"name": "Hôpital Richaud", "latitude": 48.8080975, "longitude": 2.1354565, "source": "osm", "_tags": {"amenity": "hospital", "healthcare": "hospital", "name": "Hôpital Richaud", "ref:FR:FINESS": "780000345"}}, {"name": "Pôle de Santé La Francilienne", "latitude": 48.8055682, "longitude": 2.6149371, "source": "osm", "_tags": {"addr:city": "Pontault-Combault", "addr:housenumber": "22", "addr:postcode": "77340", "addr:street": "Avenue de la République", "amenity": "hospital", "building": "hospital", "healthcare": "clinic", "name": "Pôle de Santé La Francilienne"}}, {"name": "Hôpital privé d'Antony", "latitude": 48.7567334, "longitude": 2.3025301, "source": "osm", "_tags": {"addr:city": "Antony", "addr:country": "FR", "addr:housenumber": "1", "addr:postcode": "92160", "addr:street": "Rue Velpeau", "amenity": "hospital", "contact:facebook": "hopital.prive.antony", "contact:linkedin": "https://www.linkedin.com/company/hopital-prive-antony", "emergency": "yes", "healthcare": "hospital", "healthcare:speciality": "intensive", "name": "Hôpital privé d'Antony", "opening_hours": "24/7", "operator": "Ramsay Santé", "operator:wikidata": "Q3123085", "operator:wikipedia": "fr:Ramsay Santé", "phone": "+33 1 46 74 37 00", "ref:FR:FINESS": "920300043", "source": "extraction", "start_date": "1968", "type:FR:FINESS": "365", "website": "https://hopital-prive-antony.ramsaygds.fr"}}, {"name": "Centre Hospitalier Sud Francilien", "latitude": 48.6201628, "longitude": 2.4569349, "source": "osm", "_tags": {"amenity": "hospital", "emergency": "yes", "facebook": "Centre Hospitalier Sud Francilien", "fax": "+33 1 61 69 51 09", "healthcare": "hospital", "healthcare:speciality": "intensive", "name": "Centre Hospitalier Sud Francilien", "operator:type": "public", "phone": "+33 1 61 69 61 69", "ref:FR:FINESS": "910020254", "twitter": "CHSF91", "type:FR:FINESS": "355", "website": "https://www.chsf.fr/", "wheelchair": "yes", "wikidata": "Q2945749", "wikipedia": "fr:Centre hospitalier sud francilien"}}, {"name": "Centre hospitalier Barthélemy Durand", "latitude": 48.4438343, "longitude": 2.1552801, "source": "osm", "_tags": {"addr:street": "Avenue du 8 Mai 1945", "amenity": "hospital", "healthcare:speciality": "psychiatry", "name": "Centre hospitalier Barthélemy Durand", "operator": "EPS Barthélemy Durand", "operator:type": "public", "ref:FR:FINESS": "910000330", "type:FR:FINESS": "292"}}, {"name": "Centre hospitalier de Melun", "latitude": 48.557559, "longitude": 2.6430988, "source": "osm", "_tags": {"alt_name": "Centre hospitalier Marc Jacquet", "amenity": "hospital", "contact:twitter": "CHMelun", "emergency": "yes", "fax": "+33 1 64 71 66 00", "healthcare": "hospital", "healthcare:speciality": "intensive", "name": "Centre hospitalier de Melun", "operator": "Groupe hospitalier Sud Ile-de-France", "operator:type": "public", "phone": "+33 1 64 71 60 00", "ref:FR:FINESS": "770000156", "type:FR:FINESS": "355", "website": "https://www.ghsif.fr/", "wikidata": "Q30270161"}}, {"name": "Clinique Saint-Jean l'Ermitage", "latitude": 48.5568697, "longitude": 2.6409151, "source": "osm", "_tags": {"amenity": "hospital", "fax": "+33 1 64 52 40 32", "healthcare": "hospital", "name": "Clinique Saint-Jean l'Ermitage", "operator:type": "private", "phone": "+33 826 30 77 77", "ref:FR:FINESS": "770300143", "start_date": "2018-06-15", "type:FR:FINESS": "365", "website": "https://www.clinique-saint-jean-ermitage.fr/"}}, {"name": "Centre hospitalier de Nemours", "latitude": 48.2625247, "longitude": 2.703711, "source": "osm", "_tags": {"amenity": "hospital", "emergency": "yes", "fax": "+33 1 64 45 19 20", "name": "Centre hospitalier de Nemours", "operator": "Centre hospitalier du sud Seine-et-Marne", "operator:type": "public", "phone": "+33 1 64 45 19 00", "ref:FR:FINESS": "770000214", "source": "bing", "type:FR:FINESS": "355", "website": "https://www.ch-sud-seine-et-marne.fr/"}}, {"name": "Hôpital privé de l'Ouest Parisien", "latitude": 48.7781858, "longitude": 1.9894983, "source": "osm", "_tags": {"amenity": "hospital", "emergency": "yes", "fax": "+33 1 30 69 45 55", "healthcare": "hospital", "healthcare:speciality": "intensive", "name": "Hôpital privé de l'Ouest Parisien", "operator": "Ramsay Santé", "operator:type": "private", "operator:wikidata": "Q3123085", "phone": "+33 1 86 86 78 78", "ref:FR:FINESS": "780300422", "type:FR:FINESS": "365", "website": "https://hopital-prive-de-l-ouest-parisien-trappes.ramsaygds.fr/"}}, {"name": "Hôpital privé de Thiais", "latitude": 48.7688406, "longitude": 2.3704676, "source": "osm", "_tags": {"addr:housenumber": "112", "addr:street": "Avenue du Général de Gaulle", "amenity": "hospital", "emergency": "yes", "fax": "+33 1 46 87 29 86", "healthcare": "hospital", "name": "Hôpital privé de Thiais", "operator": "GIE Santé & Retraite", "operator:type": "private", "phone": "+33 1 45 60 28 28", "ref:FR:FINESS": "940300445", "type:FR:FINESS": "365", "website": "https://www.hopital-prive-de-thiais.com/"}}, {"name": "Hôpital Antoine Béclère", "latitude": 48.7884468, "longitude": 2.255946, "source": "osm", "_tags": {"amenity": "hospital", "branch": "Université Paris Saclay", "emergency": "yes", "fax": "+33 1 45 37 49 25", "healthcare": "hospital", "healthcare:speciality": "intensive", "name": "Hôpital Antoine Béclère", "operator": "Assistance publique - Hôpitaux de Paris", "operator:short": "APHP", "operator:type": "public", "operator:wikidata": "Q2867205", "operator:wikipedia": "fr:Assistance publique - Hôpitaux de Paris", "phone": "+33 1 45 37 44 44", "ref:FR:FINESS": "920100021", "ref:FR:SIRET": "26750045200391", "type:FR:FINESS": "101", "website": "https://hopital-antoine-beclere.aphp.fr/", "wikidata": "Q3145132"}}, {"name": "Pôle Santé Oréliance", "latitude": 47.9395759, "longitude": 1.8789262, "source": "osm", "_tags": {"addr:housenumber": "555", "addr:street": "Avenue Jacqueline Auriol", "amenity": "hospital", "emergency": "yes", "fax": "+33 2 38 79 60 60", "healthcare": "hospital", "name": "Pôle Santé Oréliance", "operator": "Groupe Saint-Gatien", "operator:type": "private", "phone": "+33 2 38 79 60 00", "ref:FR:FINESS": "450010079", "type:FR:FINESS": "365", "website": "https://oreliance.com/"}}, {"name": "Centre Pédiatrique des Côtes", "latitude": 48.7587155, "longitude": 2.1444544, "source": "osm", "_tags": {"amenity": "hospital", "healthcare": "hospital", "name": "Centre Pédiatrique des Côtes", "ref:FR:FINESS": "780630026", "type:FR:FINESS": "109"}}, {"name": "Gustave Roussy", "latitude": 48.7952702, "longitude": 2.3483503, "source": "osm", "_tags": {"addr:city": "Villejuif", "addr:housenumber": "114", "addr:postcode": "94805", "addr:street": "Rue Édouard Vaillant", "alt_name": "IGR", "amenity": "hospital", "emergency": "no", "healthcare": "hospital", "healthcare:speciality": "oncology;intensive", "internet_access": "wlan", "internet_access:fee": "no", "internet_access:ssid": "GR-INVITES", "name": "Gustave Roussy", "name:etymology:wikidata": "Q3121325", "phone": "+33 1 42 11 42 11", "ref:FR:FINESS": "940000664", "start_date": "1980", "type:FR:FINESS": "131", "website": "https://www.gustaveroussy.fr/", "wheelchair": "yes", "wikidata": "Q266227", "wikipedia": "fr:Gustave-Roussy"}}, {"name": "Clinique des Franciscaines", "latitude": 48.7938147, "longitude": 2.1395342, "source": "osm", "_tags": {"amenity": "hospital", "emergency": "yes", "fax": "+33 1 30 97 33 38", "healthcare": "hospital", "name": "Clinique des Franciscaines", "operator": "Ramsay Santé", "operator:type": "private", "operator:wikidata": "Q3123085", "phone": "+33 1 30 97 33 33", "ref:FR:FINESS": "780300323", "ref:FR:NAF": "8610Z", "ref:FR:SIRET": "43219715000019", "type:FR:FINESS": "365", "website": "https://hopital-prive-de-versailles.ramsaygds.fr/"}}, {"name": "Hopital de Pédiatrie et de Rééducation de Bullion", "latitude": 48.6328997, "longitude": 2.0113402, "source": "osm", "_tags": {"amenity": "hospital", "email": "hpr@hpr-bullion.fr", "healthcare": "hospital", "name": "Hopital de Pédiatrie et de Rééducation de Bullion", "phone": "+33 1 34 85 43 00", "ref:FR:FINESS": "780001657", "short_name": "HPR de Bullion", "type:FR:FINESS": "355", "website": "https://www.hpr-bullion.fr/"}}, {"name": "Hôpital privé Paul d'Égine", "latitude": 48.8113659, "longitude": 2.5168359, "source": "osm", "_tags": {"amenity": "hospital", "emergency": "yes", "fax": "+33 1 48 81 91 74", "healthcare": "hospital", "name": "Hôpital privé Paul d'Égine", "operator": "Ramsay Santé", "operator:type": "private", "operator:wikidata": "Q3123085", "phone": "+33 1 86 86 66 00", "ref:FR:FINESS": "940300031", "type:FR:FINESS": "365", "website": "https://hopital-prive-paul-d-egine-champigny-sur-marne.ramsaygds.fr/"}}, {"name": "Clinique de Saclas", "latitude": 48.3563051, "longitude": 2.1276314, "source": "osm", "_tags": {"amenity": "hospital", "healthcare": "hospital", "name": "Clinique de Saclas", "opening_hours": "Mo-Su 09:00-12:00, 14:00-18:00", "ref:FR:FINESS": "910300235", "ref:FR:SIRET": "97020107500011", "type:FR:FINESS": "109"}}, {"name": "Maison d'accueil spécialisée Les Jours Heureux", "latitude": 48.6629093, "longitude": 2.3083621, "source": "osm", "_tags": {"addr:city": "Épinay-sur-Orge", "addr:housenumber": "8", "addr:postcode": "91360", "addr:street": "Rue Pierre Médéric", "amenity": "hospital", "healthcare": "hospital", "name": "Maison d'accueil spécialisée Les Jours Heureux", "operator": "Association Les Jours Heureux", "website": "https://www.lesjoursheureux.asso.fr/etablissement/maison-daccueil-specialisee-epinay-orge/"}}, {"name": "Centre hospitalier Barthélémy Durand", "latitude": 48.655663, "longitude": 2.3129533, "source": "osm", "_tags": {"addr:city": "Sainte-Geneviève-des-Bois", "addr:housenumber": "2", "addr:postcode": "91700", "addr:street": "Route de Longpont", "amenity": "hospital", "healthcare": "hospital", "name": "Centre hospitalier Barthélémy Durand", "operator": "Centre hospitalier Barthélémy Durand", "operator:type": "public", "ref:FR:FINESS": "910018910", "ref:FR:SIRET": "26910009500638", "source": "Le ministère des solidarités et de la santé - 03/2019", "type:FR:FINESS": "292", "wikipedia": "fr:Centre hospitalier Barthélémy Durand"}}, {"name": "Clinique de l'Isle", "latitude": 48.7131454, "longitude": 2.4594357, "source": "osm", "_tags": {"amenity": "hospital", "healthcare": "hospital", "name": "Clinique de l'Isle", "ref:FR:FINESS": "910310044", "ref:FR:SIRET": "30116075000735", "type:FR:FINESS": "161", "website": "https://www.clinea.fr/clinique-de-lisle-le-moulin-crosne-91/https://www.clinea.fr/clinique-de-lisle-le-moulin-crosne-91/"}}, {"name": "Centre Hospitalier de Brie-Comte-Robert", "latitude": 48.6929693, "longitude": 2.6056453, "source": "osm", "_tags": {"amenity": "hospital", "name": "Centre Hospitalier de Brie-Comte-Robert", "ref:FR:FINESS": "770000180", "source": "Le ministère des solidarités et de la santé - 03/2019"}}, {"name": "Hôpital Privé d'Athis-Mons", "latitude": 48.700027, "longitude": 2.3765671, "source": "osm", "_tags": {"addr:housenumber": "38", "addr:street": "Avenue Jules Vallès", "alt_name": "Hôpital privé - Site Jules Vallès", "amenity": "hospital", "healthcare": "hospital", "healthcare:speciality": "dialysis;chiropractic;general;radiology", "height": "10", "name": "Hôpital Privé d'Athis-Mons", "phone": "+33 1 69544545", "ref:FR:FINESS": "910300029", "type:FR:FINESS": "365"}}, {"name": "Centre Hospitalier Public Fondation Vallée", "latitude": 48.810488, "longitude": 2.3468006, "source": "osm", "_tags": {"addr:city": "Gentilly", "addr:country": "FR", "addr:housenumber": "7", "addr:postcode": "94250", "addr:street": "Rue Bensérade", "amenity": "hospital", "email": "secdirection@ch-fondationvallee.fr", "emergency": "yes", "fax": "+33 1 41 24 81 50", "healthcare": "hospital", "healthcare:speciality": "child_psychiatry", "name": "Centre Hospitalier Public Fondation Vallée", "phone": "+33 1 41 24 81 00", "source": "extrapolation", "start_date": "1847", "website": "https://www.ch-fondationvallee.fr/"}}, {"name": "Centre de Santé Jean Moulin", "latitude": 48.7983625, "longitude": 2.503839, "source": "osm", "_tags": {"amenity": "hospital", "healthcare": "hospital", "name": "Centre de Santé Jean Moulin", "phone": "+33141814553", "ref:FR:FINESS": "940800758", "ref:FR:SIRET": "26940134500146", "source": "Le ministère des solidarités et de la santé - 03/2019", "type:FR:FINESS": "292"}}, {"name": "Clinique de Villiers - Repotel", "latitude": 48.6524205, "longitude": 2.2923453, "source": "osm", "_tags": {"amenity": "hospital", "healthcare": "hospital", "name": "Clinique de Villiers - Repotel", "ref:FR:FINESS": "910300276", "type:FR:FINESS": "109"}}, {"name": "Pôle de Gérontologie - Centre hospitalier d'Arpajon", "latitude": 48.5832707, "longitude": 2.2376943, "source": "osm", "_tags": {"addr:city": "Égly", "addr:postcode": "91520", "addr:street": "Rue de la Croix d'Égly", "amenity": "hospital", "healthcare": "hospital", "name": "Pôle de Gérontologie - Centre hospitalier d'Arpajon", "operator": "Centre hospitalier d'Arpajon", "operator:type": "public"}}, {"name": "Clinique Les Vallées", "latitude": 48.7027122, "longitude": 2.5190627, "source": "osm", "_tags": {"addr:housenumber": "86", "addr:street": "Rue du Rôle", "amenity": "hospital", "healthcare": "hospital", "healthcare:speciality": "geriatrics", "name": "Clinique Les Vallées", "operator": "Sas Clinea", "ref:FR:FINESS": "910300060", "ref:FR:NAF": "8610Z", "type:FR:FINESS": "129", "website": "https://www.clinea.fr/clinique-les-vallees-brunoy-91"}}, {"name": "L'Eau Vive", "latitude": 48.6429383, "longitude": 2.4583101, "source": "osm", "_tags": {"healthcare": "hospital", "healthcare:speciality": "psychiatry", "name": "L'Eau Vive"}}, {"name": "", "latitude": 47.90629, "longitude": 1.91918, "source": "osm", "_tags": {"amenity": "hospital", "healthcare": "hospital"}}, {"name": "", "latitude": 47.8768685, "longitude": 1.9533943, "source": "osm", "_tags": {"amenity": "hospital", "healthcare": "hospital"}}, {"name": "Hôpital Paris Saclay", "latitude": 48.7171726, "longitude": 2.1915062, "source": "osm", "_tags": {"addr:postcode": "91400", "addr:street": "Parvis de l'Hôpital", "amenity": "hospital", "healthcare": "hospital", "healthcare:speciality": "general;emergency;gynaecology", "name": "Hôpital Paris Saclay", "operator": "Groupe Hospitalier Nord Essonne", "operator:type": "public", "operator:wikidata": "Q60846213", "phone": "+33169159191", "ref:FR:FINESS": "910026780", "type:FR:FINESS": "355", "website": "https://www.gh-nord-essonne.fr/site-hospitalier/hopital-paris-saclay/", "wheelchair": "yes"}}, {"name": "Centre Hospitalier Marc Jacquet", "latitude": 48.5391628, "longitude": 2.6714911, "source": "osm", "_tags": {"amenity": "hospital", "name": "Centre Hospitalier Marc Jacquet"}}, {"name": "Clinique de l'Essonne", "latitude": 48.638329, "longitude": 2.4252256, "source": "osm", "_tags": {"alt_name": "Hôpital Privé d'Évry", "amenity": "hospital", "healthcare": "hospital", "name": "Clinique de l'Essonne", "phone": "+33 1 60 87 87 10"}}, {"name": "Hôpital de Jour de Chevilly-Larue", "latitude": 48.7707686, "longitude": 2.3569362, "source": "osm", "_tags": {"amenity": "hospital", "contact:phone": "+33 1 46 86 85 76", "name": "Hôpital de Jour de Chevilly-Larue", "phone": "+33 1 46 86 85 76"}}, {"name": "Clinique Le Moulin de Viry", "latitude": 48.6673739, "longitude": 2.373376, "source": "osm", "_tags": {"amenity": "hospital", "building": "yes", "healthcare": "hospital", "name": "Clinique Le Moulin de Viry", "ref:FR:FINESS": "910015965", "type": "multipolygon", "type:FR:FINESS": "365"}}, {"name": "Hôpital Henri Mondor", "latitude": 48.7963917, "longitude": 2.452986, "source": "osm", "_tags": {"addr:housenumber": "1", "addr:street": "Rue Gustave Eiffel", "alt_name": "Groupe hospitalier Henri Mondor", "amenity": "hospital", "branch": "Hôpitaux Universitaires Henri Mondor", "emergency": "yes", "fax": "+33 1 49 81 21 99", "healthcare": "hospital", "healthcare:speciality": "intensive", "name": "Hôpital Henri Mondor", "operator": "Assistance publique - Hôpitaux de Paris", "operator:short": "APHP", "operator:type": "public", "operator:wikidata": "Q2867205", "operator:wikipedia": "fr:Assistance publique - Hôpitaux de Paris", "phone": "+33 1 49 81 21 11", "ref:FR:FINESS": "940100027", "ref:FR:SIRET": "26750045200557", "short_name": "CHU Henri Mondor", "source": "cadastre-dgi-fr source : Direction Générale des Impôts - Cadastre. Mise à jour : 2010", "type": "multipolygon", "type:FR:FINESS": "101", "website": "https://chu-mondor.aphp.fr/", "wikidata": "Q2945751", "wikipedia": "fr:Centre hospitalier universitaire Henri-Mondor"}}, {"name": "", "latitude": 48.662889, "longitude": 2.3082498, "source": "osm", "_tags": {"building": "yes", "healthcare": "hospital", "type": "multipolygon"}}, {"name": "Maison d'accueil spécialisée La Gilquinière", "latitude": 48.6582798, "longitude": 2.3105851, "source": "osm", "_tags": {"addr:city": "Épinay-sur-Orge", "addr:postcode": "91360", "building": "yes", "healthcare": "hospital", "name": "Maison d'accueil spécialisée La Gilquinière", "source": "cadastre-dgi-fr source : Direction Generale des Impots - Cadastre. Mise a jour : 2014", "type": "multipolygon"}}, {"name": "Hôpital Charles Foix", "latitude": 48.8055763, "longitude": 2.3953875, "source": "osm", "_tags": {"amenity": "hospital", "branch": "Sorbonne Université", "healthcare": "hospital", "name": "Hôpital Charles Foix", "operator": "Assistance publique - Hôpitaux de Paris", "operator:short": "APHP", "operator:type": "public", "operator:wikidata": "Q2867205", "phone": "+33149594000", "ref:FR:FINESS": "940100035", "ref:FR:SIRET": "26750045200425", "source": "Le ministère des solidarités et de la santé - 03/2019", "type": "multipolygon", "type:FR:FINESS": "101", "website": "https://charlesfoix.aphp.fr/", "wikidata": "Q3145146"}}, {"name": "Hôpital Forcilles", "latitude": 48.7234051, "longitude": 2.6155069, "source": "osm", "_tags": {"addr:city": "Férolles-Attilly", "addr:country": "FR", "addr:postcode": "77150", "addr:street": "Route de Servon", "amenity": "hospital", "healthcare": "hospital", "name": "Hôpital Forcilles", "ref:FR:FINESS": "770020477", "type": "multipolygon", "type:FR:FINESS": "129", "website": "https://hopital-forcilles.cognacq-jay.fr/"}}, {"name": "Hôpital privé de Vitry - Site Noriets", "latitude": 48.7944436, "longitude": 2.3813949, "source": "osm", "_tags": {"amenity": "hospital", "fax": "+33 1 46 77 75 54", "name": "Hôpital privé de Vitry - Site Noriets", "operator": "Groupe Elsan", "operator:type": "private", "phone": "+33 1 45 59 55 00", "ref:FR:FINESS": "940300551", "type": "multipolygon", "type:FR:FINESS": "365", "website": "https://www.hopitalprivedevitry.fr/"}}, {"name": "Hôpital de jour", "latitude": 48.7941135, "longitude": 2.4516105, "source": "osm", "_tags": {"amenity": "hospital", "healthcare": "hospital", "name": "Hôpital de jour", "type": "multipolygon"}}]