[{"name": "Maison de Santé Pluridisciplinaire de la Charme", "latitude": 47.9263567, "longitude": 6.6608787, "source": "osm", "_tags": {"addr:city": "Rupt-sur-Moselle", "addr:housenumber": "4 B", "addr:postcode": "88360", "addr:street": "Rue Louis Courroy", "amenity": "hospital", "emergency": "yes", "healthcare": "hospital", "healthcare:speciality": "vaccination;covid19;infirmières;médecins;orthophoniste;kinésithérapeute;psycpsychologue", "name": "Maison de Santé Pluridisciplinaire de la Charme", "phone": "+33 3 29 24 35 69", "website": "https://ruptsante.fr/", "wheelchair": "yes"}}, {"name": "Hôpital Val du Madon", "latitude": 48.3054869, "longitude": 6.1333533, "source": "osm", "_tags": {"amenity": "hospital", "healthcare": "hospital", "name": "Hôpital Val du Madon", "ref:FR:FINESS": "880000138", "type:FR:FINESS": "106", "wikidata": "Q92063245"}}, {"name": "Centre Hospitalier Spécialisé de Clairefontaine", "latitude": 47.8574153, "longitude": 6.0827932, "source": "osm", "_tags": {"amenity": "hospital", "healthcare": "hospital", "healthcare:speciality": "psychiatry", "name": "Centre Hospitalier Spécialisé de Clairefontaine", "ref:FR:FINESS": "700780299", "type:FR:FINESS": "292"}}, {"name": "Centre hospitalier de Bourbonne-les-Bains", "latitude": 47.9536497, "longitude": 5.7446855, "source": "osm", "_tags": {"amenity": "hospital", "name": "Centre hospitalier de Bourbonne-les-Bains"}}, {"name": "Centre d'hemodialyse", "latitude": 48.7025608, "longitude": 6.1394152, "source": "osm", "_tags": {"access": "customers", "amenity": "hospital", "contact:housenumber": "5", "contact:street": "Rue Colette", "healthcare": "clinic", "name": "Centre d'hemodialyse", "operator": "Groupe Elsan", "operator:type": "private", "operator:wikidata": "Q48747106"}}, {"name": "Orthoptiste", "latitude": 48.174725, "longitude": 6.4297931, "source": "osm", "_tags": {"addr:city": "Chantraine", "addr:housenumber": "4", "addr:postcode": "88000", "addr:street": "allée Paul Decauville", "amenity": "hospital", "healthcare": "hospital", "name": "Orthoptiste", "phone": "0372540605"}}, {"name": "Centre Hospitalier Psychiatrique de Ravenel", "latitude": 48.2935529, "longitude": 6.1099452, "source": "osm", "_tags": {"addr:city": "Mirecourt", "addr:housenumber": "1115", "addr:postcode": "88500", "addr:street": "Avenue Porterat", "amenity": "hospital", "emergency": "no", "fax": "+33 3 29 37 83 79", "healthcare": "hospital", "healthcare:speciality": "psychiatry", "name": "Centre Hospitalier Psychiatrique de Ravenel", "phone": "+33 3 29 37 00 77", "ref:FR:FINESS": "880000088", "source": "survey;local knowledge", "type:FR:FINESS": "292", "website": "http://www.ch-ravenel.fr"}}, {"name": "Hôpital Central", "latitude": 48.6845827, "longitude": 6.1917704, "source": "osm", "_tags": {"amenity": "hospital", "contact:housenumber": "29", "contact:street": "Rue Lionnois", "contact:website": "http://www.chu-nancy.fr/", "emergency": "yes", "healthcare": "hospital", "healthcare:speciality": "intensive", "name": "Hôpital Central", "ref:FR:FINESS": "540001138", "ref:FR:NAF": "8610Z", "ref:FR:SIRET": "20004216600013", "short_name": "C.H.U. de Nancy", "source": "cadastre-dgi-fr source : Direction Générale des Impôts - Cadastre;mise à jour : 2009", "type:FR:FINESS": "101", "wikidata": "Q107170073"}}, {"name": "Centre Hospitalier Universitaire Nancy Saint-Stanislas", "latitude": 48.6861248, "longitude": 6.187002, "source": "osm", "_tags": {"amenity": "hospital", "healthcare": "hospital", "name": "Centre Hospitalier Universitaire Nancy Saint-Stanislas"}}, {"name": "Hôpital Saint-Julien", "latitude": 48.6869301, "longitude": 6.1932542, "source": "osm", "_tags": {"amenity": "hospital", "check_date": "2025-04-09", "contact:housenumber": "1", "contact:street": "Rue Foller", "healthcare": "hospital", "name": "Hôpital Saint-Julien", "ref:FR:FINESS": "540003043", "source": "cadastre-dgi-fr source : Direction Générale des Impôts - Cadastre;mise à jour : 2009", "wikidata": "Q2945739", "wikipedia": "fr:Centre hospitalier régional et universitaire de Nancy"}}, {"name": "Centre Médico-Psychologique Enfants et Adolscent - Hôpital de jour enfants", "latitude": 48.0126902, "longitude": 6.5970145, "source": "osm", "_tags": {"addr:city": "Remiremont", "addr:housenumber": "7", "addr:postcode": "88200", "addr:street": "Rue du Capitaine Flayelle", "amenity": "clinic", "healthcare": "hospital", "healthcare:speciality": "psychotherapist", "name": "Centre Médico-Psychologique Enfants et Adolscent - Hôpital de jour enfants", "source": "cadastre-dgi-fr source : Direction Générale des Impôts - Cadastre. Mise à jour : 2010"}}, {"name": "Hôpital de Jour La Roche d'Arma", "latitude": 48.0100292, "longitude": 6.588344, "source": "osm", "_tags": {"addr:city": "Remiremont", "addr:housenumber": "11", "addr:postcode": "88200", "addr:street": "Chemin des Granges Puton", "amenity": "clinic", "healthcare": "hospital", "healthcare:speciality": "psychiatry", "name": "Hôpital de Jour La Roche d'Arma", "source": "cadastre-dgi-fr source : Direction Générale des Impôts - Cadastre. Mise à jour : 2010"}}, {"name": "Hôpital d'enfants", "latitude": 48.6478659, "longitude": 6.1511205, "source": "osm", "_tags": {"building": "hospital", "emergency": "yes", "healthcare": "hospital", "name": "Hôpital d'enfants", "source": "cadastre-dgi-fr source : Direction Générale des Impôts - Cadastre. Mise à jour : 2010"}}, {"name": "Institut de Cancérologie de Lorraine", "latitude": 48.6473275, "longitude": 6.144446, "source": "osm", "_tags": {"amenity": "hospital", "building": "hospital", "contact:phone": "+33 3 83 59 84 00", "contact:website": "http://www.icl-lorraine.fr", "healthcare": "hospital", "name": "Institut de Cancérologie de Lorraine", "old_name": "Centre Alexis Vautrin", "operator:type": "private_non_profit", "ref:FR:FINESS": "540001286", "source": "cadastre-dgi-fr source : Direction Générale des Impôts - Cadastre. Mise à jour : 2010", "type:FR:FINESS": "131", "wikidata": "Q2944792"}}, {"name": "Centre de Rééducation Florentin", "latitude": 48.6880745, "longitude": 6.197635, "source": "osm", "_tags": {"amenity": "hospital", "building": "hospital", "contact:housenumber": "2", "contact:street": "Rue des Cinq Piquets", "healthcare": "hospital", "healthcare:speciality": "physiatry", "name": "Centre de Rééducation Florentin", "ref:FR:FINESS": "540020146", "source": "cadastre-dgi-fr source : Direction Générale des Impôts - Cadastre. Mise à jour : 2011", "type:FR:FINESS": "109", "wheelchair": "yes"}}, {"name": "Centre Hospitalier de Remiremont", "latitude": 48.0132221, "longitude": 6.592746, "source": "osm", "_tags": {"addr:city": "Remiremont", "addr:housenumber": "1", "addr:postcode": "88200", "addr:street": "Rue Georges Lang", "amenity": "hospital", "email": "direction@ch-remiremont.fr", "emergency": "yes", "fax": "+33 329 234 060", "healthcare": "hospital", "healthcare:speciality": "emergency;gynaecology;radiology;maternity;neurology;surgery;cardiology;geriatrics", "name": "Centre Hospitalier de Remiremont", "operator": "C.H.R.U. de Nancy", "operator:type": "public", "phone": "+33 329 234 141", "ref:FR:FINESS": "880000062", "start_date": "1974-04", "type:FR:FINESS": "355", "website": "http://www.ch-remiremont.fr/", "wheelchair": "yes"}}, {"name": "Centre hospitalier de Luxeuil-les-Bains", "latitude": 47.8221761, "longitude": 6.3802628, "source": "osm", "_tags": {"alt_name": "CHI 70 - Site de Luxeuil", "amenity": "hospital", "email": "contact@gh70.fr", "emergency": "yes", "fax": "+33 3 84 93 35 01", "name": "Centre hospitalier de Luxeuil-les-Bains", "operator": "Groupe hospitalier de la Haute-Saône", "operator:type": "public", "phone": "+33 3 84 93 35 50", "ref:FR:FINESS": "700780059", "type:FR:FINESS": "355", "website": "https://www.gh70.fr/", "wikimedia_commons": "Category:Hôpital de Luxeuil-les-Bains"}}, {"name": "Maison médicale", "latitude": 48.0935525, "longitude": 6.6109471, "source": "osm", "_tags": {"addr:city": "Eloyes", "addr:housenumber": "2", "addr:postcode": "88510", "addr:street": "Rue des Donjons", "amenity": "hospital", "building": "yes", "healthcare": "hospital", "healthcare:speciality": "general", "name": "Maison médicale", "source": "extraction vectorielle v1 cadastre-dgi-fr source : Direction Générale des Impôts - Cadas. Mise à jour : 2010"}}, {"name": "Centre Hospitalier de Toul - Saint-Charles", "latitude": 48.6762499, "longitude": 5.8874591, "source": "osm", "_tags": {"alt_name": "Centre Hospitalier Saint-Charles", "amenity": "hospital", "contact:email": "direction@ch-toul.fr", "contact:fax": "+33 3 83622000", "contact:housenumber": "1", "contact:phone": "+33 3 83622020", "contact:street": "Cours Raymond Poincaré", "contact:website": "http://www.ch-toul.fr/", "emergency": "yes", "healthcare": "hospital", "name": "Centre Hospitalier de Toul - Saint-Charles", "operator:type": "public", "ref:FR:FINESS": "540000023", "ref:FR:SIRET": "26540018400015", "source": "survey", "start_date": "1901-01-01", "type:FR:FINESS": "355"}}, {"name": "Maternité Régionale Universitaire de Nancy", "latitude": 48.681242, "longitude": 6.1897766, "source": "osm", "_tags": {"amenity": "hospital", "healthcare": "hospital", "name": "Maternité Régionale Universitaire de Nancy", "ref:FR:FINESS": "540000015", "ref:FR:NAF": "8610Z", "ref:FR:SIRET": "20004216600112", "source": "survey", "type:FR:FINESS": "101", "website": "http://www.maternite.chu-nancy.fr", "wikidata": "Q107270237"}}, {"name": "Centre Psychothérapique de Nancy", "latitude": 48.6776554, "longitude": 6.1368289, "source": "osm", "_tags": {"alt_name": "CPN", "amenity": "hospital", "email": "direction@cpn-laxou.com", "fax": "+33 3 83 92 52 52", "healthcare": "hospital", "name": "Centre Psychothérapique de Nancy", "operator:type": "public", "phone": "+33 3 83 92 50 50", "ref:FR:FANTOIR": "543040090A", "ref:FR:FINESS": "540014073", "type:FR:FINESS": "292", "website": "http://www.cpn-laxou.com/", "wikidata": "Q64555579"}}, {"name": "Les Maisons Hospitalières", "latitude": 48.6858585, "longitude": 6.183744, "source": "osm", "_tags": {"amenity": "hospital", "healthcare": "hospital", "healthcare:speciality": "geriatrics", "name": "Les Maisons Hospitalières", "operator": "Association Les Maisons Hospitalières", "operator:type": "private", "phone": "+33 3 83 36 86 00", "ref:FR:FINESS": "540000395", "ref:FR:SIRET": "26540011900300", "source": "GrandNancy Orthophotographie 2012", "type:FR:FINESS": "129", "website": "https://www.les-maisons-hospitalieres.fr/"}}, {"name": "CHRU de Nancy Brabois", "latitude": 48.6471211, "longitude": 6.1496974, "source": "osm", "_tags": {"alt_name": "Hôpitaux de Brabois", "amenity": "hospital", "contact:phone": "+33 3 83 15 30 30", "emergency": "yes", "healthcare": "hospital", "healthcare:speciality": "intensive", "name": "CHRU de Nancy Brabois", "ref:FR:FINESS": "540002698", "ref:FR:NAF": "8610Z", "ref:FR:SIRET": "20004216600161", "type:FR:FINESS": "101", "website": "https://www.chru-nancy.fr/index.php/brabois", "wikidata": "Q104875598"}}, {"name": "Centre Jacques Parisot", "latitude": 48.5883109, "longitude": 6.0954266, "source": "osm", "_tags": {"addr:housenumber": "78", "addr:street": "Rue Jacques Callot", "amenity": "hospital", "email": "cjp@ohs.asso.fr", "healthcare": "hospital", "landuse": "healthcare", "name": "Centre Jacques Parisot", "operator": "OHS", "operator:type": "private", "ref:FR:FINESS": "540000668", "social_facility": "group_home", "social_facility:for": "disabled", "source": "Ortho HR", "type:FR:FINESS": "109"}}, {"name": "Centre de Réadaptation de Lay-Saint-Christophe", "latitude": 48.7477961, "longitude": 6.1825158, "source": "osm", "_tags": {"amenity": "hospital", "healthcare": "hospital", "name": "Centre de Réadaptation de Lay-Saint-Christophe", "ref:FR:FINESS": "540009412", "type:FR:FINESS": "109"}}, {"name": "Centre hospitalier Émile Durkheim", "latitude": 48.1940489, "longitude": 6.4314866, "source": "osm", "_tags": {"amenity": "hospital", "emergency": "no", "fax": "+33 3 29 68 15 29", "healthcare": "hospital", "name": "Centre hospitalier Émile Durkheim", "operator": "CH Emile DURKHEIM", "operator:type": "public", "phone": "+33 3 29 68 15 15", "ref:FR:FINESS": "880000336", "type:FR:FINESS": "355", "wheelchair": "yes"}}, {"name": "Centre Chirurgical Émile Gallé", "latitude": 48.6985114, "longitude": 6.1716387, "source": "osm", "_tags": {"amenity": "hospital", "healthcare": "hospital", "name": "Centre Chirurgical Émile Gallé", "phone": "+33 3 83 85 75 00", "ref:FR:FINESS": "540000163", "source": "GrandNancy Orthophotographie 2012", "website": "http://www.centre-chirurgical-emile-galle.fr/", "wheelchair": "yes"}}, {"name": "Hôpital Saint-Jacques", "latitude": 48.8138158, "longitude": 6.721822, "source": "osm", "_tags": {"amenity": "hospital", "fax": "+33 3 87 86 85 23", "healthcare": "hospital", "landuse": "healthcare", "name": "Hôpital Saint-Jacques", "phone": "+33 3 87 05 02 00", "ref:FR:FINESS": "570000992", "type:FR:FINESS": "106", "website": "http://www.hopital-dieuze.fr/", "wikidata": "Q92062534"}}, {"name": "Centre médico-psychologique - Unité pour soins intensifs psychiatriques - Hôpital de jour Maxéville", "latitude": 48.7132248, "longitude": 6.1609604, "source": "osm", "_tags": {"amenity": "hospital", "healthcare": "hospital", "name": "Centre médico-psychologique - Unité pour soins intensifs psychiatriques - Hôpital de jour Maxéville", "ref:FR:FINESS": "540010733", "short_name": "CMP - USIP - HJ Maxéville", "source": "GrandNancy Orthophotographie 2012", "type:FR:FINESS": "292", "website": "http://www.cpn-laxou.com/CMP-USIP-HJ-Maxeville.html"}}, {"name": "Hôpital local de Lamarche", "latitude": 48.0703583, "longitude": 5.7796608, "source": "osm", "_tags": {"amenity": "hospital", "emergency": "no", "fax": "+33 3 29 09 66 77", "healthcare": "hospital", "name": "Hôpital local de Lamarche", "operator:type": "public", "phone": "+33 3 29 09 50 28", "ref:FR:FINESS": "880000187", "type:FR:FINESS": "106", "wikidata": "Q92062941"}}, {"name": "Polyclinique Majorelle", "latitude": 48.7012785, "longitude": 6.1438683, "source": "osm", "_tags": {"amenity": "hospital", "healthcare": "hospital", "name": "Polyclinique Majorelle", "ref:FR:FINESS": "540013224", "source": "GrandNancy Orthophotographie 2016", "type:FR:FINESS": "365", "website": "http://www.majorelle.groupe-elsan.com/", "wheelchair": "yes"}}, {"name": "Hôpital Privé Nancy Lorraine", "latitude": 48.7017201, "longitude": 6.1399073, "source": "osm", "_tags": {"amenity": "hospital", "contact:housenumber": "2", "contact:street": "Rue Marie Marvingt", "emergency": "no", "healthcare": "hospital", "healthcare:speciality": "intensive", "name": "Hôpital Privé Nancy Lorraine", "operator": "Elsan", "operator:type": "private", "operator:wikidata": "Q48747106", "ref:FR:FANTOIR": "54395A037S", "ref:FR:FINESS": "540000486", "type:FR:FINESS": "365", "website": "https://www.elsan.care/fr/hopital-prive-nancy-lorraine"}}, {"name": "Clinique Saint-André", "latitude": 48.6612107, "longitude": 6.1585358, "source": "osm", "_tags": {"amenity": "hospital", "check_date": "2025-07-22", "healthcare": "hospital", "name": "Clinique Saint-André", "network": "Elsan", "operator:type": "private", "ref:FR:FINESS": "540000452", "source": "survey;GrandNancy Orthophotographie 2016", "type:FR:FINESS": "365", "website": "http://www.saint-andre.groupe-elsan.com/"}}, {"name": "Clinique Bellefontaine", "latitude": 48.7034017, "longitude": 6.1406495, "source": "osm", "_tags": {"amenity": "clinic", "healthcare": "hospital", "name": "Clinique Bellefontaine", "network": "Clinea Cliniques", "operator": "Orpea", "operator:type": "private", "ref:FR:FINESS": "540022837", "source": "knowledge;GrandNancy Orthophotographie 2016", "type:FR:FINESS": "109", "website": "https://www.orpea.com/clinique-bellefontaine-nancy-54"}}, {"name": "Clinique Pasteur", "latitude": 48.7024395, "longitude": 6.2302873, "source": "osm", "_tags": {"amenity": "hospital", "healthcare": "hospital", "name": "Clinique Pasteur"}}, {"name": "Centre hospitalier de Lunéville", "latitude": 48.5888823, "longitude": 6.4908177, "source": "osm", "_tags": {"addr:housenumber": "6", "addr:street": "Rue Girardet", "amenity": "hospital", "email": "direction@ch-luneville.fr", "emergency": "yes", "fax": "+33 3 83 74 38 97", "healthcare": "hospital", "name": "Centre hospitalier de Lunéville", "operator:type": "public", "phone": "+33 3 83 76 12 12", "ref:FR:FINESS": "540000155", "type:FR:FINESS": "355", "website": "http://www.ch-luneville.fr/index.php"}}, {"name": "Centre Hospitalier de Bourbonne les Bains", "latitude": 47.9462519, "longitude": 5.7350882, "source": "osm", "_tags": {"amenity": "hospital", "healthcare": "hospital", "name": "Centre Hospitalier de Bourbonne les Bains", "ref:FR:FINESS": "520000019", "type:FR:FINESS": "106", "wikidata": "Q92063188"}}, {"name": "Centre Hospitalier de l'Ouest Vosgien - Site de Vittel", "latitude": 48.2066306, "longitude": 5.9475859, "source": "osm", "_tags": {"addr:housenumber": "191", "amenity": "hospital", "email": "direction@ch-ouestvosgien.fr", "emergency": "yes", "fax": "+33 3 29 05 88 15", "healthcare": "hospital", "name": "Centre Hospitalier de l'Ouest Vosgien - Site de Vittel", "operator:type": "public", "phone": "+33 3 29 94 80 00", "ref:FR:FINESS": "880000070", "source": "cadastre-dgi-fr source : Direction Générale des Finances Publiques - Cadastre. Mise à jour : 2014", "type:FR:FINESS": "355", "website": "http://www.ch-ouestvosgien.fr/"}}, {"name": "Clinique Pasteur", "latitude": 48.7023662, "longitude": 6.2174035, "source": "osm", "_tags": {"amenity": "hospital", "contact:housenumber": "7", "contact:street": "Rue Parmentier", "email": "direction@clinique-louispasteur.com", "facebook": "Clinique Louis Pasteur", "fax": "+33 3 83 21 30 20", "healthcare": "hospital", "healthcare:speciality": "surgery;cardiology;dialysis;intensive", "name": "Clinique Pasteur", "operator:type": "private", "phone": "+33 3 83 18 83 83", "ref:FR:FINESS": "540000478", "source": "GrandNancy Orthophotographie 2016", "type:FR:FINESS": "365", "website": "http://www.clinique-louispasteur.com/"}}, {"name": "Centre Hospitalier Spécialisé de Saint-Rémy & Nord Franche-Comté", "latitude": 47.8306791, "longitude": 6.0920733, "source": "osm", "_tags": {"amenity": "hospital", "healthcare": "hospital", "healthcare:speciality": "psychiatry", "name": "Centre Hospitalier Spécialisé de Saint-Rémy & Nord Franche-Comté", "operator": "AHBFC", "ref:FR:FINESS": "700780075", "type:FR:FINESS": "292"}}, {"name": "Unité de Soins Longue Durée La Chênaie", "latitude": 47.8383441, "longitude": 6.0916025, "source": "osm", "_tags": {"amenity": "hospital", "healthcare": "hospital", "name": "Unité de Soins Longue Durée La Chênaie", "ref:FR:FINESS": "700784341", "type:FR:FINESS": "362"}}, {"name": "Institut Régional de Médecine Physique et de Réadaptation", "latitude": 48.68651, "longitude": 6.196233, "source": "osm", "_tags": {"addr:housenumber": "75", "alt_name": "Centre de réadaptation fonctionnelle Louis Pierquin", "amenity": "hospital", "check_date": "2024-05-30", "emergency": "no", "healthcare": "hospital", "name": "Institut Régional de Médecine Physique et de Réadaptation", "operator": "Ugecam Nord-Est", "operator:type": "public", "phone": "+33 3 83 52 97 00", "ref:FR:FINESS": "540009701", "short_name": "IRR", "source": "cadastre-dgi-fr source : Direction Générale des Impôts - Cadastre. Mise à jour : 2011", "toilets:wheelchair": "yes", "type:FR:FINESS": "109", "wheelchair": "yes"}}, {"name": "Hôpital de l'Avison", "latitude": 48.2064146, "longitude": 6.7235094, "source": "osm", "_tags": {"addr:city": "Bruyères", "addr:country": "FR", "addr:housenumber": "16", "addr:postcode": "88600", "addr:street": "Rue de l'Hôpital", "amenity": "hospital", "name": "Hôpital de l'Avison", "ref:FR:FINESS": "880000104", "type:FR:FINESS": "106", "wikidata": "Q92062558"}}, {"name": "Maison de Santé St Jean", "latitude": 48.1690863, "longitude": 6.4520994, "source": "osm", "_tags": {"addr:city": "Épinal", "addr:housenumber": "31", "addr:postcode": "88000", "addr:street": "Rue Thiers", "amenity": "hospital", "emergency": "no", "healthcare": "hospital", "name": "Maison de Santé St Jean", "operator": "Centre Hospitalier Emile Durkheim", "operator:type": "public", "ref:FR:FINESS": "880006663", "source": "extraction vectorielle v1 cadastre-dgi-fr source : Direction Générale des Impôts - Cadas. Mise à jour : 2010", "type:FR:FINESS": "292"}}, {"name": "Centre Hospitalier de Pompey-Lay-Saint-Christophe", "latitude": 48.7649646, "longitude": 6.1193856, "source": "osm", "_tags": {"amenity": "hospital", "contact:fax": "+33 3 83243856", "contact:phone": "+33 3 83917000", "contact:website": "https://www.hopital-pompey.fr/", "healthcare": "hospital", "name": "Centre Hospitalier de Pompey-Lay-Saint-Christophe", "ref:FR:FINESS": "540000270", "source": "Ortho HR", "type:FR:FINESS": "106", "wikidata": "Q92062905"}}, {"name": "Clinique La Ligne Bleue", "latitude": 48.1995804, "longitude": 6.4632251, "source": "osm", "_tags": {"addr:city": "Épinal", "addr:country": "FR", "addr:housenumber": "9", "addr:postcode": "88000", "addr:street": "Avenue du Rose Poirier", "amenity": "hospital", "healthcare": "hospital", "name": "Clinique La Ligne Bleue", "ref:FR:FINESS": "880788591", "type:FR:FINESS": "365"}}, {"name": "Centre Hospitalier de Saint-Nicolas-de-Port", "latitude": 48.6333486, "longitude": 6.3007737, "source": "osm", "_tags": {"amenity": "hospital", "contact:phone": "+33 3 83186000", "healthcare": "hospital", "name": "Centre Hospitalier de Saint-Nicolas-de-Port", "network": "Groupe hospitalier de l'est de la Meurthe-et-Moselle", "ref:FR:FINESS": "540000312", "source": "knowledge;Ortho HR", "type:FR:FINESS": "355", "website": "http://www.ghemm.fr/ghemm/#SNDP"}}, {"name": "Centre Hospitalier Local Les 3 Rivières", "latitude": 48.3150849, "longitude": 6.3925826, "source": "osm", "_tags": {"addr:housenumber": "2", "addr:street": "Rue des Vergers", "amenity": "hospital", "email": "hopital@hl-chatel.fr", "fax": "+33 3 29 67 60 22", "healthcare": "hospital", "name": "Centre Hospitalier Local Les 3 Rivières", "phone": "+33 3 29 67 90 38", "ref:FR:FINESS": "880000112", "ref:FR:SIRET": "26880023200012", "source": "Le ministère des solidarités et de la santé - 2024-09", "type:FR:FINESS": "106", "website": "http://www.chl-les3rivieres.fr/"}}, {"name": "Clinique Jeanne d'arc", "latitude": 48.5890194, "longitude": 6.5033245, "source": "osm", "_tags": {"amenity": "hospital", "email": "direction@cja-luneville.com", "fax": "+33 3 83 76 36 37", "healthcare": "hospital", "name": "Clinique Jeanne d'arc", "operator": "Louis Pasteur Santé", "operator:type": "private_for_profit", "phone": "+33 3 83 76 36 36", "ref:FR:FINESS": "540000361", "type:FR:FINESS": "128", "website": "http://www.cja-luneville.fr/"}}, {"name": "Bâtiment Principal Adultes", "latitude": 48.6475209, "longitude": 6.14679, "source": "osm", "_tags": {"building": "hospital", "healthcare": "hospital", "height": "10", "name": "Bâtiment Principal Adultes", "source": "cadastre-dgi-fr source : Direction Générale des Impôts - Cadastre. Mise à jour : 2020"}}, {"name": "Maison de Santé de la Charme", "latitude": 47.9266197, "longitude": 6.661195, "source": "osm", "_tags": {"addr:city": "Rupt-sur-Moselle", "addr:housenumber": "4 B", "addr:postcode": "88360", "addr:street": "Rue Louis Courroy", "amenity": "hospital", "emergency": "yes", "healthcare": "hospital", "healthcare:speciality": "médecins;infirmières;psycpsychologue;kinésithérapeute;orthophoniste", "name": "Maison de Santé de la Charme", "phone": "+33 3 29 24 35 69", "start_date": "2021-09-07", "website": "https://ruptsante.fr/", "wheelchair": "yes"}}, {"name": "Centre Hospitalier Émile Durkheim", "latitude": 48.1795419, "longitude": 6.453595, "source": "osm", "_tags": {"addr:city": "Épinal", "addr:housenumber": "3", "addr:postcode": "88000", "addr:street": "Avenue Robert Schuman", "amenity": "hospital", "emergency": "yes", "fax": "+33 3 29 31 31 71", "healthcare": "hospital", "healthcare:speciality": "general;paediatrics;surgery;dentistry;emergency;oncology;gynaecology;radiology;cardiology;maternity;neurology;geriatrics;intensive", "name": "Centre Hospitalier Émile Durkheim", "operator:type": "public", "phone": "+33 3 29 68 70 00", "ref:FR:FINESS": "880000021", "type:FR:FINESS": "355"}}, {"name": "Maison de santé", "latitude": 48.2537933, "longitude": 6.4211229, "source": "osm", "_tags": {"addr:city": "Thaon-les-Vosges", "addr:housenumber": "12", "addr:postcode": "88150", "addr:street": "Place Jules Ferry", "amenity": "hospital", "healthcare": "hospital", "healthcare:speciality": "general;kinésithérapie;dentiste;infirmière;sage-femme;psychomotricienne", "name": "Maison de santé"}}, {"name": "Centre hospitalier régional et universitaire de Nancy", "latitude": 48.6660194, "longitude": 6.1732715, "source": "osm", "_tags": {"amenity": "hospital", "capacity": "1782", "name": "Centre hospitalier régional et universitaire de Nancy", "ref:FR:FINESS": "540023264", "ref:FR:NAF": "8610Z", "ref:FR:SIREN": "200042166", "type": "site", "website": "https://www.chu-nancy.fr/", "wikidata": "Q2945739", "wikipedia": "fr:Centre hospitalier régional et universitaire de Nancy"}}, {"name": "Bâtiment des Spécialités Médicales Philippe Canton", "latitude": 48.6461791, "longitude": 6.1476961, "source": "osm", "_tags": {"building": "hospital", "healthcare": "hospital", "name": "Bâtiment des Spécialités Médicales Philippe Canton", "short_name": "BSM", "type": "multipolygon"}}, {"name": "Institut Lorrain du Cœur et des Vaisseaux Louis Mathieu", "latitude": 48.6470944, "longitude": 6.1486865, "source": "osm", "_tags": {"building": "hospital", "healthcare": "hospital", "healthcare:speciality": "cardiology", "name": "Institut Lorrain du Cœur et des Vaisseaux Louis Mathieu", "short_name": "ILCV", "type": "multipolygon"}}, {"name": "Nouvel Hôpital d'Épinal", "latitude": 48.1797017, "longitude": 6.4530315, "source": "osm", "_tags": {"amenity": "hospital", "building": "hospital", "description": "Ouverture prévue mars 2020.", "emergency": "yes", "healthcare": "hospital", "name": "Nouvel Hôpital d'Épinal", "source": "cadastre-dgi-fr source : Direction Générale des Finances Publiques - Cadastre. Mise à jour : 2022", "type": "multipolygon"}}]