[{"name": "Kurklinik Mayenbad", "latitude": 47.9162172, "longitude": 9.762232, "source": "osm", "_tags": {"amenity": "hospital", "healthcare": "hospital", "name": "Kurklinik Mayenbad"}}, {"name": "Kurklinik Elisabethenbad", "latitude": 47.9149929, "longitude": 9.762499, "source": "osm", "_tags": {"amenity": "hospital", "healthcare": "hospital", "name": "Kurklinik Elisabethenbad"}}, {"name": "VAMED", "latitude": 47.8712205, "longitude": 10.2233054, "source": "osm", "_tags": {"amenity": "hospital", "deaf:description:de": "Laut Website (https://www.vamed-gesundheit.de/reha/bad-groenenbach/ihre-reha-bei-uns/somatik/hoerbehinderung-tinnitus-und-schwindelerkrankungen/therapie-fuer-gehoerlose/) werden hier Reha-Therapien für gehörlose Menschen angeboten, und es gibt „gebärdensp", "healthcare": "hospital", "healthcare:speciality": "rehabilitation;physiatry;physiotherapy;cardiology", "name": "VAMED"}}, {"name": "Venenklinik Blaustein", "latitude": 48.4143527, "longitude": 9.9194344, "source": "osm", "_tags": {"amenity": "hospital", "check_date": "2024-05-21", "designation": "Praxis für Phlebologie", "emergency": "no", "healthcare": "hospital", "name": "Venenklinik Blaustein", "source": "www.venenklinik-blaustein.de"}}, {"name": "Bezirkskrankenhaus Memmingen", "latitude": 47.9827901, "longitude": 10.1695794, "source": "osm", "_tags": {"amenity": "hospital", "check_date": "2025-08-02", "healthcare": "hospital", "name": "Bezirkskrankenhaus Memmingen"}}, {"name": "AWO-Fachklinik Legau für suchtmittelabhängige Frauen", "latitude": 47.8463345, "longitude": 10.1222173, "source": "osm", "_tags": {"addr:city": "Legau", "addr:housenumber": "2", "addr:postcode": "87764", "addr:street": "Leutkircher Straße", "amenity": "hospital", "emergency": "no", "healthcare": "hospital", "name": "AWO-Fachklinik Legau für suchtmittelabhängige Frauen", "operator": "Arbeiterwohlfahrt Bezirksverband Schwaben e.V.", "website": "https://www.fachklinik-legau.de/"}}, {"name": "MVZ Weißenhorn - Filiale Illertissen", "latitude": 48.2257483, "longitude": 10.1054934, "source": "osm", "_tags": {"addr:city": "Illertissen", "addr:housenumber": "7", "addr:postcode": "89257", "addr:street": "Krankenhausstraße", "amenity": "hospital", "healthcare": "hospital", "healthcare:speciality": "surgery;trauma", "name": "MVZ Weißenhorn - Filiale Illertissen"}}, {"name": "Bezirkskrankenhaus Kaufbeuren", "latitude": 47.8841629, "longitude": 10.6117504, "source": "osm", "_tags": {"addr:city": "Kaufbeuren", "addr:country": "DE", "addr:housenumber": "16", "addr:postcode": "87600", "addr:street": "Kemnater Straße", "amenity": "hospital", "healthcare": "hospital", "name": "Bezirkskrankenhaus Kaufbeuren", "phone": "+49 8341 720", "website": "https://www.bezirkskrankenhaus-kaufbeuren.de/"}}, {"name": "Helfensteinklinik", "latitude": 48.6258775, "longitude": 9.8426299, "source": "osm", "_tags": {"amenity": "hospital", "healthcare": "hospital", "name": "Helfensteinklinik", "wheelchair": "yes"}}, {"name": "Klinikum Memmingen", "latitude": 47.9824672, "longitude": 10.1690292, "source": "osm", "_tags": {"addr:city": "Memmingen", "addr:country": "DE", "addr:housenumber": "23", "addr:postcode": "87700", "addr:street": "Bismarckstraße", "emergency": "yes", "healthcare": "hospital", "healthcare:speciality": "general;psychiatry;paediatrics;ophthalmology;emergency;cardiology;gynaecology;surgery;oncology;radiology;dialysis;osteopathy;physiatry;internal;orthodontics;orthopaedics;dermatology;biology", "name": "Klinikum Memmingen", "operator": "Stadt Memmingen", "operator:type": "government", "wheelchair": "yes", "wikidata": "Q1774639"}}, {"name": "AGAPLESION Bethesda Klinik Ulm", "latitude": 48.4021483, "longitude": 10.0067409, "source": "osm", "_tags": {"amenity": "hospital", "building": "hospital", "healthcare": "hospital", "name": "AGAPLESION Bethesda Klinik Ulm", "operator": "Agaplesion", "operator:type": "private", "operator:wikidata": "Q55445", "operator:wikipedia": "de:Agaplesion", "url": "http://www.bethesda-ulm.de/", "wheelchair": "yes"}}, {"name": "Klinik für Psychiatrie, Psychotherapie und Psychosomatik", "latitude": 48.672318, "longitude": 10.1409613, "source": "osm", "_tags": {"amenity": "hospital", "building": "yes", "emergency": "yes", "healthcare": "hospital", "name": "Klinik für Psychiatrie, Psychotherapie und Psychosomatik"}}, {"name": "Klinikum Heidenheim", "latitude": 48.6728848, "longitude": 10.1402641, "source": "osm", "_tags": {"addr:city": "Heidenheim", "addr:country": "DE", "addr:housenumber": "100", "addr:postcode": "89522", "addr:street": "Schloßhaustraße", "amenity": "hospital", "building": "yes", "comment": "shape from bing", "email": "info@kliniken-heidenheim.de", "emergency": "yes", "healthcare": "hospital", "level": "3", "name": "Klinikum Heidenheim", "name:en": "Klinikum Heidenheim", "opening_hours": "24/7", "operational_status": "Operational", "operator:type": "private/for-profit", "phone": "+497321 33 0", "website": "https://www.kliniken-heidenheim.de/", "wheelchair": "yes"}}, {"name": "Krankenhaus Sankt Camillus", "latitude": 48.2716722, "longitude": 10.4486085, "source": "osm", "_tags": {"addr:city": "Ursberg", "addr:housenumber": "20", "addr:postcode": "86513", "addr:street": "Dominikus-Ringeisen-Straße", "amenity": "hospital", "building": "yes", "healthcare": "hospital", "name": "Krankenhaus Sankt Camillus"}}, {"name": "Kinder- und Jugendpsychiatrie", "latitude": 48.4103019, "longitude": 10.0030615, "source": "osm", "_tags": {"amenity": "hospital", "check_date": "2024-08-17", "healthcare": "hospital", "healthcare:speciality": "child_psychiatry", "name": "Kinder- und Jugendpsychiatrie", "wheelchair": "no"}}, {"name": "Frauenklinik", "latitude": 48.4104178, "longitude": 9.9933988, "source": "osm", "_tags": {"addr:city": "Ulm", "addr:country": "DE", "addr:housenumber": "43", "addr:postcode": "89075", "addr:street": "Prittwitzstraße", "amenity": "hospital", "building": "hospital", "healthcare": "hospital", "healthcare:speciality": "gynaecology", "name": "Frauenklinik", "wheelchair": "yes"}}, {"name": "SRH-Fachkrankenhaus für Neurologie", "latitude": 48.7562272, "longitude": 10.3358827, "source": "osm", "_tags": {"addr:city": "Neresheim", "addr:housenumber": "11", "addr:postcode": "73450", "addr:street": "Kösinger Straße", "amenity": "hospital", "building": "yes", "healthcare": "hospital", "name": "SRH-Fachkrankenhaus für Neurologie", "wheelchair": "yes"}}, {"name": "Klinikum Kaufbeuren Ostallgäu", "latitude": 47.8880445, "longitude": 10.610967, "source": "osm", "_tags": {"addr:city": "Kaufbeuren", "addr:country": "DE", "addr:housenumber": "2", "addr:postcode": "87600", "addr:street": "Dr.-Gutermann-Straße", "amenity": "hospital", "check_date": "2023-11-29", "healthcare": "hospital", "internet_access": "wlan", "internet_access:fee": "customers", "name": "Klinikum Kaufbeuren Ostallgäu", "phone": "+49 8341 420", "website": "https://www.kliniken-oal-kf.de/", "wheelchair": "yes"}}, {"name": "iTCM-Klinik Illertissen", "latitude": 48.2256173, "longitude": 10.1054197, "source": "osm", "_tags": {"addr:city": "Illertissen", "addr:country": "DE", "addr:housenumber": "7", "addr:postcode": "89257", "addr:street": "Krankenhausstraße", "amenity": "hospital", "building": "yes", "healthcare": "hospital", "name": "iTCM-Klinik Illertissen", "toilets:wheelchair": "no", "wheelchair": "no"}}, {"name": "Fachklinik für Neurologie Dietenbronn", "latitude": 48.1619968, "longitude": 9.9692023, "source": "osm", "_tags": {"addr:city": "Schwendi", "addr:housenumber": "7", "addr:place": "Dietenbronn", "addr:postcode": "88477", "amenity": "hospital", "building": "yes", "healthcare": "hospital", "healthcare:speciality": "neurology", "name": "Fachklinik für Neurologie Dietenbronn", "operator:wikidata": "Q2220152", "source": "Maps4BW ( LGL, www.lgl-bw.de) / Bing", "wheelchair": "yes", "wikidata": "Q19962345"}}, {"name": "", "latitude": 48.4571583, "longitude": 10.293735, "source": "osm", "_tags": {"building": "hospital", "capacity": "240", "email": "info@kliniken-gz-kru.de", "emergency": "yes", "fax": "+49 8221 9676 1233", "healthcare": "hospital", "wheelchair": "yes"}}, {"name": "m&i Fachklinik Ichenhausen", "latitude": 48.3657536, "longitude": 10.3086514, "source": "osm", "_tags": {"addr:city": "Ichenhausen", "addr:country": "DE", "addr:housenumber": "45", "addr:postcode": "89335", "addr:street": "Krumbacher Straße", "amenity": "hospital", "email": "info@fachklinik-ichenhausen.de", "emergency": "no", "fax": "+49 8223 99-1050", "healthcare": "hospital", "name": "m&i Fachklinik Ichenhausen", "operator": "m&i-Klinikgesellschaft in Ichenhausen GmbH", "operator:type": "private", "phone": "+49 8223 99-0", "website": "https://www.fachklinik-ichenhausen.de/", "wheelchair": "yes"}}, {"name": "Therapiezentrum Burgau", "latitude": 48.4355694, "longitude": 10.4063958, "source": "osm", "_tags": {"amenity": "hospital", "contact:website": "http://www.therapiezentrum-burgau.de/", "name": "Therapiezentrum Burgau", "wheelchair": "yes"}}, {"name": "Gesundheitszentrum Langenau", "latitude": 48.500348, "longitude": 10.1165544, "source": "osm", "_tags": {"addr:housenumber": "45", "addr:postcode": "89129", "addr:street": "Karlstraße", "amenity": "hospital", "building": "hospital", "healthcare": "hospital", "name": "Gesundheitszentrum Langenau", "wheelchair": "yes"}}, {"name": "Stiftungsklinik Weißenhorn", "latitude": 48.3119594, "longitude": 10.1566356, "source": "osm", "_tags": {"amenity": "hospital", "check_date": "2024-04-11", "emergency": "yes", "healthcare": "hospital", "name": "Stiftungsklinik Weißenhorn"}}, {"name": "Illertalklinik", "latitude": 48.225539, "longitude": 10.1049718, "source": "osm", "_tags": {"addr:city": "Illertissen", "addr:country": "DE", "addr:housenumber": "7", "addr:postcode": "89257", "addr:street": "Krankenhausstraße", "amenity": "hospital", "building": "yes", "email": "illertalklinik@kreisspitalstiftung.de", "fax": "+49 7303 6790", "healthcare": "hospital", "name": "Illertalklinik", "operator": "Kreisspitalstiftung Weißenhorn", "phone": "+49 7303 177 0", "website": "https://www.illertalklinik-illertissen.de/", "wheelchair": "yes"}}, {"name": "Luise von Marillac Klinik", "latitude": 48.5972265, "longitude": 9.7917653, "source": "osm", "_tags": {"addr:city": "Bad Überkingen", "addr:housenumber": "7", "addr:postcode": "73337", "addr:street": "Elly-Heuss-Knapp-Weg", "amenity": "hospital", "building": "yes", "emergency": "no", "healthcare": "yes", "healthcare:speciality": "oncology", "name": "Luise von Marillac Klinik", "operator": "Vinzenz von Paul Kliniken gGmbH"}}, {"name": "Sport- und Rehabilitationsmedizin", "latitude": 48.410534, "longitude": 10.0009947, "source": "osm", "_tags": {"addr:city": "Ulm", "addr:country": "DE", "addr:housenumber": "14", "addr:postcode": "89075", "addr:street": "Leimgrubenweg", "amenity": "hospital", "building": "yes", "healthcare": "hospital", "name": "Sport- und Rehabilitationsmedizin", "website": "https://www.uniklinik-ulm.de/innere-medizin-ii/sonstige/sektion-sport-und-rehabilitationsmedizin.html", "wheelchair": "no"}}, {"name": "Universitätsklinikum Ulm", "latitude": 48.4221748, "longitude": 9.9522164, "source": "osm", "_tags": {"addr:postcode": "89081", "amenity": "hospital", "healthcare": "hospital", "name": "Universitätsklinikum Ulm", "source": "http://www.uniklinik-ulm.de/fileadmin/Kliniken/Zahnmedizin/ZMK/Plaene/Lageplan_Ulm_und_OE.pdf", "wheelchair": "yes", "wikidata": "Q2496404"}}, {"name": "Bezirkskrankenhaus Günzburg", "latitude": 48.4594191, "longitude": 10.2915903, "source": "osm", "_tags": {"amenity": "hospital", "check_date": "2024-05-30", "healthcare": "hospital", "healthcare:speciality": "psychiatry", "name": "Bezirkskrankenhaus Günzburg", "operator": "Bezirkskliniken Schwaben (KU)", "website": "https://www.bezirkskliniken-schwaben.de/kliniken/bezirkskrankenhaus-guenzburg", "wheelchair": "yes"}}, {"name": "Klinikum Heidenheim", "latitude": 48.6723838, "longitude": 10.1410911, "source": "osm", "_tags": {"addr:city": "Heidenheim", "addr:country": "DE", "addr:housenumber": "100", "addr:postcode": "89522", "addr:street": "Schloßhaustraße", "amenity": "hospital", "emergency": "yes", "healthcare": "hospital", "healthcare:speciality": "general;orthopaedics;gynaecology;radiology;emergency;surgery;cardiology;neurology;pediatrics;internal_medicine;oncology;dialysis;diagnostic_radiology;ENT", "name": "Klinikum Heidenheim", "phone": "+49 (0)7321 33 0", "website": "https://www.kliniken-heidenheim.de/"}}, {"name": "Universitäts- und Rehabilitationskliniken Ulm", "latitude": 48.4244038, "longitude": 9.9444536, "source": "osm", "_tags": {"amenity": "hospital", "contact:email": "information@rku.de", "contact:fax": "+49 731 177-1058", "contact:phone": "+49 731 177-0", "contact:website": "http://rku.de", "description:de": "Innere Medizin, Chirurgie, Anästhesiologie, Dermatologie und Allergologie, Neurologie, Nuklearmedizin, Orthopädie, Psychosomatik, Radiologie, Strahlentherapie, Urologie, Zahn-, Mund- und Kieferheilkunde", "healthcare": "hospital", "name": "Universitäts- und Rehabilitationskliniken Ulm", "operator": "Universitäts- und Rehabilitationskliniken Ulm gGmbH", "short_name:de": "RKU", "wheelchair": "yes", "wikidata": "Q43896564", "wikipedia": "de:Universitätsklinikum Ulm"}}, {"name": "", "latitude": 48.0339272, "longitude": 10.7236635, "source": "osm", "_tags": {"amenity": "hospital", "healthcare": "hospital"}}, {"name": "", "latitude": 48.409864, "longitude": 9.9939262, "source": "osm", "_tags": {"amenity": "hospital", "building:part": "yes", "healthcare": "hospital", "healthcare:speciality": "urology", "wheelchair": "yes"}}, {"name": "Kliniken Michelsberg", "latitude": 48.4097661, "longitude": 9.9926862, "source": "osm", "_tags": {"amenity": "hospital", "healthcare": "hospital", "name": "Kliniken Michelsberg"}}, {"name": "Klinik im Hofgarten", "latitude": 47.9212744, "longitude": 9.750041, "source": "osm", "_tags": {"addr:city": "Bad Waldsee", "addr:country": "DE", "addr:housenumber": "1", "addr:postcode": "88339", "addr:street": "Am Hofgarten", "amenity": "hospital", "designation": "Reha", "healthcare": "hospital", "name": "Klinik im Hofgarten", "note": "Fachklinik für Orthopädie und Sportmedizin", "source": "http://www.klinik-im-hofgarten.de/", "toilets:wheelchair": "yes", "wheelchair": "yes"}}, {"name": "Nova-Clinic", "latitude": 48.0854674, "longitude": 9.7942257, "source": "osm", "_tags": {"addr:city": "Biberach an der Riß", "addr:housenumber": "5", "addr:postcode": "88400", "addr:street": "Eichendorffweg", "amenity": "hospital", "healthcare": "hospital", "name": "Nova-Clinic"}}, {"name": "Alb-Donau Klinikum", "latitude": 48.4085475, "longitude": 9.7895466, "source": "osm", "_tags": {"addr:city": "Blaubeuren", "addr:country": "DE", "addr:housenumber": "26", "addr:postcode": "89143", "addr:street": "Ulmer Straße", "alt_name": "Gesundheitszentrum Blaubeuren", "amenity": "hospital", "healthcare": "hospital", "name": "Alb-Donau Klinikum", "old_name": "Kreiskrankenhaus Blaubeuren"}}, {"name": "Kreiskrankenhaus Wertingen", "latitude": 48.5654862, "longitude": 10.6789689, "source": "osm", "_tags": {"addr:city": "Wertingen", "addr:housenumber": "36", "addr:postcode": "86637", "addr:street": "Ebersberg", "amenity": "hospital", "healthcare": "hospital", "name": "Kreiskrankenhaus Wertingen"}}, {"name": "Bundeswehrkrankenhaus Ulm", "latitude": 48.4249898, "longitude": 9.947527, "source": "osm", "_tags": {"addr:city": "Ulm", "addr:housenumber": "40", "addr:postcode": "89081", "addr:street": "Oberer Eselsberg", "amenity": "hospital", "contact:website": "https://ulm.bwkrankenhaus.de", "email": "BwKrhsUlm@bundeswehr.org", "healthcare": "hospital", "landuse": "military", "name": "Bundeswehrkrankenhaus Ulm", "operator": "Zentraler Sanitätsdienst der Bundeswehr", "operator:type": "military", "phone": "+49 731 17100", "short_name:de": "BWK Ulm", "wikidata": "Q1009277", "wikipedia": "de:Bundeswehrkrankenhaus Ulm"}}, {"name": "Capio Blausteinklinik", "latitude": 48.4112705, "longitude": 9.9415437, "source": "osm", "_tags": {"addr:city": "Blaustein", "addr:country": "DE", "addr:housenumber": "102", "addr:postcode": "89134", "addr:street": "Erhard-Grözinger-Straße", "addr:suburb": "Ehrenstein", "amenity": "hospital", "health_facility:type": "clinic", "healthcare": "hospital", "name": "Capio Blausteinklinik", "operator": "Capio", "operator:wikidata": "Q498606", "operator:wikipedia": "de:Capio", "phone": "+49 731 95350", "website": "https://www.capio-blausteinklinik.de/"}}, {"name": "PHY-Dialysezentrum", "latitude": 48.1108998, "longitude": 9.7793718, "source": "osm", "_tags": {"addr:city": "Biberach an der Riß", "addr:housenumber": "1", "addr:postcode": "88400", "addr:street": "Paracelsusweg", "amenity": "hospital", "building": "yes", "building:levels": "3", "contact:email": "biberach@phv-dialyse.de", "contact:fax": "+49 7351 5878629", "contact:phone": "+49 7351 587860", "contact:website": "https://www.phv-dialyse.de/biberach", "healthcare": "dialysis", "name": "PHY-Dialysezentrum", "opening_hours": "Mo,We,Fr 06:00-20:30; Tu,Th,Sa 06:00-14:00; Su,PH off", "operator": "Patienten-Heimversorgung Gemeinnützige Stiftung"}}, {"name": "Sana Klinikum Landkreis Biberach", "latitude": 48.1119692, "longitude": 9.7795695, "source": "osm", "_tags": {"addr:city": "Biberach an der Riß", "addr:housenumber": "4", "addr:postcode": "88400", "addr:street": "Marie-Curie-Straße", "amenity": "hospital", "contact:email": "information.bc@sana.de", "contact:phone": "+49 7351 550", "contact:website": "https://www.sana.de/biberach", "healthcare": "hospital", "name": "Sana Klinikum Landkreis Biberach", "operator": "Sana Kliniken Landkreis Biberach GmbH", "operator:type": "public"}}, {"name": "Kreiskrankenhaus Günzburg", "latitude": 48.4568151, "longitude": 10.2939672, "source": "osm", "_tags": {"addr:city": "Günzburg", "addr:country": "DE", "addr:housenumber": "1", "addr:postcode": "89312", "addr:street": "Lindenallee", "amenity": "hospital", "capacity": "240", "email": "info@kliniken-gz-kru.de", "emergency": "yes", "fax": "+49 8221 9676 1233", "healthcare": "hospital", "name": "Kreiskrankenhaus Günzburg", "operator": "Kommunalunternehmen Kreiskliniken Günzburg-Krumbach", "phone": "+49 8221 9676-0", "website": "https://www.kkhgzkru.de/guenzburg", "wheelchair": "yes"}}, {"name": "Kreiskrankenhaus St. Elisabeth", "latitude": 48.5747002, "longitude": 10.4797302, "source": "osm", "_tags": {"amenity": "hospital", "healthcare": "hospital", "name": "Kreiskrankenhaus St. Elisabeth"}}, {"name": "Klinik Ottobeuren", "latitude": 47.9439005, "longitude": 10.2934392, "source": "osm", "_tags": {"addr:city": "Ottobeuren", "addr:housenumber": "31", "addr:postcode": "87724", "addr:street": "Memminger Straße", "amenity": "hospital", "emergency": "yes", "healthcare": "hospital", "name": "Klinik Ottobeuren", "operator": "Klinikverbund Allgäu gGmbH", "operator:type": "private", "wheelchair": "yes"}}, {"name": "", "latitude": 48.1111811, "longitude": 9.7797437, "source": "osm", "_tags": {"addr:city": "Biberach an der Riß", "addr:postcode": "88400", "addr:street": "Marie-Curie-Straße", "amenity": "hospital", "building": "yes", "healthcare": "hospital", "layer": "-1", "level": "-1"}}, {"name": "", "latitude": 48.1119583, "longitude": 9.7787008, "source": "osm", "_tags": {"addr:city": "Biberach an der Riß", "addr:postcode": "88400", "addr:street": "Marie-Curie-Straße", "amenity": "hospital", "building": "yes", "healthcare": "hospital"}}, {"name": "Kreiskrankenhaus Krumbach", "latitude": 48.2370553, "longitude": 10.3660201, "source": "osm", "_tags": {"amenity": "hospital", "healthcare": "hospital", "name": "Kreiskrankenhaus Krumbach"}}, {"name": "Kreisklinik Mindelheim", "latitude": 48.0408555, "longitude": 10.4931072, "source": "osm", "_tags": {"addr:city": "Mindelheim", "addr:country": "DE", "addr:housenumber": "44", "addr:postcode": "87719", "addr:street": "Bad Wörishofer Straße", "amenity": "hospital", "building": "yes", "healthcare": "hospital", "name": "Kreisklinik Mindelheim", "type": "multipolygon", "wheelchair": "yes"}}, {"name": "Donauklinik", "latitude": 48.3940662, "longitude": 9.9937634, "source": "osm", "_tags": {"addr:city": "Neu-Ulm", "addr:country": "DE", "addr:housenumber": "11", "addr:postcode": "89231", "addr:street": "Krankenhausstraße", "amenity": "hospital", "building": "hospital", "building:colour": "white", "building:levels": "3", "email": "donauklinik@kreisspitalstiftung.de", "emergency": "yes", "fax": "+49 731 / 804 2109", "healthcare": "hospital", "name": "Donauklinik", "operator": "Kreisspitalstiftung Weißenhorn", "phone": "+49 731 / 8040", "roof:colour": "#808080", "type": "multipolygon", "website": "https://www.donauklinik-neu-ulm.de/", "wheelchair": "yes", "wikidata": "Q26794482"}}, {"name": "HNO-Klinik", "latitude": 48.409177, "longitude": 9.9924794, "source": "osm", "_tags": {"addr:city": "Ulm", "addr:country": "DE", "addr:housenumber": "12", "addr:postcode": "89075", "addr:street": "Frauensteige", "amenity": "hospital", "building": "hospital", "healthcare": "hospital", "healthcare:speciality": "otolaryngology", "name": "HNO-Klinik", "start_date": "2000", "type": "multipolygon", "wheelchair": "yes"}}, {"name": "", "latitude": 48.1118261, "longitude": 9.7794077, "source": "osm", "_tags": {"addr:city": "Biberach an der Riß", "addr:housenumber": "4", "addr:postcode": "88400", "addr:street": "Marie-Curie-Straße", "building": "hospital", "building:levels": "5", "contact:email": "information.bc@sana.de", "contact:phone": "+49 7351 550", "contact:website": "https://www.sana.de/biberach", "healthcare": "hospital", "operator": "Sana Kliniken Landkreis Biberach GmbH", "type": "multipolygon"}}]