[{"name": "Kreiskrankenhaus Burghausen", "latitude": 48.1677438, "longitude": 12.842318, "source": "osm", "_tags": {"amenity": "hospital", "name": "Kreiskrankenhaus Burghausen", "wheelchair": "yes"}}, {"name": "Kreiskrankenhaus Pfarrkirchen", "latitude": 48.4367127, "longitude": 12.9265198, "source": "osm", "_tags": {"amenity": "hospital", "name": "Kreiskrankenhaus Pfarrkirchen", "wheelchair": "yes"}}, {"name": "Kreiskrankenhaus Rotthalmünster", "latitude": 48.3543489, "longitude": 13.2020002, "source": "osm", "_tags": {"addr:city": "Rotthalmünster", "addr:country": "DE", "addr:housenumber": "35", "addr:postcode": "94094", "addr:street": "Simbacher Straße", "amenity": "hospital", "contact:facebook": "https://fb.com/100063948463453", "emergency": "no", "name": "Kreiskrankenhaus Rotthalmünster", "wheelchair": "yes"}}, {"name": "Dialysezentrum Pfarrkirchen", "latitude": 48.4360012, "longitude": 12.9259294, "source": "osm", "_tags": {"amenity": "hospital", "name": "Dialysezentrum Pfarrkirchen", "wheelchair": "yes"}}, {"name": "Klinik Prof. Schedel", "latitude": 48.5940902, "longitude": 13.5641282, "source": "osm", "_tags": {"amenity": "hospital", "check_date": "2025-04-13", "healthcare": "hospital", "name": "Klinik Prof. Schedel", "wheelchair": "yes"}}, {"name": "Passauer Wolf Reha-Zentrum Bad Griesbach", "latitude": 48.4296787, "longitude": 13.1848165, "source": "osm", "_tags": {"addr:city": "Bad Griesbach i. Rottal", "addr:housenumber": "1", "addr:postcode": "94086", "addr:street": "Bürgermeister-Hartl-Platz", "amenity": "hospital", "healthcare": "hospital", "healthcare:speciality": "neurology;geriatrics;orthopaedics;cardiology", "name": "Passauer Wolf Reha-Zentrum Bad Griesbach", "note": "FIXME: drawn from memory"}}, {"name": "Passauer Wolf Lodge & Therme Bad Griesbach", "latitude": 48.426863, "longitude": 13.1871215, "source": "osm", "_tags": {"addr:city": "Bad Griesbach i.Rottal", "addr:country": "DE", "addr:housenumber": "20", "addr:postcode": "94086", "addr:street": "Thermalbadstraße", "amenity": "hospital", "description": "Appartementhotel", "healthcare": "rehabilitation", "name": "Passauer Wolf Lodge & Therme Bad Griesbach", "phone": "+49 8532 27-0", "ref:touristinfo": "12"}}, {"name": "", "latitude": 48.4039231, "longitude": 13.389269, "source": "osm", "_tags": {"amenity": "hospital"}}, {"name": "Dr. Peter – Faltenbehandlung mit Botox, Meso- & Eigenbluttherapie", "latitude": 48.5556542, "longitude": 12.810539, "source": "osm", "_tags": {"addr:city": "Arnstorf", "addr:country": "DE", "addr:housenumber": "1", "addr:postcode": "94424", "addr:street": "Gerberstraße", "amenity": "hospital", "description": "Dr. B. Peter ist auf minimal-invasive Methoden zur Hautstraffung und Verjüngung des Erscheinungsbildes spezialisiert. Faltenbehandlung mittels Botox, Faltenunterspritzung, Eigenbluttherapie, Medical Needling, Mesolift und Mesotherapie in der Praxis für äs", "email": "info@falten-botox.de", "healthcare": "hospital", "healthcare:speciality": "plastic_surgery", "image": "https://falten-botox.de/fileadmin/_processed_/8/f/csm_3_Kontaktdaten_Praxisgeba%CC%88ude__a3f7e999e0.jpg", "name": "Dr. Peter – Faltenbehandlung mit Botox, Meso- & Eigenbluttherapie", "phone": "+49 8723 509", "website": "https://www.falten-botox.de/"}}, {"name": "SPZ - Sozialpsychiatrische Zentrum", "latitude": 48.8084926, "longitude": 12.8967235, "source": "osm", "_tags": {"amenity": "hospital", "healthcare": "hospital", "name": "SPZ - Sozialpsychiatrische Zentrum"}}, {"name": "Zentrum für Gerotopsychiatrie", "latitude": 48.8063301, "longitude": 12.8939867, "source": "osm", "_tags": {"amenity": "hospital", "healthcare": "hospital", "healthcare:speciality": "geriatrics", "name": "Zentrum für Gerotopsychiatrie"}}, {"name": "Christian Doppler Klinik", "latitude": 47.8133916, "longitude": 13.017562, "source": "osm", "_tags": {"addr:housenumber": "79", "addr:postcode": "5020", "addr:street": "Ignaz-Harrer-Straße", "alt_name": "CDK Salzburg", "alt_name1": "CDK", "alt_name2": "Salzburg CDK", "amenity": "hospital", "health_specialty": "stroke_unit", "healthcare": "hospital", "name": "Christian Doppler Klinik", "operator": "Salzburger Landeskliniken", "wheelchair": "yes"}}, {"name": "Krankenhaus Vilshofen", "latitude": 48.6277241, "longitude": 13.198391, "source": "osm", "_tags": {"addr:city": "Vilshofen an der Donau", "addr:country": "DE", "addr:housenumber": "32", "addr:postcode": "94474", "addr:street": "Krankenhausstraße", "amenity": "hospital", "building": "yes", "fax": "+498541206129", "healthcare": "hospital", "name": "Krankenhaus Vilshofen", "phone": "+4985412060", "url": "http://www.krankenhaus-vilshofen.de/"}}, {"name": "Strahlenzentrum", "latitude": 48.0032693, "longitude": 13.6381199, "source": "osm", "_tags": {"amenity": "hospital", "building": "yes", "healthcare": "hospital", "name": "Strahlenzentrum"}}, {"name": "Klinikum Schärding", "latitude": 48.4552567, "longitude": 13.435669, "source": "osm", "_tags": {"addr:city": "Schärding", "addr:country": "AT", "addr:housenumber": "2", "addr:postcode": "4780", "addr:street": "Alfred-Kubin-Straße", "alt_name": "Landeskrankenhaus Schärding", "amenity": "hospital", "building": "yes", "email": "contact.sd@ooeg.at", "emergency": "yes", "healthcare": "hospital", "healthcare:speciality": "emergency", "layer": "1", "name": "Klinikum Schärding", "operator": "Oberösterreichische Gesundheitsholding GmbH", "phone": "05 055478-0", "source": "geoimage.at", "website": "https://www.ooeg.at/sd", "wheelchair": "yes"}}, {"name": "Salzkammergut Klinikum Vöcklabruck", "latitude": 48.002271, "longitude": 13.6386652, "source": "osm", "_tags": {"addr:city": "Vöcklabruck", "addr:country": "AT", "addr:housename": "Krankenhaus Vöcklabruck", "addr:housenumber": "1", "addr:postcode": "4840", "addr:street": "Dr. Wilhelm Bock-Straße", "alt_name": "Landeskrankenhaus Vöcklabruck", "amenity": "hospital", "building": "yes", "email": "contact.sk@ooeg.at", "health_specialty": "stroke_unit", "healthcare": "hospital", "healthcare:speciality": "emergency", "layer": "1", "name": "Salzkammergut Klinikum Vöcklabruck", "operator": "Oberösterreichische Gesundheitsholding GmbH", "phone": "+43 5055471 0", "website": "https://www.ooeg.at/sk/vb", "wheelchair": "yes"}}, {"name": "Stift Rottal", "latitude": 48.4482845, "longitude": 13.1942143, "source": "osm", "_tags": {"addr:city": "Bad Griesbach i.Rottal", "addr:country": "DE", "addr:housenumber": "3", "addr:postcode": "94086", "addr:street": "Max-Köhler-Straße", "amenity": "hospital", "healthcare": "hospital", "name": "Stift Rottal", "wheelchair": "yes"}}, {"name": "Klinikum Passau", "latitude": 48.5650209, "longitude": 13.4448178, "source": "osm", "_tags": {"addr:city": "Passau", "addr:country": "DE", "addr:housenumber": "76", "addr:postcode": "94032", "addr:street": "Innstraße", "amenity": "hospital", "check_date": "2024-05-01", "emergency": "yes", "name": "Klinikum Passau", "wheelchair": "yes", "wikidata": "Q16216390"}}, {"name": "Kinderklinik Dritter Orden", "latitude": 48.5660874, "longitude": 13.4461345, "source": "osm", "_tags": {"amenity": "hospital", "building": "hospital", "building:colour": "white", "building:levels": "4", "healthcare": "hospital", "name": "Kinderklinik Dritter Orden", "roof:colour": "grey", "roof:shape": "flat", "source": "geoimage.at"}}, {"name": "Krankenhaus Oberndorf", "latitude": 47.9365085, "longitude": 12.9470076, "source": "osm", "_tags": {"addr:city": "Oberndorf bei Salzburg", "addr:country": "AT", "addr:housenumber": "37", "addr:postcode": "5110", "addr:street": "Paracelsusstraße", "amenity": "hospital", "building": "hospital", "building:levels": "4", "check_date": "2023-08-22", "healthcare": "clinic", "name": "Krankenhaus Oberndorf", "phone": "+43 6272 4334-0", "website": "https://www.krankenhaus-oberndorf.at/", "wikidata": "Q30261310"}}, {"name": "Klinik Niederbayern", "latitude": 48.3506871, "longitude": 13.3213073, "source": "osm", "_tags": {"addr:city": "Bad Füssing", "addr:country": "DE", "addr:housenumber": "1", "addr:postcode": "94072", "addr:street": "Paracelsusstraße", "amenity": "hospital", "building": "hospital", "emergency": "no", "healthcare": "hospital", "healthcare:speciality": "rehabilitation", "internet_access": "wlan", "internet_access:fee": "yes", "name": "Klinik Niederbayern", "operator": "Waldburg-Zeil Kliniken", "operator:type": "private", "phone": "+49 8531 970-0", "website": "https://www.klinik-niederbayern.de", "wheelchair": "yes"}}, {"name": "Klinikum Passau - Hellge Klinik", "latitude": 48.5698406, "longitude": 13.4476155, "source": "osm", "_tags": {"addr:city": "Passau", "addr:country": "DE", "addr:housenumber": "6", "addr:postcode": "94032", "addr:street": "Hochstraße", "amenity": "hospital", "contact:phone": "+49 851 5300 91000", "contact:website": "https://www.klinikum-passau.de/kliniken-institute/fachabteilungen/hellge-klinik", "emergency": "no", "name": "Klinikum Passau - Hellge Klinik"}}, {"name": "Medizinisches Versorgungszentrum Simbach am Inn", "latitude": 48.2657039, "longitude": 13.0187363, "source": "osm", "_tags": {"amenity": "hospital", "emergency": "no", "fixme": "Umriss geht in südwestl. Richtung evtl. noch weiter (z.B. Volleyballfeld gehört evtl. noch dazu)", "healthcare": "hospital", "name": "Medizinisches Versorgungszentrum Simbach am Inn", "wheelchair": "yes"}}, {"name": "Kreisklinik Freilassing", "latitude": 47.8480193, "longitude": 12.980322, "source": "osm", "_tags": {"amenity": "hospital", "emergency": "yes", "healthcare": "hospital", "healthcare:speciality": "gynaecology", "name": "Kreisklinik Freilassing", "opening_hours": "24/7", "operator": "Kliniken Südostbayern AG", "wheelchair": "yes"}}, {"name": "Krankenhaus Freyung", "latitude": 48.8053542, "longitude": 13.546133, "source": "osm", "_tags": {"addr:city": "Freyung", "addr:housenumber": "6", "addr:postcode": "94078", "addr:street": "Krankenhausstraße", "amenity": "hospital", "healthcare": "hospital", "name": "Krankenhaus Freyung", "operator": "FRG Klinken", "phone": "+49 8551 9770", "website": "https://www.frg-kliniken.de/", "wheelchair": "yes"}}, {"name": "AMEOS Reha Klinikum Inntal", "latitude": 48.2636904, "longitude": 13.0140152, "source": "osm", "_tags": {"addr:city": "Simbach am Inn", "addr:country": "DE", "addr:housenumber": "1", "addr:postcode": "84359", "addr:street": "Jakob-Weindler-Straße", "amenity": "hospital", "contact:phone": "+49 8571 985-0", "contact:website": "https://www.ameos.eu/reha-klinikum-inntal", "name": "AMEOS Reha Klinikum Inntal"}}, {"name": "Bezirkskrankenhaus Passau", "latitude": 48.5666121, "longitude": 13.4470754, "source": "osm", "_tags": {"addr:city": "Passau", "addr:country": "DE", "addr:housenumber": "5", "addr:postcode": "94032", "addr:street": "Wörthstraße", "addr:suburb": "Maierhof", "alt_name": "Bezirksklinikum Passau", "amenity": "hospital", "building": "hospital", "building:levels": "4", "healthcare": "hospital", "name": "Bezirkskrankenhaus Passau", "roof:colour": "grey", "roof:shape": "flat", "website": "https://www.bkh-passau.de/"}}, {"name": "Bezirksklinikum Mainkofen", "latitude": 48.8077434, "longitude": 12.8974753, "source": "osm", "_tags": {"addr:city": "Deggendorf", "addr:housenumber": "22", "addr:place": "Mainkofen", "addr:postcode": "94469", "amenity": "hospital", "email": "kontakt@mainkofen.de", "fax": "+49 9931 8730099", "healthcare": "hospital", "heritage": "4", "heritage:operator": "BLfD", "name": "Bezirksklinikum Mainkofen", "operator": "Bezirk Niederbayern", "phone": "+49 9931 870", "ref:BLfD": "D-2-71-119-114", "website": "https://www.mainkofen.de/", "wikidata": "Q854254", "wikipedia": "de:Bezirksklinikum Mainkofen"}}, {"name": "Klinik Rosenhof", "latitude": 48.4430214, "longitude": 13.0796512, "source": "osm", "_tags": {"amenity": "hospital", "building": "yes", "healthcare": "hospital", "healthcare:speciality": "physiatry", "name": "Klinik Rosenhof", "website": "https://www.klinik-rosenhof.eu/"}}, {"name": "Schlossklinik Abtsee", "latitude": 47.9145899, "longitude": 12.9073614, "source": "osm", "_tags": {"addr:city": "Laufen", "addr:housenumber": "31", "addr:postcode": "83410", "addr:street": "Abtsee", "amenity": "hospital", "building": "yes", "healthcare": "hospital", "name": "Schlossklinik Abtsee"}}, {"name": "Krankenhaus der Barmherzigen Schwestern Ried", "latitude": 48.2104748, "longitude": 13.4928471, "source": "osm", "_tags": {"addr:city": "Ried im Innkreis", "addr:housenumber": "1", "addr:postcode": "4910", "addr:street": "Schloßberg", "amenity": "hospital", "emergency": "yes", "health_specialty": "stroke_unit", "healthcare": "hospital", "healthcare:speciality": "general;paediatrics;ophthalmology;orthopaedics;gynaecology;emergency;surgery;cardiology;oncology;internal;radiology;maternity;geriatrics", "name": "Krankenhaus der Barmherzigen Schwestern Ried", "operator": "Barmherzige Schwestern Ried", "operator:type": "government", "source": "plan.at 2009", "wikidata": "Q37763756"}}, {"name": "Krankenhaus Oberndorf", "latitude": 47.9363436, "longitude": 12.9474418, "source": "osm", "_tags": {"addr:city": "Oberndorf bei Salzburg", "addr:housenumber": "37", "addr:postcode": "5110", "addr:street": "Paracelsusstraße", "amenity": "hospital", "healthcare": "hospital", "healthcare:speciality": "emergency", "name": "Krankenhaus Oberndorf", "operator": "Gemeinnützige Oberndorfer Krankenhausbetriebsgesellschaft m.b.H.", "website": "https://www.krankenhaus-oberndorf.at/", "wheelchair": "yes", "wikidata": "Q30261310"}}, {"name": "Kreiskrankenhaus Eggenfelden", "latitude": 48.4130091, "longitude": 12.7599515, "source": "osm", "_tags": {"amenity": "hospital", "contact:email": "info@rottalinnklinken.de", "contact:fax": "+49 8721 9832249", "contact:phone": "+49 8721 9830", "contact:website": "https://www.rottalinnkliniken.de/", "emergency": "yes", "healthcare": "hospital", "name": "Kreiskrankenhaus Eggenfelden", "operator": "Rottal-Inn Kliniken Kommunalunternehmen", "operator:type": "public", "wheelchair": "yes"}}, {"name": "", "latitude": 48.1679853, "longitude": 12.8420629, "source": "osm", "_tags": {"amenity": "hospital", "healthcare": "hospital"}}, {"name": "", "latitude": 48.7273287, "longitude": 13.5986503, "source": "osm", "_tags": {"addr:city": "Waldkirchen", "addr:country": "DE", "addr:housenumber": "6", "addr:postcode": "94065", "addr:street": "Erlenhain", "building": "yes", "emergency": "no", "healthcare": "hospital"}}, {"name": "Kinderklinik Dritter Orden", "latitude": 48.5661566, "longitude": 13.4464967, "source": "osm", "_tags": {"amenity": "hospital", "emergency": "yes", "name": "Kinderklinik Dritter Orden", "type": "site"}}, {"name": "Klinikum Passau", "latitude": 48.5650099, "longitude": 13.4449435, "source": "osm", "_tags": {"amenity": "hospital", "emergency": "yes", "name": "Klinikum Passau", "type": "site"}}, {"name": "Psychosomatische Fachklinik Simbach", "latitude": 48.2657039, "longitude": 13.0187363, "source": "osm", "_tags": {"amenity": "hospital", "emergency": "no", "name": "Psychosomatische Fachklinik Simbach", "operator": "Rottal Inn Kliniken", "site": "hospital", "type": "site", "url": "http://www.rottalinnkliniken.de/leistungen_angebote/psychosomatische_fachklinik/psychosomatische-fachklinik.php"}}, {"name": "Krankenhaus St. Josef", "latitude": 48.2559731, "longitude": 13.0334242, "source": "osm", "_tags": {"addr:city": "Braunau am Inn", "addr:housenumber": "60", "addr:postcode": "5280", "addr:street": "Ringstraße", "amenity": "hospital", "building": "yes", "contact:email": "office@khbr.at", "emergency": "yes", "fax": "+43-7722-804-11", "healthcare": "hospital", "healthcare:speciality": "emergency", "name": "Krankenhaus St. Josef", "official_name": "A.ö. Krankenhaus St. Josef Braunau GmbH", "opening_hours": "Mo-Su 00:00-24:00", "operator": "Ordenskrankenhaus der Franzis­kanerinnen von Vöcklabruck", "phone": "+43-7722-804-0", "type": "multipolygon", "website": "https://www.khbr.at/", "wheelchair": "yes"}}]