[{"name": "Clinique Philae", "latitude": 48.0042122, "longitude": -1.6966037, "source": "osm", "_tags": {"amenity": "hospital", "healthcare": "hospital", "name": "Clinique Philae", "ref:FR:FINESS": "350044756", "ref:FR:NAF": "86.10Z", "ref:FR:SIREN": "399519834", "ref:FR:SIRET": "39951983400044", "source": "INSEE - 2025-07", "type:FR:FINESS": "109"}}, {"name": "Cabinet Médical", "latitude": 48.4109079, "longitude": -1.8123222, "source": "osm", "_tags": {"addr:city": "Meillac", "addr:housenumber": "10", "addr:postcode": "35270", "addr:street": "Rue Octave de Benaze", "amenity": "hospital", "healthcare": "hospital", "name": "Cabinet Médical"}}, {"name": "Hôpital privé de la Baie", "latitude": 48.6777265, "longitude": -1.3491101, "source": "osm", "_tags": {"amenity": "hospital", "healthcare": "hospital", "name": "Hôpital privé de la Baie", "operator": "Vivalto", "ref:FR:FINESS": "500000146", "type:FR:FINESS": "128"}}, {"name": "Urgences cardiologiques", "latitude": 48.1206895, "longitude": -1.6940313, "source": "osm", "_tags": {"emergency": "yes", "healthcare": "hospital", "healthcare:speciality": "cardiology", "name": "Urgences cardiologiques"}}, {"name": "Batiment H", "latitude": 48.6930371, "longitude": -1.3522546, "source": "osm", "_tags": {"amenity": "hospital", "healthcare": "hospital", "name": "Batiment H"}}, {"name": "CMPEA Plancoët", "latitude": 48.5234013, "longitude": -2.2289535, "source": "osm", "_tags": {"addr:city": "Plancoët", "addr:postcode": "22130", "addr:street": "Place du Tramway", "amenity": "hospital", "contact:phone": "+33 2 96841979", "healthcare": "hospital", "healthcare:speciality": "psychiatry", "name": "CMPEA Plancoët", "name:br": "Kreizenn vezegel-ha-psikologel ha Kreizenn degemer yac'hadel darnamzer", "operator": "Fondation Saint-Jean-de-Dieu", "ref:FR:FINESS": "220018584", "ref:FR:SIRET": "33843952400053", "short_name": "CMP/CATTP", "social_facility:for": "mental_health", "source": "survey", "type:FR:FINESS": "292"}}, {"name": "C.S.A.P.A. Le Rosais", "latitude": 48.6255736, "longitude": -2.011296, "source": "osm", "_tags": {"amenity": "hospital", "name": "C.S.A.P.A. Le Rosais", "ref:FR:SIRET": "26350005000160"}}, {"name": "CMP Dinan", "latitude": 48.4505659, "longitude": -2.0662958, "source": "osm", "_tags": {"addr:city": "Dinan", "addr:housenumber": "117", "addr:postcode": "22100", "addr:street": "Rue de Brest", "amenity": "hospital", "healthcare": "hospital", "healthcare:speciality": "psychiatry", "name": "CMP Dinan", "operator": "Fondatin Saint Jean de Dieu"}}, {"name": "CMPEA Dinan", "latitude": 48.455816, "longitude": -2.052031, "source": "osm", "_tags": {"addr:city": "Dinan", "addr:housenumber": "9", "addr:postcode": "22100", "addr:street": "Rue de la Préjentais", "amenity": "hospital", "healthcare": "hospital", "healthcare:speciality": "psychiatry", "name": "CMPEA Dinan", "operator": "Fondation St Jean de Dieu"}}, {"name": "CMPEA Broons", "latitude": 48.3188646, "longitude": -2.2563808, "source": "osm", "_tags": {"addr:city": "broons", "addr:housenumber": "11", "addr:postcode": "22250", "addr:street": "Rue de la Gare", "amenity": "hospital", "healthcare": "hospital", "healthcare:speciality": "psychiatry", "name": "CMPEA Broons", "operator": "Fondation St Jean de Dieu"}}, {"name": "Centre de Réhabilitation Thérapeutique (CRT) Dinan", "latitude": 48.4462392, "longitude": -2.0580671, "source": "osm", "_tags": {"addr:city": "Dinan", "addr:housenumber": "2", "addr:postcode": "22100", "addr:street": "Avenue du Saint-Esprit", "amenity": "hospital", "healthcare": "hospital", "healthcare:speciality": "psychiatry", "name": "Centre de Réhabilitation Thérapeutique (CRT) Dinan", "operator": "Fondation St Jean de Dieu"}}, {"name": "Hôpital de jour Addictologie", "latitude": 48.4474251, "longitude": -2.0556937, "source": "osm", "_tags": {"addr:city": "Dinan", "addr:postcode": "22100", "addr:street": "Avenue Saint-Jean de Dieu", "amenity": "hospital", "healthcare": "hospital", "healthcare:speciality": "psychiatry", "name": "Hôpital de jour Addictologie", "operator": "Fondation St Jean de Dieu"}}, {"name": "Centre Hospitalier Dinan / Saint-Brieuc - Fondation St Jean de Dieu", "latitude": 48.4479372, "longitude": -2.0590436, "source": "osm", "_tags": {"addr:city": "Dinan", "addr:postcode": "22100", "addr:street": "Avenue Saint Jean de Dieu", "amenity": "hospital", "healthcare": "hospital", "healthcare:speciality": "psychiatry", "name": "Centre Hospitalier Dinan / Saint-Brieuc - Fondation St Jean de Dieu", "operator": "Fondation Saint Jean de Dieu"}}, {"name": "Unité Paul de Magallon - Fondation St Jean de Dieu", "latitude": 48.4474647, "longitude": -2.0580205, "source": "osm", "_tags": {"addr:city": "Dinan", "addr:postcode": "22100", "addr:street": "Avenue Saint-Jean de Dieu", "amenity": "hospital", "healthcare": "hospital", "healthcare:speciality": "psychiatry", "name": "Unité Paul de Magallon - Fondation St Jean de Dieu", "operator": "Fondation St Jean de Dieu"}}, {"name": "Hôpital de jour Jeanne Jugan - Sujet âgé", "latitude": 48.4484157, "longitude": -2.0599169, "source": "osm", "_tags": {"addr:city": "Dinan", "addr:postcode": "22100", "addr:street": "avenue saint jean de dieu", "amenity": "hospital", "healthcare": "hospital", "healthcare:speciality": "psychiatry", "name": "Hôpital de jour Jeanne Jugan - Sujet âgé", "operator": "Fondation St Jean de Dieu"}}, {"name": "Centre Hospitalier René Pleven", "latitude": 48.4449524, "longitude": -2.0456085, "source": "osm", "_tags": {"healthcare": "hospital", "name": "Centre Hospitalier René Pleven", "operator": "Groupement Hospitalier Rance Emeraude"}}, {"name": "Polyclinique Saint-Laurent", "latitude": 48.1376597, "longitude": -1.6573222, "source": "osm", "_tags": {"addr:housenumber": "320", "addr:street": "Avenue Général George S. Patton", "amenity": "hospital", "healthcare": "hospital", "name": "Polyclinique Saint-Laurent", "name:br": "Liesklinikenn Sant-Laorañs", "phone": "+33 2 99 25 65 00", "ref:FR:FINESS": "350002192", "ref:FR:NAF": "86.10Z", "ref:FR:SIREN": "777380783", "ref:FR:SIRET": "77738078300053", "source": "cadastre-dgi-fr source : Direction Générale des Finances Publiques - Cadastre. Mise à jour : 2015", "source:name:br": "proper translation", "type:FR:FINESS": "365", "website": "https://www.polyclinique-saint-laurent.fr/"}}, {"name": "Hôpital Sud", "latitude": 48.0831727, "longitude": -1.6530476, "source": "osm", "_tags": {"addr:city": "Rennes", "addr:housenumber": "16", "addr:postcode": "35200", "addr:street": "Boulevard de Bulgarie", "amenity": "hospital", "emergency": "yes", "fax": "+33 2 99 26 67 45", "healthcare": "hospital", "healthcare:speciality": "intensive", "name": "Hôpital Sud", "name:br": "Ospital Su", "operator:type": "public", "phone": "+33 2 99 28 43 21", "ref:FR:FINESS": "350007084", "ref:FR:NAF": "86.10Z", "ref:FR:SIREN": "263500076", "ref:FR:SIRET": "26350007600025", "source": "INSEE - 2025-08", "source:name:br": "proper translation", "type:FR:FINESS": "101", "website": "https://www.chu-rennes.fr"}}, {"name": "Hôpital de Janzé", "latitude": 47.9634527, "longitude": -1.4981626, "source": "osm", "_tags": {"amenity": "hospital", "building": "yes", "emergency": "no", "healthcare": "hospital", "name": "Hôpital de Janzé", "ref:FR:FINESS": "350000410", "source": "Le ministère des solidarités et de la santé - 03/2019", "type:FR:FINESS": "106", "wikidata": "Q92062818"}}, {"name": "Clinique de l'Espérance", "latitude": 48.1153881, "longitude": -1.6757902, "source": "osm", "_tags": {"addr:housenumber": "6", "addr:street": "Rue de la Borderie", "amenity": "hospital", "healthcare": "hospital", "name": "Clinique de l'Espérance", "name:br": "Klinikenn ar Spi Mat", "operator": "Ramsay Santé", "operator:wikidata": "Q3123085", "operator:wikipedia": "fr:Ramsay Santé", "ref:FR:FINESS": "350002176", "source": "cadastre-dgi-fr source : Direction Générale des Impôts - Cadastre;mise à jour : 2008", "source:name:br": "proper translation", "type:FR:FINESS": "161", "website": "http://www.clinique-de-l-esperance.ramsaygds.fr"}}, {"name": "Centre Médico-Psychologique \"Adultes\"", "latitude": 48.2614642, "longitude": -1.6045536, "source": "osm", "_tags": {"alt_name": "Le Triskell", "amenity": "hospital", "building": "yes", "healthcare": "hospital", "name": "Centre Médico-Psychologique \"Adultes\"", "ref:FR:FINESS": "350044111", "short_name": "CMP", "source": "Direction general des finances publiques cadastre 2010", "type:FR:FINESS": "292"}}, {"name": "Centre hospitalier de Saint-Méen le Grand", "latitude": 48.1857875, "longitude": -2.2024305, "source": "osm", "_tags": {"addr:city": "Saint-Méen-le-Grand", "addr:postcode": "35290", "addr:street": "Rue de la Croix Duval", "alt_name": "Centre hospitalier Docteur de Tersannes", "amenity": "hospital", "building": "hospital", "email": "direction@ch-stmeen.fr", "emergency": "no", "fax": "+33 2 99 09 88 50", "healthcare": "hospital", "name": "Centre hospitalier de Saint-Méen le Grand", "phone": "+33 2 99 09 88 88", "ref:FR:FINESS": "350000451", "ref:FR:NAF": "86.10Z", "ref:FR:SIRET": "20009598200076", "source": "cadastre-dgi-fr source : Direction Générale des Impôts - Cadastre. Mise à jour : 2010", "type:FR:FINESS": "106", "website": "http://pole-sante-saint-meen.fr/les-partenaires/centre-hospitalier-de-saint-meen-le-grand/", "wikidata": "Q92063338"}}, {"name": "Centre hospitalier de Saint-Malo", "latitude": 48.6378631, "longitude": -2.007571, "source": "osm", "_tags": {"addr:city": "Saint-Malo", "addr:housenumber": "1", "addr:postcode": "35400", "addr:street": "Rue de la Marne", "alt_name": "Hôpital Broussais", "amenity": "hospital", "emergency": "yes", "fax": "+33 2 99 21 20 00", "healthcare": "hospital", "healthcare:speciality": "intensive", "name": "Centre hospitalier de Saint-Malo", "name:br": "Pennospital Sant-Maloù", "name:fr": "Centre hospitalier de Saint-Malo", "operator:type": "public", "phone": "+33 2 99 21 21 21", "ref:FR:FINESS": "350000147", "ref:FR:NAF": "86.10Z", "ref:FR:SIRET": "26350005000012", "short_name": "CH de Saint-Malo", "source:name:br": "proper translation", "type:FR:FINESS": "355", "website": "https://www.gh-re.fr/"}}, {"name": "Centre hospitalier René Pleven", "latitude": 48.4446664, "longitude": -2.0474908, "source": "osm", "_tags": {"amenity": "hospital", "emergency": "yes", "healthcare": "hospital", "name": "Centre hospitalier René Pleven", "name:br": "Pennospital René Pléven", "operator:type": "public", "phone": "+33 2 96 85 72 85", "ref:FR:FINESS": "220000095", "source": "E-mégalis Bretagne et collectivités territoriales bretonnes - 2012", "source:name:br": "proper translation", "type:FR:FINESS": "355", "website": "http://www.cht-ranceemeraude.fr/centre-hospitalier-rene-pleven-dinan/le-centre-hospitalier-de-dinan/presentation-du-ch-de-dinan.html"}}, {"name": "Centre hospitalier Dinan - Saint-Brieuc, Fondation Saint-Jean de Dieu", "latitude": 48.4486218, "longitude": -2.0608764, "source": "osm", "_tags": {"amenity": "hospital", "healthcare": "hospital", "name": "Centre hospitalier Dinan - Saint-Brieuc, Fondation Saint-Jean de Dieu", "ref:FR:FINESS": "220000616", "source": "E-mégalis Bretagne et collectivités territoriales bretonnes - 2012", "type:FR:FINESS": "292", "website": "https://www.chdinanstbrieuc.fsjd.fr/"}}, {"name": "Clinique mutualiste La Sagesse", "latitude": 48.1005103, "longitude": -1.7128277, "source": "osm", "_tags": {"addr:city": "Rennes", "addr:housenumber": "4", "addr:postcode": "35000", "addr:street": "Place Saint-Guénolé", "amenity": "hospital", "check_date": "2024-09-16", "emergency": "no", "fax": "+33 2 99 85 76 00", "healthcare": "hospital", "name": "Clinique mutualiste La Sagesse", "name:br": "Klinikenn genwarez ar Furnezh", "name:fr": "Clinique mutualiste La Sagesse", "opening_hours": "Mo-Sa 08:30-20:00", "phone": "+33 2 99 85 75 75", "ref:FR:FINESS": "350000139", "ref:FR:NAF": "86.10Z", "ref:FR:SIRET": "77559107600234", "source:addr": "Rennes Métropole", "source:addr:housenumber:ref": "80193", "source:addr:version": "2016-04-01", "source:name:br": "proper translation", "type:FR:FINESS": "365", "website": "http://clinique-rennes.fr/"}}, {"name": "Hôpital Arthur Gardiner", "latitude": 48.6322336, "longitude": -2.0662411, "source": "osm", "_tags": {"addr:city": "Dinard", "addr:housenumber": "1", "addr:postcode": "35800", "addr:street": "Rue Henri Dunant", "amenity": "hospital", "emergency": "no", "fax": "+33 2 99 16 88 12", "healthcare": "hospital", "name": "Hôpital Arthur Gardiner", "name:br": "Ospital Arthur Gardiner", "name:fr": "Hôpital Arthur Gardiner", "phone": "+33 2 99 16 88 88", "ref:FR:FINESS": "350000071", "ref:FR:NAF": "86.10Z", "ref:FR:SIRET": "43997564000434", "source:name:br": "proper translation", "type:FR:FINESS": "365", "website": "https://www.ch-dinard.org/"}}, {"name": "Hôpital Pontchaillou", "latitude": 48.1207833, "longitude": -1.6946839, "source": "osm", "_tags": {"addr:city": "Rennes", "addr:housenumber": "2", "addr:postcode": "35000", "addr:street": "Rue Henri Le Guilloux", "amenity": "hospital", "emergency": "yes", "fax": "+33 2 99 28 24 08", "healthcare": "hospital", "healthcare:speciality": "intensive", "name": "Hôpital Pontchaillou", "name:br": "Ospital Pontchaillou", "operator": "Centre hospitalier universitaire de Rennes", "operator:type": "public", "phone": "+33 2 99 28 43 21", "ref:FR:FINESS": "350000741", "short_name": "CHU de Rennes", "source:addr": "Rennes Métropole", "source:addr:housenumber:ref": "81203", "source:addr:version": "2016-04-01", "type:FR:FINESS": "101", "website": "https://www.chu-rennes.fr/", "wikidata": "Q2945770", "wikipedia": "fr:Centre hospitalier universitaire de Rennes"}}, {"name": "", "latitude": 48.26249, "longitude": -1.6088621, "source": "osm", "_tags": {"amenity": "hospital", "fixme": "Est-ce vraiment un hôpital ?", "healthcare": "hospital", "source": "cadastre-dgi-fr source : Direction Générale des Finances Publiques - Cadastre. Mise à jour : 2013"}}, {"name": "Centre hospitalier intercommunal Redon Carentoir", "latitude": 47.818281, "longitude": -2.1336195, "source": "osm", "_tags": {"amenity": "hospital", "building": "hospital", "fax": "+33 2 99 08 82 58", "name": "Centre hospitalier intercommunal Redon Carentoir", "phone": "+33 2 99 93 70 00", "ref:FR:FINESS": "560000473", "ref:FR:SIRET": "26350012600010", "source": "Le ministère des solidarités et de la santé - 2021-01", "type:FR:FINESS": "355", "website": "http://www.ch-redon-carentoir.fr/presentation/structures-1875.html"}}, {"name": "Centre Hospitalier Guillaume Régnier", "latitude": 48.1125246, "longitude": -1.6516462, "source": "osm", "_tags": {"addr:city": "Rennes", "addr:housenumber": "108", "addr:postcode": "35000", "addr:street": "Avenue Général Leclerc", "amenity": "hospital", "emergency": "no", "fax": "+33 2 99 33 39 93", "healthcare": "hospital", "healthcare:speciality": "psychiatry;child_psychiatry", "name": "Centre Hospitalier Guillaume Régnier", "name:br": "Pennospital Guillaume Régnier", "name:fr": "Centre Hospitalier Guillaume Régnier", "phone": "+33 2 99 33 39 00", "ref:FR:FINESS": "350000337", "ref:FR:NAF": "86.10Z", "ref:FR:SIRET": "26350014200017", "source:name:br": "proper translation", "type:FR:FINESS": "292", "website": "https://www.ch-guillaumeregnier.fr/", "wikidata": "Q16507435"}}, {"name": "Pôle Saint-Hélier", "latitude": 48.1061006, "longitude": -1.6697821, "source": "osm", "_tags": {"amenity": "hospital", "check_date": "2024-09-01", "emergency": "no", "healthcare": "hospital", "name": "Pôle Saint-Hélier", "name:br": "Pol Sant-Heler", "ref:FR:FINESS": "350002564", "source:name:br": "proper translation", "type:FR:FINESS": "109"}}, {"name": "Centre local hospitalier Saint-Joseph", "latitude": 48.4099722, "longitude": -1.7243576, "source": "osm", "_tags": {"addr:city": "Combourg", "addr:postcode": "35270", "addr:street": "Les Rivières", "amenity": "hospital", "building": "hospital", "email": "secretariat.direction@clhsaintjoseph.com", "emergency": "no", "fax": "+33 2 99 73 33 92", "healthcare": "hospital", "name": "Centre local hospitalier Saint-Joseph", "opening_hours": "Mo-Fr 07:30-17:00; Sa 08:00-15:00", "operator:type": "private", "phone": "+33 2 99 73 05 34", "ref:FR:FINESS": "350000204", "ref:FR:NAF": "86.10Z", "ref:FR:SIRET": "77766978900052", "source": "cadastre-dgi-fr source : Direction Générale des Finances Publiques - Cadastre. Mise à jour : 2015", "type:FR:FINESS": "365", "website": "https://www.associationcliniquesaintjoseph.fr/articles/le-centre-local-hospitalier-saint-joseph", "wheelchair": "yes"}}, {"name": "Hôpital Saint-Thomas de Villeneuve", "latitude": 47.8398744, "longitude": -1.6826375, "source": "osm", "_tags": {"addr:city": "Bain-de-Bretagne", "addr:postcode": "35470", "addr:street": "Rue du Docteur Haicault", "amenity": "hospital", "email": "contact@hstv.fr", "emergency": "no", "fax": "+33 2 99 43 32 10", "healthcare": "hospital", "name": "Hôpital Saint-Thomas de Villeneuve", "opening_hours": "Mo-Fr 08:15-19:00; Sa 09:00-12:00,14:00-18:30; Su,PH 10:00-12:00,14:00-18:30", "operator": "Groupe HSTV", "operator:type": "private", "phone": "+33 2 99 43 71 40", "ref:FR:FINESS": "350000063", "ref:FR:NAF": "86.10Z", "ref:FR:SIRET": "77738078300061", "source": "E-mégalis Bretagne et collectivités territoriales bretonnes - 2012", "type:FR:FINESS": "365", "website": "https://bain.hstv.fr/"}}, {"name": "Clinique Saint-Yves", "latitude": 48.101793, "longitude": -1.6632281, "source": "osm", "_tags": {"addr:city": "Rennes", "addr:housenumber": "4", "addr:postcode": "35000", "addr:street": "Rue Adolphe Leray", "amenity": "hospital", "email": "contact@clinique-styves.fr", "emergency": "no", "fax": "+33 2 99 26 25 84", "healthcare": "hospital", "healthcare:speciality": "cardiology;gastroenterology", "name": "Clinique Saint-Yves", "name:br": "Klinikenn Sant-Erwan", "name:fr": "Clinique Saint-Yves", "phone": "+33 2 99 26 26 00", "ref:FR:FINESS": "350002200", "ref:FR:NAF": "86.10Z", "ref:FR:SIRET": "30281978400018", "source": "cadastre-dgi-fr source : Direction Générale des Impôts - Cadastre;mise à jour : 2009", "source:name:br": "proper translation", "type:FR:FINESS": "365", "website": "https://www.clinique-styves.fr/"}}, {"name": "Hôpital de la Tauvrais", "latitude": 48.1378869, "longitude": -1.6604702, "source": "osm", "_tags": {"amenity": "hospital", "emergency": "no", "name": "Hôpital de la Tauvrais", "name:br": "Ospital La Tauvrais", "provided_for": "senior", "ref:FR:FINESS": "350006771", "source": "Le ministère des solidarités et de la santé - 08/2018", "source:name:br": "proper translation"}}, {"name": "Hôpital de jour pour adultes Guillaume Régnier", "latitude": 48.1300447, "longitude": -1.65798, "source": "osm", "_tags": {"alt_name": "Hôpital de jour du Gast", "amenity": "hospital", "healthcare": "hospital", "name": "Hôpital de jour pour adultes Guillaume Régnier", "name:br": "Ospital-deiz evit an oadourien Guillaume Régnier", "phone": "+33 2 99 36 77 10", "ref:FR:FINESS": "350043931", "source:name:br": "proper translation", "type:FR:FINESS": "292"}}, {"name": "Centre Hospitalier Avranches - Granville", "latitude": 48.6932922, "longitude": -1.3519387, "source": "osm", "_tags": {"amenity": "hospital", "contact:phone": "+33 2 33 89 40 00", "contact:website": "http://www.ch-avranches-granville.fr/", "email": "direction@ch-avranches-granville.fr", "emergency": "yes", "fax": "+33 2 33 91 50 01", "healthcare:speciality": "intensive", "name": "Centre Hospitalier Avranches - Granville", "operator": "Centre Hospitalier Avranches - Granville", "operator:type": "public", "phone": "+33 2 33 91 50 00", "ref:FR:FINESS": "500000021", "short_name": "CHAG", "type:FR:FINESS": "355", "website": "http://www.ch-avranches-granville.fr/", "wikidata": "Q2945687"}}, {"name": "Hôpital Saint-James", "latitude": 48.5253991, "longitude": -1.328707, "source": "osm", "_tags": {"amenity": "hospital", "email": "contact@hopital-stjames.fr", "fax": "+33 2 33 89 89 40", "healthcare": "hospital", "name": "Hôpital Saint-James", "operator:type": "public", "phone": "+33 2 33 89 89 00", "ref:FR:FINESS": "500000435", "type:FR:FINESS": "106", "website": "https://www.hopitaux-montsaintmichel.fr/le-ght/nos-etablissements/ch-de-saint-james/", "wikidata": "Q92061574"}}, {"name": "Hôpital des Prés Bosgers", "latitude": 48.6831643, "longitude": -1.8663384, "source": "osm", "_tags": {"addr:city": "cancale", "addr:postcode": "35260", "addr:street": "Rue des Artisans", "amenity": "hospital", "contact:email": "hopital@ch-cancale.fr", "healthcare": "hospital", "name": "Hôpital des Prés Bosgers", "operator": "Groupement Hospitalier de Territoire Rance Emeraude", "phone": "+33 2 99 89 51 51", "ref:FR:FINESS": "350040499", "type:FR:FINESS": "106", "website": "https://etablissements.fhf.fr/annuaire/hopital-site.php?id_etab=4616"}}, {"name": "Centre hospitalier de l’Estran", "latitude": 48.6851137, "longitude": -1.3530157, "source": "osm", "_tags": {"amenity": "hospital", "healthcare": "hospital", "name": "Centre hospitalier de l’Estran", "operator": "Centre hospitalier de l’Estran", "operator:type": "public", "phone": "+33 2 33 60 72 00", "ref:FR:FINESS": "500022116", "source": "Le ministère des solidarités et de la santé - 03/2019", "type:FR:FINESS": "292", "website": "https://www.ch-estran.fr/"}}, {"name": "Centre médical et pédagogique de Rennes Beaulieu", "latitude": 48.1235738, "longitude": -1.6376924, "source": "osm", "_tags": {"amenity": "hospital", "fax": "+33 2 99 25 19 69", "healthcare": "hospital", "name": "Centre médical et pédagogique de Rennes Beaulieu", "name:br": "Vreizenn vezegiezh ha pedagogel Roazhon Kergaer", "phone": "+33 2 99 25 19 19", "ref:FR:FINESS": "350002234", "source:name:br": "proper translation", "type:FR:FINESS": "109", "website": "https://www.fsef.net/index.php/etablissements/centre-rennes-beaulieu/presentation-centre-rennes-beaulieu"}}, {"name": "Centre hospitalier de l'Estran", "latitude": 48.5507344, "longitude": -1.5173097, "source": "osm", "_tags": {"amenity": "hospital", "healthcare": "hospital", "name": "Centre hospitalier de l'Estran", "old_name": "Centre hospitalier de Pontorson", "ref:FR:FINESS": "500000575", "source": "Le ministère des solidarités et de la santé - 03/2019"}}, {"name": "Centre hospitalier de Montfort", "latitude": 48.1376398, "longitude": -1.951999, "source": "osm", "_tags": {"addr:city": "Montfort-sur-Meu", "addr:housenumber": "33", "addr:postcode": "35160", "addr:street": "Rue Saint-Nicolas", "amenity": "hospital", "emergency": "no", "healthcare": "hospital", "name": "Centre hospitalier de Montfort", "ref:FR:FINESS": "350000436", "source": "cadastre-dgi-fr source : Direction Générale des Impôts - Cadastre. Mise à jour : 2010", "type:FR:FINESS": "106", "wikidata": "Q92062686"}}, {"name": "Centre hospitalier d'Antrain", "latitude": 48.4562507, "longitude": -1.4785192, "source": "osm", "_tags": {"amenity": "hospital", "healthcare": "hospital", "name": "Centre hospitalier d'Antrain", "ref:FR:FINESS": "350000444", "type:FR:FINESS": "355"}}, {"name": "Clinique de la Côte d’Émeraude", "latitude": 48.625712, "longitude": -1.9833041, "source": "osm", "_tags": {"addr:city": "Saint-Malo", "addr:housenumber": "1", "addr:postcode": "35400", "addr:street": "Rue de la Maison Neuve", "amenity": "hospital", "building": "yes", "emergency": "no", "fax": "+33 2 99 40 66 50", "healthcare": "hospital", "name": "Clinique de la Côte d’Émeraude", "opening_hours": "Mo-Fr 06:45-20:00; Sa,Su,PH 09:00-18:00", "phone": "+33 2 23 52 20 20", "ref:FR:FINESS": "350000196", "ref:FR:NAF": "86.10Z", "ref:FR:SIRET": "89578026000025", "source": "cadastre-dgi-fr source : Direction Générale des Impôts - Cadastre. Mise à jour : 2021", "type:FR:FINESS": "365", "website": "https://clinique-cote-emeraude.vivalto-sante.com/", "wheelchair": "yes"}}, {"name": "Centre hospitalier saint Joseph", "latitude": 48.4100502, "longitude": -1.7249758, "source": "osm", "_tags": {"amenity": "hospital", "healthcare": "hospital", "name": "Centre hospitalier saint Joseph"}}, {"name": "", "latitude": 47.9633966, "longitude": -1.4980344, "source": "osm", "_tags": {"amenity": "hospital", "healthcare": "hospital"}}, {"name": "Centre hospitalier spécialisé", "latitude": 48.1151519, "longitude": -1.6442317, "source": "osm", "_tags": {"amenity": "hospital", "emergency": "no", "healthcare": "hospital", "name": "Centre hospitalier spécialisé", "name:br": "Pennospital Arbennikaet", "source:name:br": "ofis publik ar brezhoneg"}}, {"name": "Centre de Santé Mentale Yves Pelicier", "latitude": 48.6201272, "longitude": -1.9772562, "source": "osm", "_tags": {"amenity": "hospital", "name": "Centre de Santé Mentale Yves Pelicier"}}, {"name": "", "latitude": 48.409143, "longitude": -1.3613117, "source": "osm", "_tags": {"amenity": "hospital", "healthcare": "hospital"}}, {"name": "Hôpital Privé Sévigné", "latitude": 48.1301895, "longitude": -1.6275077, "source": "osm", "_tags": {"addr:city": "Cesson-Sévigné", "addr:housenumber": "3", "addr:postcode": "35510", "addr:street": "Rue du Chêne Germain", "amenity": "hospital", "emergency": "yes", "fax": "+33 2 99 63 58 06", "health_facility:type": "hospital", "healthcare": "hospital", "medical_system:western": "yes", "name": "Hôpital Privé Sévigné", "name:br": "Ospital Prevez Sevigneg", "old_name": "Polyclinique Sévigné", "operator": "Groupe Vivalto Santé", "operator:type": "private", "phone": "+33 8 25 74 35 50", "ref:FR:FINESS": "350005146", "short_name": "HP Sévigné", "source:name:br": "proper translation", "type": "multipolygon", "type:FR:FINESS": "365", "website": "https://www.hopitalprivesevigne.com/"}}, {"name": "Centre hospitalier privé Saint-Grégoire", "latitude": 48.1446104, "longitude": -1.6873431, "source": "osm", "_tags": {"addr:city": "Saint-Grégoire", "addr:housenumber": "6", "addr:postcode": "35760", "addr:street": "Boulevard de la Boutière", "alt_name": "CHP Saint-Grégoire", "amenity": "hospital", "emergency": "yes", "fax": "+33 2 99 23 36 10", "healthcare": "hospital", "name": "Centre hospitalier privé Saint-Grégoire", "name:br": "Pennospital prevez Sant-Gregor", "old_name": "Clinique Saint-Vincent", "operator": "Groupe Vivalto Santé", "operator:type": "private", "phone": "+33 2 99 23 33 33", "ref:FR:FINESS": "350000121", "ref:FR:NAF": "86.10Z", "ref:FR:SIRET": "69920132300069", "type": "multipolygon", "type:FR:FINESS": "365", "website": "https://www.chpsaintgregoire.com/", "wikidata": "Q30270382"}}]