[{"name": "Clinique Saint-Dominique", "latitude": 48.7464387, "longitude": -0.5624879, "source": "osm", "_tags": {"addr:city": "Flers", "addr:housenumber": "99", "addr:postcode": "61100", "amenity": "hospital", "healthcare": "hospital", "name": "Clinique Saint-Dominique", "phone": "+33 2 33 98 25 15", "ref:FR:FINESS": "610008815", "source": "Le ministère des solidarités et de la santé - 03/2019"}}, {"name": "Hôpital d'Evron", "latitude": 48.1575839, "longitude": -0.4092904, "source": "osm", "_tags": {"addr:housenumber": "4", "addr:street": "Rue de la Libération", "amenity": "hospital", "emergency": "no", "name": "Hôpital d'Evron", "ref:FR:FINESS": "530000165", "source": "Le ministère des solidarités et de la santé - 03/2019", "wikidata": "Q92063404"}}, {"name": "51-MSG-RDC-NORD", "latitude": 48.1253528, "longitude": -1.2061644, "source": "osm", "_tags": {"amenity": "hospital", "emergency": "yes", "healthcare": "hospital", "name": "51-MSG-RDC-NORD"}}, {"name": "52-MSG-RDC-SUD", "latitude": 48.1251545, "longitude": -1.2062102, "source": "osm", "_tags": {"amenity": "hospital", "ele": "100", "healthcare": "hospital", "name": "52-MSG-RDC-SUD"}}, {"name": "53-MSG-RDJ-OUEST", "latitude": 48.1254042, "longitude": -1.2065252, "source": "osm", "_tags": {"amenity": "hospital", "ele": "96", "healthcare": "hospital", "name": "53-MSG-RDJ-OUEST"}}, {"name": "55-MSG-Logistique", "latitude": 48.1252357, "longitude": -1.2064671, "source": "osm", "_tags": {"amenity": "hospital", "ele": "92", "healthcare": "hospital", "name": "55-MSG-Logistique"}}, {"name": "54-MSG-RDJ-NORD", "latitude": 48.1253692, "longitude": -1.2062236, "source": "osm", "_tags": {"amenity": "hospital", "ele": "96", "healthcare": "hospital", "name": "54-MSG-RDJ-NORD"}}, {"name": "57-JDV-RDC-ACCUEIL", "latitude": 48.1256816, "longitude": -1.2055703, "source": "osm", "_tags": {"amenity": "hospital", "ele": "100", "healthcare": "hospital", "name": "57-JDV-RDC-ACCUEIL"}}, {"name": "58-JDV-Entrée UPD", "latitude": 48.1255712, "longitude": -1.205061, "source": "osm", "_tags": {"amenity": "hospital", "ele": "100", "healthcare": "hospital", "name": "58-JDV-Entrée UPD"}}, {"name": "59-JDV-Garage", "latitude": 48.1256324, "longitude": -1.2048477, "source": "osm", "_tags": {"amenity": "hospital", "ele": "96", "healthcare": "hospital", "name": "59-JDV-Garage"}}, {"name": "60-JDV-Place Publique", "latitude": 48.1258828, "longitude": -1.2054519, "source": "osm", "_tags": {"amenity": "hospital", "ele": "96", "healthcare": "hospital", "name": "60-JDV-Place Publique"}}, {"name": "61-JDV-Salle Animation", "latitude": 48.126009, "longitude": -1.2054243, "source": "osm", "_tags": {"amenity": "hospital", "ele": "92", "healthcare": "hospital", "name": "61-JDV-Salle Animation"}}, {"name": "28-JDV-1er Le Plessis", "latitude": 48.1258157, "longitude": -1.2054539, "source": "osm", "_tags": {"amenity": "hospital", "ele": "104", "healthcare": "hospital", "name": "28-JDV-1er Le Plessis"}}, {"name": "27-JDV-1er Le Plessis côté VAL", "latitude": 48.1259258, "longitude": -1.2054299, "source": "osm", "_tags": {"amenity": "hospital", "ele": "104", "healthcare": "hospital", "name": "27-JDV-1er Le Plessis côté VAL"}}, {"name": "29-JDV-2ème-Les Rochers côté VAL", "latitude": 48.1259875, "longitude": -1.2054299, "source": "osm", "_tags": {"amenity": "hospital", "ele": "108", "healthcare": "hospital", "name": "29-JDV-2ème-Les Rochers côté VAL"}}, {"name": "30-JDV-2ème-Les Rochers", "latitude": 48.125781, "longitude": -1.2054521, "source": "osm", "_tags": {"amenity": "hospital", "ele": "108", "healthcare": "hospital", "name": "30-JDV-2ème-Les Rochers"}}, {"name": "26-JDV-RDC-Les Nétumières", "latitude": 48.1259601, "longitude": -1.2054282, "source": "osm", "_tags": {"amenity": "hospital", "healthcare": "hospital", "name": "26-JDV-RDC-Les Nétumières"}}, {"name": "Clinique FSEF", "latitude": 47.8425162, "longitude": -0.3153483, "source": "osm", "_tags": {"addr:city": "Sablé-sur-Sarthe", "addr:postcode": "72302", "addr:street": "route du mans", "amenity": "hospital", "healthcare": "hospital", "healthcare:speciality": "psychiatry", "name": "Clinique FSEF", "website": "https://www.fsef.net/etablissements/clinique-fsef-sable-sur-sarthe/"}}, {"name": "Centre Psychotérapique de l'Orne", "latitude": 48.7467635, "longitude": -0.5416112, "source": "osm", "_tags": {"amenity": "hospital", "healthcare": "hospital", "name": "Centre Psychotérapique de l'Orne", "ref:FR:FINESS": "610788689", "type:FR:FINESS": "292"}}, {"name": "Centre hospitalier de Fougères", "latitude": 48.3594147, "longitude": -1.1939481, "source": "osm", "_tags": {"addr:city": "Fougères", "addr:housenumber": "133", "addr:postcode": "35300", "addr:street": "Rue de la Forêt", "amenity": "hospital", "email": "contact@ch-fougeres.fr", "emergency": "yes", "fax": "+33 2 99 17 70 71", "healthcare": "hospital", "name": "Centre hospitalier de Fougères", "name:br": "Pennospital Felger", "name:fr": "Centre hospitalier de Fougères", "operator:type": "public", "phone": "+33 2 99 17 70 00", "ref:FR:FINESS": "350000154", "ref:FR:NAF": "86.10Z", "ref:FR:SIRET": "26350008400011", "source:name:br": "proper translation", "type:FR:FINESS": "355", "website": "https://www.ch-fougeres.fr/", "wikidata": "Q30269795"}}, {"name": "Hôpital de Mortain", "latitude": 48.6469545, "longitude": -0.9393297, "source": "osm", "_tags": {"amenity": "hospital", "check_date": "2024-12-23", "name": "Hôpital de Mortain", "ref:FR:FINESS": "500000302", "source": "cadastre-dgi-fr source : Direction Générale des Impôts - Cadastre. Mise à jour : 2010", "wikidata": "Q92062369"}}, {"name": "Centre Hospitalier Simone Veil", "latitude": 48.1227676, "longitude": -1.2268314, "source": "osm", "_tags": {"addr:city": "Vitré", "addr:housenumber": "30", "addr:postcode": "35500", "addr:street": "Rue de Rennes", "alt_name": "Centre Hospitalier de Vitré", "amenity": "hospital", "email": "direction@ch-vitre.fr", "emergency": "yes", "fax": "+33 2 99 74 14 00", "healthcare": "hospital", "name": "Centre Hospitalier Simone Veil", "operator:type": "public", "phone": "+33 2 99 74 14 14", "ref:FR:FINESS": "350000188", "ref:FR:NAF": "86.10Z", "ref:FR:SIRET": "26350006800014", "type:FR:FINESS": "355", "website": "https://www.ch-vitre.fr/", "wikidata": "Q30270608"}}, {"name": "Centre Hospitalier Maubert", "latitude": 48.7401714, "longitude": -0.5740236, "source": "osm", "_tags": {"amenity": "hospital", "healthcare": "hospital", "name": "Centre Hospitalier Maubert", "operator": "GHT Les Collines de Normandie", "ref:FR:FINESS": "610788325", "source": "Le ministère des solidarités et de la santé - 03/2019", "type:FR:FINESS": "355", "website": "https://ght-collinesdenormandie.fr/accueil/centre-hospitalier-jacques-monod-flers/"}}, {"name": "Centre Hospitalier Intercommunal des Andaines - Site de la Ferté-Macé", "latitude": 48.5977132, "longitude": -0.3494449, "source": "osm", "_tags": {"amenity": "hospital", "emergency": "yes", "fax": "+33 2 33 30 50 59", "healthcare": "hospital", "name": "Centre Hospitalier Intercommunal des Andaines - Site de la Ferté-Macé", "operator": "CHIC des Andaines", "operator:type": "public", "phone": "+33 2 33 30 50 50", "ref:FR:FINESS": "610780116", "type:FR:FINESS": "355", "website": "https://chic-andaines.fr/fr/index.php"}}, {"name": "Centre Hospitalier de Saint-Hilaire-du-Harcouet", "latitude": 48.5689201, "longitude": -1.096431, "source": "osm", "_tags": {"amenity": "hospital", "emergency": "yes", "fax": "+33 2 33 79 44 09", "name": "Centre Hospitalier de Saint-Hilaire-du-Harcouet", "operator:type": "public", "phone": "+33 2 33 79 44 44", "ref:FR:FINESS": "500000427", "type:FR:FINESS": "355"}}, {"name": "Centre de Médecine Physique et de Réadaptation de Bagnoles de l’Orne", "latitude": 48.554441, "longitude": -0.4251632, "source": "osm", "_tags": {"addr:city": "Bagnoles-de-l'Orne", "addr:housenumber": "17", "addr:postcode": "61140", "addr:street": "Avenue du Docteur Jacques Aimez", "amenity": "hospital", "emergency": "no", "healthcare": "hospital", "healthcare:speciality": "orthopaedics;cardiology", "name": "Centre de Médecine Physique et de Réadaptation de Bagnoles de l’Orne", "operator": "Association Pierre NOAL", "ref:FR:FINESS": "610784423", "short_name": "CMPR", "type:FR:FINESS": "109", "website": "https://www.cmpr-bagnoles.com/"}}, {"name": "Centre Hospitalier La Guerche de Bretagne", "latitude": 47.9443476, "longitude": -1.2437452, "source": "osm", "_tags": {"addr:city": "La Guerche-de-Bretagne", "addr:housenumber": "63", "addr:postcode": "35130", "addr:street": "Faubourg de Rennes", "alt_name": "Centre Hospitalier Saint Jean", "amenity": "hospital", "email": "accueil@ch-laguerche.fr", "emergency": "no", "fax": "+33 2 99 96 18 50", "healthcare": "hospital", "name": "Centre Hospitalier La Guerche de Bretagne", "phone": "+33 2 99 96 18 30", "ref:FR:FINESS": "350000212", "ref:FR:NAF": "86.10Z", "ref:FR:SIRET": "26350001900017", "source": "Le ministère des solidarités et de la santé - 03/2019", "type:FR:FINESS": "106", "website": "https://www.ch-laguerche.fr/", "wikidata": "Q92062565"}}, {"name": "Hôpital du Haut-Anjou", "latitude": 47.8272948, "longitude": -0.700371, "source": "osm", "_tags": {"alt_name": "Hôpital Saint-Julien", "amenity": "hospital", "emergency": "yes", "fax": "+33 2 43 09 33 34", "healthcare": "hospital", "name": "Hôpital du Haut-Anjou", "operator:type": "public", "phone": "+33 2 43 09 33 33", "ref:FR:FINESS": "530000017", "type:FR:FINESS": "355", "website": "https://www.ch-hautanjou.fr/"}}, {"name": "Centre de Soins de Suite Le parc", "latitude": 48.5508728, "longitude": -0.4189753, "source": "osm", "_tags": {"amenity": "hospital", "healthcare": "hospital", "name": "Centre de Soins de Suite Le parc", "ref:FR:FINESS": "610780371", "type:FR:FINESS": "109"}}, {"name": "Centre Hospitalier Local du Sud Ouest Mayennais", "latitude": 47.8480432, "longitude": -0.9579489, "source": "osm", "_tags": {"amenity": "hospital", "building": "yes", "healthcare": "hospital", "name": "Centre Hospitalier Local du Sud Ouest Mayennais", "ref:FR:FINESS": "530000132", "source": "Le ministère des solidarités et de la santé - 03/2019", "type:FR:FINESS": "106", "wikidata": "Q92062421"}}, {"name": "Centre Hospitalier du Nord-Mayenne", "latitude": 48.304969, "longitude": -0.6048516, "source": "osm", "_tags": {"amenity": "hospital", "emergency": "yes", "fax": "+33 2 43 08 22 08", "healthcare": "hospital", "name": "Centre Hospitalier du Nord-Mayenne", "operator:type": "public", "phone": "+33 2 43 08 73 00", "ref:FR:FINESS": "530000173", "type:FR:FINESS": "355", "website": "https://www.ch-mayenne.fr/"}}, {"name": "Centre Hospitalier de Laval", "latitude": 48.0637015, "longitude": -0.7834437, "source": "osm", "_tags": {"amenity": "hospital", "check_date": "2025-01-02", "emergency": "yes", "fax": "+33 2 43 68 19 26", "healthcare": "hospital", "healthcare:speciality": "intensive", "name": "Centre Hospitalier de Laval", "operator": "Groupement Hospitalier de Territoire de la Mayenne et du Haut-Anjou", "operator:type": "public", "phone": "+33 2 43 66 50 00", "ref:FR:FINESS": "530000264", "type:FR:FINESS": "355", "website": "https://www.chlaval.fr/"}}, {"name": "Centre Hospitalier Jacques Monod", "latitude": 48.7490384, "longitude": -0.5402104, "source": "osm", "_tags": {"amenity": "hospital", "emergency": "yes", "fax": "+33 2 33 62 62 05", "healthcare": "hospital", "healthcare:speciality": "intensive", "name": "Centre Hospitalier Jacques Monod", "name:etymology:wikidata": "Q231402", "operator:type": "public", "phone": "+33 2 33 62 62 00", "ref:FR:FINESS": "610000119", "type:FR:FINESS": "355", "website": "http://www.ch-flers.fr/"}}, {"name": "Centre Hospitalier Intercommunal des Andaines - Site de Domfront", "latitude": 48.5910406, "longitude": -0.65886, "source": "osm", "_tags": {"amenity": "hospital", "emergency": "no", "fax": "+33 2 33 30 57 00", "name": "Centre Hospitalier Intercommunal des Andaines - Site de Domfront", "operator": "CHIC des Andaines", "operator:type": "public", "phone": "+33 2 33 30 57 57", "ref:FR:FINESS": "610780108", "type:FR:FINESS": "355", "website": "https://chic-andaines.fr/fr/index.php"}}, {"name": "Polyclinique du Maine", "latitude": 48.0579236, "longitude": -0.7879942, "source": "osm", "_tags": {"addr:housenumber": "4", "addr:street": "Avenue des Français Libres", "amenity": "hospital", "healthcare": "hospital", "name": "Polyclinique du Maine", "ref:FR:FINESS": "530008671", "wheelchair": "yes"}}, {"name": "Hôpital local d'Ernée", "latitude": 48.2953125, "longitude": -0.9218162, "source": "osm", "_tags": {"amenity": "hospital", "healthcare": "hospital", "name": "Hôpital local d'Ernée", "operator": "Centre hospitalier du Nord-Mayenne", "ref:FR:FINESS": "530000140", "source": "Le ministère des solidarités et de la santé - 03/2019", "website": "https://www.ch-mayenne.fr/", "wikidata": "Q92061589"}}, {"name": "Service Psychiatrique Adulte Lavallois", "latitude": 48.058861, "longitude": -0.7807718, "source": "osm", "_tags": {"amenity": "hospital", "emergency": "no", "healthcare": "hospital", "name": "Service Psychiatrique Adulte Lavallois", "ref:FR:FINESS": "530003466"}}, {"name": "Centre hospitalier Jules Doitteau", "latitude": 48.3416775, "longitude": -0.2830364, "source": "osm", "_tags": {"amenity": "hospital", "emergency": "no", "healthcare": "hospital", "name": "Centre hospitalier Jules Doitteau", "ref:FR:FINESS": "530000611", "type:FR:FINESS": "106", "wikidata": "Q92062862"}}]