[{"name": "Clinique du Tertre Rouge", "latitude": 47.9642452, "longitude": 0.2230577, "source": "osm", "_tags": {"amenity": "hospital", "healthcare": "hospital", "name": "Clinique du Tertre Rouge", "operator": "Groupe Elsan", "operator:type": "private", "ref:FR:FINESS": "720000231", "type:FR:FINESS": "365"}}, {"name": "Clinique Victor Hugo", "latitude": 48.0180618, "longitude": 0.1775265, "source": "osm", "_tags": {"amenity": "hospital", "emergency": "no", "fax": "+33243479498", "healthcare": "hospital", "name": "Clinique Victor Hugo", "phone": "+33243479494", "ref:FR:FINESS": "720000249", "ref:FR:SIRET": "30037729800017", "start_date": "2023-02-01", "type:FR:FINESS": "129", "website": "https://www.elsan.care/fr/clinique-victor-hugo"}}, {"name": "Hôpital de jour Pradier", "latitude": 47.9670186, "longitude": 0.2120777, "source": "osm", "_tags": {"addr:city": "Le Mans", "addr:housenumber": "35 bis", "addr:postcode": "72100", "addr:street": "Rue James Pradier", "amenity": "hospital", "healthcare": "centre", "healthcare:speciality": "psychiatry", "name": "Hôpital de jour Pradier", "operator": "Établissement public de santé mentale de la Sarthe", "phone": "+33 2 43 50 06 71", "ref:FR:FINESS": "720012251", "ref:FR:SIRET": "26720106900593", "source": "Le ministère des solidarités et de la santé - 03/2019", "type:FR:FINESS": "292"}}, {"name": "Centre Hospitalier Charles Drouet", "latitude": 47.9636354, "longitude": 0.1547082, "source": "osm", "_tags": {"amenity": "hospital", "building": "hospital", "emergency": "no", "healthcare": "hospital", "name": "Centre Hospitalier Charles Drouet", "ref:FR:FINESS": "720005909", "source": "cadastre-dgi-fr source : Direction Générale des Impôts - Cadastre. Mise à jour : 2010", "type:FR:FINESS": "362", "wall": "yes", "wikidata": "Q112975070"}}, {"name": "Centre d'Addictologie", "latitude": 48.0096055, "longitude": 0.2243456, "source": "osm", "_tags": {"addr:city": "Le Mans", "addr:housenumber": "208", "addr:postcode": "72000", "addr:street": "Rue Prémartine", "amenity": "hospital", "building": "yes", "healthcare": "hospital", "name": "Centre d'Addictologie", "operator": "Établissement public de santé mentale de la Sarthe", "phone": "+33 2 43 76 09 09", "ref:FR:FINESS": "720013762", "ref:FR:SIRET": "26720106900189", "source": "cadastre-dgi-fr source : Direction Générale des Impôts - Cadastre. Mise à jour : 2010", "type:FR:FINESS": "292"}}, {"name": "Centre Psychothérapique de l'Orne", "latitude": 48.433693, "longitude": 0.0778858, "source": "osm", "_tags": {"amenity": "hospital", "emergency": "no", "healthcare": "hospital", "name": "Centre Psychothérapique de l'Orne", "ref:FR:FINESS": "610000028", "type:FR:FINESS": "292"}}, {"name": "Pôle Santé Sud", "latitude": 47.9658094, "longitude": 0.2259068, "source": "osm", "_tags": {"alt_name": "Centre Médico Chirurgical du Mans", "amenity": "hospital", "emergency": "yes", "fax": "+33 2 43 78 40 18", "healthcare": "hospital", "name": "Pôle Santé Sud", "operator": "Elsan", "operator:type": "private", "operator:wikidata": "Q48747106", "operator:wikipedia": "fr:Elsan", "phone": "+33 2 43 78 38 38", "ref:FR:FINESS": "720017748", "type:FR:FINESS": "365", "website": "https://www.polesantesud.fr/"}}, {"name": "Centre hospitalier du Mans", "latitude": 48.0154609, "longitude": 0.176869, "source": "osm", "_tags": {"amenity": "hospital", "emergency": "yes", "fax": "+33 2 43 43 43 21", "healthcare": "hospital", "name": "Centre hospitalier du Mans", "operator:type": "public", "phone": "+33 2 43 43 43 43", "ref:FR:FINESS": "720000033", "type": "site", "type:FR:FINESS": "355", "website": "https://ch-lemans.fr/", "wikidata": "Q2945711", "wikipedia": "fr:Centre hospitalier du Mans"}}, {"name": "EPSM de la Sarthe", "latitude": 47.9593096, "longitude": 0.1624086, "source": "osm", "_tags": {"alt_name": "Hôpital Psychiatrique", "amenity": "hospital", "healthcare": "hospital", "healthcare:speciality": "psychiatry", "name": "EPSM de la Sarthe", "official_name": "Etablissement Public de Santé Mentale de la Sarthe", "ref:FR:FINESS": "720007889", "type:FR:FINESS": "292", "website": "https://www.epsm-sarthe.fr"}}, {"name": "Centre hospitalier d'Alençon", "latitude": 48.4254494, "longitude": 0.0844081, "source": "osm", "_tags": {"addr:city": "Alençon", "addr:housenumber": "25", "addr:postcode": "61000", "addr:street": "Rue de Fresnay", "amenity": "hospital", "email": "direction@ch-alencon.fr", "emergency": "yes", "fax": "+33 2 33 32 31 14", "healthcare": "hospital", "healthcare:speciality": "intensive", "name": "Centre hospitalier d'Alençon", "phone": "+33 2 33 32 30 30", "ref:FR:FINESS": "610000051", "type:FR:FINESS": "355", "website": "https://www.ch-alencon.fr/", "wheelchair": "no"}}, {"name": "Clinique Saint-Joseph", "latitude": 48.4286336, "longitude": 0.0760522, "source": "osm", "_tags": {"amenity": "hospital", "emergency": "no", "healthcare": "hospital", "name": "Clinique Saint-Joseph", "ref:FR:FINESS": "610006421", "type:FR:FINESS": "365"}}, {"name": "Clinique du Pré", "latitude": 48.0190512, "longitude": 0.1635713, "source": "osm", "_tags": {"amenity": "hospital", "healthcare": "hospital", "name": "Clinique du Pré", "operator:type": "private", "ref:FR:FINESS": "720000199", "ref:FR:SIRET": "30577626200027", "source": "cadastre-dgi-fr source : Direction Générale des Impôts - Cadastre. Mise à jour : 2014", "type:FR:FINESS": "128", "website": "https://www.cliniquedupre.com/", "wikidata": "Q2979302", "wikipedia": "fr:Clinique du Pré"}}, {"name": "Korian - Rougemont", "latitude": 48.0201962, "longitude": 0.1562406, "source": "osm", "_tags": {"amenity": "hospital", "building": "apartments", "healthcare:speciality": "physiatry", "name": "Korian - Rougemont", "ref:FR:FINESS": "720012509", "ref:FR:SIRET": "42085555300087", "source": "cadastre-dgi-fr source : Direction Générale des Impôts - Cadastre. Mise à jour : 2014", "type:FR:FINESS": "109"}}, {"name": "Centre Hospitalier de l'Aigle", "latitude": 48.7676659, "longitude": 0.6119716, "source": "osm", "_tags": {"amenity": "hospital", "emergency": "yes", "fax": "+33 2 33 24 95 33", "healthcare": "hospital", "name": "Centre Hospitalier de l'Aigle", "operator:type": "public", "phone": "+33 2 33 24 95 95", "ref:FR:FINESS": "610000044", "type:FR:FINESS": "355", "website": "https://www.ch-laigle.fr/"}}, {"name": "Centre Hospitalier intercommunal Alençon-Mamers", "latitude": 48.3602595, "longitude": 0.3587491, "source": "osm", "_tags": {"amenity": "hospital", "emergency": "yes", "fax": "+33 2 43 31 31 08", "healthcare": "hospital", "name": "Centre Hospitalier intercommunal Alençon-Mamers", "operator:type": "public", "phone": "+33 2 43 31 31 31", "ref:FR:FINESS": "720000470", "short_name": "CHICAM", "type:FR:FINESS": "355", "website": "https://www.ch-alencon.fr/"}}, {"name": "Centre hospitalier de La Ferté-Bernard", "latitude": 48.1893223, "longitude": 0.6626558, "source": "osm", "_tags": {"alt_name": "Hôpital Paul Chapron", "amenity": "hospital", "emergency": "yes", "fax": "+33 2 43 17 61 65", "name": "Centre hospitalier de La Ferté-Bernard", "operator:type": "public", "phone": "+33 2 43 71 61 51", "ref:FR:FINESS": "720001437", "type:FR:FINESS": "355", "website": "https://www.ch-lafertebernard.fr/"}}, {"name": "Centre Hospitalier Fernand Léger", "latitude": 48.7471053, "longitude": -0.0178868, "source": "osm", "_tags": {"addr:city": "Argentan", "addr:country": "FR", "addr:housenumber": "47", "addr:postcode": "61200", "addr:street": "Rue Aristide Briand", "alt_name": "Centre hospitalier Maréchal Leclerc", "amenity": "hospital", "emergency": "yes", "fax": "+33 2 33 12 33 10", "healthcare": "hospital", "name": "Centre Hospitalier Fernand Léger", "operator:type": "public", "phone": "+33 2 33 12 33 12", "ref:FR:FINESS": "610000069", "type:FR:FINESS": "355", "website": "https://www.ch-argentan.fr/"}}, {"name": "Centre Hospitalier Marguerite de Lorraine", "latitude": 48.523494, "longitude": 0.551823, "source": "osm", "_tags": {"amenity": "hospital", "email": "ch.mortagne@ch-mortagne.fr", "emergency": "yes", "fax": "+33 2 33 83 42 82", "healthcare": "hospital", "name": "Centre Hospitalier Marguerite de Lorraine", "operator:type": "public", "phone": "+33 2 33 83 40 40", "ref:FR:FINESS": "610000077", "type:FR:FINESS": "355", "website": "http://www.ch-mortagne.fr/"}}, {"name": "Complexe hospitalier de l'arche", "latitude": 48.0577681, "longitude": 0.162073, "source": "osm", "_tags": {"addr:city": "Saint-Saturnin", "addr:postcode": "72650", "amenity": "hospital", "healthcare": "hospital", "name": "Complexe hospitalier de l'arche"}}, {"name": "Centre Hélène Chaigneau", "latitude": 47.9950298, "longitude": 0.2156127, "source": "osm", "_tags": {"amenity": "hospital", "healthcare": "centre", "healthcare:speciality": "psychiatry", "name": "Centre Hélène Chaigneau", "ref:FR:FINESS": "720019157", "ref:FR:SIRET": "26720106900767", "social_facility": "group_home", "social_facility:for": "mental_health", "type:FR:FINESS": "292"}}, {"name": "Hôpital de l'arche", "latitude": 48.058285, "longitude": 0.1623592, "source": "osm", "_tags": {"amenity": "hospital", "building": "yes", "healthcare": "hospital", "name": "Hôpital de l'arche", "ref:FR:FINESS": "720000744", "type": "multipolygon", "type:FR:FINESS": "109"}}, {"name": "Hôpital local", "latitude": 48.1859275, "longitude": -0.1234956, "source": "osm", "_tags": {"amenity": "hospital", "healthcare": "hospital", "name": "Hôpital local", "ref:FR:FINESS": "720001569", "source": "Le ministère des solidarités et de la santé - 03/2019", "type": "multipolygon"}}]