[{"name": "Centre Hospitalier de Bar-sur-Seine", "latitude": 48.1200088, "longitude": 4.3730791, "source": "osm", "_tags": {"addr:city": "Bar-sur-Seine", "addr:housenumber": "6", "addr:postcode": "10110", "addr:street": "Rue du Stade", "amenity": "hospital", "healthcare": "hospital", "name": "Centre Hospitalier de Bar-sur-Seine", "phone": "+33 3 25 38 38 38", "website": "https://ch-barsurseine.fr/"}}, {"name": "Marie-France GAULON | Les Trois Corps | Thérapies complémentaires", "latitude": 48.3023891, "longitude": 4.1393455, "source": "osm", "_tags": {"addr:city": "Villechétif", "addr:housenumber": "3", "addr:postcode": "10410", "addr:street": "Chemin des Mercières", "amenity": "hospital", "email": "lestroiscorps@gmail.com", "healthcare": "hospital", "healthcare:speciality": "reiki", "mobile": "+33 06 88 09 39 86", "name": "Marie-France GAULON | Les Trois Corps | Thérapies complémentaires", "operator": "Praticienne & Enseignante Reiki Usui", "operator:type": "private", "website": "https://lestroiscorps.webnode.fr/"}}, {"name": "Centre hospitalier de Troyes", "latitude": 48.2781851, "longitude": 4.069502, "source": "osm", "_tags": {"addr:city": "Troyes", "addr:country": "FR", "addr:housenumber": "101", "addr:postcode": "10003", "addr:street": "Avenue Anatole France", "alt_name": "Hôpital des Hauts-Clos", "amenity": "hospital", "contact:facebook": "chtroyes", "emergency": "yes", "fax": "+33 3 25 49 49 49", "healthcare": "hospital", "healthcare:speciality": "intensive", "name": "Centre hospitalier de Troyes", "operator:type": "public", "phone": "+33 3 25 49 49 49", "ref:FR:FINESS": "100000090", "source": "cadastre-dgi-fr source : Direction Générale des Impôts - Cadastre. Mise à jour : 2010", "type:FR:FINESS": "355", "website": "https://www.ch-troyes.fr/", "wheelchair": "yes"}}, {"name": "Centre Hospitalier de Vitry-le-François", "latitude": 48.7159915, "longitude": 4.6005772, "source": "osm", "_tags": {"addr:city": "Vitry-le-François", "addr:country": "FR", "addr:housenumber": "2", "addr:postcode": "51308", "addr:street": "Rue Charles Simon", "amenity": "hospital", "email": "direction-generale@ch-vitrylefrancois.fr", "emergency": "yes", "facebook": "Hôpital de Vitry-le-François", "fax": "+33 3 26 73 47 87", "healthcare": "hospital", "name": "Centre Hospitalier de Vitry-le-François", "operator:type": "public", "phone": "+33 3 26 73 60 60", "ref:FR:FINESS": "510000250", "type:FR:FINESS": "355", "website": "http://www.ch-vitrylefrancois.fr/"}}, {"name": "Centre de Rééducation Fonctionnelle Institut Asclépiade", "latitude": 48.2927325, "longitude": 4.1359928, "source": "osm", "_tags": {"amenity": "hospital", "healthcare": "hospital", "healthcare:speciality": "physiatry", "name": "Centre de Rééducation Fonctionnelle Institut Asclépiade", "ref:FR:FINESS": "100007285", "type:FR:FINESS": "109"}}, {"name": "Centre hospitalier du Tonnerrois", "latitude": 47.8558421, "longitude": 3.9791025, "source": "osm", "_tags": {"amenity": "hospital", "emergency": "yes", "fax": "+33 3 86 54 35 03", "healthcare": "hospital", "name": "Centre hospitalier du Tonnerrois", "operator:type": "public", "phone": "+33 3 86 54 33 00", "ref:FR:FINESS": "890975568", "type:FR:FINESS": "355", "website": "https://www.ght-unyon.fr/"}}, {"name": "L'Hôpital Privé de l'Aube", "latitude": 48.3066863, "longitude": 4.0531575, "source": "osm", "_tags": {"addr:city": "Troyes", "addr:housenumber": "4", "addr:postcode": "10000", "addr:street": "Rue Chaim Soutine", "amenity": "hospital", "emergency": "no", "healthcare": "hospital", "healthcare:speciality": "maternity;Ambulatory;surgery;radiology", "name": "L'Hôpital Privé de l'Aube", "phone": "+33 8 20 15 11 11", "ref:FR:FINESS": "100010818", "type:FR:FINESS": "697", "website": "https://www.hopitalprivedelaube.fr/"}}, {"name": "Centre hospitalier de Châtillon-sur-Seine", "latitude": 47.8624944, "longitude": 4.5593192, "source": "osm", "_tags": {"amenity": "hospital", "emergency": "yes", "fax": "+33 3 80 81 73 80", "healthcare": "hospital", "name": "Centre hospitalier de Châtillon-sur-Seine", "operator:type": "public", "phone": "+33 3 80 91 21 21", "ref:FR:FINESS": "210987665", "type:FR:FINESS": "355", "website": "http://www.hopital-chatillonsurseine.fr/"}}, {"name": "Centre Hospitalier de Sézanne", "latitude": 48.7226588, "longitude": 3.7292442, "source": "osm", "_tags": {"addr:city": "Sézanne", "addr:country": "FR", "addr:housenumber": "16", "addr:postcode": "51120", "addr:street": "Rue des Récollets", "amenity": "hospital", "email": "contact@gham.fr", "fax": "+33 3 26 81 79 70", "name": "Centre Hospitalier de Sézanne", "operator": "Groupement Hospitalier Aube-Marne", "operator:type": "public", "phone": "+33 3 26 81 79 79", "ref:FR:FINESS": "510000177", "source": "cadastre-dgi-fr source : Direction Générale des Impôts - Cadastre. Mise à jour : 2011", "type:FR:FINESS": "355", "website": "https://www.gham.fr/"}}, {"name": "", "latitude": 48.2851464, "longitude": 4.0577309, "source": "osm", "_tags": {"addr:city": "Saint-André-les-Vergers", "addr:country": "FR", "addr:postcode": "10120", "addr:street": "Rue Charles Baltet", "amenity": "hospital"}}, {"name": "Centre Hospitalier Saint-Nicolas", "latitude": 48.2312012, "longitude": 4.7141218, "source": "osm", "_tags": {"addr:city": "Bar-sur-Aube", "addr:housenumber": "2", "addr:postcode": "10200", "addr:street": "Rue Gaston Cheq", "amenity": "hospital", "emergency": "yes", "healthcare": "hospital", "name": "Centre Hospitalier Saint-Nicolas", "phone": "+33325270997", "ref:FR:FINESS": "100010206", "source": "Le ministère des solidarités et de la santé - 03/2019", "type:FR:FINESS": "355", "website": "https://www.ch-barsuraube.fr/"}}, {"name": "Établissement Public de Santé Mentale (EPSM) de l'Aube", "latitude": 48.3902005, "longitude": 4.5209062, "source": "osm", "_tags": {"addr:city": "Brienne-le-Château", "addr:housenumber": "3", "addr:postcode": "10500", "addr:street": "Avenue de Bauffremont", "amenity": "hospital", "healthcare": "centre", "healthcare:speciality": "psychiatry", "name": "Établissement Public de Santé Mentale (EPSM) de l'Aube", "phone": "+33 3 25 92 36 36", "website": "https://www.epsm-aube.fr/"}}, {"name": "", "latitude": 48.393313, "longitude": 4.5252067, "source": "osm", "_tags": {"amenity": "hospital", "healthcare": "hospital", "operator": "Ehpad Cardinal de Loménie"}}]