[{"name": "Hopital psychiatrique Henri Ey", "latitude": 48.1790874, "longitude": 1.3871264, "source": "osm", "_tags": {"amenity": "hospital", "healthcare": "hospital", "name": "Hopital psychiatrique Henri Ey", "ref:FR:FINESS": "280000050"}}, {"name": "SMUR CHARTRES", "latitude": 48.4205088, "longitude": 1.506827, "source": "osm", "_tags": {"amenity": "hospital", "emergency": "ambulance_station", "healthcare": "hospital", "healthcare:speciality": "emergency", "healthcare:speciality:FR": "SMUR", "name": "SMUR CHARTRES", "opening_hours": "24/7", "operator": "SAMU 28", "operator2": "CH CHARTRES", "operator:type": "public"}}, {"name": "Hôpital de Houdan", "latitude": 48.7933989, "longitude": 1.5990954, "source": "osm", "_tags": {"amenity": "hospital", "fax": "+33 1 30 46 18 59", "healthcare": "hospital", "name": "Hôpital de Houdan", "operator:type": "public", "phone": "+33 1 30 46 18 00", "ref:FR:FINESS": "780000378", "type:FR:FINESS": "106", "website": "https://www.hopitalhoudan.fr/", "wikidata": "Q92063279"}}, {"name": "Hôpital de La Loupe", "latitude": 48.4670056, "longitude": 1.0106921, "source": "osm", "_tags": {"amenity": "hospital", "healthcare": "hospital", "name": "Hôpital de La Loupe", "ref:FR:FINESS": "280000100", "type:FR:FINESS": "106", "website": "https://www.hopital-laloupe.fr", "wikidata": "Q92062829"}}, {"name": "Maison de Santé", "latitude": 48.3200111, "longitude": 0.8227885, "source": "osm", "_tags": {"addr:city": "Nogent-le-Rotrou", "addr:housenumber": "37", "addr:postcode": "28400", "addr:street": "Rue du Château", "amenity": "hospital", "building": "yes", "emergency": "no", "healthcare": "hospital", "healthcare:speciality": "general;psychiatry", "name": "Maison de Santé", "operator": "Communauté de communes du Perche", "operator:type": "public", "ref:FR:FINESS": "280007311", "source": "cadastre-dgi-fr source : Direction Générale des Impôts - Cadastre. Mise à jour : 2012", "type:FR:FINESS": "603"}}, {"name": "Centre hospitalier de Nogent-le-Rotrou", "latitude": 48.3154696, "longitude": 0.8390632, "source": "osm", "_tags": {"amenity": "hospital", "email": "direction@ch-nogentlerotrou.fr", "emergency": "yes", "fax": "+33 2 37 53 74 00", "healthcare": "hospital", "name": "Centre hospitalier de Nogent-le-Rotrou", "operator:type": "public", "phone": "+33 2 37 53 75 75", "ref:FR:FINESS": "280502998", "source": "cadastre-dgi-fr source : Direction Générale des Impôts - Cadastre. Mise à jour : 2012", "type:FR:FINESS": "355", "website": "http://www.ch-nogent-le-rotrou.fr/"}}, {"name": "Centre de réadaptation CRF de Beaurouvre", "latitude": 48.3189272, "longitude": 1.2765421, "source": "osm", "_tags": {"amenity": "hospital", "healthcare": "hospital", "landcover": "wood", "name": "Centre de réadaptation CRF de Beaurouvre", "ref:FR:FINESS": "280000266"}}, {"name": "Centre hospitalier de Dreux", "latitude": 48.7268392, "longitude": 1.3852164, "source": "osm", "_tags": {"alt_name": "Centre hospitalier Victor Jousselin", "amenity": "hospital", "emergency": "yes", "fax": "+33 2 37 51 52 24", "healthcare": "hospital", "healthcare:speciality": "intensive", "name": "Centre hospitalier de Dreux", "operator:type": "public", "phone": "+33 2 37 51 52 53", "ref:FR:FINESS": "280000084", "source": "Bing", "type:FR:FINESS": "355", "website": "https://www.ch-dreux.fr/"}}, {"name": "Centre Hospitalier Louis Pasteur", "latitude": 48.4206782, "longitude": 1.506739, "source": "osm", "_tags": {"amenity": "hospital", "emergency": "yes", "fax": "+33 2 37 30 31 22", "healthcare:speciality": "intensive", "name": "Centre Hospitalier Louis Pasteur", "operator:type": "public", "phone": "+33 2 37 30 30 30", "ref:FR:FINESS": "280504267", "type:FR:FINESS": "355", "website": "https://www.ch-chartres.fr/index.php"}}, {"name": "USLD Les Blés d'Or", "latitude": 48.1777275, "longitude": 1.3833315, "source": "osm", "_tags": {"amenity": "hospital", "building": "hospital", "healthcare": "hospital", "name": "USLD Les Blés d'Or", "operator": "Centre Hospitalier Bonneval", "source": "cadastre-dgi-fr source : Direction Générale des Finances Publiques - Cadastre. Mise à jour : 2014"}}, {"name": "Centre hospitalier de Saint-Calais", "latitude": 47.9185911, "longitude": 0.7425607, "source": "osm", "_tags": {"amenity": "hospital", "email": "direction@ch-saintcalais.fr", "emergency": "yes", "fax": "+33 2 43 63 64 75", "healthcare": "hospital", "name": "Centre hospitalier de Saint-Calais", "operator:type": "public", "phone": "+33 2 43 63 64 65", "ref:FR:FINESS": "720000520", "source": "cadastre-dgi-fr source : Direction Générale des Impôts - Cadastre. Mise à jour : 2015", "type:FR:FINESS": "355", "website": "http://ch-saintcalais.fr/"}}, {"name": "Hôpital privé d'Eure-et-Loir", "latitude": 48.4555596, "longitude": 1.4510175, "source": "osm", "_tags": {"addr:city": "Mainvilliers", "addr:housenumber": "2", "addr:postcode": "28300", "addr:street": "Rue Roland Buthier", "amenity": "hospital", "emergency": "yes", "fax": "+33 2 37 18 41 05", "name": "Hôpital privé d'Eure-et-Loir", "old_name": "Clinique Saint-François", "operator": "Groupe Elsan", "operator:type": "private", "phone": "+33 2 37 18 41 00", "ref:FR:FINESS": "280505777", "type:FR:FINESS": "365", "website": "https://www.hpel.care/"}}, {"name": "Centre hospitalier de Châteaudun", "latitude": 48.0743937, "longitude": 1.3573333, "source": "osm", "_tags": {"amenity": "hospital", "email": "contact@ch-chateaudun.fr", "emergency": "yes", "fax": "+33 2 37 44 40 01", "healthcare": "hospital", "name": "Centre hospitalier de Châteaudun", "operator:type": "public", "phone": "+33 2 37 44 40 40", "ref:FR:FINESS": "280000662", "type:FR:FINESS": "355", "website": "https://www.ch-chateaudun.fr/"}}, {"name": "Centre hospitalier de Verneuil d'Avre et d'Iton", "latitude": 48.7410446, "longitude": 0.9206641, "source": "osm", "_tags": {"addr:city": "Verneuil-sur-Avre", "addr:street": "Rue Hubert Latham", "amenity": "hospital", "emergency": "yes", "fax": "+33 2 32 23 60 60", "healthcare": "hospital", "healthcare:speciality": "emergency", "name": "Centre hospitalier de Verneuil d'Avre et d'Iton", "phone": "+33 2 32 23 60 00", "ref:FR:FINESS": "270000441", "type:FR:FINESS": "355", "website": "http://www.vbr-sudeure.fr/"}}, {"name": "Hôtel Dieu", "latitude": 48.4409568, "longitude": 1.4806824, "source": "osm", "_tags": {"addr:housenumber": "34", "addr:street": "Rue du Docteur Maunoury", "amenity": "hospital", "emergency": "no", "healthcare": "hospital", "name": "Hôtel Dieu", "note": "présence au rdc de l'UGOS, au 1er du SSR, ainsi que d'une maison de retraite", "phone": "+33237303030", "ref:FR:FINESS": "280000043", "website": "https://www.ch-chartres.fr/index.php/etablissement"}}]