[{"name": "Klinik Dorfen", "latitude": 48.2767065, "longitude": 12.1517614, "source": "osm", "_tags": {"addr:city": "Dorfen", "addr:country": "DE", "addr:housenumber": "17", "addr:postcode": "84405", "addr:street": "Erdinger Straße", "amenity": "hospital", "emergency": "no", "healthcare": "hospital", "healthcare:speciality": "internal", "name": "Klinik Dorfen", "operator": "Landkreis Erding", "toilets:wheelchair": "yes", "wheelchair": "yes"}}, {"name": "Schlossklinik Rottenburg", "latitude": 48.6980355, "longitude": 12.0032895, "source": "osm", "_tags": {"addr:city": "Rottenburg a. d. Laaber", "addr:country": "DE", "addr:housenumber": "1", "addr:postcode": "84056", "addr:street": "Schloßstraße", "amenity": "hospital", "email": "verwaltung@schlossklinik-rottenburg.de", "emergency": "no", "healthcare": "hospital", "name": "Schlossklinik Rottenburg", "operator": "LakuMed", "phone": "+49 8781 94990", "website": "https://www.lakumed.de/fachgebiete/schlossklinik-rottenburg/"}}, {"name": "MVZ Dorfen, Kardiologische Filialpraxis Taufkirchen", "latitude": 48.3445707, "longitude": 12.1307118, "source": "osm", "_tags": {"addr:city": "Taufkirchen (Vils)", "addr:country": "DE", "addr:housenumber": "8", "addr:postcode": "84416", "addr:street": "Landshuter Straße", "amenity": "hospital", "healthcare": "hospital", "name": "MVZ Dorfen, Kardiologische Filialpraxis Taufkirchen", "operator": "MVZ Dorfen, Kardiologische Filialpraxis Taufkirchen", "operator:type": "public"}}, {"name": "MVZro Strahlenzentrum Ebersberg", "latitude": 48.0769898, "longitude": 11.9599958, "source": "osm", "_tags": {"addr:city": "Ebersberg", "addr:country": "DE", "addr:housenumber": "8", "addr:postcode": "85560", "addr:street": "Pfarrer-Guggetzer-Straße", "amenity": "clinic", "emergency": "no", "fax": "+49 8092 857 88 28", "healthcare": "hospital", "healthcare:speciality": "radiology", "name": "MVZro Strahlenzentrum Ebersberg", "operator": "Kliniken der Stadt und des Landkreises Rosenheim GmbH", "operator:type": "business", "phone": "+49 8092 857 88 0", "website": "https://www.romed-mvz.de/de/strahlentherapie/standort-ebersberg.htm"}}, {"name": "Haus Fraueninsel", "latitude": 47.8304255, "longitude": 12.3812797, "source": "osm", "_tags": {"amenity": "hospital", "name": "Haus Fraueninsel"}}, {"name": "Haus Kampenwand", "latitude": 47.8300779, "longitude": 12.3801672, "source": "osm", "_tags": {"amenity": "hospital", "name": "Haus Kampenwand"}}, {"name": "RoMed Klinikum Rosenheim", "latitude": 47.8601936, "longitude": 12.1324795, "source": "osm", "_tags": {"addr:city": "Rosenheim", "addr:country": "DE", "addr:housenumber": "10", "addr:postcode": "83022", "addr:street": "Pettenkoferstraße", "alt_name": "Klinikum Rosenheim", "amenity": "hospital", "beds": "622", "check_date": "2025-07-27", "emergency": "yes", "healthcare": "hospital", "name": "RoMed Klinikum Rosenheim", "phone": "+49 8031 36 02", "short_name": "RoMed Rosenheim", "wheelchair": "yes"}}, {"name": "Inn-Salzach-Klinikum", "latitude": 48.0586356, "longitude": 12.2028723, "source": "osm", "_tags": {"addr:city": "Wasserburg am Inn", "addr:country": "DE", "addr:housenumber": "7", "addr:postcode": "83512", "addr:street": "Gabersee", "amenity": "hospital", "beds": "506", "name": "Inn-Salzach-Klinikum", "operator": "kbo-Inn-Salzach-Klinikum gGmbH", "phone": "+49 807171-0", "website": "https://www.kbo-isk.de/", "wheelchair": "limited", "wikidata": "Q1663850"}}, {"name": "Kreiskrankenhaus", "latitude": 48.4449008, "longitude": 12.3602427, "source": "osm", "_tags": {"addr:city": "Vilsbiburg", "addr:country": "DE", "addr:housenumber": "2", "addr:postcode": "84137", "addr:street": "Krankenhausstraße", "amenity": "hospital", "email": "info@lakumed.de", "emergency": "yes", "healthcare": "hospital", "name": "Kreiskrankenhaus", "operator": "Landshuter Kommunalunternehmen für medizinische Versorgung", "phone": "+49 8741 60-0", "website": "https://www.lakumed.de/fachgebiete/krankenhaus-vilsbiburg/", "wheelchair": "yes"}}, {"name": "Klinikum Ebersberg München Ost", "latitude": 48.0763015, "longitude": 11.9604668, "source": "osm", "_tags": {"addr:city": "Ebersberg", "addr:country": "DE", "addr:housenumber": "3", "addr:postcode": "85560", "addr:street": "Pfarrer-Guggetzer-Straße", "alt_name": "Kreisklinik Ebersberg", "amenity": "hospital", "email": "klinikleitung@klinik-ebe.de", "emergency": "yes", "fax": "+49 8092 82-2224", "healthcare": "hospital", "healthcare:speciality": "general;gynaecology;oncology;radiology;emergency;surgery;orthopaedics;intensive;cardiology;community;internal", "name": "Klinikum Ebersberg München Ost", "old_name": "Kreisklinik Ebersberg", "operator": "Kreisklinik Ebersberg gemeinnützige GmbH", "operator:type": "public", "phone": "+49 8092 82-0", "website": "https://www.klinik-ebe.de/", "wheelchair": "yes"}}, {"name": "Schön Klinik", "latitude": 47.8663766, "longitude": 12.1199955, "source": "osm", "_tags": {"addr:city": "Rosenheim", "addr:country": "DE", "addr:housenumber": "4", "addr:postcode": "83024", "addr:street": "Droste-Hülshoff-Straße", "amenity": "hospital", "building": "yes", "check_date": "2025-09-11", "healthcare": "hospital", "name": "Schön Klinik", "operator": "Schön Klinik", "operator:wikidata": "Q2258661", "source": "Bing"}}, {"name": "Tagesklinik Rosenheim des Inn-Salzach-Klinikums", "latitude": 47.8622549, "longitude": 12.1257548, "source": "osm", "_tags": {"addr:city": "Rosenheim", "addr:country": "DE", "addr:housenumber": "2", "addr:postcode": "83022", "addr:street": "Freiherr-vom-Stein-Straße", "amenity": "hospital", "building": "yes", "healthcare": "hospital", "name": "Tagesklinik Rosenheim des Inn-Salzach-Klinikums", "source": "Bing"}}, {"name": "Schön Klinik Vogtareuth", "latitude": 47.9477622, "longitude": 12.1882035, "source": "osm", "_tags": {"addr:city": "Vogtareuth", "addr:country": "DE", "addr:housenumber": "20", "addr:postcode": "83569", "addr:street": "Krankenhausstraße", "alt_name": "Spital Schön Klinik Vogtareuth", "amenity": "hospital", "beds": "420", "healthcare": "hospital", "healthcare:speciality": "orthopaedics;surgery", "name": "Schön Klinik Vogtareuth", "operator": "Schön Klinik", "operator:type": "private", "phone": "+49 8038 900", "start_date": "1992", "website": "https://www.schoen-klinik.de/vogtareuth", "wheelchair": "yes"}}, {"name": "Klinik ChiemseeWinkel Seebruck GmbH", "latitude": 47.9327426, "longitude": 12.4755506, "source": "osm", "_tags": {"addr:city": "Seeon-Seebruck", "addr:country": "DE", "addr:housenumber": "17", "addr:postcode": "83358", "addr:street": "Römerstraße", "addr:suburb": "Seebruck", "amenity": "hospital", "building": "yes", "healthcare": "hospital", "name": "Klinik ChiemseeWinkel Seebruck GmbH", "phone": "+49 8667 8793014", "website": "https://www.klinik-chiemseewinkel.de/"}}, {"name": "Klinik St. Irmingard", "latitude": 47.8617598, "longitude": 12.3645932, "source": "osm", "_tags": {"amenity": "hospital", "check_date": "2024-04-09", "designation": "Kurklinik", "emergency": "no", "healthcare": "hospital", "name": "Klinik St. Irmingard", "wheelchair": "yes"}}, {"name": "Klinikum Freising", "latitude": 48.4049373, "longitude": 11.7450317, "source": "osm", "_tags": {"addr:city": "Freising", "addr:country": "DE", "addr:housenumber": "18", "addr:postcode": "85354", "addr:street": "Alois-Steinecker-Straße", "amenity": "hospital", "beds": "353", "check_date": "2023-10-29", "email": "info@klinikum-freising.de", "emergency": "yes", "fax": "+49 8161 24-3099", "healthcare": "hospital", "name": "Klinikum Freising", "operator": "Technische Universität München", "operator:type": "university", "owner": "Klinikum Freising GmbH", "phone": "+49 8161 24-3000", "website": "https://www.klinikum-freising.de/", "wheelchair": "yes", "wikidata": "Q1774613", "wikipedia": "de:Klinikum Freising"}}, {"name": "kbo-Isar-Amper-Klinikum München-Ost", "latitude": 48.1172482, "longitude": 11.7491398, "source": "osm", "_tags": {"alt_name": "Isar-Amper-Klinikum München-Ost", "amenity": "hospital", "beds": "790", "emergency": "no", "healthcare": "hospital", "healthcare:speciality": "psychiatry", "name": "kbo-Isar-Amper-Klinikum München-Ost", "operator": "kbo-Isar-Amper-Klinikum gemeinnützige GmbH", "short_name": "kbo IAK", "website": "https://kbo-iak.de/", "wheelchair": "limited"}}, {"name": "Kreisklinik Trostberg", "latitude": 48.0295288, "longitude": 12.5434947, "source": "osm", "_tags": {"amenity": "hospital", "emergency": "yes", "healthcare": "hospital", "name": "Kreisklinik Trostberg"}}, {"name": "Klinikum Landkreis Erding", "latitude": 48.2947103, "longitude": 11.8962424, "source": "osm", "_tags": {"amenity": "hospital", "emergency": "yes", "fax": "+49 8122 591803", "health_facility:type": "hospital", "healthcare": "hospital", "medical_system:western": "yes", "name": "Klinikum Landkreis Erding", "operator": "Landkreis Erding", "operator:type": "government", "phone": "+49 8122 590", "toilets:wheelchair": "yes", "website": "https://www.klinikum-erding.de/", "wheelchair": "yes", "wikidata": "Q15117108", "wikipedia": "de:Klinikum Erding"}}, {"name": "Ilmtalklinik Mainburg", "latitude": 48.6430234, "longitude": 11.7792065, "source": "osm", "_tags": {"addr:city": "Mainburg", "addr:country": "DE", "addr:housenumber": "1", "addr:postcode": "84048", "addr:street": "Laurentiusweg", "amenity": "hospital", "emergency": "yes", "fax": "+49 8751 781090", "healthcare": "hospital", "name": "Ilmtalklinik Mainburg", "phone": "+49 8751 780", "website": "http://www.krankenhaus-mainburg.de/", "wheelchair": "yes", "wikidata": "Q41314485"}}, {"name": "Klinik Mühldorf", "latitude": 48.2429274, "longitude": 12.5294941, "source": "osm", "_tags": {"amenity": "hospital", "contact:email": "info@kliniken-muehldorf.de", "contact:phone": "+49 8631 6130", "contact:website": "https://www.kliniken-muehldorf.de", "emergency": "yes", "healthcare": "hospital", "name": "Klinik Mühldorf", "wheelchair": "yes"}}, {"name": "DonauIsar Klinikum Landau", "latitude": 48.66571, "longitude": 12.7030103, "source": "osm", "_tags": {"addr:city": "Landau an der Isar", "addr:country": "DE", "addr:housenumber": "17", "addr:postcode": "94405", "addr:street": "Bayerwaldring", "amenity": "hospital", "email": "verwaltung@kkh-lan.de", "emergency": "yes", "name": "DonauIsar Klinikum Landau", "operator": "DONAUISAR Klinikum Deggendorf-Dingolfing-Landau gKU", "phone": "+49 9951 75-1", "website": "http://www.donau-isar-klinikum.de/unser-klinikum/standort-landau/", "wheelchair": "yes"}}, {"name": "Donauisar Klinikum Dingolfing", "latitude": 48.6218205, "longitude": 12.4901208, "source": "osm", "_tags": {"addr:city": "Dingolfing", "addr:country": "DE", "addr:housenumber": "1", "addr:postcode": "84130", "addr:street": "Teisbacher Straße", "amenity": "hospital", "email": "verwaltung@kkh-dgf.de", "name": "Donauisar Klinikum Dingolfing", "operator": "DONAUISAR Klinikum Deggendorf-Dingolfing-Landau gKU", "phone": "+49 8731 880", "toilets:wheelchair": "yes", "website": "http://www.donau-isar-klinikum.de/unser-klinikum/standort-dingolfing/", "wheelchair": "yes"}}, {"name": "InnKlinikum Altötting Mühldorf", "latitude": 48.2339664, "longitude": 12.6763867, "source": "osm", "_tags": {"amenity": "hospital", "beds": "546", "healthcare": "hospital", "name": "InnKlinikum Altötting Mühldorf", "toilets:wheelchair": "yes", "wheelchair": "yes"}}, {"name": "Klinikum Traunstein", "latitude": 47.8739668, "longitude": 12.632203, "source": "osm", "_tags": {"amenity": "hospital", "beds": "548", "check_date": "2024-03-05", "emergency": "yes", "healthcare": "hospital", "name": "Klinikum Traunstein", "website": "https://www.kliniken-suedostbayern.de/de/main/klinikum_traunstein.htm", "wheelchair": "yes", "wikidata": "Q45060250", "wikipedia": "de:Klinikum Traunstein"}}, {"name": "Klinik Alpenhof", "latitude": 47.8944298, "longitude": 12.5301076, "source": "osm", "_tags": {"amenity": "hospital", "check_date": "2025-06-05", "name": "Klinik Alpenhof"}}, {"name": "Medical Park Klinik Chiemseeblick", "latitude": 47.8335779, "longitude": 12.3917098, "source": "osm", "_tags": {"addr:city": "Bernau am Chiemsee", "addr:housenumber": "25", "addr:postcode": "83233", "addr:street": "Rasthausstraße", "amenity": "hospital", "emergency": "no", "healthcare": "hospital", "healthcare:speciality": "psychiatry;physiatry", "name": "Medical Park Klinik Chiemseeblick", "phone": "+49 800 5800850", "website": "https://www.medicalpark.de/de/Kliniken_und_Zentren/Chiemseeblick__Bernau-Felden.html"}}, {"name": "Medical Park Klinik Chiemsee", "latitude": 47.8303678, "longitude": 12.3803694, "source": "osm", "_tags": {"amenity": "hospital", "emergency": "no", "healthcare": "hospital", "healthcare:speciality": "orthopaedics;physiatry", "name": "Medical Park Klinik Chiemsee", "operator": "Medical Park", "phone": "+49 800 6337275", "website": "https://www.medicalpark.de/de/Kliniken_und_Zentren/Chiemsee__Bernau-Felden.html"}}, {"name": "Schön Klinik Bad Aibling-Harthausen", "latitude": 47.856961, "longitude": 12.0296484, "source": "osm", "_tags": {"addr:city": "Bad Aibling", "addr:country": "DE", "addr:housenumber": "72", "addr:postcode": "83043", "addr:street": "Kolbermoorer Straße", "amenity": "hospital", "beds": "440", "emergency": "yes", "healthcare": "hospital", "healthcare:speciality": "neurology;orthopaedics;spine", "name": "Schön Klinik Bad Aibling-Harthausen", "operator": "Schön Klinik", "operator:type": "private", "phone": "+49 8061 903 0", "website": "https://www.schoen-klinik.de/bad-aibling-harthausen"}}, {"name": "Simsseeklinik Bad Endorf", "latitude": 47.9018983, "longitude": 12.297696, "source": "osm", "_tags": {"addr:city": "Bad Endorf", "addr:country": "DE", "addr:housenumber": "18a", "addr:postcode": "83093", "addr:street": "Klinikstraße", "amenity": "hospital", "email": "info@simssee-klinik.de", "emergency": "no", "healthcare": "hospital", "healthcare:speciality": "orthopaedics;geriatrics;psychiatry;physiatry", "internet_access": "wlan", "name": "Simsseeklinik Bad Endorf", "operator": "Gesundheitswelt Chiemgau AG", "phone": "+49 8053 2000", "website": "https://www.simssee-klinik.de/", "wheelchair": "yes"}}, {"name": "Schön Klinik Roseneck", "latitude": 47.8595217, "longitude": 12.3625328, "source": "osm", "_tags": {"addr:city": "Prien am Chiemsee", "addr:housenumber": "6", "addr:postcode": "83209", "addr:street": "Am Roseneck", "amenity": "hospital", "beds": "533", "emergency": "no", "healthcare": "hospital", "healthcare:speciality": "psychiatry;child_psychology", "name": "Schön Klinik Roseneck", "operator": "Schön Klinik", "operator:type": "private", "operator:wikidata": "Q2258661", "phone": "+49-8051-680", "start_date": "1984", "website": "https://www.schoen-klinik.de/roseneck"}}, {"name": "Kreiskrankenhaus Achdorf", "latitude": 48.5233197, "longitude": 12.1499832, "source": "osm", "_tags": {"addr:city": "Landshut", "addr:country": "DE", "addr:housenumber": "3", "addr:postcode": "84036", "addr:street": "Achdorfer Weg", "amenity": "hospital", "check_date": "2023-12-01", "email": "info@lakumed.de", "emergency": "yes", "healthcare": "hospital", "layer": "-1", "name": "Kreiskrankenhaus Achdorf", "operator": "LAKUMED Kliniken Landshuter Kommunalunternehmen für medizinische Versorgung", "operator:type": "public", "phone": "+49 871 4040", "website": "https://www.lakumed.de/achdorf/fachbereiche/fb_start.html"}}, {"name": "Kinderkrankenhaus Sankt Marien", "latitude": 48.5345612, "longitude": 12.1646078, "source": "osm", "_tags": {"addr:city": "Landshut", "addr:country": "DE", "addr:housenumber": "9", "addr:postcode": "84036", "addr:street": "Grillparzerstraße", "amenity": "hospital", "check_date": "2023-12-01", "emergency": "yes", "healthcare": "hospital", "healthcare:speciality": "paediatrics", "name": "Kinderkrankenhaus Sankt Marien", "name:en": "Children's hospital St. Marien", "phone": "+49 871 8520", "website": "https://www.kinderkrankenhaus-landshut.de/"}}, {"name": "Klinikum Landshut", "latitude": 48.5376718, "longitude": 12.1375837, "source": "osm", "_tags": {"addr:city": "Landshut", "addr:country": "DE", "addr:housenumber": "1", "addr:postcode": "84034", "addr:street": "Robert-Koch-Straße", "amenity": "hospital", "beds": "520", "check_date": "2024-06-15", "email": "geschaeftsfuehrung@klinikum-landshut.de", "emergency": "yes", "healthcare": "hospital", "name": "Klinikum Landshut", "operator": "Stadt Landshut", "operator:type": "public", "phone": "+49 871 6980", "website": "https://www.klinikum-landshut.de/", "wheelchair": "yes", "wikidata": "Q1774628", "wikipedia": "de:Klinikum Landshut"}}, {"name": "Kreisklinik Mallersdorf", "latitude": 48.7778187, "longitude": 12.2465132, "source": "osm", "_tags": {"amenity": "hospital", "healthcare": "hospital", "name": "Kreisklinik Mallersdorf"}}, {"name": "RoMed Klinik Wasserburg am Inn", "latitude": 48.0606518, "longitude": 12.1986625, "source": "osm", "_tags": {"amenity": "hospital", "contact:email": "info.was@ro-med.de", "contact:phone": "+49 8071 77-0", "contact:website": "https://www.romed-kliniken.de/de/wasserburg/die-klinik-im-ueberblick.htm", "emergency": "yes", "healthcare": "hospital", "healthcare:speciality": "gynaecology;internal;orthopaedics;otolaryngology;surgery", "name": "RoMed Klinik Wasserburg am Inn", "opening_hours": "24/7", "operator": "Kliniken der Stadt und des Landkreises Rosenheim GmbH", "wheelchair": "yes"}}, {"name": "Physio", "latitude": 48.7185226, "longitude": 12.4423623, "source": "osm", "_tags": {"amenity": "hospital", "healthcare": "hospital", "name": "Physio"}}, {"name": "Gesundheitszentrum Klinik St. Georg", "latitude": 47.8624105, "longitude": 12.01042, "source": "osm", "_tags": {"addr:city": "Bad Aibling", "addr:country": "DE", "addr:housenumber": "6 - 8", "addr:postcode": "83043", "addr:street": "Rosenheimer Straße", "amenity": "hospital", "email": "info@clinicum-stgeorg.de", "emergency": "no", "fax": "+49 8061 398 454", "healthcare": "hospital", "name": "Gesundheitszentrum Klinik St. Georg", "operator": "Clinicum St. Georg GmbH & Co.KG, Bad Aibling", "operator:type": "business", "phone": "+49 8061 398 0", "website": "https://www.klinik-st-georg.de/", "website:en": "https://www.st-george-hospital.com;https://www.klinik-st-georg.de/en"}}, {"name": "Rehabilitationszentrum St. Nikolaus", "latitude": 48.0814832, "longitude": 12.3411086, "source": "osm", "_tags": {"amenity": "hospital", "healthcare": "rehabilitation", "name": "Rehabilitationszentrum St. Nikolaus"}}, {"name": "RoMed Klinik Bad Aibling", "latitude": 47.8657835, "longitude": 12.0172036, "source": "osm", "_tags": {"addr:city": "Bad Aibling", "addr:country": "DE", "addr:housenumber": "16", "addr:postcode": "83043", "addr:street": "Harthauser Straße", "amenity": "hospital", "email": "info.aib@ro-med.de", "emergency": "yes", "fax": "+49 8061 930 224", "healthcare": "hospital", "name": "RoMed Klinik Bad Aibling", "operator": "RoMed Kliniken der Stadt und des Landkreises Rosenheim GmbH", "phone": "+49 8061 930 0", "website": "https://www.romed-kliniken.de/de/bad-aibling/die-klinik-im-ueberblick.htm", "wheelchair": "yes"}}, {"name": "Bezirkskrankenhaus Landshut", "latitude": 48.5365218, "longitude": 12.1331538, "source": "osm", "_tags": {"addr:city": "Landshut", "addr:country": "DE", "addr:housenumber": "22", "addr:postcode": "84034", "addr:street": "Prof.-Buchner-Straße", "amenity": "hospital", "check_date": "2024-06-25", "email": "info@bkh-landshut.de", "facebook": "https://www.facebook.com/bezirkskrankenhauslandshut", "fax": "+49 871 6008-143", "healthcare": "hospital", "healthcare:speciality": "psychiatry", "name": "Bezirkskrankenhaus Landshut", "phone": "+49 871 6008-0", "short_name": "BKH Landshut", "source": "Bing", "toilets:wheelchair": "yes", "website": "https://www.bkh-landshut.de/", "wheelchair": "yes", "wikidata": "Q106592199"}}, {"name": "", "latitude": 48.523248, "longitude": 12.1496989, "source": "osm", "_tags": {"addr:city": "Landshut", "addr:country": "DE", "addr:housenumber": "3", "addr:postcode": "84036", "addr:street": "Achdorfer Weg", "building": "hospital", "check_date": "2024-06-25", "healthcare": "hospital", "layer": "0", "phone": "+49 871 4040", "type": "multipolygon"}}, {"name": "Klinik Roseneck", "latitude": 47.8602507, "longitude": 12.3608766, "source": "osm", "_tags": {"addr:city": "Prien a. Chiemsee", "addr:country": "DE", "addr:housenumber": "89", "addr:postcode": "83209", "addr:street": "Seestraße", "amenity": "hospital", "building": "yes", "healthcare": "hospital", "name": "Klinik Roseneck", "type": "multipolygon"}}, {"name": "RoMed-Klinik Prien", "latitude": 47.8499772, "longitude": 12.3685406, "source": "osm", "_tags": {"addr:housenumber": "61-63", "addr:street": "Harrasser Straße", "amenity": "hospital", "healthcare": "hospital", "name": "RoMed-Klinik Prien", "phone": "+49 8051 6000", "type": "multipolygon", "website": "https://www.romed-kliniken.de/de/prien/die-klinik-im-ueberblick.htm", "wheelchair": "yes"}}]