[{"name": "Centre de Soins et de Réadaptation", "latitude": 48.4232816, "longitude": -4.5594685, "source": "osm", "_tags": {"amenity": "hospital", "name": "Centre de Soins et de Réadaptation", "ref:FR:FINESS": "290004365", "wheelchair": "yes"}}, {"name": "Cabinet infirmier", "latitude": 48.4571815, "longitude": -5.0976556, "source": "osm", "_tags": {"addr:city": "Ouessant", "addr:place": "Lampaul", "addr:postcode": "29242", "amenity": "hospital", "healthcare": "hospital", "name": "Cabinet infirmier", "operator": "Josiane Jezegou", "source": "Observations personnelles"}}, {"name": "Centre hospitalier de Lesneven", "latitude": 48.5706831, "longitude": -4.3191767, "source": "osm", "_tags": {"alt_name": "Hôpital de Lesneven", "amenity": "hospital", "healthcare": "hospital", "name": "Centre hospitalier de Lesneven", "name:br": "Pennospital Lesneven", "old_name": "Hôpital local de Lesneven", "operator:type": "public", "operator:wikidata": "Q105164264", "ref:FR:FINESS": "290000322", "ref:FR:NAF": "8610Z", "ref:FR:SIRET": "26290012900012", "source:name:br": "proper translation", "type:FR:FINESS": "106", "website": "https://www.hopital-lesneven.fr/", "wikidata": "Q92063140"}}, {"name": "Hôpital de jour", "latitude": 48.5608316, "longitude": -4.3394611, "source": "osm", "_tags": {"amenity": "hospital", "contact:street": "Rue de la Gare", "healthcare": "hospital", "healthcare:speciality": "child_psychiatry", "name": "Hôpital de jour", "operator": "Centre hospitalier des pays de Morlaix", "operator:type": "public", "phone": "+33298210443", "ref:FR:FINESS": "290016708", "ref:FR:NAF": "8610Z", "ref:FR:SIRET": "26290009500072", "source": "Le ministère des solidarités et de la santé - 2024-05;api-avis-situation-sirene.insee.fr - 2024-08", "type:FR:FINESS": "355", "website": "https://www.ch-morlaix.fr/hopital-de-jour-pour-enfants-grain-de-sable"}}, {"name": "Cabinet médical", "latitude": 48.4571786, "longitude": -5.0963314, "source": "osm", "_tags": {"addr:city": "Ouessant", "addr:postcode": "29242", "addr:street": "Lampaul", "amenity": "hospital", "healthcare": "hospital", "healthcare:speciality": "general", "name": "Cabinet médical", "phone": "+33 02 98 48 83 22", "website": "https://www.cabinetmedicalouessant.fr/", "wheelchair": "yes"}}, {"name": "Hôpital de la Cavale Blanche", "latitude": 48.401189, "longitude": -4.5282064, "source": "osm", "_tags": {"addr:city": "Brest", "addr:postcode": "29200", "addr:street": "Boulevard Tanguy Prigent", "amenity": "hospital", "emergency": "yes", "healthcare": "hospital", "healthcare:speciality": "intensive", "name": "Hôpital de la Cavale Blanche", "name:br": "Ospital ar Gazeg Wenn", "operator": "CHRU de Brest", "operator:type": "public", "phone": "+33 2 98 22 33 33", "ref:FR:FINESS": "290004324", "type:FR:FINESS": "101", "website": "https://www.chu-brest.fr/fr/decouvrir-chru/nos-hopitaux-residences/hopital-cavale-blanche-brest", "wikidata": "Q70456478"}}, {"name": "Clinique du Grand Large", "latitude": 48.4198864, "longitude": -4.4919489, "source": "osm", "_tags": {"amenity": "hospital", "healthcare": "hospital", "name": "Clinique du Grand Large", "name:br": "Klinikenn an Donvor", "ref:FR:FINESS": "290004142", "source:name:br": "ofis publik ar brezhoneg", "type:FR:FINESS": "365"}}, {"name": "Clinique de l'Iroise", "latitude": 48.4363733, "longitude": -4.5027418, "source": "osm", "_tags": {"amenity": "hospital", "name": "Clinique de l'Iroise", "ref:FR:FINESS": "290000736", "source": "Brest Metropole Oceane, 2009", "type:FR:FINESS": "161"}}, {"name": "Clinique Pasteur-Lanroze", "latitude": 48.4003035, "longitude": -4.4895232, "source": "osm", "_tags": {"addr:housenumber": "27", "addr:street": "Rue Auguste Kervern", "amenity": "hospital", "bmo:type": "D", "building": "yes", "healthcare": "hospital", "name": "Clinique Pasteur-Lanroze", "name:br": "Klinikenn Pasteur-Lanroz", "ref:FR:FINESS": "290000140", "ref:FR:NAF": "86.10Z", "ref:FR:SIREN": "635820459", "ref:FR:SIRET": "63582045900074", "source": "BMO2009", "source:name:br": "proper translation", "type:FR:FINESS": "365"}}, {"name": "Hôpital Le Jeune", "latitude": 48.4294052, "longitude": -4.6197037, "source": "osm", "_tags": {"amenity": "hospital", "building": "yes", "name": "Hôpital Le Jeune", "name:br": "Ospital Le Jeune", "ref:FR:FINESS": "290001015", "source": "Le ministère des solidarités et de la santé - 03/2019", "source:name:br": "proper translation", "wikidata": "Q92063238"}}, {"name": "Hôpital Psychiatrique de Bohars", "latitude": 48.4340899, "longitude": -4.5057737, "source": "osm", "_tags": {"amenity": "hospital", "healthcare": "hospital", "name": "Hôpital Psychiatrique de Bohars", "ref:FR:FINESS": "290004340", "source": "PhotoBMO2010", "type:FR:FINESS": "101", "website": "https://www.chu-brest.fr/fr/decouvrir-chru/nos-hopitaux-residences/hopital-bohars"}}, {"name": "Hôpital d'Instruction des Armées Clermont-Tonnerre", "latitude": 48.3925818, "longitude": -4.4950099, "source": "osm", "_tags": {"amenity": "hospital", "emergency": "yes", "healthcare": "hospital", "healthcare:speciality": "intensive", "landuse": "military", "name": "Hôpital d'Instruction des Armées Clermont-Tonnerre", "name:br": "Ospital kelenn an armeoù Clermont-Tonnerre", "operator:type": "public", "phone": "+33 2 98 43 70 00", "ref:FR:FINESS": "290000728", "short_name": "HIA Clermont-Tonnerre", "type:FR:FINESS": "114", "website": "http://www.hopital-armees-brest.fr/topic/index.html", "wikidata": "Q50036734"}}, {"name": "Hôpital Morvan", "latitude": 48.394237, "longitude": -4.4865604, "source": "osm", "_tags": {"alt_name": "Hôpital Augustin-Morvan", "amenity": "hospital", "emergency": "yes", "fax": "+33 2 98 22 34 98", "healthcare": "hospital", "healthcare:speciality": "intensive", "heritage": "3", "heritage:operator": "mhs", "mhs:inscription_date": "1997-06-12", "name": "Hôpital Morvan", "name:br": "Ospital Morvan", "operator": "CHRU de Brest", "operator:type": "public", "phone": "+33 2 98 22 33 33", "ref:FR:FINESS": "290000058", "ref:mhs": "PA29000011", "source:heritage": "data.gouv.fr:Ministère de la Culture - 04/2015", "source:name:br": "proper translation", "type:FR:FINESS": "101", "website": "https://www.chu-brest.fr/fr/decouvrir-chru/nos-hopitaux-residences/hopital-morvan", "wikidata": "Q17630173", "wikipedia": "fr:Hôpital Augustin-Morvan"}}, {"name": "Polyclinique Keraudren", "latitude": 48.4304119, "longitude": -4.4754786, "source": "osm", "_tags": {"amenity": "hospital", "emergency": "yes", "fax": "+33 2 98 34 29 70", "healthcare": "hospital", "name": "Polyclinique Keraudren", "name:br": "Liesklinikenn Keraodren", "operator": "Groupe Elsan", "operator:type": "private", "operator:wikidata": "Q48747106", "phone": "+33 2 98 34 29 29", "ref:FR:FINESS": "290019777", "source:name:br": "proper translation", "type:FR:FINESS": "365", "website": "http://www.keraudren-grandlarge.com/"}}, {"name": "Centre hospitalier Michel Mazéas", "latitude": 48.0841205, "longitude": -4.3164585, "source": "osm", "_tags": {"amenity": "hospital", "emergency": "yes", "healthcare": "hospital", "name": "Centre hospitalier Michel Mazéas", "name:br": "Pennospital Mikael Mazheaz", "operator:type": "public", "phone": "+33 2 98 75 10 10", "ref:FR:FINESS": "290000181", "type:FR:FINESS": "355", "website": "https://ch-douarnenez.bzh/"}}, {"name": "Centre hospitalier de Crozon", "latitude": 48.2457175, "longitude": -4.4865996, "source": "osm", "_tags": {"amenity": "hospital", "beds": "167", "emergency": "no", "healthcare": "hospital", "healthcare:speciality": "radiology", "name": "Centre hospitalier de Crozon", "name:br": "Pennospital Kraozon", "ref:FR:FINESS": "290000272", "ref:FR:SIRET": "26290010300017", "source": "Bing map 08/2017", "source:name:br": "proper translation", "wikidata": "Q92062398"}}, {"name": "Centre Winnicott", "latitude": 48.4006869, "longitude": -4.4584207, "source": "osm", "_tags": {"amenity": "hospital", "healthcare": "hospital", "healthcare:speciality": "child_psychiatry", "name": "Centre Winnicott", "operator": "CHRU Brest", "operator:type": "public", "phone": "+33 2 98 41 54 55"}}, {"name": "Grain de Sable", "latitude": 48.5609561, "longitude": -4.3394968, "source": "osm", "_tags": {"amenity": "hospital", "healthcare": "hospital", "healthcare:speciality": "child_psychiatry", "name": "Grain de Sable", "operator": "Centre hospitalier des pays de Morlaix", "operator:type": "public"}}, {"name": "Ty-Yann centre de soins et de réadaptation", "latitude": 48.3908005, "longitude": -4.4393953, "source": "osm", "_tags": {"amenity": "hospital", "healthcare": "hospital", "healthcare:speciality": "physiatry", "name": "Ty-Yann centre de soins et de réadaptation", "name:br": "Ti Yann Kreizenn Prederioù hag Azgouestaat", "phone": "+33 2 98 02 85 00", "ref:FR:FINESS": "290000827", "source:name:br": "proper translation", "type": "multipolygon", "type:FR:FINESS": "109"}}, {"name": "", "latitude": 48.4004842, "longitude": -4.5289578, "source": "osm", "_tags": {"building": "hospital", "healthcare": "hospital", "type": "multipolygon"}}]