[{"name": "Hôpital Alexandre Millerand", "latitude": 48.7302613, "longitude": 7.7218052, "source": "osm", "_tags": {"amenity": "hospital", "healthcare": "hospital", "name": "Hôpital Alexandre Millerand", "ref:FR:FINESS": "670000041", "source": "cadastre-dgi-fr source : Direction Générale des Impôts - Cadastre. Mise à jour : 2009", "type:FR:FINESS": "355"}}, {"name": "Pflege im Generationenhaus St. Josef", "latitude": 48.2333034, "longitude": 7.713753, "source": "osm", "_tags": {"addr:city": "Rheinhausen", "addr:housenumber": "1", "addr:postcode": "79365", "addr:street": "Im Bürgerzentrum", "amenity": "hospital", "healthcare": "hospital", "name": "Pflege im Generationenhaus St. Josef", "operator": "Schwesternverband"}}, {"name": "Centre SAMU/SMUR et CESU 67", "latitude": 48.5845221, "longitude": 7.7051635, "source": "osm", "_tags": {"addr:housenumber": "70", "addr:street": "Rue de l'Engelbreit", "amenity": "hospital", "email": "CESU67@chru-strasbourg.fr", "name": "Centre SAMU/SMUR et CESU 67", "website": "https://formation.chru-strasbourg.fr/les-formations-aux-gestes-et-soins-durgences-au-cesu-67/"}}, {"name": "Sankt walmat", "latitude": 48.0010414, "longitude": 7.7191634, "source": "osm", "_tags": {"addr:housenumber": "18", "addr:street": "Hofmattstraße", "amenity": "hospital", "name": "Sankt walmat", "opening_hours": "24/7"}}, {"name": "Hôpital de Hautepierre", "latitude": 48.5932911, "longitude": 7.7070877, "source": "osm", "_tags": {"addr:city": "Strasbourg", "addr:country": "FR", "addr:postcode": "67200", "addr:street": "Avenue Molière", "amenity": "hospital", "emergency": "yes", "fax": "+33 3 88 12 70 99", "healthcare": "hospital", "healthcare:speciality": "intensive", "name": "Hôpital de Hautepierre", "operator:type": "public", "phone": "+33 3 88 11 67 68", "ref:FR:FINESS": "670783273", "source": "cadastre-dgi-fr source : Direction Générale des Impôts - Cadastre. Mise à jour : 2009", "type:FR:FINESS": "101", "url": "http://www.chru-strasbourg.fr/", "website": "https://www.chru-strasbourg.fr/Hopital-de-Hautepierre"}}, {"name": "Service psychothérapique pour enfants et adolescents", "latitude": 48.5648673, "longitude": 7.7170133, "source": "osm", "_tags": {"addr:city": "Strasbourg", "addr:housenumber": "15", "addr:postcode": "67200", "addr:street": "Rue Cranach", "amenity": "hospital", "healthcare": "hospital", "name": "Service psychothérapique pour enfants et adolescents", "ref:FR:FINESS": "670790161", "source": "cadastre-dgi-fr source : Direction Générale des Impôts - Cadastre;mise à jour : 2009", "type:FR:FINESS": "101"}}, {"name": "Hôpital Pasteur", "latitude": 48.0752245, "longitude": 7.33747, "source": "osm", "_tags": {"addr:city": "Colmar", "addr:housenumber": "39", "addr:postcode": "68000", "addr:street": "Avenue de la Liberté", "amenity": "hospital", "emergency": "yes", "fax": "+33 3 89 12 42 98", "healthcare": "hospital", "healthcare:speciality": "intensive", "name": "Hôpital Pasteur", "operator:type": "public", "phone": "+33 3 89 12 40 00", "ref:FR:FINESS": "680000684", "source": "cadastre-dgi-fr source : Direction Générale des Impôts - Cadastre. Mise à jour : 2010", "type:FR:FINESS": "355", "website": "https://ch-colmar.fr/"}}, {"name": "Centre psychothérapique du Parc", "latitude": 48.0868789, "longitude": 7.3352996, "source": "osm", "_tags": {"amenity": "hospital", "healthcare:speciality": "Psychiatrie", "name": "Centre psychothérapique du Parc", "source": "cadastre-dgi-fr source : Direction Générale des Impôts - Cadastre. Mise à jour : 2010"}}, {"name": "Centre Hospitalier de Rouffach", "latitude": 47.9508099, "longitude": 7.2879981, "source": "osm", "_tags": {"amenity": "hospital", "healthcare": "hospital", "name": "Centre Hospitalier de Rouffach", "operator:type": "public", "phone": "+33 3 89 78 70 70", "ref:FR:FINESS": "680001179", "source": "cadastre-dgi-fr source : Direction Générale des Impôts - Cadastre. Mise à jour : 2010", "type:FR:FINESS": "292", "website": "https://www.ch-rouffach.fr", "wikidata": "Q2945746"}}, {"name": "Institue univers de réadaptation Clémenceau", "latitude": 48.5369233, "longitude": 7.7232388, "source": "osm", "_tags": {"addr:city": "Illkirch-Graffenstaden", "addr:housenumber": "10", "addr:postcode": "67400", "addr:street": "Avenue Achille Baumann", "amenity": "hospital", "healthcare": "hospital", "name": "Institue univers de réadaptation Clémenceau", "operator": "UGECAM", "ref:FR:FINESS": "670781129", "source": "cadastre-dgi-fr source : Direction Générale des Impôts - Cadastre. Mise à jour : 2010", "type:FR:FINESS": "109"}}, {"name": "Clinique Saint-Luc", "latitude": 48.4827291, "longitude": 7.2240873, "source": "osm", "_tags": {"addr:city": "Schirmeck", "addr:country": "FR", "addr:housenumber": "10", "addr:postcode": "67130", "addr:street": "Rue des Forges", "amenity": "hospital", "emergency": "limited", "name": "Clinique Saint-Luc", "operator": "Fondation Vincent de Paul", "operator:type": "private", "phone": "+33 3 88 47 41 41", "ref:FR:FINESS": "670798636", "source": "cadastre-dgi-fr source : Direction Générale des Impôts - Cadastre. Mise à jour : 2010", "type:FR:FINESS": "365", "website": "https://www.ghsv.org/le-ghsv/nos-etablissements/clinique-saint-luc/"}}, {"name": "Hôpital de Ribeauville", "latitude": 48.1970979, "longitude": 7.3160004, "source": "osm", "_tags": {"addr:city": "Ribeauvillé", "addr:country": "FR", "addr:housenumber": "13", "addr:postcode": "68152", "addr:street": "Rue du Château", "amenity": "hospital", "building": "yes", "healthcare": "hospital", "name": "Hôpital de Ribeauville", "ref:FR:FINESS": "680000833", "source": "cadastre-dgi-fr source : Direction Générale des Impôts - Cadastre. Mise à jour : 2010", "type:FR:FINESS": "355"}}, {"name": "", "latitude": 47.9159274, "longitude": 7.1946839, "source": "osm", "_tags": {"addr:city": "Haut-Rhin", "addr:housenumber": "1", "addr:postcode": "68500", "addr:street": "Chemin du Liebenberg", "building": "hospital", "healthcare": "hospital", "healthcare:speciality": "psychiatry", "ref:FR:FINESS": "680001294", "source": "extraction vectorielle v1 cadastre-dgi-fr source : Direction Générale des Impôts - Cadas. Mise à jour : 2010", "type:FR:FINESS": "161", "website": "https://www.korian.fr/clinique-psychiatrique/psy-korian-solisana-guebwiller-68500"}}, {"name": "Centre Hospitalier Sainte-Catherine", "latitude": 48.7461877, "longitude": 7.3490899, "source": "osm", "_tags": {"addr:city": "Saverne", "addr:country": "FR", "addr:housenumber": "19", "addr:postcode": "67703", "addr:street": "Côte de Saverne", "amenity": "hospital", "emergency": "yes", "fax": "+33 3 88 71 66 34", "healthcare": "hospital", "healthcare:speciality": "intensive", "name": "Centre Hospitalier Sainte-Catherine", "operator:type": "public", "phone": "+33 3 88 71 67 67", "ref:FR:FINESS": "670000165", "source": "cadastre-dgi-fr source : Direction Générale des Impôts - Cadastre. Mise à jour : 2010", "type:FR:FINESS": "355", "website": "https://www.ch-saverne.fr/"}}, {"name": "Helios-Rosmann-Klinik", "latitude": 48.0310286, "longitude": 7.5858317, "source": "osm", "_tags": {"addr:city": "Breisach am Rhein", "addr:country": "DE", "addr:housenumber": "37", "addr:postcode": "79206", "addr:street": "Zeppelinstraße", "amenity": "hospital", "building": "hospital", "healthcare": "hospital", "name": "Helios-Rosmann-Klinik", "website": "http://www.helios-kliniken.de/klinik/breisach.html", "wheelchair": "yes"}}, {"name": "Centre hospitalier Erstein Ville", "latitude": 48.4219081, "longitude": 7.6601317, "source": "osm", "_tags": {"addr:city": "Erstein", "addr:housenumber": "8", "addr:postcode": "67150", "addr:street": "Rue Brûlée", "amenity": "hospital", "contact:city": "Erstein", "contact:country": "FR", "contact:email": "accueil@hl-erstein.fr", "contact:fax": "+33 3 88 64 66 49", "contact:housenumber": "8-14", "contact:phone": "+33 3 88 64 66 46", "contact:postcode": "67151", "contact:street": "Rue Brûlée", "contact:website": "http://www.hopital-erstein.com/", "emergency": "no", "healthcare": "hospital", "name": "Centre hospitalier Erstein Ville", "operator:type": "public", "ref:FR:FINESS": "670000413", "short_name": "CHEV", "source": "Direction Générale des Finances Publiques - Cadastre;mise à jour : 2010", "type:FR:FINESS": "355"}}, {"name": "Ancien Centre de Réadaptation Le Muesberg", "latitude": 48.1971789, "longitude": 7.227091, "source": "osm", "_tags": {"amenity": "hospital", "healthcare": "hospital", "name": "Ancien Centre de Réadaptation Le Muesberg", "ref:FR:FINESS": "680001237", "source": "cadastre-dgi-fr source : Direction Générale des Impôts - Cadastre. Mise à jour : 2011", "type:FR:FINESS": "109"}}, {"name": "Hôpital Intercommunal du Val d'Argent", "latitude": 48.2449335, "longitude": 7.1745395, "source": "osm", "_tags": {"addr:city": "Sainte-Marie-aux-Mines", "addr:housenumber": "17", "addr:postcode": "68160", "addr:street": "Rue Jean-Jacques Bock", "amenity": "hospital", "contact:fax": "+33 3 89 22 42 48", "contact:phone": "+33 3 89 22 42 22", "contact:website": "https://www.hiva.fr/", "healthcare": "hospital", "name": "Hôpital Intercommunal du Val d'Argent", "operator:type": "public", "ref:FR:FINESS": "680000742", "ref:FR:NAF": "86.10Z", "ref:FR:SIRET": "26680200800018", "short_name": "HIVA", "source": "cadastre-dgi-fr source : Direction Générale des Impôts - Cadastre. Mise à jour : 2011", "type:FR:FINESS": "355"}}, {"name": "Hôpital de Jour Brumath", "latitude": 48.7168814, "longitude": 7.7097411, "source": "osm", "_tags": {"addr:city": "Brumath", "addr:housenumber": "108", "addr:postcode": "67170", "addr:street": "Avenue de Strasbourg", "amenity": "hospital", "healthcare": "hospital", "name": "Hôpital de Jour Brumath", "operator": "Etablissement Public de Santé Alsace Nord", "ref:FR:FINESS": "670017276", "type:FR:FINESS": "292"}}, {"name": "Hôpital Saint-Jacques", "latitude": 48.4945852, "longitude": 7.462755, "source": "osm", "_tags": {"addr:city": "Rosheim", "addr:housenumber": "14", "addr:postcode": "67560", "addr:street": "Rue du Général de Gaulle", "amenity": "hospital", "healthcare": "hospital", "name": "Hôpital Saint-Jacques", "ref:FR:FINESS": "670000371", "source": "Le ministère des solidarités et de la santé - 03/2019", "type:FR:FINESS": "355"}}, {"name": "", "latitude": 47.8878015, "longitude": 6.8584975, "source": "osm", "_tags": {"building": "hospital", "fax": "+33 3 29 61 53 85", "healthcare": "hospital", "operator": "Centre hospitalier de la Haute Vallée de la Moselle", "operator:type": "public", "phone": "+33 3 29 61 50 40", "ref:FR:FINESS": "880000153", "source": "cadastre-dgi-fr source : Direction Générale des Impôts - Cadastre. Mise à jour : 2012", "type:FR:FINESS": "355"}}, {"name": "Centre de Réadaptation Spécialisé Saint-Luc", "latitude": 48.6275767, "longitude": 7.1226923, "source": "osm", "_tags": {"addr:city": "Abreschviller", "addr:country": "FR", "addr:housenumber": "8", "addr:postcode": "57560", "addr:street": "Rue du Moulin de France", "amenity": "hospital", "healthcare": "hospital", "name": "Centre de Réadaptation Spécialisé Saint-Luc", "ref:FR:FINESS": "570000380", "source": "Le ministère des solidarités et de la santé - 03/2019"}}, {"name": "Centre Hospitalier de Sélestat - GHSO", "latitude": 48.2618235, "longitude": 7.4338068, "source": "osm", "_tags": {"addr:city": "Sélestat", "addr:housenumber": "23", "addr:postcode": "67600", "addr:street": "Avenue Louis Pasteur", "amenity": "hospital", "contact:city": "Sélestat", "contact:country": "FR", "contact:housenumber": "23", "contact:postcode": "67606", "contact:street": "Avenue Louis Pasteur", "emergency": "yes", "fax": "+33 3 88 57 56 79", "healthcare": "hospital", "name": "Centre Hospitalier de Sélestat - GHSO", "opening_hours": "24/7", "operator:type": "public", "phone": "+33 3 88 57 55 55", "ref:FR:FINESS": "670000397", "type:FR:FINESS": "355", "website": "https://www.ghso.fr/"}}, {"name": "Hôpital de Soultz", "latitude": 47.890652, "longitude": 7.2250707, "source": "osm", "_tags": {"amenity": "hospital", "healthcare": "hospital", "name": "Hôpital de Soultz", "ref:FR:FINESS": "680000767", "source": "Le ministère des solidarités et de la santé - 03/2019"}}, {"name": "Hôpital Saint-Nicolas", "latitude": 48.7293827, "longitude": 7.0515903, "source": "osm", "_tags": {"addr:city": "Sarrebourg", "addr:country": "FR", "addr:housenumber": "25", "addr:postcode": "57400", "addr:street": "Avenue du Général de Gaulle", "amenity": "hospital", "emergency": "yes", "fax": "+33 3 87 23 23 00", "healthcare": "hospital", "name": "Hôpital Saint-Nicolas", "operator:type": "public", "phone": "+33 3 87 23 24 25", "ref:FR:FINESS": "570000117", "type:FR:FINESS": "355", "website": "https://www.ch-sarrebourg.fr/"}}, {"name": "Centre thérapeutique de jour", "latitude": 48.075248, "longitude": 7.330307, "source": "osm", "_tags": {"amenity": "hospital", "name": "Centre thérapeutique de jour", "operator": "Hôpitaux Civils de Colmar", "ref:FR:FINESS": "680006178", "source": "cadastre-dgi-fr source : Direction Générale des Impôts - Cadastre. Mise à jour : 2014"}}, {"name": "AMEOS Klinikum Kaiserstuhl", "latitude": 48.1047135, "longitude": 7.631512, "source": "osm", "_tags": {"addr:city": "Vogtsburg im Kaiserstuhl", "addr:housenumber": "1", "addr:postcode": "79235", "addr:street": "Brunngasse", "addr:suburb": "Bischoffingen", "amenity": "hospital", "building": "hospital", "emergency": "no", "name": "AMEOS Klinikum Kaiserstuhl", "source:outline": "maps4bw (LGL, www.lgl-bw.de); Mapbox Satellite"}}, {"name": "Centre Hospitalier Spécialisé de Lorquin", "latitude": 48.6737004, "longitude": 7.0027842, "source": "osm", "_tags": {"amenity": "hospital", "emergency": "no", "healthcare": "hospital", "landuse": "healthcare", "name": "Centre Hospitalier Spécialisé de Lorquin", "ref:FR:FINESS": "570000885", "source": "Le ministère des solidarités et de la santé - 03/2019", "type:FR:FINESS": "292"}}, {"name": "Hôpital Local de Senones", "latitude": 48.3959911, "longitude": 6.9760538, "source": "osm", "_tags": {"amenity": "hospital", "emergency": "no", "healthcare": "hospital", "name": "Hôpital Local de Senones", "ref:FR:FINESS": "880000211", "source": "Le ministère des solidarités et de la santé - 03/2019", "type:FR:FINESS": "355"}}, {"name": "Hôpital Charles Haby", "latitude": 47.9080188, "longitude": 7.2155788, "source": "osm", "_tags": {"addr:city": "Guebwiller", "addr:housenumber": "2", "addr:postcode": "68500", "addr:street": "Rue Jean Schlumberger", "amenity": "hospital", "emergency": "yes", "fax": "+33 3 89 83 09 48", "healthcare": "hospital", "name": "Hôpital Charles Haby", "operator:type": "public", "phone": "+33 3 89 74 78 00", "ref:FR:FINESS": "680000700", "type:FR:FINESS": "355"}}, {"name": "Centre Hospitalier Intercommunal des 5 Vallées", "latitude": 48.3758854, "longitude": 6.8811411, "source": "osm", "_tags": {"amenity": "hospital", "healthcare": "hospital", "name": "Centre Hospitalier Intercommunal des 5 Vallées"}}, {"name": "Nouvel Hôpital d'Obernai", "latitude": 48.4552441, "longitude": 7.4886071, "source": "osm", "_tags": {"addr:city": "Obernai", "addr:country": "FR", "addr:housenumber": "3", "addr:postcode": "67210", "addr:street": "Avenue du Maire Gillmann", "amenity": "hospital", "healthcare": "hospital", "name": "Nouvel Hôpital d'Obernai", "operator": "Groupe hospitalier Sélestat-Obernai", "operator:type": "public", "phone": "+33 3 88 95 14 00", "ref:FR:FINESS": "670000405", "short_name": "NHO", "start_date": "2019-05-20", "type:FR:FINESS": "355", "website": "https://www.ghso.fr/"}}, {"name": "Centre de réadaption", "latitude": 48.0905762, "longitude": 7.3364053, "source": "osm", "_tags": {"amenity": "hospital", "name": "Centre de réadaption"}}, {"name": "Centre de Réadaptation fonctionnelle de Schirmeck", "latitude": 48.4870752, "longitude": 7.21596, "source": "osm", "_tags": {"addr:city": "Schirmeck", "addr:country": "FR", "addr:housenumber": "32", "addr:postcode": "67130", "addr:street": "Rue de l'Ancien Sanatorium", "amenity": "hospital", "healthcare": "hospital", "name": "Centre de Réadaptation fonctionnelle de Schirmeck", "ref:FR:FINESS": "670780915", "type:FR:FINESS": "109"}}, {"name": "Hôpital du Thillot", "latitude": 47.876801, "longitude": 6.7687985, "source": "osm", "_tags": {"amenity": "hospital", "email": "hopitallocal@hopital-lethillot.fr", "fax": "+33 3 29 25 30 62", "healthcare": "hospital", "name": "Hôpital du Thillot", "operator": "Centre hospitalier de la Haute Vallée de la Moselle", "operator:type": "public", "phone": "+33 3 29 25 00 79", "ref:FR:FINESS": "880000203", "source": "cadastre-dgi-fr source : Direction Générale des Impôts - Cadastre. Mise à jour : 2013", "type:FR:FINESS": "355"}}, {"name": "Hôpital intercommunal Ensisheim Neuf-Brisach", "latitude": 47.8678644, "longitude": 7.3500419, "source": "osm", "_tags": {"amenity": "hospital", "contact:city": "Ensisheim", "contact:fax": "+33 3 89 26 42 22", "contact:housenumber": "7", "contact:phone": "+33 3 89 81 12 55", "contact:postcode": "68190", "contact:street": "Rue Colbert", "contact:website": "https://www.hopital-ensisheim.fr/", "healthcare": "hospital", "name": "Hôpital intercommunal Ensisheim Neuf-Brisach", "ref:FR:FINESS": "680000692", "type:FR:FINESS": "355"}}, {"name": "Hôpital local de Munster", "latitude": 48.043586, "longitude": 7.1317441, "source": "osm", "_tags": {"addr:city": "Munster", "addr:country": "FR", "addr:housenumber": "6", "addr:postcode": "68140", "addr:street": "Rue du Moulin", "alt_name": "Hôpital Loewel", "amenity": "hospital", "healthcare": "hospital", "name": "Hôpital local de Munster", "ref:FR:FINESS": "680000783", "type:FR:FINESS": "355", "wikidata": "Q108783127"}}, {"name": "Hôpital local de Bussang", "latitude": 47.8878836, "longitude": 6.8584607, "source": "osm", "_tags": {"addr:city": "Bussang", "addr:country": "FR", "addr:housenumber": "3", "addr:postcode": "88540", "addr:street": "Rue Lutenbacher", "amenity": "hospital", "healthcare": "hospital", "name": "Hôpital local de Bussang", "ref:FR:FINESS": "880000153", "type:FR:FINESS": "355"}}, {"name": "Centre Hospitalier de Gérardmer", "latitude": 48.0726757, "longitude": 6.8775381, "source": "osm", "_tags": {"addr:city": "Gérardmer", "addr:housenumber": "22", "addr:postcode": "88400", "addr:street": "Boulevard Kelsch", "alt_name": "Centre Hospitalier Claudius Regaud", "amenity": "hospital", "healthcare": "hospital", "name": "Centre Hospitalier de Gérardmer", "ref:FR:FINESS": "880000039", "type:FR:FINESS": "355"}}, {"name": "Centre médical MGEN", "latitude": 48.1012869, "longitude": 7.2322774, "source": "osm", "_tags": {"addr:city": "Trois-Epis", "addr:postcode": "68410", "addr:street": "Square Marcel Rivière", "amenity": "hospital", "healthcare": "hospital", "name": "Centre médical MGEN", "ref:FR:FINESS": "680001328", "type:FR:FINESS": "109"}}, {"name": "Clinique Solisana", "latitude": 47.9159277, "longitude": 7.1952314, "source": "osm", "_tags": {"addr:city": "Haut-Rhin", "addr:country": "FR", "addr:housenumber": "1", "addr:postcode": "68500", "addr:street": "Chemin du Liebenberg", "alt_name": "Korian Solisana", "amenity": "hospital", "healthcare": "hospital", "name": "Clinique Solisana"}}, {"name": "Universitätsherzzentrum Bad Krozingen", "latitude": 47.9070478, "longitude": 7.7002437, "source": "osm", "_tags": {"addr:city": "Bad Krozingen", "addr:country": "DE", "addr:housenumber": "15", "addr:postcode": "79189", "addr:street": "Südring", "amenity": "hospital", "healthcare": "hospital", "name": "Universitätsherzzentrum Bad Krozingen", "website": "https://www.herzzentrum.de/kliniken-fachbereiche/klinik-fuer-kardiologie-und-angiologie-ii.html"}}, {"name": "", "latitude": 47.9058121, "longitude": 7.701188, "source": "osm", "_tags": {"amenity": "hospital", "healthcare": "hospital"}}, {"name": "Hôpital Psychiatrique EPSAN à Cronenbourg", "latitude": 48.6045632, "longitude": 7.7149985, "source": "osm", "_tags": {"addr:city": "Strasbourg", "addr:housenumber": "20", "addr:postcode": "67200", "addr:street": "Rue Becquerel", "amenity": "hospital", "healthcare": "hospital", "name": "Hôpital Psychiatrique EPSAN à Cronenbourg"}}, {"name": "Helios Rosmann Klinik Breisach", "latitude": 48.0310358, "longitude": 7.5863032, "source": "osm", "_tags": {"addr:city": "Breisach am Rhein", "addr:housenumber": "37", "addr:postcode": "79206", "addr:street": "Zeppelinstraße", "amenity": "hospital", "healthcare": "hospital", "name": "Helios Rosmann Klinik Breisach", "operator": "Helios Kliniken", "operator:wikidata": "Q1254151", "website": "https://www.helios-gesundheit.de/standorte-angebote/kliniken/breisach/"}}, {"name": "", "latitude": 48.4297941, "longitude": 7.6837752, "source": "osm", "_tags": {"addr:city": "Erstein", "addr:housenumber": "13", "addr:postcode": "67150", "addr:street": "Route de Kraft", "amenity": "hospital", "healthcare": "hospital"}}, {"name": "Centre Hospitalier Spécialisé d'Erstein", "latitude": 48.4297941, "longitude": 7.6837752, "source": "osm", "_tags": {"CLC:id": "FR-43557", "amenity": "hospital", "healthcare": "hospital", "name": "Centre Hospitalier Spécialisé d'Erstein", "ref:FR:FINESS": "670000603", "source": "Direction Générale des Finances Publiques - Cadastre ; mise à jour : 2010", "type:FR:FINESS": "292"}}, {"name": "Hôpital Albert Schweitzer", "latitude": 48.0636457, "longitude": 7.3647463, "source": "osm", "_tags": {"amenity": "hospital", "contact:city": "Colmar", "contact:housename": "201", "contact:postcode": "68000", "contact:street": "Avenue d'Alsace", "healthcare": "hospital", "name": "Hôpital Albert Schweitzer", "ref:FR:FINESS": "680001195", "type": "multipolygon", "type:FR:FINESS": "365"}}, {"name": "Centre Hospitalier de Saint-Dié-des-Vosges", "latitude": 48.2889925, "longitude": 6.9644777, "source": "osm", "_tags": {"addr:city": "Saint-Dié-des-Vosges", "addr:country": "FR", "addr:housenumber": "26", "addr:postcode": "88100", "addr:street": "Rue du Nouvel-Hôpital", "amenity": "hospital", "emergency": "yes", "fax": "+33 3 29 52 83 01", "healthcare": "hospital", "name": "Centre Hospitalier de Saint-Dié-des-Vosges", "opening_hours": "24/7", "operator:type": "public", "phone": "+33 3 29 52 83 00", "ref:FR:FINESS": "880000047", "type": "multipolygon", "type:FR:FINESS": "355", "website": "http://www.chi-hmv.fr", "wikidata": "Q30280039"}}]