[{"name": "Hôpital Désandrouins", "latitude": 49.1592253, "longitude": 5.4148272, "source": "osm", "_tags": {"addr:city": "Verdun", "addr:postcode": "55100", "addr:street": "Avenue d'Étain", "amenity": "hospital", "name": "Hôpital Désandrouins", "phone": "+33 3 29 83 84 85", "ref:FR:FINESS": "550003362", "ref:FR:NAF": "8610Z", "source": "cadastre-dgi-fr source : Direction Générale des Impôts - Cadastre ; mise à jour :2006", "type:FR:FINESS": "355", "wikidata": "Q60847167", "wikipedia": "fr:Centre hospitalier intercommunal de Verdun - Saint-Mihiel"}}, {"name": "Hôpital Saint-Nicolas", "latitude": 49.1551295, "longitude": 5.3822433, "source": "osm", "_tags": {"addr:city": "Verdun", "addr:housenumber": "2", "addr:postcode": "55100", "addr:street": "Rue d'Anthouard", "amenity": "hospital", "emergency": "yes", "fax": "+33 3 29 83 84 44", "healthcare:speciality": "intensive", "name": "Hôpital Saint-Nicolas", "operator:type": "public", "phone": "+33 3 29 83 84 85", "ref:FR:FINESS": "550000012", "ref:FR:NAF": "8610Z", "ref:FR:SIRET": "20003978200012", "type:FR:FINESS": "355", "website": "http://www.chvsm.org/", "wikidata": "Q60847167", "wikipedia": "fr:Centre hospitalier intercommunal de Verdun - Saint-Mihiel"}}, {"name": "Hôpital Sainte-Anne", "latitude": 48.8896681, "longitude": 5.5396879, "source": "osm", "_tags": {"amenity": "hospital", "healthcare": "hospital", "name": "Hôpital Sainte-Anne", "operator:type": "public", "phone": "+33 3 29 91 81 81", "ref:FR:FINESS": "550000202", "ref:FR:NAF": "8610Z", "source": "Direction Générale des Finances Publiques - cadastre. Mise à jour : 2015", "type:FR:FINESS": "355", "website": "http://www.chvsm.org", "wikidata": "Q60847167", "wikipedia": "fr:Centre hospitalier intercommunal de Verdun - Saint-Mihiel"}}, {"name": "Centre Hospitalier d'Argonne", "latitude": 49.092891, "longitude": 4.9079292, "source": "osm", "_tags": {"amenity": "hospital", "email": "contact@ch-argonne.fr", "emergency": "yes", "name": "Centre Hospitalier d'Argonne", "phone": "+33 3 26 60 81 41", "ref:FR:FINESS": "510000466", "ref:FR:SIRET": "26510006500118", "source": "Bing;cadastre-dgi-fr source : Direction Générale des Impôts - Cadastre. Mise à jour : 2015", "type:FR:FINESS": "355", "website": "http://www.ch-saintemenehould.fr/"}}, {"name": "SMR LES ALPAGES", "latitude": 49.1595037, "longitude": 5.4164152, "source": "osm", "_tags": {"amenity": "hospital", "building:levels": "3", "healthcare": "hospital", "healthcare:speciality": "physiatry;geriatrics", "name": "SMR LES ALPAGES", "operator": "CHVSM", "operator:type": "public", "source": "Direction Générale des Finances Publiques - Cadastre. Mise à jour : 2016"}}, {"name": "Clinique Edmond-Jacques", "latitude": 49.5528074, "longitude": 5.5260653, "source": "osm", "_tags": {"addr:housenumber": "48", "addr:street": "Rue d'Harnoncourt", "amenity": "hospital", "name": "Clinique Edmond-Jacques"}}, {"name": "Centre hospitalier de Sedan", "latitude": 49.7052102, "longitude": 4.9379555, "source": "osm", "_tags": {"addr:city": "Sedan", "addr:housenumber": "2", "addr:postcode": "40903", "addr:street": "Avenue du Général Margueritte", "amenity": "hospital", "emergency": "yes", "fax": "+33 3 24 22 85 09", "healthcare": "hospital", "name": "Centre hospitalier de Sedan", "operator:type": "public", "phone": "+33 3 24 22 80 00", "ref:FR:FINESS": "080000110", "type:FR:FINESS": "355", "website": "http://www.ch-sedan.fr/"}}, {"name": "Institut Médico-Educatif de Boutancourt", "latitude": 49.6848932, "longitude": 4.7665212, "source": "osm", "_tags": {"amenity": "hospital", "healthcare": "hospital", "name": "Institut Médico-Educatif de Boutancourt", "website": "https://ensemble-boutancourt.fr/"}}, {"name": "Résidence de personnes âgées", "latitude": 49.7351796, "longitude": 4.8260124, "source": "osm", "_tags": {"amenity": "hospital", "healthcare": "hospital", "name": "Résidence de personnes âgées"}}]