[{"name": "L'Hôpital Suisse de Paris", "latitude": 48.8235358, "longitude": 2.2768317, "source": "osm", "_tags": {"addr:housenumber": "10", "addr:street": "Rue Minard", "amenity": "hospital", "email": "info@hopitalsuissedeparis.com", "healthcare": "hospital", "heritage": "3", "heritage:operator": "mhs", "mhs:inscription_date": "1996-06-10", "name": "L'Hôpital Suisse de Paris", "phone:FR": "08 26 10 11 10", "ref:FR:FINESS": "920000635", "ref:mhs": "PA92000002", "source:heritage": "Ministère de la Culture - 06/2019", "type:FR:FINESS": "129", "website": "https://www.hopitalsuissedeparis.com/", "wikidata": "Q22980791", "wikipedia": "fr:Hôpital suisse de Paris"}}, {"name": "Centre de Pneumologie de l'Enfant", "latitude": 48.8352616, "longitude": 2.2442898, "source": "osm", "_tags": {"addr:housenumber": "108", "addr:street": "Avenue Victor Hugo", "amenity": "hospital", "name": "Centre de Pneumologie de l'Enfant", "phone": "+33 1 46 99 98 98", "source:amenity": "survey"}}, {"name": "Clinique Geoffroy Saint-Hilaire", "latitude": 48.8435512, "longitude": 2.3549103, "source": "osm", "_tags": {"amenity": "hospital", "check_date": "2024-03-24", "fax": "+33 1 43 37 73 98", "healthcare": "hospital", "healthcare:speciality": "intensive", "name": "Clinique Geoffroy Saint-Hilaire", "operator": "Ramsay Santé", "operator:type": "private", "operator:wikidata": "Q3123085", "operator:wikipedia": "fr:Ramsay Santé", "phone": "+33 1 44 08 40 00", "ref:FR:FINESS": "750300071", "ref:FR:SIRET": "56209797200011", "type:FR:FINESS": "128", "website": "https://clinique-geoffroy-saint-hilaire-paris.ramsaygds.fr/"}}, {"name": "Centre d'Exploration Digestive de l'Enfant", "latitude": 48.835404, "longitude": 2.2444495, "source": "osm", "_tags": {"addr:housenumber": "104", "addr:street": "Avenue Victor Hugo", "amenity": "hospital", "check_date": "2025-04-11", "name": "Centre d'Exploration Digestive de l'Enfant", "source": "cadastre-dgi-fr source : Direction Générale des Impôts - Cadastre. Mise à jour : 2011", "source:amenity": "survey"}}, {"name": "Clinique de la Muette", "latitude": 48.8604665, "longitude": 2.2777715, "source": "osm", "_tags": {"amenity": "hospital", "healthcare": "hospital", "name": "Clinique de la Muette", "ref:FR:FINESS": "750300840", "source:ref:FR:FINESS": "data.gouv.fr:Ministère des Affaires sociales, de la Santé et des Droits des Femmes - 12/2015", "type:FR:FINESS": "365", "website": "https://www.clinique-delamuette.fr/"}}, {"name": "Institut Curie", "latitude": 48.8426449, "longitude": 2.3435197, "source": "osm", "_tags": {"amenity": "hospital", "healthcare": "hospital", "name": "Institut Curie", "ref:FR:FINESS": "750160012", "type:FR:FINESS": "131", "wikidata": "Q2451973"}}, {"name": "CMS et PMI Bauer", "latitude": 48.9039701, "longitude": 2.3463936, "source": "osm", "_tags": {"alt_name": "Centre de Santé Bauer", "amenity": "hospital", "check_date": "2025-06-12", "emergency": "no", "name": "CMS et PMI Bauer", "ref:FR:FINESS": "930019559", "source": "Le ministère des solidarités et de la santé - 10/2018"}}, {"name": "La Cité des Fleurs", "latitude": 48.8999756, "longitude": 2.2388567, "source": "osm", "_tags": {"amenity": "hospital", "emergency": "no", "healthcare": "hospital", "name": "La Cité des Fleurs", "operator": "Les Diaconnesses de Reuilly", "phone": "+33 1 56 37 57 00", "ref:FR:FINESS": "920150075", "source": "Le ministère des solidarités et de la santé - 03/2019", "type:FR:FINESS": "109", "website": "https://citedesfleurs.fondationdiaconesses.org/"}}, {"name": "Maison de Santé de Bellevue", "latitude": 48.8201025, "longitude": 2.2244585, "source": "osm", "_tags": {"addr:housenumber": "8", "addr:street": "Avenue du 11 Novembre 1918", "amenity": "hospital", "emergency": "no", "healthcare": "hospital", "name": "Maison de Santé de Bellevue", "phone": "+33 1 41 14 15 00", "ref:FR:FINESS": "920310042", "ref:FR:SIRET": "31177097800014", "type:FR:FINESS": "161", "website": "http://www.clinique-bellevue.com"}}, {"name": "Hôpital Marmottan", "latitude": 48.8781498, "longitude": 2.2912675, "source": "osm", "_tags": {"amenity": "hospital", "contact:website": "http://www.hopital-marmottan.fr/", "healthcare": "hospital", "name": "Hôpital Marmottan", "ref:FR:FINESS": "750006249", "source": "Le ministère des solidarités et de la santé - 03/2019", "wikidata": "Q2945875"}}, {"name": "Clinique de l'Alliance", "latitude": 48.9602031, "longitude": 2.5385925, "source": "osm", "_tags": {"amenity": "hospital", "emergency": "no", "healthcare": "hospital", "healthcare:speciality": "psychiatry", "name": "Clinique de l'Alliance", "ref:FR:FINESS": "930020920", "type:FR:FINESS": "161"}}, {"name": "Clinique de Bazincourt", "latitude": 48.971721, "longitude": 1.9478536, "source": "osm", "_tags": {"amenity": "hospital", "emergency": "no", "healthcare": "hospital", "name": "Clinique de Bazincourt", "ref:FR:FINESS": "780700027", "type:FR:FINESS": "109"}}, {"name": "Futuroschool", "latitude": 48.8624147, "longitude": 2.3822402, "source": "osm", "_tags": {"addr:city": "Paris", "addr:housenumber": "46", "addr:postcode": "75011", "addr:street": "Rue Servan", "amenity": "social_facility", "contact:website": "http://www.vaincrelautisme.org", "healthcare": "hospital", "name": "Futuroschool", "social_facility": "ambulatory_care", "social_facility:for": "mental_health"}}, {"name": "Clinique Canal de l'Ourcq", "latitude": 48.8856585, "longitude": 2.3878153, "source": "osm", "_tags": {"amenity": "hospital", "check_date": "2024-03-18", "healthcare": "hospital", "name": "Clinique Canal de l'Ourcq", "opening_hours": "Mo-Fr 09:00-19:00; Sa-Su 13:00-19:00", "operator": "Korian", "ref:FR:FINESS": "750003378", "ref:FR:SIRET": "44305571000018", "source": "survey", "source:ref:FR:FINESS": "data.gouv.fr:Ministère des Affaires sociales et de la Santé - 2014-05-05", "type:FR:FINESS": "109", "website": "http://www.groupe-korian.com/"}}, {"name": "Hôpital d'Enfants de Margency", "latitude": 49.0032301, "longitude": 2.2917598, "source": "osm", "_tags": {"amenity": "hospital", "fax": "+33 1 39 59 13 55", "healthcare": "hospital", "name": "Hôpital d'Enfants de Margency", "operator": "Croix-Rouge française", "operator:type": "private", "phone": "+33 1 34 27 42 00", "ref:FR:FINESS": "950630012", "short_name": "HEM", "source": "survey", "type:FR:FINESS": "365", "website": "https://www.hem-crf.fr/", "wheelchair": "yes"}}, {"name": "Hôpital de Jour pour Enfants", "latitude": 48.8747235, "longitude": 2.4028142, "source": "osm", "_tags": {"amenity": "hospital", "healthcare": "hospital", "name": "Hôpital de Jour pour Enfants", "operator": "L'Élan retrouvé", "ref:FR:FINESS": "750007999", "source": "survey", "source:ref:FR:FINESS": "data.gouv.fr:Ministère des Affaires sociales et de la Santé - 2014-05-05", "type:FR:FINESS": "365", "website": "http://www.elan-retrouve.fr/hopital-jour-enfants-haxo.php"}}, {"name": "Hôpital de jour Georges Vacola", "latitude": 48.8852964, "longitude": 2.3750552, "source": "osm", "_tags": {"amenity": "hospital", "healthcare": "hospital", "name": "Hôpital de jour Georges Vacola", "ref:FR:FINESS": "750810384", "source": "survey", "type:FR:FINESS": "161", "website": "http://www.vacola.asso-gd.fr/"}}, {"name": "Hôpital Maison Blanche", "latitude": 48.8726355, "longitude": 2.3503654, "source": "osm", "_tags": {"addr:city": "Paris", "addr:housenumber": "26", "addr:postcode": "75010", "addr:street": "Rue d'Hauteville", "alt_name": "GHU Paris - Hauteville", "amenity": "hospital", "healthcare": "hospital", "healthcare:speciality": "psychiatry", "name": "Hôpital Maison Blanche", "operator": "GHU PARIS PSYCHIATRIE ET NEUROSCIENCES", "operator:type": "public", "phone": "+33 1 40 22 12 69", "ref:FR:FINESS": "750023749", "source": "cadastre-dgi-fr source : Direction Générale des Impôts - Cadastre. Mise à jour : 2010/local_knowledge", "website": "https://www.ghu-paris.fr/fr/annuaire-des-structures-medicales?address=&sector=All&categories=All&type_audience=All&type_support=All&keys=hauteville", "wheelchair": "yes"}}, {"name": "Hôpital Jean-Baptiste Cartry", "latitude": 49.1473961, "longitude": 1.9758162, "source": "osm", "_tags": {"amenity": "hospital", "emergency": "no", "name": "Hôpital Jean-Baptiste Cartry", "ref:FR:FINESS": "950016139", "ref:FR:NAF": "8610Z", "ref:FR:SIRET": "20002688800012", "type:FR:FINESS": "355"}}, {"name": "Centre de Rééducation Fonctionnelle Léopold Bellan", "latitude": 49.2593795, "longitude": 1.8832761, "source": "osm", "_tags": {"addr:full": "7 rue Raymond Pillon 60240 Chaumont-en-Vexin", "amenity": "hospital", "email": "centre.chaumont@fondationbellan.org", "emergency": "no", "fax": "+33 3 44 49 31 91", "healthcare": "hospital", "name": "Centre de Rééducation Fonctionnelle Léopold Bellan", "operator": "Fondation Léopold Bellan", "operator:wikidata": "Q37669450", "phone": "+33 8 26 30 55 55", "ref:FR:FINESS": "600100796", "type:FR:FINESS": "129", "website": "https://www.reeducation-bellan-chaumont-vexin.fr/"}}, {"name": "Clinique Parly 2, annexe", "latitude": 48.829295, "longitude": 2.117919, "source": "osm", "_tags": {"amenity": "hospital", "emergency": "no", "healthcare": "hospital", "name": "Clinique Parly 2, annexe"}}, {"name": "Médecine statutaire", "latitude": 48.89891, "longitude": 2.3332117, "source": "osm", "_tags": {"healthcare": "hospital", "name": "Médecine statutaire"}}, {"name": "Clinique Internationale du Parc Monceau", "latitude": 48.8800182, "longitude": 2.304237, "source": "osm", "_tags": {"amenity": "hospital", "contact:city": "Paris", "contact:housenumber": "21", "contact:phone": "+33 1 48 88 25 25", "contact:postcode": "75017", "contact:street": "Rue de Chazelles", "contact:website": "http://www.clinique-monceau.com/", "healthcare": "hospital", "name": "Clinique Internationale du Parc Monceau", "name:en": "Clinical International du Parc Monceau", "opening_hours": "24/7", "ref:FR:FINESS": "750300915", "type:FR:FINESS": "365", "wheelchair": "yes"}}, {"name": "Maison Médicale du Vexin", "latitude": 48.98786, "longitude": 1.809976, "source": "osm", "_tags": {"addr:city": "Gargenville", "addr:country": "FR", "addr:housenumber": "59", "addr:postcode": "78440", "addr:street": "Avenue Lucie Desnos", "amenity": "hospital", "emergency": "no", "healthcare": "hospital", "name": "Maison Médicale du Vexin"}}, {"name": "Centre de Rééducation Fonctionnelle", "latitude": 49.5325163, "longitude": 1.986949, "source": "osm", "_tags": {"amenity": "hospital", "healthcare": "hospital", "name": "Centre de Rééducation Fonctionnelle", "ref:FR:FINESS": "600100671", "type:FR:FINESS": "109"}}, {"name": "", "latitude": 48.8474617, "longitude": 2.1350362, "source": "osm", "_tags": {"amenity": "hospital", "ref:FR:FINESS": "780809414", "source": "Le ministère des solidarités et de la santé - 10/2018"}}, {"name": "Clinique Villa des Pages", "latitude": 48.8961093, "longitude": 2.1337887, "source": "osm", "_tags": {"addr:housenumber": "40", "addr:street": "Avenue Horace Vernet", "email": "mailto:villadespages@emeis.com", "fax": "+33 1 30 15 96 99", "healthcare": "hospital", "healthcare:speciality": "psychiatry", "name": "Clinique Villa des Pages", "operator": "Clinéa", "operator:type": "private_for_profit", "phone": "+33 1 30 15 96 96", "ref:FR:FINESS": "780310025", "type:FR:FINESS": "161", "website": "https://www.villa-des-pages.com/"}}, {"name": "Centre d'Imagerie Médicale de Fontenay-sous-Bois", "latitude": 48.8438335, "longitude": 2.4667653, "source": "osm", "_tags": {"amenity": "hospital", "check_date": "2024-03-13", "healthcare": "hospital", "name": "Centre d'Imagerie Médicale de Fontenay-sous-Bois"}}, {"name": "Clinique du Trocadéro", "latitude": 48.8604049, "longitude": 2.2809606, "source": "osm", "_tags": {"amenity": "hospital", "contact:city": "Paris", "contact:fax": "+33 1 40 72 40 68", "contact:housenumber": "62", "contact:phone": "+33 1 40 72 40 40", "contact:postcode": "75016", "contact:street": "Rue de la Tour", "healthcare": "hospital", "name": "Clinique du Trocadéro", "ref:FR:FINESS": "750300881", "ref:FR:SIRET": "35050813100025", "source": "Le ministère des solidarités et de la santé - 03/2019", "type:FR:FINESS": "128"}}, {"name": "Unité de Soins de Suite de la Fondation Rothschild", "latitude": 48.8416639, "longitude": 2.3980305, "source": "osm", "_tags": {"amenity": "hospital", "check_date": "2023-04-02", "fax": "+33144687226", "healthcare": "hospital", "name": "Unité de Soins de Suite de la Fondation Rothschild", "phone": "+33144687298", "ref:FR:FINESS": "750042830", "ref:FR:SIRET": "77568109100127", "source": "Le ministère des solidarités et de la santé - 03/2019", "type:FR:FINESS": "109"}}, {"name": "Centre de santé Yvonne Pouzin", "latitude": 48.8647994, "longitude": 2.3573815, "source": "osm", "_tags": {"addr:city": "Paris", "addr:housenumber": "14", "addr:postcode": "75003", "addr:street": "Rue Volta", "amenity": "hospital", "healthcare": "hospital", "name": "Centre de santé Yvonne Pouzin", "old_name": "Centre Au Maire Volta", "opening_hours": "Mo-Fr 08:30-19:00", "operator": "Ville de Paris", "phone": "+33 1 48 87 49 87", "website": "https://paris.fr/centresdesante", "wheelchair": "yes", "wheelchair:description:fr": "Centre de plain pied"}}, {"name": "Pôle santé la Défense", "latitude": 48.8954906, "longitude": 2.2274643, "source": "osm", "_tags": {"addr:city": "Nanterre", "addr:housenumber": "46", "addr:postcode": "92000", "addr:street": "Boulevard des Bouvets", "amenity": "hospital", "healthcare": "hospital", "name": "Pôle santé la Défense", "phone": "+33 1 46141414"}}, {"name": "Clinique Bizet", "latitude": 48.8675555, "longitude": 2.2969191, "source": "osm", "_tags": {"amenity": "hospital", "healthcare": "hospital", "name": "Clinique Bizet", "website": "https://www.bizet-cliniques-paris.fr/"}}, {"name": "Clinique du Château", "latitude": 48.9921449, "longitude": 2.1702805, "source": "osm", "_tags": {"amenity": "hospital", "healthcare": "hospital", "name": "Clinique du Château"}}, {"name": "Sielbleu Paris", "latitude": 48.8573745, "longitude": 2.3836656, "source": "osm", "_tags": {"amenity": "Physical training Center", "description": "https://sielbleu.es/", "healthcare": "hospital", "healthcare:speciality": "general;physical;Training_patients_with_respiratory_diseases;Training_for_reduced_mobility", "name": "Sielbleu Paris"}}, {"name": "Hôpital de jour Marie-Rose Mamelet", "latitude": 48.8803134, "longitude": 2.5825499, "source": "osm", "_tags": {"addr:city": "Chelles", "addr:housenumber": "17", "addr:postcode": "77500", "addr:street": "Avenue Hénin", "amenity": "hospital", "description": "Centre spécialisé en maladies mentales.", "fax": "+33 1 60 20 86 69", "healthcare": "hospital", "name": "Hôpital de jour Marie-Rose Mamelet", "operator": "Grand Hôpital de l'Est Francilien", "operator:type": "public", "phone": "+33 1 64 30 70 70", "ref:FR:FINESS": "770011799", "ref:FR:SIRET": "20006347700174", "source": "Le ministère des solidarités et de la santé - 03/2019", "type:FR:FINESS": "355", "website": "https://sante.fr/centre-hospitalier-specialise-de-lutte-contre-les-maladies-mentales/chelles/hopital-de-jour-de-psychiatrie-rose-mamelet"}}, {"name": "Centre hospitalier spécialisé La Nouvelle forge", "latitude": 49.2029174, "longitude": 2.596702, "source": "osm", "_tags": {"addr:city": "Senlis", "addr:housenumber": "46-48", "addr:postcode": "60300", "addr:street": "Avenue Albert 1er", "amenity": "hospital", "emergency": "no", "healthcare": "hospital", "name": "Centre hospitalier spécialisé La Nouvelle forge", "ref:FR:FINESS": "600101174", "ref:FR:SIRET": "77562852200184", "type:FR:FINESS": "292"}}, {"name": "Cabinet de Kinésithérapie", "latitude": 48.8310461, "longitude": 2.3119306, "source": "osm", "_tags": {"addr:housenumber": "1", "addr:street": "Rue de Ridder", "amenity": "hospital", "contact:city": "Paris", "contact:housenumber": "1", "contact:postcode": "75014", "contact:street": "Rue de Ridder", "healthcare": "physiotherapist", "healthcare:speciality": "kinesitherapy", "name": "Cabinet de Kinésithérapie", "opening_hours": "Mo-Fr 9:00-12:00 14:00-19:00", "operator": "François Gohon", "phone": "09 67 00 23 67"}}, {"name": "Hôpital Simone Veil - Site de psychiatrie", "latitude": 49.0020271, "longitude": 2.2681071, "source": "osm", "_tags": {"amenity": "hospital", "healthcare": "hospital", "name": "Hôpital Simone Veil - Site de psychiatrie"}}, {"name": "Hdj Boissière Noisy Le Sec", "latitude": 48.8786051, "longitude": 2.4521363, "source": "osm", "_tags": {"amenity": "hospital", "emergency": "no", "healthcare": "hospital", "healthcare:speciality": "psychiatry", "name": "Hdj Boissière Noisy Le Sec", "ref:FR:FINESS": "930021696", "ref:FR:SIRET": "26930093500930", "source": "Le ministère des solidarités et de la santé - 2022-03;survey", "type:FR:FINESS": "292", "wheelchair": "yes"}}, {"name": "Centre Jean Jaurès", "latitude": 48.942161, "longitude": 2.1624499, "source": "osm", "_tags": {"amenity": "hospital", "fax": "+33139571544", "name": "Centre Jean Jaurès", "phone": "+33139575466", "ref:FR:FINESS": "780809364", "ref:FR:SIRET": "26780244500069", "source": "Le ministère des solidarités et de la santé - 2022-11", "type:FR:FINESS": "292"}}, {"name": "Clinique du Louvre", "latitude": 48.8592105, "longitude": 2.3411286, "source": "osm", "_tags": {"addr:city": "Paris", "addr:housenumber": "17", "addr:postcode": "75001", "addr:street": "Rue des Prêtres Saint-Germain l'Auxerrois", "amenity": "hospital", "healthcare": "hospital", "name": "Clinique du Louvre"}}, {"name": "Centre médical de l'institut Pasteur", "latitude": 48.8419867, "longitude": 2.3096451, "source": "osm", "_tags": {"addr:housenumber": "211", "addr:postcode": "75015", "addr:street": "Rue de Vaugirard", "amenity": "hospital", "healthcare": "hospital", "name": "Centre médical de l'institut Pasteur", "opening_hours": "Su-Fr 09:00-17:00", "phone": "0145688088", "website": "https://www.pasteur.fr"}}, {"name": "AURA - Aumônerie", "latitude": 48.8987106, "longitude": 2.3332442, "source": "osm", "_tags": {"healthcare": "hospital", "name": "AURA - Aumônerie"}}, {"name": "Soins de suite et de réadaptation", "latitude": 48.8986885, "longitude": 2.3336989, "source": "osm", "_tags": {"fixme": "add proper tag:  Gériatrie = 16", "healthcare": "hospital", "name": "Soins de suite et de réadaptation"}}, {"name": "Soins de suite et de réadaptation", "latitude": 48.8987696, "longitude": 2.3336935, "source": "osm", "_tags": {"healthcare": "hospital", "name": "Soins de suite et de réadaptation"}}, {"name": "H.A.D. - URC", "latitude": 48.8987679, "longitude": 2.333255, "source": "osm", "_tags": {"healthcare": "hospital", "name": "H.A.D. - URC"}}, {"name": "CeGIDD", "latitude": 48.8986162, "longitude": 2.332335, "source": "osm", "_tags": {"healthcare": "hospital", "name": "CeGIDD"}}, {"name": "Médecine physique et de réadaptation, Traitement des douleurs, Centre du sommeil", "latitude": 48.8986418, "longitude": 2.3328124, "source": "osm", "_tags": {"healthcare": "hospital", "name": "Médecine physique et de réadaptation, Traitement des douleurs, Centre du sommeil"}}, {"name": "Médecine physique et de réadaptation, Traitement des douleurs, Centre du sommeil", "latitude": 48.8987494, "longitude": 2.3323631, "source": "osm", "_tags": {"healthcare": "hospital", "name": "Médecine physique et de réadaptation, Traitement des douleurs, Centre du sommeil"}}, {"name": "Clinique du Mont-Valérien", "latitude": 48.8759977, "longitude": 2.1996782, "source": "osm", "_tags": {"amenity": "hospital", "emergency": "no", "healthcare": "hospital", "healthcare:speciality": "physiatry", "name": "Clinique du Mont-Valérien", "operator": "Clinéa", "operator:type": "private", "ref:FR:FINESS": "920300886", "type:FR:FINESS": "109"}}, {"name": "Le Prevost", "latitude": 48.9012167, "longitude": 2.3162206, "source": "osm", "_tags": {"amenity": "hospital", "healthcare": "hospital", "name": "Le Prevost", "ref:FR:FINESS": "920011988", "ref:FR:SIRET": "26950008800373", "source": "Le ministère des solidarités et de la santé - 2023-09", "type:FR:FINESS": "292"}}, {"name": "Unité Médico Judiciaire", "latitude": 48.9501325, "longitude": 2.2579605, "source": "osm", "_tags": {"addr:city": "Argenteuil", "addr:housenumber": "2", "addr:postcode": "95100", "addr:street": "rue de Gambetta", "amenity": "hospital", "email": "secretariat@umj-argenteuil.fr", "healthcare": "hospital", "healthcare:speciality": "médico-judiciaire", "name": "Unité Médico Judiciaire", "phone": "01 30 25 71 88", "website": "https://umj-idf-co.fr/acceuil"}}, {"name": "Protection Civile de Garches", "latitude": 48.8516199, "longitude": 2.1976296, "source": "osm", "_tags": {"amenity": "hospital", "contact:facebook": "ProtectionCiviledeGarchesVilleDavray", "email": "contact@protectioncivile-garches.org", "emergency": "yes", "healthcare": "hospital", "healthcare:speciality": "emergency", "name": "Protection Civile de Garches", "operator": "Protection Civile Paris Seine", "operator:type": "association", "phone": "+33 6 76 45 79 79", "ref:FR:SIRET": "41803746100294", "website": "https://www.protection-civile.org/antennes/garches"}}, {"name": "Hopital", "latitude": 49.0643252, "longitude": 2.094478, "source": "osm", "_tags": {"addr:city": "Pontoise", "addr:housenumber": "6", "addr:street": "Avenue de l'Île-de-France", "amenity": "hospital", "healthcare": "hospital", "name": "Hopital"}}, {"name": "Hopital de Gonesse", "latitude": 48.9939671, "longitude": 2.4512396, "source": "osm", "_tags": {"addr:city": "Gonesse", "addr:housenumber": "2", "addr:street": "Boulevard du 19 Mars 1962", "amenity": "hospital", "healthcare": "hospital", "name": "Hopital de Gonesse"}}, {"name": "Hopital de Beaumont-sur-Oise", "latitude": 49.144795, "longitude": 2.2909344, "source": "osm", "_tags": {"addr:city": "Beaumont-sur-Oise", "addr:housenumber": "25", "addr:street": "Rue Edmond Turcq", "amenity": "hospital", "healthcare": "hospital", "name": "Hopital de Beaumont-sur-Oise"}}, {"name": "Clinique HPNP", "latitude": 48.9805923, "longitude": 2.3781618, "source": "osm", "_tags": {"addr:city": "Sarcelles", "addr:housenumber": "3", "addr:street": "Boulevard de Lattre de Tassigny", "amenity": "hospital", "healthcare": "hospital", "name": "Clinique HPNP"}}, {"name": "Maison de Famille Château de Chambourcy", "latitude": 48.9066908, "longitude": 2.0329151, "source": "osm", "_tags": {"amenity": "hospital", "healthcare": "hospital", "name": "Maison de Famille Château de Chambourcy"}}, {"name": "Institut de la Vue Paris Saint-Joseph", "latitude": 48.8301458, "longitude": 2.3102741, "source": "osm", "_tags": {"alt_name": "Institut du Glaucome", "amenity": "hospital", "healthcare": "hospital", "healthcare:speciality": "ophthalmology", "name": "Institut de la Vue Paris Saint-Joseph"}}, {"name": "SOS Médecin", "latitude": 48.8799773, "longitude": 2.5864704, "source": "osm", "_tags": {"amenity": "hospital", "emergency": "yes", "healthcare": "hospital", "healthcare:speciality": "general", "name": "SOS Médecin"}}, {"name": "Centre de santé des Épinettes", "latitude": 48.8185886, "longitude": 2.2597413, "source": "osm", "_tags": {"addr:city": "Issy-les-Moulineaux", "addr:housenumber": "44", "addr:postcode": "92130", "addr:street": "Rue d'Erevan", "amenity": "hospital", "contact:housenumber": "54", "contact:street": "Rue d'Erevan", "dispensing": "yes", "emergency": "no", "healthcare": "hospital", "name": "Centre de santé des Épinettes", "opening_hours": "Mo-Fr 08:30-19:30", "operator": "Mairie d'Issy/Hôpital suisse", "operator:type": "local_authority", "phone": "+33 1 41 23 92 46", "ref:FR:FINESS": "920015211"}}, {"name": "pole médical", "latitude": 49.4951278, "longitude": 1.9998089, "source": "osm", "_tags": {"addr:housenumber": "2", "addr:street": "Allée du Gardon", "amenity": "hospital", "healthcare": "hospital", "name": "pole médical"}}, {"name": "Protection Civile Courbevoie / Neuilly-sur-Seine / La Garenne-Colombes", "latitude": 48.9007505, "longitude": 2.2567977, "source": "osm", "_tags": {"addr:city": "Courbevoie", "addr:housenumber": "48", "addr:postcode": "92400", "addr:street": "Rue de Colombes", "amenity": "hospital", "emergency": "no", "healthcare": "hospital", "healthcare:speciality": "secourisme", "name": "Protection Civile Courbevoie / Neuilly-sur-Seine / La Garenne-Colombes", "operator": "Protection Civile Paris Seine", "operator:type": "association"}}, {"name": "Hôpital Louis Mourier", "latitude": 48.9249789, "longitude": 2.2362185, "source": "osm", "_tags": {"addr:city": "Colombes", "addr:housenumber": "178", "addr:postcode": "92700", "addr:street": "Rue des Renouillers", "amenity": "hospital", "branch": "Nord - Université Paris Cité", "emergency": "yes", "fax": "+33 1 47 60 62 75", "healthcare": "hospital", "healthcare:speciality": "intensive", "name": "Hôpital Louis Mourier", "operator": "Assistance publique - Hôpitaux de Paris", "operator:short": "APHP", "operator:type": "public", "operator:wikidata": "Q2867205", "phone": "+33 1 47 60 61 62", "ref:FR:FINESS": "920100047", "ref:FR:SIRET": "26750045200383", "source": "cadastre-dgi-fr source : Direction Générale des Impôts - Cadastre. Mise à jour : 2010", "type:FR:FINESS": "101", "website": "http://louismourier.aphp.fr/", "wikidata": "Q3145177"}}, {"name": "Hôpital Foch", "latitude": 48.8708091, "longitude": 2.2223961, "source": "osm", "_tags": {"amenity": "hospital", "check_date": "2024-03-23", "email": "contact@hopital-foch.com", "emergency": "yes", "fax": "+33 1 46 25 20 94", "healthcare": "hospital", "healthcare:speciality": "intensive", "name": "Hôpital Foch", "operator:type": "private", "phone": "+33 8 26 20 72 20", "ref:FR:FINESS": "920000650", "type:FR:FINESS": "365", "website": "https://www.hopital-foch.com/hopital/", "wheelchair": "yes", "wikidata": "Q3145155", "wikipedia": "fr:Hôpital Foch"}}, {"name": "Hôpital Tenon", "latitude": 48.8663639, "longitude": 2.4020047, "source": "osm", "_tags": {"amenity": "hospital", "branch": "Sorbonne Université", "emergency": "yes", "fax": "+33 1 56 01 64 90", "healthcare": "hospital", "healthcare:speciality": "intensive", "name": "Hôpital Tenon", "operator": "Assistance publique - Hôpitaux de Paris", "operator:short": "APHP", "operator:type": "public", "operator:wikidata": "Q2867205", "phone": "+33 1 56 01 70 00", "ref:FR:FINESS": "750100273", "ref:FR:SIRET": "26750045200235", "source": "cadastre-dgi-fr source : Direction Générale des Impôts - Cadastre. Mise à jour : 2014", "type:FR:FINESS": "101", "website": "https://tenon.aphp.fr/", "wikidata": "Q3145241", "wikipedia": "fr:Hôpital Tenon"}}, {"name": "GHU Paris Psychiatrie & neurosciences - site Sainte-Anne", "latitude": 48.8284833, "longitude": 2.3390837, "source": "osm", "_tags": {"addr:housenumber": "1", "addr:street": "Rue Cabanis", "amenity": "hospital", "architect": "Charles-Auguste Questel", "healthcare": "hospital", "healthcare:speciality": "intensive", "name": "GHU Paris Psychiatrie & neurosciences - site Sainte-Anne", "operator": "GHU Paris Psychiatrie & neurosciences", "operator:type": "public", "ref:FR:FINESS": "750000499", "source": "Le ministère des solidarités et de la santé - 03/2019", "type:FR:FINESS": "355", "website": "https://www.ghu-paris.fr/", "wikidata": "Q88885968", "wikipedia": "fr:Groupe hospitalier universitaire Paris psychiatrie & neurosciences"}}, {"name": "Hôpital Corentin Celton", "latitude": 48.8282044, "longitude": 2.2786271, "source": "osm", "_tags": {"amenity": "hospital", "branch": "Centre - Université Paris Cité", "emergency": "no", "healthcare": "hospital", "name": "Hôpital Corentin Celton", "operator": "Assistance publique - Hôpitaux de Paris", "operator:short": "APHP", "operator:type": "public", "operator:wikidata": "Q2867205", "phone": "+33 1 58 00 40 00", "ref:FR:FINESS": "920100062", "ref:FR:SIRET": "26750045200409", "source": "Le ministère des solidarités et de la santé - 03/2019", "type:FR:FINESS": "101", "wikidata": "Q3145150", "wikipedia": "fr:Hôpital Corentin-Celton"}}, {"name": "Fondation ophtalmologique Adolphe de Rothschild", "latitude": 48.8782542, "longitude": 2.3776344, "source": "osm", "_tags": {"amenity": "hospital", "check_date": "2024-08-18", "emergency": "yes", "fax": "+33 1 48 03 69 23", "healthcare": "hospital", "healthcare:speciality": "intensive", "name": "Fondation ophtalmologique Adolphe de Rothschild", "operator": "Fondation ophtalmologique Adolphe de Rothschild", "operator:type": "private", "phone": "+33 1 48 03 65 65", "ref:FR:FINESS": "750000549", "ref:FR:SIRET": "78477802900016", "short_name": "Fondation de Rothschild", "source": "http://www.fo-rothschild.fr/", "type:FR:FINESS": "365", "website": "https://www.fo-rothschild.fr/", "wikidata": "Q3075356"}}, {"name": "Hôpital du Val de Grâce", "latitude": 48.8395602, "longitude": 2.343123, "source": "osm", "_tags": {"amenity": "hospital", "healthcare": "hospital", "name": "Hôpital du Val de Grâce", "type:FR:FINESS": "114"}}, {"name": "Hôpital Cochin", "latitude": 48.8370175, "longitude": 2.3399281, "source": "osm", "_tags": {"addr:city": "Paris", "addr:housenumber": "27", "addr:postcode": "75014", "addr:street": "Rue du Faubourg Saint-Jacques", "amenity": "hospital", "branch": "Centre - Université Paris Cité", "emergency": "yes", "fax": "+33 1 58 41 10 05", "healthcare": "hospital", "healthcare:speciality": "ophthalmology;orthopaedics;emergency;psychiatry;cardiology;dermatology;gynaecology;oncology;radiology;biology;internal;surgery;maternity;urology;pharmacovigilance;hematology;hepatology;gastroenterology;intensive", "name": "Hôpital Cochin", "operator": "Assistance publique - Hôpitaux de Paris", "operator:short": "APHP", "operator:type": "public", "operator:wikidata": "Q2867205", "phone": "+33 1 58 41 41 41", "ref:FR:FINESS": "750100166", "ref:FR:SIRET": "38304765100013", "type:FR:FINESS": "101", "website": "https://hopital-cochin-port-royal.aphp.fr", "wikidata": "Q1131080", "wikipedia": "fr:Hôpital Cochin"}}, {"name": "Maternité Port Royal", "latitude": 48.8381233, "longitude": 2.338173, "source": "osm", "_tags": {"amenity": "hospital", "healthcare": "hospital", "name": "Maternité Port Royal", "ref:FR:FINESS": "750100182", "source": "Le ministère des solidarités et de la santé - 10/2018"}}, {"name": "Centre Hospitalier National d'Ophtalmologie des Quinze-Vingts", "latitude": 48.8503229, "longitude": 2.3719619, "source": "osm", "_tags": {"addr:housenumber": "28", "addr:postcode": "75012", "addr:street": "Rue de Charenton", "alt_name": "Centre hospitalier national d'ophtalmologie des Quinze-Vingts", "amenity": "hospital", "contact:twitter": "Quinze_Vingts", "description": "Centre hospitalier national d’ophtalmologie des Quinze-Vingts", "emergency": "yes", "fax": "+33 1 46 28 60 66", "healthcare": "hospital", "name": "Centre Hospitalier National d'Ophtalmologie des Quinze-Vingts", "operator:type": "public", "phone": "+33 1 40 02 15 20", "ref:FR:FINESS": "750000481", "short_name": "CHNO", "type:FR:FINESS": "355", "website": "https://www.quinze-vingts.fr/", "wikidata": "Q1460618", "wikipedia": "fr:Hôpital des Quinze-Vingts"}}, {"name": "Hôpital Saint-Joseph", "latitude": 48.8294228, "longitude": 2.3117253, "source": "osm", "_tags": {"amenity": "hospital", "contact:city": "Paris", "contact:fax": "+33 1 44 12 33 33", "contact:housenumber": "185", "contact:postcode": "75014", "contact:street": "Rue Raymond Losserand", "contact:website": "https://www.hpsj.fr/", "emergency": "yes", "healthcare": "hospital", "healthcare:speciality": "intensive", "name": "Hôpital Saint-Joseph", "note": "Plan de Masse : https://www.hpsj.fr/wp-content/uploads/2014/11/Plan_juin_2017.pdf", "operator": "Groupe hospitalier Paris Saint-Joseph", "operator:type": "private", "ref:FR:FINESS": "750000523", "type:FR:FINESS": "365", "wheelchair": "yes", "wikidata": "Q3117857"}}, {"name": "Institut Mutualiste Montsouris", "latitude": 48.8227046, "longitude": 2.3325473, "source": "osm", "_tags": {"alt_name": "IMM", "amenity": "hospital", "contact:fax": "+33 1 45 80 60 41", "contact:phone": "+33 1 56 61 62 63", "contact:website": "http://imm.fr/", "healthcare": "hospital", "healthcare:speciality": "intensive;maternity", "name": "Institut Mutualiste Montsouris", "ref:FR:FINESS": "750150104", "ref:FR:SIRET": "44357773900081", "source:ref:FR:FINESS": "Le ministère des solidarités et de la santé - 03/2019", "type:FR:FINESS": "365", "wikidata": "Q3152361", "wikipedia": "fr:Institut mutualiste Montsouris"}}, {"name": "Hôpital européen Georges-Pompidou", "latitude": 48.8387697, "longitude": 2.2739885, "source": "osm", "_tags": {"amenity": "hospital", "branch": "Centre - Université Paris Cité", "emergency": "yes", "fax": "+33 1 56 09 21 19", "healthcare": "hospital", "healthcare:speciality": "intensive", "name": "Hôpital européen Georges-Pompidou", "operator": "Assistance publique - Hôpitaux de Paris", "operator:short": "APHP", "operator:type": "public", "operator:wikidata": "Q2867205", "operator:wikipedia": "fr:Assistance publique - Hôpitaux de Paris", "phone": "+33 1 56 09 20 00", "ref:FR:FINESS": "750803447", "ref:FR:SIRET": "26750045201191", "short_name": "HEGP", "type:FR:FINESS": "101", "website": "https://hopital-georgespompidou.aphp.fr/", "wikidata": "Q3145336", "wikipedia": "fr:Hôpital européen Georges-Pompidou"}}, {"name": "Hôpital Privé des Peupliers", "latitude": 48.8233712, "longitude": 2.3520352, "source": "osm", "_tags": {"amenity": "hospital", "healthcare": "hospital", "name": "Hôpital Privé des Peupliers", "ref:FR:FINESS": "750300360", "type:FR:FINESS": "365", "wikidata": "Q3145358"}}, {"name": "Hôpital Armand-Trousseau", "latitude": 48.8419046, "longitude": 2.4066858, "source": "osm", "_tags": {"amenity": "hospital", "branch": "Sorbonne Université", "emergency": "yes", "healthcare": "hospital", "healthcare:speciality": "intensive", "name": "Hôpital Armand-Trousseau", "operator": "Assistance publique - Hôpitaux de Paris", "operator:short": "APHP", "operator:type": "public", "operator:wikidata": "Q2867205", "operator:wikipedia": "fr:Assistance publique - Hôpitaux de Paris", "phone": "+33 1 44 73 74 75", "ref:FR:FINESS": "750100109", "ref:FR:SIRET": "26750045200243", "type:FR:FINESS": "101", "website": "https://trousseau.aphp.fr/", "wheelchair": "limited", "wikidata": "Q3145133", "wikipedia": "fr:Hôpital Armand-Trousseau"}}, {"name": "Hôpital Lariboisière", "latitude": 48.8829019, "longitude": 2.3533116, "source": "osm", "_tags": {"amenity": "hospital", "barrier": "wall", "branch": "Nord - Université Paris Cité", "emergency": "yes", "fax": "+33 1 49 95 82 12", "healthcare": "hospital", "healthcare:speciality": "intensive", "heritage": "2", "heritage:operator": "mhs", "mhs:inscription_date": "1975-01-15", "name": "Hôpital Lariboisière", "operator": "Assistance publique - Hôpitaux de Paris", "operator:short": "APHP", "operator:type": "public", "operator:wikidata": "Q2867205", "operator:wikipedia": "fr:Assistance publique - Hôpitaux de Paris", "phone": "+33 1 49 95 65 65", "ref:FR:FINESS": "750100042", "ref:FR:SIRET": "26750045200474", "ref:mhs": "PA00086493", "source:heritage": "Ministère de la Culture - 06/2019", "type:FR:FINESS": "101", "website": "https://hopital-lariboisiere.aphp.fr/", "wheelchair": "yes", "wikidata": "Q1130784", "wikipedia": "fr:Hôpital Lariboisière"}}, {"name": "Hôpital Vaugirard - Gabriel Pallez", "latitude": 48.8344405, "longitude": 2.2940843, "source": "osm", "_tags": {"amenity": "hospital", "branch": "Centre - Université Paris Cité", "healthcare": "hospital", "name": "Hôpital Vaugirard - Gabriel Pallez", "operator": "Assistance publique - Hôpitaux de Paris", "operator:short": "APHP", "operator:type": "public", "operator:wikidata": "Q2867205", "phone": "+33140458000", "ref:FR:FINESS": "750100216", "ref:FR:SIRET": "26750045201274", "source": "Le ministère des solidarités et de la santé - 10/2018", "type:FR:FINESS": "101", "wikidata": "Q3145243"}}, {"name": "Hôpital Fernand Widal", "latitude": 48.8815039, "longitude": 2.3596777, "source": "osm", "_tags": {"amenity": "hospital", "branch": "Nord - Université Paris Cité", "healthcare": "hospital", "name": "Hôpital Fernand Widal", "operator": "Assistance publique - Hôpitaux de Paris", "operator:short": "APHP", "operator:type": "public", "operator:wikidata": "Q2867205", "phone": "+33 1 40 05 45 45", "ref:FR:FINESS": "750100067", "ref:FR:SIRET": "26750045200516", "short_name": "Hôpital Widal", "source": "Le ministère des solidarités et de la santé - 10/2018", "website": "https://hopital-lariboisiere.aphp.fr/", "wikidata": "Q1643033", "wikipedia": "fr:Hôpital Fernand-Widal"}}, {"name": "Hôpital Broca", "latitude": 48.8343403, "longitude": 2.3469901, "source": "osm", "_tags": {"amenity": "hospital", "branch": "Centre - Université Paris Cité", "healthcare": "hospital", "name": "Hôpital Broca", "operator": "Assistance publique - Hôpitaux de Paris", "operator:short": "APHP", "operator:type": "public", "operator:wikidata": "Q2867205", "phone": "+33144083000", "ref:FR:FINESS": "750801441", "ref:FR:SIRET": "26750045200698", "source": "Le ministère des solidarités et de la santé - 10/2018", "type:FR:FINESS": "101", "wheelchair": "yes", "wikidata": "Q3145143"}}, {"name": "Hôpital Saint-Louis", "latitude": 48.8738281, "longitude": 2.3676232, "source": "osm", "_tags": {"amenity": "hospital", "branch": "Nord - Université Paris Cité", "check_date": "2022-10-19", "emergency": "yes", "fax": "+33 1 42 38 50 10", "healthcare": "hospital", "healthcare:speciality": "intensive", "name": "Hôpital Saint-Louis", "operator": "Assistance publique - Hôpitaux de Paris", "operator:short": "APHP", "operator:type": "public", "operator:wikidata": "Q2867205", "phone": "+33 1 42 49 49 49", "ref:FR:FINESS": "750100075", "ref:FR:SIRET": "26750045200466", "type:FR:FINESS": "101", "website": "https://hopital-saintlouis.aphp.fr/", "wikidata": "Q1569396", "wikipedia": "fr:Hôpital Saint-Louis"}}, {"name": "Centre hospitalier de Meulan-en-Yvelines", "latitude": 49.0026873, "longitude": 1.9115473, "source": "osm", "_tags": {"amenity": "hospital", "emergency": "yes", "fax": "+33 1 30 22 16 41", "healthcare": "hospital", "healthcare:speciality": "intensive", "name": "Centre hospitalier de Meulan-en-Yvelines", "operator": "Centre hospitalier intercommunal de Meulan-Les Mureaux", "operator:type": "public", "phone": "+33 1 30 91 85 00", "ref:FR:FINESS": "780000295", "type:FR:FINESS": "355", "website": "https://www.chimm.fr/"}}, {"name": "Hôpital Robert Debré", "latitude": 48.8799331, "longitude": 2.4029431, "source": "osm", "_tags": {"amenity": "hospital", "branch": "Nord - Université Paris Cité", "emergency": "yes", "fax": "+33 1 40 03 47 77", "healthcare": "hospital", "healthcare:speciality": "intensive", "name": "Hôpital Robert Debré", "name:etymology:wikidata": "Q743684", "operator": "Assistance publique - Hôpitaux de Paris", "operator:short": "APHP", "operator:type": "public", "operator:wikidata": "Q2867205", "phone": "+33140032385", "ref:FR:FINESS": "750803454", "ref:FR:SIRET": "26750045200995", "type:FR:FINESS": "101", "website": "https://robertdebre.aphp.fr/", "wikidata": "Q3145204", "wikipedia": "fr:Hôpital Robert-Debré"}}, {"name": "Hôpital Avicenne", "latitude": 48.9145918, "longitude": 2.4237883, "source": "osm", "_tags": {"alt_name": "ancien hôpital franco-musulman", "amenity": "hospital", "branch": "Hôpitaux Universitaires Paris Seine-Saint-Denis", "emergency": "yes", "fax": "+33 1 48 95 56 67", "healthcare": "hospital", "healthcare:speciality": "intensive", "heritage": "3", "heritage:operator": "mhs", "mhs:inscription_date": "2006", "name": "Hôpital Avicenne", "operator": "Assistance publique - Hôpitaux de Paris", "operator:short": "APHP", "operator:type": "public", "operator:wikidata": "Q2867205", "phone": "+33 1 48 95 55 55", "ref:FR:FINESS": "930100037", "ref:FR:SIRET": "80803419300017", "ref:mhs": "PA93000021", "source:heritage": "data.gouv.fr:Ministère de la Culture - 04/2015", "type:FR:FINESS": "101", "website": "https://chu93.aphp.fr/hopital-avicenne-bobigny/", "wikidata": "Q3145134"}}, {"name": "Hôpital Simone Veil", "latitude": 49.0016641, "longitude": 2.2704902, "source": "osm", "_tags": {"addr:city": "Eaubonne", "addr:housenumber": "14", "addr:street": "Rue de Saint-Prix", "amenity": "hospital", "emergency": "yes", "fax": "+33 1 34 06 60 06", "healthcare": "hospital", "healthcare:speciality": "intensive", "name": "Hôpital Simone Veil", "operator": "Groupement hospitalier Eaubonne-Montmorency", "operator:type": "public", "phone": "+33 1 34 06 60 00", "ref:FR:FINESS": "950000323", "toilets:wheelchair": "yes", "type:FR:FINESS": "355", "website": "https://www.hopital-simoneveil.fr/", "wheelchair": "limited"}}, {"name": "Centre hospitalier intercommunal André Grégoire", "latitude": 48.8776064, "longitude": 2.4531978, "source": "osm", "_tags": {"amenity": "hospital", "emergency": "yes", "fax": "+33 1 49 20 31 23", "healthcare": "hospital", "healthcare:speciality": "intensive", "name": "Centre hospitalier intercommunal André Grégoire", "operator:type": "public", "phone": "+33 1 49 20 30 40", "ref:FR:FINESS": "930000302", "short_name": "CHI André Grégoire", "source": "cadastre-dgi-fr source : Direction Générale des Impôts - Cadastre;mise à jour : 2008", "type:FR:FINESS": "355", "website": "https://www.chi-andre-gregoire.fr/", "wikidata": "Q30293552"}}, {"name": "Hôpital Jean Verdier", "latitude": 48.9095822, "longitude": 2.4881041, "source": "osm", "_tags": {"amenity": "hospital", "branch": "Hôpitaux Universitaires Paris Seine-Saint-Denis", "emergency": "yes", "fax": "+33 1 48 02 61 02", "healthcare": "hospital", "healthcare:speciality": "intensive", "name": "Hôpital Jean Verdier", "operator": "Assistance publique - Hôpitaux de Paris", "operator:short": "APHP", "operator:type": "public", "operator:wikidata": "Q2867205", "phone": "+33 1 48 02 66 66", "ref:FR:FINESS": "930100045", "ref:FR:SIRET": "26750045200367", "type:FR:FINESS": "101", "website": "https://chu93.aphp.fr/hopital-jean-verdier-bondy/", "wheelchair": "limited", "wikidata": "Q3145167"}}, {"name": "Hopital Beaujon", "latitude": 48.9081917, "longitude": 2.3103219, "source": "osm", "_tags": {"addr:housenumber": "100", "amenity": "hospital", "branch": "Nord - Université Paris Cité", "emergency": "yes", "fax": "+33 1 47 30 48 63", "healthcare": "hospital", "healthcare:speciality": "intensive", "name": "Hopital Beaujon", "operator": "Assistance publique - Hôpitaux de Paris", "operator:short": "APHP", "operator:type": "public", "operator:wikidata": "Q2867205", "phone": "+33 1 40 87 50 00", "ref:FR:FINESS": "920100039", "ref:FR:SIRET": "26750045200094", "source:ref:FR:FINESS": "data.gouv.fr:Ministère des Affaires sociales, de la Santé et des Droits des Femmes - 12/2015", "type:FR:FINESS": "101", "website": "http://hupnvs.aphp.fr/beaujon/", "wikidata": "Q2690409", "wikipedia": "fr:Hôpital Beaujon"}}, {"name": "Hôpital d'Instruction des Armées Bégin", "latitude": 48.8439535, "longitude": 2.4265211, "source": "osm", "_tags": {"amenity": "hospital", "healthcare": "hospital", "healthcare:speciality": "intensive", "landuse": "military", "name": "Hôpital d'Instruction des Armées Bégin", "ref:FR:FINESS": "940120017", "short_name": "Hôpital Bégin", "source": "cadastre-dgi-fr source : Direction Générale des Impôts - Cadastre ; mise à jour : 2009", "type:FR:FINESS": "114", "wikidata": "Q3145267", "wikipedia": "fr:Hôpital d'instruction des armées Bégin"}}, {"name": "Clinique du Château", "latitude": 48.8437234, "longitude": 2.1970011, "source": "osm", "_tags": {"amenity": "hospital", "barrier": "wall", "capacity": "38", "email": "admission.chateaudegarches@emeis.com", "healthcare": "hospital", "name": "Clinique du Château", "operator": "emeis", "phone": "+33 1 47 95 63 00", "ref:FR:FINESS": "920310034", "source": "cadastre-dgi-fr source : Direction Générale des Impôts - Cadastre. Mise à jour : 2008", "start_date": "1930", "type:FR:FINESS": "161", "website": "https://www.emeis-cliniques.fr/clinique-du-chateau-de-garches-92"}}, {"name": "Hôpital Bichat-Claude Bernard", "latitude": 48.899013, "longitude": 2.331758, "source": "osm", "_tags": {"addr:city": "Paris", "addr:country": "FR", "addr:housenumber": "46", "addr:street": "Rue Henri Huchard", "alt_name": "Hopital Xavier Bichat", "amenity": "hospital", "branch": "Nord - Université Paris Cité", "emergency": "yes", "fax": "+33 1 40 25 83 05", "healthcare": "hospital", "healthcare:speciality": "intensive", "name": "Hôpital Bichat-Claude Bernard", "operator": "Assistance publique - Hôpitaux de Paris", "operator:short": "APHP", "operator:type": "public", "operator:wikidata": "Q2867205", "phone": "+33 1 40 25 80 80", "postal_code": "75877", "ref:FR:FINESS": "750100232", "ref:FR:SIRET": "26750045200201", "type:FR:FINESS": "101", "website": "https://hopital-bichat.aphp.fr/", "wheelchair": "yes", "wikidata": "Q3145138"}}, {"name": "Centre Cardiologique d'Évecquemont", "latitude": 49.0106, "longitude": 1.9372298, "source": "osm", "_tags": {"amenity": "hospital", "healthcare": "hospital", "healthcare:speciality": "cardiology", "name": "Centre Cardiologique d'Évecquemont", "ref:FR:FINESS": "780300075", "type:FR:FINESS": "129"}}, {"name": "Centre hospitalier intercommunal de Poissy", "latitude": 48.9187371, "longitude": 2.0226165, "source": "osm", "_tags": {"addr:city": "Poissy", "addr:postcode": "78300", "alt_name": "Centre hospitalier Léon Touhladjian", "amenity": "hospital", "emergency": "yes", "fax": "+33 1 39 27 43 75", "healthcare": "hospital", "healthcare:speciality": "intensive", "name": "Centre hospitalier intercommunal de Poissy", "operator": "Centre hospitalier intercommunal de Poissy/Saint-Germain-en-Laye", "operator:type": "public", "phone": "+33 1 39 27 40 50", "ref:FR:FINESS": "780000311", "short_name": "CHIPS", "type:FR:FINESS": "355", "website": "https://www.chi-poissy-st-germain.fr/fr/Page-d-accueil-167.html"}}, {"name": "Hôpital Delafontaine", "latitude": 48.9352707, "longitude": 2.3748904, "source": "osm", "_tags": {"amenity": "hospital", "emergency": "yes", "facebook": "Hôpital Delafontaine (page officielle)", "fax": "+33 1 42 35 61 85", "healthcare": "hospital", "healthcare:speciality": "intensive", "name": "Hôpital Delafontaine", "operator": "Centre hospitalier de Saint-Denis", "operator:type": "public", "phone": "+33 1 42 35 61 40", "ref:FR:FINESS": "930000328", "twitter": "CH_StDenis", "type:FR:FINESS": "355", "website": "https://www.ch-stdenis.fr/", "wikidata": "Q2945703"}}, {"name": "Clinique Sainte-Marie", "latitude": 49.0740925, "longitude": 2.0760054, "source": "osm", "_tags": {"addr:city": "Osny", "addr:housenumber": "1", "addr:postcode": "95520", "addr:street": "Rue Christian Barnard", "amenity": "hospital", "check_date": "2025-07-27", "emergency": "yes", "fax": "+33 1 34 20 96 99", "healthcare": "hospital", "name": "Clinique Sainte-Marie", "opening_hours": "Mo-Su 7:30-20:00", "operator": "Vivalto Santé", "operator:type": "private", "phone": "+33 1 34 20 96 96", "ref:FR:FINESS": "950300244", "type:FR:FINESS": "365", "website": "https://chpsaintemarie.vivalto-sante.com/"}}, {"name": "Maison médicale Jeanne Garnier", "latitude": 48.8463859, "longitude": 2.2898151, "source": "osm", "_tags": {"amenity": "hospital", "building": "yes", "emergency": "no", "healthcare": "hospital", "name": "Maison médicale Jeanne Garnier", "ref:FR:FINESS": "750150187", "source": "cadastre-dgi-fr source : Direction Générale des Impôts - Cadastre ; mise à jour : 2009", "type:FR:FINESS": "129", "wikidata": "Q20971354"}}, {"name": "Hôpital Max Fourestier", "latitude": 48.9139509, "longitude": 2.2224499, "source": "osm", "_tags": {"alt_name": "Centre d'accueil et de soins hospitalier de Nanterre", "amenity": "hospital", "architect": "Achille Hermant", "beds": "924", "emergency": "yes", "fax": "+33 1 47 69 66 92", "healthcare": "hospital", "name": "Hôpital Max Fourestier", "note:fr": "Fut auparavent l'ancienne Maison Départementale du département de la Seine", "old_name": "Maison Départementale; Maison de Répréssion; Maison de Retraite Départementale de Nanterre", "operator:type": "public", "phone": "+33 1 47 69 65 65", "ref:FR:FINESS": "920000577", "ref:mhs": "IA00070522", "short_name": "CASH Nanterre", "source": "Microsoft Bing orbital imagery + survey", "start_date": "~1930", "type:FR:FINESS": "355", "url:drac": "http://www.culture.gouv.fr/documentation/memoire/HTML/IVR11/IA00070522/index.htm", "url:merimee": "http://www.culture.gouv.fr/public/mistral/merimee_fr?ACTION=RETROUVER&FIELD_1=INSEE&VALUE_1=92050&NUMBER=63&GRP=0&REQ=%28%2892050%29%20%3aINSEE%20%29&USRNAME=nobody&USRPWD=4%24%2534P&SPEC=9&SYN=1&IMLY=&MAX1=1&MAX2=100&MAX3=100&DOM=Tous", "website": "http://www.ch-nanterre.fr/", "wikidata": "Q18610931"}}, {"name": "Centre hospitalier Rives de Seine - Neuilly-sur-Seine", "latitude": 48.8903176, "longitude": 2.2623451, "source": "osm", "_tags": {"alt_name": "Hôpital de Courbevoie-Neuilly", "amenity": "hospital", "emergency": "yes", "fax": "+33 1 40 88 60 30", "healthcare": "hospital", "loc_name": "Hôpital de Neuilly", "name": "Centre hospitalier Rives de Seine - Neuilly-sur-Seine", "old_name": "Centre hospitalier de Courbevoie - Neuilly-sur-Seine", "operator:type": "public", "phone": "+33 1 40 88 60 00", "ref:FR:FINESS": "920000585", "source": "Microsoft Bing orbital imagery", "type:FR:FINESS": "355", "website": "https://chrds.fr/"}}, {"name": "Centre hospitalier intercommunal Robert Ballanger", "latitude": 48.9539037, "longitude": 2.5240658, "source": "osm", "_tags": {"addr:city": "Aulnay Sous-Bois", "addr:postcode": "93602", "addr:street": "Boulevard Robert Ballanger", "alt_name": "CHI Robert Ballanger", "amenity": "hospital", "emergency": "yes", "fax": "+33 1 49 36 73 89", "healthcare": "hospital", "healthcare:speciality": "intensive", "name": "Centre hospitalier intercommunal Robert Ballanger", "operator:type": "public", "phone": "+33 1 49 36 71 23", "ref:FR:FINESS": "930000336", "type:FR:FINESS": "355", "website": "https://www.ght-gpne.fr/le-ght/nos-hopitaux/chi-robert-ballanger/", "wheelchair": "yes", "wikidata": "Q2945679"}}, {"name": "Hôpital privé du Vert-Galant", "latitude": 48.9408157, "longitude": 2.5723888, "source": "osm", "_tags": {"amenity": "hospital", "emergency": "yes", "fax": "+33 1 49 63 50 01", "healthcare": "hospital", "healthcare:speciality": "intensive", "name": "Hôpital privé du Vert-Galant", "operator": "Ramsay Santé", "operator:type": "private", "operator:wikidata": "Q3123085", "phone": "+33 1 86 86 93 00", "ref:FR:FINESS": "930300595", "type:FR:FINESS": "365", "website": "https://hopital-prive-du-vert-galant-tremblay-en-france.ramsaysante.fr/", "wheelchair": "limited"}}, {"name": "Hôpital Ambroise Paré", "latitude": 48.8488016, "longitude": 2.2354703, "source": "osm", "_tags": {"addr:city": "Boulogne-Billancourt", "addr:housenumber": "9", "addr:postcode": "92100", "addr:street": "Avenue Charles de Gaulle", "amenity": "hospital", "branch": "Université Paris Saclay", "emergency": "yes", "fax": "+33 1 49 09 57 99", "healthcare": "hospital", "healthcare:speciality": "intensive", "name": "Hôpital Ambroise Paré", "operator": "Assistance publique - Hôpitaux de Paris", "operator:short": "APHP", "operator:type": "public", "operator:wikidata": "Q2867205", "operator:wikipedia": "fr:Assistance publique - Hôpitaux de Paris", "phone": "+33 1 49 09 50 00", "ref:FR:FINESS": "920100013", "ref:FR:SIRET": "26750045200375", "type:FR:FINESS": "101", "website": "https://ambroisepare.aphp.fr/", "wikidata": "Q3145128"}}, {"name": "Clinique Claude Bernard", "latitude": 48.9808001, "longitude": 2.2640886, "source": "osm", "_tags": {"addr:housenumber": "9", "addr:street": "Avenue Louis Armand", "amenity": "hospital", "check_date": "2024-09-05", "emergency": "yes", "fax": "+33 1 34 15 64 23", "healthcare": "hospital", "name": "Clinique Claude Bernard", "operator": "Groupe Capio", "operator:type": "private", "phone": "+33 1 30 72 34 34", "ref:FR:FINESS": "950807982", "source": "cadastre-dgi-fr source : Direction Générale des Impôts - Cadastre. Mise à jour : 2009", "type:FR:FINESS": "365", "website": "https://clinique-claude-bernard.capio.fr/"}}, {"name": "Hôpital René-Muret", "latitude": 48.9350566, "longitude": 2.5086079, "source": "osm", "_tags": {"amenity": "hospital", "branch": "Hôpitaux Universitaires Paris Seine-Saint-Denis", "fax": "+33 1 41 52 57 99", "healthcare": "hospital", "name": "Hôpital René-Muret", "operator": "Assistance publique - Hôpitaux de Paris", "operator:short": "APHP", "operator:type": "public", "operator:wikidata": "Q2867205", "operator:wikipedia": "fr:Assistance publique - Hôpitaux de Paris", "phone": "+33 1 41 52 59 99", "ref:FR:FINESS": "930100011", "ref:FR:SIRET": "26750045200458", "source": "cadastre-dgi-fr source : Direction Générale des Impôts - Cadastre. Mise à jour : 2010", "type:FR:FINESS": "101", "website": "https://chu93.aphp.fr/hopital-rene-muret-sevran/", "wikidata": "Q3145202"}}, {"name": "Hôpital de l'Est Parisien", "latitude": 48.928819, "longitude": 2.4964818, "source": "osm", "_tags": {"alt_name": "Clinique d'Aulnay", "amenity": "hospital", "emergency": "yes", "fax": "+33 1 48 68 61 92", "healthcare": "hospital", "name": "Hôpital de l'Est Parisien", "operator": "Ramsay Santé", "operator:type": "private", "operator:wikidata": "Q3123085", "phone": "+33 1 86 86 35 35", "ref:FR:FINESS": "930300066", "source": "cadastre-dgi-fr source : Direction Générale des Impôts - Cadastre. Mise à jour : 2010", "type:FR:FINESS": "365", "website": "https://hopital-prive-est-parisien-aulnay-sous-bois.ramsaygds.fr/"}}, {"name": "Hôpital Henri Dunant", "latitude": 48.8402142, "longitude": 2.2586544, "source": "osm", "_tags": {"amenity": "hospital", "healthcare": "hospital", "name": "Hôpital Henri Dunant", "opening_hours": "Mo-Sa 10:00-12:00,14:00-16:00", "operator": "Croix Rouge française", "phone": "+33140712424", "ref:FR:FINESS": "750150377", "source": "cadastre-dgi-fr source : Direction Générale des Impôts - Cadastre. Mise à jour : 2010", "type:FR:FINESS": "365", "website": "https://www.croix-rouge.fr/hopital-mco-ssr-henry-dunant", "wikidata": "Q16508253"}}, {"name": "Ramsay Santé – Clinique Jouvenet", "latitude": 48.8424746, "longitude": 2.2663692, "source": "osm", "_tags": {"amenity": "hospital", "healthcare": "hospital", "name": "Ramsay Santé – Clinique Jouvenet", "ref:FR:FINESS": "750300774", "source": "cadastre-dgi-fr source : Direction Générale des Impôts - Cadastre. Mise à jour : 2010", "survey:date": "2024-11-07", "type:FR:FINESS": "128", "website": "https://clinique-jouvenet-paris.ramsaysante.fr/"}}, {"name": "Clinique Edouard Rist", "latitude": 48.8465172, "longitude": 2.2647803, "source": "osm", "_tags": {"amenity": "hospital", "healthcare": "hospital", "name": "Clinique Edouard Rist", "ref:FR:FINESS": "750150252", "source": "cadastre-dgi-fr source : Direction Générale des Impôts - Cadastre. Mise à jour : 2010", "type:FR:FINESS": "101"}}, {"name": "Hôpital des Diaconesses", "latitude": 48.8446305, "longitude": 2.3918219, "source": "osm", "_tags": {"amenity": "hospital", "healthcare": "hospital", "name": "Hôpital des Diaconesses", "ref:FR:FINESS": "750150260", "source:ref:FR:FINESS": "data.gouv.fr:Ministère des Solidarités et de la Santé - 03/2020", "type:FR:FINESS": "365", "website": "https://hopital-dcss.org/", "wheelchair": "limited", "wikidata": "Q15989047", "wikipedia": "fr:Hôpital des Diaconesses de Reuilly"}}, {"name": "Établissement Hospitalier Sainte-Marie", "latitude": 48.9621179, "longitude": 2.5376859, "source": "osm", "_tags": {"amenity": "hospital", "healthcare": "hospital", "name": "Établissement Hospitalier Sainte-Marie", "ref:FR:FINESS": "930500012", "type:FR:FINESS": "109"}}, {"name": "Hôpital privé de Parly 2 Le Chesnay", "latitude": 48.8299205, "longitude": 2.1197838, "source": "osm", "_tags": {"addr:housenumber": "21", "addr:postcode": "78150", "addr:street": "Rue Moxouris", "amenity": "hospital", "emergency": "yes", "fax": "+33 1 39 55 63 93", "healthcare": "hospital", "healthcare:speciality": "intensive", "name": "Hôpital privé de Parly 2 Le Chesnay", "opening_hours": "24/7", "operator": "Ramsay Santé", "operator:type": "private", "operator:wikidata": "Q3123085", "phone": "+33 1 39 63 70 00", "ref:FR:FINESS": "780300406", "type:FR:FINESS": "365", "website": "https://hopital-prive-de-parly2-le-chesnay.ramsaygds.fr"}}, {"name": "Hôtel-Dieu", "latitude": 48.8546261, "longitude": 2.3488485, "source": "osm", "_tags": {"amenity": "hospital", "branch": "Centre - Université Paris Cité", "emergency": "yes", "fax": "+33 1 42 34 80 78", "healthcare": "hospital", "name": "Hôtel-Dieu", "operator": "Assistance publique - Hôpitaux de Paris", "operator:short": "APHP", "operator:type": "public", "operator:wikidata": "Q2867205", "operator:wikipedia": "fr:Assistance publique - Hôpitaux de Paris", "phone": "+33 1 42 34 82 34", "ref:FR:FINESS": "750100018", "ref:FR:SIRET": "26750045200599", "ref:structurae": "20027249", "source": "cadastre-dgi-fr source : Direction Générale des Impôts - Cadastre. Mise à jour : 2010", "type:FR:FINESS": "101", "website": "http://hopitaux-paris-centre.aphp.fr/", "wheelchair": "yes", "wikidata": "Q1294736", "wikipedia": "fr:Hôtel-Dieu de Paris"}}, {"name": "Hôpital Cognacq-Jay", "latitude": 48.8376349, "longitude": 2.2928279, "source": "osm", "_tags": {"amenity": "hospital", "building": "yes", "healthcare": "hospital", "name": "Hôpital Cognacq-Jay", "ref:FR:FINESS": "750150344", "source": "cadastre-dgi-fr source : Direction Générale des Impôts - Cadastre ; mise à jour : 2010", "type:FR:FINESS": "109"}}, {"name": "Hôpital de jour Léopold Bellan", "latitude": 48.8804815, "longitude": 2.3601905, "source": "osm", "_tags": {"addr:city": "Paris", "addr:country": "FR", "addr:full": "16 rue de l'Aqueduc 75010 Paris", "addr:housenumber": "16", "addr:postcode": "75010", "addr:street": "Rue de l'Aqueduc", "amenity": "hospital", "building": "hospital", "building:levels": "4", "healthcare": "hospital", "name": "Hôpital de jour Léopold Bellan", "operator": "Fondation Léopold Bellan", "operator:wikidata": "Q37669450", "payment:coins": "yes", "payment:discover_card": "no", "payment:mastercard": "yes", "payment:notes": "yes", "payment:visa": "yes", "phone": "+33 1 53 26 22 22", "ref:FR:FINESS": "750700015", "ref:FR:SIRET": "77567216500344", "source": "cadastre-dgi-fr source : Direction Générale des Impôts - Cadastre. Mise à jour : 2010", "type:FR:FINESS": "109", "website": "http://www.hopital.bellan.fr"}}, {"name": "Les Cariatides d'Abbeville", "latitude": 48.8785401, "longitude": 2.3503089, "source": "osm", "_tags": {"amenity": "hospital", "building": "yes", "healthcare": "hospital", "name": "Les Cariatides d'Abbeville", "operator": "Hôpital Maison Blanche", "ref:FR:FINESS": "750002230", "source": "cadastre-dgi-fr source : Direction Générale des Impôts - Cadastre. Mise à jour : 2010", "website": "http://www.ch-maison-blanche.fr/"}}, {"name": "Clinique Maussins-Nollet", "latitude": 48.8772899, "longitude": 2.4044967, "source": "osm", "_tags": {"amenity": "hospital", "building": "yes", "email": "groupe@maussins.com", "fax": "+33 1 40 03 12 00", "healthcare": "hospital", "name": "Clinique Maussins-Nollet", "phone": "+33 1 42 03 47 37", "ref:FR:FINESS": "750301160", "source": "cadastre-dgi-fr source : Direction Générale des Impôts - Cadastre. Mise à jour : 2010", "source:ref:FR:FINESS": "data.gouv.fr:Ministère des Affaires sociales et de la Santé - 2014-05-05", "type:FR:FINESS": "128"}}, {"name": "Hôpital Tarnier", "latitude": 48.8415376, "longitude": 2.3358191, "source": "osm", "_tags": {"amenity": "hospital", "healthcare": "hospital", "name": "Hôpital Tarnier", "phone": "+33158411811", "ref:FR:FINESS": "750100026", "ref:FR:SIRET": "78428191700012", "source": "cadastre-dgi-fr source : Direction Générale des Impôts - Cadastre. Mise à jour : 2010", "type:FR:FINESS": "101", "wikidata": "Q109039037"}}, {"name": "Clinique du Grand Stade", "latitude": 48.9258502, "longitude": 2.3665772, "source": "osm", "_tags": {"amenity": "hospital", "building": "hospital", "healthcare": "hospital", "name": "Clinique du Grand Stade", "ref:FR:FINESS": "930013818", "source": "cadastre-dgi-fr source : Direction Générale des Impôts - Cadastre. Mise à jour : 2010", "type:FR:FINESS": "109"}}, {"name": "Foyer Bellot", "latitude": 48.886127, "longitude": 2.3675362, "source": "osm", "_tags": {"addr:city": "Paris", "addr:housenumber": "6", "addr:postcode": "75019", "addr:street": "Rue Bellot", "amenity": "social_facility", "building": "yes", "building:levels": "6", "contact:website": "http://www.coallia.org/", "healthcare": "hospital", "name": "Foyer Bellot", "social_facility": "group_home", "social_facility:for": "migrant", "source": "cadastre-dgi-fr source : Direction Générale des Impôts - Cadastre. Mise à jour : 2010"}}, {"name": "Clinique Marcel Sembat", "latitude": 48.8351916, "longitude": 2.2448566, "source": "osm", "_tags": {"amenity": "hospital", "building": "yes", "building:levels": "7", "email": "marcelsembat@gsante.fr", "name": "Clinique Marcel Sembat", "phone": "+33 1 47 11 99 99", "ref:FR:FINESS": "920300191", "ref:FR:SIRET": "65201664300015", "source": "https://www.data.gouv.fr/fr/datasets/entreprises-de-grand-paris-seine-ouest-de-plus-de-50-salaries-2013/", "source:amenity": "survey", "source:ref:FR:FINESS": "data.gouv.fr:Ministère des Affaires sociales et de la Santé - 2014-05-05", "type:FR:FINESS": "128", "website": "http://www.generale-de-sante.fr"}}, {"name": "Clinique Villa Marie-Louise", "latitude": 48.907172, "longitude": 2.2533618, "source": "osm", "_tags": {"amenity": "hospital", "building": "yes", "check_date": "2025-03-18", "healthcare": "hospital", "name": "Clinique Villa Marie-Louise", "phone": "+33 1 41 19 39 39", "ref:FR:FINESS": "920300423", "source": "cadastre-dgi-fr source : Direction Générale des Impôts - Cadastre. Mise à jour : 2010", "type:FR:FINESS": "109", "website": "https://www.emeis-cliniques.fr/clinique-villa-marie-louise-la-garenne-colombes-92?utm_source=clinique-villa-marie-louise-la-garenne-colombes-92"}}, {"name": "Hôpital Privé La Montagne Lambert", "latitude": 48.90786, "longitude": 2.2419316, "source": "osm", "_tags": {"amenity": "hospital", "building": "hospital", "check_date": "2025-09-15", "healthcare": "hospital", "name": "Hôpital Privé La Montagne Lambert", "phone": "+33 1 71 04 25 56", "ref:FR:FINESS": "920300415", "source": "cadastre-dgi-fr source : Direction Générale des Impôts - Cadastre. Mise à jour : 2010", "type:FR:FINESS": "365", "website": "https://hopital-prive-la-montagne-lambert.ramsaysante.fr/"}}, {"name": "Clinique Montevideo", "latitude": 48.8410171, "longitude": 2.2502069, "source": "osm", "_tags": {"addr:housenumber": "44", "addr:street": "Rue de la Tourelle", "amenity": "hospital", "building": "yes", "building:levels": "4", "email": "montevideo@montevideoclinic.net", "healthcare": "hospital", "name": "Clinique Montevideo", "phone": "+33 1 41 22 98 88", "ref:FR:FINESS": "920004058", "ref:FR:SIRET": "43929553600015", "source": "https://www.data.gouv.fr/fr/datasets/entreprises-de-grand-paris-seine-ouest-de-plus-de-50-salaries-2013/", "source:amenity": "survey", "type:FR:FINESS": "109", "website": "http://www.montevideoclinic.net"}}, {"name": "Hopital Communal de Puteaux", "latitude": 48.8783569, "longitude": 2.2415376, "source": "osm", "_tags": {"amenity": "hospital", "building": "yes", "emergency": "no", "healthcare": "hospital", "name": "Hopital Communal de Puteaux", "ref:FR:FINESS": "920000593", "source": "cadastre-dgi-fr source : Direction Générale des Impôts - Cadastre. Mise à jour : 2010"}}, {"name": "Centre post-cure de la Métairie", "latitude": 48.8735079, "longitude": 2.3859895, "source": "osm", "_tags": {"amenity": "hospital", "building": "hospital", "healthcare": "hospital", "name": "Centre post-cure de la Métairie", "ref:FR:FINESS": "750003295", "source": "cadastre-dgi-fr source : Direction Générale des Impôts - Cadastre. Mise à jour : 2010", "source:ref:FR:FINESS": "data.gouv.fr:Ministère des Affaires sociales et de la Santé - 2014-05-05", "type:FR:FINESS": "292"}}, {"name": "Institut Européen de Chirurgie Esthétique et Plastique", "latitude": 48.8449263, "longitude": 2.2317083, "source": "osm", "_tags": {"amenity": "hospital", "building": "yes", "building:levels": "3", "check_date": "2025-08-02", "healthcare": "hospital", "name": "Institut Européen de Chirurgie Esthétique et Plastique", "phone": "+33 1 46 05 05 05", "ref:FR:FINESS": "920003670", "ref:FR:SIRET": "40311221200010", "source": "cadastre-dgi-fr source : Direction Générale des Impôts - Cadastre. Mise à jour : 2010", "source:amenity": "survey", "type:FR:FINESS": "630"}}, {"name": "Clinique du Pré Saint-Gervais", "latitude": 48.8849967, "longitude": 2.4010811, "source": "osm", "_tags": {"amenity": "hospital", "building": "yes", "healthcare": "hospital", "name": "Clinique du Pré Saint-Gervais", "operator": "Clinea", "operator:type": "private", "ref:FR:FINESS": "930019203", "source": "cadastre-dgi-fr source : Direction Générale des Impôts - Cadastre. Mise à jour : 2010", "source:ref:FR:FINESS": "data.gouv.fr:Ministère des Affaires sociales et de la Santé - 2014-05-05", "type:FR:FINESS": "109"}}, {"name": "Polyclinique du Plateau", "latitude": 48.9336851, "longitude": 2.2039396, "source": "osm", "_tags": {"amenity": "hospital", "building": "yes", "healthcare": "hospital", "name": "Polyclinique du Plateau", "ref:FR:FINESS": "950300095", "source": "cadastre-dgi-fr source : Direction Générale des Impôts - Cadastre. Mise à jour : 2010", "type:FR:FINESS": "365"}}, {"name": "Hôpital André Mignot", "latitude": 48.8315367, "longitude": 2.1250948, "source": "osm", "_tags": {"alt_name": "Centre hospitalier de Versailles", "amenity": "hospital", "check_date": "2025-03-18", "emergency": "yes", "facebook": "Hôpital André Mignot, Le Chesnay", "fax": "+33 1 39 54 48 89", "healthcare": "hospital", "healthcare:speciality": "intensive", "name": "Hôpital André Mignot", "operator:type": "public", "phone": "+33 1 39 63 91 33", "ref:FR:FINESS": "780800256", "twitter": "CH_Versailles", "type:FR:FINESS": "355", "website": "https://www.ch-versailles.fr", "wikidata": "Q30281574"}}, {"name": "Centre de Médecine Nucléaire et TEP d'Eaubonne", "latitude": 48.9996265, "longitude": 2.2706124, "source": "osm", "_tags": {"amenity": "hospital", "building": "yes", "healthcare": "hospital", "name": "Centre de Médecine Nucléaire et TEP d'Eaubonne", "operator": "Elsan", "operator:wikidata": "Q48747106", "source": "cadastre-dgi-fr source : Direction Générale des Impôts - Cadastre. Mise à jour : 2010"}}, {"name": "Hôpital Pierre Rouquès - Les Bluets", "latitude": 48.8429738, "longitude": 2.4063207, "source": "osm", "_tags": {"alt_name": "Maternité Les Bluets", "amenity": "hospital", "building": "hospital", "building:levels": "5", "healthcare": "hospital", "name": "Hôpital Pierre Rouquès - Les Bluets", "ref:FR:FINESS": "750150013", "roof:levels": "0", "roof:shape": "flat", "source": "cadastre-dgi-fr source : Direction Générale des Impôts - Cadastre. Mise à jour : 2010", "type:FR:FINESS": "365", "website": "https://www.bluets.org/", "wheelchair": "yes", "wikidata": "Q3145196"}}, {"name": "Les Colombages", "latitude": 48.8276297, "longitude": 2.3144557, "source": "osm", "_tags": {"amenity": "hospital", "building": "yes", "building:levels": "5", "check_date": "2024-04-11", "name": "Les Colombages", "source": "cadastre-dgi-fr source : Direction Générale des Impôts - Cadastre. Mise à jour : 2010"}}, {"name": "Fondation Hospitalière Sainte-Marie", "latitude": 48.8290796, "longitude": 2.3135996, "source": "osm", "_tags": {"amenity": "hospital", "building": "hospital", "check_date": "2025-05-15", "healthcare": "hospital", "name": "Fondation Hospitalière Sainte-Marie", "operator:wikidata": "Q3075673", "ref:FR:FINESS": "750100141", "source": "cadastre-dgi-fr source : Direction Générale des Impôts - Cadastre. Mise à jour : 2010"}}, {"name": "Clinique Alleray Labrouste", "latitude": 48.8324596, "longitude": 2.3065068, "source": "osm", "_tags": {"amenity": "hospital", "building": "yes", "building:levels": "8", "healthcare": "hospital", "name": "Clinique Alleray Labrouste", "ref:FR:FINESS": "750301137", "source": "cadastre-dgi-fr source : Direction Générale des Impôts - Cadastre. Mise à jour : 2010", "type:FR:FINESS": "128", "website": "https://www.alleray-labrouste.com"}}, {"name": "Clinique Chirurgicale Victor Hugo", "latitude": 48.8712344, "longitude": 2.2910204, "source": "osm", "_tags": {"amenity": "hospital", "healthcare": "hospital", "name": "Clinique Chirurgicale Victor Hugo", "ref:FR:FINESS": "750300741", "source": "cadastre-dgi-fr source : Direction Générale des Impôts - Cadastre. Mise à jour : 2010", "type:FR:FINESS": "128"}}, {"name": "Centre hospitalier de Creil", "latitude": 49.2475537, "longitude": 2.4604676, "source": "osm", "_tags": {"addr:city": "Creil", "addr:postcode": "60109", "addr:street": "Boulevard Laennec BP 72", "amenity": "hospital", "emergency": "yes", "fax": "+33 3 44 61 60 10", "healthcare": "hospital", "healthcare:speciality": "intensive", "name": "Centre hospitalier de Creil", "operator": "Groupe Hospitalier Public du Sud de l’Oise", "operator:type": "public", "phone": "+33 3 44 61 60 00", "ref:FR:FINESS": "600000467", "source": "cadastre-dgi-fr source : Direction Générale des Impôts - Cadastre. Mise à jour : 2010", "type:FR:FINESS": "355", "website": "https://www.ghpso.fr/le-ghpso/site-de-creil/", "wikidata": "Q30281582"}}, {"name": "CAP HORN SANTE Montreuil", "latitude": 48.8588815, "longitude": 2.4474011, "source": "osm", "_tags": {"addr:city": "Montreuil", "addr:housenumber": "55", "addr:postcode": "93100", "addr:street": "Rue Gaston Lauriau", "amenity": "hospital", "healthcare": "hospital", "name": "CAP HORN SANTE Montreuil", "source": "cadastre-dgi-fr source : Direction Générale des Impôts - Cadastre. Mise à jour : 2011", "website": "https://caphorn-sante.fr/", "wheelchair": "yes"}}, {"name": "Centre hospitalier de Plaisir-Site Mansart", "latitude": 48.8256323, "longitude": 1.9394725, "source": "osm", "_tags": {"amenity": "hospital", "fax": "+33 1 30 79 88 01", "healthcare": "hospital", "name": "Centre hospitalier de Plaisir-Site Mansart", "operator:type": "public", "phone": "+33 1 30 79 57 57", "ref:FR:FINESS": "780000303", "type:FR:FINESS": "355", "website": "https://hopital-plaisir-grignon.fr/"}}, {"name": "Centre hospitalier de Plaisir-Site Marc Laurent", "latitude": 48.8234585, "longitude": 1.9483797, "source": "osm", "_tags": {"amenity": "hospital", "healthcare": "hospital", "healthcare:speciality": "psychiatry;physiatry;child_psychiatry", "name": "Centre hospitalier de Plaisir-Site Marc Laurent", "operator:type": "public", "ref:FR:FINESS": "780000402", "type:FR:FINESS": "355", "website": "http://www.eps-charcot.fr/"}}, {"name": "Hôpital Casanova", "latitude": 48.9308023, "longitude": 2.3616226, "source": "osm", "_tags": {"amenity": "hospital", "emergency": "no", "facebook": "Hôpital Delafontaine (page officielle)", "fax": "+33 1 42 35 62 89", "healthcare": "hospital", "name": "Hôpital Casanova", "operator": "Centre hospitalier de Saint-Denis", "operator:type": "public", "phone": "+33 1 42 35 61 40", "ref:FR:FINESS": "930706239", "source": "cadastre-dgi-fr source : Direction Générale des Impôts - Cadastre. Mise à jour : 2010", "twitter": "CH_StDenis", "type:FR:FINESS": "355", "website": "https://www.ch-stdenis.fr/"}}, {"name": "Clinique du Bois d'Amour", "latitude": 48.9132176, "longitude": 2.4602478, "source": "osm", "_tags": {"amenity": "hospital", "building": "yes", "check_date": "2024-05-11", "healthcare": "hospital", "name": "Clinique du Bois d'Amour", "ref:FR:FINESS": "930011788", "source": "cadastre-dgi-fr source : Direction Générale des Impôts - Cadastre. Mise à jour : 2010", "type:FR:FINESS": "109"}}, {"name": "Clinique Rémusat", "latitude": 48.8477963, "longitude": 2.2711682, "source": "osm", "_tags": {"amenity": "hospital", "building": "yes", "building:levels": "6", "healthcare": "hospital", "name": "Clinique Rémusat", "ref:FR:FINESS": "750300857", "source": "cadastre-dgi-fr source : Direction Générale des Impôts - Cadastre. Mise à jour : 2010", "type:FR:FINESS": "128"}}, {"name": "Établissement Public de Santé de Ville-Evrard", "latitude": 48.8602367, "longitude": 2.5485175, "source": "osm", "_tags": {"amenity": "hospital", "healthcare": "hospital", "name": "Établissement Public de Santé de Ville-Evrard", "ref:FR:FINESS": "930000351", "short_name": "EPS de Ville-Evrard", "type:FR:FINESS": "355", "website": "https://www.eps-ville-evrard.fr/hospitalisation/lieux-dhospitalisation", "wikipedia": "fr:Hôpital de Ville-Évrard"}}, {"name": "Hôpital Croix Saint-Simon", "latitude": 48.8539196, "longitude": 2.4084397, "source": "osm", "_tags": {"amenity": "hospital", "beds": "300", "emergency": "yes", "fax": "+33 1 43 71 33 96", "healthcare": "hospital", "healthcare:speciality": "intensive", "name": "Hôpital Croix Saint-Simon", "operator": "Groupe Hospitalier Diaconesses Croix Saint-Simon", "operator:type": "private", "phone": "+33 1 44 64 16 00", "ref:FR:FINESS": "750150237", "ref:FR:NAF": "8610Z", "ref:FR:SIRET": "44504332600039", "source": "cadastre-dgi-fr source : Direction Générale des Impôts - Cadastre. Mise à jour : 2015", "source:ref:FR:FINESS": "data.gouv.fr:Ministère des Affaires sociales et de la Santé - 2014-05-05", "type:FR:FINESS": "365", "website": "https://www.hopital-dcss.org/", "wikidata": "Q16642760"}}, {"name": "Hôpital de Jour", "latitude": 48.8189176, "longitude": 2.5390743, "source": "osm", "_tags": {"addr:housenumber": "12", "amenity": "hospital", "building": "yes", "healthcare": "hospital", "healthcare:speciality": "psychiatry", "name": "Hôpital de Jour", "ref:FR:FINESS": "940140080", "source": "cadastre-dgi-fr source : Direction Générale des Impôts - Cadastre. Mise à jour : 2010", "type:FR:FINESS": "292"}}, {"name": "Centre hospitalier de Clermont de l'Oise", "latitude": 49.3786708, "longitude": 2.4118487, "source": "osm", "_tags": {"amenity": "hospital", "emergency": "yes", "fax": "+33 3 44 77 33 97", "name": "Centre hospitalier de Clermont de l'Oise", "operator:type": "public", "phone": "+33 3 44 77 33 00", "ref:FR:FINESS": "600000186", "type:FR:FINESS": "355", "website": "https://www.ch-clermont.fr/"}}, {"name": "Centre Hospitalier Psychiatrique Interdépartemental Site de Clermont", "latitude": 49.3755567, "longitude": 2.4182705, "source": "osm", "_tags": {"addr:housenumber": "2", "addr:street": "Rue des Finets", "amenity": "hospital", "healthcare": "hospital", "name": "Centre Hospitalier Psychiatrique Interdépartemental Site de Clermont", "ref:FR:FINESS": "600000012", "type:FR:FINESS": "292"}}, {"name": "Centre Hospitalier Psychiatrique Interdépartemental Site de Fitz James", "latitude": 49.3851267, "longitude": 2.4394982, "source": "osm", "_tags": {"amenity": "hospital", "healthcare": "hospital", "name": "Centre Hospitalier Psychiatrique Interdépartemental Site de Fitz James", "ref:FR:FINESS": "600105431", "type:FR:FINESS": "292"}}, {"name": "Clinique d’Osny | Inicea", "latitude": 49.075043, "longitude": 2.074577, "source": "osm", "_tags": {"amenity": "hospital", "building": "yes", "name": "Clinique d’Osny | Inicea", "opening_hours": "Mo-Su 00:00-24:00", "ref:FR:SIRET": "48423523900023", "source": "cadastre-dgi-fr source : Direction Générale des Impôts - Cadastre. Mise à jour : 2011", "wheelchair": "yes"}}, {"name": "Hôpital du Jour - Centre Médico-Psychologique", "latitude": 48.8919409, "longitude": 2.1894088, "source": "osm", "_tags": {"amenity": "hospital", "name": "Hôpital du Jour - Centre Médico-Psychologique", "ref:FR:FINESS": "920170040", "source": "survey 2013"}}, {"name": "Clinique Saint-Jean de Dieu", "latitude": 48.8494123, "longitude": 2.3176366, "source": "osm", "_tags": {"amenity": "hospital", "healthcare": "hospital", "name": "Clinique Saint-Jean de Dieu", "ref:FR:FINESS": "750300121", "source": "cadastre-dgi-fr source : Direction Générale des Impôts - Cadastre. Mise à jour : 2011", "type:FR:FINESS": "128", "wheelchair": "no"}}, {"name": "Centre Hospitalier Théophile Roussel", "latitude": 48.9265358, "longitude": 2.1348395, "source": "osm", "_tags": {"addr:housenumber": "1", "addr:street": "Rue Philippe Mithouard", "amenity": "hospital", "check_date": "2025-06-08", "email": "theophile.roussel@th-roussel.fr", "emergency": "no", "healthcare": "hospital", "healthcare:speciality": "child_psychiatry;neuropsychiatry;psychiatry", "name": "Centre Hospitalier Théophile Roussel", "phone": "+33 1 30 86 38 38", "ref:FR:FINESS": "780000410", "type:FR:FINESS": "292", "website": "https://www.th-roussel.fr/"}}, {"name": "Hôpital Necker Enfants Malades", "latitude": 48.8452229, "longitude": 2.3155582, "source": "osm", "_tags": {"amenity": "hospital", "branch": "Centre - Université Paris Cité", "emergency": "yes", "fax": "+33 1 44 49 41 15", "healthcare": "hospital", "healthcare:speciality": "intensive", "heritage": "3", "heritage:operator": "mhs", "mhs:inscription_date": "2006", "name": "Hôpital Necker Enfants Malades", "operator": "Assistance publique - Hôpitaux de Paris", "operator:short": "APHP", "operator:type": "public", "operator:wikidata": "Q2867205", "operator:wikipedia": "fr:Assistance publique - Hôpitaux de Paris", "phone": "+33 1 44 49 40 00", "ref:FR:FINESS": "750100208", "ref:FR:SIRET": "26750045200284", "ref:mhs": "PA75150003", "source": "cadastre-dgi-fr source : Direction Générale des Impôts - Cadastre. Mise à jour : 2010", "source:heritage": "data.gouv.fr:Ministère de la Culture - 08/2011", "type:FR:FINESS": "101", "website": "https://hopital-necker.aphp.fr/", "wikidata": "Q3145188", "wikipedia": "fr:Hôpital Necker-Enfants malades"}}, {"name": "Hôpital Privé de Marne La Vallée", "latitude": 48.839183, "longitude": 2.5387545, "source": "osm", "_tags": {"addr:housenumber": "33", "addr:street": "rue Léon Menu", "amenity": "hospital", "building": "yes", "fax": "+33149148036", "healthcare": "hospital", "name": "Hôpital Privé de Marne La Vallée", "operator": "Ramsay Générale de Santé", "operator:type": "private", "phone": "+33149148000", "ref:FR:FINESS": "940006679", "ref:FR:SIRET": "45152174400024", "source": "Le ministère des solidarités et de la santé - 03/2019", "type:FR:FINESS": "365"}}, {"name": "Hôpital de jour Daumezon", "latitude": 48.8376935, "longitude": 2.4814505, "source": "osm", "_tags": {"amenity": "hospital", "building": "yes", "fax": "+33 148731680", "healthcare": "hospital", "name": "Hôpital de jour Daumezon", "phone": "+33 148734182", "ref:FR:FINESS": "940800782", "ref:FR:SIRET": "26940134500047", "source": "cadastre-dgi-fr source : Direction Générale des Impôts - Cadastre. Mise à jour : 2011", "source:ref:FR:FINESS": "data.gouv.fr:Ministère des Solidarités et de la Santé - 2023-11", "type:FR:FINESS": "292"}}, {"name": "Hôpital Saint-Antoine", "latitude": 48.8485322, "longitude": 2.3824582, "source": "osm", "_tags": {"addr:city": "Paris", "addr:housenumber": "184", "addr:postcode": "75012", "addr:street": "Rue du Faubourg Saint-Antoine", "amenity": "hospital", "branch": "Sorbonne Université", "emergency": "yes", "fax": "+33 1 49 28 20 84", "foot": "permissive", "healthcare": "hospital", "healthcare:speciality": "intensive;orthopaedics;oncology;emergency", "heritage": "3", "heritage:operator": "mhs", "mhs:inscription_date": "1982", "name": "Hôpital Saint-Antoine", "operator": "Assistance publique - Hôpitaux de Paris", "operator:short": "APHP", "operator:type": "public", "operator:wikidata": "Q2867205", "phone": "+33 1 49 28 20 00", "ref:FR:FINESS": "750100091", "ref:FR:SIRET": "26750045200227", "ref:mhs": "PA00086571", "source": "cadastre-dgi-fr source : Direction Générale des Impôts - Cadastre. Mise à jour : 2011", "type:FR:FINESS": "101", "website": "https://saintantoine.aphp.fr/", "wheelchair": "limited", "wikidata": "Q3145207"}}, {"name": "Hôpital Saint-Camille", "latitude": 48.8332331, "longitude": 2.5266679, "source": "osm", "_tags": {"amenity": "hospital", "email": "contact@ch-bry.org", "emergency": "yes", "fax": "+33 1 48 81 39 70", "healthcare:speciality": "intensive", "name": "Hôpital Saint-Camille", "operator:type": "private", "phone": "+33 1 49 83 10 10", "ref:FR:FINESS": "940000649", "source": "cadastre-dgi-fr source : Direction Générale des Impôts - Cadastre. Mise à jour : 2011", "type:FR:FINESS": "365", "website": "https://www.ch-bry.com/", "wheelchair": "yes", "wikidata": "Q88301440"}}, {"name": "Centre Médico-Chirurgical de l'Europe", "latitude": 48.880681, "longitude": 2.1067685, "source": "osm", "_tags": {"amenity": "hospital", "building": "hospital", "building:levels": "3", "check_date": "2025-05-08", "emergency": "yes", "fax": "+331 39 17 24 95", "healthcare": "hospital", "healthcare:speciality": "intensive", "name": "Centre Médico-Chirurgical de l'Europe", "operator": "Vivalto Santé", "operator:type": "private", "phone": "+33 1 39 17 22 22", "ref:FR:FINESS": "780300414", "roof:levels": "0", "source": "cadastre-dgi-fr source : Direction Générale des Impôts - Cadastre. Mise à jour : 2011", "type:FR:FINESS": "365", "website": "http://www.chp-europe.fr/"}}, {"name": "Hôpital de jour de psychiatrie", "latitude": 48.8989469, "longitude": 2.0757178, "source": "osm", "_tags": {"addr:city": "Saint-Germain-en-Laye", "addr:housenumber": "30", "addr:postcode": "78100", "addr:street": "Rue du Maréchal Gallieni", "amenity": "hospital", "building:levels": "2", "fax": "+33139739080", "healthcare": "hospital", "healthcare:speciality": "psychiatry", "name": "Hôpital de jour de psychiatrie", "phone": "+33139739080", "ref:FR:FINESS": "780826053", "ref:FR:SIRET": "26780580200068", "roof:levels": "0", "source": "cadastre-dgi-fr source : Direction Générale des Impôts - Cadastre. Mise à jour : 2011;Le ministère des solidarités et de la santé - 2025-01", "type:FR:FINESS": "355"}}, {"name": "Hôpital d'Instruction des Armées Percy", "latitude": 48.8142754, "longitude": 2.255685, "source": "osm", "_tags": {"amenity": "hospital", "emergency": "yes", "fax": "+33 1 41 46 64 91", "healthcare": "hospital", "healthcare:speciality": "intensive", "landuse": "military", "name": "Hôpital d'Instruction des Armées Percy", "phone": "+33 1 41 46 60 00", "ref:FR:FINESS": "920120011", "short_name": "HIA Percy", "source": "cadastre-dgi-fr source : Direction Générale des Impôts - Cadastre. Mise à jour : 2011", "type:FR:FINESS": "114", "website": "https://www.hiapercy.sante.defense.gouv.fr/", "wikidata": "Q1779588", "wikipedia": "fr:Hôpital d'instruction des armées Percy"}}, {"name": "Hôpital Rothschild", "latitude": 48.8433971, "longitude": 2.3993176, "source": "osm", "_tags": {"amenity": "hospital", "branch": "Sorbonne Université", "emergency": "no", "healthcare": "hospital", "name": "Hôpital Rothschild", "operator": "Assistance publique - Hôpitaux de Paris", "operator:short": "APHP", "operator:type": "public", "operator:wikidata": "Q2867205", "phone": "+33140193000", "ref:FR:FINESS": "750100083", "ref:FR:SIRET": "26750045200300", "source:ref:FR:FINESS": "data.gouv.fr:Ministère des Affaires sociales et de la Santé - 2014-05-05", "type:FR:FINESS": "101", "website": "https://rothschild.aphp.fr/", "wikidata": "Q1643036", "wikipedia": "fr:Hôpital Rothschild"}}, {"name": "Clinique Vauban", "latitude": 48.91846, "longitude": 2.5231058, "source": "osm", "_tags": {"amenity": "hospital", "building": "yes", "healthcare": "hospital", "name": "Clinique Vauban", "ref:FR:FINESS": "930300298", "source": "cadastre-dgi-fr source : Direction Générale des Impôts - Cadastre. Mise à jour : 2012", "type:FR:FINESS": "365"}}, {"name": "Clinique de Bercy", "latitude": 48.8230105, "longitude": 2.3975875, "source": "osm", "_tags": {"addr:housenumber": "9", "addr:street": "Quai de Bercy", "amenity": "hospital", "building": "yes", "contact:phone": "+33143967800", "emergency": "no", "healthcare": "hospital", "name": "Clinique de Bercy", "name:etymology:wikidata": "Q16532200", "ref:FR:FINESS": "940813033", "source:building": "cadastre-dgi-fr source : Direction Générale des Impôts - Cadastre. Mise à jour : 2012", "type:FR:FINESS": "365", "website": "https://www.bercy-cliniques-paris.fr/"}}, {"name": "Clinique Joncs Marins", "latitude": 48.8526669, "longitude": 2.5082217, "source": "osm", "_tags": {"amenity": "hospital", "building": "yes", "healthcare": "hospital", "name": "Clinique Joncs Marins", "ref:FR:FINESS": "940300577", "source": "cadastre-dgi-fr source : Direction Générale des Impôts - Cadastre. Mise à jour : 2012", "type:FR:FINESS": "109"}}, {"name": "Hôpitaux Paris Est Val-de-Marne - Site Saint-Maurice", "latitude": 48.8207709, "longitude": 2.4286891, "source": "osm", "_tags": {"amenity": "hospital", "emergency": "no", "healthcare": "hospital", "healthcare:speciality": "gynaecology;psychiatry;aromatherapy;child_psychiatry;physiatry", "name": "Hôpitaux Paris Est Val-de-Marne - Site Saint-Maurice", "official_name": "Hôpitaux Paris Est Val-de-Marne", "opening_hours": "24/7", "phone": "+33 143966161", "ref:FR:FINESS": "940016868", "source": "Le ministère des solidarités et de la santé - 03/2019", "website": "https://www.hopitaux-saint-maurice.fr/", "wheelchair": "yes", "wikidata": "Q30279947"}}, {"name": "Veterinaire Minaud", "latitude": 49.1391291, "longitude": 2.4700846, "source": "osm", "_tags": {"amenity": "hospital", "building": "yes", "healthcare": "hospital", "name": "Veterinaire Minaud", "source": "cadastre-dgi-fr source : Direction Générale des Impôts - Cadastre. Mise à jour : 2012"}}, {"name": "Clinique de la Jonquière", "latitude": 48.8929782, "longitude": 2.3244634, "source": "osm", "_tags": {"amenity": "hospital", "healthcare": "hospital", "name": "Clinique de la Jonquière", "ref:FR:FINESS": "750014169", "type:FR:FINESS": "109"}}, {"name": "Centre médico-psychologique La Pommeraie", "latitude": 48.8257604, "longitude": 1.948205, "source": "osm", "_tags": {"amenity": "hospital", "healthcare": "hospital", "name": "Centre médico-psychologique La Pommeraie", "operator:type": "public", "phone": "+33 1 30 55 34 59", "ref:FR:FINESS": "780809448", "source": "Bing", "type:FR:FINESS": "355", "website": "https://www.ch-charcot78.fr/centre-m%C3%A9dico-psychologique-pour-enfants-et-adolescents-cmpe-de-plaisir-%C2%AB-la-pommeraie-%C2%BB"}}, {"name": "Institut hospitalier franco-britannique - Site Barbès", "latitude": 48.8902651, "longitude": 2.2806687, "source": "osm", "_tags": {"amenity": "hospital", "check_date": "2025-08-23", "fax": "+33 1 47 59 59 60", "healthcare": "hospital", "heritage": "3", "heritage:operator": "mhs", "mhs:inscription_date": "1987-06-09", "name": "Institut hospitalier franco-britannique - Site Barbès", "old_name": "Hertford British Hospital Corporation", "old_name:en": "Hertford British Hospital", "operator:type": "private", "phone": "+33 1 47 59 59 59", "ref:FR:FINESS": "920000676", "ref:mhs": "PA00088114", "source:heritage": "data.gouv.fr, Ministère de la Culture - 2016", "start_date": "C19", "type:FR:FINESS": "365", "website": "https://www.ihfb.org/", "wikidata": "Q3152318", "wikipedia": "fr:Institut hospitalier franco-britannique"}}, {"name": "Centre hospitalier intercommunal de Saint-Germain-en-Laye", "latitude": 48.8979039, "longitude": 2.0841217, "source": "osm", "_tags": {"addr:city": "Saint-Germain-en-Laye", "addr:country": "FR", "addr:housenumber": "20", "addr:postcode": "78100", "addr:street": "Rue Armagis", "amenity": "hospital", "check_date": "2025-06-06", "emergency": "yes", "fax": "+33 1 39 27 43 75", "healthcare": "hospital", "name": "Centre hospitalier intercommunal de Saint-Germain-en-Laye", "operator": "Centre hospitalier intercommunal de Poissy/Saint-Germain-en-Laye", "operator:type": "public", "phone": "+33 1 39 27 40 50", "ref:FR:FINESS": "780000337", "short_name": "CHIPS", "source": "cadastre-dgi-fr source : Direction Générale des Impôts - Cadastre. Mise à jour : 2011", "type:FR:FINESS": "355", "website": "https://www.chi-poissy-st-germain.fr/fr/Page-d-accueil-167.html", "wheelchair": "yes", "wikidata": "Q24939844"}}, {"name": "Hôpital La Collégiale", "latitude": 48.8383954, "longitude": 2.3526669, "source": "osm", "_tags": {"amenity": "hospital", "healthcare": "hospital", "name": "Hôpital La Collégiale", "phone": "+33 1 55 43 68 00", "ref:FR:FINESS": "750806226", "ref:FR:SIRET": "26750045200680", "source": "cadastre-dgi-fr source : Direction Générale des Impôts - Cadastre. Mise à jour : 2012", "type:FR:FINESS": "101", "wikidata": "Q3145306"}}, {"name": "Hôpital Bretonneau", "latitude": 48.8900253, "longitude": 2.3304354, "source": "osm", "_tags": {"amenity": "hospital", "branch": "Nord - Université Paris Cité", "healthcare": "hospital", "name": "Hôpital Bretonneau", "operator": "Assistance publique - Hôpitaux de Paris", "operator:short": "APHP", "operator:type": "public", "operator:wikidata": "Q2867205", "phone": "+33153111800", "ref:FR:FINESS": "750041543", "ref:FR:SIRET": "26750045201720", "source": "Le ministère des solidarités et de la santé - 10/2018", "type:FR:FINESS": "101", "website": "https://hopital-bretonneau.aphp.fr/", "wikidata": "Q3145140", "wikipedia": "fr:Hôpital Bretonneau"}}, {"name": "Institut Médical de Breteuil", "latitude": 49.6307822, "longitude": 2.2980925, "source": "osm", "_tags": {"amenity": "hospital", "emergency": "no", "healthcare": "hospital", "name": "Institut Médical de Breteuil", "ref:FR:FINESS": "600100861", "ref:FR:SIRET": "48443411300045", "type:FR:FINESS": "604"}}, {"name": "Hôpital privé de Marne-Chantereine", "latitude": 48.8856083, "longitude": 2.62997, "source": "osm", "_tags": {"addr:city": "Brou-sur-Chantereine", "addr:postcode": "77177", "amenity": "hospital", "emergency": "yes", "fax": "+33 1 64 21 03 70", "healthcare": "hospital", "healthcare:speciality": "intensive", "name": "Hôpital privé de Marne-Chantereine", "operator": "Ramsay Santé", "operator:type": "private", "operator:wikidata": "Q3123085", "phone": "+33 1 64 72 74 00", "ref:FR:FINESS": "770300010", "ref:FR:SIRET": "74695129200018", "source": "Le ministère des solidarités et de la santé - 03/2019", "type:FR:FINESS": "365", "website": "https://hopital-prive-marne-chantereine.ramsaygds.fr/"}}, {"name": "Centre Hospitalier de Gisors - Pôle Sanitaire du Vexin", "latitude": 49.2812119, "longitude": 1.7585211, "source": "osm", "_tags": {"amenity": "hospital", "contact:facebook": "Centre Hospitalier de Gisors - Pôle Sanitaire du Vexin", "emergency": "yes", "fax": "+33 2 32 27 76 20", "name": "Centre Hospitalier de Gisors - Pôle Sanitaire du Vexin", "operator:type": "public", "phone": "+33 2 32 27 76 76", "ref:FR:FINESS": "270000367", "type:FR:FINESS": "355", "website": "https://www.ch-gisors.fr/"}}, {"name": "Hôpital Raymond Poincaré", "latitude": 48.8393703, "longitude": 2.1694837, "source": "osm", "_tags": {"addr:city": "Garches", "addr:housenumber": "104", "addr:postcode": "92420", "addr:street": "Boulevard Raymond Poincaré", "alt_name": "Hôpital de Garches", "amenity": "hospital", "branch": "Université Paris Saclay", "emergency": "no", "fax": "+33 1 47 10 78 23", "healthcare": "hospital", "healthcare:speciality": "intensive", "name": "Hôpital Raymond Poincaré", "operator": "Assistance publique - Hôpitaux de Paris", "operator:short": "APHP", "operator:type": "public", "operator:wikidata": "Q2867205", "phone": "+33 1 47 10 79 00", "ref:FR:FINESS": "920100054", "ref:FR:SIRET": "26750045200573", "type:FR:FINESS": "101", "website": "https://raymondpoincare.aphp.fr/", "wikidata": "Q3145201"}}, {"name": "Centre Cardiologique du Nord", "latitude": 48.9411378, "longitude": 2.3470356, "source": "osm", "_tags": {"amenity": "hospital", "check_date": "2025-05-02", "healthcare": "hospital", "healthcare:speciality": "cardiology;intensive", "name": "Centre Cardiologique du Nord", "phone": "+33 1 49 33 41 41", "ref:FR:FINESS": "930300645", "short_name": "CNN", "type:FR:FINESS": "365", "website": "https://ccn.fr/"}}, {"name": "Hôpital de Jour", "latitude": 48.8890715, "longitude": 2.1977817, "source": "osm", "_tags": {"amenity": "hospital", "healthcare": "hospital", "name": "Hôpital de Jour", "ref:FR:FINESS": "920010949", "source": "survey 2013", "type:FR:FINESS": "292"}}, {"name": "Hôpital des Gardiens de la Paix", "latitude": 48.8385002, "longitude": 2.3585546, "source": "osm", "_tags": {"amenity": "hospital", "healthcare": "hospital", "name": "Hôpital des Gardiens de la Paix", "ref:FR:FINESS": "750150088", "source": "cadastre-dgi-fr source : Direction Générale des Impôts - Cadastre. Mise à jour : 2013", "type:FR:FINESS": "109"}}, {"name": "Centre hospitalier de Courbevoie - Neuilly-sur-Seine", "latitude": 48.9006101, "longitude": 2.2534519, "source": "osm", "_tags": {"amenity": "hospital", "check_date": "2023-12-30", "healthcare": "hospital", "name": "Centre hospitalier de Courbevoie - Neuilly-sur-Seine", "ref:FR:FINESS": "920000569", "source": "Le ministère des solidarités et de la santé - 10/2018"}}, {"name": "Hôpital Pitié-Salpêtrière", "latitude": 48.8375313, "longitude": 2.365283, "source": "osm", "_tags": {"amenity": "hospital", "branch": "Sorbonne Université", "emergency": "yes", "fax": "+33 1 42 17 60 06", "healthcare": "hospital", "healthcare:speciality": "intensive", "name": "Hôpital Pitié-Salpêtrière", "name:pl": "Szpital Salpêtrière", "operator": "Assistance publique - Hôpitaux de Paris", "operator:short": "APHP", "operator:type": "public", "operator:wikidata": "Q2867205", "phone": "+33 1 42 16 00 00", "ref:FR:FANTOIR": "75113R066R", "ref:FR:FINESS": "750100125", "ref:FR:SIRET": "26750045200524", "source": "limites d'après PLU mairie Paris + plan sur aphp.fr", "type:FR:FINESS": "101", "website": "https://pitiesalpetriere.aphp.fr/", "wikidata": "Q3117860"}}, {"name": "Hôpital Maison-Blanche", "latitude": 48.8742587, "longitude": 2.380489, "source": "osm", "_tags": {"amenity": "hospital", "building": "yes", "building:colour": "lightyellow", "building:levels": "5", "healthcare": "hospital", "name": "Hôpital Maison-Blanche", "ref:FR:FINESS": "750047771", "source": "cadastre-dgi-fr source : Direction Générale des Impôts - Cadastre. Mise à jour : 2013", "source:ref:FR:FINESS": "data.gouv.fr:Ministère des Affaires sociales et de la Santé - 2014-05-05", "type:FR:FINESS": "292", "wheelchair": "yes"}}, {"name": "Hôpital Romain Rolland", "latitude": 48.936835, "longitude": 2.3731323, "source": "osm", "_tags": {"amenity": "hospital", "healthcare": "hospital", "healthcare:speciality": "psychiatry", "name": "Hôpital Romain Rolland", "ref:FR:FINESS": "930006069", "type:FR:FINESS": "292"}}, {"name": "Clinique de la Porte Verte", "latitude": 48.8191286, "longitude": 2.140617, "source": "osm", "_tags": {"amenity": "hospital", "healthcare": "hospital", "name": "Clinique de la Porte Verte", "ref:FR:FINESS": "780150066", "type:FR:FINESS": "365", "wheelchair": "yes"}}, {"name": "Hôpital Léopold Bellan", "latitude": 48.8292407, "longitude": 2.3110487, "source": "osm", "_tags": {"addr:city": "Paris", "addr:country": "FR", "addr:housenumber": "185 C", "addr:postcode": "75014", "addr:street": "Rue Raymond Losserand", "amenity": "hospital", "building:colour": "firebrick", "building:material": "brick", "check_date": "2025-05-15", "email": "direction.hopital@bellan.fr", "emergency": "no", "fax": "+33 1 43 21 98 13", "healthcare": "hospital", "name": "Hôpital Léopold Bellan", "operator": "Fondation Léopold Bellan", "operator:wikidata": "Q37669450", "phone": "+33 1 40 48 68 68", "ref:FR:FINESS": "750150146", "ref:FR:SIRET": "77567216500567", "toilets:wheelchair": "yes", "type:FR:FINESS": "365", "website": "http://www.hopital.bellan.fr/", "wheelchair": "yes", "wikidata": "Q3145178", "wikipedia": "fr:Hôpital Léopold-Bellan"}}, {"name": "Aura", "latitude": 48.8294654, "longitude": 2.3107293, "source": "osm", "_tags": {"amenity": "hospital", "building": "hospital", "building:colour": "cornsilk", "building:levels": "5", "building:material": "brick", "emergency": "no", "healthcare": "hospital", "name": "Aura", "ref:FR:FINESS": "750813628", "source": "cadastre-dgi-fr source : Direction Générale des Finances Publiques - Cadastre. Mise à jour : 2015", "wheelchair": "yes"}}, {"name": "Clinique Arago", "latitude": 48.8288844, "longitude": 2.3104769, "source": "osm", "_tags": {"amenity": "hospital", "building": "hospital", "contact:city": "Paris", "contact:housenumber": "187", "contact:phone": "+33 1 44 08 04 00", "contact:postcode": "75014", "contact:street": "Rue Raymond Losserand", "contact:website": "https://www.clinique-arago.com/", "emergency": "no", "healthcare": "hospital", "name": "Clinique Arago", "ref:FR:FINESS": "750300493", "type:FR:FINESS": "128", "wheelchair": "yes"}}, {"name": "Centre Hospitalier Stell", "latitude": 48.8761496, "longitude": 2.1873346, "source": "osm", "_tags": {"amenity": "hospital", "emergency": "no", "healthcare": "hospital", "name": "Centre Hospitalier Stell", "ref:FR:FINESS": "920000601", "source": "Bing", "website": "http://www.chd-stell.fr/", "wheelchair": "yes"}}, {"name": "", "latitude": 48.9886618, "longitude": 1.81283, "source": "osm", "_tags": {"addr:city": "Gargenville", "addr:postcode": "78440", "amenity": "hospital", "healthcare": "hospital", "source": "cadastre-dgi-fr source : Direction Générale des Finances Publiques - Cadastre. Mise à jour : 2015"}}, {"name": "", "latitude": 48.989091, "longitude": 1.8183168, "source": "osm", "_tags": {"addr:city": "gargenville", "addr:postcode": "78440", "amenity": "hospital", "healthcare": "hospital", "healthcare:speciality": "general", "source": "cadastre-dgi-fr source : Direction Générale des Finances Publiques - Cadastre. Mise à jour : 2015"}}, {"name": "Clinique du Parc Saint-Lazare", "latitude": 49.4151796, "longitude": 2.0990715, "source": "osm", "_tags": {"amenity": "hospital", "healthcare": "hospital", "name": "Clinique du Parc Saint-Lazare", "ref:FR:FINESS": "600110175", "type:FR:FINESS": "128"}}, {"name": "Clinique de l'Oseraie", "latitude": 49.0755216, "longitude": 2.0746614, "source": "osm", "_tags": {"addr:city": "Osny", "addr:housenumber": "4", "addr:postcode": "95520", "addr:street": "Rue Alexander Fleming", "amenity": "hospital", "building": "hospital", "fax": "+33 1 34 20 65 92", "healthcare": "hospital", "name": "Clinique de l'Oseraie", "operator": "Clinéa", "phone": "+33 1 34 20 65 90", "ref:FR:FINESS": "950420042", "source": "cadastre-dgi-fr source : Direction Générale des Impôts - Cadastre. Mise à jour : 2015", "type:FR:FINESS": "109", "website": "https://www.clinea.fr/clinique-de-loseraie-osny-95"}}, {"name": "Polyclinique de Maisons-Laffitte", "latitude": 48.9503195, "longitude": 2.1521624, "source": "osm", "_tags": {"amenity": "hospital", "emergency": "yes", "fax": "+33 1 30 86 36 00", "healthcare": "hospital", "name": "Polyclinique de Maisons-Laffitte", "old_name": "Hôpital des Courses", "operator": "Vivalto Santé", "operator:type": "private", "phone": "+33 1 30 86 36 36", "ref:FR:FINESS": "780022737", "type:FR:FINESS": "365"}}, {"name": "U.G.E.C.A.M. Centre de réadaptation fonctionnelle Saint-Lazare", "latitude": 49.41178, "longitude": 2.1121862, "source": "osm", "_tags": {"amenity": "hospital", "name": "U.G.E.C.A.M. Centre de réadaptation fonctionnelle Saint-Lazare", "ref:FR:FINESS": "600101679"}}, {"name": "Hôpital Henri Ey", "latitude": 48.8185669, "longitude": 2.3650131, "source": "osm", "_tags": {"addr:city": "Paris", "addr:housenumber": "15", "addr:postcode": "75013", "addr:street": "Avenue de la Porte de Choisy", "amenity": "hospital", "healthcare": "hospital", "name": "Hôpital Henri Ey", "operator": "Perray-Vaucluse", "ref:FR:FINESS": "750058471", "source": "Le ministère des solidarités et de la santé - 03/2019"}}, {"name": "Hôpital du Vésinet", "latitude": 48.8816292, "longitude": 2.1292529, "source": "osm", "_tags": {"amenity": "hospital", "healthcare": "hospital", "name": "Hôpital du Vésinet", "ref:FR:FINESS": "780000352", "source": "cadastre-dgi-fr source : Direction Générale des Impôts - Cadastre ; mise à jour : 2012", "website": "https://www.hopital-levesinet.fr/", "wikidata": "Q3145331"}}, {"name": "Centre hospitalier d'Argenteuil", "latitude": 48.9445286, "longitude": 2.2375052, "source": "osm", "_tags": {"addr:city": "Argenteuil", "addr:housenumber": "69", "addr:street": "Rue du Lieutenant-Colonel Prudhon", "alt_name": "Hôpital Victor Dupouy", "amenity": "hospital", "emergency": "yes", "fax": "+33 1 34 23 23 00", "healthcare": "hospital", "healthcare:speciality": "intensive", "name": "Centre hospitalier d'Argenteuil", "operator:type": "public", "phone": "+33 1 34 23 24 25", "ref:FR:FINESS": "950000307", "source": "cadastre-dgi-fr source : Direction Générale des Impôts - Cadastre. Mise à jour : 2010 / CA Argenteuil Bezons", "type:FR:FINESS": "355", "website": "https://www.ch-argenteuil.fr/", "wikidata": "Q30280051"}}, {"name": "Hôpital Simone Veil - Site de Montmorency", "latitude": 48.9864865, "longitude": 2.3176712, "source": "osm", "_tags": {"amenity": "hospital", "healthcare": "hospital", "landuse": "healthcare", "name": "Hôpital Simone Veil - Site de Montmorency", "operator": "Groupement hospitalier Eaubonne-Montmorency", "operator:type": "public", "ref:FR:FINESS": "950000356", "type:FR:FINESS": "355", "website": "https://www.hopital-simoneveil.fr/"}}, {"name": "Clinique Blomet", "latitude": 48.8397093, "longitude": 2.2957345, "source": "osm", "_tags": {"amenity": "hospital", "check_date": "2025-02-16", "healthcare": "hospital", "name": "Clinique Blomet", "ref:FR:FINESS": "750300592", "type:FR:FINESS": "128"}}, {"name": "Hôpital Le Parc de Taverny", "latitude": 49.0271278, "longitude": 2.2351302, "source": "osm", "_tags": {"addr:city": "Taverny", "addr:street": "Chemin des Aumuses", "amenity": "hospital", "check_date": "2024-12-21", "emergency": "no", "healthcare": "hospital", "name": "Hôpital Le Parc de Taverny", "phone": "+33 1 30 40 60 00", "ref:FR:FINESS": "950000703", "type:FR:FINESS": "355", "website": "https://www.hopital-parc-taverny.fr/"}}, {"name": "Centre hospitalier René Dubos", "latitude": 49.0637296, "longitude": 2.0957275, "source": "osm", "_tags": {"addr:city": "Pontoise", "addr:housenumber": "6", "addr:postcode": "95300", "addr:street": "Avenue de l'Île-de-France", "alt_name": "Centre hospitalier de Pontoise", "amenity": "hospital", "emergency": "yes", "fax": "+33 1 30 75 53 66", "healthcare": "hospital", "healthcare:speciality": "intensive", "name": "Centre hospitalier René Dubos", "operator": "Hôpital NOVO (Nord-Ouest Val-d’Oise)", "operator:type": "public", "phone": "+33 1 30 75 40 40", "ref:FR:FANTOIR": "95500A113J", "ref:FR:FINESS": "950000364", "type:FR:FINESS": "355", "website": "http://www.ch-pontoise.fr"}}, {"name": "Centre hospitalier de Senlis", "latitude": 49.1971082, "longitude": 2.5753353, "source": "osm", "_tags": {"amenity": "hospital", "emergency": "yes", "fax": "+33 3 44 21 70 36", "healthcare": "hospital", "name": "Centre hospitalier de Senlis", "name:etymology:wikidata": "Q126668", "operator": "Groupe Hospitalier Public du Sud de l’Oise", "operator:type": "public", "phone": "+33 3 44 21 70 00", "ref:FR:FINESS": "600000053", "short_name": "Hôpital de Senlis", "type:FR:FINESS": "355", "website": "https://www.ghpso.fr/le-ghpso/site-de-senlis/"}}, {"name": "Centre Hospitalier des Quatre Villes", "latitude": 48.82045, "longitude": 2.2029881, "source": "osm", "_tags": {"addr:housenumber": "141", "addr:postcode": "92310", "addr:street": "Grande Rue", "amenity": "hospital", "emergency": "yes", "name": "Centre Hospitalier des Quatre Villes", "phone": "+33 1 77707070", "ref:FR:FINESS": "920000627", "website": "https://www.ch4v.fr/"}}, {"name": "Maternité catholique Sainte-Félicité", "latitude": 48.8391235, "longitude": 2.2885179, "source": "osm", "_tags": {"amenity": "hospital", "building": "hospital", "healthcare": "hospital", "healthcare:speciality": "obstetrics", "name": "Maternité catholique Sainte-Félicité", "ref:FR:FINESS": "750300667", "type:FR:FINESS": "122"}}, {"name": "Centre hospitalier Simone Veil de Beauvais", "latitude": 49.44858, "longitude": 2.0700538, "source": "osm", "_tags": {"amenity": "hospital", "emergency": "yes", "fax": "+33 3 44 11 20 09", "healthcare": "hospital", "healthcare:speciality": "intensive", "name": "Centre hospitalier Simone Veil de Beauvais", "operator:type": "public", "phone": "+33 3 44 11 21 21", "ref:FR:FINESS": "600000194", "type:FR:FINESS": "355", "website": "http://ch-beauvais.fr/", "wikidata": "Q50036396"}}, {"name": "Centre hospitalier de Montdidier", "latitude": 49.6485517, "longitude": 2.5747501, "source": "osm", "_tags": {"amenity": "hospital", "email": "hopital.direction@ch-montdidier.fr", "emergency": "yes", "fax": "+33 3 22 78 70 01", "healthcare": "hospital", "name": "Centre hospitalier de Montdidier", "operator:type": "public", "phone": "+33 3 22 78 70 00", "ref:FR:FINESS": "800000390", "type:FR:FINESS": "355", "website": "https://www.chimr.fr/"}}, {"name": "Groupe hospitalier Carnelle Porte de l'Oise - Site de Beaumont", "latitude": 49.1447953, "longitude": 2.290458, "source": "osm", "_tags": {"amenity": "hospital", "emergency": "yes", "fax": "+33 1 39 37 17 99", "healthcare": "hospital", "name": "Groupe hospitalier Carnelle Porte de l'Oise - Site de Beaumont", "operator:type": "public", "phone": "+33 1 39 37 15 20", "ref:FR:FINESS": "950000315", "type:FR:FINESS": "355", "website": "http://www.ghcpo.fr/presentation-du-ghcpo/acces-et-orientation/beaumont-sur-oise/"}}, {"name": "Groupement Hospitalier Intercommunal du Vexin - Site de Magny", "latitude": 49.1551082, "longitude": 1.7844665, "source": "osm", "_tags": {"amenity": "hospital", "emergency": "yes", "fax": "+33 1 34 79 44 79", "healthcare": "hospital", "name": "Groupement Hospitalier Intercommunal du Vexin - Site de Magny", "operator:type": "public", "phone": "+33 1 34 79 44 44", "ref:FR:FINESS": "950000349", "source": "cadastre-dgi-fr source : Direction Générale des Impôts - Cadastre;mise à jour : 2009", "type:FR:FINESS": "355", "website": "http://www.ghi-vexin.fr/index.html"}}, {"name": "Centre hospitalier intercommunal Meulan-Les Mureaux", "latitude": 48.9860132, "longitude": 1.9359423, "source": "osm", "_tags": {"amenity": "hospital", "fax": "+33 1 30 22 16 41", "healthcare": "hospital", "name": "Centre hospitalier intercommunal Meulan-Les Mureaux", "operator": "Centre hospitalier intercommunal de Meulan-Les Mureaux", "operator:type": "public", "phone": "+33 1 30 91 85 00", "ref:FR:FINESS": "780000428", "short_name": "CHI Meulan-Les Mureaux", "type:FR:FINESS": "355", "website": "https://www.chimm.fr/"}}, {"name": "Centre hospitalier privé du Montgardé", "latitude": 48.9560252, "longitude": 1.8467663, "source": "osm", "_tags": {"amenity": "hospital", "building": "hospital", "check_date": "2025-05-26", "email": "contact@ch-montgarde.fr", "emergency": "yes", "fax": "+33 1 30 90 01 67", "healthcare": "hospital", "name": "Centre hospitalier privé du Montgardé", "operator:type": "private", "phone": "+33 1 30 95 52 00", "ref:FR:FINESS": "780300455", "source": "cadastre-dgi-fr source : Direction Générale des Finances Publiques - Cadastre. Mise à jour : 2018", "type:FR:FINESS": "365", "website": "https://chp-montgarde.fr/"}}, {"name": "Centre médico-chirurgical Floréal", "latitude": 48.8782164, "longitude": 2.4310327, "source": "osm", "_tags": {"addr:housenumber": "40", "addr:street": "Rue Floréal", "alt_name": "Clinique Floréal", "amenity": "hospital", "building": "hospital", "check_date": "2022-08-31", "email": "cmcfcontact@cliniquefloreal.com", "emergency": "yes", "fax": "+33 1 43 63 80 07", "healthcare": "hospital", "name": "Centre médico-chirurgical Floréal", "operator:type": "private", "phone": "+33 1 48 97 72 00", "ref:FR:FINESS": "930300082", "source": "cadastre-dgi-fr source : Direction Générale des Impôts - Cadastre. Mise à jour : 2018", "source:ref:FR:FINESS": "data.gouv.fr:Ministère des Affaires sociales et de la Santé - 2014-05-05", "type:FR:FINESS": "365", "website": "https://cliniquefloreal.com/"}}, {"name": "Clinique de l'Estrée", "latitude": 48.9549584, "longitude": 2.3683739, "source": "osm", "_tags": {"amenity": "hospital", "building": "hospital", "email": "direction@clinique-estree.fr", "emergency": "yes", "facebook": "Clinique de l'Estrée", "fax": "+33 1 49 71 90 09", "healthcare": "hospital", "name": "Clinique de l'Estrée", "operator": "Elsan", "operator:type": "private", "operator:wikidata": "Q48747106", "phone": "+33 1 49 71 71 71", "ref:FR:FINESS": "930300553", "source": "cadastre-dgi-fr source : Direction Générale des Impôts - Cadastre. Mise à jour : 2018", "type:FR:FINESS": "365", "website": "http://www.clinique-estree.fr/"}}, {"name": "Hôpital Européen de Paris", "latitude": 48.9054858, "longitude": 2.3891656, "source": "osm", "_tags": {"amenity": "hospital", "emergency": "yes", "fax": "+33 1 48 34 22 33", "healthcare": "hospital", "healthcare:speciality": "intensive", "name": "Hôpital Européen de Paris", "operator": "Gruppo Villa Maria", "operator:type": "private", "phone": "+33 1 48 39 45 00", "ref:FR:FINESS": "930300025", "type:FR:FINESS": "365", "website": "https://www.hopitaleuropeendeparis.fr/home"}}, {"name": "Groupe hospitalier intercommunal Le Raincy-Montfermeil", "latitude": 48.8982664, "longitude": 2.5719561, "source": "osm", "_tags": {"amenity": "hospital", "emergency": "yes", "facebook": "GHI Le Raincy Montfermeil", "fax": "+33 1 41 70 82 74", "healthcare": "hospital", "healthcare:speciality": "intensive", "name": "Groupe hospitalier intercommunal Le Raincy-Montfermeil", "operator:type": "public", "phone": "+33 1 41 70 80 00", "ref:FR:FINESS": "930000286", "short_name": "GHI Le Raincy-Monfermeil", "type:FR:FINESS": "355", "website": "https://www.ch-montfermeil.fr", "wikidata": "Q2945718"}}, {"name": "La Roseraie", "latitude": 48.8644337, "longitude": 2.5433943, "source": "osm", "_tags": {"amenity": "hospital", "healthcare": "hospital", "name": "La Roseraie", "operator": "GHU Paris", "ref:FR:FINESS": "930815501", "type:FR:FINESS": "362"}}, {"name": "Hôpital Paul Doumer", "latitude": 49.3533665, "longitude": 2.4954108, "source": "osm", "_tags": {"amenity": "hospital", "healthcare": "hospital", "name": "Hôpital Paul Doumer", "operator": "Aphp", "ref:FR:FINESS": "600100101", "type:FR:FINESS": "101", "website": "https://www.aphp.fr/contenu/hopital-paul-doumer-2"}}, {"name": "Groupe hospitalier Carnelle Porte de l'Oise - Site Les Oliviers", "latitude": 49.1437574, "longitude": 2.31065, "source": "osm", "_tags": {"amenity": "hospital", "healthcare": "hospital", "inscription:fr": "Service de Psychothérapie \"Les Oliviers\"", "name": "Groupe hospitalier Carnelle Porte de l'Oise - Site Les Oliviers", "ref:FR:FINESS": "950787135", "source": "survey", "type:FR:FINESS": "355"}}, {"name": "Clinique FSEF Bouffémont", "latitude": 49.0472676, "longitude": 2.2966208, "source": "osm", "_tags": {"addr:city": "Bouffémont", "addr:housenumber": "5", "addr:postcode": "95570", "addr:street": "Rue Pasteur", "amenity": "hospital", "healthcare": "hospital", "name": "Clinique FSEF Bouffémont", "phone": "+33 1 39 35 35 35", "ref:FR:FINESS": "950150052", "type:FR:FINESS": "109", "website": "https://www.fsef.net/index.php/etablissements/clinique-fsef-bouffemont/presentation-clinique-fsef-bouffemont"}}, {"name": "Clinique de Domont", "latitude": 49.0335691, "longitude": 2.34401, "source": "osm", "_tags": {"addr:city": "Domont", "addr:housenumber": "85", "addr:postcode": "95330", "addr:street": "Route de Domont", "amenity": "hospital", "healthcare": "hospital", "name": "Clinique de Domont", "operator": "Capio", "ref:FR:FINESS": "950032714", "type:FR:FINESS": "128"}}, {"name": "Clinique du Val d'Or", "latitude": 48.8428379, "longitude": 2.2048698, "source": "osm", "_tags": {"addr:city": "Saint-Cloud", "addr:housenumber": "16", "addr:postcode": "92210", "addr:street": "Rue Pasteur", "amenity": "hospital", "emergency": "no", "healthcare": "hospital", "name": "Clinique du Val d'Or", "operator": "Vivalto Santé", "operator:type": "private", "phone": "+33 1 47 11 77 11", "ref:FR:FINESS": "920300936", "type:FR:FINESS": "128", "website": "https://cliniquevaldor.vivalto-sante.com/"}}, {"name": "Centre Hospitalier de Gonesse", "latitude": 48.9916053, "longitude": 2.4496969, "source": "osm", "_tags": {"addr:city": "Gonesse", "addr:country": "FR", "addr:housenumber": "2", "addr:postcode": "95500", "addr:street": "Boulevard du 19 Mars 1962", "amenity": "hospital", "contact:twitter": "ch_gonesse", "emergency": "yes", "fax": "+33 1 34 53 24 79", "healthcare": "hospital", "healthcare:speciality": "intensive", "name": "Centre Hospitalier de Gonesse", "operator:type": "public", "phone": "+33 1 34 53 21 21", "ref:FR:FINESS": "950000331", "type:FR:FINESS": "355", "website": "https://www.hopital-de-gonesse.fr/", "wikidata": "Q30261216"}}, {"name": "Hopital Georges Decroze", "latitude": 49.2949187, "longitude": 2.6075557, "source": "osm", "_tags": {"amenity": "hospital", "emergency": "no", "healthcare": "hospital", "name": "Hopital Georges Decroze", "ref:FR:FINESS": "600000046", "source": "Le ministère des solidarités et de la santé - 03/2019", "type:FR:FINESS": "355"}}, {"name": "Château d'Herblay", "latitude": 48.9918885, "longitude": 2.1708539, "source": "osm", "_tags": {"amenity": "hospital", "fax": "+33134505151", "healthcare": "hospital", "name": "Château d'Herblay", "phone": "+33134505050", "ref:FR:FINESS": "950300194", "ref:FR:SIRET": "30116075000636", "type:FR:FINESS": "109"}}, {"name": "Clinique SSR Le Tillet", "latitude": 49.2582856, "longitude": 2.3333143, "source": "osm", "_tags": {"amenity": "hospital", "healthcare": "hospital", "healthcare:speciality": "physiotherapy", "name": "Clinique SSR Le Tillet", "type:FR:FINESS": "109", "website": "https://btprms.probtp.com/accueil/clinique-ssr/le-tillet.html"}}, {"name": "Institut Thérapeutique Educatif et Pédagogique La Mayotte", "latitude": 49.0207334, "longitude": 2.2907071, "source": "osm", "_tags": {"addr:city": "Montlignon", "addr:housenumber": "165", "addr:postcode": "95680", "addr:street": "Rue de Paris", "amenity": "hospital", "healthcare": "hospital", "healthcare:speciality": "psychology", "name": "Institut Thérapeutique Educatif et Pédagogique La Mayotte", "website": "https://mutuellelamayotte.fr/les-etablissements/l-itep-rene-laborie.html#"}}, {"name": "American Hospital of Paris", "latitude": 48.8926406, "longitude": 2.272238, "source": "osm", "_tags": {"amenity": "hospital", "emergency": "yes", "healthcare": "hospital", "healthcare:speciality": "intensive", "name": "American Hospital of Paris", "name:fr": "Hôpital américain de Paris", "operator:type": "private", "phone": "+33 1 46 41 25 25", "ref:FR:FINESS": "920008539", "type:FR:FINESS": "365", "website": "https://www.american-hospital.org/", "wikidata": "Q470085"}}, {"name": "Centre du Parc de Saint-Cloud", "latitude": 48.8287642, "longitude": 2.1967557, "source": "osm", "_tags": {"addr:postcode": "92410", "addr:street": "Rue Pradier", "amenity": "hospital", "fax": "+33 1 47 09 18 22", "healthcare": "hospital", "name": "Centre du Parc de Saint-Cloud", "phone": "+33 1 47 09 56 65", "source": "extrapolation", "website": "https://centre-du-parc-de-st-cloud.org/"}}, {"name": "Clinique Conti", "latitude": 49.1272111, "longitude": 2.2361596, "source": "osm", "_tags": {"amenity": "hospital", "healthcare": "hospital", "name": "Clinique Conti"}}, {"name": "L'Hôpital Suisse de Paris", "latitude": 48.8237953, "longitude": 2.2769804, "source": "osm", "_tags": {"addr:housenumber": "10", "addr:street": "Rue Minard", "amenity": "hospital", "building": "no", "healthcare": "hospital", "name": "L'Hôpital Suisse de Paris"}}, {"name": "Hopital Privé de Chantilly - Clinique des Jockeys", "latitude": 49.1795777, "longitude": 2.4555145, "source": "osm", "_tags": {"addr:city": "Chantilly", "addr:housenumber": "12", "addr:postcode": "60500", "addr:street": "Avenue du Général Leclerc", "amenity": "hospital", "healthcare": "hospital", "name": "Hopital Privé de Chantilly - Clinique des Jockeys", "name:etymology:wikidata": "Q846750", "ref:FR:FINESS": "600100168", "type:FR:FINESS": "365"}}, {"name": "Cap vers", "latitude": 48.8327345, "longitude": 2.1262371, "source": "osm", "_tags": {"amenity": "hospital", "healthcare": "hospital", "healthcare:speciality": "psychiatry", "name": "Cap vers"}}, {"name": "Maison de Santé d'Épinay-sur-Seine", "latitude": 48.9506667, "longitude": 2.3183649, "source": "osm", "_tags": {"amenity": "hospital", "healthcare": "hospital", "name": "Maison de Santé d'Épinay-sur-Seine", "ref:FR:FINESS": "930310016", "type:FR:FINESS": "161"}}, {"name": "Centre de Moyen et Long Séjour les Ormes", "latitude": 48.9035938, "longitude": 2.5710939, "source": "osm", "_tags": {"amenity": "hospital", "name": "Centre de Moyen et Long Séjour les Ormes"}}, {"name": "Hôpital Privé Armand Brillard", "latitude": 48.8330677, "longitude": 2.4725985, "source": "osm", "_tags": {"amenity": "hospital", "check_date": "2025-05-29", "emergency": "yes", "fax": "+33 1 43 94 81 77", "healthcare": "hospital", "name": "Hôpital Privé Armand Brillard", "operator": "Ramsay Santé", "operator:type": "private", "operator:wikidata": "Q3123085", "phone": "+33 1 86 86 12 12", "ref:FR:FINESS": "940300270", "type:FR:FINESS": "365", "website": "https://hopital-prive-armand-brillard-nogent-sur-marne.ramsaygds.fr/"}}, {"name": "SSR d'Aincourt", "latitude": 49.0821421, "longitude": 1.7586832, "source": "osm", "_tags": {"amenity": "hospital", "healthcare": "hospital", "name": "SSR d'Aincourt", "operator": "Groupement Hospitalier Intercommunal du Vexin", "ref:FR:FINESS": "950500017", "source": "BDOrtho IGN - available 2023 at the latest", "type:FR:FINESS": "355"}}, {"name": "Etablissement Public de Santé Roger Prévot", "latitude": 49.050451, "longitude": 2.3388614, "source": "osm", "_tags": {"addr:city": "Moisselles", "addr:housenumber": "52", "addr:postcode": "95570", "addr:street": "Rue de Paris", "amenity": "hospital", "fax": "+33139356611", "healthcare": "hospital", "name": "Etablissement Public de Santé Roger Prévot", "phone": "+33139356300", "ref:FR:FINESS": "950000398", "ref:FR:SIRET": "26950008800019", "source": "Le ministère des solidarités et de la santé - 2023-03", "type:FR:FINESS": "292", "website": "https://www.eps-rogerprevot.fr/"}}, {"name": "Clinique du Landy", "latitude": 48.9169435, "longitude": 2.3349451, "source": "osm", "_tags": {"amenity": "hospital", "healthcare": "hospital", "name": "Clinique du Landy", "phone": "+33 8 25 74 34 84", "ref:FR:FINESS": "930300587", "type:FR:FINESS": "128", "website": "http://www.generale-de-sante.fr/clinique-du-landy-saint-ouen"}}, {"name": "", "latitude": 48.9926282, "longitude": 2.2876072, "source": "osm", "_tags": {"amenity": "hospital", "healthcare": "hospital"}}, {"name": "Etablissement de médecine, SMR et Institut de néphrologie MGEN Maisons-Laffitte", "latitude": 48.9509263, "longitude": 2.1595519, "source": "osm", "_tags": {"addr:city": "Maisons-Laffitte", "addr:housenumber": "1", "addr:postcode": "78600", "addr:street": "Avenue Molière", "amenity": "hospital", "emergency": "no", "healthcare": "hospital", "name": "Etablissement de médecine, SMR et Institut de néphrologie MGEN Maisons-Laffitte", "operator": "MGEN", "operator:type": "private"}}, {"name": "Centre hospitalier Bertinot Juel", "latitude": 49.2692346, "longitude": 1.8895021, "source": "osm", "_tags": {"addr:city": "Chaumont-en-Vexin", "addr:housenumber": "34", "addr:postcode": "60240", "addr:street": "Rue Pierre Budin", "amenity": "hospital", "fax": "+33344495455", "healthcare": "hospital", "name": "Centre hospitalier Bertinot Juel", "phone": "+33344495454", "ref:FR:FINESS": "600000152", "ref:FR:SIRET": "26600026400017", "source": "Le ministère des solidarités et de la santé - 2024-01", "type:FR:FINESS": "355"}}, {"name": "Institut Médico-Pédagogique et Professionnel Romain Rolland", "latitude": 48.9171911, "longitude": 2.4018162, "source": "osm", "_tags": {"addr:city": "Aubervilliers", "addr:housenumber": "18", "addr:postcode": "93300", "addr:street": "Rue Élisée Reclus", "amenity": "hospital", "healthcare": "hospital", "healthcare:speciality": "child_psychiatry", "name": "Institut Médico-Pédagogique et Professionnel Romain Rolland"}}, {"name": "Hôpital Jean Jaurès", "latitude": 48.8875553, "longitude": 2.3932473, "source": "osm", "_tags": {"addr:housenumber": "9-21", "addr:street": "Sente des Dorées", "amenity": "hospital", "emergency": "no", "healthcare": "hospital", "name": "Hôpital Jean Jaurès", "operator": "Groupe SOS", "operator:type": "private", "phone": "+33144845444", "ref:FR:FINESS": "750150286", "source:ref:FR:FINESS": "data.gouv.fr:Ministère des Affaires sociales et de la Santé - 2014-05-05", "type:FR:FINESS": "365", "website": "https://www.hopitaljeanjaures.fr/"}}, {"name": "Clinique SMR de Pierrefitte-sur-Seine", "latitude": 48.9631475, "longitude": 2.3634327, "source": "osm", "_tags": {"amenity": "hospital", "emergency": "no", "healthcare": "hospital", "healthcare:speciality": "physiatry", "name": "Clinique SMR de Pierrefitte-sur-Seine", "operator": "Clinalliance", "operator:type": "private", "ref:FR:FINESS": "930009188", "ref:FR:SIRET": "45123347200021", "type:FR:FINESS": "109", "website": "https://www.clinalliance.fr/cliniques-ssr/nos-etablissements/pierrefitte/"}}, {"name": "Clinique du Sport", "latitude": 48.8390191, "longitude": 2.3578592, "source": "osm", "_tags": {"addr:city": "Paris", "addr:housenumber": "36", "addr:postcode": "75005", "addr:street": "Boulevard Saint-Marcel", "alt_name": "Clinique des Sports", "amenity": "hospital", "building": "yes", "healthcare": "hospital", "healthcare:speciality": "orthopaedics;cardiology;radiology", "name": "Clinique du Sport", "operator": "Ramsay Santé", "operator:type": "private", "operator:wikidata": "Q3123085", "phone": "+33 1 86 86 75 05", "ref:FR:FINESS": "750300089", "type": "multipolygon", "type:FR:FINESS": "128", "website": "https://clinique-du-sport-paris.ramsaygds.fr"}}, {"name": "Clinique Porte de Paris", "latitude": 48.9296877, "longitude": 2.3552913, "source": "osm", "_tags": {"amenity": "hospital", "building": "yes", "building:levels": "5", "healthcare": "hospital", "name": "Clinique Porte de Paris", "ref:FR:FINESS": "930300546", "roof:shape": "flat", "type": "multipolygon", "type:FR:FINESS": "109"}}, {"name": "Hôpital Goüin", "latitude": 48.9021326, "longitude": 2.3113874, "source": "osm", "_tags": {"amenity": "hospital", "building": "hospital", "emergency": "no", "healthcare": "hospital", "name": "Hôpital Goüin", "ref:FR:FINESS": "920150018", "type": "multipolygon", "type:FR:FINESS": "109", "wikidata": "Q3145159"}}, {"name": "Clinique de Rochebrune", "latitude": 48.8524985, "longitude": 2.1986481, "source": "osm", "_tags": {"amenity": "hospital", "healthcare": "hospital", "name": "Clinique de Rochebrune", "ref:FR:FINESS": "920007549", "type": "multipolygon", "type:FR:FINESS": "161"}}, {"name": "Institut hospitalier franco-britannique - Site Kléber", "latitude": 48.891611, "longitude": 2.2793856, "source": "osm", "_tags": {"addr:housenumber": "4", "addr:postcode": "92300", "amenity": "hospital", "building": "hospital", "check_date": "2025-08-21", "emergency": "yes", "internet_access": "wlan", "internet_access:fee": "no", "name": "Institut hospitalier franco-britannique - Site Kléber", "old_name": "Hôpital Notre-Dâme du Perpétuel Bon Secours", "operator:type": "private", "phone": "+33 1 47 59 59 59", "ref:FR:FINESS": "920000643", "short_name": "IHFB", "type": "multipolygon", "type:FR:FINESS": "365", "website": "https://www.hopitalfrancobritannique.org/", "wikidata": "Q3152318", "wikipedia": "fr:Institut hospitalier franco-britannique"}}, {"name": "Centre de Rééducation Fonctionnelle", "latitude": 48.8304486, "longitude": 2.5505012, "source": "osm", "_tags": {"amenity": "clinic", "building": "yes", "emergency": "no", "fax": "+33 1 49 30 63 69", "healthcare": "hospital", "name": "Centre de Rééducation Fonctionnelle", "phone": "+33 1 49 41 35 35", "ref:FR:FINESS": "940700040", "ref:FR:SIRET": "30289111400464", "source": "Le ministère des solidarités et de la santé - 03/2019", "type": "multipolygon", "type:FR:FINESS": "109", "website": "https://www.crf-villiers.org/"}}, {"name": "Hôpital privé de la Seine Saint-Denis", "latitude": 48.9364611, "longitude": 2.4569718, "source": "osm", "_tags": {"addr:housenumber": "7", "addr:postcode": "93150", "addr:street": "Avenue Henri Barbusse", "amenity": "hospital", "building": "hospital", "emergency": "yes", "fax": "+33 1 48 65 44 57", "healthcare": "hospital", "name": "Hôpital privé de la Seine Saint-Denis", "operator": "Ramsay Santé", "operator:type": "private", "operator:wikidata": "Q3123085", "phone": "+33 1 86 86 34 44", "ref:FR:FINESS": "930300116", "type": "multipolygon", "type:FR:FINESS": "365", "website": "https://hopital-prive-de-la-seine-saint-denis-le-blanc-mesnil.ramsaygds.fr"}}, {"name": "Hôpital René Huguenin - Institut Curie", "latitude": 48.8448955, "longitude": 2.2181841, "source": "osm", "_tags": {"amenity": "hospital", "building": "hospital", "healthcare": "hospital", "name": "Hôpital René Huguenin - Institut Curie", "ref:FR:FINESS": "920000460", "source": "cadastre-dgi-fr source : Direction Générale des Finances Publiques - Cadastre. Mise à jour : 2014", "type": "multipolygon", "type:FR:FINESS": "131", "wikidata": "Q22924354"}}, {"name": "Hôpital privé Nord-Parisien", "latitude": 48.9805796, "longitude": 2.3774377, "source": "osm", "_tags": {"addr:city": "Sarcelles", "addr:housenumber": "3", "addr:street": "Boulevard de Lattre de Tassigny", "amenity": "hospital", "building": "hospital", "emergency": "yes", "healthcare": "hospital", "name": "Hôpital privé Nord-Parisien", "operator:type": "private", "ref:FR:FINESS": "950300277", "source": "cadastre-dgi-fr source : Direction Générale des Finances Publiques - Cadastre. Mise à jour : 2015", "type": "multipolygon", "type:FR:FINESS": "365", "wikidata": "Q30737757"}}, {"name": "Centre de jour Léonard de Vinci", "latitude": 48.8460268, "longitude": 2.2308987, "source": "osm", "_tags": {"amenity": "hospital", "building": "hospital", "building:levels": "3", "fax": "+33 141311524", "name": "Centre de jour Léonard de Vinci", "operator": "Groupe hospitalier Paul Guiraud", "phone": "+33 146035635", "ref:FR:FINESS": "920000320", "ref:FR:SIRET": "26940106300194", "type": "multipolygon", "type:FR:FINESS": "292"}}, {"name": "Centre de Prévention Médico-sociale", "latitude": 48.8459793, "longitude": 2.2319173, "source": "osm", "_tags": {"amenity": "hospital", "health_facility:type": "dispensary", "healthcare": "hospital", "name": "Centre de Prévention Médico-sociale", "source:amenity": "survey", "type": "multipolygon"}}, {"name": "Hôpital Simone Veil", "latitude": 48.9864865, "longitude": 2.3176712, "source": "osm", "_tags": {"addr:housenumber": "1", "addr:street": "Rue Jean Moulin", "amenity": "hospital", "name": "Hôpital Simone Veil", "operator:type": "public", "phone": "+33 1 34 06 60 00", "ref:FR:FINESS": "950000356", "type": "site", "type:FR:FINESS": "355", "website": "https://www.hopital-simoneveil.fr/"}}, {"name": "Centre hospitalier des Quatre Villes", "latitude": 48.844067, "longitude": 2.2179214, "source": "osm", "_tags": {"amenity": "hospital", "building": "hospital", "heritage": "2", "heritage:operator": "mhs", "mhs:inscription_date": "1979", "name": "Centre hospitalier des Quatre Villes", "old_name": "Hopital de la Reine", "operator:type": "private", "ref:FR:FINESS": "920000619", "ref:mhs": "PA00088143", "source": "cadastre-dgi-fr source : Direction Générale des Impôts - Cadastre ; mise à jour : 2018", "source:heritage": "data.gouv.fr:Ministère de la Culture - 04/2015", "type": "multipolygon", "type:FR:FINESS": "365", "wikidata": "Q22924354"}}, {"name": "Réanimation", "latitude": 48.9144324, "longitude": 2.2211881, "source": "osm", "_tags": {"amenity": "hospital", "healthcare:speciality": "intensive", "name": "Réanimation", "type": "site"}}, {"name": "Hôpital Sainte-Périne", "latitude": 48.8453619, "longitude": 2.2686931, "source": "osm", "_tags": {"alt_name": "Hôpital Sainte-Périne - Rossini - Chardon Lagache", "amenity": "hospital", "branch": "Université Paris Saclay", "healthcare": "hospital", "name": "Hôpital Sainte-Périne", "operator": "Assistance publique - Hôpitaux de Paris", "operator:short": "APHP", "operator:type": "public", "operator:wikidata": "Q2867205", "phone": "+33 1 44 96 31 31", "ref:FR:FINESS": "750100299", "ref:FR:SIRET": "26750045200623", "type": "multipolygon", "type:FR:FINESS": "101", "website": "https://sainteperine.aphp.fr/", "wikidata": "Q3145225"}}]