[{"name": "Ambulantes Rehazentrum Hess (Neurologie & Orthopädie)", "latitude": 48.9559055, "longitude": 9.1486854, "source": "osm", "_tags": {"addr:city": "Bietigheim-Bissingen", "addr:housenumber": "7-9", "addr:postcode": "74321", "addr:street": "Steinheimer Straße", "amenity": "hospital", "healthcare": "hospital", "name": "Ambulantes Rehazentrum Hess (Neurologie & Orthopädie)", "phone": "+49 7142 91030", "toilets:wheelchair": "yes", "website": "https://www.reha-hess.de/", "wheelchair": "yes", "wheelchair:description": "Behindertenparkplätze in der Tiefgarage. Eingang für Rollstühle über den Parkplatz hinterm Haus."}}, {"name": "Klinik am Rathenauplatz", "latitude": 49.1315683, "longitude": 9.2189645, "source": "osm", "_tags": {"addr:city": "Heilbronn", "addr:country": "DE", "addr:housenumber": "8", "addr:postcode": "74074", "addr:street": "Happelstraße", "amenity": "hospital", "healthcare": "hospital", "name": "Klinik am Rathenauplatz", "website": "https://www.chirurgie-hn.de/praxis/klinik-am-rathauenplatz/", "wheelchair": "yes"}}, {"name": "Geriatrische Reha-Klinik Bethel Welzheim", "latitude": 48.8695156, "longitude": 9.6322927, "source": "osm", "_tags": {"amenity": "hospital", "check_date": "2025-01-12", "emergency": "no", "healthcare": "rehabilitation", "healthcare:speciality": "geriatrics", "name": "Geriatrische Reha-Klinik Bethel Welzheim", "toilets:wheelchair": "yes", "wheelchair": "yes"}}, {"name": "Vitos Kinder- und Jugendambulanz und Tagesklinik für psychische Gesundheit Höchst im Odenwald", "latitude": 49.7953404, "longitude": 8.9997149, "source": "osm", "_tags": {"addr:city": "Höchst im Odenwald", "addr:country": "DE", "addr:housenumber": "84-86", "addr:postcode": "64739", "addr:street": "Erbacher Straße", "amenity": "hospital", "emergency": "yes", "healthcare": "hospital", "healthcare:speciality": "child_psychiatry", "name": "Vitos Kinder- und Jugendambulanz und Tagesklinik für psychische Gesundheit Höchst im Odenwald", "operator": "Vitos Südhessen", "operator:type": "public"}}, {"name": "Median Klinik Wilhelmsheim", "latitude": 49.0074521, "longitude": 9.4572297, "source": "osm", "_tags": {"amenity": "hospital", "emergency": "no", "healthcare": "hospital", "healthcare:speciality": "physiatry", "name": "Median Klinik Wilhelmsheim", "operator": "MEDIAN Unternehmensgruppe B.V. & Co. KG Franklinstraße 28-29 D-10587 Berlin", "operator:type": "private"}}, {"name": "Gesundheitszentrum An der Höhle", "latitude": 49.4811058, "longitude": 9.3504518, "source": "osm", "_tags": {"addr:city": "Buchen (Odenwald)", "addr:housenumber": "8", "addr:postcode": "74722", "addr:street": "Höhlenweg", "addr:suburb": "Eberstadt", "amenity": "hospital", "healthcare": "rehabilitation", "healthcare:speciality": "mother_child", "name": "Gesundheitszentrum An der Höhle", "website": "https://www.mutter-vater-kind-kur.de/"}}, {"name": "Geriatrische Rehaklinik Brackenheim", "latitude": 49.0742323, "longitude": 9.0615186, "source": "osm", "_tags": {"amenity": "hospital", "emergency": "yes", "fax": "+49 7135 101-1115", "healthcare": "hospital", "level": "1", "name": "Geriatrische Rehaklinik Brackenheim", "operator": "SLK-Kliniken", "phone": "+49 7135 101-0", "source:metrics": "Bing"}}, {"name": "Zentrum für Psychische Gesundheit Neckar-Odenwald (ZfpG)", "latitude": 49.3559224, "longitude": 9.1532199, "source": "osm", "_tags": {"addr:city": "Mosbach", "addr:housenumber": "1", "addr:postcode": "74821", "addr:street": "Knopfweg", "amenity": "hospital", "healthcare": "hospital", "healthcare:speciality": "psychiatry", "name": "Zentrum für Psychische Gesundheit Neckar-Odenwald (ZfpG)", "operator": "Psychiatrischen Zentrums Nordbaden", "operator:type": "public"}}, {"name": "Robert-Bosch-Krankenhaus", "latitude": 48.8142575, "longitude": 9.1862984, "source": "osm", "_tags": {"amenity": "hospital", "beds": "677", "emergency": "yes", "healthcare": "hospital", "name": "Robert-Bosch-Krankenhaus", "opening_hours": "24/7", "phone": "+4971181010", "website": "https://www.rbk.de/", "wheelchair": "yes", "wikidata": "Q7341140", "wikimedia_commons": "Category:Robert-Bosch-Krankenhaus", "wikipedia": "de:Robert-Bosch-Krankenhaus"}}, {"name": "Kraichtal-Kliniken Therapiezentrum Münzesheim", "latitude": 49.1226705, "longitude": 8.7306817, "source": "osm", "_tags": {"amenity": "hospital", "email": "info@kraichtal-kliniken.de", "healthcare": "hospital", "internet_access": "wlan", "name": "Kraichtal-Kliniken Therapiezentrum Münzesheim", "opening_hours": "24/7", "phone": "07250 60-511", "website": "https://www.kraichtal-kliniken.de/kliniken/therapiezentrum-muenzesheim/", "wheelchair": "yes"}}, {"name": "Zentrum für Psychiatrie Winnenden", "latitude": 48.8716753, "longitude": 9.3962975, "source": "osm", "_tags": {"amenity": "hospital", "healthcare": "hospital", "leisure": "park", "name": "Zentrum für Psychiatrie Winnenden"}}, {"name": "Klinikum Schloß Winnenden", "latitude": 48.8723545, "longitude": 9.3982117, "source": "osm", "_tags": {"addr:city": "Winnenden", "addr:housenumber": "50", "addr:postcode": "71364", "addr:street": "Schloßstraße", "alt_name": "Schloß Winnenden", "amenity": "hospital", "beds": "572", "building": "hospital", "healthcare": "hospital", "historic": "castle", "name": "Klinikum Schloß Winnenden", "operator": "Zentrum für Psychiatrie Winnenden"}}, {"name": "Haus B - Klinik für Alterspsychiatrie", "latitude": 48.8708087, "longitude": 9.3970565, "source": "osm", "_tags": {"addr:city": "Winnenden", "addr:housenumber": "58", "addr:postcode": "71364", "addr:street": "Schloßstraße", "building": "hospital", "healthcare": "hospital", "name": "Haus B - Klinik für Alterspsychiatrie", "operator": "Zentrum für Psychiatrie Winnenden"}}, {"name": "Haus A - Klinik für Alterspsychiatrie", "latitude": 48.8716886, "longitude": 9.3963909, "source": "osm", "_tags": {"addr:city": "Winnenden", "addr:housenumber": "56", "addr:postcode": "71364", "addr:street": "Schloßstraße", "building": "hospital", "healthcare": "hospital", "healthcare:speciality": "psychiatry", "name": "Haus A - Klinik für Alterspsychiatrie", "operator": "Zentrum für Psychiatrie Winnenden"}}, {"name": "Haus D - Klinik für Psychiatrie;Ergotherapie", "latitude": 48.8726558, "longitude": 9.3955465, "source": "osm", "_tags": {"addr:city": "Winnenden", "addr:housenumber": "36", "addr:postcode": "71364", "addr:street": "Schloßstraße", "building": "hospital", "healthcare": "hospital", "healthcare:speciality": "occupational;psychiatry", "name": "Haus D - Klinik für Psychiatrie;Ergotherapie", "operator": "Zentrum für Psychiatrie Winnenden"}}, {"name": "Klinikum am Weissenhof", "latitude": 49.1663791, "longitude": 9.2921797, "source": "osm", "_tags": {"amenity": "hospital", "healthcare": "hospital", "healthcare:speciality": "psychiatry;child_psychiatry", "name": "Klinikum am Weissenhof", "wikidata": "Q1774661", "wikipedia": "de:Klinikum am Weissenhof"}}, {"name": "Klinik Öschelbronn CIMK", "latitude": 48.9035495, "longitude": 8.82459, "source": "osm", "_tags": {"amenity": "hospital", "building": "hospital", "healthcare": "hospital", "name": "Klinik Öschelbronn CIMK", "note": "Centrum für integrative Medizin und Krebstherapie"}}, {"name": "Libermenta Klinik Schloss Freudental", "latitude": 49.0087275, "longitude": 9.061526, "source": "osm", "_tags": {"addr:city": "Freudental", "addr:country": "DE", "addr:housenumber": "4", "addr:postcode": "74392", "addr:street": "Schlossplatz", "amenity": "hospital", "building": "yes", "email": "kliniken@libermenta.com", "healthcare": "hospital", "healthcare:speciality": "psychiatry", "name": "Libermenta Klinik Schloss Freudental", "operator": "BühlerHealthCare AG", "phone": "+49 7143 330880", "website": "https://www.libermenta.com/standorte/schloss-freudental/", "wikipedia": "de:Schloss Freudental (Freudental)"}}, {"name": "Psychiatrische Tagesklinik", "latitude": 49.1382951, "longitude": 9.231798, "source": "osm", "_tags": {"amenity": "hospital", "check_date": "2024-04-20", "healthcare": "hospital", "name": "Psychiatrische Tagesklinik", "website": "https://www.klinikum-weissenhof.de/"}}, {"name": "SLK-Klinik Gesundbrunnen", "latitude": 49.1532797, "longitude": 9.19082, "source": "osm", "_tags": {"addr:city": "Heilbronn", "addr:country": "DE", "addr:housenumber": "20-26", "addr:postcode": "74078", "addr:street": "Am Gesundbrunnen", "amenity": "hospital", "beds": "969", "healthcare": "hospital", "name": "SLK-Klinik Gesundbrunnen", "website": "https://www.slk-kliniken.de/", "wheelchair": "yes", "wikidata": "Q50039763"}}, {"name": "Rems-Murr-Klinikum Winnenden", "latitude": 48.869197, "longitude": 9.3927256, "source": "osm", "_tags": {"addr:city": "Winnenden", "addr:postcode": "71364", "addr:street": "Am Jakobsweg", "amenity": "hospital", "healthcare": "hospital", "name": "Rems-Murr-Klinikum Winnenden", "wheelchair": "yes", "wikidata": "Q30260683"}}, {"name": "Krankenhaus Marbach", "latitude": 48.943233, "longitude": 9.2578928, "source": "osm", "_tags": {"addr:city": "Marbach am Neckar", "addr:country": "DE", "addr:housenumber": "8", "addr:postcode": "71672", "addr:street": "Im Bannmüller", "amenity": "hospital", "building": "yes", "emergency": "no", "healthcare": "hospital", "name": "Krankenhaus Marbach", "source:geometry": "Maps4BW, LGL, www.lgl-bw.de", "toilets:wheelchair": "yes", "wheelchair": "yes"}}, {"name": "Klinikum am Plattenwald", "latitude": 49.2117124, "longitude": 9.2371254, "source": "osm", "_tags": {"amenity": "hospital", "contact:fax": "+49 7136 28-4750001", "contact:phone": "+49 7136 28-0", "contact:website": "https://www.slk-kliniken.de/ueber-uns/standorte/klinikum-am-plattenwald", "emergency": "yes", "healthcare": "hospital", "name": "Klinikum am Plattenwald", "opening_hours": "24/7", "operator": "SLK-Kliniken Heilbronn GmbH", "wheelchair": "yes"}}, {"name": "GRN-Betreuungszentrum Sinsheim", "latitude": 49.2522172, "longitude": 8.8877404, "source": "osm", "_tags": {"addr:city": "Sinsheim", "addr:country": "DE", "addr:housenumber": "1", "addr:postcode": "74889", "addr:street": "Alte Waibstadter Straße", "amenity": "hospital", "healthcare": "rehabilitation", "name": "GRN-Betreuungszentrum Sinsheim", "operator": "Gesundheitszentren Rhein-Neckar", "operator:short": "GRN", "operator:type": "private_non_profit", "operator:wikidata": "Q48754438", "wheelchair": "yes", "wikidata": "Q48754438", "wikipedia": "de:GRN-Betreuungszentrum Sinsheim"}}, {"name": "GRN-Klinik Sinsheim", "latitude": 49.2524967, "longitude": 8.8910048, "source": "osm", "_tags": {"amenity": "hospital", "emergency": "yes", "healthcare": "hospital", "healthcare:speciality": "general;gynaecology;surgery;emergency;neurology;angiology;vascular_surgery;gastroenterology", "name": "GRN-Klinik Sinsheim", "operator": "Gesundheitszentren Rhein-Neckar", "operator:short": "GRN", "operator:type": "private_non_profit", "operator:wikidata": "Q48754458", "phone": "+49 7261 660", "wheelchair": "yes", "wikidata": "Q91452965", "wikipedia": "de:GRN-Klinik Sinsheim"}}, {"name": "Eleonoren-Klinik", "latitude": 49.7181004, "longitude": 8.7784961, "source": "osm", "_tags": {"addr:city": "Lindenfels", "addr:country": "DE", "addr:housenumber": "6", "addr:postcode": "64678", "addr:street": "Am Kaiserturm", "addr:suburb": "Winterkasten", "alt_name": "Eleonorenklinik", "amenity": "hospital", "fax": "+49-6255-2599", "healthcare": "hospital", "name": "Eleonoren-Klinik", "operator": "Deutsche Rentenversicherung Hessen", "phone": "+49-6255-3020", "website": "https://www.eleonoren-klinik.de"}}, {"name": "Krankenhaus Hardheim", "latitude": 49.6116916, "longitude": 9.4706125, "source": "osm", "_tags": {"addr:city": "Hardheim", "addr:country": "DE", "addr:housenumber": "95", "addr:postcode": "74736", "addr:street": "Wertheimer Straße", "amenity": "hospital", "building": "hospital", "contact:email": "info@khv-ha-wa.de", "contact:phone": "+49 6283 56-110", "emergency": "yes", "name": "Krankenhaus Hardheim", "website": "https://www.khv-ha-wa.de/krankenhaus/", "wheelchair": "yes", "wikidata": "Q61719611", "wikipedia": "de:Krankenhaus Hardheim"}}, {"name": "Kreiskrankenhaus TBB Haus Ⅰ", "latitude": 49.6297701, "longitude": 9.6737019, "source": "osm", "_tags": {"addr:city": "Tauberbischofsheim", "addr:housenumber": "37", "addr:postcode": "97941", "addr:street": "Albert-Schweitzer-Straße", "amenity": "hospital", "building": "hospital", "healthcare": "hospital", "name": "Kreiskrankenhaus TBB Haus Ⅰ"}}, {"name": "Kreiskrankenhaus TBB Haus Ⅱ", "latitude": 49.6303868, "longitude": 9.6722761, "source": "osm", "_tags": {"addr:city": "Tauberbischofsheim", "addr:housenumber": "16", "addr:postcode": "97941", "addr:street": "Am Heimbergsflur", "amenity": "hospital", "building": "hospital", "healthcare": "hospital", "name": "Kreiskrankenhaus TBB Haus Ⅱ"}}, {"name": "DRK Seniorenzentrum", "latitude": 48.949535, "longitude": 8.8361464, "source": "osm", "_tags": {"addr:city": "Mühlacker", "addr:country": "DE", "addr:housenumber": "12/4", "addr:postcode": "75417", "addr:street": "Goethestraße", "amenity": "hospital", "brand": "Deutsches Rotes Kreuz", "brand:short": "DRK", "brand:wikidata": "Q694104", "brand:wikipedia": "de:Deutsches Rotes Kreuz", "building": "yes", "check_date": "2024-11-24", "healthcare": "hospital", "name": "DRK Seniorenzentrum", "operator": "Kreisverband Pforzheim-Enzkreis e.V."}}, {"name": "Rosentrittklinik", "latitude": 49.2377248, "longitude": 9.1133685, "source": "osm", "_tags": {"addr:city": "Bad Rappenau", "addr:country": "DE", "addr:housenumber": "28", "addr:postcode": "74906", "addr:street": "Salinenstraße", "amenity": "hospital", "email": "info@rosentrittklinik.de", "emergency": "no", "health_facility:type": "therapy", "healthcare": "hospital", "healthcare:speciality": "oncology;rheumatology;orthopaedics;dermatology;pulmonology", "medical_system:western": "yes", "name": "Rosentrittklinik", "note": "Die Lokalisierung der Klinik innerhalb des Gesamtgebäudes ist nur ungefähr, zumal die Kliniken ja eng zusammenarbeiten. Immerhin sollte sie ausreichen, um das Klinik-Symbol (samt Name) an der richtigen Stelle des Komplexes anzuzeigen.", "operator": "Kur- und Klinikverwaltung Bad Rappenau GmbH", "phone": "+49 7264 830", "website": "https://www.kurbadrappenau.de/kliniken/rosentrittklinik/", "wheelchair": "yes"}}, {"name": "Vulpius Klinik", "latitude": 49.243801, "longitude": 9.0926158, "source": "osm", "_tags": {"amenity": "hospital", "building": "hospital", "email": "info@vulpiusklinik.de", "healthcare": "hospital", "healthcare:speciality": "orthopaedics", "name": "Vulpius Klinik", "phone": "+49 7264 600", "website": "https://www.vulpiusklinik.de", "wikidata": "Q15134186"}}, {"name": "GRN-Klinik Eberbach", "latitude": 49.4632668, "longitude": 8.9912202, "source": "osm", "_tags": {"addr:city": "Eberbach", "addr:country": "DE", "addr:housenumber": "3", "addr:postcode": "69412", "addr:street": "Scheuerbergstraße", "amenity": "hospital", "name": "GRN-Klinik Eberbach", "old_name": "Kreiskrankenhaus Eberbach", "website": "https://www.grn.de/klinik-eberbach/", "wikidata": "Q92801870"}}, {"name": "Salinenklinik", "latitude": 49.2390308, "longitude": 9.1128275, "source": "osm", "_tags": {"addr:city": "Bad Rappenau", "addr:country": "DE", "addr:housenumber": "43", "addr:postcode": "74906", "addr:street": "Salinenstraße", "amenity": "hospital", "building": "yes", "email": "info@salinenklinik.de", "emergency": "no", "fax": "+49 7264 825165", "health_facility:type": "therapy", "healthcare": "hospital", "healthcare:speciality": "orthopaedics", "medical_system:western": "yes", "name": "Salinenklinik", "operator": "Kur- und Klinikverwaltung Bad Rappenau GmbH", "phone": "+49 7264 825170", "source:geometry": "Maps4BW, LGL, www.lgl-bw.de/Esri World Imagery (Clarity) Beta/Bing aerial imagery", "website": "http://www.salinen-klinik.de/", "wheelchair": "yes"}}, {"name": "Sophie-Luisen-Klinik", "latitude": 49.238036, "longitude": 9.1136226, "source": "osm", "_tags": {"addr:city": "Bad Rappenau", "addr:country": "DE", "addr:housenumber": "28", "addr:postcode": "74906", "addr:street": "Salinenstraße", "amenity": "hospital", "email": "info@sophie-luisen-klinik.de", "emergency": "no", "fax": "+49 7264 933444", "health_facility:type": "therapy", "healthcare": "hospital", "medical_system:western": "yes", "name": "Sophie-Luisen-Klinik", "note": "Die Lokalisierung der Klinik innerhalb des Gesamtgebäudes ist nur ungefähr, zumal die Kliniken ja eng zusammenarbeiten. Immerhin sollte sie ausreichen, um das Klinik-Symbol (samt Name) an der richtigen Stelle des Komplexes anzuzeigen.", "operator": "Kur- und Klinikverwaltung Bad Rappenau GmbH", "phone": "+49 7264 93300", "website": "http://www.sophie-luisen-klinik.de/", "wheelchair": "yes"}}, {"name": "Kraichgau-Klinik", "latitude": 49.2408188, "longitude": 9.109879, "source": "osm", "_tags": {"addr:city": "Bad Rappenau", "addr:country": "DE", "addr:housenumber": "15", "addr:postcode": "74906", "addr:street": "Fritz-Hagner-Promenade", "amenity": "hospital", "building": "yes", "emergency": "no", "fax": "+49 7264 802115", "health_facility:type": "therapy", "healthcare": "hospital", "medical_system:western": "yes", "name": "Kraichgau-Klinik", "operator": "MediClin AG", "phone": "+49 7264 8020", "website": "https://www.kraichgau-klinik.de/", "wheelchair": "yes"}}, {"name": "Hohenloher Krankenhaus Öhringen", "latitude": 49.2053694, "longitude": 9.4979375, "source": "osm", "_tags": {"amenity": "hospital", "building": "yes", "check_date": "2024-12-23", "emergency": "yes", "healthcare": "hospital", "name": "Hohenloher Krankenhaus Öhringen", "wheelchair": "yes"}}, {"name": "Klinik Am Lerchenberg", "latitude": 49.1372794, "longitude": 9.2327884, "source": "osm", "_tags": {"amenity": "hospital", "check_date": "2024-04-20", "healthcare": "hospital", "name": "Klinik Am Lerchenberg", "wheelchair": "limited"}}, {"name": "Fachklinik Friedrichshof", "latitude": 49.1167774, "longitude": 9.4151319, "source": "osm", "_tags": {"amenity": "hospital", "name": "Fachklinik Friedrichshof", "website": "http://www.friedrichshof.info/"}}, {"name": "Krankenhaus Ludwigsburg", "latitude": 48.8988016, "longitude": 9.2037305, "source": "osm", "_tags": {"amenity": "hospital", "name": "Krankenhaus Ludwigsburg", "wheelchair": "yes"}}, {"name": "Klinik Schloss Waldleiningen", "latitude": 49.5669676, "longitude": 9.1170645, "source": "osm", "_tags": {"amenity": "hospital", "email": "info@schloss-waldleiningen.de", "fax": "+49 6284 74140", "healthcare": "rehabilitation", "name": "Klinik Schloss Waldleiningen", "phone": "+49 6284 740", "website": "https://schloss-waldleiningen.de/", "wikidata": "Q114665558"}}, {"name": "Frauen-Kind-Zentrum", "latitude": 48.8977697, "longitude": 9.2035341, "source": "osm", "_tags": {"amenity": "hospital", "building": "yes", "healthcare": "hospital", "name": "Frauen-Kind-Zentrum", "operator": "Regionale Kliniken Holding RKH GmbH"}}, {"name": "", "latitude": 49.7450592, "longitude": 9.0051162, "source": "osm", "_tags": {"building": "yes", "healthcare": "hospital", "layer": "1"}}, {"name": "Orthopädische Klinik Markgröningen", "latitude": 48.9084835, "longitude": 9.1073604, "source": "osm", "_tags": {"addr:city": "Markgröningen", "addr:housenumber": "10", "addr:postcode": "71706", "addr:street": "Kurt-Lindemann-Weg", "alt_name": "Klinik", "amenity": "hospital", "health_specialty": "orthopedics", "healthcare": "hospital", "name": "Orthopädische Klinik Markgröningen", "phone": "+49 7145 91-0", "toilets:wheelchair": "yes", "website": "http://www.okm.de", "wheelchair": "yes", "wheelchair:description": "Querschnittstation"}}, {"name": "Helios Klinik Erlenbach", "latitude": 49.8109545, "longitude": 9.1666382, "source": "osm", "_tags": {"addr:city": "Erlenbach a. Main", "addr:housenumber": "45", "addr:postcode": "63906", "addr:street": "Krankenhausstraße", "alt_name": "Krankenhaus Erlenbach", "amenity": "hospital", "emergency": "yes", "fax": "+49 9372 7001009", "healthcare": "hospital", "name": "Helios Klinik Erlenbach", "operator": "Helios Kliniken", "operator:type": "private", "operator:wikidata": "Q1254151", "phone": "+49 9372 700", "source": "bing", "website": "https://www.helios-gesundheit.de/kliniken/erlenbach/", "wheelchair": "yes"}}, {"name": "Odenwald Hospiz", "latitude": 49.5887404, "longitude": 9.3550058, "source": "osm", "_tags": {"addr:city": "Walldürn", "addr:housenumber": "21a", "addr:postcode": "74731", "addr:street": "Pater-Josef-Eckstein-Straße", "amenity": "hospital", "building": "hospital", "emergency": "no", "healthcare": "hospital", "name": "Odenwald Hospiz", "operator": "OH Odenwald Hospiz gGmbH", "wikidata": "Q110514796"}}, {"name": "Krankenhaus Bietigheim-Bissingen", "latitude": 48.957268, "longitude": 9.1353273, "source": "osm", "_tags": {"addr:housenumber": "12", "addr:street": "Riedstraße", "amenity": "hospital", "check_date": "2024-02-23", "emergency": "yes", "healthcare": "hospital", "internet_access": "wlan", "internet_access:fee": "no", "internet_access:ssid": "Patienten_Internet_RKH", "name": "Krankenhaus Bietigheim-Bissingen", "opening_hours": "24/7", "operator": "RKH Regionale Kliniken Holding und Services GmbH", "phone": "+49 7142 790", "toilets:wheelchair": "yes", "website": "https://www.rkh-gesundheit.de/kliniken-zentren/unsere-kliniken/krankenhaus-bietigheim-vaihingen/", "wheelchair": "yes"}}, {"name": "Gesundheitszentrum Besigheim", "latitude": 48.9981818, "longitude": 9.1371966, "source": "osm", "_tags": {"amenity": "hospital", "building": "yes", "healthcare": "hospital", "name": "Gesundheitszentrum Besigheim"}}, {"name": "Orthopädische Klinik", "latitude": 49.4087725, "longitude": 8.773225, "source": "osm", "_tags": {"addr:city": "Heidelberg", "addr:country": "DE", "addr:housenumber": "200a", "addr:postcode": "69118", "addr:street": "Schlierbacher Landstraße", "addr:suburb": "Schlierbach", "amenity": "hospital", "check_date": "2025-08-31", "healthcare": "hospital", "name": "Orthopädische Klinik", "phone": "+49 6221 5625000", "toilets:wheelchair": "yes", "wheelchair": "yes"}}, {"name": "Klinik Dres. Denzel", "latitude": 49.1355335, "longitude": 9.2316069, "source": "osm", "_tags": {"addr:city": "Heilbronn", "addr:country": "DE", "addr:housenumber": "51", "addr:postcode": "74074", "addr:street": "Gutenbergstraße", "amenity": "hospital", "check_date": "2024-11-20", "description": "Praxis und Fachklinik in Heilbronn", "healthcare": "hospital", "name": "Klinik Dres. Denzel", "website": "https://klinik-denzel.de/"}}, {"name": "Neckar-Odenwald Kliniken Mosbach", "latitude": 49.3557174, "longitude": 9.1532576, "source": "osm", "_tags": {"addr:city": "Mosbach", "addr:country": "DE", "addr:housenumber": "1", "addr:postcode": "74821", "addr:street": "Knopfweg", "amenity": "hospital", "healthcare": "hospital", "name": "Neckar-Odenwald Kliniken Mosbach", "operator": "Neckar-Odenwald Kliniken gGmbH"}}, {"name": "Neckar-Odenwald Kliniken Buchen", "latitude": 49.524074, "longitude": 9.308452, "source": "osm", "_tags": {"addr:city": "Buchen (Odenwald)", "addr:country": "DE", "addr:housenumber": "37", "addr:postcode": "74722", "addr:street": "Dr.-Konrad-Adenauer-Straße", "amenity": "hospital", "emergency": "yes", "healthcare": "hospital", "healthcare:speciality": "intensive;emergency;gynaecology;surgery;internal;orthopaedics", "name": "Neckar-Odenwald Kliniken Buchen", "operator": "Neckar-Odenwald Kliniken gGmbH", "operator:type": "public", "website": "https://www.neckar-odenwald-kliniken.de/"}}, {"name": "Asklepios Schlossberg Klinik Bad König", "latitude": 49.7451173, "longitude": 9.0050403, "source": "osm", "_tags": {"addr:city": "Bad König", "addr:country": "DE", "addr:housenumber": "33", "addr:postcode": "64732", "addr:street": "Frankfurter Straße", "amenity": "hospital", "healthcare": "hospital", "healthcare:speciality": "neurology rehabiltation", "name": "Asklepios Schlossberg Klinik Bad König", "operator": "Asklepios Kliniken", "operator:type": "private", "operator:wikidata": "Q732068"}}, {"name": "Kreiskrankenhaus Erbach", "latitude": 49.6516651, "longitude": 9.0006747, "source": "osm", "_tags": {"addr:city": "Erbach", "addr:country": "DE", "addr:housenumber": "10 - 20", "addr:postcode": "64711", "addr:street": "Albert-Schweitzer-Straße", "amenity": "hospital", "emergency": "yes", "healthcare": "hospital", "name": "Kreiskrankenhaus Erbach", "operator": "Gesundheitszentrum Odenwaldkreis GmbH", "wheelchair": "yes"}}, {"name": "", "latitude": 49.3884362, "longitude": 8.7388365, "source": "osm", "_tags": {"amenity": "hospital", "healthcare": "hospital"}}, {"name": "Kinderzentrum Maulbronn", "latitude": 49.0006276, "longitude": 8.8009491, "source": "osm", "_tags": {"addr:city": "Maulbronn", "addr:country": "DE", "addr:housenumber": "21", "addr:postcode": "75433", "addr:street": "Knittlinger Steige", "amenity": "hospital", "contact:email": "sekretariat@kize.de", "contact:fax": "+49 7043 16-1340", "contact:phone": "+49 7043 16-0", "contact:website": "https://www.kize.de/", "description": "Sozialpädiatrischen Zentrum (SPZ)", "emergency": "no", "healthcare": "hospital", "healthcare:speciality": "paediatrics", "landuse": "healthcare", "name": "Kinderzentrum Maulbronn", "official_name": "Klinik für Kinderneurologie und Sozialpädiatrie Kinderzentrum Maulbronn", "operator": "Klinik für Kinderneurologie und Sozialpädiatrie Kinderzentrum Maulbronn gGmbH", "short_name": "KIZE"}}, {"name": "RKH Krankenhaus Mühlacker", "latitude": 48.9503898, "longitude": 8.8602289, "source": "osm", "_tags": {"amenity": "hospital", "healthcare": "hospital", "name": "RKH Krankenhaus Mühlacker", "toilets:wheelchair": "yes", "wheelchair": "yes"}}, {"name": "", "latitude": 49.0072097, "longitude": 9.4565928, "source": "osm", "_tags": {"amenity": "hospital", "healthcare": "hospital"}}, {"name": "MEDIAN Vesalius-Klinik Bad Rappenau", "latitude": 49.2369121, "longitude": 9.1068197, "source": "osm", "_tags": {"addr:housenumber": "12", "addr:street": "Salinenstraße", "amenity": "hospital", "email": "vesalius-klinik@median-kliniken.de", "emergency": "no", "healthcare": "hospital", "healthcare:speciality": "orthopaedics;psychosomatic medicine", "name": "MEDIAN Vesalius-Klinik Bad Rappenau", "operator": "RHM-Klinikbeteiligungs GmbH", "phone": "+49 7264 966000", "website": "https://www.median-kliniken.de/de/median-vesalius-klinik-bad-rappenau/", "wheelchair": "yes"}}, {"name": "Klinikum Schloß Winnenden", "latitude": 48.8736874, "longitude": 9.3984138, "source": "osm", "_tags": {"amenity": "hospital", "healthcare": "physiotherapist", "name": "Klinikum Schloß Winnenden"}}, {"name": "Bürgerspital Wertheim", "latitude": 49.7611739, "longitude": 9.4980076, "source": "osm", "_tags": {"addr:city": "Wertheim", "addr:housenumber": "2", "addr:postcode": "97877", "addr:street": "Rotkreuzstraße", "amenity": "hospital", "healthcare": "hospital", "name": "Bürgerspital Wertheim"}}, {"name": "Hauptgebäude Klinikum Ludwigsburg", "latitude": 48.8989042, "longitude": 9.203417, "source": "osm", "_tags": {"addr:city": "Ludwigsburg", "addr:country": "DE", "addr:housenumber": "4", "addr:postcode": "71640", "addr:street": "Posilipostraße", "amenity": "hospital", "beds": "1005", "building": "hospital", "building:levels": "12", "building:levels:underground": "4", "fixme": "Besteht aus mehreren Gebäudenteilen mit unterschiedlichen Nutzungen/Fachrichtungen und Stockwerkszahlen", "healthcare": "hospital", "height": "35", "name": "Hauptgebäude Klinikum Ludwigsburg", "opening_hours": "24/7", "operational_status": "Operational", "operator": "Regionale Kliniken Holding RKH GmbH", "operator:type": "private/for-profit", "phone": "+49 7141 9990", "smoking": "isolated", "type": "multipolygon", "website": "https://www.rkh-gesundheit.de/kliniken-zentren/unsere-kliniken/klinikum-ludwigsburg/", "wheelchair": "yes"}}, {"name": "Enzkreisklinik Mühlacker", "latitude": 48.950666, "longitude": 8.8606918, "source": "osm", "_tags": {"addr:city": "Mühlacker", "addr:country": "DE", "addr:housename": "Enzkreisklinik Mühlacker", "addr:housenumber": "34", "addr:postcode": "75417", "addr:street": "Hermann-Hesse-Straße", "building": "hospital", "email": "info.mu@kliniken-ek.de", "fax": "+49 7041-15-50109", "healthcare": "hospital", "name": "Enzkreisklinik Mühlacker", "phone": "+49 7041-15-1", "type": "multipolygon", "website": "http://www.enzkreis-kliniken.de/"}}, {"name": "Diakonie-Klinik Mosbach", "latitude": 49.3622266, "longitude": 9.1522483, "source": "osm", "_tags": {"addr:city": "Mosbach", "addr:country": "DE", "addr:housenumber": "6", "addr:postcode": "74821", "addr:street": "Neckarburkener Straße", "amenity": "hospital", "building": "hospital", "building:levels": "3", "emergency": "no", "healthcare": "hospital", "healthcare:speciality": "psychiatry", "name": "Diakonie-Klinik Mosbach", "operator": "Diakonisches Werk", "operator:type": "religious", "phone": "+49 6261 88 0", "source:addr": "LGL, www.lgl-bw.de", "type": "multipolygon", "website": "https://www.johannes-diakonie.de/ueber-uns/standorte/gesundheit-kliniken/diakonie-klinik-mosbach.html", "wikidata": "Q121322329"}}]