[{"name": "Landstuhl Regional Medical Center", "latitude": 49.4042184, "longitude": 7.5602942, "source": "osm", "_tags": {"amenity": "hospital", "email": "LRMCPublicAffairs@amedd.army.mil", "emergency": "yes", "healthcare": "hospital", "name": "Landstuhl Regional Medical Center", "opening_hours": "24/7", "operator": "US Army Europe Regional Medical Command", "phone": "+49 6371868106", "website": "https://ermc.amedd.army.mil/landstuhl/", "wikidata": "Q778782", "wikipedia": "en:Landstuhl Regional Medical Center"}}, {"name": "Centre de Réadaptation Fonctionnelle", "latitude": 48.9501479, "longitude": 7.6420859, "source": "osm", "_tags": {"amenity": "hospital", "emergency": "no", "healthcare": "hospital", "name": "Centre de Réadaptation Fonctionnelle", "ref:FR:FINESS": "670780592", "type:FR:FINESS": "109"}}, {"name": "Clinique Ophtalmologique", "latitude": 49.1845353, "longitude": 6.8985744, "source": "osm", "_tags": {"amenity": "hospital", "healthcare": "clinic", "healthcare:speciality": "ophthalmology", "name": "Clinique Ophtalmologique"}}, {"name": "Nardiniklinikum St. Elisabeth", "latitude": 49.2463611, "longitude": 7.3630101, "source": "osm", "_tags": {"amenity": "hospital", "check_date": "2025-07-14", "contact:phone": "+49 6332 472191", "emergency": "yes", "healthcare": "hospital", "name": "Nardiniklinikum St. Elisabeth", "wheelchair": "yes"}}, {"name": "Diakonie-Krankenhaus", "latitude": 49.7945675, "longitude": 7.455733, "source": "osm", "_tags": {"amenity": "hospital", "contact:phone": "+49 6752 133-0", "contact:website": "https://www.kreuznacherdiakonie.de/krankenhaeuser/diakonie-krankenhaus-kirn/", "emergency": "yes", "healthcare": "hospital", "name": "Diakonie-Krankenhaus", "opening_hours": "24/7", "wheelchair": "yes"}}, {"name": "Marienkliniken Sankt Josef Losheim", "latitude": 49.5088718, "longitude": 6.7400396, "source": "osm", "_tags": {"amenity": "hospital", "healthcare": "hospital", "name": "Marienkliniken Sankt Josef Losheim", "wheelchair": "yes"}}, {"name": "CaritasKlinikum Saarbrücken St. Theresia", "latitude": 49.2484354, "longitude": 6.9597121, "source": "osm", "_tags": {"addr:city": "Saarbrücken", "addr:country": "DE", "addr:housenumber": "2", "addr:postcode": "66113", "addr:street": "Rheinstraße", "alt_name": "Caritas-Klinik St. Theresia", "amenity": "hospital", "contact:fax": "+49 681 406-2979", "contact:phone": "+49 681 406-0", "contact:website": "https://www.caritasklinik.de/", "emergency": "yes", "healthcare": "hospital", "name": "CaritasKlinikum Saarbrücken St. Theresia", "old_name": "Rastpfuhl-Krankenhaus", "operator": "Caritas Trägergesellschaft Saarbrücken mbH (cts)", "operator:wikidata": "Q1036345", "wheelchair": "yes", "wikidata": "Q1036327", "wikipedia": "de:CaritasKlinikum Saarbrücken"}}, {"name": "CaritasKlinikum Saarbrücken St. Josef Dudweiler", "latitude": 49.2770456, "longitude": 7.0412831, "source": "osm", "_tags": {"addr:city": "Saarbrücken", "addr:country": "DE", "addr:housenumber": "14", "addr:postcode": "66125", "addr:street": "Klosterstraße", "amenity": "hospital", "check_date": "2025-05-31", "contact:website": "https://www.caritasklinikum.de/", "emergency": "yes", "healthcare": "hospital", "name": "CaritasKlinikum Saarbrücken St. Josef Dudweiler", "operator": "Caritas Trägergesellschaft Saarbrücken mbH (cts)", "operator:wikidata": "Q1036345", "wheelchair": "yes", "wikidata": "Q1036327", "wikipedia": "de:CaritasKlinikum Saarbrücken"}}, {"name": "Klinikum Winterberg", "latitude": 49.2207818, "longitude": 6.9962557, "source": "osm", "_tags": {"addr:city": "Saarbrücken", "addr:country": "DE", "addr:housenumber": "1", "addr:postcode": "66119", "addr:street": "Winterberg", "amenity": "hospital", "contact:email": "info@klinikum-saarbruecken.de", "contact:phone": "+49 681 9630", "contact:website": "https://www.klinikum-saarbruecken.de/", "healthcare": "hospital", "name": "Klinikum Winterberg", "wheelchair": "yes", "wikidata": "Q1774651", "wikimedia_commons": "Category:Klinikum Saarbrücken"}}, {"name": "Kreiskrankenhaus St. Ingbert", "latitude": 49.2905501, "longitude": 7.1143481, "source": "osm", "_tags": {"amenity": "hospital", "area": "yes", "name": "Kreiskrankenhaus St. Ingbert", "wheelchair": "yes"}}, {"name": "Hopital St. André", "latitude": 49.1550612, "longitude": 6.8043277, "source": "osm", "_tags": {"amenity": "hospital", "healthcare": "hospital", "name": "Hopital St. André", "ref:FR:FINESS": "570004002", "type:FR:FINESS": "146"}}, {"name": "Krankenhaus Saarlouis vom DRK", "latitude": 49.3133614, "longitude": 6.7439744, "source": "osm", "_tags": {"amenity": "hospital", "contact:email": "info@drk-kliniken-saar.de", "contact:website": "http://www.drk-kliniken-saar.de.drktg.de/saarlouis/index.php", "emergency": "yes", "healthcare": "hospital", "name": "Krankenhaus Saarlouis vom DRK", "operator": "DRK gemeinnützige Krankenhausgesellschaft mbH Saarland", "toilets:wheelchair": "yes", "wheelchair": "yes"}}, {"name": "Marienhaus Klinikum St. Elisabeth Saarlouis", "latitude": 49.3151243, "longitude": 6.7572164, "source": "osm", "_tags": {"amenity": "hospital", "contact:phone": "+49 6831 16-0", "contact:website": "http://www.marienhaus-klinikum-saar.de/", "emergency": "yes", "healthcare": "hospital", "name": "Marienhaus Klinikum St. Elisabeth Saarlouis", "operator": "Marienhaus", "operator:wikidata": "Q20828783", "wheelchair": "yes"}}, {"name": "Städtisches Krankenhaus Pirmasens", "latitude": 49.1930324, "longitude": 7.6176774, "source": "osm", "_tags": {"addr:city": "Pirmasens", "addr:country": "DE", "addr:housenumber": "22", "addr:postcode": "66955", "addr:street": "Pettenkoferstraße", "amenity": "hospital", "building": "hospital", "contact:fax": "+49 6331 714 1023", "contact:phone": "+49 6331 714 0", "contact:website": "https://www.kh-pirmasens.de/", "emergency": "yes", "healthcare": "hospital", "name": "Städtisches Krankenhaus Pirmasens", "operator": "Städtisches Krankenhaus Pirmasens gGmbH", "toilets:wheelchair": "yes", "wheelchair": "yes"}}, {"name": "Diakonie-Klinikum Neunkirchen", "latitude": 49.3409204, "longitude": 7.1830697, "source": "osm", "_tags": {"addr:city": "Neunkirchen", "addr:country": "DE", "addr:housenumber": "20", "addr:postcode": "66538", "addr:street": "Brunnenstraße", "amenity": "hospital", "brand:wikidata": "Q1293073", "emergency": "yes", "healthcare": "hospital", "name": "Diakonie-Klinikum Neunkirchen", "operator": "Diakonie Klinikum Neunkirchen gGmbH", "phone": "+49 6821 18-0", "website": "https://www.kreuznacherdiakonie.de/Krankenhaeuser/Diakonie-Klinikum-Neunkirchen/", "wheelchair": "yes"}}, {"name": "Marienkrankenhaus Sankt Wendel", "latitude": 49.4534166, "longitude": 7.1786714, "source": "osm", "_tags": {"amenity": "hospital", "email": "info.wnd@marienhaus.de", "emergency": "yes", "fax": "+49 6851 70136", "healthcare": "hospital", "healthcare:speciality": "geriatrics;psychiatry", "name": "Marienkrankenhaus Sankt Wendel", "opening_hours": "24/7", "operator": "Marienhaus Kliniken GmbH", "phone": "+49 6851 5901", "website": "https://www.mkh-wnd.de"}}, {"name": "Hôpital Saint-Joseph", "latitude": 48.9981818, "longitude": 7.0268503, "source": "osm", "_tags": {"addr:city": "Sarralbe", "addr:country": "FR", "addr:housenumber": "12", "addr:postcode": "57430", "addr:street": "rue de l'Hôpital", "amenity": "hospital", "email": "er@hopital-sarralbe.fr", "emergency": "no", "fax": "+33 3 87 97 02 66", "healthcare": "hospital", "name": "Hôpital Saint-Joseph", "operator:type": "private", "phone": "+33 3 87 97 32 00", "ref:FR:FINESS": "570000026", "type:FR:FINESS": "129", "website": "http://www.hopital-sarralbe.fr/"}}, {"name": "Centre Hospitalier Spécialisé de Sarreguemines", "latitude": 49.0990505, "longitude": 7.0904801, "source": "osm", "_tags": {"addr:city": "Sarreguemines", "addr:country": "FR", "addr:housenumber": "1", "addr:postcode": "57200", "addr:street": "Rue Calmette", "amenity": "hospital", "description:de": "Spezialisierte Zentralspital Steinbach", "emergency": "no", "fax": "+33 3 87 27 98 08", "healthcare": "hospital", "name": "Centre Hospitalier Spécialisé de Sarreguemines", "operator:type": "public", "phone": "+33 3 87 27 98 00", "ref:FR:FANTOIR": "57631A010B", "ref:FR:FINESS": "570000893", "type:FR:FINESS": "292", "website": "http://www.hopitaux-sarreguemines.fr/", "wikidata": "Q2945748", "wikipedia": "fr:Centre hospitalier spécialisé de Sarreguemines"}}, {"name": "Fliedner Krankenhaus Neunkirchen", "latitude": 49.3481651, "longitude": 7.1859385, "source": "osm", "_tags": {"amenity": "hospital", "emergency": "yes", "healthcare": "hospital", "name": "Fliedner Krankenhaus Neunkirchen", "opening_hours": "24/7", "phone": "+49 6821 901-0", "website": "https://www.kreuznacherdiakonie.de/krankenhaeuser/fliedner-krankenhaus-neunkirchen/"}}, {"name": "Nardini Klinikum St. Johannis", "latitude": 49.3990394, "longitude": 7.5824246, "source": "osm", "_tags": {"addr:city": "Landstuhl", "addr:country": "DE", "addr:housenumber": "30", "addr:postcode": "66849", "addr:street": "Nardinistraße", "amenity": "hospital", "building": "hospital", "emergency": "yes", "healthcare": "hospital", "healthcare:speciality": "surgery;gynaecology;internal;cardiology;anaesthetics;emergency;orthopaedics;radiology;trauma", "name": "Nardini Klinikum St. Johannis", "opening_hours": "24/7", "operator": "Nardini Klinikum GmbH", "wheelchair": "yes"}}, {"name": "Gebäude 1", "latitude": 49.3121302, "longitude": 7.3427953, "source": "osm", "_tags": {"addr:city": "Homburg", "addr:country": "DE", "addr:housenumber": "52", "addr:postcode": "66424", "addr:street": "Ringstraße", "blood:platelets": "yes", "blood:whole": "yes", "building": "yes", "healthcare": "hospital", "name": "Gebäude 1"}}, {"name": "SHG Kliniken Sonnenberg", "latitude": 49.2010196, "longitude": 7.0110284, "source": "osm", "_tags": {"addr:city": "Saarbrücken", "addr:housenumber": "10", "addr:postcode": "66119", "addr:street": "Sonnenbergstraße", "amenity": "hospital", "contact:website": "https://sb.shg-kliniken.de/", "emergency": "no", "name": "SHG Kliniken Sonnenberg", "name:fr": "Clinique SHG du Sonnenberg", "operator:wikidata": "Q2209199", "wheelchair": "yes", "wikidata": "Q83439062"}}, {"name": "SHG Fachklinik Tiefental", "latitude": 49.1985354, "longitude": 7.0162285, "source": "osm", "_tags": {"amenity": "hospital", "healthcare": "hospital", "name": "SHG Fachklinik Tiefental", "operator:wikidata": "Q2209199"}}, {"name": "SHG-Klinik für Kinder- und Jugendpsychiatrie und -psychotherapie", "latitude": 49.153145, "longitude": 7.0482445, "source": "osm", "_tags": {"amenity": "hospital", "name": "SHG-Klinik für Kinder- und Jugendpsychiatrie und -psychotherapie", "operator": "SHG-Kliniken Sonnenberg"}}, {"name": "Marienhaus Klinikum Neunkirchen", "latitude": 49.3177614, "longitude": 7.2273199, "source": "osm", "_tags": {"addr:city": "Neunkirchen", "addr:housenumber": "1-5", "addr:postcode": "66539", "addr:street": "Klinikweg", "amenity": "hospital", "email": "info.koh@marienhaus.de", "emergency": "yes", "fax": "+49 6821 363-2600", "healthcare": "hospital", "name": "Marienhaus Klinikum Neunkirchen", "old_name": "Marienhausklinik St. Josef Kohlhof", "opening_hours": "24/7", "phone": "+49 6821 363-0", "website": "https://www.marienhausklinik-st-josef-kohlhof.de/", "wheelchair": "yes"}}, {"name": "Baumholder Army Health Clinic", "latitude": 49.6154211, "longitude": 7.3291758, "source": "osm", "_tags": {"amenity": "hospital", "email": "LNDBHRweb@amedd.army.mil", "emergency": "yes", "healthcare": "hospital", "name": "Baumholder Army Health Clinic", "operator": "U.S. Army Regional Health Command Europe", "website": "https://rhce.amedd.army.mil/baumholder/"}}, {"name": "Gesundheitszentrum Glantal", "latitude": 49.7065332, "longitude": 7.6768326, "source": "osm", "_tags": {"addr:city": "Meisenheim", "addr:country": "DE", "addr:housenumber": "32", "addr:postcode": "55590", "addr:street": "Liebfrauenberg", "amenity": "hospital", "building": "hospital", "email": "info@gzg.landeskrankenhaus.de", "fax": "+49 6753 910-4350", "healthcare": "hospital", "name": "Gesundheitszentrum Glantal", "operator": "Landeskrankenhaus Rheinland-Pfalz", "phone": "+49 6753 910-0", "website": "https://www.gesundheitszentrum-glantal.de/", "wheelchair": "yes"}}, {"name": "Westpfalz-Klinikum Standort Kusel", "latitude": 49.5466167, "longitude": 7.3773385, "source": "osm", "_tags": {"addr:city": "Ruthweiler", "addr:postcode": "66869", "addr:street": "Im Flur", "alt_name": "Westpfalz-Klinikum Kusel", "amenity": "hospital", "contact:email": "info@westpfalz-klinikum.de", "contact:fax": "+49 6381 93-5702", "contact:phone": "+49 6381 93-0", "contact:website": "http://westpfalz-klinikum.de", "emergency": "yes", "healthcare": "hospital", "name": "Westpfalz-Klinikum Standort Kusel", "operator": "Westpfalz-Klinikum GmbH", "wikipedia": "de:Westpfalz-Klinikum"}}, {"name": "Klinik Püttlingen", "latitude": 49.2770024, "longitude": 6.8679765, "source": "osm", "_tags": {"alt_name": "Knappschaftskrankenhaus Püttlingen", "amenity": "hospital", "emergency": "yes", "fax": "+49 6898 55-2285", "healthcare": "hospital", "name": "Klinik Püttlingen", "operator": "Knappschaftsklinikum Saar GmbH", "phone": "+49 6898 55-0", "toilets:wheelchair": "yes", "website": "https://www.kksaar.de/krankenhaus-puettlingen.php", "wheelchair": "yes"}}, {"name": "Caritas-Krankenhaus Lebach", "latitude": 49.4190942, "longitude": 6.8896698, "source": "osm", "_tags": {"amenity": "hospital", "check_date": "2023-07-22", "email": "info@caritas-krankenhaus-lebach.de", "emergency": "yes", "fax": "+49 6881 501-142", "healthcare": "hospital", "internet_access": "no", "name": "Caritas-Krankenhaus Lebach", "operator": "cusanus trägergesellschaft trier mbH", "phone": "+49 6881 501-0", "website": "https://www.caritas-krankenhaus-lebach.de/", "wheelchair": "yes"}}, {"name": "ehemalige Knappschaftsklinik Quierschied", "latitude": 49.3119058, "longitude": 7.0366443, "source": "osm", "_tags": {"amenity": "hospital", "emergency": "no", "healthcare": "hospital", "name": "ehemalige Knappschaftsklinik Quierschied"}}, {"name": "Hôpital Saint-Joseph", "latitude": 49.0459087, "longitude": 7.4220063, "source": "osm", "_tags": {"addr:city": "Bitche", "addr:country": "FR", "addr:housenumber": "1a", "addr:postcode": "57230", "addr:street": "Rue de Lebach", "amenity": "hospital", "emergency": "yes", "fax": "+33387987676", "healthcare": "hospital", "name": "Hôpital Saint-Joseph", "name:de": "St. Joseph Krankenhaus", "name:en": "St. Joseph Hospital", "name:pfl": "Bitscher Spital", "phone": "+33387987600", "ref:FR:FINESS": "570000661", "ref:FR:SIRET": "26570005400066", "source": "Le ministère des solidarités et de la santé - 2021-01", "type:FR:FINESS": "355"}}, {"name": "Centre Hospitalier Marie-Madeleine", "latitude": 49.1823108, "longitude": 6.9129061, "source": "osm", "_tags": {"addr:city": "Forbach", "addr:country": "FR", "addr:housenumber": "2", "addr:postcode": "57604", "addr:street": "Rue Thérèse", "amenity": "hospital", "fax": "+33387888027", "name": "Centre Hospitalier Marie-Madeleine", "phone": "+33387888000", "ref:FR:FINESS": "570000059", "ref:FR:SIRET": "20002625000015", "source": "Le ministère des solidarités et de la santé - 2021-01", "type:FR:FINESS": "355"}}, {"name": "Klinikum Idar-Oberstein", "latitude": 49.7164349, "longitude": 7.3213609, "source": "osm", "_tags": {"amenity": "hospital", "contact:email": "info@io.shg-kliniken.de", "contact:fax": "+49 6781 66-1940", "contact:phone": "+49 6781 66-0", "contact:website": "https://io.shg-kliniken.de", "emergency": "yes", "healthcare": "hospital", "name": "Klinikum Idar-Oberstein", "opening_hours": "24/7", "operator": "Klinikum Idar-Oberstein GmbH", "wheelchair": "yes", "wikipedia": "de:Idar-Oberstein#Klinikum Idar-Oberstein"}}, {"name": "DRK-Elisabeth-Krankenhaus Birkenfeld", "latitude": 49.6456171, "longitude": 7.1598129, "source": "osm", "_tags": {"addr:city": "Birkenfeld", "addr:country": "DE", "addr:postcode": "55765", "addr:street": "Walter-Bleicker-Platz", "amenity": "hospital", "contact:email": "info@e-s-b.org", "contact:fax": "+49 6782 18-1104", "contact:phone": "+49 6782 18-0", "contact:website": "https://www.e-s-b.org/krankenhaus/", "healthcare": "hospital", "name": "DRK-Elisabeth-Krankenhaus Birkenfeld", "toilets:wheelchair": "yes", "wheelchair": "yes"}}, {"name": "Hôpital Le Neuenberg", "latitude": 48.8718753, "longitude": 7.4859908, "source": "osm", "_tags": {"addr:city": "Ingwiller", "addr:housenumber": "38", "addr:postcode": "67340", "addr:street": "Rue du Pasteur Herrmann", "amenity": "hospital", "healthcare": "hospital", "name": "Hôpital Le Neuenberg"}}, {"name": "Klinik für Geriatrie und Neurologie", "latitude": 49.563483, "longitude": 6.8078381, "source": "osm", "_tags": {"addr:city": "Weiskirchen", "addr:country": "DE", "addr:housenumber": "41", "addr:postcode": "66709", "addr:street": "Auf der Flachsbach", "amenity": "hospital", "building": "yes", "healthcare:speciality": "geriatrics;neurology", "name": "Klinik für Geriatrie und Neurologie", "operator": "Hochwald-Kliniken", "operator:type": "private"}}, {"name": "Knappschaftskrankenhaus Sulzbach", "latitude": 49.2977707, "longitude": 7.0547666, "source": "osm", "_tags": {"amenity": "hospital", "name": "Knappschaftskrankenhaus Sulzbach", "wikidata": "Q1776900", "wikimedia_commons": "Category:Klinik Sulzbach"}}, {"name": "Regioklinik St. Josef", "latitude": 49.6575672, "longitude": 6.9474417, "source": "osm", "_tags": {"amenity": "hospital", "contact:phone": "+49 6503 810", "contact:website": "https://www.marienkrankenhaus-hermeskeil.de/", "emergency": "no", "healthcare": "hospital", "name": "Regioklinik St. Josef", "note": "Das Gesamtgelände nennt sich eigentlich \"Marienhaus Campus Hermeskeil\" mit den Einrichtungen Regioklinik St. Josef, Geriatrische Reha und MVZ", "operator": "Marienhaus Kliniken GmbH", "wheelchair": "yes"}}, {"name": "504A", "latitude": 49.4507103, "longitude": 7.6203682, "source": "osm", "_tags": {"amenity": "hospital", "building": "yes", "healthcare": "hospital", "name": "504A"}}, {"name": "504B", "latitude": 49.4508078, "longitude": 7.6209531, "source": "osm", "_tags": {"amenity": "hospital", "building": "yes", "healthcare": "hospital", "name": "504B"}}, {"name": "504C", "latitude": 49.4509154, "longitude": 7.6215278, "source": "osm", "_tags": {"amenity": "hospital", "building": "yes", "healthcare": "hospital", "name": "504C"}}, {"name": "502C", "latitude": 49.4513065, "longitude": 7.6200742, "source": "osm", "_tags": {"amenity": "hospital", "healthcare": "hospital", "name": "502C"}}, {"name": "502D", "latitude": 49.4514472, "longitude": 7.6203721, "source": "osm", "_tags": {"amenity": "hospital", "healthcare": "hospital", "name": "502D"}}, {"name": "502E", "latitude": 49.4515238, "longitude": 7.6209254, "source": "osm", "_tags": {"amenity": "hospital", "healthcare": "hospital", "name": "502E"}}, {"name": "502F", "latitude": 49.4515112, "longitude": 7.6213342, "source": "osm", "_tags": {"amenity": "hospital", "healthcare": "hospital", "name": "502F"}}, {"name": "502B", "latitude": 49.4512606, "longitude": 7.6195824, "source": "osm", "_tags": {"amenity": "hospital", "healthcare": "hospital", "name": "502B"}}, {"name": "505", "latitude": 49.4513459, "longitude": 7.6228172, "source": "osm", "_tags": {"amenity": "hospital", "building": "yes", "healthcare": "hospital", "name": "505"}}, {"name": "502A", "latitude": 49.4513458, "longitude": 7.6192754, "source": "osm", "_tags": {"amenity": "hospital", "healthcare": "hospital", "name": "502A"}}, {"name": "502H", "latitude": 49.4517266, "longitude": 7.6220785, "source": "osm", "_tags": {"amenity": "hospital", "healthcare": "hospital", "name": "502H"}}, {"name": "502G", "latitude": 49.4515703, "longitude": 7.6217865, "source": "osm", "_tags": {"amenity": "hospital", "healthcare": "hospital", "name": "502G"}}, {"name": "Universitätsklinikum des Saarlandes", "latitude": 49.3068447, "longitude": 7.3453577, "source": "osm", "_tags": {"addr:city": "Homburg", "addr:country": "DE", "addr:housenumber": "100", "addr:postcode": "66424", "addr:street": "Kirrberger Straße", "amenity": "hospital", "contact:email": "info@uniklinikum-saarland.de", "contact:phone": "+49 6841 160", "contact:website": "http://www.uniklinikum-saarland.de/", "emergency": "yes", "health_facility:type": "hospital", "healthcare": "hospital", "medical_system:western": "yes", "name": "Universitätsklinikum des Saarlandes", "short_name": "UKS", "type": "multipolygon", "wikidata": "Q47507885"}}, {"name": "Hals-, Nasen- und Ohrenheilkunde, Urologie, Schule für Logopädie (Geb. 6)", "latitude": 49.3097722, "longitude": 7.3418881, "source": "osm", "_tags": {"building": "hospital", "healthcare": "hospital", "healthcare:speciality": "otolaryngology;urologie", "name": "Hals-, Nasen- und Ohrenheilkunde, Urologie, Schule für Logopädie (Geb. 6)", "type": "multipolygon", "wheelchair": "yes"}}, {"name": "St. Elisabeth-Krankenhaus", "latitude": 49.2415628, "longitude": 7.6342085, "source": "osm", "_tags": {"addr:city": "Rodalben", "addr:country": "DE", "addr:housenumber": "14", "addr:postcode": "66976", "addr:street": "Kirchbergstraße", "amenity": "hospital", "building": "hospital", "contact:email": "info@rod.marienhaus-gmbh.de", "contact:fax": "+49 6331 177-96", "contact:phone": "+49 6331 177-0", "contact:website": "https://www.krankenhaus-rodalben.de", "healthcare": "hospital", "name": "St. Elisabeth-Krankenhaus", "operator": "St. Elisabeth-Stiftung Rodalben", "type": "multipolygon", "wheelchair": "yes"}}, {"name": "SHG-Kliniken Völklingen", "latitude": 49.2572554, "longitude": 6.8525006, "source": "osm", "_tags": {"addr:city": "Völklingen", "addr:country": "DE", "addr:housenumber": "5-9", "addr:postcode": "66333", "addr:street": "Richardstraße", "amenity": "hospital", "brand:wikidata": "Q2209199", "contact:fax": "+49 6898 12-2393", "contact:phone": "+49 6898 12-0", "contact:website": "http://vk.shg-kliniken.de", "emergency": "yes", "healthcare": "hospital", "healthcare:speciality": "cardiology;pulmonology;urology;psychiatry;radiology", "name": "SHG-Kliniken Völklingen", "operator": "SHG Kliniken", "type": "multipolygon", "wikidata": "Q1747430", "wikipedia": "de:SHG-Kliniken Völklingen"}}]