[{"name": "Unité de soins palliatifs", "latitude": 49.1122844, "longitude": 6.1919975, "source": "osm", "_tags": {"healthcare": "hospital", "healthcare:speciality": "palliative", "name": "Unité de soins palliatifs"}}, {"name": "", "latitude": 49.1051115, "longitude": 6.1903231, "source": "osm", "_tags": {"amenity": "hospital", "fax": "+33387523266", "healthcare": "hospital", "phone": "+33387523260", "ref:FR:FINESS": "570004176", "ref:FR:SIRET": "26570002100024", "source": "Le ministère des solidarités et de la santé - 2021-11", "type:FR:FINESS": "292"}}, {"name": "", "latitude": 49.1052352, "longitude": 6.1904613, "source": "osm", "_tags": {"amenity": "hospital", "fax": "+33387563961", "healthcare": "hospital", "phone": "+33387769732", "ref:FR:FINESS": "570028662", "ref:FR:SIRET": "26570002100313", "source": "Le ministère des solidarités et de la santé - 2021-11", "type:FR:FINESS": "292"}}, {"name": "Institut national des jeunes sourds", "latitude": 49.1106719, "longitude": 6.2168126, "source": "osm", "_tags": {"amenity": "hospital", "fax": "+33387399718", "healthcare": "hospital", "name": "Institut national des jeunes sourds", "official_name": "Hôpital de jour Centre basse audition", "phone": "+33387399700", "ref:FR:FINESS": "570026575", "source": "Le ministère des solidarités et de la santé - 2021-11", "type:FR:FINESS": "101"}}, {"name": "Memorial", "latitude": 49.5799308, "longitude": 6.0945756, "source": "osm", "_tags": {"addr:city": "Luxembourg", "addr:housenumber": "75", "addr:postcode": "1934", "addr:street": "Rue des Sports", "amenity": "hospital", "emergency": "yes", "healthcare": "hospital", "healthcare:speciality": "surgery;neurosurgery;paediatrics", "name": "Memorial"}}, {"name": "Klinikum Mutterhaus der Borromäerinnen Trier", "latitude": 49.7543938, "longitude": 6.6310015, "source": "osm", "_tags": {"amenity": "hospital", "emergency": "yes", "healthcare": "hospital", "name": "Klinikum Mutterhaus der Borromäerinnen Trier", "opening_hours": "24/7", "website": "https://www.mutterhaus.de/", "wheelchair": "yes", "wikidata": "Q991759", "wikipedia": "de:Klinikum Mutterhaus der Borromäerinnen"}}, {"name": "Hôpital Belle-Isle", "latitude": 49.1233793, "longitude": 6.1706023, "source": "osm", "_tags": {"addr:street": "Rue Belle-Isle", "amenity": "hospital", "healthcare": "hospital", "healthcare:speciality": "cardiology;internal;oncology;ophthalmology;orthopaedics;geriatrics", "internet_access": "wlan", "name": "Hôpital Belle-Isle", "operator": "uneos", "operator:type": "private", "ref:FR:FINESS": "570001057", "source": "cadastre-dgi-fr source : Direction Générale des Impôts - Cadastre. Mise à jour : 2009", "type:FR:FINESS": "365", "website": "https://www.uneos.fr/groupe-uneos/etablissements/hopital-belle-isle/"}}, {"name": "Centre Hospitalier de Luxembourg", "latitude": 49.6178599, "longitude": 6.1013896, "source": "osm", "_tags": {"amenity": "hospital", "healthcare": "hospital", "name": "Centre Hospitalier de Luxembourg", "operator": "Centre Hospitalier de Luxembourg", "short_name": "CHL", "website": "https://www.chl.lu", "wheelchair": "yes", "wikidata": "Q5062271", "wikipedia": "lb:Centre hospitalier de Luxembourg"}}, {"name": "Sénologie", "latitude": 49.631111, "longitude": 6.1354215, "source": "osm", "_tags": {"amenity": "hospital", "building": "hospital", "name": "Sénologie"}}, {"name": "Centre Hospitalier Émile Mayrisch", "latitude": 49.5017034, "longitude": 5.9815822, "source": "osm", "_tags": {"amenity": "hospital", "healthcare": "hospital", "name": "Centre Hospitalier Émile Mayrisch", "short_name": "CHEM", "toilets:wheelchair": "yes", "wheelchair": "yes"}}, {"name": "Hôpital de la Ville de Dudelange", "latitude": 49.4705765, "longitude": 6.0888279, "source": "osm", "_tags": {"addr:city": "Dudelange", "addr:housenumber": "98", "addr:postcode": "3488", "addr:street": "Rue de l'Hôpital", "amenity": "hospital", "building": "yes", "healthcare": "hospital", "healthcare:speciality": "geriatrics;radiology", "name": "Hôpital de la Ville de Dudelange", "ref:caclr": "221972"}}, {"name": "Hôpital d'instruction des armées Legouest", "latitude": 49.1131222, "longitude": 6.190151, "source": "osm", "_tags": {"alt_name": "Hôpital militaire Legouest", "amenity": "hospital", "emergency": "yes", "healthcare": "hospital", "loc_name": "Legouest", "name": "Hôpital d'instruction des armées Legouest", "operator:type": "public", "phone": "+33 3 87 56 46 46", "ref:FR:FANTOIR": "57463A037L", "ref:FR:FINESS": "570000596", "short_name": "HIA Legouest", "type:FR:FINESS": "114", "website": "http://www.hia-legouest.fr/", "wikidata": "Q3145332"}}, {"name": "Hôpital Bel-Air", "latitude": 49.3732047, "longitude": 6.1494439, "source": "osm", "_tags": {"addr:city": "Thionville", "addr:country": "FR", "addr:housenumber": "2", "addr:postcode": "57100", "addr:street": "Rue du Friscaty", "amenity": "hospital", "check_date": "2024-10-03", "emergency": "yes", "fax": "+33 3 82 55 80 10", "healthcare": "hospital", "healthcare:speciality": "intensive", "name": "Hôpital Bel-Air", "operator:type": "public", "phone": "+33 3 82 55 82 55", "ref:FR:FINESS": "570000349", "type:FR:FINESS": "101", "website": "https://www.chr-metz-thionville.fr/le-chr-nos-etablissements/hopital-bel-air"}}, {"name": "Clinique Ambroise Paré", "latitude": 49.3609814, "longitude": 6.1542196, "source": "osm", "_tags": {"addr:city": "Thionville", "addr:country": "FR", "addr:housenumber": "21", "addr:postcode": "57100", "addr:street": "Route de Guentrange", "amenity": "hospital", "check_date": "2024-10-03", "emergency": "no", "healthcare": "hospital", "name": "Clinique Ambroise Paré", "ref:FR:FINESS": "570000356", "source": "cadastre-dgi-fr source : Direction Générale des Impôts - Cadastre. Mise à jour : 2012", "type": "site", "type:FR:FINESS": "128", "website": "https://clinique-ambroisepare.fr/"}}, {"name": "Clinique Notre-Dame", "latitude": 49.3570428, "longitude": 6.1558759, "source": "osm", "_tags": {"addr:city": "Thionville", "addr:country": "FR", "addr:housenumber": "3", "addr:postcode": "57100", "addr:street": "Rue Paul Albert", "amenity": "hospital", "emergency": "no", "healthcare": "hospital", "name": "Clinique Notre-Dame", "ref:FR:FINESS": "570000364", "source": "cadastre-dgi-fr source : Direction Générale des Impôts - Cadastre. Mise à jour : 2012", "type:FR:FINESS": "128", "website": "https://www.elsan.care/fr/clinique-notre-dame-thionville"}}, {"name": "St. Nikolaus Hospital", "latitude": 49.3290932, "longitude": 6.7129668, "source": "osm", "_tags": {"amenity": "hospital", "contact:email": "info@sankt-nikolaus-hospital.de", "contact:fax": "+49 6831 962-465", "contact:phone": "+49 6831 962-0", "contact:website": "http://www.sankt-nikolaus-hospital.de", "healthcare": "hospital", "healthcare:speciality": "geriatrics", "name": "St. Nikolaus Hospital", "wheelchair": "yes"}}, {"name": "CHL Eich", "latitude": 49.6315715, "longitude": 6.1355549, "source": "osm", "_tags": {"addr:city": "Luxembourg", "addr:country": "LU", "addr:housenumber": "78", "addr:postcode": "1460", "addr:street": "Rue d'Eich", "amenity": "hospital", "healthcare": "hospital", "name": "CHL Eich", "operator": "Centre Hospitalier de Luxembourg", "phone": "+352 44 11 12", "website": "https://eich.chl.lu"}}, {"name": "Hôpital-clinique Claude Bernard", "latitude": 49.114088, "longitude": 6.2094812, "source": "osm", "_tags": {"amenity": "hospital", "contact:city": "Metz CEDEX", "contact:housenumber": "97", "contact:phone": "+33 3 87 39 66 66", "contact:pobox": "BP 45050", "contact:postcode": "57072", "contact:street": "Rue Claude Bernard", "email": "laetitia.borre@elsan.care", "emergency": "yes", "fax": "+33 3 87 36 98 12", "healthcare": "hospital", "healthcare:speciality": "intensive", "name": "Hôpital-clinique Claude Bernard", "note": "Déménagement prévu fin 2022 à Maizières-lès-Metz. https://www.francebleu.fr/infos/sante-sciences/la-clinique-claude-bernard-va-demenager-a-maizieres-les-metz-1537468997?tzert", "operator": "Elsan", "operator:type": "private", "operator:wikidata": "Q48747106", "phone": "+33 826 30 66 66", "ref:FR:FINESS": "570000646", "type:FR:FINESS": "365", "website": "https://www.elsan.care/fr/hopital-clinique-claude-bernard-metz", "wikipedia": "fr:Clinique Claude Bernard (Metz)"}}, {"name": "Hôpital Gériatrique Le Kem", "latitude": 49.363173, "longitude": 6.145995, "source": "osm", "_tags": {"addr:city": "Thionville", "addr:country": "FR", "addr:housenumber": "129", "addr:postcode": "57100", "addr:street": "Route de Guentrange", "amenity": "hospital", "barrier": "fence", "healthcare": "hospital", "name": "Hôpital Gériatrique Le Kem", "ref:FR:FINESS": "570003079", "source": "extraction vectorielle v1 cadastre-dgi-fr source : Direction Générale des Impôts - Cadas. Mise à jour : 2010", "type:FR:FINESS": "365", "website": "https://www.hopitalgeriatrique-lekem.com/", "wheelchair": "yes"}}, {"name": "Hôpital Robert-Schuman", "latitude": 49.123899, "longitude": 6.2434363, "source": "osm", "_tags": {"amenity": "hospital", "emergency": "no", "healthcare": "hospital", "healthcare:speciality": "intensive", "name": "Hôpital Robert-Schuman", "operator": "Hôpitaux Privés de Metz", "operator:type": "private", "phone": "+33 3 57 84 28 00", "ref:FR:FINESS": "570026252", "start_date": "2013-03", "type:FR:FINESS": "365", "website": "https://www.hpmetz.fr/fr", "wheelchair": "yes"}}, {"name": "Complexe Hospitalier Spécialisé de Jury", "latitude": 49.0771154, "longitude": 6.2698251, "source": "osm", "_tags": {"amenity": "hospital", "healthcare": "hospital", "name": "Complexe Hospitalier Spécialisé de Jury", "ref:FR:FINESS": "570001016", "ref:FR:SIRET": "26570002100016", "type:FR:FINESS": "292"}}, {"name": "Pharmacie Paquin", "latitude": 49.308667, "longitude": 5.893621, "source": "osm", "_tags": {"amenity": "hospital", "healthcare": "hospital", "name": "Pharmacie Paquin", "source": "cadastre-dgi-fr source : Direction Générale des Finances Publiques - Cadastre. Mise à jour : 2013"}}, {"name": "Dollard-Westrich Florence", "latitude": 49.3088395, "longitude": 5.8947515, "source": "osm", "_tags": {"amenity": "hospital", "healthcare": "hospital", "healthcare:speciality": "general", "name": "Dollard-Westrich Florence", "source": "cadastre-dgi-fr source : Direction Générale des Finances Publiques - Cadastre. Mise à jour : 2013"}}, {"name": "Clinique Sainte Marie", "latitude": 49.5011587, "longitude": 5.9858626, "source": "osm", "_tags": {"amenity": "hospital", "emergency": "yes", "healthcare": "hospital", "name": "Clinique Sainte Marie", "operator": "Hôpitaux Robert Schuman", "short_name": "CSM"}}, {"name": "Hôpital d'Arlon", "latitude": 49.6773701, "longitude": 5.820493, "source": "osm", "_tags": {"addr:city": "Arlon", "addr:housenumber": "137", "addr:postcode": "6700", "addr:street": "Rue des Déportés", "alt_name": "Clinique Saint-Joseph", "amenity": "hospital", "emergency": "yes", "emergency_ward": "complete", "healthcare": "hospital", "healthcare:speciality": "general", "name": "Hôpital d'Arlon", "old_name": "Hôpital Saint-Joseph d'Arlon", "old_name:de": "Josefsklinikum", "opening_hours": "Mo-Su,PH 00:00-24:00", "operator": "Vivalia", "operator:type": "public", "phone": "+32 63 55 15 00", "ref:fps_health:campus": "3690", "ref:fps_health:recognition": "246", "website": "https://www.vivalia.be/hopital-darlon", "wheelchair": "yes"}}, {"name": "Centre de réhabilitation", "latitude": 49.7591265, "longitude": 5.8253207, "source": "osm", "_tags": {"addr:city": "Colpach-Bas", "addr:housenumber": "1", "addr:postcode": "8527", "addr:street": "Am Schlasspark", "amenity": "hospital", "building": "yes", "healthcare": "hospital", "name": "Centre de réhabilitation", "operator": "Croix-Rouge luxembourgeoise", "operator:type": "public", "phone": "+352 2755 4300", "website": "https://www.rehabilitation.lu/"}}, {"name": "Hôpital intercommunal de Steinfort", "latitude": 49.6609477, "longitude": 5.9125896, "source": "osm", "_tags": {"amenity": "hospital", "healthcare": "hospital", "name": "Hôpital intercommunal de Steinfort"}}, {"name": "Hôpital de Jœuf", "latitude": 49.225437, "longitude": 6.0112078, "source": "osm", "_tags": {"amenity": "hospital", "check_date": "2025-09-09", "emergency": "no", "healthcare": "hospital", "name": "Hôpital de Jœuf", "ref:FR:FINESS": "540001104", "type:FR:FINESS": "129"}}, {"name": "Centre hospitalier de Pont-à-Mousson", "latitude": 48.9063659, "longitude": 6.052524, "source": "osm", "_tags": {"amenity": "hospital", "email": "hopital@ch-pontamousson.fr", "emergency": "yes", "fax": "+33 3 83 80 2018", "healthcare": "hospital", "name": "Centre hospitalier de Pont-à-Mousson", "operator:type": "public", "phone": "+33 3 83 80 20 00", "ref:FR:FINESS": "540000296", "type:FR:FINESS": "355", "website": "https://www.ch-pontamousson.fr/"}}, {"name": "Centre hospitalier Hôtel Dieu", "latitude": 49.5375537, "longitude": 5.7801001, "source": "osm", "_tags": {"addr:city": "Mont-Saint-Martin", "addr:country": "FR", "addr:housenumber": "4", "addr:postcode": "54350", "addr:street": "Rue Alfred Labbé", "amenity": "hospital", "emergency": "yes", "fax": "+33 3 82 44 73 55", "healthcare": "hospital", "name": "Centre hospitalier Hôtel Dieu", "operator": "Groupe SOS", "operator:type": "private", "phone": "+33 3 82 44 70 00", "ref:FR:FINESS": "540001096", "type:FR:FINESS": "365", "website": "https://www.groupe-sos.org/structures/876/Centre_hospitalier_Hotel_Dieu"}}, {"name": "Hôpital de Saint-Avold", "latitude": 49.1114399, "longitude": 6.7229032, "source": "osm", "_tags": {"addr:city": "Saint-Avold", "addr:postcode": "57502", "addr:street": "Rue Ambroise Paré", "amenity": "hospital", "emergency": "yes", "fax": "+33 3 87 94 62 99", "healthcare": "hospital", "healthcare:speciality": "intensive", "name": "Hôpital de Saint-Avold", "operator": "Groupe SOS", "operator:type": "private", "phone": "+33 3 87 91 14 44", "ref:FR:FINESS": "570000216", "ref:FR:SIRET": "30289111400381", "type:FR:FINESS": "365", "website": "https://www.hopitalsaintavold.fr/"}}, {"name": "Hôpital Intercommunal Princesse Marie-Astrid", "latitude": 49.5328423, "longitude": 5.8867649, "source": "osm", "_tags": {"amenity": "hospital", "healthcare": "hospital", "name": "Hôpital Intercommunal Princesse Marie-Astrid"}}, {"name": "Hôpital Félix Maréchal", "latitude": 49.1302623, "longitude": 6.138182, "source": "osm", "_tags": {"addr:housenumber": "1", "addr:street": "Rue Xavier Roussel", "amenity": "hospital", "capacity": "133", "check_date": "2025-03-07", "fax": "+33 3 87 55 79 79", "healthcare": "hospital", "name": "Hôpital Félix Maréchal", "operator": "Centre hospitalier régional Metz-Thionville", "operator:type": "public", "phone": "+33 3 87 55 78 00", "ref:FR:FINESS": "570005215", "source": "cadastre-dgi-fr source : Direction Générale des Finances Publiques - Cadastre. Mise à jour : 2014", "type:FR:FINESS": "101"}}, {"name": "Klinikum Merzig", "latitude": 49.4570001, "longitude": 6.6332478, "source": "osm", "_tags": {"alt_name": "SHG Klinikum Merzig", "amenity": "hospital", "email": "nfo@mzg.shg-kliniken.de", "emergency": "yes", "fax": "+49 6861 705-1637", "healthcare": "hospital", "name": "Klinikum Merzig", "operator": "Klinikum Merzig gGmbH", "phone": "+49 6861 705-0", "website": "https://mzg.shg-kliniken.de/", "wikidata": "Q35387541"}}, {"name": "Rehazenter", "latitude": 49.6279127, "longitude": 6.1737327, "source": "osm", "_tags": {"amenity": "hospital", "healthcare": "hospital", "name": "Rehazenter"}}, {"name": "Hôpital Saint-Maurice", "latitude": 49.2507583, "longitude": 6.0455737, "source": "osm", "_tags": {"amenity": "hospital", "healthcare": "hospital", "name": "Hôpital Saint-Maurice", "ref:FR:FINESS": "570009670", "type:FR:FINESS": "365"}}, {"name": "Hôpital de Mercy", "latitude": 49.0832214, "longitude": 6.2405267, "source": "osm", "_tags": {"addr:housenumber": "1", "addr:street": "Allée du Château", "amenity": "hospital", "emergency": "yes", "healthcare": "hospital", "healthcare:speciality": "intensive", "name": "Hôpital de Mercy", "operator": "Centre hospitalier régional de Metz-Thionville", "operator:type": "public", "ref:FR:FINESS": "570026682", "type:FR:FINESS": "101", "website": "https://www.chr-metz-thionville.fr/le-chr-nos-etablissements/hopital-de-mercy", "wikidata": "Q3145285"}}, {"name": "Clinique Sainte-Elizabeth", "latitude": 49.3496786, "longitude": 6.1986219, "source": "osm", "_tags": {"addr:city": "Yutz", "addr:housenumber": "2", "addr:postcode": "57970", "addr:street": "Avenue Julien Absalon", "amenity": "hospital", "healthcare": "hospital", "name": "Clinique Sainte-Elizabeth", "website": "https://www.ste-elisabeth.fr/"}}, {"name": "Centre hospitalier de Boulay \"Le Secq de Crépy\"", "latitude": 49.1838638, "longitude": 6.4995298, "source": "osm", "_tags": {"addr:city": "Boulay-Moselle", "addr:country": "FR", "addr:full": "1, R, DE L'HOPITAL, BP 73, 57220 BOULAY", "addr:housenumber": "1", "addr:postcode": "57220", "addr:street": "Rue de l'Hôpital", "amenity": "hospital", "fax": "+33387794026", "healthcare": "hospital", "name": "Centre hospitalier de Boulay \"Le Secq de Crépy\"", "phone": "+33387794000", "ref:FR:FINESS": "570000968", "ref:FR:SIRET": "26570017900012", "short_name": "C.H. Le Secq de Crépy", "source": "Le ministère des solidarités et de la santé - 03/2019", "type:FR:FINESS": "355"}}, {"name": "Hôpital de Château Salins", "latitude": 48.8253223, "longitude": 6.5071182, "source": "osm", "_tags": {"addr:city": "Château-Salins", "addr:country": "FR", "addr:housenumber": "40", "addr:postcode": "57170", "addr:street": "Rue de Metz", "amenity": "hospital", "emergency": "no", "healthcare": "hospital", "name": "Hôpital de Château Salins", "note": "L'Etablissement d'hébergement pour personnes âgées dépendantes (EHPAD) de 15 lits est situé dans l'hôpital de Château-Salins.", "operator": "Hospitalor", "operator:type": "private", "ref:FR:FINESS": "570000455", "source": "cadastre-dgi-fr source : Direction Générale des Impôts - Cadastre. Mise à jour : 2011", "type:FR:FINESS": "129", "website": "https://www.groupe-sos.org/structures/1105/EHPAD_de_Chateau_Salins"}}, {"name": "Centre hospitalier Lemire", "latitude": 49.0979487, "longitude": 6.7055077, "source": "osm", "_tags": {"addr:city": "Saint-Avold", "addr:housenumber": "7", "addr:postcode": "57500", "addr:street": "Rue Lemire", "alt_name": "Centre hospitalier Lemire de Saint-Avold", "amenity": "hospital", "healthcare": "hospital", "name": "Centre hospitalier Lemire", "ref:FR:FINESS": "570000687", "source": "Le ministère des solidarités et de la santé - 03/2019", "website": "https://www.unisante.fr/centre-hospitalier-lemire-de-st-avold.html"}}, {"name": "Clinique Saint-Nabor", "latitude": 49.1217668, "longitude": 6.7225185, "source": "osm", "_tags": {"addr:housenumber": "75", "addr:street": "Rue des Généraux Altmayer", "amenity": "hospital", "healthcare": "hospital", "name": "Clinique Saint-Nabor", "phone": "+33 3 87 29 41 49", "ref:FR:FINESS": "570000083", "type:FR:FINESS": "365", "website": "https://www.clinique-st-nabor.fr/"}}, {"name": "", "latitude": 49.1140288, "longitude": 6.210973, "source": "osm", "_tags": {"amenity": "hospital", "healthcare": "hospital", "source": "knowledge;Ortho HR"}}, {"name": "Kreiskrankenhaus St. Franziskus Saarburg", "latitude": 49.6028926, "longitude": 6.5382056, "source": "osm", "_tags": {"amenity": "hospital", "email": "info@kreiskrankenhaus-saarburg.de", "emergency": "yes", "fax": "+49 6581 82-1700", "healthcare": "hospital", "healthcare:speciality": "internal;emergency;orthopaedics;trauma", "name": "Kreiskrankenhaus St. Franziskus Saarburg", "opening_hours": "24/7", "operator": "Kreiskrankenhaus St. Franziskus Saarburg GmbH", "phone": "+49 6581 82-0", "website": "https://kreiskrankenhaus-saarburg.de/", "wheelchair": "yes"}}, {"name": "Centre de Soins Grand Est", "latitude": 49.3664133, "longitude": 6.1608899, "source": "osm", "_tags": {"amenity": "hospital", "barrier": "fence", "healthcare:speciality": "psychiatry", "name": "Centre de Soins Grand Est", "operator": "Emeis"}}, {"name": "Klinikum Mutterhaus der Borromäerinnen Nord", "latitude": 49.7621345, "longitude": 6.6436903, "source": "osm", "_tags": {"amenity": "hospital", "contact:phone": "+49 651 683 0", "emergency": "yes", "healthcare": "hospital", "healthcare:speciality": "internal;plastic_surgery", "name": "Klinikum Mutterhaus der Borromäerinnen Nord", "old_name": "Evangelisches Elisabeth-Krankenhaus", "opening_hours": "24/7", "operator": "Klinikum Mutterhaus der Borromäerinnen gGmbH", "source": "http://www.mutterhaus.de/klinikum-mutterhaus-nord.html", "toilets:wheelchair": "yes", "wheelchair": "yes"}}, {"name": "Centre hospitalier d'Hayange", "latitude": 49.326394, "longitude": 6.0686262, "source": "osm", "_tags": {"addr:housenumber": "53", "addr:street": "Rue de Wendel", "alt_name": "Hôpital de Hayange", "amenity": "hospital", "healthcare": "hospital", "healthcare:speciality": "general;psychiatry", "height": "53 Rue de Wendel, 57700 Hayange Hours :  Open 24 hours Téléphone : 03 82 57 73 73", "name": "Centre hospitalier d'Hayange", "phone": "+33 3 82 57 73 73", "website": "https://www.chr-metz-thionville.fr/le-chr-nos-etablissements/hopital-de-hayange"}}, {"name": "Krankenhaus der Barmherzigen Brüder Trier", "latitude": 49.7625602, "longitude": 6.6399032, "source": "osm", "_tags": {"alt_name": "Brüderkrankenhaus Trier", "amenity": "hospital", "email": "info@bk-trier.de", "emergency": "yes", "healthcare": "hospital", "name": "Krankenhaus der Barmherzigen Brüder Trier", "opening_hours": "24/7", "phone": "+49 651 208-0", "short_name": "BKT", "type": "site", "website": "http://www.bk-trier.de", "wheelchair": "yes"}}, {"name": "Krankenhaus der Barmherzigen Brüder Trier", "latitude": 49.762664, "longitude": 6.6404278, "source": "osm", "_tags": {"alt_name": "Brüderkrankenhaus Trier", "amenity": "hospital", "email": "info@bk-trier.de", "emergency": "yes", "healthcare": "hospital", "name": "Krankenhaus der Barmherzigen Brüder Trier", "opening_hours": "24/7", "phone": "+49 651 208-0", "short_name": "BKT", "type": "multipolygon", "website": "http://www.bk-trier.de", "wikidata": "Q1786553"}}, {"name": "ZithaKlinik", "latitude": 49.6037743, "longitude": 6.1282814, "source": "osm", "_tags": {"amenity": "hospital", "healthcare": "hospital", "name": "ZithaKlinik", "operator": "Hôpitaux Robert Schuman", "short_name": "ZHITA", "type": "multipolygon"}}, {"name": "Centre Hospitalier de Briey", "latitude": 49.2524745, "longitude": 5.9316315, "source": "osm", "_tags": {"amenity": "hospital", "contact:email": "direction@ch-briey.fr", "contact:fax": "+33 3 82 47 74 08", "contact:phone": "+33 3 82 47 50 00", "contact:website": "https://www.ch-briey.fr/", "healthcare": "hospital", "name": "Centre Hospitalier de Briey", "operator:type": "public", "ref:FR:FINESS": "540001070", "ref:FR:SIRET": "26540020000019", "source": "Le ministère des solidarités et de la santé - 2024-09", "type": "multipolygon", "type:FR:FINESS": "355"}}, {"name": "Hôpital Kirchberg", "latitude": 49.6324681, "longitude": 6.176091, "source": "osm", "_tags": {"amenity": "hospital", "healthcare": "hospital", "name": "Hôpital Kirchberg", "operator": "Hôpitaux Robert Schuman", "phone": "+352 2468-1", "short_name": "CHK", "type": "multipolygon", "website": "https://www.hkb.lu", "wheelchair": "yes", "wikipedia": "lb:Hôpitaux Robert-Schuman"}}]