[{"name": "Léčebna dlouhodobě nemocných", "latitude": 49.1648759, "longitude": 13.8903084, "source": "osm", "_tags": {"amenity": "hospital", "name": "Léčebna dlouhodobě nemocných"}}, {"name": "Nemocnice Vimperk a.s.", "latitude": 49.0568577, "longitude": 13.7643629, "source": "osm", "_tags": {"amenity": "hospital", "emergency": "yes", "healthcare": "hospital", "name": "Nemocnice Vimperk a.s.", "operator": "Bohemia Hospitals", "phone": "+420 388 400 100", "website": "https://www.nemocnicevimperk.cz/"}}, {"name": "Psychiatrická léčebna Lnáře", "latitude": 49.4523272, "longitude": 13.796473, "source": "osm", "_tags": {"addr:city": "Lnáře", "addr:housenumber": "16", "addr:postcode": "38742", "amenity": "hospital", "email": "info@pllnare.cz", "healthcare": "hospital", "healthcare:speciality": "psychiatry", "name": "Psychiatrická léčebna Lnáře", "phone": "+420 383 495 101", "website": "https://www.pllnare.cz"}}, {"name": "Masarykovo sanatorium", "latitude": 49.7894438, "longitude": 14.1522454, "source": "osm", "_tags": {"amenity": "hospital", "building": "yes", "name": "Masarykovo sanatorium", "note": "Léčebna dlouhodobě nemocných", "source": "cuzk:km"}}, {"name": "", "latitude": 49.7895101, "longitude": 14.1520404, "source": "osm", "_tags": {"amenity": "hospital", "building": "civic", "building:levels": "1", "building:ruian:type": "5", "ref:ruian:building": "12836052", "source": "cuzk:ruian"}}, {"name": "Oblastní nemocnice Příbram - areál II", "latitude": 49.6739853, "longitude": 13.9886721, "source": "osm", "_tags": {"amenity": "hospital", "healthcare": "hospital", "name": "Oblastní nemocnice Příbram - areál II", "website": "https://www.nemocnicepribram.cz/", "wikidata": "Q58220043", "wikipedia": "cs:Oblastní nemocnice Příbram"}}, {"name": "Oblastní nemocnice Příbram - areál I", "latitude": 49.6925924, "longitude": 14.0117629, "source": "osm", "_tags": {"amenity": "hospital", "healthcare": "hospital", "name": "Oblastní nemocnice Příbram - areál I", "website": "https://www.nemocnicepribram.cz/", "wikidata": "Q58220043", "wikipedia": "cs:Oblastní nemocnice Příbram"}}, {"name": "Nemocnice Tábor, a.s.", "latitude": 49.4166253, "longitude": 14.6531779, "source": "osm", "_tags": {"amenity": "hospital", "contact:website": "https://www.nemta.cz/", "emergency": "yes", "healthcare": "hospital", "name": "Nemocnice Tábor, a.s.", "source": "local_knowledge;bing", "wikidata": "Q58220056"}}, {"name": "Nemocnice Prachatice", "latitude": 49.0068493, "longitude": 14.0114954, "source": "osm", "_tags": {"amenity": "hospital", "healthcare": "hospital", "name": "Nemocnice Prachatice", "website": "https://www.nempt.cz/"}}, {"name": "Horní areál Nemocnice České Budějovice", "latitude": 48.9600095, "longitude": 14.4669093, "source": "osm", "_tags": {"amenity": "hospital", "emergency": "yes", "fixme": "zmapovat přesně, oddělit od silnice", "healthcare": "hospital", "name": "Horní areál Nemocnice České Budějovice", "operator": "Nemocnice České Budějovice a.s.", "operator:type": "public", "wikidata": "Q30080431"}}, {"name": "Nemocnice Písek, a.s.", "latitude": 49.3021476, "longitude": 14.1576698, "source": "osm", "_tags": {"amenity": "hospital", "contact:website": "https://www.nemopisek.cz/", "healthcare": "hospital", "name": "Nemocnice Písek, a.s."}}, {"name": "Nemocnice Sedlčany", "latitude": 49.6589585, "longitude": 14.4262545, "source": "osm", "_tags": {"addr:city": "Sedlčany", "addr:housenumber": "161", "addr:postcode": "26401", "addr:street": "Tyršova", "amenity": "hospital", "healthcare": "hospital", "name": "Nemocnice Sedlčany", "operator": "MEDITERRA-Sedlčany, s.r.o."}}, {"name": "", "latitude": 49.0150527, "longitude": 14.004643, "source": "osm", "_tags": {"amenity": "hospital", "healthcare": "hospital"}}, {"name": "", "latitude": 49.3069591, "longitude": 14.1493817, "source": "osm", "_tags": {"amenity": "hospital", "healthcare": "hospital"}}, {"name": "Nemocnice Rudolfa a Stefanie Benešov", "latitude": 49.7878862, "longitude": 14.6798418, "source": "osm", "_tags": {"amenity": "hospital", "contact:facebook": "https://www.facebook.com/nemocnicebenesov", "contact:website": "https://www.hospital-bn.cz/", "emergency": "yes", "healthcare": "hospital", "name": "Nemocnice Rudolfa a Stefanie Benešov"}}, {"name": "Nemocnice Strakonice", "latitude": 49.2661164, "longitude": 13.9081011, "source": "osm", "_tags": {"amenity": "hospital", "emergency": "yes", "healthcare": "hospital", "name": "Nemocnice Strakonice", "name:de": "Spital Strakonice", "name:en": "Strakonice hospital", "phone": "+420383314111"}}, {"name": "Dolní areál Nemocnice České Budějovice", "latitude": 48.9642509, "longitude": 14.4714082, "source": "osm", "_tags": {"amenity": "hospital", "emergency": "no", "healthcare": "hospital", "name": "Dolní areál Nemocnice České Budějovice", "operator": "NEMOCNICE ČESKÉ BUDĚJOVICE, a.s.,", "operator:type": "public"}}, {"name": "Psychiatrická léčebna Lnáře", "latitude": 49.4524265, "longitude": 13.7963544, "source": "osm", "_tags": {"addr:city": "Lnáře", "addr:housenumber": "16", "addr:postcode": "38742", "building": "hospital", "building:ruian:type": "3", "healthcare": "hospital", "healthcare:speciality": "psychiatry", "name": "Psychiatrická léčebna Lnáře", "ref:ruian:building": "18243436", "source": "cuzk:ruian", "type": "multipolygon"}}]