[{"name": "Arcus Sportklinik", "latitude": 48.8977899, "longitude": 8.664974, "source": "osm", "_tags": {"addr:city": "Pforzheim", "addr:housenumber": "17-19", "addr:postcode": "75179", "addr:street": "Rastatter Straße", "amenity": "hospital", "fax": "+49 7231 605563044", "healthcare": "hospital", "healthcare:speciality": "orthopaedics;surgery;radiology;anaesthetics;podiatry;trauma", "name": "Arcus Sportklinik", "phone": "+49 7231 605560", "website": "https://www.sportklinik.de/", "wheelchair": "yes"}}, {"name": "Rochus Klinik", "latitude": 49.2199506, "longitude": 8.6664432, "source": "osm", "_tags": {"addr:city": "Bad Schönborn", "addr:country": "DE", "addr:housenumber": "1", "addr:postcode": "76669", "addr:street": "Sankt-Rochus-Allee", "addr:suburb": "Bad Mingolsheim", "amenity": "hospital", "name": "Rochus Klinik", "operator:wikidata": "Q1036345", "website": "https://www.sankt-rochus-kliniken.de/", "wheelchair": "yes"}}, {"name": "Kurpfalzkrankenhaus", "latitude": 49.4136043, "longitude": 8.6538078, "source": "osm", "_tags": {"amenity": "hospital", "healthcare": "hospital", "healthcare:speciality": "neurology;cardiology;internal;haematology;angiology;urology", "name": "Kurpfalzkrankenhaus", "official_name": "SRH Kurpfalzkrankenhaus", "toilets:wheelchair": "yes", "website": "https://www.srh.de/de/kk-heidelberg/index.html", "wheelchair": "yes", "wikidata": "Q19521035", "wikipedia": "de:SRH Kurpfalzkrankenhaus Heidelberg"}}, {"name": "Sigel Klinik", "latitude": 49.203044, "longitude": 8.6501044, "source": "osm", "_tags": {"amenity": "hospital", "check_date": "2024-04-26", "emergency": "no", "name": "Sigel Klinik", "wheelchair": "yes"}}, {"name": "Klinik für Allgemeine Innere Medizin und Psychosomatik", "latitude": 49.4155972, "longitude": 8.6663847, "source": "osm", "_tags": {"addr:city": "Heidelberg", "addr:housenumber": "410", "addr:postcode": "69120", "addr:street": "Im Neuenheimer Feld", "amenity": "hospital", "check_date": "2024-05-24", "name": "Klinik für Allgemeine Innere Medizin und Psychosomatik", "phone": "+49 6221 565888", "source": "Universitätsklinikum Heidelberg", "toilets:wheelchair": "yes", "website": "https://www.klinikum.uni-heidelberg.de/Klinik-fuer-Allgemeine-Innere-Medizin-und-Psychosomatik.1088.0.html", "wheelchair": "yes"}}, {"name": "Institut für Humangenetik", "latitude": 49.4168447, "longitude": 8.6628963, "source": "osm", "_tags": {"addr:city": "Heidelberg", "addr:housenumber": "440", "addr:postcode": "69120", "addr:street": "Im Neuenheimer Feld", "amenity": "hospital", "name": "Institut für Humangenetik", "phone": "+49 6221 565087", "source": "Universitätsklinikum Heidelberg", "website": "https://www.klinikum.uni-heidelberg.de/Institut-fuer-Humangenetik.5035.0.html", "wheelchair": "yes"}}, {"name": "Frauenklinik", "latitude": 49.4166199, "longitude": 8.6628954, "source": "osm", "_tags": {"addr:city": "Heidelberg", "addr:housenumber": "440", "addr:postcode": "69120", "addr:street": "Im Neuenheimer Feld", "amenity": "hospital", "healthcare": "hospital", "name": "Frauenklinik", "phone": "+49 6221 567856", "source": "Universitätsklinikum Heidelberg", "website": "https://www.klinikum.uni-heidelberg.de/Universitaets-Frauenklinik.331.0.html", "wheelchair": "yes", "wikidata": "Q30265164"}}, {"name": "Hautklinik", "latitude": 49.4169203, "longitude": 8.662535, "source": "osm", "_tags": {"addr:city": "Heidelberg", "addr:housenumber": "440", "addr:postcode": "69120", "addr:street": "Im Neuenheimer Feld", "amenity": "hospital", "healthcare": "hospital", "name": "Hautklinik", "phone": "+49 6221 568589", "source": "Universitätsklinkum Heidelberg", "website": "https://www.klinikum.uni-heidelberg.de/Hautklinik.113977.0.html", "wheelchair": "yes", "wikidata": "Q30265165"}}, {"name": "Pfalzklinikum Standort Rockenhausen", "latitude": 49.6304177, "longitude": 7.8143081, "source": "osm", "_tags": {"amenity": "hospital", "emergency": "yes", "name": "Pfalzklinikum Standort Rockenhausen", "phone": "+49 6361 45950", "website": "https://www.pfalzklinikum.de/standorte/rockenhausen"}}, {"name": "Augenklinik OP-Zentrum", "latitude": 48.971135, "longitude": 8.4087624, "source": "osm", "_tags": {"amenity": "hospital", "healthcare": "hospital", "name": "Augenklinik OP-Zentrum", "operator": "ViDia Christliche Kliniken", "operator:type": "religious"}}, {"name": "Mobiler Defibrillator", "latitude": 49.0985953, "longitude": 8.0551513, "source": "osm", "_tags": {"addr:city": "Oberhausen", "addr:housenumber": "14", "addr:postcode": "76887", "addr:street": "Raiffeisenstraße", "description": "Mobiler Defibrillator in der Gemeinschaftshalle", "emergency": "defibrillator", "healthcare": "hospital", "name": "Mobiler Defibrillator", "operator": "Gemeinde Oberhausen", "operator:type": "public"}}, {"name": "", "latitude": 49.4251462, "longitude": 8.6878497, "source": "osm", "_tags": {"addr:city": "Heidelberg", "addr:housenumber": "52-54", "addr:postcode": "69121", "addr:street": "Steubenstraße", "amenity": "hospital", "healthcare": "hospital", "healthcare:speciality": "general", "operator": "Dr. med. Schumacher-Herold & Dr. med. Adams"}}, {"name": "Asklepios Südpfalzklinik Kandel", "latitude": 49.0861819, "longitude": 8.2008986, "source": "osm", "_tags": {"amenity": "hospital", "email": "kandel@asklepios.com", "fax": "+49 7275 71-2603", "healthcare": "hospital", "name": "Asklepios Südpfalzklinik Kandel", "operator": "Asklepios Kliniken", "operator:type": "private", "operator:wikidata": "Q732068", "phone": "+49 7275 71-0", "website": "https://www.asklepios.com/kandel/"}}, {"name": "Klinikum der Stadt Ludwigshafen", "latitude": 49.48982, "longitude": 8.4258073, "source": "osm", "_tags": {"addr:city": "Ludwigshafen am Rhein", "addr:housenumber": "79", "addr:postcode": "67063", "addr:street": "Bremserstraße", "amenity": "hospital", "barrier": "fence", "emergency": "yes", "healthcare": "hospital", "loc_name": "Klinikum Ludwigshafen", "name": "Klinikum der Stadt Ludwigshafen", "phone": "+49 621 5030", "short_name": "KliLu", "toilets:wheelchair": "yes", "website": "https://www.klilu.de/", "wheelchair": "yes", "wikidata": "Q834559", "wikipedia": "de:Klinikum der Stadt Ludwigshafen"}}, {"name": "Heidelberger Ionenstrahl-Therapiezentrum", "latitude": 49.4177098, "longitude": 8.6641472, "source": "osm", "_tags": {"addr:city": "Heidelberg", "addr:housenumber": "450", "addr:postcode": "69120", "addr:street": "Im Neuenheimer Feld", "amenity": "hospital", "building": "hospital", "building:levels": "0", "elevator": "yes", "healthcare": "hospital", "name": "Heidelberger Ionenstrahl-Therapiezentrum", "note": "Die südöstliche Gebäudebegrenzung folgt dem 1. UG.", "roof:levels": "1", "roof:shape": "many", "short_name": "HIT", "toilets:wheelchair": "yes", "wheelchair": "yes", "wikidata": "Q1366496", "wikipedia": "de:Heidelberger Ionenstrahl-Therapiezentrum"}}, {"name": "Zentrum für Schmerztherapie und Palliativmedizin", "latitude": 49.4130517, "longitude": 8.6696257, "source": "osm", "_tags": {"addr:city": "Heidelberg", "addr:housenumber": "131", "addr:postcode": "69120", "addr:street": "Im Neuenheimer Feld", "alt_name": "Schmerzzentrum", "amenity": "hospital", "building": "yes", "building:levels": "11", "check_date": "2024-06-04", "description": "Behindertenparkplätze vorhanden", "elevator": "yes", "name": "Zentrum für Schmerztherapie und Palliativmedizin", "phone": "+49 6221 566254", "roof:shape": "flat", "toilets:wheelchair": "yes", "website": "https://www.klinikum.uni-heidelberg.de/Zentrum-fuer-Schmerztherapie-und-Palliativmedizin.503.0.html", "wheelchair": "yes"}}, {"name": "Nierenzentrum Heidelberg", "latitude": 49.4141468, "longitude": 8.665817, "source": "osm", "_tags": {"addr:city": "Heidelberg", "addr:housenumber": "162", "addr:postcode": "69120", "addr:street": "Im Neuenheimer Feld", "amenity": "hospital", "building": "yes", "description": "Behindertenparkplätze vorhanden", "elevator": "yes", "name": "Nierenzentrum Heidelberg", "short_name": "NZH", "toilets:wheelchair": "yes", "website": "https://www.nierenzentrum-heidelberg.com", "wheelchair": "yes", "wikidata": "Q50038730"}}, {"name": "Diakonissen-Stiftungs-Krankenhaus Speyer (Haus Hilgardstraße)", "latitude": 49.3109941, "longitude": 8.4346812, "source": "osm", "_tags": {"addr:city": "Speyer", "addr:country": "DE", "addr:housenumber": "33", "addr:postcode": "67346", "addr:street": "Paul-Egell-Straße", "alt_name": "Diakonissen-Stiftungs-Krankenhaus Speyer", "amenity": "hospital", "emergency": "yes", "healthcare": "hospital", "name": "Diakonissen-Stiftungs-Krankenhaus Speyer (Haus Hilgardstraße)", "phone": "+49 6232 221796", "toilets:wheelchair": "yes", "website": "https://www.diakonissen.de/", "wheelchair": "yes", "wheelchair:description": "ebenerdig, schwellenlos erreichbar, mit Behinderten WC, mit Behindertenparkplatz"}}, {"name": "Psychiatrisches Zentrum Nordbaden", "latitude": 49.3035368, "longitude": 8.7066767, "source": "osm", "_tags": {"addr:city": "Wiesloch", "addr:country": "DE", "addr:housenumber": "1a", "addr:postcode": "69168", "addr:street": "Heidelberger Straße", "amenity": "hospital", "beds": "603", "email": "info@pzn-wiesloch.de", "fax": "+496222552484", "healthcare": "hospital", "healthcare:speciality": "psychiatry", "iknumber": "260820832", "locationnumber": "772667000", "name": "Psychiatrisches Zentrum Nordbaden", "phone": "+49 6222 550", "short_name": "PZN", "website": "https://www.pzn-wiesloch.de/", "wikidata": "Q2115903", "wikipedia": "de:Psychiatrisches Zentrum Nordbaden"}}, {"name": "Kraichtal-Kliniken Therapiezentrum Münzesheim", "latitude": 49.1226705, "longitude": 8.7306817, "source": "osm", "_tags": {"amenity": "hospital", "email": "info@kraichtal-kliniken.de", "healthcare": "hospital", "internet_access": "wlan", "name": "Kraichtal-Kliniken Therapiezentrum Münzesheim", "opening_hours": "24/7", "phone": "07250 60-511", "website": "https://www.kraichtal-kliniken.de/kliniken/therapiezentrum-muenzesheim/", "wheelchair": "yes"}}, {"name": "Marienhaus Klinikum Hetzelstift Neustadt/Weinstraße", "latitude": 49.3461013, "longitude": 8.1502651, "source": "osm", "_tags": {"amenity": "hospital", "emergency": "yes", "healthcare": "hospital", "name": "Marienhaus Klinikum Hetzelstift Neustadt/Weinstraße", "opening_hours": "24/7", "operator": "Marienhaus", "operator:wikidata": "Q20828783", "short_name": "Hetzelstift", "wheelchair": "yes", "wikidata": "Q42916743"}}, {"name": "Nationales Centrum für Tumorerkrankungen", "latitude": 49.4184804, "longitude": 8.6638903, "source": "osm", "_tags": {"addr:city": "Heidelberg", "addr:housenumber": "460", "addr:postcode": "69120", "addr:street": "Im Neuenheimer Feld", "amenity": "hospital", "building": "hospital", "building:levels": "4", "elevator": "yes", "healthcare": "hospital", "name": "Nationales Centrum für Tumorerkrankungen", "roof:shape": "flat", "short_name": "NCT", "toilets:wheelchair": "yes", "wheelchair": "yes", "wikidata": "Q1968269", "wikipedia": "de:Nationales Centrum für Tumorerkrankungen"}}, {"name": "Klinikum Landau-Südliche Weinstraße", "latitude": 49.205821, "longitude": 8.1040769, "source": "osm", "_tags": {"amenity": "hospital", "check_date": "2024-12-01", "email": "mail@klinikum-ld-suew.de", "emergency": "yes", "fax": "+49 6341 908-2509", "healthcare": "hospital", "healthcare:speciality": "endocrinology;gastroenterology;gynaecology;otolaryngology;internal;cardiology;neurology;emergency;orthopaedics;trauma", "name": "Klinikum Landau-Südliche Weinstraße", "opening_hours": "24/7", "operator": "Klinikum Landau-Südliche Weinstraße GmbH", "phone": "+49 6341 908-0", "website": "https://www.klinikum-ld-suew.de/", "wheelchair": "yes"}}, {"name": "", "latitude": 49.4089796, "longitude": 8.6905265, "source": "osm", "_tags": {"addr:city": "Heidelberg", "addr:housenumber": "20", "addr:postcode": "69115", "addr:street": "Bergheimer Straße", "amenity": "hospital", "building": "hospital", "building:colour": "maroon", "building:levels": "3", "description": "Universitätsklinikum Heidelberg", "healthcare": "hospital", "phone": "+49 6221 568151", "ref": "Gebäude 4140", "roof:levels": "1", "roof:shape": "half-hipped", "website": "https://www.klinikum.uni-heidelberg.de/zentrum-fuer-psychosoziale-medizin-zpm/institut-fuer-medizinische-psychologie", "wheelchair": "limited"}}, {"name": "Westpfalz-Klinikum", "latitude": 49.4414066, "longitude": 7.7563994, "source": "osm", "_tags": {"addr:city": "Kaiserslautern", "addr:housenumber": "1", "addr:postcode": "67655", "addr:street": "Hellmut-Hartert-Straße", "alt_name": "Westpfalz-Klinikum Kaiserslautern", "amenity": "hospital", "contact:email": "info@westpfalz-klinikum.de", "contact:fax": "+49 631 203-1703", "contact:phone": "+496312030", "contact:website": "http://www.westpfalz-klinikum.de/", "emergency": "yes", "healthcare": "hospital", "name": "Westpfalz-Klinikum", "operator": "Westpfalz-Klinikum GmbH", "wheelchair": "yes", "wikidata": "Q30292564", "wikipedia": "de:Westpfalz-Klinikum"}}, {"name": "Universitätsmedizin Mannheim", "latitude": 49.492365, "longitude": 8.4875557, "source": "osm", "_tags": {"addr:city": "Mannheim", "addr:housenumber": "1-3", "addr:postcode": "68167", "addr:street": "Theodor-Kutzer-Ufer", "alt_name": "Universitätsklinikum Mannheim", "amenity": "hospital", "contact:phone": "+49 621 3830", "contact:website": "https://www.umm.de/", "emergency": "yes", "healthcare": "hospital", "hospital:level:DE": "3", "name": "Universitätsmedizin Mannheim", "operator": "Universitätsklinikum Mannheim GmbH", "operator:type": "public", "ownership": "municipal", "short_name": "UMM", "wheelchair": "yes", "wikidata": "Q1276773", "wikimedia_commons": "Category:Universitätsklinikum Mannheim", "wikipedia": "de:Universitätsklinikum Mannheim"}}, {"name": "Fürst-Stirum-Klinik", "latitude": 49.1321559, "longitude": 8.6041556, "source": "osm", "_tags": {"addr:city": "Bruchsal", "addr:housenumber": "1-14", "addr:postcode": "76646", "addr:street": "Gutleutstraße", "amenity": "hospital", "emergency": "yes", "healthcare": "hospital", "name": "Fürst-Stirum-Klinik", "phone": "+49 7251 7080", "toilets:wheelchair": "yes", "website": "http://www.fuerst-stirum-klinik.de/", "wheelchair": "yes", "wheelchair:description": "Eingang ebenerdig, Behinderten-WC vorhanden."}}, {"name": "Rehabilitationseinrichtung für psychisch Kranke", "latitude": 48.902988, "longitude": 8.4991045, "source": "osm", "_tags": {"addr:city": "Karlsbad", "addr:country": "DE", "addr:housenumber": "4", "addr:postcode": "76307", "addr:street": "Guttmannstraße", "addr:suburb": "Langensteinbach", "amenity": "hospital", "building": "yes", "healthcare": "hospital", "name": "Rehabilitationseinrichtung für psychisch Kranke", "short_name": "RPK"}}, {"name": "Stadtklinik Frankenthal", "latitude": 49.5427524, "longitude": 8.3311728, "source": "osm", "_tags": {"amenity": "hospital", "contact:email": "mail@skh-ft.de", "contact:fax": "+49 6233 771-2005", "contact:phone": "+49 6233 7711", "contact:website": "http://skh-ft.de", "healthcare": "hospital", "name": "Stadtklinik Frankenthal"}}, {"name": "HELIOS Klinikum Pforzheim", "latitude": 48.8893019, "longitude": 8.713055, "source": "osm", "_tags": {"amenity": "hospital", "fax": "+49 7231 9692417", "healthcare": "hospital", "name": "HELIOS Klinikum Pforzheim", "operator": "Helios Kliniken", "operator:type": "private", "operator:wikidata": "Q1254151", "phone": "+49 7231 9690", "website": "http://www.helios-kliniken.de/klinik/pforzheim.html", "wheelchair": "yes"}}, {"name": "Siloah St. Trudpert Klinikum", "latitude": 48.8972522, "longitude": 8.6742114, "source": "osm", "_tags": {"addr:city": "Pforzheim", "addr:housenumber": "67", "addr:postcode": "75179", "addr:street": "Wilferdinger Straße", "amenity": "hospital", "emergency": "yes", "healthcare": "hospital", "name": "Siloah St. Trudpert Klinikum", "wheelchair": "yes", "wikidata": "Q30260684"}}, {"name": "Klinik für Psychiatrie und psychotherapeutische Medizin", "latitude": 49.0118897, "longitude": 8.3803361, "source": "osm", "_tags": {"amenity": "hospital", "healthcare": "hospital", "healthcare:speciality": "psychiatry", "name": "Klinik für Psychiatrie und psychotherapeutische Medizin", "operator": "Städtisches Klinikum Karlsruhe", "website": "https://www.klinikum-karlsruhe.de/medizin/psychiatrische-kliniken/klinik-fuer-psychiatrie-und-psychotherapeutische-medizin/allgemeine-vorstellung.html", "wheelchair": "yes"}}, {"name": "Kreiskrankenhaus Rastatt", "latitude": 48.8614149, "longitude": 8.2056677, "source": "osm", "_tags": {"addr:city": "Rastatt", "addr:country": "DE", "addr:housenumber": "39", "addr:postcode": "76437", "addr:street": "Engelstraße", "building": "hospital", "building:levels": "4", "emergency": "yes", "healthcare": "hospital", "name": "Kreiskrankenhaus Rastatt", "roof:colour": "grey", "roof:shape": "flat", "wheelchair": "yes"}}, {"name": "Kliniken Schmieder Heidelberg", "latitude": 49.3953953, "longitude": 8.7086102, "source": "osm", "_tags": {"addr:city": "Heidelberg", "addr:country": "DE", "addr:housenumber": "1", "addr:place": "Speyererhof", "addr:postcode": "69117", "amenity": "hospital", "description": "Neurologische Reha-Klinik", "name": "Kliniken Schmieder Heidelberg", "old_name": "Speyererhof", "phone": "+49 6221 65400", "toilets:wheelchair": "yes", "website": "https://www.kliniken-schmieder.de/kliniken-und-standorte/heidelberg.html", "wheelchair": "yes", "wikipedia": "de:Kliniken Schmieder"}}, {"name": "Krankenhaus Zum Guten Hirten", "latitude": 49.4878476, "longitude": 8.3847325, "source": "osm", "_tags": {"addr:city": "Ludwigshafen am Rhein", "addr:housenumber": "7", "addr:postcode": "67071", "addr:street": "Semmelweisstraße", "building": "hospital", "emergency": "yes", "healthcare": "hospital", "name": "Krankenhaus Zum Guten Hirten", "operator": "Krankenhaus-Stiftung der Niederbronner Schwestern", "roof:shape": "flat", "website": "https://www.guterhirte-ludwigshafen.de/"}}, {"name": "Unfallchirurgie - ATOS", "latitude": 49.4103451, "longitude": 8.6912209, "source": "osm", "_tags": {"addr:city": "Heidelberg", "addr:country": "DE", "addr:housenumber": "5/1", "addr:postcode": "69115", "addr:street": "Luisenstraße", "amenity": "hospital", "building": "hospital", "building:levels": "4", "name": "Unfallchirurgie - ATOS", "roof:levels": "1", "roof:shape": "many", "source": "Maps4BW, LGL, www.lgl-bw.de", "website": "https://atos-kliniken.com", "wheelchair": "no"}}, {"name": "St. Annastiftskrankenhaus", "latitude": 49.4633362, "longitude": 8.4310204, "source": "osm", "_tags": {"addr:city": "Ludwigshafen am Rhein", "addr:country": "DE", "addr:housenumber": "51", "addr:postcode": "67065", "addr:street": "Karolina-Burger-Straße", "addr:suburb": "Mundenheim", "amenity": "hospital", "building": "hospital", "contact:email": "info@st-marienkrankenhaus.de", "contact:phone": "+49 621 57020", "contact:website": "http://st-marienkrankenhaus.de", "healthcare": "hospital", "name": "St. Annastiftskrankenhaus", "wheelchair": "yes", "wikidata": "Q14944575", "wikimedia_commons": "Category:Marienkrankenhaus Ludwigshafen", "wikipedia": "de:St. Annastift"}}, {"name": "Lutrina-Klinik", "latitude": 49.4418656, "longitude": 7.7723088, "source": "osm", "_tags": {"addr:city": "Kaiserslautern", "addr:country": "DE", "addr:housenumber": "33", "addr:postcode": "67655", "addr:street": "Karl-Marx-Straße", "amenity": "hospital", "building": "yes", "check_date": "2024-12-14", "emergency": "yes", "healthcare": "hospital", "name": "Lutrina-Klinik", "wheelchair": "yes"}}, {"name": "Institut für Psychosomatische Kooperationsforschung und Familientherapie, Personalwohngebäude", "latitude": 49.4082582, "longitude": 8.6863492, "source": "osm", "_tags": {"addr:city": "Heidelberg", "addr:country": "DE", "addr:housenumber": "54", "addr:postcode": "69115", "addr:street": "Bergheimer Straße", "amenity": "hospital", "building": "university", "building:colour": "#ff9e6b", "building:levels": "4", "building:material": "brick", "building:roof": "pitched", "name": "Institut für Psychosomatische Kooperationsforschung und Familientherapie, Personalwohngebäude", "phone": "+49 6221 564701", "roof:colour": "#eecfaf", "roof:levels": "1", "roof:shape": "gambrel", "source": "Universitätsklinikum Heidelberg", "website": "https://www.klinikum.uni-heidelberg.de/ZPM-Startseite.106894.0.html", "wheelchair": "no"}}, {"name": "Tropenmedizinische Ambulanz / Heidelberg Institute of Global Health (HIGH) / Zentrum für Infektiologie", "latitude": 49.4158401, "longitude": 8.6698214, "source": "osm", "_tags": {"addr:city": "Heidelberg", "addr:housenumber": "324", "addr:postcode": "69120", "addr:street": "Im Neuenheimer Feld", "amenity": "hospital", "building": "university", "building:colour": "lightyellow", "building:levels": "5", "building:levels:underground": "2", "building:obm": "80", "description": "Behindertengerecht", "elevator": "yes", "healthcare": "hospital", "healthcare:speciality": "tropenmedizin;parasitologie", "name": "Tropenmedizinische Ambulanz / Heidelberg Institute of Global Health (HIGH) / Zentrum für Infektiologie", "operator": "Universitätsklinikum Heidelberg", "phone": "+49 6221 5622999", "roof:shape": "flat", "source": "Universitätsklinikum Heidelberg", "toilets:wheelchair": "yes", "website": "https://www.klinikum.uni-heidelberg.de/Sektion-Klinische-Tropenmedizin.5489.0.html", "wheelchair": "yes"}}, {"name": "ViDia Christliche Kliniken Standort Südendstraße", "latitude": 48.9992211, "longitude": 8.3892653, "source": "osm", "_tags": {"addr:city": "Karlsruhe", "addr:country": "DE", "addr:housenumber": "32", "addr:postcode": "76137", "addr:street": "Südendstraße", "addr:suburb": "Südweststadt", "amenity": "hospital", "brand": "ViDia", "check_date": "2024-08-08", "contact:website": "http://www.vidia-kliniken.de", "emergency": "yes", "healthcare": "hospital", "name": "ViDia Christliche Kliniken Standort Südendstraße", "network": "ViDia Christliche Kliniken Karlsruhe", "operator": "Vincentius-Diakonissen-Kliniken gAG", "operator:type": "private_non_profit"}}, {"name": "Theresien-Krankenhaus", "latitude": 49.4896396, "longitude": 8.4820619, "source": "osm", "_tags": {"amenity": "hospital", "emergency": "yes", "healthcare": "hospital", "name": "Theresien-Krankenhaus", "toilets:wheelchair": "yes", "website": "https://www.theresienkrankenhaus.de/", "wheelchair": "yes", "wikidata": "Q1669425", "wikimedia_commons": "Category:Theresienkrankenhaus (Mannheim)", "wikipedia": "de:Theresienkrankenhaus und St. Hedwig-Klinik Mannheim"}}, {"name": "Diakoniekrankenhaus Mannheim", "latitude": 49.4639218, "longitude": 8.4708953, "source": "osm", "_tags": {"addr:city": "Mannheim", "addr:country": "DE", "addr:housenumber": "91-93", "addr:postcode": "68163", "addr:street": "Speyerer Straße", "amenity": "hospital", "emergency": "yes", "healthcare": "hospital", "name": "Diakoniekrankenhaus Mannheim", "old_name": "Diakonissenkrankenhaus", "opening_hours": "24/7", "phone": "+49 621 81020", "website": "http://www.diako-mannheim.de/", "wheelchair": "yes", "wikidata": "Q1208291", "wikimedia_commons": "Category:Diakonissenkrankenhaus Mannheim", "wikipedia": "de:Diakoniekrankenhaus Mannheim"}}, {"name": "Kinder- & Jugendpsychiatrie Heidelberg", "latitude": 49.4087811, "longitude": 8.6852753, "source": "osm", "_tags": {"addr:city": "Heidelberg", "addr:country": "DE", "addr:housenumber": "11", "addr:postcode": "69115", "addr:street": "Voßstraße", "amenity": "hospital", "building": "yes", "emergency": "yes", "healthcare": "doctor", "healthcare:speciality": "psychiatry", "name": "Kinder- & Jugendpsychiatrie Heidelberg", "operator": "Universitätsklinikum Heidelberg", "ref": "Gebäude 4314", "roof:shape": "flat"}}, {"name": "ViDia Christliche Kliniken Standort Steinhäuserstraße", "latitude": 48.9999115, "longitude": 8.378984, "source": "osm", "_tags": {"amenity": "hospital", "brand": "ViDia", "contact:website": "http://www.vidia-kliniken.de", "healthcare": "hospital", "name": "ViDia Christliche Kliniken Standort Steinhäuserstraße", "network": "ViDia Christliche Kliniken Karlsruhe", "operator": "Vincentius-Diakonissen-Kliniken gAG", "operator:type": "private_non_profit", "toilets:wheelchair": "yes", "wheelchair": "yes"}}, {"name": "Klinikum Worms", "latitude": 49.6493428, "longitude": 8.3197991, "source": "osm", "_tags": {"amenity": "hospital", "check_date": "2023-10-13", "emergency": "yes", "healthcare": "hospital", "name": "Klinikum Worms", "wheelchair": "yes", "wikidata": "Q919201"}}, {"name": "GRN-Klinik Weinheim", "latitude": 49.5499419, "longitude": 8.6446953, "source": "osm", "_tags": {"addr:city": "Weinheim", "addr:country": "DE", "addr:housenumber": "1", "addr:postcode": "69469", "addr:street": "Röntgenstraße", "amenity": "hospital", "healthcare": "hospital", "name": "GRN-Klinik Weinheim", "operator": "Gesundheitszentren Rhein-Neckar", "operator:short": "GRN", "operator:wikidata": "Q48754458", "wheelchair": "yes"}}, {"name": "GRN-Klinik Weinheim", "latitude": 49.5496706, "longitude": 8.644652, "source": "osm", "_tags": {"addr:city": "Weinheim", "addr:country": "DE", "addr:housenumber": "1", "addr:postcode": "69469", "addr:street": "Röntgenstraße", "amenity": "hospital", "email": "klinik-weinheim@grn.de", "fax": "+49 6201 17032", "healthcare": "hospital", "name": "GRN-Klinik Weinheim", "operator": "Gesundheitszentren Rhein-Neckar", "operator:short": "GRN", "operator:wikidata": "Q48754458", "operator:wikipedia": "de:Gesundheitszentren Rhein-Neckar", "phone": "+49 6201 890", "website": "https://www.grn.de/klinik-weinheim", "wheelchair": "yes", "wikidata": "Q41762262", "wikipedia": "de:GRN-Klinik Weinheim"}}, {"name": "Kreiskrankenhaus Alzey", "latitude": 49.746157, "longitude": 8.1037983, "source": "osm", "_tags": {"amenity": "hospital", "contact:email": "empfang@drk-kh-alzey.de", "contact:fax": "+49 6731 407 210", "contact:phone": "+49 6731 407 0", "contact:website": "http://drk-kh-alzey.de", "emergency": "yes", "fixme": "neue Kontaktdaten etc. sobald Transition wirklich abgeschlossen", "healthcare": "hospital", "name": "Kreiskrankenhaus Alzey", "opening_hours": "24/7", "operator": "Landkreis Alzey-Worms", "wheelchair": "yes"}}, {"name": "Sankt Vincentius Krankenhaus", "latitude": 49.3160554, "longitude": 8.4213194, "source": "osm", "_tags": {"addr:city": "Speyer", "addr:country": "DE", "addr:housenumber": "4a", "addr:postcode": "67346", "addr:street": "Holzstraße", "amenity": "hospital", "check_date": "2024-04-03", "email": "verwaltung@vincentius-speyer.de", "fax": "+49 6232 133 293", "healthcare": "hospital", "name": "Sankt Vincentius Krankenhaus", "operator": "Krankenhausstiftung der Niederbronner Schwestern", "phone": "+49 6232 1330", "website": "https://www.vincentius-speyer.de/", "wheelchair": "yes", "wheelchair:description": "ebenerdig, schwellenlos erreichbar, mit Behinderten WC, mit Behindertenparkplatz", "wikidata": "Q1791754", "wikipedia": "de:Schwestern vom Göttlichen Erlöser"}}, {"name": "ZI-Klinik für abhängiges Verhalten", "latitude": 49.4933637, "longitude": 8.4687833, "source": "osm", "_tags": {"addr:city": "Mannheim", "addr:country": "DE", "addr:housenumber": "13", "addr:place": "K3", "addr:postcode": "68159", "amenity": "hospital", "building": "yes", "healthcare": "hospital", "name": "ZI-Klinik für abhängiges Verhalten"}}, {"name": "Ethianum", "latitude": 49.4093178, "longitude": 8.6843062, "source": "osm", "_tags": {"addr:city": "Heidelberg", "addr:country": "DE", "addr:housenumber": "6", "addr:postcode": "69115", "addr:street": "Voßstraße", "amenity": "hospital", "building": "yes", "building:levels": "4", "building:material": "sandstone", "check_date": "2024-05-15", "healthcare": "hospital", "name": "Ethianum", "roof:shape": "quadruple_saltbox", "toilets:wheelchair": "yes", "website": "https://ethianum-klinik-heidelberg.de", "wheelchair": "yes", "wikidata": "Q22674553"}}, {"name": "Augenklinik-Ambulanz", "latitude": 49.4928247, "longitude": 8.4868394, "source": "osm", "_tags": {"amenity": "hospital", "fixme": "Part of UMM, currently no better tagging established", "healthcare": "hospital", "healthcare:speciality": "ophthalmology", "hospital": "department", "name": "Augenklinik-Ambulanz", "wheelchair": "yes"}}, {"name": "Frauenklinik/Ambulanz", "latitude": 49.4930842, "longitude": 8.4872919, "source": "osm", "_tags": {"amenity": "hospital", "fixme": "Part of UMM, currently no better tagging established", "healthcare": "hospital", "healthcare:speciality": "gynaecology", "hospital": "department", "name": "Frauenklinik/Ambulanz", "wheelchair": "yes"}}, {"name": "Frauenklinik/Kreißsaal", "latitude": 49.4933639, "longitude": 8.4863375, "source": "osm", "_tags": {"amenity": "hospital", "fixme": "Part of UMM, currently no better tagging established", "healthcare": "hospital", "healthcare:speciality": "obstetrics", "hospital": "department", "name": "Frauenklinik/Kreißsaal", "wheelchair": "yes"}}, {"name": "HNO-Ambulanz", "latitude": 49.4929782, "longitude": 8.4863189, "source": "osm", "_tags": {"amenity": "hospital", "fixme": "Part of UMM, currently no better tagging established", "healthcare": "hospital", "healthcare:speciality": "otolaryngology", "hospital": "department", "name": "HNO-Ambulanz", "wheelchair": "limited"}}, {"name": "St. Josefskrankenhaus", "latitude": 49.4025692, "longitude": 8.6891404, "source": "osm", "_tags": {"amenity": "hospital", "contact:phone": "+49 6221 5260", "contact:website": "https://st.josefskrankenhaus.de", "emergency": "yes", "emergency_telephone_code": "+49 6221 526888", "healthcare": "hospital", "name": "St. Josefskrankenhaus", "opening_hours": "24/7", "wheelchair": "yes"}}, {"name": "Centralklinik Pforzheim", "latitude": 48.8908341, "longitude": 8.6968337, "source": "osm", "_tags": {"amenity": "hospital", "building": "yes", "contact:city": "Pforzheim", "contact:country": "DE", "contact:email": "info@centralklinik.de", "contact:fax": "+49 7231 351295", "contact:housenumber": "22-24", "contact:phone": "+49 7231 3880", "contact:postcode": "75172", "contact:street": "Zerrennerstraße", "contact:website": "http://www.centralklinik-pforzheim.de/content.php", "healthcare": "hospital", "name": "Centralklinik Pforzheim", "source": "bing"}}, {"name": "Bethanien-Krankenhaus", "latitude": 49.3917759, "longitude": 8.6910169, "source": "osm", "_tags": {"addr:city": "Heidelberg", "addr:country": "DE", "addr:housenumber": "149", "addr:postcode": "69126", "addr:street": "Rohrbacher Straße", "amenity": "hospital", "healthcare": "hospital", "name": "Bethanien-Krankenhaus", "name:etymology:wikidata": "Q831190", "official_name": "Agaplesion Bethanien Krankenhaus Heidelberg", "website": "https://www.bethanien-heidelberg.de/", "wheelchair": "yes", "wikidata": "Q390555", "wikipedia": "de:Agaplesion Bethanien Krankenhaus Heidelberg"}}, {"name": "Westpfalz-Klinikum Standort Kirchheimbolanden", "latitude": 49.6588375, "longitude": 8.0076943, "source": "osm", "_tags": {"alt_name": "Westpfalz-Klinikum Kirchheimbolanden", "amenity": "hospital", "contact:email": "info@westpfalz-klinikum.de", "contact:fax": "+49 6352 405-228", "contact:phone": "+49 6352 4050", "contact:website": "http://westpfalz-klinikum.de", "emergency": "yes", "healthcare": "hospital", "name": "Westpfalz-Klinikum Standort Kirchheimbolanden", "opening_hours": "24/7", "operator": "Westpfalz-Klinikum GmbH", "wheelchair": "yes"}}, {"name": "Krankenhaus Rockenhausen", "latitude": 49.6307343, "longitude": 7.8144719, "source": "osm", "_tags": {"alt_name": "Westpfalz-Klinikum Rockenhausen", "amenity": "hospital", "contact:fax": "+49 6361 455-441", "contact:phone": "+49 6361 455-0", "contact:website": "https://www.westpfalz-klinikum.de", "emergency": "yes", "healthcare": "hospital", "healthcare:speciality": "geriatrics;internal;cardiology;psychiatry", "name": "Krankenhaus Rockenhausen", "opening_hours": "24/7", "operator": "Westpfalz-Klinikum GmbH", "operator:wikidata": "Q2565555", "wheelchair": "yes", "wikidata": "Q56045754", "wikipedia": "de:Krankenhaus Rockenhausen"}}, {"name": "Zentralinstitut für Seelische Gesundheit", "latitude": 49.4922133, "longitude": 8.4658312, "source": "osm", "_tags": {"amenity": "hospital", "check_date": "2024-06-10", "contact:website": "http://www.zi-mannheim.de/", "healthcare": "hospital", "name": "Zentralinstitut für Seelische Gesundheit", "short_name": "ZI", "toilets:wheelchair": "yes", "wheelchair": "yes", "wikidata": "Q190621", "wikimedia_commons": "Category:Zentralinstitut für Seelische Gesundheit (Mannheim)", "wikipedia": "de:Zentralinstitut für Seelische Gesundheit"}}, {"name": "Zentrum für Psychosoziale Medizin", "latitude": 49.4092669, "longitude": 8.6860874, "source": "osm", "_tags": {"amenity": "hospital", "check_date": "2024-05-15", "healthcare": "hospital", "name": "Zentrum für Psychosoziale Medizin", "wheelchair": "limited"}}, {"name": "Kreiskrankenhaus Grünstadt", "latitude": 49.5637826, "longitude": 8.1578416, "source": "osm", "_tags": {"amenity": "hospital", "emergency": "yes", "healthcare": "hospital", "name": "Kreiskrankenhaus Grünstadt", "phone": "+49 6359 8090", "toilets:wheelchair": "yes", "website": "https://www.krankenhausgruenstadt.de/", "wheelchair": "yes", "wheelchair:description": "nach Barrierefreiheit der Zimmer fragen"}}, {"name": "Klinik für Kinder- und Jugendpsychiatrie, Psychosomatik und Psychotherapie", "latitude": 49.0120252, "longitude": 8.3800276, "source": "osm", "_tags": {"addr:city": "Karlsruhe", "addr:housenumber": "7", "addr:postcode": "76133", "addr:street": "Südliche Hildapromenade", "amenity": "hospital", "building": "hospital", "building:levels": "2", "healthcare": "hospital", "healthcare:speciality": "psychiatry", "name": "Klinik für Kinder- und Jugendpsychiatrie, Psychosomatik und Psychotherapie", "operator": "Städtisches Klinikum Karlsruhe", "roof:shape": "flat", "source:geometry": "Maps4BW, LGL, www.lgl-bw.de;Bing 2013", "start_date": "2011", "website": "https://www.klinikum-karlsruhe.de/einrichtungen/psychiatrische-kliniken/kinder-und-jugendpsychiatrie-psychosomatik-und-psychotherapie/", "wheelchair": "yes", "wikidata": "Q125697636"}}, {"name": "Pfalzklinikum Klingenmünster", "latitude": 49.1502328, "longitude": 8.0143616, "source": "osm", "_tags": {"amenity": "hospital", "email": "info@pfalzklinikum.de", "emergency": "yes", "healthcare": "hospital", "healthcare:speciality": "child_psychiatry;neurology;psychiatry", "name": "Pfalzklinikum Klingenmünster", "phone": "+49 6349 900-0", "website": "https://www.pfalzklinikum.de/standorte/klingenmuenster/"}}, {"name": "Medizinische Klinik", "latitude": 49.416213, "longitude": 8.6664761, "source": "osm", "_tags": {"addr:city": "Heidelberg", "addr:housenumber": "410", "addr:postcode": "69120", "addr:street": "Im Neuenheimer Feld", "alt_name": "Ludolf-Krehl-Klinik", "amenity": "hospital", "description": "behindertengerecht", "elevator": "yes", "healthcare": "hospital", "name": "Medizinische Klinik", "toilets:wheelchair": "yes", "wheelchair": "yes", "wikidata": "Q101426898"}}, {"name": "Klinik Sankt Elisabeth", "latitude": 49.421185, "longitude": 8.6816458, "source": "osm", "_tags": {"addr:city": "Heidelberg", "addr:country": "DE", "addr:housenumber": "5-7", "addr:postcode": "69121", "addr:street": "Furtwänglerstraße", "amenity": "hospital", "check_date": "2024-07-01", "contact:phone": "+49 6221 4880", "emergency": "no", "healthcare": "hospital", "healthcare:speciality": "anaesthetics;gynaecology;orthopaedics;plastic_surgery", "name": "Klinik Sankt Elisabeth", "website": "https://www.sankt-elisabeth.de/", "wheelchair": "limited", "wikidata": "Q1774567", "wikipedia": "de:Klinik Sankt Elisabeth"}}, {"name": "BG Klinik Ludwigshafen", "latitude": 49.4856133, "longitude": 8.3886978, "source": "osm", "_tags": {"addr:city": "Ludwigshafen am Rhein", "addr:housenumber": "13", "addr:postcode": "67071", "addr:street": "Ludwig-Guttmann-Straße", "alt_name": "Berufsgenossenschaftliche Unfallklinik Ludwigshafen", "building": "hospital", "emergency": "yes", "healthcare": "hospital", "name": "BG Klinik Ludwigshafen", "operator": "BG Kliniken Ludwigshafen und Tübingen gGmbH", "short_name": "BGU Ludwigshafen", "website": "https://www.bg-kliniken.de/klinik-ludwigshafen/", "wikidata": "Q828950", "wikipedia": "de:Berufsgenossenschaftliche Unfallklinik Ludwigshafen"}}, {"name": "Rechbergklinik", "latitude": 49.0337226, "longitude": 8.6972466, "source": "osm", "_tags": {"addr:city": "Bretten", "addr:housenumber": "15", "addr:postcode": "75015", "addr:street": "Virchowstraße", "amenity": "hospital", "emergency": "yes", "healthcare": "hospital", "name": "Rechbergklinik", "website": "http://www.rechbergklinik.de/", "wheelchair": "yes"}}, {"name": "Kraichtal-Kliniken, Haus Kraichtalblick", "latitude": 49.1083702, "longitude": 8.7092829, "source": "osm", "_tags": {"addr:city": "Kraichtal", "addr:housenumber": "46", "addr:postcode": "76703", "addr:street": "Sternackerstraße", "amenity": "hospital", "building": "hospital", "name": "Kraichtal-Kliniken, Haus Kraichtalblick"}}, {"name": "ViDia Christliche Kliniken Standort Edgar-von-Gierke-Straße", "latitude": 49.0013801, "longitude": 8.3784067, "source": "osm", "_tags": {"amenity": "hospital", "brand": "ViDia", "contact:website": "http://www.vidia-kliniken.de", "name": "ViDia Christliche Kliniken Standort Edgar-von-Gierke-Straße", "network": "ViDia Christliche Kliniken Karlsruhe", "operator": "Vincentius-Diakonissen-Kliniken gAG", "wheelchair": "yes"}}, {"name": "Haus Burgwald", "latitude": 49.8070783, "longitude": 8.6807764, "source": "osm", "_tags": {"addr:city": "Mühltal", "addr:housenumber": "3", "addr:postcode": "64367", "addr:street": "In der Mordach", "amenity": "hospital", "check_date": "2025-08-17", "name": "Haus Burgwald"}}, {"name": "Thoraxklinik Heidelberg", "latitude": 49.3778774, "longitude": 8.6902949, "source": "osm", "_tags": {"addr:city": "Heidelberg", "addr:housenumber": "1", "addr:postcode": "69126", "addr:street": "Röntgenstraße", "amenity": "hospital", "healthcare": "hospital", "name": "Thoraxklinik Heidelberg", "phone": "+49 6221 3960", "website": "https://www.thoraxklinik-heidelberg.de/", "wheelchair": "yes", "wikidata": "Q1411803", "wikipedia": "de:Thoraxklinik Heidelberg"}}, {"name": "Zentralinstitut für Seelische Gesundheit", "latitude": 49.4928932, "longitude": 8.4680637, "source": "osm", "_tags": {"addr:postcode": "68159", "amenity": "hospital", "contact:facebook": "zi.mannheim.j5", "contact:instagram": "zi_mannheim", "contact:twitter": "zi_mannheim", "email": "zentralambulanz@zi-mannheim.de", "emergency": "no", "healthcare": "hospital", "name": "Zentralinstitut für Seelische Gesundheit", "opening_hours": "Mo-Su 08:30-17:00", "phone": "+49 621 17032850", "website": "https://www.zi-mannheim.de/index.html"}}, {"name": "Asklepios Südpfalzklinik Germersheim", "latitude": 49.2200087, "longitude": 8.365767, "source": "osm", "_tags": {"amenity": "hospital", "email": "germersheim@asklepios.com", "emergency": "yes", "fax": "+49 7274 504 113", "healthcare": "hospital", "name": "Asklepios Südpfalzklinik Germersheim", "opening_hours": "24/7", "operator": "Asklepios Kliniken", "operator:type": "private", "operator:wikidata": "Q732068", "phone": "+49 7274 504 0", "website": "https://www.asklepios.com/germersheim/"}}, {"name": "ATOS Klinik", "latitude": 49.4104386, "longitude": 8.6919701, "source": "osm", "_tags": {"amenity": "hospital", "fax": "+49 6221 983-919", "healthcare": "hospital", "name": "ATOS Klinik", "operator": "ATOS Praxisklinik GmbH & Co. KG", "phone": "+49 6221 9830", "source:geometry": "LGL, www.lgl-bw.de", "toilets:wheelchair": "yes", "website": "https://atos-kliniken.com/de/heidelberg/", "wheelchair": "yes"}}, {"name": "Centre hospitalier intercommunal de la Lauter", "latitude": 49.0415645, "longitude": 7.9321852, "source": "osm", "_tags": {"addr:city": "Wissembourg", "addr:housenumber": "24", "addr:postcode": "67166", "addr:street": "Route de Weiler", "amenity": "hospital", "check_date": "2025-03-10", "emergency": "yes", "fax": "+33 3 88 54 11 12", "healthcare": "hospital", "name": "Centre hospitalier intercommunal de la Lauter", "operator:type": "public", "phone": "+33 3 88 54 11 11", "ref:FR:FINESS": "670000272", "type:FR:FINESS": "355", "website": "https://www.ch-wissembourg.fr/"}}, {"name": "BG Klinik Ludwigshafen", "latitude": 49.4854583, "longitude": 8.388468, "source": "osm", "_tags": {"amenity": "hospital", "check_date": "2025-01-29", "healthcare": "hospital", "name": "BG Klinik Ludwigshafen", "website": "https://www.bg-kliniken.de/klinik-ludwigshafen/"}}, {"name": "Evangelisches Krankenhaus Bad Dürkheim", "latitude": 49.4665575, "longitude": 8.1791839, "source": "osm", "_tags": {"alt_name": "Ev. Krankenhaus der Inneren Mission Bad Dürkheim", "amenity": "hospital", "email": "krankenhaus-duew@diakonissen.de", "emergency": "yes", "healthcare": "hospital", "name": "Evangelisches Krankenhaus Bad Dürkheim", "phone": "+49 6322 6070", "website": "https://www.diakonissen.de/"}}, {"name": "Privatklinik Bad Gleisweiler", "latitude": 49.242326, "longitude": 8.0602199, "source": "osm", "_tags": {"amenity": "hospital", "contact:email": "chefarzt@pkbg.de", "contact:fax": "+49 6345 940-188", "contact:phone": "+49 6345 9400", "contact:website": "https://www.privatklinik-bad-gleisweiler.de", "emergency": "no", "healthcare": "hospital", "name": "Privatklinik Bad Gleisweiler", "operator": "Privatklinik Bad Gleisweiler Hilz KG"}}, {"name": "Salem", "latitude": 49.4233961, "longitude": 8.6837684, "source": "osm", "_tags": {"addr:city": "Heidelberg", "addr:country": "DE", "addr:housenumber": "33", "addr:postcode": "69121", "addr:street": "Zeppelinstraße", "amenity": "hospital", "beds": "238", "check_date": "2024-04-02", "contact:phone": "+49 6221 4830", "healthcare": "hospital", "name": "Salem", "name:etymology:wikidata": "Q4377375", "operator": "Evangelische Stadtmission Heidelberg gGmb", "roof:colour": "#b6ae9f", "website": "https://www.krankenhaus-salem.de", "wheelchair": "yes"}}, {"name": "Clinique Sainte-Odile", "latitude": 48.8187638, "longitude": 7.7925561, "source": "osm", "_tags": {"addr:city": "Haguenau", "addr:country": "FR", "addr:housenumber": "6", "addr:postcode": "67500", "addr:street": "Rue des Prémontrés", "amenity": "hospital", "check_date": "2025-05-27", "healthcare": "hospital", "name": "Clinique Sainte-Odile", "ref:FR:FINESS": "670780386", "type:FR:FINESS": "365"}}, {"name": "Centre de rééducation et de réadaptation d’Alsace du Nord (CERRAN)", "latitude": 48.9064938, "longitude": 7.7470122, "source": "osm", "_tags": {"addr:city": "Morsbronn-les-Bains", "addr:housenumber": "12", "addr:postcode": "67360", "addr:street": "Route de Haguenau", "amenity": "hospital", "healthcare": "hospital", "healthcare:speciality": "rheumatology", "name": "Centre de rééducation et de réadaptation d’Alsace du Nord (CERRAN)", "ref:FR:FINESS": "670780550", "type:FR:FINESS": "109"}}, {"name": "Schön Klinik Lorsch", "latitude": 49.6522034, "longitude": 8.5627027, "source": "osm", "_tags": {"addr:city": "Lorsch", "addr:country": "DE", "addr:housenumber": "10", "addr:postcode": "64653", "addr:street": "Wilhelm-Leuschner-Straße", "amenity": "hospital", "beds": "100", "emergency": "yes", "healthcare": "hospital", "healthcare:speciality": "intensive;orthopaedics;emergency", "name": "Schön Klinik Lorsch", "operator": "Schön Klinik", "operator:type": "private", "operator:wikidata": "Q2258661", "phone": "+49 6251 591360", "start_date": "1987", "website": "https://www.schoen-klinik.de/lorsch"}}, {"name": "Klinik Schloss Falkenhof", "latitude": 49.6844917, "longitude": 8.640267, "source": "osm", "_tags": {"addr:city": "Bensheim", "addr:country": "DE", "addr:housenumber": "109", "addr:postcode": "64625", "addr:street": "Nibelungenstraße", "amenity": "hospital", "healthcare": "hospital", "name": "Klinik Schloss Falkenhof", "operator": "Caritasverband Darmstadt e.V.", "source": "Bing Sat", "website": "https://www.klinik-falkenhof.de/", "wheelchair": "limited"}}, {"name": "Chirurgische Klinik", "latitude": 49.4155818, "longitude": 8.6651569, "source": "osm", "_tags": {"addr:city": "Heidelberg", "addr:country": "DE", "addr:housenumber": "420", "addr:postcode": "69120", "addr:street": "Im Neuenheimer Feld", "amenity": "hospital", "healthcare": "hospital", "name": "Chirurgische Klinik", "website": "https://www.klinikum.uni-heidelberg.de/chirurgische-klinik-zentrum"}}, {"name": "Spezialklinik Jugenheim", "latitude": 49.7530208, "longitude": 8.6378695, "source": "osm", "_tags": {"addr:city": "Seeheim-Jugenheim", "addr:country": "DE", "addr:housenumber": "30", "addr:postcode": "64342", "addr:street": "Hauptstraße", "amenity": "hospital", "healthcare": "hospital", "name": "Spezialklinik Jugenheim", "old_name": "Kreisklinik Jugenheim", "phone": "+49 6257 508 0", "toilets:wheelchair": "yes", "wheelchair": "yes"}}, {"name": "Kreiskrankenhaus Heppenheim", "latitude": 49.6290401, "longitude": 8.6252102, "source": "osm", "_tags": {"amenity": "hospital", "emergency": "yes", "healthcare": "hospital", "name": "Kreiskrankenhaus Heppenheim"}}, {"name": "Universitätsklinikum Heidelberg", "latitude": 49.4169859, "longitude": 8.6644715, "source": "osm", "_tags": {"amenity": "hospital", "deaf:description:de": "Barrierefreiheits-Infos in Gebärdensprache auf der Website (https://www.klinikum.uni-heidelberg.de/gebaerdensprache) verfügbar.", "deaf:description:en": "Accessibility information in sign language is available on the webpage (https://www.klinikum.uni-heidelberg.de/gebaerdensprache).", "healthcare": "hospital", "name": "Universitätsklinikum Heidelberg", "wikidata": "Q324206", "wikipedia": "de:Universitätsklinikum Heidelberg"}}, {"name": "St. Marien Krankenhaus Lampertheim", "latitude": 49.597042, "longitude": 8.4673311, "source": "osm", "_tags": {"amenity": "hospital", "contact:website": "https://www.stmarienkrankenhaus.de/", "emergency": "yes", "healthcare": "hospital", "healthcare:speciality": "geriatrics;internal", "name": "St. Marien Krankenhaus Lampertheim", "opening_hours": "24/7", "operator": "St. Marien Krankenhaus Lampertheim GmbH", "wheelchair": "yes"}}, {"name": "ViDia Christliche Kliniken Standort Diakonissenstraße", "latitude": 48.9710573, "longitude": 8.4106271, "source": "osm", "_tags": {"addr:city": "Karlsruhe", "addr:housenumber": "28", "addr:postcode": "76199", "addr:street": "Diakonissenstraße", "amenity": "hospital", "brand": "ViDia", "healthcare": "hospital", "name": "ViDia Christliche Kliniken Standort Diakonissenstraße", "operator": "ViDia Christliche Kliniken Karlsruhe", "operator:type": "private_non_profit", "website": "https://www.vidia-kliniken.de/", "wheelchair": "yes", "wikidata": "Q1208336", "wikipedia": "de:Diakonissenkrankenhaus Karlsruhe-Rüppurr"}}, {"name": "Reha-Klinik Freiolsheim Psychosoziales Zentrum", "latitude": 48.8443137, "longitude": 8.3798675, "source": "osm", "_tags": {"addr:city": "Gaggenau", "addr:country": "DE", "addr:housenumber": "55", "addr:postcode": "76571", "addr:street": "Max-Hildebrandt-Straße", "amenity": "hospital", "healthcare": "hospital", "name": "Reha-Klinik Freiolsheim Psychosoziales Zentrum", "operator": "AGJ-Fachverband für Prävention und Rehabilitation in der Erzdiözese Freiburg e.V."}}, {"name": "SRH Gesundheitszentrum Waldbronn", "latitude": 48.9258576, "longitude": 8.4701002, "source": "osm", "_tags": {"amenity": "hospital", "check_date": "2024-08-31", "healthcare": "hospital", "name": "SRH Gesundheitszentrum Waldbronn"}}, {"name": "Gesundheitszentren Rhein-Neckar", "latitude": 49.3779779, "longitude": 8.5695953, "source": "osm", "_tags": {"amenity": "hospital", "healthcare": "hospital", "name": "Gesundheitszentren Rhein-Neckar", "operator": "Gesundheitszentren Rhein-Neckar", "operator:short": "GRN", "operator:type": "private", "operator:wikidata": "Q48754458", "operator:wikipedia": "de:Gesundheitszentren Rhein-Neckar"}}, {"name": "Krankenhaus Zum Guten Hirten", "latitude": 49.487739, "longitude": 8.3844303, "source": "osm", "_tags": {"amenity": "hospital", "healthcare": "hospital", "name": "Krankenhaus Zum Guten Hirten", "website": "https://www.guterhirte-ludwigshafen.de/", "wheelchair": "yes"}}, {"name": "", "latitude": 48.8615767, "longitude": 8.2050969, "source": "osm", "_tags": {"amenity": "hospital", "healthcare": "hospital", "toilets:wheelchair": "yes", "wheelchair": "yes"}}, {"name": "", "latitude": 49.2829562, "longitude": 8.0873245, "source": "osm", "_tags": {"amenity": "hospital", "healthcare": "hospital"}}, {"name": "St. Josef-Krankenhaus", "latitude": 49.5360445, "longitude": 8.5744712, "source": "osm", "_tags": {"amenity": "hospital", "contact:email": "krankenhaus@stj-kh-vhm.de", "contact:fax": "+49 6204 703-110", "contact:phone": "+49 6204 7030", "contact:website": "https://www.krankenhaus-viernheim.de", "description": "Belegarztkrankenhaus mit den Fachrichtungen -Chirurgie -Gynäkologie -Hals/ Nasen /Ohren -heilkunde -Innere Medizin -Mund-, Kiefer und Gesichtschirurgie -Anästhesie -Radiologie", "emergency": "yes", "healthcare": "hospital", "name": "St. Josef-Krankenhaus", "opening_hours": "24/7", "wheelchair": "yes"}}, {"name": "Heilig-Geist Hospital Bensheim", "latitude": 49.6784244, "longitude": 8.620266, "source": "osm", "_tags": {"amenity": "hospital", "email": "info@hgh-mail.de", "emergency": "yes", "healthcare": "hospital", "name": "Heilig-Geist Hospital Bensheim", "opening_hours": "24/7", "operator": "Katholischer Klinikverbund Südhessen gemeinnützige GmbH", "phone": "+49 6251 1320", "website": "https://www.hgh-bensheim.de/", "wheelchair": "yes"}}, {"name": "", "latitude": 49.1559581, "longitude": 7.7920247, "source": "osm", "_tags": {"amenity": "hospital", "healthcare": "hospital"}}, {"name": "Vinzentius-Krankenhaus", "latitude": 49.1901089, "longitude": 8.1143065, "source": "osm", "_tags": {"addr:city": "Landau in der Pfalz", "addr:country": "DE", "addr:housenumber": "4", "addr:postcode": "76829", "addr:street": "Cornichonstraße", "amenity": "hospital", "healthcare": "hospital", "name": "Vinzentius-Krankenhaus", "official_name": "Vinzentius-Krankenhaus Landau", "operator:wikidata": "Q1036345", "website": "https://www.vinzentius.de", "wheelchair": "yes", "wikidata": "Q2527243"}}, {"name": "Klinik Bad Bergzabern", "latitude": 49.106257, "longitude": 8.0000136, "source": "osm", "_tags": {"amenity": "hospital", "contact:fax": "+49 6343 950 3509", "contact:phone": "+49 6343 950 0", "emergency": "yes", "healthcare": "hospital", "name": "Klinik Bad Bergzabern", "operator": "Klinikum Landau-SÜW", "source": "http://www.klinikum-ld-suew.de/klinik-bad-bergzabern/", "wikidata": "Q50038975"}}, {"name": "Enzkreis-Kliniken Neuenbürg", "latitude": 48.8527287, "longitude": 8.5880672, "source": "osm", "_tags": {"amenity": "hospital", "fax": "+49 7082 79652205", "healthcare": "hospital", "name": "Enzkreis-Kliniken Neuenbürg", "phone": "+49 7082 7960", "website": "http://www.enzkreis-kliniken.de/", "wheelchair": "yes"}}, {"name": "Gotthard-Schettler-Klinik, Sigmund-Weil-Klinik", "latitude": 49.2167664, "longitude": 8.6713777, "source": "osm", "_tags": {"addr:city": "Bad Schönborn", "addr:country": "DE", "addr:housenumber": "4", "addr:postcode": "76669", "addr:street": "Prof.-Kurt-Sauer-Straße", "addr:suburb": "Bad Mingolsheim", "amenity": "hospital", "emergency": "no", "healthcare": "hospital", "name": "Gotthard-Schettler-Klinik, Sigmund-Weil-Klinik", "website": "https://www.celenus-kliniken.de/", "wheelchair": "limited"}}, {"name": "Kopfklinik", "latitude": 49.4178236, "longitude": 8.6661399, "source": "osm", "_tags": {"addr:city": "Heidelberg", "addr:housenumber": "400", "addr:postcode": "69120", "addr:street": "Im Neuenheimer Feld", "amenity": "hospital", "building": "hospital", "building:levels": "5", "building:obm": "40", "description": "behindertengerecht", "elevator": "yes", "emergency": "yes", "healthcare": "hospital", "name": "Kopfklinik", "phone": "+49 6221 566999", "roof:levels": "1", "roof:shape": "flat", "toilets:wheelchair": "yes", "type": "multipolygon", "website": "https://www.klinikum.uni-heidelberg.de/Kopfklinik-Startseite.1111.0.html", "wheelchair": "yes", "wikidata": "Q104494775"}}, {"name": "Kinderklinik", "latitude": 49.4176806, "longitude": 8.6625235, "source": "osm", "_tags": {"addr:city": "Heidelberg", "addr:housenumber": "430", "addr:postcode": "69120", "addr:street": "Im Neuenheimer Feld", "alt_name": "Angelika-Lautenschläger-Klinik", "amenity": "hospital", "building": "hospital", "building:levels": "5", "elevator": "yes", "emergency": "yes", "healthcare": "hospital", "height": "20", "name": "Kinderklinik", "name:etymology:wikidata": "Q57241077", "roof:levels": "0", "roof:shape": "flat", "toilets:wheelchair": "yes", "type": "multipolygon", "wheelchair": "yes", "wikidata": "Q104494299"}}, {"name": "Klinikum Worms", "latitude": 49.6493847, "longitude": 8.3197991, "source": "osm", "_tags": {"addr:city": "Worms", "addr:country": "DE", "addr:housename": "Klinikum Worms", "addr:housenumber": "81", "addr:postcode": "67550", "addr:street": "Gabriel-von-Seidl-Straße", "addr:suburb": "Herrnsheim", "amenity": "hospital", "contact:email": "info@klinikum-worms.de", "contact:phone": "+49 6241 501-0", "contact:website": "http://www.klinikum-worms.de/", "emergency": "yes", "name": "Klinikum Worms", "type": "site"}}, {"name": "Klinik für Allgemeine Psychiatrie", "latitude": 49.4096495, "longitude": 8.6856026, "source": "osm", "_tags": {"addr:city": "Heidelberg", "addr:country": "DE", "addr:housenumber": "4", "addr:postcode": "69115", "addr:street": "Voßstraße", "amenity": "hospital", "building": "hospital", "building:levels": "2", "emergency": "yes", "healthcare": "hospital", "healthcare:speciality": "psychiatry", "internet_access": "wlan", "name": "Klinik für Allgemeine Psychiatrie", "operator": "Universitätsklinikum Heidelberg", "roof:levels": "1", "roof:shape": "flat", "toilets:wheelchair": "yes", "type": "multipolygon", "wheelchair": "yes"}}, {"name": "HELIOS Klinikum Pforzheim", "latitude": 48.8896301, "longitude": 8.7135651, "source": "osm", "_tags": {"amenity": "hospital", "contact:phone": "+49 7231 9690", "contact:website": "http://www.helios-kliniken.de/klinik/pforzheim.html", "name": "HELIOS Klinikum Pforzheim", "type": "site"}}, {"name": "Haus Jakobsberg", "latitude": 49.7400231, "longitude": 8.1291073, "source": "osm", "_tags": {"building": "hospital", "description": "Akut-Psychiatrie", "healthcare": "hospital", "healthcare:speciality": "psychiatry", "name": "Haus Jakobsberg", "type": "multipolygon"}}, {"name": "St. Marienkrankenhaus", "latitude": 49.4575866, "longitude": 8.4088909, "source": "osm", "_tags": {"amenity": "hospital", "email": "info@st-marienkrankenhaus.de", "emergency": "yes", "healthcare": "hospital", "name": "St. Marienkrankenhaus", "operator": "St. Dominikus Krankenhaus und Jugendhilfe gGmbH", "phone": "+49 621 5501-0", "type": "multipolygon", "website": "https://www.st-marienkrankenhaus.de/", "wheelchair": "yes"}}, {"name": "Städtisches Klinikum", "latitude": 49.0154826, "longitude": 8.374507, "source": "osm", "_tags": {"addr:city": "Karlsruhe", "amenity": "hospital", "contact:phone": "+49 721 974-0", "emergency": "yes", "healthcare": "hospital", "name": "Städtisches Klinikum", "toilets:wheelchair": "yes", "type": "multipolygon", "website": "https://www.klinikum-karlsruhe.de/", "wheelchair": "yes", "wikidata": "Q2360061", "wikipedia": "de:Städtisches Klinikum Karlsruhe"}}, {"name": "Geriatrische Fachklinik Rheinhessen-Nahe", "latitude": 49.810787, "longitude": 7.8457355, "source": "osm", "_tags": {"addr:city": "Bad Kreuznach", "addr:housenumber": "63-65", "addr:postcode": "55583", "addr:street": "Berliner Straße", "addr:suburb": "Bad Münster am Stein-Ebernburg", "amenity": "hospital", "building": "yes", "healthcare": "hospital", "healthcare:speciality": "geriatrics", "name": "Geriatrische Fachklinik Rheinhessen-Nahe", "type": "multipolygon", "wheelchair": "yes"}}]