[{"name": "Caritas-Krankenhaus", "latitude": 49.4904813, "longitude": 9.7631161, "source": "osm", "_tags": {"amenity": "hospital", "emergency": "yes", "healthcare": "hospital", "name": "Caritas-Krankenhaus", "toilets:wheelchair": "yes", "wheelchair": "yes", "wikidata": "Q19962130", "wikipedia": "de:Caritas-Krankenhaus Bad Mergentheim"}}, {"name": "Hufeland Klinik", "latitude": 49.495874, "longitude": 9.7806203, "source": "osm", "_tags": {"amenity": "hospital", "name": "Hufeland Klinik"}}, {"name": "Evangelisches Diakoniewerk Schwäbisch Hall", "latitude": 49.1247857, "longitude": 9.7422999, "source": "osm", "_tags": {"addr:city": "Schwäbisch Hall", "addr:country": "DE", "addr:housenumber": "1", "addr:postcode": "74523", "addr:street": "Am Mutterhaus", "alt_name": "Diak", "amenity": "hospital", "contact:phone": "+49 791 753-0", "contact:website": "http://www.dasdiak.de/", "fixme": "obsolet, stattdessen Gebäude und area gemappt. Kann diesen Punkt nicht löschen. warum?", "healthcare": "hospital", "lastcheck": "2016-11-19", "name": "Evangelisches Diakoniewerk Schwäbisch Hall", "wheelchair": "yes", "wikidata": "Q1381280"}}, {"name": "Rehaklinik Ob der Tauber", "latitude": 49.4961985, "longitude": 9.7882604, "source": "osm", "_tags": {"amenity": "hospital", "emergency": "no", "name": "Rehaklinik Ob der Tauber", "wheelchair": "yes"}}, {"name": "Kinderklinik am Mönchberg", "latitude": 49.7937229, "longitude": 9.9531356, "source": "osm", "_tags": {"amenity": "hospital", "check_date": "2024-04-25", "healthcare": "hospital", "name": "Kinderklinik am Mönchberg", "wheelchair": "yes"}}, {"name": "DAK Klinik Haus Schwaben", "latitude": 49.4943018, "longitude": 9.7865519, "source": "osm", "_tags": {"amenity": "hospital", "healthcare": "hospital", "name": "DAK Klinik Haus Schwaben"}}, {"name": "Özden Bulut Fahrdienst", "latitude": 49.7350186, "longitude": 10.1725577, "source": "osm", "_tags": {"amenity": "car_rental", "healthcare": "hospital", "name": "Özden Bulut Fahrdienst"}}, {"name": "Zentrum für Psychische Gesundheit Schwäbisch Hall", "latitude": 49.1084006, "longitude": 9.7321667, "source": "osm", "_tags": {"addr:city": "Schwäbisch Hall", "addr:housenumber": "1", "addr:postcode": "74523", "addr:street": "Ringstraße", "amenity": "school", "healthcare": "hospital", "healthcare:speciality": "psychiatry", "name": "Zentrum für Psychische Gesundheit Schwäbisch Hall"}}, {"name": "Jugendpsychiatrie", "latitude": 48.9573949, "longitude": 10.1320686, "source": "osm", "_tags": {"healthcare": "hospital", "healthcare:speciality": "child_psychiatry", "name": "Jugendpsychiatrie"}}, {"name": "König-Ludwig-Haus", "latitude": 49.7822437, "longitude": 9.9485815, "source": "osm", "_tags": {"addr:city": "Würzburg", "addr:country": "DE", "addr:housenumber": "11", "addr:postcode": "97074", "addr:street": "Brettreichstraße", "amenity": "hospital", "check_date": "2025-08-04", "email": "info@koenig-ludwig-haus.de", "healthcare": "hospital", "name": "König-Ludwig-Haus", "opening_hours": "Mo-Su 08:00-20:00", "phone": "+49 931 8030", "toilets:wheelchair": "no", "website": "https://www.koenig-ludwig-haus.de/", "wheelchair": "no"}}, {"name": "KfH-Nierenzentrum", "latitude": 49.8075562, "longitude": 9.9531689, "source": "osm", "_tags": {"addr:housenumber": "1", "addr:street": "Hans-Brandmann-Weg", "amenity": "hospital", "building": "hospital", "check_date": "2025-02-26", "emergency": "no", "healthcare": "hospital", "layer": "1", "name": "KfH-Nierenzentrum", "operator": "KfH Kuratorium für Dialyse und Nierentransplantation e.V."}}, {"name": "Bezirksklinikum Ansbach", "latitude": 49.2937963, "longitude": 10.5508941, "source": "osm", "_tags": {"addr:city": "Ansbach", "addr:country": "DE", "addr:housenumber": "38", "addr:postcode": "91522", "addr:street": "Feuchtwanger Straße", "amenity": "hospital", "healthcare": "hospital", "landuse": "residential", "name": "Bezirksklinikum Ansbach", "phone": "+49 981 46530", "toilets:wheelchair": "yes", "website": "https://www.bezirkskliniken-mfr.de/unsere-standorte/ansbach.html", "wheelchair": "limited", "wheelchair:description": "Hauptgebäude barrierefrei. Einzelne Häuser nicht barrierefrei, nachfragen.", "wikidata": "Q35191088"}}, {"name": "Rotkreuzklinik", "latitude": 49.7951752, "longitude": 9.9388762, "source": "osm", "_tags": {"addr:city": "Würzburg", "addr:country": "DE", "addr:housenumber": "2", "addr:postcode": "97070", "addr:street": "Kapuzinerstraße", "amenity": "hospital", "building": "hospital", "building:levels": "3", "check_date": "2025-04-21", "contact:email": "kh-lindenberg@swmbrk.de", "contact:fax": "+49 931 3092-132", "contact:phone": "+49 931 3092-0", "contact:website": "https://www.rotkreuzklinik-wuerzburg.de", "healthcare": "hospital", "name": "Rotkreuzklinik", "roof:levels": "1", "roof:shape": "mansard", "wheelchair": "yes", "wikidata": "Q41313101", "wikipedia": "de:Huttenhof (Würzburg)"}}, {"name": "Hochhaus", "latitude": 49.1247444, "longitude": 9.7425805, "source": "osm", "_tags": {"addr:city": "Schwäbisch Hall", "addr:housenumber": "10", "addr:postcode": "74523", "addr:street": "Diakoniestraße", "building": "hospital", "healthcare": "hospital", "name": "Hochhaus", "wheelchair": "yes", "wikidata": "Q1381280"}}, {"name": "Verbundklinikum Landkreis Ansbach - Klinik Rothenburg o.d.T.", "latitude": 49.3780132, "longitude": 10.1997578, "source": "osm", "_tags": {"addr:city": "Rothenburg ob der Tauber", "addr:country": "DE", "addr:housenumber": "121", "addr:postcode": "91541", "addr:street": "Ansbacher Straße", "amenity": "hospital", "emergency": "yes", "healthcare": "hospital", "name": "Verbundklinikum Landkreis Ansbach - Klinik Rothenburg o.d.T.", "phone": "+49-9861-707-0", "website": "http://www.krankenhaus-rothenburg.de", "wheelchair": "yes"}}, {"name": "Stiftungskrankenhaus Nördlingen", "latitude": 48.8367871, "longitude": 10.499842, "source": "osm", "_tags": {"addr:city": "Nördlingen", "addr:country": "DE", "addr:housenumber": "4", "addr:postcode": "86720", "addr:street": "Stoffelsberg", "amenity": "hospital", "emergency": "no", "healthcare": "hospital", "name": "Stiftungskrankenhaus Nördlingen", "website": "https://donkliniken.de/klinik-noerdlingen/"}}, {"name": "Rangauklinik Ansbach", "latitude": 49.3258371, "longitude": 10.5405994, "source": "osm", "_tags": {"addr:city": "Ansbach", "addr:housenumber": "24", "addr:place": "Strüth", "addr:postcode": "91522", "amenity": "hospital", "fax": "+49-981-840-2900", "healthcare": "hospital", "name": "Rangauklinik Ansbach", "phone": "+49-981-840-0", "source": "bing", "website": "https://www.rangauklinik.de"}}, {"name": "Schmerzklinik Löffelstelzen", "latitude": 49.5062039, "longitude": 9.7903386, "source": "osm", "_tags": {"amenity": "hospital", "check_date": "2024-12-26", "emergency": "no", "name": "Schmerzklinik Löffelstelzen"}}, {"name": "Klinik Bad Windsheim", "latitude": 49.5152189, "longitude": 10.410694, "source": "osm", "_tags": {"amenity": "hospital", "emergency": "yes", "healthcare": "hospital", "name": "Klinik Bad Windsheim", "operator": "Kliniken des Landkreises Neustadt a. d. Aisch - Bad Windsheim", "phone": "+49 9841 990", "toilets:wheelchair": "yes", "website": "https://www.kliniken-nea.de/medizin-pflege/klinik-bad-windsheim", "wheelchair": "yes"}}, {"name": "Frankenland-Klinik", "latitude": 49.5086307, "longitude": 10.4137705, "source": "osm", "_tags": {"addr:city": "Bad Windsheim", "addr:country": "DE", "addr:housenumber": "1", "addr:postcode": "91438", "addr:street": "Schwarzallee", "amenity": "clinic", "healthcare": "hospital", "name": "Frankenland-Klinik", "phone": "+49 9841 95102", "toilets:wheelchair": "yes", "website": "https://www.frankenland-klinik.de", "wheelchair": "yes"}}, {"name": "Virngrund-Klinik", "latitude": 48.957086, "longitude": 10.1319759, "source": "osm", "_tags": {"addr:city": "Ellwangen (Jagst)", "addr:housenumber": "8-12", "addr:postcode": "73479", "addr:street": "Dalkinger Straße", "amenity": "hospital", "emergency": "yes", "healthcare": "hospital", "healthcare:speciality": "general;radiology;urology;psychiatry;ophthalmology;surgery", "name": "Virngrund-Klinik", "website": "https://www.klinik-ellwangen.de/", "wheelchair": "yes"}}, {"name": "Dr. Becker Kiliani-Klinik", "latitude": 49.5092959, "longitude": 10.4108817, "source": "osm", "_tags": {"addr:city": "Bad Windsheim", "addr:country": "DE", "addr:housenumber": "10", "addr:postcode": "91438", "addr:street": "Schwarzallee", "amenity": "hospital", "healthcare": "hospital", "name": "Dr. Becker Kiliani-Klinik", "toilets:wheelchair": "yes", "wheelchair": "yes"}}, {"name": "Facharztzentrum Aalen", "latitude": 48.8399982, "longitude": 10.0922632, "source": "osm", "_tags": {"addr:city": "Aalen", "addr:country": "DE", "addr:housenumber": "1", "addr:postcode": "73430", "addr:street": "Weidenfelder Straße", "amenity": "hospital", "building": "yes", "healthcare": "centre", "name": "Facharztzentrum Aalen", "name:en": "Facharztzentrum Aalen", "opening_hours": "Mo-Th 08:00-12:00,14:30-18:00; Fr 08:00-12:00; PH off", "operational_status": "Operational", "operator:type": "private/for-profit", "phone": "+49 7361 68666", "source": "OSM", "website": "https://facharztzentrum-aalen.de/"}}, {"name": "Diabetes Zentrum Mergentheim", "latitude": 49.4957103, "longitude": 9.7793963, "source": "osm", "_tags": {"addr:city": "Bad Mergentheim", "addr:country": "DE", "addr:housenumber": "12", "addr:postcode": "97980", "addr:street": "Theodor-Klotzbücher-Straße", "amenity": "hospital", "building": "yes", "healthcare": "hospital", "healthcare:speciality": "diabetology", "name": "Diabetes Zentrum Mergentheim", "toilets:wheelchair": "yes", "website": "https://www.diabetes-zentrum.de/", "wheelchair": "yes", "wikidata": "Q2675657", "wikipedia": "de:Diabetes Zentrum Mergentheim"}}, {"name": "Klinikum Crailsheim", "latitude": 49.1356986, "longitude": 10.0771597, "source": "osm", "_tags": {"amenity": "hospital", "emergency": "yes", "healthcare": "hospital", "name": "Klinikum Crailsheim", "old_name": "Kreiskrankenhaus Crailsheim", "operator": "Landkreis Schwäbisch Hall Klinikum gGmbH", "wheelchair": "yes"}}, {"name": "KWM-Missioklinik", "latitude": 49.7944109, "longitude": 9.9547351, "source": "osm", "_tags": {"amenity": "hospital", "healthcare": "hospital", "name": "KWM-Missioklinik"}}, {"name": "Klinik am Greinberg", "latitude": 49.8005675, "longitude": 9.9657241, "source": "osm", "_tags": {"addr:city": "Würzburg", "addr:country": "DE", "addr:housenumber": "2", "addr:postcode": "97076", "addr:street": "Graf-Moritz-Weg", "amenity": "hospital", "building": "yes", "contact:phone": "+49 931 991476 0", "contact:website": "https://www.bezirk-unterfranken.de/einrichtungen/wuerzburg/klinik-am-greinberg/11402.Klinik-am-Greinberg---Spezialklinik-fuer-Kinder--und-Jugendpsychiatrie-Psychosomatik-und-Psychotherapie.html", "healthcare": "hospital", "name": "Klinik am Greinberg"}}, {"name": "DRV Reha-Klinik Taubertal", "latitude": 49.4995248, "longitude": 9.7803328, "source": "osm", "_tags": {"addr:city": "Bad Mergentheim", "addr:country": "DE", "addr:housenumber": "2", "addr:postcode": "97980", "addr:street": "Ketterberg", "amenity": "hospital", "building": "yes", "check_date": "2025-08-17", "emergency": "no", "name": "DRV Reha-Klinik Taubertal", "source": "Maps4BW, LGL, www.lgl-bw.de"}}, {"name": "Klinik Hohenlohe", "latitude": 49.4961353, "longitude": 9.781794, "source": "osm", "_tags": {"addr:city": "Bad Mergentheim", "addr:country": "DE", "addr:housenumber": "1", "addr:postcode": "97980", "addr:street": "Lothar-Daiker-Straße", "amenity": "hospital", "building": "hospital", "healthcare": "hospital", "name": "Klinik Hohenlohe", "source": "Maps4BW, LGL, www.lgl-bw.de", "wheelchair": "yes", "wikidata": "Q100492324"}}, {"name": "Ostalb-Klinikum Aalen", "latitude": 48.8490433, "longitude": 10.0859887, "source": "osm", "_tags": {"addr:city": "Aalen", "addr:housenumber": "1", "addr:postcode": "73430", "addr:street": "Im Kälblesrain", "alt_name": "Ostalbklinikum", "amenity": "hospital", "emergency": "yes", "healthcare": "hospital", "healthcare:speciality": "general;psychiatry;paediatrics;gynaecology;radiology;emergency;surgery;cardiology;internal;oncology;neurology;trauma", "name": "Ostalb-Klinikum Aalen", "phone": "+49 7361 550", "website": "https://www.ostalbklinikum.de", "wheelchair": "yes", "wheelchair:description": "Am Haupteingang ebenerdiger Zugang zur Eingangshalle (Ebene 3), Aufzüge barrierefrei (teilweise mit akustischer Etagenansage), Rollstühle in der Eingangshalle zum kostenlosen Ausleihen für die BesucherInnen zur Nutzung im Gebäude, barrierefrei zugängliche", "wikidata": "Q30267103"}}, {"name": "Heiligenfeld Klinik", "latitude": 49.5421387, "longitude": 10.2353859, "source": "osm", "_tags": {"addr:city": "Uffenheim", "addr:housenumber": "1", "addr:postcode": "97215", "addr:street": "Krankenhausstraße", "amenity": "hospital", "building": "hospital", "building:levels": "3", "emergency": "no", "healthcare": "hospital", "name": "Heiligenfeld Klinik", "roof:levels": "1", "roof:shape": "flat", "type": "Psychosomatische Klinik", "website": "https://www.heiligenfeld.de/", "wheelchair": "yes"}}, {"name": "Diakoneo", "latitude": 49.1249213, "longitude": 9.7417323, "source": "osm", "_tags": {"addr:city": "Schwäbisch Hall", "addr:country": "DE", "addr:housenumber": "10", "addr:postcode": "74523", "addr:street": "Diakoniestraße", "alt_name": "Diak", "amenity": "hospital", "contact:phone": "+49 791 753-0", "contact:website": "https://www.diak-klinikum.de/", "emergency": "yes", "healthcare": "hospital", "landuse": "commercial", "name": "Diakoneo", "operator": "Diakoneo Diak Schwäbisch Hall gGmbH", "website": "https://www.diak-klinikum.de/", "wheelchair": "yes", "wikidata": "Q1381280"}}, {"name": "Klinik Neustadt", "latitude": 49.5820339, "longitude": 10.6229515, "source": "osm", "_tags": {"addr:city": "Neustadt an der Aisch", "addr:country": "DE", "addr:housenumber": "30", "addr:postcode": "91413", "addr:street": "Paracelsusstraße", "amenity": "hospital", "fax": "+49 9161 702750", "healthcare": "hospital", "name": "Klinik Neustadt", "operator": "Kliniken des Landkreises Neustadt a. d. Aisch - Bad Windsheim", "phone": "+49 9161 700", "website": "https://www.kliniken-nea.de/medizin-pflege/klinik-neustadt-a-d-aisch/", "wheelchair": "yes"}}, {"name": "Klinik Kitzinger Land", "latitude": 49.7436917, "longitude": 10.1392093, "source": "osm", "_tags": {"addr:housenumber": "67", "addr:postcode": "97318", "addr:street": "Keltenstraße", "amenity": "hospital", "healthcare": "hospital", "name": "Klinik Kitzinger Land", "opening_hours": "24/7", "phone": "+49 9321 7040", "website": "https://www.k-kl.de/"}}, {"name": "Main-Klinik Ochsenfurt", "latitude": 49.6602674, "longitude": 10.0879949, "source": "osm", "_tags": {"amenity": "hospital", "healthcare": "hospital", "name": "Main-Klinik Ochsenfurt"}}, {"name": "DRK-Kreisverband", "latitude": 48.8441797, "longitude": 10.0984833, "source": "osm", "_tags": {"addr:city": "Aalen", "addr:country": "DE", "addr:housenumber": "1-5", "addr:postcode": "73431", "addr:street": "Eugen-Hafner-Straße", "amenity": "hospital", "brand": "Deutsches Rotes Kreuz", "brand:short": "DRK", "brand:wikidata": "Q694104", "brand:wikipedia": "de:Deutsches Rotes Kreuz", "building": "yes", "healthcare": "hospital", "name": "DRK-Kreisverband"}}, {"name": "Donau-Ries-Klinikum Oettingen", "latitude": 48.9564304, "longitude": 10.5973605, "source": "osm", "_tags": {"addr:city": "Oettingen i.Bay.", "addr:housenumber": "15", "addr:postcode": "86732", "addr:street": "Kellerstraße", "amenity": "hospital", "check_date": "2024-12-25", "contact:email": "oet@donkliniken.de", "contact:fax": "+49 9082 79-1111", "contact:phone": "+49 9082 79-0", "contact:website": "https://www.donkliniken.de", "healthcare": "hospital", "name": "Donau-Ries-Klinikum Oettingen", "wheelchair": "yes"}}, {"name": "Stauferklinikum Mutlangen", "latitude": 48.8196771, "longitude": 9.7871172, "source": "osm", "_tags": {"amenity": "hospital", "check_date": "2024-10-17", "healthcare": "hospital", "name": "Stauferklinikum Mutlangen"}}, {"name": "Juliusspital", "latitude": 49.7979145, "longitude": 9.9312569, "source": "osm", "_tags": {"amenity": "hospital", "contact:website": "https://www.juliusspital.de/", "emergency": "yes", "healthcare": "hospital", "name": "Juliusspital", "name:etymology:wikidata": "Q450861", "operator": "Stiftung Juliusspital Würzburg", "wikidata": "Q2349038", "wikipedia": "de:Stiftung Juliusspital Würzburg"}}, {"name": "Klinik Dinkelsbühl", "latitude": 49.0749008, "longitude": 10.3178893, "source": "osm", "_tags": {"addr:city": "Dinkelsbühl", "addr:country": "DE", "addr:housenumber": "6", "addr:postcode": "91550", "addr:street": "Crailsheimer Straße", "amenity": "hospital", "building": "hospital", "name": "Klinik Dinkelsbühl", "type": "multipolygon", "website": "https://anregiomed.de/vkla/kontakt/"}}, {"name": "Universitätsklinikum Würzburg", "latitude": 49.8044728, "longitude": 9.9436281, "source": "osm", "_tags": {"addr:city": "Würzburg", "addr:housenumber": "2", "addr:postcode": "97080", "addr:street": "Josef-Schneider-Straße", "amenity": "hospital", "contact:phone": "+49 931 2010", "contact:website": "https://www.ukw.de/", "emergency": "yes", "healthcare": "hospital", "name": "Universitätsklinikum Würzburg", "short_name": "UKW", "toilets:wheelchair": "yes", "type": "multipolygon", "wheelchair": "limited", "wheelchair:description": "http://www.wuerzburg.de/de/themen/gesundheit-soziales/menschenmitbehinderung/bsb_/Klinikum_der_Universitaet_Wuerzburg/28177.Barrierefreie-WC-Anlagen.html?text=&kt[sb]=&kt[sd]=&kt[lt]=&kt[cat]=17933&page_anschriftenverzeichnisbsb=1&detID=658", "wikidata": "Q1784848", "wikipedia": "de:Universitätsklinikum Würzburg"}}, {"name": "Ansbach Army Health Clinic", "latitude": 49.3173233, "longitude": 10.6023326, "source": "osm", "_tags": {"access": "military", "amenity": "hospital", "building": "hospital", "healthcare": "hospital", "name": "Ansbach Army Health Clinic", "operator": "US Army", "type": "multipolygon"}}, {"name": "Klinikum Ansbach", "latitude": 49.3206289, "longitude": 10.5588926, "source": "osm", "_tags": {"addr:city": "Ansbach", "addr:housenumber": "1", "addr:postcode": "91522", "addr:street": "Escherichstraße", "amenity": "hospital", "building": "yes", "healthcare": "hospital", "name": "Klinikum Ansbach", "phone": "+49-981-484-0", "source:outline": "bing;DOP_2m_BY", "type": "multipolygon", "wheelchair": "yes", "wikidata": "Q107551264"}}]