[{"name": "Clinique Saint-Faron", "latitude": 48.9409347, "longitude": 2.8730666, "source": "osm", "_tags": {"amenity": "hospital", "healthcare": "hospital", "name": "Clinique Saint-Faron", "ref:FR:FINESS": "770813400", "type:FR:FINESS": "365"}}, {"name": "Centre de réadaptation cardiaque Léopold Bellan", "latitude": 49.478112, "longitude": 2.9912825, "source": "osm", "_tags": {"addr:full": "470 rue de Choisy, Ollencourt 60170 Tracy-le-Mont", "addr:housenumber": "470", "addr:street": "Rue de Choisy", "amenity": "hospital", "email": "cardio.ollencourt@fondationbellan.org", "fax": "+33 3 44 75 50 04", "healthcare": "hospital", "name": "Centre de réadaptation cardiaque Léopold Bellan", "operator": "Fondation Léopold Bellan", "operator:wikidata": "Q37669450", "phone": "+33 3 44 75 50 00", "ref:FR:FINESS": "600101943", "type:FR:FINESS": "129"}}, {"name": "Hôpital local de Montmirail", "latitude": 48.8784707, "longitude": 3.5462559, "source": "osm", "_tags": {"amenity": "hospital", "emergency": "no", "fax": "+33 3 26 81 14 69", "healthcare": "hospital", "name": "Hôpital local de Montmirail", "operator:type": "public", "phone": "+33 3 26 81 20 36", "ref:FR:FINESS": "510000359", "type:FR:FINESS": "106", "wikidata": "Q92061577"}}, {"name": "Imagerie médicale IRM", "latitude": 49.5622858, "longitude": 3.6088737, "source": "osm", "_tags": {"addr:housenumber": "24", "addr:street": "Rue Marcelin Berthelot", "amenity": "hospital", "healthcare": "hospital", "healthcare:speciality": "radiology", "name": "Imagerie médicale IRM", "opening_hours": "Mo-Fr 08:00-18:00", "phone": "+33 3 23 29 06 80", "ref:FR:FINESS": "020002689", "type:FR:FINESS": "698"}}, {"name": "Les Grands Prés", "latitude": 48.8171302, "longitude": 2.7950865, "source": "osm", "_tags": {"amenity": "hospital", "description": " Centre de Réadaptation Cardiaque", "fax": "+33160430747", "healthcare": "hospital", "healthcare:speciality": "cardiology", "name": "Les Grands Prés", "phone": "+33160435959", "ref:FR:FINESS": "770803989", "ref:FR:SIRET": "38962736500023", "source": "Le ministère des solidarités et de la santé - 03/2019", "type:FR:FINESS": "109"}}, {"name": "Centre Rééducation et Réadaptation Fonctionnelle", "latitude": 49.6007536, "longitude": 3.415761, "source": "osm", "_tags": {"addr:street": "Route de Saint-Nicolas", "amenity": "hospital", "name": "Centre Rééducation et Réadaptation Fonctionnelle", "phone": "+33 3 23 38 78 00"}}, {"name": "EPSMD de l'Aisne", "latitude": 49.035605, "longitude": 3.4070896, "source": "osm", "_tags": {"amenity": "hospital", "fax": "+33323695742", "healthcare": "hospital", "name": "EPSMD de l'Aisne", "phone": "+33323691039", "ref:FR:FINESS": "020003919", "ref:FR:SIRET": "26020034000172", "source": "Le ministère des solidarités et de la santé - 2021-01", "type:FR:FINESS": "292"}}, {"name": "Centre psychothérapeutique", "latitude": 48.9952523, "longitude": 3.2673393, "source": "osm", "_tags": {"amenity": "hospital", "fax": "+33323829820", "healthcare": "hospital", "healthcare:speciality": "psychiatry", "name": "Centre psychothérapeutique", "operator": "EPSMD de l'Aisne", "operator:type": "public", "phone": "+33323829820", "ref:FR:FINESS": "020002788", "ref:FR:SIRET": "26020034000487", "source": "Le ministère des solidarités et de la santé - 2024-01", "type:FR:FINESS": "292"}}, {"name": "Hôpital Jules Lescarde", "latitude": 49.6954189, "longitude": 2.7956537, "source": "osm", "_tags": {"amenity": "hospital", "healthcare": "hospital", "name": "Hôpital Jules Lescarde"}}, {"name": "Centre Hospitalier de Chauny", "latitude": 49.6249855, "longitude": 3.2341965, "source": "osm", "_tags": {"addr:full": "94 rue des Anciens Combattants AFN et TOM 02303 Chauny", "amenity": "hospital", "emergency": "yes", "fax": "+33 3 23 39 24 33", "healthcare": "hospital", "name": "Centre Hospitalier de Chauny", "operator:type": "public", "phone": "+33 3 23 38 55 00", "ref:FR:FINESS": "020000535", "source": "cadastre-dgi-fr source : Direction Générale des Impôts - Cadastre ; mise à jour : 2009", "type:FR:FINESS": "355", "wikidata": "Q104875358"}}, {"name": "Centre Hospitalier de La Fère", "latitude": 49.6642316, "longitude": 3.3596777, "source": "osm", "_tags": {"amenity": "hospital", "name": "Centre Hospitalier de La Fère", "ref:FR:FINESS": "020000097", "source": "cadastre-dgi-fr source : Direction Générale des Impôts - Cadastre ; mise à jour : 2009"}}, {"name": "Centre Hospitalier de Noyon", "latitude": 49.5878872, "longitude": 2.9998793, "source": "osm", "_tags": {"alt_name": "Centre Hospitalier de la Haute Vallée de l'Oise", "amenity": "hospital", "emergency": "yes", "fax": "+33 3 44 44 43 01", "healthcare": "hospital", "name": "Centre Hospitalier de Noyon", "operator:type": "public", "phone": "+33 3 44 44 42 22", "ref:FR:FINESS": "600000285", "source": "cadastre-dgi-fr source : Direction Générale des Impôts - Cadastre ; mise à jour : 2009", "type:FR:FINESS": "355", "website": "https://www.ch-compiegnenoyon.fr/fr/accueil.html"}}, {"name": "Grand Hôpital de l'Est Francilien - Site de Marne-la-Vallée", "latitude": 48.8482554, "longitude": 2.7720597, "source": "osm", "_tags": {"amenity": "hospital", "emergency": "yes", "fax": "+33 1 61 10 72 07", "healthcare": "hospital", "healthcare:speciality": "intensive", "name": "Grand Hôpital de l'Est Francilien - Site de Marne-la-Vallée", "operator:type": "public", "phone": "+33 1 64 77 64 77", "ref:FR:FINESS": "770019032", "short_name": "GHEF", "type:FR:FINESS": "355", "website": "https://www.ghef.fr/", "wikipedia": "fr:Centre hospitalier de Marne-la-Vallée"}}, {"name": "Centre hospitalier de Meaux", "latitude": 48.9674603, "longitude": 2.8864903, "source": "osm", "_tags": {"amenity": "hospital", "emergency": "yes", "fax": "+33 1 64 34 33 47", "healthcare": "hospital", "healthcare:speciality": "intensive", "name": "Centre hospitalier de Meaux", "operator:type": "public", "phone": "+33 1 64 77 64 77", "ref:FR:FINESS": "770000446", "type:FR:FINESS": "355", "website": "http://www.ch-meaux.fr"}}, {"name": "Institut Médical de Serris", "latitude": 48.8570955, "longitude": 2.783593, "source": "osm", "_tags": {"addr:city": "Serris", "addr:housenumber": "2", "addr:postcode": "77700", "addr:street": "Cours du Rhin", "amenity": "hospital", "building": "hospital", "description": "Soins de suite & réadaptation", "healthcare": "rehabilitation", "name": "Institut Médical de Serris", "ref:FR:FINESS": "770300218", "ref:FR:SIRET": "48443411300102", "source": "cadastre-dgi-fr source : Direction Générale des Impôts - Cadastre. Mise à jour : 2011", "type:FR:FINESS": "109", "website": "https://im-serris.lna-sante.com/"}}, {"name": "Clinique de Montévrain", "latitude": 48.854202, "longitude": 2.7604325, "source": "osm", "_tags": {"addr:city": "Montévrain", "addr:housenumber": "15", "addr:postcode": "77144", "addr:street": "Route de Provins", "amenity": "hospital", "healthcare": "hospital", "name": "Clinique de Montévrain", "phone": "+33826302002", "ref:FR:FINESS": "770016491", "ref:FR:SIRET": "49213902700022", "source": "Le ministère des solidarités et de la santé - 03/2019", "type:FR:FINESS": "109", "website": "https://clinique-montevrain.ramsaygds.fr/"}}, {"name": "Centre hospitalier de Laon", "latitude": 49.5632444, "longitude": 3.6112197, "source": "osm", "_tags": {"addr:housenumber": "33", "addr:street": "Rue Marcelin Berthelot", "amenity": "hospital", "emergency": "yes", "fax": "+33 3 23 24 33 60", "healthcare": "hospital", "healthcare:speciality": "intensive", "name": "Centre hospitalier de Laon", "operator:type": "public", "phone": "+33 3 23 24 33 33", "ref:FR:FINESS": "020000394", "type:FR:FINESS": "355", "website": "https://www.ch-laon.fr/"}}, {"name": "Polyclinique Saint-Côme", "latitude": 49.4043197, "longitude": 2.8085022, "source": "osm", "_tags": {"amenity": "hospital", "email": "polyclinique.saint.come@stcome.com", "emergency": "yes", "fax": "+33 3 44 92 44 25", "healthcare": "hospital", "name": "Polyclinique Saint-Côme", "operator:type": "private", "phone": "+33 3 44 92 43 43", "ref:FR:FINESS": "600100754", "ref:FR:SIRET": "92612015500029", "toilets:wheelchair": "yes", "type:FR:FINESS": "365", "website": "https://www.stcome.com/", "wheelchair": "yes"}}, {"name": "Centre hospitalier de Compiègne", "latitude": 49.3857751, "longitude": 2.7895342, "source": "osm", "_tags": {"amenity": "hospital", "emergency": "yes", "fax": "+33 3 44 23 60 01", "healthcare": "hospital", "healthcare:speciality": "intensive", "name": "Centre hospitalier de Compiègne", "operator:type": "public", "phone": "+33 3 44 23 60 00", "ref:FR:FINESS": "600113476", "type:FR:FINESS": "355", "website": "https://www.ch-compiegnenoyon.fr/fr/accueil.html", "wikidata": "Q50039519"}}, {"name": "Centre Hospitalier de Ham", "latitude": 49.7417727, "longitude": 3.0855368, "source": "osm", "_tags": {"amenity": "hospital", "healthcare": "hospital", "name": "Centre Hospitalier de Ham", "ref:FR:FINESS": "800015588", "source": "Le ministère des solidarités et de la santé - 03/2019", "website": "https://www.ch-ham.com/"}}, {"name": "Centre Médico Psycho Pédagogique C.M.P.P", "latitude": 49.4052456, "longitude": 2.7985314, "source": "osm", "_tags": {"amenity": "hospital", "healthcare": "hospital", "name": "Centre Médico Psycho Pédagogique C.M.P.P", "ref:FR:FINESS": "600101950", "type:FR:FINESS": "189"}}, {"name": "Centre de Jour Marie Noël pour Enfants", "latitude": 49.4048034, "longitude": 2.7981869, "source": "osm", "_tags": {"amenity": "hospital", "healthcare": "hospital", "name": "Centre de Jour Marie Noël pour Enfants", "ref:FR:FINESS": "600106025", "type:FR:FINESS": "292"}}, {"name": "Centre hospitalier de Soissons", "latitude": 49.3703028, "longitude": 3.3343424, "source": "osm", "_tags": {"amenity": "hospital", "emergency": "yes", "fax": "+33 3 23 59 16 46", "healthcare:speciality": "intensive", "name": "Centre hospitalier de Soissons", "operator:type": "public", "phone": "+33 3 23 75 70 70", "ref:FR:FINESS": "020000519", "type:FR:FINESS": "355", "website": "https://www.ch-soissons.fr", "wikidata": "Q87121335"}}, {"name": "Centre hospitalier de Coulommiers", "latitude": 48.8271142, "longitude": 3.096275, "source": "osm", "_tags": {"alt_name": "Site René Arbeltier", "amenity": "hospital", "emergency": "yes", "fax": "+33 1 64 65 38 00", "healthcare": "hospital", "name": "Centre hospitalier de Coulommiers", "operator": "Grand Hôpital de l’Est Francilien", "operator:type": "public", "phone": "+33 1 64 77 64 77", "ref:FR:FINESS": "770000131", "short_name": "GHEF", "type:FR:FINESS": "355", "website": "https://www.ghef.fr/"}}, {"name": "Centre hospitalier de Coulommiers", "latitude": 48.814525, "longitude": 3.082591, "source": "osm", "_tags": {"alt_name": "Hôpital Abel Leblanc", "amenity": "hospital", "emergency": "no", "healthcare": "hospital", "name": "Centre hospitalier de Coulommiers", "operator": "Grand Hôpital de l’Est Francilien", "operator:type": "public", "phone": "+33 1 64 77 64 77", "ref:FR:FINESS": "770001279", "short_name": "GHEF", "source": "Le ministère des solidarités et de la santé - 03/2019", "website": "https://www.ghef.fr/"}}, {"name": "Hôpital local de Crépy-en-Valois", "latitude": 49.2340492, "longitude": 2.8882809, "source": "osm", "_tags": {"alt_name": "Hôpital local Saint-Lazare", "amenity": "hospital", "email": "accueil@ch-crepyenvalois.fr", "fax": "+33 3 44 59 45 07", "healthcare": "hospital", "name": "Hôpital local de Crépy-en-Valois", "phone": "+33 3 44 59 11 19", "ref:FR:FINESS": "600000020", "source": "cadastre-dgi-fr source : Direction Générale des Impôts - Cadastre. Mise à jour : 2010", "type:FR:FINESS": "106", "website": "https://www.hopital-crepyenvalois.fr/maisons-de-retraite/", "wheelchair": "yes"}}, {"name": "Clinique Eugénie", "latitude": 49.3475394, "longitude": 2.9857674, "source": "osm", "_tags": {"amenity": "hospital", "healthcare": "hospital", "name": "Clinique Eugénie", "ref:FR:FINESS": "600009054", "type:FR:FINESS": "161"}}, {"name": "Centre hospitalier de Fismes", "latitude": 49.3057852, "longitude": 3.6778799, "source": "osm", "_tags": {"addr:city": "Fismes", "addr:housenumber": "12", "addr:postcode": "51170", "addr:street": "Rue des Chailleaux", "amenity": "hospital", "email": "direction@hl-fismes.fr", "fax": "+33 3 26 48 95 88", "healthcare": "hospital", "name": "Centre hospitalier de Fismes", "operator:type": "public", "phone": "+33 3 26 48 95 95", "ref:FR:FINESS": "510024466", "type:FR:FINESS": "355"}}, {"name": "Centre hospitalier de Château-Thierry", "latitude": 49.0531272, "longitude": 3.4126322, "source": "osm", "_tags": {"alt_name": "Centre hospitalier Jeanne de Navarre", "amenity": "hospital", "emergency": "yes", "fax": "+33 3 23 69 69 00", "healthcare": "hospital", "healthcare:speciality": "general;paediatrics;ophthalmology;dentistry;orthopaedics;gynaecology;surgery;emergency;cardiology;radiology;internal;biology;maternity;geriatrics;intensive", "name": "Centre hospitalier de Château-Thierry", "operator:type": "public", "phone": "+33 3 23 69 66 00", "ref:FR:FINESS": "020001061", "type:FR:FINESS": "355", "website": "http://www.ch-chateau-thierry.fr"}}, {"name": "Hôpital de Villiers-Saint-Denis", "latitude": 48.9982023, "longitude": 3.2638078, "source": "osm", "_tags": {"amenity": "hospital", "fax": "+33323707440", "healthcare": "hospital", "name": "Hôpital de Villiers-Saint-Denis", "phone": "+33323707522", "ref:FR:FINESS": "020000303", "ref:FR:SIRET": "77566179600034", "source": "Le ministère des solidarités et de la santé - 2021-01", "type:FR:FINESS": "365"}}, {"name": "Hôpital de jour Françoise Dolto", "latitude": 49.5825794, "longitude": 2.9979879, "source": "osm", "_tags": {"amenity": "hospital", "healthcare": "hospital", "name": "Hôpital de jour Françoise Dolto", "operator": "Centre hospitalier isarien - EPSM de l'Oise", "operator:type": "public", "phone": "+33344090209", "ref:FR:FINESS": "600109599", "ref:FR:SIRET": "26600711100294", "source": "Le ministère des solidarités et de la santé - 2024-03", "type:FR:FINESS": "292"}}, {"name": "Pôle de Santé de Meaux", "latitude": 48.958268, "longitude": 2.8694714, "source": "osm", "_tags": {"amenity": "hospital", "healthcare": "hospital", "name": "Pôle de Santé de Meaux", "operator": "LNA Santé"}}, {"name": "Établissement public de santé mentale de l'Aisne", "latitude": 49.5463622, "longitude": 3.4096148, "source": "osm", "_tags": {"amenity": "hospital", "healthcare": "hospital", "healthcare:speciality": "psychiatry", "name": "Établissement public de santé mentale de l'Aisne", "ref:FR:FINESS": "020000543", "type": "multipolygon", "type:FR:FINESS": "292", "wikidata": "Q60857561"}}]