[{"name": "Klinik Bogen", "latitude": 48.9096886, "longitude": 12.6971313, "source": "osm", "_tags": {"addr:city": "Bogen", "addr:housenumber": "8", "addr:postcode": "94327", "addr:street": "Mussinanstraße", "amenity": "hospital", "email": "info@klinik-bogen.de", "fax": "+49 9422 822280", "healthcare": "hospital", "name": "Klinik Bogen", "operator": "Kreiskliniken Bogen-Mallersdorf", "phone": "+49 9422 8220", "website": "https://www.kreiskliniken-bogen-mallersdorf.de", "wheelchair": "yes"}}, {"name": "Bayerwald-Klinik", "latitude": 49.2352952, "longitude": 12.7171188, "source": "osm", "_tags": {"addr:city": "Cham", "addr:country": "DE", "addr:housenumber": "22", "addr:postcode": "93413", "addr:street": "Klinikstraße", "amenity": "hospital", "name": "Bayerwald-Klinik"}}, {"name": "Medizinisches Versorgungszentrum Cham (Onkologie)", "latitude": 49.2248669, "longitude": 12.6598354, "source": "osm", "_tags": {"amenity": "hospital", "description": "Die onkologische Klinik ist eine \"Filiale\" der Barmerzigen Brüder in Regensburg und bietet wohnortnahe Untersuchungen bzw. Behandlungen in dieser Region an.", "health_facility:type": "hospital", "healthcare": "hospital", "healthcare:cholera": "no", "healthcare:speciality": "oncology", "name": "Medizinisches Versorgungszentrum Cham (Onkologie)", "note": "independent hostpital with own operator but attatched to Kreiskrankenhaus, treating cancer", "operator": "Barmherzige Brüder Regensburg", "operator:type": "religious order", "source": "survey", "wheelchair": "yes"}}, {"name": "Zahnarzt Freudenberg - Praxis für Zahnheilkunde Freudenberg Dr. Krammer und Kollegen", "latitude": 49.4799368, "longitude": 11.9813885, "source": "osm", "_tags": {"addr:city": "Freudenberg", "addr:housenumber": "36a", "addr:postcode": "92272", "addr:street": "Hauptstraße", "amenity": "hospital", "healthcare": "hospital", "healthcare:speciality": "dentist", "name": "Zahnarzt Freudenberg - Praxis für Zahnheilkunde Freudenberg Dr. Krammer und Kollegen", "operator": "Dr. Krammer", "operator:type": "public"}}, {"name": "Ambulante Notfallversorgung", "latitude": 49.1894282, "longitude": 12.5192031, "source": "osm", "_tags": {"addr:city": "Roding", "addr:country": "DE", "addr:housenumber": "1", "addr:postcode": "93426", "addr:street": "Arnulfstraße", "amenity": "hospital", "healthcare": "hospital", "name": "Ambulante Notfallversorgung", "opening_hours": "\"Notfalltermine nur nach telefonischer Vereinbarung\"", "operator": "Sana", "phone": "09971- 2005 7500", "toilets:wheelchair": "yes", "wheelchair": "yes"}}, {"name": "Rescue point", "latitude": 49.7425716, "longitude": 12.4100745, "source": "osm", "_tags": {"addr:place": "Pavlův Studenec 1", "amenity": "hospital", "description": "Automatic non-stop communication rescue point", "email": "zsrr@email.cz", "healthcare": "centre", "healthcare:speciality": "emergency", "mobile": "+420 724 800 500", "name": "Rescue point", "opening_hours": "24/7", "operator": "Záchranná služba RR", "operator:type": "private_non_profit", "website": "https://zs-rr.cz/"}}, {"name": "Krankenhaus Oberviechtach", "latitude": 49.461705, "longitude": 12.4120378, "source": "osm", "_tags": {"addr:city": "Oberviechtach", "addr:country": "DE", "addr:housenumber": "15", "addr:postcode": "92526", "addr:street": "Teunzer Straße", "amenity": "hospital", "beds": "40", "emergency": "yes", "name": "Krankenhaus Oberviechtach", "phone": "+49 9671 9300", "toilets:wheelchair": "no", "website": "https://www.asklepios.com/klinik/default.aspx?name=Asklepios_Klinik_Oberviechtach", "wheelchair": "limited"}}, {"name": "medbo Bezirksklinikum Regensburg", "latitude": 48.9979343, "longitude": 12.08788, "source": "osm", "_tags": {"addr:city": "Regensburg", "addr:country": "DE", "addr:housenumber": "84", "addr:postcode": "93053", "addr:street": "Universitätsstraße", "amenity": "hospital", "emergency": "yes", "healthcare": "hospital", "healthcare:speciality": "psychiatry;neurology;emergency", "name": "medbo Bezirksklinikum Regensburg", "old_name": "Bezirkskrankenhaus Regensburg", "operator": "medbo KU", "operator:type": "public", "short_name": "BKR", "website": "https://www.medbo.de/standorte/regensburg.html", "wheelchair": "yes", "wikidata": "Q854257", "wikipedia": "de:Bezirksklinikum Regensburg"}}, {"name": "Heiligenfeld Klinik", "latitude": 49.3736627, "longitude": 12.7065302, "source": "osm", "_tags": {"addr:city": "Waldmünchen", "addr:country": "DE", "addr:housenumber": "3", "addr:postcode": "93449", "addr:street": "Krankenhausstraße", "amenity": "hospital", "building": "yes", "healthcare": "hospital", "name": "Heiligenfeld Klinik", "wheelchair": "yes"}}, {"name": "Krankenhaus St. Barbara", "latitude": 49.3162602, "longitude": 12.1139443, "source": "osm", "_tags": {"addr:city": "Schwandorf", "addr:country": "DE", "addr:housenumber": "24", "addr:postcode": "92421", "addr:street": "Steinberger Straße", "alt_name": "Sankt-Barbara-Krankenhaus", "amenity": "hospital", "check_date": "2025-05-11", "email": "info@barmherzige-schwandorf.de", "emergency": "yes", "fax": "+49 9431 64214", "healthcare": "hospital", "name": "Krankenhaus St. Barbara", "operator": "Barmherzige Brüder gemeinnützige Krankenhaus GmbH", "phone": "+49 9431 52-0", "source": "DOP_LVA_BY_01", "website": "https://www.barmherzige-schwandorf.de/", "wheelchair": "yes"}}, {"name": "Krankenhaus der Barmherzigen Brüder", "latitude": 49.0169013, "longitude": 12.0643498, "source": "osm", "_tags": {"addr:street": "Haupteingang", "amenity": "hospital", "changing_table": "yes", "check_date": "2025-02-11", "emergency": "yes", "healthcare": "hospital", "name": "Krankenhaus der Barmherzigen Brüder", "website": "https://www.barmherzige-regensburg.de/", "wheelchair": "yes", "wikidata": "Q1786526"}}, {"name": "Caritas-Krankenhaus Sankt Josef", "latitude": 49.0068486, "longitude": 12.1189805, "source": "osm", "_tags": {"addr:city": "Regensburg", "addr:country": "DE", "addr:housenumber": "65", "addr:postcode": "93053", "addr:street": "Landshuter Straße", "amenity": "hospital", "building": "hospital", "check_date": "2024-10-28", "email": "info@caritasstjosef.de", "emergency": "yes", "fax": "+49 941 782-2015", "healthcare": "hospital", "name": "Caritas-Krankenhaus Sankt Josef", "operator": "Caritasverband für die Diözese Regensburg e. V.", "phone": "+49 941 782-0", "website": "https://www.caritasstjosef.de/", "wheelchair": "yes", "wikidata": "Q1036322"}}, {"name": "Klinikum St. Marien Amberg", "latitude": 49.4480463, "longitude": 11.8664431, "source": "osm", "_tags": {"amenity": "hospital", "healthcare": "hospital", "name": "Klinikum St. Marien Amberg", "wheelchair": "yes"}}, {"name": "Römerbad-Klinik", "latitude": 48.8257175, "longitude": 11.7786155, "source": "osm", "_tags": {"amenity": "hospital", "check_date": "2024-08-19", "healthcare": "hospital", "name": "Römerbad-Klinik", "wheelchair": "limited"}}, {"name": "Kreisklinik Wörth an der Donau", "latitude": 48.9986811, "longitude": 12.3995138, "source": "osm", "_tags": {"addr:city": "Wörth an der Donau", "addr:country": "DE", "addr:housenumber": "2", "addr:postcode": "93086", "addr:street": "Krankenhausstraße", "building": "hospital", "capacity": "120", "email": "info@kreisklinik-woerth.de", "emergency": "yes", "fax": "+49 9482 202 261", "healthcare": "hospital", "name": "Kreisklinik Wörth an der Donau", "phone": "+49 9482 202 0", "visiting_hours": "Mo-Su 10:00-20:00", "website": "https://www.kreisklinik-woerth.de/", "wheelchair": "yes", "wikidata": "Q19963773", "wikipedia": "de:Kreisklinik Wörth an der Donau"}}, {"name": "Klinik Donaustauf", "latitude": 49.0366675, "longitude": 12.2079961, "source": "osm", "_tags": {"addr:city": "Donaustauf", "addr:country": "DE", "addr:housename": "Klinik Donaustauf", "addr:housenumber": "68", "addr:postcode": "93093", "addr:street": "Ludwigstraße", "amenity": "hospital", "building": "hospital", "check_date": "2024-07-24", "email": "information@klinikum-donaustauf.de", "emergency": "no", "name": "Klinik Donaustauf", "phone": "+49 9403 80-0", "website": "https://www.klinikum-donaustauf.de/", "wheelchair": "yes"}}, {"name": "Klinikum Weiden", "latitude": 49.6808915, "longitude": 12.1664627, "source": "osm", "_tags": {"addr:city": "Weiden i.d.OPf.", "addr:country": "DE", "addr:housenumber": "16", "addr:postcode": "92637", "addr:street": "Söllnerstraße", "amenity": "hospital", "check_date": "2024-08-08", "emergency": "yes", "fixme": "Genaue Ausdehnung in Nordwestlicher Richtung unbekannt: Ist der Parkplatz noch Teil des Klinikums?", "healthcare": "hospital", "name": "Klinikum Weiden", "official_name": "Kliniken Nordoberpfalz AG", "website": "https://www.kliniken-nordoberpfalz.ag/", "wheelchair": "yes"}}, {"name": "Krankenhaus Burglengenfeld", "latitude": 49.203643, "longitude": 12.0352888, "source": "osm", "_tags": {"addr:city": "Burglengenfeld", "addr:country": "DE", "addr:housenumber": "1", "addr:postcode": "93133", "addr:street": "Doktor-Sauerbruch-Straße", "amenity": "hospital", "building": "yes", "email": "info@krankenhaus-burglengenfeld.de", "healthcare": "hospital", "name": "Krankenhaus Burglengenfeld", "operator": "Gemeinnützige Krankenhausgesellschaft des Landkreises Schwandorf mbH", "phone": "+49 9471 705-111", "website": "https://www.krankenhaus-burglengenfeld.de/", "wheelchair": "yes"}}, {"name": "Klinik St. Hedwig", "latitude": 49.0167575, "longitude": 12.0788348, "source": "osm", "_tags": {"addr:city": "Regensburg", "addr:housenumber": "1-3", "addr:postcode": "93049", "addr:street": "Steinmetzstraße", "alt_name": "Hedwigsklinik", "alt_name_1": "KUNO", "amenity": "hospital", "changing_table": "yes", "check_date": "2025-03-06", "description": "Kinderklinik, Geburtsklinik, Uniklinik", "emergency": "yes", "healthcare": "hospital", "healthcare:speciality": "maternity;paediatrics", "name": "Klinik St. Hedwig", "operator": "Barmherzige Brüder", "phone": "+49 941 369 98", "website": "https://www.barmherzige-hedwig.de/", "wheelchair": "yes", "wikidata": "Q96581781"}}, {"name": "Sana Klinik des Landkreises Cham", "latitude": 49.2254598, "longitude": 12.659144, "source": "osm", "_tags": {"amenity": "hospital", "emergency": "yes", "health_facility:type": "hospital", "healthcare": "hospital", "name": "Sana Klinik des Landkreises Cham", "old_name": "Kreiskrankenhaus Cham", "operator": "SANA Kliniken; Landkreis Cham", "wheelchair": "yes"}}, {"name": "Bezirksklinikum Wöllershof", "latitude": 49.7488432, "longitude": 12.1796716, "source": "osm", "_tags": {"addr:housenumber": "1", "addr:postcode": "92721", "addr:street": "Wöllershof", "amenity": "hospital", "name": "Bezirksklinikum Wöllershof"}}, {"name": "Universitätsklinikum Regensburg", "latitude": 48.9878505, "longitude": 12.0876291, "source": "osm", "_tags": {"addr:city": "Regensburg", "addr:country": "DE", "addr:housenumber": "11", "addr:postcode": "93053", "addr:street": "Franz-Josef-Strauß-Allee", "amenity": "hospital", "emergency": "yes", "fax": "+49 941 944 4488", "healthcare": "hospital", "name": "Universitätsklinikum Regensburg", "phone": "+49 941 944 0", "short_name": "UKR", "toilets:wheelchair": "yes", "website": "http://www.uniklinikum-regensburg.de/", "wheelchair": "yes", "wikidata": "Q2496399"}}, {"name": "", "latitude": 48.9988212, "longitude": 12.4000064, "source": "osm", "_tags": {"amenity": "hospital", "emergency": "yes", "healthcare": "hospital", "wheelchair": "yes"}}, {"name": "Krankenhaus Neustadt", "latitude": 49.7247774, "longitude": 12.1726031, "source": "osm", "_tags": {"addr:city": "Neustadt an der Waldnaab", "addr:country": "DE", "addr:housenumber": "9", "addr:postcode": "92660", "addr:street": "Felixallee", "amenity": "hospital", "building": "yes", "contact:website": "http://www.kliniken-nordoberpfalz.de/neustadt/", "name": "Krankenhaus Neustadt"}}, {"name": "Caritas-Krankenhaus St. Lukas (ehemals Goldberg-Klinik)", "latitude": 48.9239399, "longitude": 11.8858437, "source": "osm", "_tags": {"addr:city": "Kelheim", "addr:country": "DE", "addr:housenumber": "3", "addr:postcode": "93309", "addr:street": "Traubenweg", "amenity": "hospital", "building": "yes", "email": "info@goldbergklinik.de", "emergency": "yes", "healthcare": "hospital", "healthcare:speciality": "general;orthopaedics;gynaecology;emergency;dermatology;urology;intensive;internal", "name": "Caritas-Krankenhaus St. Lukas (ehemals Goldberg-Klinik)", "operator": "Caritas-Krankenhaus St. Lukas GmbH", "phone": "+49 9441 7020", "website": "https://csl-kelheim.de/", "wheelchair": "yes"}}, {"name": "", "latitude": 49.0021323, "longitude": 12.6868967, "source": "osm", "_tags": {"amenity": "hospital", "healthcare": "hospital", "source": "bing"}}, {"name": "Bezirkskrankenhaus Straubing Forensisch-psychiatrische Klinik", "latitude": 48.8824692, "longitude": 12.5298772, "source": "osm", "_tags": {"addr:city": "Straubing", "addr:country": "DE", "addr:housenumber": "32", "addr:postcode": "94315", "addr:street": "Lerchenhaid", "amenity": "hospital", "email": "direktorium@bkh-straubing.de", "emergency": "no", "fax": "+49 9421 8005 298", "healthcare": "hospital", "healthcare:speciality": "forensic_psychiatry", "name": "Bezirkskrankenhaus Straubing Forensisch-psychiatrische Klinik", "operator": "Bezirk Niederbayern", "phone": "+49 9421 8005 0", "short_name": "BKH Straubing", "website": "https://www.bkh-straubing.de/"}}, {"name": "Paul-Gerhard-Haus - Zentrum für Altersmedizin", "latitude": 49.0158519, "longitude": 12.064153, "source": "osm", "_tags": {"addr:city": "Regensburg", "addr:country": "DE", "addr:housenumber": "86", "addr:postcode": "93049", "addr:street": "Prüfeninger Straße", "amenity": "hospital", "building": "hospital", "building:levels": "3", "description": "Ehemaliges Evangelisches Krankenhaus", "healthcare": "hospital", "name": "Paul-Gerhard-Haus - Zentrum für Altersmedizin", "operator": "Barmherzige Brüder", "roof:levels": "0"}}, {"name": "St. Anna Krankenhaus", "latitude": 49.5046591, "longitude": 11.7289823, "source": "osm", "_tags": {"addr:city": "Sulzbach-Rosenberg", "addr:housenumber": "16", "addr:postcode": "92237", "addr:street": "Krankenhausstraße", "amenity": "hospital", "contact:email": "info@kh-as.de", "contact:phone": "+49 9661 520-0", "contact:website": "https://www.kh-as.de/", "emergency": "yes", "healthcare": "hospital", "name": "St. Anna Krankenhaus", "operator": "Akademische Lehrkrankenhäuser der Paracelsus Medizinischen Privatuniversität Nürnberg"}}, {"name": "Hotelklinik Passauer Wolf", "latitude": 48.8202129, "longitude": 11.7879365, "source": "osm", "_tags": {"amenity": "hospital", "name": "Hotelklinik Passauer Wolf"}}, {"name": "Ärztehaus", "latitude": 49.6341517, "longitude": 12.0582094, "source": "osm", "_tags": {"amenity": "hospital", "name": "Ärztehaus"}}, {"name": "Gesundheitscampus", "latitude": 49.1889111, "longitude": 12.5196026, "source": "osm", "_tags": {"addr:city": "Roding", "addr:country": "DE", "addr:housenumber": "1", "addr:postcode": "93426", "addr:street": "Arnulfstraße", "area": "yes", "healthcare": "hospital", "name": "Gesundheitscampus", "wheelchair": "yes"}}, {"name": "", "latitude": 49.0069428, "longitude": 12.1188136, "source": "osm", "_tags": {"amenity": "hospital", "healthcare": "hospital"}}, {"name": "Goldberg Klinik", "latitude": 48.9239835, "longitude": 11.8854654, "source": "osm", "_tags": {"amenity": "hospital", "healthcare": "hospital", "name": "Goldberg Klinik"}}, {"name": "Asklepios Klinik Bad Abbach", "latitude": 48.932716, "longitude": 12.0381875, "source": "osm", "_tags": {"addr:city": "Bad Abbach", "addr:housenumber": "3", "addr:postcode": "93077", "addr:street": "Kaiser-Karl-V.-Allee", "amenity": "hospital", "emergency": "no", "healthcare": "hospital", "healthcare:speciality": "orthopaedics;rheumatology", "name": "Asklepios Klinik Bad Abbach", "operator": "Asklepios Kliniken", "operator:type": "private", "operator:wikidata": "Q732068", "website": "https://www.asklepios.com/bad-abbach/klinik/", "wheelchair": "yes", "wikidata": "Q30260666"}}, {"name": "Asklepios Zentrum für Rehabilitation", "latitude": 48.9306907, "longitude": 12.0380198, "source": "osm", "_tags": {"amenity": "hospital", "healthcare": "rehabilitation", "healthcare:speciality": "physiatry", "name": "Asklepios Zentrum für Rehabilitation", "operator": "Asklepios Kliniken", "operator:type": "private", "operator:wikidata": "Q732068", "wheelchair": "yes"}}, {"name": "", "latitude": 49.2035927, "longitude": 12.034576, "source": "osm", "_tags": {"amenity": "hospital", "healthcare": "hospital"}}, {"name": "", "latitude": 49.037047, "longitude": 12.2071887, "source": "osm", "_tags": {"amenity": "hospital", "healthcare": "hospital"}}, {"name": "", "latitude": 49.235326, "longitude": 12.7168037, "source": "osm", "_tags": {"amenity": "hospital", "healthcare": "hospital"}}, {"name": "Klinikum St. Elisabeth Straubing", "latitude": 48.8864331, "longitude": 12.5906554, "source": "osm", "_tags": {"addr:city": "Straubing", "addr:country": "DE", "addr:housenumber": "23", "addr:postcode": "94315", "addr:street": "Sankt-Elisabeth-Straße", "amenity": "hospital", "building": "hospital", "email": "info@klinikum-straubing.de", "emergency": "yes", "fax": "+49 9421 710 1015", "healthcare": "hospital", "layer": "-1", "name": "Klinikum St. Elisabeth Straubing", "operator": "Barmherzige Brüder", "phone": "+49 9421 710 0", "reg_name": "Elisabeth-Krankenhaus", "source": "Bing", "type": "multipolygon", "website": "https://www.klinikum-straubing.de/", "wheelchair": "yes", "wikidata": "Q30280939"}}, {"name": "Klinik Lindenlohe", "latitude": 49.3593851, "longitude": 12.1580814, "source": "osm", "_tags": {"amenity": "hospital", "building": "yes", "name": "Klinik Lindenlohe", "toilets:wheelchair": "yes", "type": "multipolygon", "wheelchair": "yes"}}, {"name": "Klinikum St. Marien", "latitude": 49.4478648, "longitude": 11.8666483, "source": "osm", "_tags": {"addr:city": "Amberg", "addr:housenumber": "7", "addr:postcode": "92224", "addr:street": "Mariahilfbergweg", "building": "hospital", "emergency": "yes", "healthcare": "hospital", "name": "Klinikum St. Marien", "operator": "Klinikum St. Marien A.d.ö.R.", "operator:type": "public", "type": "multipolygon"}}]