[{"name": "Centre Hospitalier de Pont-l'Évêque", "latitude": 49.2837195, "longitude": 0.1829924, "source": "osm", "_tags": {"AUCAME:ID_Source": "140000308", "AUCAME:ID_Unique": "03010102 0006", "AUCAME:addr": "9 RUE DE BROSSARD", "AUCAME:commune": "Pont-l'Évêque", "AUCAME:name": "CENTRE HOSPITALIER DE PONT L'EVEQUE", "AUCAME:postcode": "14130", "AUCAME:ref:INSEE": "14514", "amenity": "hospital", "name": "Centre Hospitalier de Pont-l'Évêque", "ref:FR:FINESS": "140000308", "source": "Le ministère des solidarités et de la santé - 03/2019"}}, {"name": "Service des Urgences médicales", "latitude": 49.528879, "longitude": 0.0999512, "source": "osm", "_tags": {"healthcare": "hospital", "name": "Service des Urgences médicales", "opening_hours": "24/7"}}, {"name": "Maison thérapeutique", "latitude": 49.5156102, "longitude": 0.5413373, "source": "osm", "_tags": {"amenity": "hospital", "healthcare": "hospital", "name": "Maison thérapeutique", "phone": "+33235385881", "ref:FR:FINESS": "760026104", "source": "Le ministère des solidarités et de la santé - 03/2019", "type:FR:FINESS": "355"}}, {"name": "Hôpital psychiatrique", "latitude": 49.5684833, "longitude": 0.4705588, "source": "osm", "_tags": {"amenity": "hospital", "fax": "+33235381977", "healthcare": "hospital", "name": "Hôpital psychiatrique", "phone": "+33235381977", "ref:FR:FINESS": "760026112", "source": "Le ministère des solidarités et de la santé - 03/2019", "type:FR:FINESS": "355"}}, {"name": "Hôpital psychiatrie enfants", "latitude": 49.568273, "longitude": 0.485683, "source": "osm", "_tags": {"amenity": "hospital", "fax": "+33235315884", "healthcare": "hospital", "name": "Hôpital psychiatrie enfants", "phone": "+33235310593", "ref:FR:FINESS": "760780882", "ref:FR:SIRET": "26760171400657", "source": "Le ministère des solidarités et de la santé - 03/2019", "type:FR:FINESS": "355"}}, {"name": "Consultations USN1", "latitude": 49.5166688, "longitude": 0.2815853, "source": "osm", "_tags": {"amenity": "hospital", "name": "Consultations USN1", "note": "emplacement à préciser", "ref:FR:FINESS": "760034579", "source": "Le ministère des solidarités et de la santé - 03/2019", "type:FR:FINESS": "355"}}, {"name": "Centre Médico-Psychologique de Graville", "latitude": 49.5018697, "longitude": 0.1508605, "source": "osm", "_tags": {"addr:city": "Le Havre", "addr:housenumber": "63", "addr:postcode": "76600", "addr:street": "Rue de Verdun", "amenity": "hospital", "healthcare": "hospital", "name": "Centre Médico-Psychologique de Graville", "phone": "+33 235496525", "ref:FR:FINESS": "760019208", "ref:FR:SIRET": "26760171400459", "source": "Le ministère des solidarités et de la santé - 03/2019", "type:FR:FINESS": "355"}}, {"name": "Hôpital de jour enfants Dufy", "latitude": 49.5005701, "longitude": 0.1230707, "source": "osm", "_tags": {"amenity": "hospital", "check_date": "2024-04-21", "fax": "+33232733919", "healthcare": "hospital", "name": "Hôpital de jour enfants Dufy", "phone": "+33232733950", "ref:FR:FINESS": "760025411", "ref:FR:SIRET": "26760171400525", "source": "Le ministère des solidarités et de la santé - 03/2019", "type:FR:FINESS": "355"}}, {"name": "Le repère", "latitude": 49.5008581, "longitude": 0.1222316, "source": "osm", "_tags": {"amenity": "hospital", "check_date": "2024-04-21", "name": "Le repère", "note": "emplacement dans l'hôpital à préciser", "ref:FR:FINESS": "760026419", "ref:FR:SIRET": "26760171400053", "source": "Le ministère des solidarités et de la santé - 03/2019", "type:FR:FINESS": "355"}}, {"name": "Hôpital Flaubert - santé mentale adultes", "latitude": 49.4986039, "longitude": 0.1128338, "source": "osm", "_tags": {"amenity": "hospital", "healthcare": "hospital", "name": "Hôpital Flaubert - santé mentale adultes", "note": "emplacement dans l'hôpital à préciser", "operator": "Groupe hospitalier du Havre", "ref:FR:FINESS": "760034165", "source": "cadastre-dgi-fr source : Direction Générale des Impôts - Cadastre. Mise à jour : 2010"}}, {"name": "HAD Estuaire", "latitude": 49.744548, "longitude": 0.386764, "source": "osm", "_tags": {"amenity": "hospital", "fax": "+33227302831", "healthcare": "hospital", "name": "HAD Estuaire", "note": "emplacement à préciser", "phone": "+33235925387", "ref:FR:FINESS": "760027938", "ref:FR:SIRET": "26760172200239", "source": "Le ministère des solidarités et de la santé - 03/2019", "type:FR:FINESS": "355"}}, {"name": "", "latitude": 49.3829674, "longitude": 0.2022648, "source": "osm", "_tags": {"amenity": "hospital", "healthcare": "hospital", "phone": "+33231490930", "ref:FR:FINESS": "140028754", "source": "Le ministère des solidarités et de la santé - 2024-09", "type:FR:FINESS": "292"}}, {"name": "Centre Hospitalier de Falaise", "latitude": 48.8904638, "longitude": -0.2041788, "source": "osm", "_tags": {"addr:city": "Falaise", "addr:postcode": "14700", "addr:street": "Boulevard des Bercagnes", "amenity": "hospital", "capacity": "620", "contact:phone": "+33 2 31 40 40 40", "emergency": "yes", "fax": "+33 2 31 40 41 47", "healthcare": "hospital", "name": "Centre Hospitalier de Falaise", "operator:type": "public", "phone": "+33 2 31 40 40 40", "ref:FR:FINESS": "140000233", "ref:FR:NAF": "86.10Z", "ref:FR:SIRET": "26140100400013", "source": "cadastre-dgi-fr source : Direction Générale des Impôts - Cadastre. Mise à jour : 2011", "type:FR:FINESS": "355", "website": "http://www.ch-falaise.fr/"}}, {"name": "Centre Hospitalier Marescot", "latitude": 48.9237045, "longitude": 0.2024997, "source": "osm", "_tags": {"amenity": "hospital", "healthcare": "hospital", "name": "Centre Hospitalier Marescot", "ref:FR:FINESS": "610000101", "source": "cadastre-dgi-fr source : Direction Générale des Impôts - Cadastre. Mise à jour : 2010", "wikidata": "Q92063170"}}, {"name": "Polyclinique Deauville", "latitude": 49.3538969, "longitude": 0.0690114, "source": "osm", "_tags": {"amenity": "hospital", "building": "yes", "healthcare": "hospital", "name": "Polyclinique Deauville", "ref:FR:FINESS": "140000258", "source": "cadastre-dgi-fr source : Direction Générale des Impôts - Cadastre. Mise à jour : 2010", "type:FR:FINESS": "365"}}, {"name": "Hôpital Jacques Monod", "latitude": 49.5265171, "longitude": 0.1845867, "source": "osm", "_tags": {"amenity": "hospital", "contact:facebook": "Hôpital Jacques Monod", "emergency": "yes", "fax": "+33 2 32 73 38 90", "healthcare": "hospital", "healthcare:speciality": "intensive", "name": "Hôpital Jacques Monod", "operator": "Groupe hospitalier du Havre", "phone": "+33 2 32 73 32 32", "ref:FR:FINESS": "760805770", "type:FR:FINESS": "355", "website": "https://www.ch-havre.fr/"}}, {"name": "Clinique des Ormeaux", "latitude": 49.4872178, "longitude": 0.1365213, "source": "osm", "_tags": {"amenity": "hospital", "emergency": "yes", "fax": "+33 2 32 74 32 92", "healthcare": "hospital", "healthcare:speciality": "intensive", "name": "Clinique des Ormeaux", "operator:type": "private", "phone": "+33 2 32 74 32 74", "ref:FR:FINESS": "760780791", "ref:FR:SIRET": "78106102300029", "source": "cadastre-dgi-fr source : Direction Générale des Impôts - Cadastre. Mise à jour : 2010", "type:FR:FINESS": "365", "website": "https://www.ormeaux.com/"}}, {"name": "Hôpital Flaubert", "latitude": 49.499504, "longitude": 0.1130624, "source": "osm", "_tags": {"addr:city": "Le Havre", "addr:housenumber": "55 bis", "addr:postcode": "76600", "addr:street": "Rue Gustave Flaubert", "amenity": "hospital", "emergency": "yes", "fax": "+33 2 32 73 38 18", "healthcare": "hospital", "name": "Hôpital Flaubert", "operator": "Groupe hospitalier du Havre", "operator:type": "public", "phone": "+33 2 32 73 32 32", "ref:FR:FINESS": "760000356", "ref:FR:SIRET": "26760171400012", "source": "Le ministère des solidarités et de la santé - 03/2019", "type:FR:FINESS": "355"}}, {"name": "Hôpital Pierre Janet", "latitude": 49.501515, "longitude": 0.1229889, "source": "osm", "_tags": {"addr:housenumber": "4", "addr:street": "Rue de Tourneville", "amenity": "hospital", "check_date": "2024-04-21", "healthcare": "hospital", "name": "Hôpital Pierre Janet", "ref:FR:FINESS": "760781070", "source": "cadastre-dgi-fr source : Direction Générale des Impôts - Cadastre. Mise à jour : 2010", "type:FR:FINESS": "355"}}, {"name": "Addictologie", "latitude": 48.8913154, "longitude": -0.2031995, "source": "osm", "_tags": {"amenity": "hospital", "building": "yes", "contact:phone": "+33231404130", "healthcare": "hospital", "name": "Addictologie", "opening_hours": "Mo 12:00-16:30; week 1-53/2 We 12:00-15:00; week 2-52/2 We 14:00-16:00", "ref:FR:FINESS": "140027483", "social_facility": "outreach", "social_facility:for": "juvenile", "source": "cadastre-dgi-fr source : Direction Générale des Impôts - Cadastre. Mise à jour : 2011", "type:FR:FINESS": "228"}}, {"name": "Hôpital de Jour - Pôle Pays d'Auge", "latitude": 49.161001, "longitude": 0.2282915, "source": "osm", "_tags": {"addr:city": "Lisieux", "addr:housenumber": "120", "addr:postcode": "14100", "addr:street": "Boulevard Herbet Fournet", "building": "yes", "healthcare": "hospital", "name": "Hôpital de Jour - Pôle Pays d'Auge", "source": "cadastre-dgi-fr source : Direction Générale des Impôts - Cadastre. Mise à jour : 2011", "website": "https://www.epsm-caen.fr/"}}, {"name": "Centre hospitalier de Bernay", "latitude": 49.0902227, "longitude": 0.5893619, "source": "osm", "_tags": {"addr:city": "Bernay", "addr:housenumber": "5", "addr:postcode": "27300", "addr:street": "Rue Anne de Ticheville", "alt_name": "Hôpital Anne de Ticheville", "amenity": "hospital", "emergency": "yes", "fax": "+33 2 32 45 63 68", "healthcare": "hospital", "name": "Centre hospitalier de Bernay", "operator:type": "public", "phone": "+33 2 32 45 63 00", "ref:FR:FINESS": "270000045", "short_name": "CH de Bernay", "type:FR:FINESS": "355", "website": "https://www.ch-bernay.fr/"}}, {"name": "Hôpital privé de l'Estuaire", "latitude": 49.529104, "longitude": 0.1004468, "source": "osm", "_tags": {"addr:city": "Le Havre", "addr:housenumber": "505", "addr:postcode": "76620", "addr:street": "Rue Irène Joliot-Curie", "amenity": "hospital", "emergency": "yes", "fax": "+33 2 76 89 96 04", "healthcare": "hospital", "name": "Hôpital privé de l'Estuaire", "operator": "Ramsay Santé", "operator:type": "private", "operator:wikidata": "Q3123085", "phone": "+33 8 25 74 75 76", "ref:FR:FINESS": "760021329", "type:FR:FINESS": "365", "website": "https://hopital-prive-de-l-estuaire-le-havre.ramsaygds.fr/"}}, {"name": "Centre de Rééducation Fonctionnelle de la Hève", "latitude": 49.5197813, "longitude": 0.0869039, "source": "osm", "_tags": {"amenity": "hospital", "barrier": "wall", "fax": "+33235541250", "healthcare": "hospital", "name": "Centre de Rééducation Fonctionnelle de la Hève", "phone": "+33235547700", "ref:FR:FINESS": "760017079", "ref:FR:SIRET": "48226117900014", "source": "Le ministère des solidarités et de la santé - 03/2019", "type:FR:FINESS": "109"}}, {"name": "Hôpital Fauquet", "latitude": 49.5682171, "longitude": 0.4684145, "source": "osm", "_tags": {"addr:city": "Bolbec", "addr:housenumber": "365", "addr:postcode": "76210", "addr:street": "Rue Lechaptois", "amenity": "hospital", "emergency": "yes", "healthcare": "hospital", "name": "Hôpital Fauquet", "operator": "Centre hospitalier intercommunal Caux Vallée de Seine", "operator:type": "public", "phone": "+33 2 35 39 36 36", "ref:FR:FINESS": "760000398", "source": "Le ministère des solidarités et de la santé - 03/2019", "website": "http://www.chi-cauxvalleedeseine.fr"}}, {"name": "Centre hospitalier Robert Bisson", "latitude": 49.1447135, "longitude": 0.2323421, "source": "osm", "_tags": {"amenity": "hospital", "emergency": "yes", "fax": "+33 2 31 61 30 05", "healthcare": "hospital", "healthcare:speciality": "intensive", "name": "Centre hospitalier Robert Bisson", "name:etymology:wikidata": "Q3434586", "operator:type": "public", "phone": "+33 2 31 61 31 31", "ref:FR:FINESS": "140000027", "type:FR:FINESS": "355", "website": "https://www.ch-lisieux.fr/", "wheelchair": "yes", "wikidata": "Q2945693", "wikipedia": "fr:Centre hospitalier de Lisieux"}}, {"name": "Clinique Tous Vents", "latitude": 49.5190446, "longitude": 0.5434783, "source": "osm", "_tags": {"amenity": "hospital", "building": "hospital", "email": "direction@cliniquetousvents.com", "fax": "+33 2 35 39 67 72", "healthcare": "hospital", "healthcare:speciality": "intensive", "name": "Clinique Tous Vents", "operator": "Groupe Clinique Développement", "phone": "+33 2 35 39 35 35", "ref:FR:FINESS": "760780783", "ref:FR:SIRET": "35148053800039", "source": "Le ministère des solidarités et de la santé - 03/2019", "type:FR:FINESS": "128", "website": "https://www.cliniquedeveloppement.fr/lillebonne-tous-vents/"}}, {"name": "Centre Hospitalier de la Côte Fleurie", "latitude": 49.3826289, "longitude": 0.1292376, "source": "osm", "_tags": {"AUCAME:ID_Source": "140026717", "AUCAME:ID_Unique": "03010300 0009", "addr:place": "La Brèche du Bois", "addr:street": "La Brèche du Bois", "amenity": "hospital", "emergency": "yes", "fax": "+33 2 31 89 88 81", "healthcare": "hospital", "name": "Centre Hospitalier de la Côte Fleurie", "operator:type": "public", "phone": "+33 2 31 89 89 89", "ref:FR:FINESS": "140026410", "type:FR:FINESS": "355", "website": "http://ch-cotefleurie.com/", "wikidata": "Q65155782"}}, {"name": "Centre hospitalier de la Risle", "latitude": 49.3484508, "longitude": 0.5147337, "source": "osm", "_tags": {"addr:city": "Pont-Audemer", "addr:housenumber": "64", "addr:postcode": "27500", "addr:street": "Route de Lisieux", "amenity": "hospital", "email": "direction@ch-pont-audemer.fr", "emergency": "yes", "fax": "+33 2 32 42 64 65", "healthcare": "hospital", "name": "Centre hospitalier de la Risle", "operator:type": "public", "payment:cash": "yes", "payment:credit_cards": "yes", "phone": "+33 2 32 41 64 64", "ref:FR:FINESS": "270000425", "short_name": "CH de la Risle", "type:FR:FINESS": "355", "website": "https://ch-pont-audemer.fr/"}}, {"name": "Hôpital Saint-Romain de Colbosc", "latitude": 49.5248052, "longitude": 0.3642131, "source": "osm", "_tags": {"amenity": "hospital", "healthcare": "hospital", "name": "Hôpital Saint-Romain de Colbosc", "ref:FR:FINESS": "760000380", "source": "Le ministère des solidarités et de la santé - 03/2019", "wikidata": "Q92061570"}}, {"name": "EHPAD Les escales - Résidence Desaint-Jean", "latitude": 49.5214357, "longitude": 0.0876231, "source": "osm", "_tags": {"addr:city": "Le Havre", "addr:housenumber": "13", "addr:postcode": "76620", "addr:street": "Rue Louis Blériot", "amenity": "social_facility", "barrier": "yes", "healthcare": "hospital", "name": "EHPAD Les escales - Résidence Desaint-Jean", "social_facility": "group_home", "social_facility:for": "senior"}}, {"name": "Polyclinique", "latitude": 49.1460134, "longitude": 0.2581465, "source": "osm", "_tags": {"AUCAME:ID_Source": "140018730", "AUCAME:ID_Unique": "03010300 0006", "addr:street": "Rond-Point de l'Espérance", "amenity": "hospital", "healthcare": "hospital", "name": "Polyclinique", "ref:FR:FINESS": "140018730", "source": "cadastre-dgi-fr source : Direction Générale des Impôts - Cadastre. Mise à jour : 2011", "type:FR:FINESS": "365"}}, {"name": "Centre hospitalier intercommunal Caux-Vallée de Seine", "latitude": 49.519493, "longitude": 0.5436207, "source": "osm", "_tags": {"addr:full": "19 avenue du Président René Coty 76170 Lillebonne", "alt_name": "Centre Hospitalier Docteur Rosenberg", "amenity": "hospital", "email": "direction@chi-cauxvalleedeseine.fr", "emergency": "yes", "fax": "+33 2 35 39 35 93", "healthcare": "hospital", "name": "Centre hospitalier intercommunal Caux-Vallée de Seine", "operator:type": "public", "phone": "+33 2 35 39 36 36", "ref:FR:FINESS": "760000372", "short_name": "CHI Caux-Vallée de Seine", "source": "cadastre-dgi-fr source : Direction Générale des Impôts - Cadastre ; mise à jour : 2009", "type": "multipolygon", "type:FR:FINESS": "355", "website": "http://chi-cauxvalleedeseine.fr"}}, {"name": "Hôpital clinique du Pays des Hautes Falaises", "latitude": 49.7443449, "longitude": 0.3867595, "source": "osm", "_tags": {"amenity": "hospital", "contact:facebook": "CH de Fécamp", "email": "secretariatdirection@ch-fecamp.fr", "emergency": "yes", "fax": "+33 2 35 10 91 14", "healthcare": "hospital", "name": "Hôpital clinique du Pays des Hautes Falaises", "operator": "Clinique de l'Abbaye - Centre hospitalier intercommunal du Pays des Hautes Falaises", "operator:type": "public", "phone": "+33 2 35 10 90 00", "ref:FR:FINESS": "760000364", "twitter": "CHFECAMP", "type": "multipolygon", "type:FR:FINESS": "355", "website": "https://www.ch-fecamp.fr/"}}]