[{"name": "Arberlandklinik Viechtach", "latitude": 49.0852461, "longitude": 12.8754441, "source": "osm", "_tags": {"addr:city": "Viechtach", "addr:country": "DE", "addr:housenumber": "31", "addr:postcode": "94234", "addr:street": "Karl-Gareis-Straße", "amenity": "hospital", "name": "Arberlandklinik Viechtach", "phone": "+49 9942 200", "website": "http://www.kkhviechtach.de"}}, {"name": "Stodská nemocnice", "latitude": 49.6363793, "longitude": 13.1550448, "source": "osm", "_tags": {"amenity": "hospital", "contact:website": "https://stod.nemocnicepk.cz/", "healthcare": "hospital", "name": "Stodská nemocnice"}}, {"name": "ARBERLANDKlinik Zwiesel", "latitude": 49.0072976, "longitude": 13.2183653, "source": "osm", "_tags": {"addr:city": "Zwiesel", "addr:country": "DE", "addr:housenumber": "1", "addr:postcode": "94227", "addr:street": "Arberlandstraße", "amenity": "hospital", "healthcare": "hospital", "name": "ARBERLANDKlinik Zwiesel", "name:de": "Arberlandklinik", "phone": "+49 9922 990", "website": "https://www.arberlandkliniken.de", "wheelchair": "yes"}}, {"name": "TCM-Klinik", "latitude": 49.1741029, "longitude": 12.8561246, "source": "osm", "_tags": {"addr:city": "Bad Kötzting", "addr:country": "DE", "addr:housenumber": "2", "addr:postcode": "93444", "addr:street": "Ludwigstraße", "amenity": "hospital", "email": "kontakt@tcm.info", "healthcare": "hospital", "name": "TCM-Klinik", "operator": "TCM-Klinik Kötzting", "phone": "+49 9941 609-0", "website": "http://www.tcm-klinik-koetzting.de/", "wheelchair": "yes"}}, {"name": "Klinikum Luitpold", "latitude": 49.1693698, "longitude": 12.858291, "source": "osm", "_tags": {"addr:city": "Bad Kötzting", "addr:country": "DE", "addr:housenumber": "1", "addr:postcode": "93444", "addr:street": "Weißenregener Straße", "amenity": "hospital", "healthcare": "hospital", "name": "Klinikum Luitpold", "website": "https://www.reha-badkoetzting.de/"}}, {"name": "Porodnice Lochotín", "latitude": 49.7624283, "longitude": 13.3774538, "source": "osm", "_tags": {"amenity": "hospital", "healthcare": "centre", "healthcare:speciality": "gynaecology", "name": "Porodnice Lochotín"}}, {"name": "Dr. Gerd Pöschl - Zahnheilkunde Grafenau", "latitude": 48.8564829, "longitude": 13.3974041, "source": "osm", "_tags": {"addr:city": "Grafenau", "addr:country": "DE", "addr:housenumber": "16", "addr:postcode": "94481", "addr:street": "Stadtplatz", "amenity": "hospital", "description": "Zahnmedizin & Zahngesundheit in der Zahnarztpraxis Dr Pöschl in Grafenau, Niederbayern.", "email": "praxis@zahnheilkundegrafenau.de", "fax": "+49 8552 4305", "healthcare": "hospital", "healthcare:speciality": "dentist", "name": "Dr. Gerd Pöschl - Zahnheilkunde Grafenau", "phone": "+49 8552 4325", "website": "https://www.zahnheilkundegrafenau.de/"}}, {"name": "Nemocnice následné péče LDN Horažďovice s.r.o.", "latitude": 49.3238849, "longitude": 13.7080502, "source": "osm", "_tags": {"addr:housenumber": "314", "addr:postcode": "34101", "addr:street": "Blatenská", "amenity": "hospital", "emergency": "no", "healthcare": "hospital", "name": "Nemocnice následné péče LDN Horažďovice s.r.o."}}, {"name": "Fakultní nemocnice Plzeň", "latitude": 49.7330281, "longitude": 13.3757955, "source": "osm", "_tags": {"amenity": "hospital", "barrier": "wall", "emergency": "yes", "healthcare": "hospital", "name": "Fakultní nemocnice Plzeň", "website": "https://www.fnplzen.cz/"}}, {"name": "Mulačova nemocnice", "latitude": 49.7273607, "longitude": 13.369865, "source": "osm", "_tags": {"amenity": "hospital", "building": "civic", "building:ruian:type": "5", "contact:website": "http://www.mulacovanemocnice.cz/", "healthcare": "hospital", "name": "Mulačova nemocnice", "ref:ruian:building": "24115878", "source": "cuzk:ruian"}}, {"name": "Poliklinika Plzeň", "latitude": 49.7457446, "longitude": 13.3930795, "source": "osm", "_tags": {"amenity": "hospital", "building": "civic", "building:ruian:type": "5", "healthcare": "hospital", "name": "Poliklinika Plzeň", "ref:ruian:building": "24140376", "source": "cuzk:ruian"}}, {"name": "IV. Poliklinika", "latitude": 49.7546855, "longitude": 13.4167309, "source": "osm", "_tags": {"amenity": "hospital", "building": "civic", "building:flats": "1", "building:levels": "1", "building:ruian:type": "15", "healthcare": "hospital", "name": "IV. Poliklinika", "ref:ruian:building": "24052191", "source": "cuzk:ruian", "wheelchair": "yes"}}, {"name": "Krankenhaus Grafenau", "latitude": 48.8588796, "longitude": 13.3931268, "source": "osm", "_tags": {"addr:city": "Grafenau", "addr:country": "DE", "addr:housenumber": "21", "addr:postcode": "94481", "addr:street": "Schwarzmaierstraße", "amenity": "hospital", "building": "yes", "emergency": "yes", "healthcare": "hospital", "name": "Krankenhaus Grafenau", "phone": "+49 8581 981-0"}}, {"name": "", "latitude": 49.404299, "longitude": 13.2923593, "source": "osm", "_tags": {"building": "hospital", "building:levels": "3", "building:ruian:type": "15", "healthcare": "hospital", "ref:ruian:building": "21238545", "source": "cuzk:ruian", "start_date": "2014-05-22"}}, {"name": "Chirurgische Tagesklinik", "latitude": 48.818186, "longitude": 13.5481267, "source": "osm", "_tags": {"addr:city": "Freyung", "addr:housenumber": "4a", "addr:place": "Bannholz", "addr:postcode": "94078", "amenity": "hospital", "building": "hospital", "healthcare": "hospital", "name": "Chirurgische Tagesklinik"}}, {"name": "ASKLEPIOS Klinik Schaufling", "latitude": 48.8629014, "longitude": 13.0674971, "source": "osm", "_tags": {"addr:housenumber": "2", "addr:street": "Hausstein", "amenity": "hospital", "email": "schaufling@asklepios.com", "fax": "+49 9904 7299", "healthcare": "hospital", "name": "ASKLEPIOS Klinik Schaufling", "operator": "Asklepios Kliniken", "operator:type": "private", "operator:wikidata": "Q732068", "phone": "+49 9904 770", "toilets:wheelchair": "yes", "website": "https://www.asklepios.com/schaufling", "wheelchair": "yes", "wikidata": "Q1318729"}}, {"name": "Léčebna TRN Janov", "latitude": 49.705884, "longitude": 13.6659656, "source": "osm", "_tags": {"addr:city": "Mirošov", "addr:conscriptionnumber": "500", "addr:country": "CZ", "addr:housenumber": "500", "addr:place": "Mirošov", "addr:postcode": "33843", "addr:street": "U léčebny", "amenity": "hospital", "healthcare": "hospital", "leisure": "park", "loc_name": "Sanatorium", "name": "Léčebna TRN Janov", "official_name": "Léčebna tuberkulózy a respiračních nemocí Janov", "phone": "+420 371 512 111", "source": "cuzk:km", "source:addr": "cuzk:ruian", "website": "https://www.janov.cz/"}}, {"name": "DONAUISAR Klinikum Deggendorf", "latitude": 48.8391494, "longitude": 12.9701346, "source": "osm", "_tags": {"addr:city": "Deggendorf", "addr:housenumber": "41", "addr:postcode": "94469", "addr:street": "Perlasberger Straße", "amenity": "hospital", "contact:phone": "+49 991 3803510", "contact:website": "http://www.klinikum-deggendorf.de", "emergency": "yes", "healthcare": "hospital", "name": "DONAUISAR Klinikum Deggendorf", "operator": "DONAUISAR Klinikum Deggendorf-Dingolfing-Landau gKU"}}, {"name": "Spezialklinik Neukirchen GmbH & Co. KG", "latitude": 49.2596977, "longitude": 12.9675514, "source": "osm", "_tags": {"addr:city": "Neukirchen beim Heiligen Blut", "addr:country": "DE", "addr:housenumber": "9", "addr:postcode": "93453", "addr:street": "Krankenhausstraße", "amenity": "hospital", "building": "yes", "email": "info@spezialklinik-neukirchen.de", "fax": "+49 9947 28109", "healthcare": "hospital", "name": "Spezialklinik Neukirchen GmbH & Co. KG", "phone": "+49 9947 280", "website": "https://www.spezialklinik-neukirchen.de/"}}, {"name": "Psychiatrická nemocnice v Dobřanech", "latitude": 49.6443991, "longitude": 13.2855826, "source": "osm", "_tags": {"alt_name": "Psychiatrická léčebna Dobřany", "amenity": "hospital", "healthcare": "hospital", "healthcare:speciality": "psychiatry", "name": "Psychiatrická nemocnice v Dobřanech", "website": "https://www.pnvd.cz/", "wikidata": "Q58221834"}}, {"name": "Krankenhaus", "latitude": 49.1838264, "longitude": 12.8600684, "source": "osm", "_tags": {"addr:city": "Bad Kötzting", "addr:country": "DE", "addr:housenumber": "42", "addr:postcode": "93444", "addr:street": "Hauser Straße", "amenity": "hospital", "building": "yes", "healthcare": "hospital", "name": "Krankenhaus"}}, {"name": "Nemocnice Klatovy", "latitude": 49.4036648, "longitude": 13.2923978, "source": "osm", "_tags": {"amenity": "hospital", "building": "hospital", "building:levels": "8", "building:ruian:type": "19", "healthcare": "hospital", "name": "Nemocnice Klatovy", "ref:ruian:building": "78254141", "source": "cuzk:ruian", "start_date": "2014-05-22"}}, {"name": "Sušická nemocnice", "latitude": 49.2300099, "longitude": 13.525994, "source": "osm", "_tags": {"amenity": "hospital", "healthcare": "hospital", "name": "Sušická nemocnice", "website": "https://www.susnem.cz/"}}, {"name": "Nemocnice Rokycany", "latitude": 49.748712, "longitude": 13.6044714, "source": "osm", "_tags": {"alt_name": "Rokycanská nemocnice", "amenity": "hospital", "emergency": "yes", "healthcare": "hospital", "name": "Nemocnice Rokycany", "website": "http://www.nemocnice-ro.cz/"}}, {"name": "", "latitude": 49.4045664, "longitude": 13.2914553, "source": "osm", "_tags": {"amenity": "hospital", "healthcare": "hospital"}}, {"name": "Fakultní nemocnice Plzeň", "latitude": 49.7618521, "longitude": 13.3808228, "source": "osm", "_tags": {"amenity": "hospital", "healthcare": "hospital", "name": "Fakultní nemocnice Plzeň"}}, {"name": "Transfúzní oddělení FN Plzeň", "latitude": 49.728646, "longitude": 13.3754495, "source": "osm", "_tags": {"amenity": "hospital", "healthcare": "hospital", "name": "Transfúzní oddělení FN Plzeň"}}, {"name": "Privamed", "latitude": 49.7648985, "longitude": 13.3590863, "source": "osm", "_tags": {"amenity": "hospital", "area": "yes", "healthcare": "hospital", "name": "Privamed"}}, {"name": "Nemocnice Domažlice", "latitude": 49.4379913, "longitude": 12.9080969, "source": "osm", "_tags": {"amenity": "hospital", "healthcare": "hospital", "name": "Nemocnice Domažlice", "type": "multipolygon", "website": "http://www.donem.cz/"}}]