[{"name": "Hôpital de Jour MGEN", "latitude": 49.4484745, "longitude": 1.089041, "source": "osm", "_tags": {"amenity": "hospital", "healthcare": "hospital", "name": "Hôpital de Jour MGEN", "ref:FR:FINESS": "760780288", "type:FR:FINESS": "161"}}, {"name": "Centre de jour Saint-Gervais - Centre Hospitalier du Rouvray", "latitude": 49.4493077, "longitude": 1.0820638, "source": "osm", "_tags": {"addr:housenumber": "3", "amenity": "hospital", "check_date": "2024-04-12", "healthcare": "hospital", "name": "Centre de jour Saint-Gervais - Centre Hospitalier du Rouvray", "ref:FR:FINESS": "760913491", "ref:FR:SIRET": "26760217500445", "source": "Le ministère des solidarités et de la santé - 03/2019"}}, {"name": "Hôpital local du Neubourg", "latitude": 49.1491358, "longitude": 0.906383, "source": "osm", "_tags": {"amenity": "hospital", "email": "hop.leneub@wanadoo.fr", "emergency": "no", "fax": "+33 2 32 35 68 01", "healthcare": "hospital", "name": "Hôpital local du Neubourg", "phone": "+33 2 32 35 68 00", "ref:FR:FINESS": "270000516", "type:FR:FINESS": "106", "wikidata": "Q92062451"}}, {"name": "", "latitude": 49.0227805, "longitude": 1.1266553, "source": "osm", "_tags": {"amenity": "hospital", "healthcare": "hospital", "ref:FR:FINESS": "270019888", "source": "Le ministère des solidarités et de la santé - 03/2019"}}, {"name": "Centre médico-psychologique Charles Perrault pour enfants et adolescents", "latitude": 49.3980549, "longitude": 1.0630315, "source": "osm", "_tags": {"amenity": "hospital", "name": "Centre médico-psychologique Charles Perrault pour enfants et adolescents", "opening_hours": "Mo-Fr 09:00-17:00", "ref:FR:FINESS": "760023846", "source": "Le ministère des solidarités et de la santé - 03/2019", "website": "https://www.ch-lerouvray.fr/centre-medico-psychologique-charles-perrault-pour-enfants-et-adolescents"}}, {"name": "Hôpital de jour Adosphère", "latitude": 49.3957094, "longitude": 1.1028647, "source": "osm", "_tags": {"amenity": "hospital", "healthcare": "hospital", "name": "Hôpital de jour Adosphère", "ref:FR:FINESS": "760023945", "source": "Le ministère des solidarités et de la santé - 03/2019"}}, {"name": "Centre médico-Psychologique pour enfants", "latitude": 49.3403341, "longitude": 1.0979852, "source": "osm", "_tags": {"amenity": "hospital", "name": "Centre médico-Psychologique pour enfants", "ref:FR:FINESS": "760806018", "source": "Le ministère des solidarités et de la santé - 03/2019"}}, {"name": "Hôpital psychiatrique", "latitude": 49.440937, "longitude": 1.1073852, "source": "osm", "_tags": {"amenity": "hospital", "healthcare": "hospital", "name": "Hôpital psychiatrique", "ref:FR:FINESS": "760023952", "source": "Le ministère des solidarités et de la santé - 03/2019"}}, {"name": "I.M.B.S (Imagerie Médicale des Boucles de la Seine)", "latitude": 49.3041408, "longitude": 1.0406291, "source": "osm", "_tags": {"addr:city": "Saint-Aubin-lès-Elbeuf", "addr:housenumber": "9", "addr:postcode": "76410", "addr:street": "Avenue de l'Europe", "amenity": "hospital", "healthcare": "hospital", "healthcare:speciality": "radiology", "name": "I.M.B.S (Imagerie Médicale des Boucles de la Seine)"}}, {"name": "Centre Medico Psychologique des Sources", "latitude": 49.6112442, "longitude": 1.5430338, "source": "osm", "_tags": {"addr:city": "Forges-les-Eaux", "addr:housenumber": "1bis", "addr:postcode": "76440", "addr:street": "Avenue des Sources", "amenity": "hospital", "healthcare": "hospital", "healthcare:speciality": "psychiatry;child_psychiatry", "name": "Centre Medico Psychologique des Sources", "opening_hours": "Mo-Fr 09:30-16:30", "phone": "+33 2 35 09 33 80", "wheelchair": "yes"}}, {"name": "Hôpital de jour pour adultes", "latitude": 49.2882117, "longitude": 1.0171699, "source": "osm", "_tags": {"amenity": "hospital", "fax": "+33235786292", "name": "Hôpital de jour pour adultes", "phone": "+33235774199", "ref:FR:FINESS": "760913558", "ref:FR:SIRET": "26760217500056", "source": "Le ministère des solidarités et de la santé - 2024-11", "type:FR:FINESS": "292"}}, {"name": "Hôpital de jour pour enfants", "latitude": 49.2875611, "longitude": 1.0171029, "source": "osm", "_tags": {"amenity": "hospital", "fax": "+33235819055", "name": "Hôpital de jour pour enfants", "phone": "+33235771741", "ref:FR:FINESS": "760807594", "ref:FR:SIRET": "26760217500254", "source": "Le ministère des solidarités et de la santé - 2024-11", "type:FR:FINESS": "292"}}, {"name": "Cabinet paramédical du Jardin des Plantes", "latitude": 49.420801, "longitude": 1.073205, "source": "osm", "_tags": {"addr:city": "Rouen", "addr:housenumber": "7", "addr:postcode": "76000", "addr:street": "Rue de Trianon", "amenity": "hospital", "check_date": "2025-08-02", "check_date:currency:XBT": "2025-08-02", "currency:EUR": "yes", "currency:XBT": "yes", "healthcare": "hospital", "healthcare:speciality": "kinesitherapy", "name": "Cabinet paramédical du Jardin des Plantes", "payment:app": "yes", "payment:apple_pay": "yes", "payment:cards": "yes", "payment:cash": "yes", "payment:contactless": "yes", "payment:credit_cards": "yes", "payment:debit_cards": "yes", "payment:google_pay": "yes", "payment:lightning": "yes", "payment:lightning_contactless": "yes", "payment:mastercard": "yes", "payment:onchain": "yes", "payment:visa": "yes", "phone": "+33 2 35 72 55 19", "website": "https://www.niromathe.com/", "wheelchair": "yes"}}, {"name": "Centre hospitalier Eure-Seine", "latitude": 49.0905765, "longitude": 1.4878544, "source": "osm", "_tags": {"addr:city": "Vernon", "addr:housenumber": "5", "addr:postcode": "27200", "addr:street": "Rue du Docteur Burnet", "alt_name": "Hôpital Saint-Louis", "amenity": "hospital", "contact:facebook": "Centre Hospitalier Eure-Seine", "emergency": "yes", "fax": "+33 2 32 71 66 65", "healthcare": "hospital", "name": "Centre hospitalier Eure-Seine", "operator:type": "public", "phone": "+33 2 32 71 66 00", "ref:FR:FINESS": "270000458", "short_name": "CH Eure-Seine", "source": "https://actu.fr/normandie/vernon_27681/urgences-maternite-pole-sante-lhopital-vernon-sactive_17588831.html", "type:FR:FINESS": "355", "website": "http://www.chi-eureseine.fr", "wikidata": "Q104875583"}}, {"name": "Centre hospitalier François Quesnay", "latitude": 48.9984026, "longitude": 1.6740774, "source": "osm", "_tags": {"amenity": "hospital", "emergency": "yes", "fax": "+33 1 34 97 40 15", "healthcare:speciality": "intensive", "name": "Centre hospitalier François Quesnay", "operator:type": "public", "phone": "+33 1 34 97 40 00", "ref:FR:FINESS": "780000287", "type:FR:FINESS": "365", "website": "http://www.ch-mantes.fr/"}}, {"name": "Clinique Pasteur", "latitude": 49.0285016, "longitude": 1.1607667, "source": "osm", "_tags": {"addr:full": "58 boulevard Pasteur 27000 Évreux", "amenity": "hospital", "building": "hospital", "email": "contact@clinique-pasteur.fr", "emergency": "yes", "fax": "+33 2 32 38 57 78", "name": "Clinique Pasteur", "operator:type": "private", "phone": "+33 2 32 38 95 00", "ref:FR:FINESS": "270000326", "type:FR:FINESS": "128", "website": "http://www.clinique-pasteur.fr/"}}, {"name": "Clinique de l'Europe", "latitude": 49.4255445, "longitude": 1.0858747, "source": "osm", "_tags": {"addr:city": "Rouen", "addr:housenumber": "73", "addr:postcode": "76100", "addr:street": "Boulevard de l'Europe", "amenity": "clinic", "contact:facebook": "https://www.facebook.com/CHPEuroperouen", "email": "contact@clinique-europe.com", "emergency": "yes", "fax": "+33232181132", "healthcare": "hospital", "healthcare:speciality": "intensive", "name": "Clinique de l'Europe", "operator:type": "private", "phone": "+33232181000", "ref:FR:FINESS": "760921809", "ref:FR:SIRET": "39048776700027", "source": "Le ministère des solidarités et de la santé - 2023-01", "type:FR:FINESS": "128", "website": "https://chpeurope-rouen.vivalto-sante.com/"}}, {"name": "Psychiatrie infanto juvénile", "latitude": 49.6198808, "longitude": 0.7526052, "source": "osm", "_tags": {"addr:housenumber": "1bis", "addr:street": "Rue Haemers", "amenity": "hospital", "building": "yes", "healthcare": "hospital", "name": "Psychiatrie infanto juvénile", "phone": "+33 2 32 70 47 80", "ref:FR:FINESS": "760806109", "source": "cadastre-dgi-fr source : Direction Générale des Impôts - Cadastre. Mise à jour : 2011", "type:FR:FINESS": "292", "wall": "no"}}, {"name": "Hôpital de Bois-Guillaume", "latitude": 49.4647657, "longitude": 1.1176657, "source": "osm", "_tags": {"amenity": "hospital", "healthcare": "hospital", "name": "Hôpital de Bois-Guillaume", "operator": "CHU de Rouen", "ref:FR:FINESS": "760783522"}}, {"name": "Clinique La Mare", "latitude": 49.2977757, "longitude": 1.1734115, "source": "osm", "_tags": {"amenity": "hospital", "healthcare": "hospital", "healthcare:speciality": "psychiatry", "name": "Clinique La Mare", "opening_hours": "Mo-Fr 09:15-18:00", "ref:FR:FINESS": "270025984", "ref:FR:SIRET": "64050148200031", "type:FR:FINESS": "161"}}, {"name": "Centre hospitalier Durécu-Lavoisier", "latitude": 49.4450153, "longitude": 1.1497494, "source": "osm", "_tags": {"addr:city": "Darnétal", "addr:housenumber": "116", "addr:postcode": "76160", "addr:street": "Rue Louis Pasteur", "amenity": "hospital", "check_date": "2024-12-10", "emergency": "no", "healthcare": "hospital", "name": "Centre hospitalier Durécu-Lavoisier", "phone": "+33 2 32 12 32 32", "ref:FR:FINESS": "760000620", "short_name": "CHDL", "source": "Le ministère des solidarités et de la santé - 03/2019", "website": "http://chdl-darnetal.fr"}}, {"name": "Clinique du Cèdre", "latitude": 49.4641374, "longitude": 1.1125814, "source": "osm", "_tags": {"addr:full": "950 rue de la Haie 76230 Bois-Guillaume", "addr:housenumber": "950", "amenity": "hospital", "emergency": "yes", "fax": "+33 2 35 59 59 99", "healthcare": "hospital", "healthcare:speciality": "intensive", "name": "Clinique du Cèdre", "operator:type": "private", "phone": "+33 2 35 59 59 59", "ref:FR:FINESS": "760780510", "type:FR:FINESS": "365", "website": "https://www.clinique-du-cedre.fr/"}}, {"name": "Hôpital Saint-Julien", "latitude": 49.4197415, "longitude": 1.0566469, "source": "osm", "_tags": {"addr:city": "Le Petit-Quevilly", "addr:postcode": "76140", "addr:street": "Rue Guillaume Lecointe", "amenity": "hospital", "emergency": "yes", "healthcare": "hospital", "name": "Hôpital Saint-Julien", "operator": "Centre hospitalier universitaire de Rouen", "operator:type": "public", "phone": "+33 2 32 88 64 00", "ref:FR:FINESS": "760000141", "source": "cadastre-dgi-fr source : Direction Générale des Impôts - Cadastre;mise à jour : 2009", "type:FR:FINESS": "101", "website": "https://www.chu-rouen.fr/hopital-saint-julien/"}}, {"name": "Centre Régional de Médecine Physique et de Réadaptation Les Herbiers", "latitude": 49.4618844, "longitude": 1.1174854, "source": "osm", "_tags": {"addr:city": "Bois-Guillaume", "addr:housenumber": "111", "addr:postcode": "76230", "addr:street": "Rue Herbeuse", "amenity": "hospital", "fax": "+33 2 35 59 52 46", "healthcare": "rehabilitation", "name": "Centre Régional de Médecine Physique et de Réadaptation Les Herbiers", "phone": "+33 2 35 59 52 00", "ref:FR:FINESS": "760780692", "ref:FR:SIRET": "42403791900091", "short_name": "CRMPR Les Herbiers", "website": "https://www.groupe-ugecam.fr/crmpr-ugecam-les-herbiers"}}, {"name": "Clinique Saint-Antoine", "latitude": 49.4576768, "longitude": 1.1071289, "source": "osm", "_tags": {"amenity": "hospital", "fax": "+33235591527", "healthcare": "hospital", "name": "Clinique Saint-Antoine", "phone": "+33235126000", "ref:FR:FINESS": "760780205", "type:FR:FINESS": "128"}}, {"name": "Hôpital Local de Breteuil", "latitude": 48.8364574, "longitude": 0.9219176, "source": "osm", "_tags": {"addr:housenumber": "230", "alt_name": "CMP Adultes Breteuil", "amenity": "hospital", "healthcare": "hospital", "name": "Hôpital Local de Breteuil", "phone": "+33 2 32 34 78 34", "ref:FR:FINESS": "270012818", "source": "cadastre-dgi-fr source : Direction Générale des Impôts - Cadastre. Mise à jour : 2013", "type:FR:FINESS": "156"}}, {"name": "Hôpital de la Musse", "latitude": 49.0018264, "longitude": 1.0793748, "source": "osm", "_tags": {"amenity": "hospital", "healthcare": "hospital", "name": "Hôpital de la Musse", "ref:FR:FINESS": "270000912", "website": "https://www.larenaissancesanitaire.fr/", "wikidata": "Q116008580"}}, {"name": "Centre Hospitalier Neufchâtel-en-Bray", "latitude": 49.7305236, "longitude": 1.4518796, "source": "osm", "_tags": {"addr:housenumber": "4", "addr:street": "Route de Gaillefontaine", "amenity": "hospital", "healthcare": "hospital", "name": "Centre Hospitalier Neufchâtel-en-Bray", "ref:FR:FINESS": "760000059", "source": "cadastre-dgi-fr source : Direction Générale des Impôts - Cadastre. Mise à jour : 2015"}}, {"name": "Centre de soins", "latitude": 49.255783, "longitude": 0.980688, "source": "osm", "_tags": {"amenity": "hospital", "healthcare": "hospital", "name": "Centre de soins", "source": "cadastre-dgi-fr source : Direction Générale des Finances Publiques - Cadastre. Mise à jour : 2015"}}, {"name": "Hôpital La Roche-Guyon", "latitude": 49.079554, "longitude": 1.6258893, "source": "osm", "_tags": {"amenity": "hospital", "branch": "Sorbonne Université", "healthcare": "hospital", "name": "Hôpital La Roche-Guyon", "operator": "Assistance publique - Hôpitaux de Paris", "operator:short": "APHP", "operator:type": "public", "operator:wikidata": "Q2867205", "phone": "+33130638330", "ref:FR:FINESS": "950100024", "ref:FR:SIRET": "26750045200649", "source": "Le ministère des solidarités et de la santé - 03/2019", "type:FR:FINESS": "101", "website": "https://larocheguyon.aphp.fr/", "wikidata": "Q3145278"}}, {"name": "Groupe thérapeutique Marie Duboccage", "latitude": 49.4286389, "longitude": 1.0873352, "source": "osm", "_tags": {"addr:housenumber": "1", "amenity": "hospital", "emergency": "no", "healthcare": "centre", "healthcare:speciality": "psychiatry", "name": "Groupe thérapeutique Marie Duboccage", "operator": "Centre hospitalier universitaire de Rouen", "operator:type": "public", "ref:FR:FINESS": "760920090", "type:FR:FINESS": "292", "wheelchair": "yes"}}, {"name": "Centre de Convalescence l'Hostrea", "latitude": 49.241, "longitude": 1.6809861, "source": "osm", "_tags": {"amenity": "hospital", "building": "yes", "healthcare": "hospital", "healthcare:speciality": "physiatry", "name": "Centre de Convalescence l'Hostrea", "phone": "+33 2 32 27 75 75", "ref:FR:FINESS": "270000417", "type:FR:FINESS": "109"}}, {"name": "Centre hospitalier du Belvédère", "latitude": 49.4590088, "longitude": 1.0815548, "source": "osm", "_tags": {"addr:city": "Mont-Saint-Aignan", "addr:housenumber": "72", "addr:postcode": "76130", "amenity": "hospital", "emergency": "no", "healthcare": "hospital", "healthcare:speciality": "maternity;surgery;gynaecology;paediatrics", "name": "Centre hospitalier du Belvédère", "operator:type": "public", "phone": "+33 2 35 15 64 64", "ref:FR:FINESS": "760000182", "short_name": "CH du Belvédère", "source": "Le ministère des solidarités et de la santé - 03/2019", "website": "https://www.ch-belvedere.fr/"}}, {"name": "Centre hospitalier intercommunal Elbeuf Louviers Val-de-Reuil", "latitude": 49.2114964, "longitude": 1.1756825, "source": "osm", "_tags": {"addr:city": "Louviers", "addr:postcode": "27400", "alt_name": "Centre hospitalier de Louviers", "amenity": "hospital", "emergency": "yes", "fax": "+33 2 32 25 75 32", "healthcare": "hospital", "name": "Centre hospitalier intercommunal Elbeuf Louviers Val-de-Reuil", "old_name": "Hôpital Saint-Jean de Louviers", "operator:type": "public", "phone": "+33 2 32 25 75 00", "ref:FR:FINESS": "270000391", "short_name": "CHIELVR - Site de Louviers", "type:FR:FINESS": "355", "website": "https://chi-elbeuf-louviers.fr/", "wikidata": "Q2945715"}}, {"name": "Centre hospitalier Eure-Seine", "latitude": 49.0319928, "longitude": 1.1147324, "source": "osm", "_tags": {"addr:city": "Évreux", "addr:place": "ZAC de Cambolle", "addr:postcode": "27000", "addr:street": "Rue Louis Gillain", "alt_name": "Hôpital de Cambolle", "amenity": "hospital", "emergency": "yes", "fax": "+33 2 32 33 81 99", "healthcare": "hospital", "healthcare:speciality": "general;intensive", "name": "Centre hospitalier Eure-Seine", "operator": "Centre hospitalier Eure-Seine", "phone": "+33 2 32 33 80 00", "ref:FR:FINESS": "270000359", "type:FR:FINESS": "355", "website": "http://www.chi-eureseine.fr", "wikidata": "Q2945717"}}, {"name": "Polyclinique mantaise", "latitude": 48.9837974, "longitude": 1.7170919, "source": "osm", "_tags": {"amenity": "hospital", "healthcare": "hospital", "name": "Polyclinique mantaise", "ref:FR:FINESS": "780300125", "type:FR:FINESS": "128"}}, {"name": "Maison de santé de l'Epte", "latitude": 49.208816, "longitude": 1.6689863, "source": "osm", "_tags": {"addr:city": "Château-sur-Epte", "addr:housenumber": "2", "addr:postcode": "27420", "addr:street": "Rue de Gisors", "amenity": "hospital", "building": "yes", "emergency": "no", "healthcare": "hospital", "healthcare:speciality": "general", "name": "Maison de santé de l'Epte", "ref:FR:FINESS": "270027774", "type:FR:FINESS": "603"}}, {"name": "Centre hospitalier de l’Austreberthe", "latitude": 49.542157, "longitude": 0.953811, "source": "osm", "_tags": {"addr:city": "Barentin", "addr:housenumber": "17", "addr:postcode": "76360", "addr:street": "Rue Pierre et Marie Curie", "amenity": "hospital", "email": "contact@chbarentin.fr", "emergency": "no", "healthcare": "hospital", "name": "Centre hospitalier de l’Austreberthe", "phone": "+33 2 35 92 82 82", "ref:FR:FINESS": "760000133", "source": "Le ministère des solidarités et de la santé - 03/2019", "website": "http://www.chbarentin.fr", "wikidata": "Q92062858"}}, {"name": "Hôpital Pierre Hurabielle", "latitude": 49.3490102, "longitude": 0.8146365, "source": "osm", "_tags": {"amenity": "hospital", "name": "Hôpital Pierre Hurabielle", "ref:FR:FINESS": "270000482", "source": "Le ministère des solidarités et de la santé - 03/2019", "wikidata": "Q92062988"}}, {"name": "Nouvel Hôpital de Navarre", "latitude": 49.0195346, "longitude": 1.1139402, "source": "osm", "_tags": {"addr:city": "Évreux", "addr:postcode": "27000", "addr:street": "Rue de Conches", "amenity": "hospital", "healthcare": "hospital", "name": "Nouvel Hôpital de Navarre", "ref:FR:FINESS": "270000573", "source": "cadastre-dgi-fr source : Direction Générale des Impôts - Cadastre. Mise à jour : 2020 + Bing", "source:name": "User: \"zorglubu\" Changeset: \"958669251\"", "website": "https://www.chs-navarre.fr"}}, {"name": "Hôpital de jour pour enfants Bleu soleil", "latitude": 49.3790229, "longitude": 1.1038042, "source": "osm", "_tags": {"amenity": "hospital", "name": "Hôpital de jour pour enfants Bleu soleil", "ref:FR:FINESS": "760922047", "source": "Le ministère des solidarités et de la santé - 03/2019"}}, {"name": "Clinique de Soins de Suite de Bois-Guillaume", "latitude": 49.4644646, "longitude": 1.1157289, "source": "osm", "_tags": {"addr:housenumber": "111", "addr:street": "Avenue du Maréchal Juin", "amenity": "hospital", "healthcare": "hospital", "name": "Clinique de Soins de Suite de Bois-Guillaume", "operator": "Clinéa", "phone": "+33826282811", "ref:FR:FINESS": "760029017", "source": "Le ministère des solidarités et de la santé - 03/2019", "type:FR:FINESS": "109", "website": "https://www.clinea.fr/clinique-de-soins-de-suite-bois-guillaume-76"}}, {"name": "Hôpital de Gournay-en-Bray", "latitude": 49.4776169, "longitude": 1.7225601, "source": "osm", "_tags": {"amenity": "hospital", "healthcare": "hospital", "name": "Hôpital de Gournay-en-Bray", "ref:FR:FINESS": "760000034", "type:FR:FINESS": "106", "wikidata": "Q92063357"}}, {"name": "Hôpital Saint-Jacques", "latitude": 49.2462166, "longitude": 1.3954842, "source": "osm", "_tags": {"amenity": "hospital", "building": "hospital", "healthcare": "hospital", "heritage": "2", "heritage:operator": "mhs", "mhs:inscription_date": "1964-09-17", "name": "Hôpital Saint-Jacques", "ref:FR:FINESS": "270000474", "ref:mhs": "PA00099308", "source": "Le ministère des solidarités et de la santé - 03/2019", "source:heritage": "data.gouv.fr:Ministère de la Culture - 04/2015", "type:FR:FINESS": "106", "wikidata": "Q22950217"}}, {"name": "Nouvel Hôpital Saint-Jacques des Andelys", "latitude": 49.253366, "longitude": 1.4141759, "source": "osm", "_tags": {"amenity": "hospital", "name": "Nouvel Hôpital Saint-Jacques des Andelys", "source": "https://actu.fr/normandie/les-andelys_27016/video-eure-le-nouvel-hopital-des-andelys-doit-etre-livre-en-octobre-2022_42048661.html", "start_date": "2022", "website": "https://www.hopital-lesandelys.fr/"}}, {"name": "Hôpital de Oissel", "latitude": 49.350936, "longitude": 1.085029, "source": "osm", "_tags": {"addr:city": "Oissel", "addr:postcode": "76350", "addr:street": "Rue Pierre Curie", "amenity": "hospital", "building": "yes", "healthcare": "hospital", "healthcare:speciality": "geriatrics", "name": "Hôpital de Oissel", "operator": "CHU Rouen Normandie", "phone": "+332 32 88 65 19", "ref:FR:FINESS": "760783530", "source": "Le ministère des solidarités et de la santé - 03/2019", "type": "multipolygon"}}, {"name": "Centre Henri Becquerel", "latitude": 49.4397836, "longitude": 1.1061441, "source": "osm", "_tags": {"addr:city": "Rouen", "addr:postcode": "76000", "amenity": "hospital", "building": "hospital", "building:levels": "5", "healthcare": "hospital", "healthcare:speciality": "intensive", "name": "Centre Henri Becquerel", "ref:FR:FINESS": "760000166", "roof:levels": "0", "type": "multipolygon", "type:FR:FINESS": "131", "wikidata": "Q2944818"}}, {"name": "Clinique Mathilde", "latitude": 49.4287818, "longitude": 1.0967196, "source": "osm", "_tags": {"amenity": "hospital", "emergency": "no", "fax": "+33 2 32 81 10 30", "healthcare": "hospital", "healthcare:speciality": "intensive", "name": "Clinique Mathilde", "phone": "+33 2 32 81 10 10", "ref:FR:FINESS": "760025312", "ref:FR:SIRET": "62050022300040", "type": "multipolygon", "type:FR:FINESS": "365", "website": "https://www.clinique-mathilde.fr/"}}, {"name": "Centre hospitalier du Rouvray", "latitude": 49.3987414, "longitude": 1.0937865, "source": "osm", "_tags": {"addr:city": "Sotteville-lès-Rouen", "addr:housenumber": "4", "addr:postcode": "76300", "addr:street": "Rue Paul Éluard", "amenity": "hospital", "dog": "leashed", "fax": "+33 2 32 95 11 50", "healthcare": "hospital", "healthcare:speciality": "physiatry", "name": "Centre hospitalier du Rouvray", "operator": "Centre hospitalier universitaire de Rouen", "operator:type": "public", "phone": "+33 2 32 95 12 34", "ref:FR:FINESS": "760000190", "short_name": "CH du Rouvray", "source": "cadastre-dgi-fr source : Direction Générale des Impôts - Cadastre;mise à jour : 2008", "type": "multipolygon", "type:FR:FINESS": "292", "website": "https://www.ch-lerouvray.fr"}}, {"name": "Pôle santé", "latitude": 49.6188132, "longitude": 0.7455457, "source": "osm", "_tags": {"addr:city": "Yvetot", "addr:housenumber": "14", "addr:postcode": "76190", "addr:street": "Avenue Foch", "amenity": "hospital", "fax": "+33 2 35 95 87 57", "healthcare": "hospital", "healthcare:speciality": "emergency;radiology;biology;vaccination;dialysis", "name": "Pôle santé", "operator:type": "private", "phone": "+33 2 35 95 95 00", "ref:FR:FINESS": "760780668", "type": "multipolygon", "type:FR:FINESS": "128", "website": "https://www.clinique-hemera.com/"}}, {"name": "Hôpital Asselin-Hédelin", "latitude": 49.6194138, "longitude": 0.7439884, "source": "osm", "_tags": {"addr:city": "Yvetot", "addr:housenumber": "7", "addr:postcode": "76190", "addr:street": "Rue du Champ de Courses", "amenity": "hospital", "email": "contact@hopital-yvetot.com", "emergency": "no", "fax": "+33 2 35 95 32 28", "healthcare": "hospital", "name": "Hôpital Asselin-Hédelin", "operator:type": "public", "phone": "+33 2 35 95 73 00", "ref:FR:FINESS": "760000174", "source": "Le ministère des solidarités et de la santé - 10/2018", "type": "multipolygon", "type:FR:FINESS": "106", "website": "https://hopital-yvetot.com/", "wheelchair": "yes", "wikidata": "Q92063262"}}, {"name": "Clinique psychiatrique", "latitude": 49.6206749, "longitude": 0.7426205, "source": "osm", "_tags": {"addr:city": "Yvetot", "addr:postcode": "76190", "amenity": "hospital", "healthcare": "hospital", "name": "Clinique psychiatrique", "type": "multipolygon"}}, {"name": "Unité de Soin de Longue Durée Les Campeaux", "latitude": 49.5243866, "longitude": 0.9499845, "source": "osm", "_tags": {"amenity": "hospital", "healthcare": "hospital", "name": "Unité de Soin de Longue Durée Les Campeaux", "operator": "Centre Hospitalier de l'Austreberthe", "type": "multipolygon"}}, {"name": "Centre hospitalier du Bois-Petit", "latitude": 49.4123314, "longitude": 1.0842387, "source": "osm", "_tags": {"amenity": "hospital", "healthcare": "hospital", "name": "Centre hospitalier du Bois-Petit", "ref:FR:FINESS": "760000802", "source": "cadastre-dgi-fr source : Direction Générale des Impôts - Cadastre. Mise à jour : 2013", "type": "multipolygon"}}, {"name": "Hôpital Charles Nicolle", "latitude": 49.4400647, "longitude": 1.1090285, "source": "osm", "_tags": {"addr:full": "1 rue de Germont 76000 Rouen", "addr:housenumber": "1", "addr:street": "Rue de Germont", "amenity": "hospital", "contact:facebook": "CHU de Rouen", "emergency": "yes", "fax": "+33 2 35 08 81 83", "healthcare": "hospital", "healthcare:speciality": "intensive", "name": "Hôpital Charles Nicolle", "operator": "Centre hospitalier universitaire de Rouen", "operator:type": "public", "phone": "+33 2 32 88 89 90", "ref:FR:FINESS": "760000158", "source": "cadastre-dgi-fr source : Direction Générale des Impôts - Cadastre;mise à jour : 2008", "twitter": "CHURouen", "type": "multipolygon", "type:FR:FINESS": "101", "website": "https://www.chu-rouen.fr/", "wheelchair": "yes", "wikidata": "Q50379036"}}, {"name": "Clinique Saint-Hilaire", "latitude": 49.4413823, "longitude": 1.1140475, "source": "osm", "_tags": {"addr:housenumber": "2", "addr:street": "Place Saint-Hilaire", "amenity": "hospital", "check_date": "2025-05-14", "fax": "+33235700574", "healthcare": "yes", "healthcare:speciality": "intensive", "internet_access": "no", "name": "Clinique Saint-Hilaire", "opening_hours": "24/7", "payment:cash": "yes", "payment:credit_cards": "yes", "payment:debit_cards": "yes", "phone": "+33 2 35 08 66 00", "ref:FR:FINESS": "760780619", "ref:FR:SIRET": "32393354900012", "source": "Le ministère des solidarités et de la santé - 03/2019", "type": "multipolygon", "type:FR:FINESS": "365", "website": "https://www.clinique-sainthilaire.fr/", "wheelchair": "yes"}}, {"name": "Centre hospitalier d'Elbeuf", "latitude": 49.3055824, "longitude": 1.0424537, "source": "osm", "_tags": {"addr:city": "Saint-Aubin-lès-Elbeuf", "addr:postcode": "76410", "addr:street": "Rue du Docteur Villiers", "alt_name": "Centre hospitalier Les Feugrais", "amenity": "hospital", "emergency": "yes", "fax": "+33 2 32 96 36 27", "healthcare": "hospital", "healthcare:speciality": "intensive", "name": "Centre hospitalier d'Elbeuf", "operator": "Centre hospitalier intercommunal Elbeuf-Louviers-Val de Reuil", "operator:type": "public", "phone": "+33 2 32 96 35 35", "ref:FR:FINESS": "760000463", "type": "multipolygon", "type:FR:FINESS": "355", "website": "https://www.chi-elbeuf-louviers.fr/"}}, {"name": "Hôpital de la Croix-Rouge", "latitude": 49.4768557, "longitude": 1.1111871, "source": "osm", "_tags": {"addr:housenumber": "459", "amenity": "hospital", "contact:website": "https://www.croix-rouge.fr/hopital-de-bois-guillaume", "fax": "+33235594096", "healthcare": "hospital", "name": "Hôpital de la Croix-Rouge", "opening_hours": "Mo-Fr 08:30-17:30", "operator": "Croix-Rouge Française", "operator:type": "ngo", "phone": "+33235594040", "ref:FR:FINESS": "760783035", "ref:FR:SIRET": "77567227207954", "source": "Le ministère des solidarités et de la santé - 03/2019", "type": "multipolygon", "type:FR:FINESS": "365"}}]