[{"name": "Krankenhaus Tirschenreuth", "latitude": 49.8852041, "longitude": 12.3320245, "source": "osm", "_tags": {"addr:city": "Tirschenreuth", "addr:country": "DE", "addr:housenumber": "31", "addr:postcode": "95643", "addr:street": "St.-Peter-Straße", "amenity": "hospital", "emergency": "yes", "healthcare": "hospital", "name": "Krankenhaus Tirschenreuth", "operator": "Kliniken Nordoberpfalz AG", "phone": "+49 9631 870", "website": "https://www.kliniken-nordoberpfalz.de/tirschenreuth/", "wheelchair": "yes", "wikidata": "Q14956893", "wikipedia": "de:Krankenhaus Tirschenreuth"}}, {"name": "Poliklinik Bergstadt Schneeberg", "latitude": 50.6039218, "longitude": 12.6432752, "source": "osm", "_tags": {"addr:city": "Schneeberg", "addr:country": "DE", "addr:housenumber": "3", "addr:postcode": "08289", "addr:street": "Goethestraße", "amenity": "hospital", "contact:phone": "+49 3772 63339", "contact:website": "https://poliklinik.de/behandlungszentren/mvz-schneeberg.html", "emergency": "no", "healthcare": "hospital", "healthcare:speciality": "surgery;proctology;ophthalmology;Abdominal_surgery;Trauma_surgery;Orthopedic_surgery;Family_medicine;neurosurgery", "name": "Poliklinik Bergstadt Schneeberg", "operator": "Poliklinik GmbH Chemnitz", "operator:type": "private", "phone": "+49 3772 63339", "website": "https://poliklinik.de/behandlungszentren/mvz-schneeberg.html", "wheelchair": "yes"}}, {"name": "Klinikum Fichtelgebirge (Haus Marktredwitz)", "latitude": 50.0018257, "longitude": 12.0662375, "source": "osm", "_tags": {"addr:city": "Marktredwitz", "addr:country": "DE", "addr:housenumber": "1-8", "addr:postcode": "95615", "addr:street": "Schillerhain", "amenity": "hospital", "emergency": "yes", "fax": "+49 9231 8091409", "healthcare": "hospital", "name": "Klinikum Fichtelgebirge (Haus Marktredwitz)", "operator": "Klinikum Fichtelgebirge gGmbH", "phone": "+49 9231 8090", "website": "https://klinikum-fichtelgebirge.de/", "wheelchair": "yes"}}, {"name": "Steinwaldklinik Erbendorf", "latitude": 49.8370246, "longitude": 12.0438951, "source": "osm", "_tags": {"addr:city": "Erbendorf", "addr:housenumber": "5", "addr:postcode": "92681", "addr:street": "Krankenhaustraße", "amenity": "hospital", "emergency": "no", "name": "Steinwaldklinik Erbendorf", "note": "Fachklinik für Geriatrische Rehabilitation", "operator": "Kliniken Nordoberpfalz AG", "phone": "+49 9682 930-0", "toilets:wheelchair": "yes", "website": "https://www.kliniken-nordoberpfalz.de/erbendorf/", "wheelchair": "yes"}}, {"name": "Klinikum Fichtelgebirge (Haus Selb)", "latitude": 50.1689972, "longitude": 12.1182996, "source": "osm", "_tags": {"addr:city": "Selb", "addr:country": "DE", "addr:housenumber": "62", "addr:postcode": "95100", "addr:street": "Weißenbacher Straße", "amenity": "hospital", "healthcare": "hospital", "name": "Klinikum Fichtelgebirge (Haus Selb)", "phone": "+49 9287 9710", "toilets:wheelchair": "yes", "website": "https://klinikum-fichtelgebirge.de/", "wheelchair": "yes"}}, {"name": "Kreiskrankenhaus Greiz", "latitude": 50.6628684, "longitude": 12.1990258, "source": "osm", "_tags": {"addr:city": "Greiz", "addr:housenumber": "12", "addr:postcode": "07973", "addr:street": "Wichmannstraße", "amenity": "hospital", "contact:phone": "+49 3661 460", "contact:website": "https://www.hospital-greiz.de/", "emergency": "yes", "healthcare": "hospital", "healthcare:speciality": "cardiology;internal;orthopaedics;surgery;gynaecology;paediatrics;intensive;emergency", "name": "Kreiskrankenhaus Greiz", "operator": "Kreiskrankenhaus Greiz GmbH", "short_name": "KH Greiz", "wheelchair": "yes", "wikidata": "Q23786477"}}, {"name": "Krankenhaus Kemnath", "latitude": 49.8679483, "longitude": 11.8912453, "source": "osm", "_tags": {"addr:city": "Kemnath", "addr:country": "DE", "addr:housenumber": "7", "addr:postcode": "95478", "addr:street": "Werner-von-Siemens-Straße", "amenity": "hospital", "building": "yes", "healthcare": "hospital", "name": "Krankenhaus Kemnath", "note": "http://www.krankenhaus-kemnath.de/KKH_Tirschenreuth/Default.htm", "wheelchair": "yes"}}, {"name": "Heinrich-Braun-Klinikum, Standort Werdauer Straße", "latitude": 50.7223559, "longitude": 12.4715842, "source": "osm", "_tags": {"addr:city": "Zwickau", "addr:country": "DE", "addr:housenumber": "68", "addr:postcode": "08060", "addr:street": "Werdauer Straße", "addr:suburb": "Marienthal", "amenity": "hospital", "contact:fax": "+49 375 5901006", "contact:phone": "+49 375 5900", "contact:website": "https://www.paracelsus-kliniken.de/zwickau.html", "emergency": "yes", "healthcare": "hospital", "healthcare:speciality": "anaesthetics;intensive;emergency;internal;neurosurgery;neurology;orthopaedics;trauma", "name": "Heinrich-Braun-Klinikum, Standort Werdauer Straße", "operator": "Heinrich-Braun-Klinikum", "wheelchair": "yes"}}, {"name": "Helios Klinikum Aue", "latitude": 50.5923528, "longitude": 12.7165337, "source": "osm", "_tags": {"addr:city": "Aue-Bad Schlema", "addr:country": "DE", "addr:housenumber": "6", "addr:postcode": "08280", "addr:street": "Gartenstraße", "addr:suburb": "Aue", "amenity": "hospital", "barrier": "fence", "check_date": "2025-01-02", "contact:fax": "+49 377158 1280", "contact:phone": "+49 377158 0", "contact:website": "https://www.helios-gesundheit.de/kliniken/aue/", "emergency": "yes", "healthcare": "hospital", "name": "Helios Klinikum Aue", "old_name:1940": "Städtisches Krankenhaus", "operator": "Helios Kliniken", "operator:wikidata": "Q1254151", "operator:wikipedia": "de:Helios Kliniken", "toilets:wheelchair": "yes", "wheelchair": "yes"}}, {"name": "Heinrich-Braun-Klinikum Standort Kirchberg", "latitude": 50.6261416, "longitude": 12.5616212, "source": "osm", "_tags": {"addr:city": "Kirchberg", "addr:housenumber": "36", "addr:postcode": "08107", "addr:street": "Schneeberger Straße", "amenity": "hospital", "building": "yes", "emergency": "yes", "healthcare": "hospital", "name": "Heinrich-Braun-Klinikum Standort Kirchberg", "operator": "Heinrich-Braun-Klinikum gemeinnützige GmbH", "website": "https://www.heinrich-braun-klinikum.de/kirchberg.php", "wheelchair": "yes"}}, {"name": "Klinik für Hautkrankheiten und Allergologie in Plauen", "latitude": 50.4890328, "longitude": 12.1662348, "source": "osm", "_tags": {"amenity": "hospital", "building": "yes", "name": "Klinik für Hautkrankheiten und Allergologie in Plauen", "operator": "Helios Klinikum Plauen"}}, {"name": "Heinrich-Braun-Krankenhaus", "latitude": 50.7224363, "longitude": 12.4312838, "source": "osm", "_tags": {"addr:city": "Zwickau", "addr:country": "DE", "addr:housenumber": "35", "addr:postcode": "08060", "addr:street": "Karl-Keil-Straße", "amenity": "hospital", "contact:phone": "+49 375 510", "contact:website": "http://www.heinrich-braun-klinikum.de/einrichtungen.php", "emergency": "yes", "fixme": "offizielle Bezeichnung ist \"Heinrich-Braun-Klinikum\", nicht -Krankenhaus", "healthcare": "hospital", "name": "Heinrich-Braun-Krankenhaus", "official_name": "Heinrich-Braun-Klinikum", "operator": "Heinrich-Braun-Klinikum gemeinnützige GmbH", "url": "https://www.heinrich-braun-klinikum.de/", "wheelchair": "yes", "wikidata": "Q1596354"}}, {"name": "Klinik Schöneck", "latitude": 50.3971983, "longitude": 12.3359648, "source": "osm", "_tags": {"amenity": "hospital", "check_date": "2024-07-05", "contact:fax": "+49 37464 851712", "contact:phone": "+49 37464 850", "contact:website": "https://www.paracelsus-kliniken.de/schoeneck.html", "emergency": "yes", "healthcare": "hospital", "name": "Klinik Schöneck", "operator": "Paracelsus-Kliniken Deutschland GmbH & Co. KGaA", "wheelchair": "yes"}}, {"name": "Helios Vogtland-Klinikum Plauen", "latitude": 50.4911428, "longitude": 12.1541831, "source": "osm", "_tags": {"addr:city": "Plauen", "addr:country": "DE", "addr:housenumber": "2", "addr:postcode": "08529", "addr:street": "Röntgenstraße", "amenity": "hospital", "contact:fax": "+49 3741 494499", "contact:phone": "+49 3741 490", "contact:website": "https://www.helios-gesundheit.de/kliniken/plauen-vogtland-klinikum/", "emergency": "yes", "healthcare": "hospital", "name": "Helios Vogtland-Klinikum Plauen", "not:operator:wikidata": "Q1254151", "operator": "Helios Kliniken", "toilets:wheelchair": "yes", "wheelchair": "yes"}}, {"name": "Rudolf Virchow Klinikum Glauchau", "latitude": 50.8100336, "longitude": 12.5519603, "source": "osm", "_tags": {"amenity": "hospital", "contact:fax": "+49 3763 432510", "contact:phone": "+49 3763 430", "contact:website": "http://www.klinikum-glauchau.de/", "emergency": "yes", "healthcare": "hospital", "name": "Rudolf Virchow Klinikum Glauchau", "operator": "Rudolf Virchow Klinikum Glauchau gGmbH", "wheelchair": "yes", "wikidata": "Q23308153"}}, {"name": "Nemocnice následné péče Svatá Anna", "latitude": 49.8797245, "longitude": 12.7219381, "source": "osm", "_tags": {"amenity": "hospital", "building": "hospital", "building:levels": "1", "building:ruian:type": "15", "contact:databox": "dzmpvbw", "email": "info@nnp.cz", "healthcare": "hospital", "name": "Nemocnice následné péče Svatá Anna", "phone": "+420 374 751 911", "ref:ruian:building": "15544826", "source": "cuzk:ruian", "website": "http://www.nnp.cz/"}}, {"name": "Klinikum Obergöltzsch", "latitude": 50.5231127, "longitude": 12.4108387, "source": "osm", "_tags": {"addr:city": "Rodewisch", "addr:country": "DE", "addr:housenumber": "10", "addr:postcode": "08228", "addr:street": "Stiftstraße", "amenity": "hospital", "check_date": "2024-05-15", "contact:fax": "+49 3744 3611110", "contact:phone": "+49 3744 3610", "contact:website": "http://www.klinikum-obergoeltzsch.de/", "emergency": "yes", "healthcare": "hospital", "name": "Klinikum Obergöltzsch", "operator": "Landkreis Vogtlandkreis", "toilets:wheelchair": "yes", "wheelchair": "yes"}}, {"name": "Nemocnice Mariánské Lázně", "latitude": 49.9609082, "longitude": 12.7040259, "source": "osm", "_tags": {"amenity": "hospital", "building": "civic", "building:levels": "1", "building:ruian:type": "5", "healthcare": "hospital", "name": "Nemocnice Mariánské Lázně", "ref:ruian:building": "24806935", "source": "cuzk:ruian"}}, {"name": "Krankenhaus Bethanien Plauen", "latitude": 50.5017845, "longitude": 12.1228127, "source": "osm", "_tags": {"addr:city": "Plauen", "addr:country": "DE", "addr:housenumber": "130", "addr:postcode": "08523", "addr:street": "Dobenaustraße", "amenity": "hospital", "fax": "+49 3741 172110", "healthcare": "hospital", "name": "Krankenhaus Bethanien Plauen", "operator": "Bethanien Krankenhaus Chemnitz gemeinnützige GmbH", "phone": "+49 3741 1720", "website": "https://www.bethanien-plauen.de/", "wheelchair": "yes"}}, {"name": "Sana Klinikum Hof", "latitude": 50.3025406, "longitude": 11.914768, "source": "osm", "_tags": {"addr:city": "Hof", "addr:country": "DE", "addr:housenumber": "9", "addr:postcode": "95032", "addr:street": "Eppenreuther Straße", "amenity": "hospital", "check_date": "2025-07-07", "contact:phone": "+49 9281 980", "contact:website": "https://www.sana-klinikum-hof.de/", "emergency": "yes", "healthcare": "hospital", "name": "Sana Klinikum Hof", "operator": "Sana Klinikum Hof GmbH", "toilets:wheelchair": "yes", "wheelchair": "yes", "wikidata": "Q63762104", "wikipedia": "de:Sana Klinikum Hof"}}, {"name": "Sternbach-Klinik Schleiz", "latitude": 50.5765925, "longitude": 11.8175753, "source": "osm", "_tags": {"addr:city": "Schleiz", "addr:housenumber": "7-9", "addr:postcode": "07907", "addr:street": "Berthold-Schmidt-Straße", "amenity": "hospital", "contact:phone": "+49 3663 4670", "contact:website": "https://www.hospital-schleiz.de/", "emergency": "yes", "healthcare": "hospital", "name": "Sternbach-Klinik Schleiz", "operator": "Sternbach-Klinik Schleiz GmbH", "operator:type": "private", "short_name": "KH Schleiz", "wikidata": "Q23936329"}}, {"name": "Pleißental-Klinik", "latitude": 50.7423129, "longitude": 12.3667428, "source": "osm", "_tags": {"addr:city": "Werdau", "addr:country": "DE", "addr:housenumber": "106", "addr:postcode": "08412", "addr:street": "Ronneburger Straße", "amenity": "hospital", "contact:fax": "+49 3761 444444", "contact:phone": "+49 3761 4440", "contact:website": "http://www.pleissentalklinik.de/", "emergency": "yes", "healthcare": "hospital", "name": "Pleißental-Klinik", "operator": "Pleißental-Klinik GmbH", "toilets:wheelchair": "yes", "wheelchair": "yes"}}, {"name": "Tagesklinik für Kinder- und Jugendpsychiatrie und -psychotherapie", "latitude": 50.4933097, "longitude": 12.1002174, "source": "osm", "_tags": {"addr:city": "Plauen", "addr:country": "DE", "addr:housenumber": "21", "addr:postcode": "08523", "addr:street": "Europaratstraße", "addr:suburb": "Siedlung Neundorf", "amenity": "hospital", "check_date": "2025-04-05", "healthcare": "hospital", "name": "Tagesklinik für Kinder- und Jugendpsychiatrie und -psychotherapie", "operator": "Sächsisches Krankenhaus für Psychiatrie und Neurologie Rodewisch", "website": "https://www.skh-rodewisch.sachsen.de"}}, {"name": "", "latitude": 50.6478303, "longitude": 12.5595275, "source": "osm", "_tags": {"amenity": "hospital", "healthcare": "hospital"}}, {"name": "Heinrich-Braun-Klinikum, Standort Kirchberg", "latitude": 50.6261935, "longitude": 12.5618083, "source": "osm", "_tags": {"amenity": "hospital", "healthcare": "hospital", "name": "Heinrich-Braun-Klinikum, Standort Kirchberg", "wheelchair": "yes"}}, {"name": "Klinik Adorf", "latitude": 50.3292314, "longitude": 12.2900372, "source": "osm", "_tags": {"addr:city": "Adorf/Vogtland", "addr:country": "DE", "addr:housenumber": "51", "addr:postcode": "08626", "addr:street": "Sorger Straße", "amenity": "hospital", "contact:fax": "+49 37423 792712", "contact:phone": "+49 37423 790", "contact:website": "https://www.paracelsus-kliniken.de/adorf.html", "emergency": "yes", "healthcare": "hospital", "name": "Klinik Adorf", "operator": "Paracelsus-Kliniken Deutschland GmbH & Co. KGaA"}}, {"name": "Nemocnice Sokolov", "latitude": 50.1776985, "longitude": 12.6514559, "source": "osm", "_tags": {"addr:city": "Sokolov", "addr:postcode": "35601", "addr:street": "Bratislavská", "amenity": "hospital", "contact:website": "https://www.pentahospitals.cz/nemocnice-sokolov/", "healthcare": "hospital", "name": "Nemocnice Sokolov", "operator": "Penta Hospitals", "operator:type": "public", "operator:wikidata": "Q106671960"}}, {"name": "Kliniken Erlabrunn", "latitude": 50.4742706, "longitude": 12.7091214, "source": "osm", "_tags": {"addr:city": "Breitenbrunn/Erzgeb.", "addr:country": "DE", "addr:housenumber": "1a", "addr:postcode": "08359", "addr:street": "Am Märzenberg", "addr:suburb": "Erlabrunn", "amenity": "hospital", "contact:fax": "+49 3773 6-1302", "contact:phone": "+49 3773 6-0", "contact:website": "https://www.erlabrunn.de", "emergency": "yes", "healthcare": "hospital", "healthcare:speciality": "general;orthopaedics;psychiatry;maternity", "name": "Kliniken Erlabrunn", "old_name": "Krankenhaus Erlabrunn", "operator": "Kliniken Erlabrunn gGmbH", "operator:type": "private", "start_date": "1950", "wikidata": "Q49231790"}}, {"name": "DRK Krankenhaus Lichtenstein", "latitude": 50.7485377, "longitude": 12.6350122, "source": "osm", "_tags": {"amenity": "hospital", "brand": "Deutsches Rotes Kreuz", "brand:wikidata": "Q694104", "email": "info.li@drk-khs.de", "fax": "+49 37204 32 1003", "healthcare": "hospital", "image": "http://li.drk-khs.de/fileadmin/user_upload/Bilder/HeaderBilder/Lichtenstein1.jpg", "name": "DRK Krankenhaus Lichtenstein", "operator": "DRK Sachsen Gemeinnützige GmbH", "phone": "+49 37204 32 0", "website": "https://li.drk-khs.de/", "wikipedia": "de:Lichtenstein/Sa.#Gesundheitswesen"}}, {"name": "Rudolf Virchow Klinikum Glauchau", "latitude": 50.8100336, "longitude": 12.5519603, "source": "osm", "_tags": {"amenity": "hospital", "healthcare": "hospital", "name": "Rudolf Virchow Klinikum Glauchau", "type": "site"}}, {"name": "Nemocnice Cheb", "latitude": 50.0696803, "longitude": 12.3659941, "source": "osm", "_tags": {"amenity": "hospital", "healthcare": "hospital", "name": "Nemocnice Cheb", "type": "multipolygon", "website": "https://nemcheb.cz/"}}]