[{"name": "Krankenhaus für Psychiatrie, Psychotherapie und Psychosomatische Medizin Schloss Werneck", "latitude": 49.9786763, "longitude": 10.0990793, "source": "osm", "_tags": {"addr:city": "Werneck", "addr:country": "DE", "addr:housenumber": "1", "addr:postcode": "97440", "addr:street": "Balthasar-Neumann-Platz", "amenity": "hospital", "email": "info@kh-schloss-werneck.de", "emergency": "yes", "healthcare": "hospital", "healthcare:speciality": "psychosomatic_medicine;psychiatry", "name": "Krankenhaus für Psychiatrie, Psychotherapie und Psychosomatische Medizin Schloss Werneck", "phone": "+49 9722 210", "website": "https://www.psychiatrie-werneck.de", "wheelchair": "yes"}}, {"name": "Orthopädisches Krankenhaus Schloss Werneck", "latitude": 49.9803341, "longitude": 10.1003533, "source": "osm", "_tags": {"addr:city": "Werneck", "addr:country": "DE", "addr:housenumber": "1", "addr:postcode": "97440", "addr:street": "Balthasar-Neumann-Platz", "amenity": "hospital", "email": "info@kh-schloss-werneck.de", "emergency": "yes", "healthcare": "hospital", "healthcare:speciality": "orthopaedics", "name": "Orthopädisches Krankenhaus Schloss Werneck", "phone": "+49 9722 210", "website": "https://www.orthopädie-werneck.de/", "wheelchair": "yes"}}, {"name": "Klinikum Bad Salzungen", "latitude": 50.8033203, "longitude": 10.2186291, "source": "osm", "_tags": {"addr:city": "Bad Salzungen", "addr:housenumber": "3", "addr:postcode": "36433", "addr:street": "Lindigallee", "amenity": "hospital", "emergency": "yes", "healthcare": "hospital", "healthcare:speciality": "internal;surgery;intensive;gynaecology;paediatrics;psychiatry;emergency;biology;radiology", "name": "Klinikum Bad Salzungen", "short_name": "KH Bad Salzungen", "wikidata": "Q19965401"}}, {"name": "m&i-Fachklinik Bad Liebenstein", "latitude": 50.8139394, "longitude": 10.3539811, "source": "osm", "_tags": {"addr:city": "Bad Liebenstein", "addr:housenumber": "2", "addr:postcode": "36448", "addr:street": "Kurpromenade", "amenity": "hospital", "building": "yes", "building:levels": "4", "healthcare": "rehabilitation", "image": "https://commons.wikimedia.org/wiki/File:WAK_BALI_207.JPG", "name": "m&i-Fachklinik Bad Liebenstein", "phone": "+49 36961 660", "toilets:wheelchair": "yes", "website": "https://www.fachklinik-bad-liebenstein.de/", "wheelchair": "yes", "wikidata": "Q56721930"}}, {"name": "Kurparkklinik Dr. Lauterbach", "latitude": 50.8142701, "longitude": 10.3520709, "source": "osm", "_tags": {"addr:city": "Bad Liebenstein", "addr:housenumber": "5", "addr:postcode": "36448", "addr:street": "Heinrich-Mann-Straße", "amenity": "hospital", "building": "yes", "building:levels": "4", "healthcare": "rehabilitation", "layer": "1", "name": "Kurparkklinik Dr. Lauterbach", "phone": "+49 36961 790", "website": "https://www.dr-lauterbach-klinik.de/", "wheelchair": "yes"}}, {"name": "Palliativstation St. Joseph-Krankenhaus", "latitude": 50.0471713, "longitude": 10.2267527, "source": "osm", "_tags": {"addr:city": "Schweinfurt", "addr:country": "DE", "addr:housenumber": "9-11", "addr:postcode": "97421", "addr:street": "Neutorstraße", "amenity": "hospital", "building": "yes", "check_date": "2024-09-01", "healthcare": "hospital", "name": "Palliativstation St. Joseph-Krankenhaus", "website": "https://www.josef.de/palliativmedizin_Palliativmedizin_41_kkmenue.html"}}, {"name": "Helios Klinikum Meiningen", "latitude": 50.5576351, "longitude": 10.3970282, "source": "osm", "_tags": {"addr:city": "Meiningen", "addr:housenumber": "3", "addr:postcode": "98617", "addr:street": "Bergstraße", "amenity": "hospital", "contact:fax": "+49 3693 901234", "contact:phone": "+49 3693 900", "contact:website": "https://www.helios-gesundheit.de/standorte-angebote/kliniken/meiningen/", "emergency": "yes", "healthcare": "hospital", "healthcare:speciality": "ophthalmology;intensive;orthopaedics;gynaecology;emergency;surgery;internal;paediatrics;cardiology;oncology;radiology", "layer": "-1", "name": "Helios Klinikum Meiningen", "operator": "Helios Kliniken", "operator:wikidata": "Q1254151", "operator:wikipedia": "de:Helios Klinikum Meiningen", "short_name": "KH Meiningen", "wheelchair": "yes"}}, {"name": "", "latitude": 50.6631537, "longitude": 9.767112, "source": "osm", "_tags": {"addr:city": "Hünfeld", "addr:country": "DE", "addr:housenumber": "22", "addr:postcode": "36088", "addr:street": "Schillerstraße", "building": "hospital", "building:levels": "5", "healthcare": "hospital", "wheelchair": "yes"}}, {"name": "Steigerwaldklinik Burgebrach", "latitude": 49.8189069, "longitude": 10.731628, "source": "osm", "_tags": {"amenity": "hospital", "healthcare": "hospital", "name": "Steigerwaldklinik Burgebrach"}}, {"name": "MEDIAN Heinrich-Mann-Klinik", "latitude": 50.8103823, "longitude": 10.352396, "source": "osm", "_tags": {"addr:city": "Bad Liebenstein", "addr:housenumber": "34", "addr:postcode": "36448", "addr:street": "Heinrich-Mann-Straße", "amenity": "hospital", "building": "yes", "healthcare": "rehabilitation", "healthcare:speciality": "orthopaedics", "name": "MEDIAN Heinrich-Mann-Klinik"}}, {"name": "Adaptionseinrichtung 'Maria Stern'", "latitude": 50.31848, "longitude": 10.2261317, "source": "osm", "_tags": {"addr:city": "Bad Neustadt an der Saale", "addr:country": "DE", "addr:housenumber": "32", "addr:postcode": "97616", "addr:street": "Kurhausstraße", "addr:suburb": "Mühlbach", "amenity": "hospital", "building": "yes", "healthcare": "hospital", "name": "Adaptionseinrichtung 'Maria Stern'", "operator": "Haus Saaletal GmbH"}}, {"name": "Zentralklinikum Suhl", "latitude": 50.6025147, "longitude": 10.7104915, "source": "osm", "_tags": {"addr:city": "Suhl", "addr:country": "DE", "addr:housenumber": "2", "addr:postcode": "98527", "addr:street": "Albert-Schweitzer-Straße", "alt_name": "SRH Zentralklinikum Suhl", "amenity": "hospital", "healthcare": "hospital", "name": "Zentralklinikum Suhl", "operator": "SRH Zentralklinikum Suhl GmbH", "short_name": "KH Suhl", "wheelchair": "yes", "wikidata": "Q2207716", "wikipedia": "de:SRH Zentralklinikum Suhl"}}, {"name": "Malteser Klinik von Weckbecker", "latitude": 50.3111497, "longitude": 9.785686, "source": "osm", "_tags": {"addr:city": "Bad Brückenau", "addr:country": "DE", "addr:housenumber": "20", "addr:postcode": "97769", "addr:street": "Rupprechtstraße", "alt_name": "Klinik von Weckbecker Fachklinik für Naturheilverfahren", "amenity": "hospital", "building": "yes", "healthcare": "clinic", "healthcare:speciality": "rehabilitation;naturopathy", "name": "Malteser Klinik von Weckbecker", "website": "https://www.weckbecker.com/"}}, {"name": "MEDIAN Klinik Römhild", "latitude": 50.3898208, "longitude": 10.5662547, "source": "osm", "_tags": {"addr:city": "Römhild", "addr:housenumber": "2", "addr:postcode": "98630", "addr:street": "Am Großen Gleichberg", "amenity": "hospital", "email": "roemhild-kontakt@median-kliniken.de", "healthcare": "hospital", "name": "MEDIAN Klinik Römhild", "operator": "MEDIAN Unternehmensgruppe B.V. & Co. KG", "phone": "+49 36948 87-0", "website": "https://www.median-kliniken.de/de/median-klinik-roemhild/"}}, {"name": "Kreiskrankenhaus GeoMed Klinik Gerolzhofen", "latitude": 49.9006262, "longitude": 10.3559732, "source": "osm", "_tags": {"addr:city": "Gerolzhofen", "addr:country": "DE", "addr:housenumber": "5", "addr:postcode": "97447", "addr:street": "Dingolshäuser Straße", "amenity": "hospital", "emergency": "yes", "healthcare": "hospital", "name": "Kreiskrankenhaus GeoMed Klinik Gerolzhofen", "phone": "+49 9382 6010", "website": "https://www.geomed-klinik.de/#", "wheelchair": "yes"}}, {"name": "Charlottenhall", "latitude": 50.8132206, "longitude": 10.2306799, "source": "osm", "_tags": {"addr:city": "Bad Salzungen", "addr:country": "DE", "addr:housenumber": "7", "addr:postcode": "36433", "addr:street": "Mathilde-Wurm-Straße", "amenity": "hospital", "building": "yes", "description": "CHARLOTTENHALL Rehabilitations- und Vorsorgeklinik gGmbH", "healthcare": "hospital", "name": "Charlottenhall", "phone": "+49 3695 6923-0", "toilets:wheelchair": "yes", "website": "https://charlottenhall.com", "wheelchair": "yes"}}, {"name": "Caritas-Heim Maria am See", "latitude": 50.806927, "longitude": 10.2377579, "source": "osm", "_tags": {"addr:city": "Bad Salzungen", "addr:country": "DE", "addr:housenumber": "14", "addr:postcode": "36433", "addr:street": "Am Stadion", "amenity": "hospital", "building": "yes", "healthcare": "hospital", "name": "Caritas-Heim Maria am See"}}, {"name": "Sankt Elisabeth Krankenhaus", "latitude": 50.1895927, "longitude": 10.0829181, "source": "osm", "_tags": {"addr:country": "DE", "addr:postcode": "97688", "alt_name": "Helios St. Elisabeth-Krankenhaus Bad Kissingen", "amenity": "hospital", "contact:housenumber": "150", "contact:street": "Kissinger Straße", "healthcare": "hospital", "name": "Sankt Elisabeth Krankenhaus", "operator": "Helios Kliniken", "operator:type": "private", "operator:wikidata": "Q1254151", "phone": "+49 971 805-0", "url": "http://www.helios-kliniken.de/klinik/bad-kissingen.html", "wheelchair": "yes"}}, {"name": "Haßberg-Kliniken Haus Hassfurt", "latitude": 50.0404247, "longitude": 10.5146057, "source": "osm", "_tags": {"addr:city": "Haßfurt", "addr:country": "DE", "addr:housenumber": "69", "addr:postcode": "97437", "addr:street": "Hofheimer Straße", "alt_name": "Krankenhaus; Haßberg-Kliniken Haßfurt", "amenity": "hospital", "healthcare": "hospital", "name": "Haßberg-Kliniken Haus Hassfurt", "phone": "+49 9521 28-511", "website": "https://www.hassberg-kliniken.de/", "wheelchair": "yes"}}, {"name": "Saaletalklinik", "latitude": 50.3239906, "longitude": 10.2300689, "source": "osm", "_tags": {"addr:city": "Bad Neustadt an der Saale", "addr:country": "DE", "addr:housenumber": "7", "addr:postcode": "97616", "addr:street": "Salzburgweg", "amenity": "hospital", "description": "Gebäude 9 des Campus Bad Neustadt (Campus Süd)", "email": "stk@saaletalklinik.de", "fax": "+49 9771 905 49001", "healthcare": "hospital", "name": "Saaletalklinik", "operator": "Haus Saaletal GmbH", "phone": "+49 9771 905 0", "website": "https://saaletal.campus-nes.de/haus-saaletal-gmbh.html"}}, {"name": "Fachklinik Heiligenfeld", "latitude": 50.1874907, "longitude": 10.0703698, "source": "osm", "_tags": {"addr:city": "Bad Kissingen", "addr:country": "DE", "addr:housenumber": "4-6", "addr:postcode": "97688", "addr:street": "Euerdorfer Straße", "amenity": "hospital", "email": "info@heiligenfeld.de", "healthcare": "hospital", "name": "Fachklinik Heiligenfeld", "phone": "+49 971 840", "website": "https://www.heiligenfeld.de/kliniken/bad-kissingen/fachklinik-heiligenfeld/"}}, {"name": "Thoraxzentrum Bezirk Unterfranken", "latitude": 50.2510645, "longitude": 10.1791546, "source": "osm", "_tags": {"addr:city": "Münnerstadt", "addr:country": "DE", "addr:housenumber": "1", "addr:postcode": "97702", "addr:street": "Michelsberg", "amenity": "hospital", "email": "info@tzbu.de", "healthcare": "hospital", "healthcare:speciality": "thoracic_surgery;pulmonology", "name": "Thoraxzentrum Bezirk Unterfranken", "phone": "+49 9733 620", "website": "https://www.tzbu.de/wir_ueber_uns/index.html", "wheelchair": "yes"}}, {"name": "Klinik am Steigerwald", "latitude": 49.889173, "longitude": 10.408378, "source": "osm", "_tags": {"addr:city": "Gerolzhofen", "addr:postcode": "97447", "addr:street": "Waldesruh", "amenity": "hospital", "description": "Traditionelle Chinesische Medizin", "emergency": "no", "healthcare": "hospital", "healthcare:speciality": "traditional_chinese_medicine", "name": "Klinik am Steigerwald", "website": "https://www.tcmklinik.de/"}}, {"name": "Elisabeth Klinikum Schmalkalden", "latitude": 50.7219866, "longitude": 10.4405294, "source": "osm", "_tags": {"addr:city": "Schmalkalden", "addr:country": "DE", "addr:housenumber": "9", "addr:postcode": "98574", "addr:street": "Eichelbach", "amenity": "hospital", "contact:email": "info@elisabeth-klinikum.de", "contact:fax": "+49 3683 645 108", "contact:phone": "+49 3683 645 0", "contact:website": "https://www.elisabeth-klinikum.de/", "emergency": "yes", "healthcare": "hospital", "name": "Elisabeth Klinikum Schmalkalden", "operator": "Kreiswerke Schmalkalden-Meiningen GmbH", "short_name": "KH Schmalkalden", "start_date": "1945", "toilets:wheelchair": "yes", "wheelchair": "yes", "wikidata": "Q18574995", "wikipedia": "de:Elisabeth Klinikum Schmalkalden"}}, {"name": "Frankenpark Klinik Bad Kissingen", "latitude": 50.1913549, "longitude": 10.0705005, "source": "osm", "_tags": {"addr:housenumber": "68", "addr:street": "Bismarckstraße", "amenity": "hospital", "building": "hospital", "building:levels": "4", "building:use": "medical", "check_date": "2024-03-23", "healthcare": "hospital", "name": "Frankenpark Klinik Bad Kissingen", "operator": "Median Kliniken", "operator:type": "private", "operator:wikidata": "Q1916200", "operator:wikipedia": "de:Median Kliniken", "roof:levels": "1", "wheelchair": "yes"}}, {"name": "Hescuro Klinik Bad Brückenau", "latitude": 50.3076411, "longitude": 9.7852654, "source": "osm", "_tags": {"addr:city": "Bad Brückenau", "addr:country": "DE", "addr:housenumber": "16", "addr:postcode": "97769", "addr:street": "Bahnhofstraße", "amenity": "hospital", "healthcare": "hospital", "name": "Hescuro Klinik Bad Brückenau", "old_name": "Capio Franz von Prümmer Klinik", "website": "https://www.hescuro-bad-brueckenau.de/", "wheelchair": "yes"}}, {"name": "Forensik Schloss Werneck", "latitude": 49.9803855, "longitude": 10.1054456, "source": "osm", "_tags": {"amenity": "prison", "health_speciality": "forensic_psychiatry", "healthcare": "hospital", "name": "Forensik Schloss Werneck", "ref": "Haus J"}}, {"name": "St. Josef Krankenhaus", "latitude": 50.0436861, "longitude": 10.2252873, "source": "osm", "_tags": {"addr:city": "Schweinfurt", "addr:country": "DE", "addr:housenumber": "1", "addr:postcode": "97421", "addr:street": "Ludwigstraße", "amenity": "hospital", "check_date": "2024-09-21", "email": "info@josef.de", "healthcare": "hospital", "name": "St. Josef Krankenhaus", "phone": "+49 9721 57 0", "website": "https://www.josef.de/"}}, {"name": "Leopoldina-Krankenhaus", "latitude": 50.0516374, "longitude": 10.2432798, "source": "osm", "_tags": {"amenity": "hospital", "emergency": "yes", "healthcare": "hospital", "name": "Leopoldina-Krankenhaus", "operator": "Leopoldina-Krankenhaus der Stadt Schweinfurt GmbH", "website": "https://www.leopoldina-krankenhaus.com/", "wheelchair": "yes"}}, {"name": "Krankenhaus Markt Werneck", "latitude": 49.9813975, "longitude": 10.0994959, "source": "osm", "_tags": {"addr:city": "Werneck", "addr:country": "DE", "addr:housenumber": "5", "addr:postcode": "97440", "addr:street": "Balthasar-Neumann-Platz", "amenity": "hospital", "email": "info@krankenhaus-werneck.de", "healthcare": "hospital", "name": "Krankenhaus Markt Werneck", "phone": "+49 9722 590", "website": "https://www.krankenhaus-werneck.de/"}}, {"name": "Neurologische Klinik", "latitude": 50.3245263, "longitude": 10.2388126, "source": "osm", "_tags": {"addr:city": "Bad Neustadt an der Saale", "addr:country": "DE", "addr:housenumber": "10", "addr:postcode": "97616", "addr:street": "von-Guttenberg-Straße", "alt_name": "Neurologie und Neurologische Intensivmedizin", "amenity": "hospital", "description": "Haus 8 des Campus Bad Neustadt; Akutneurologie und neurologische Internsivstation", "healthcare": "hospital", "name": "Neurologische Klinik", "phone": "+49 9771 908 83100", "website": "https://www.campus-nes.de/behandlungsangebot/unsere-kliniken/neurologie-und-neurologische-intensivmedizin.html", "wheelchair": "yes"}}, {"name": "Psychosomatische Klinik Bad Neustadt", "latitude": 50.3179961, "longitude": 10.2248712, "source": "osm", "_tags": {"addr:city": "Bad Neustadt an der Saale", "addr:country": "DE", "addr:housenumber": "31", "addr:postcode": "97616", "addr:street": "Kurhausstraße", "amenity": "hospital", "description": "Gebäude 7 des Campus Bad Neustadt (Campus Süd)", "email": "psk@psychosomatische-klinik-bad-neustadt.de", "fax": "+49 9771 67-79000", "healthcare": "psychotherapist", "healthcare:speciality": "psychosomatic_medicine", "name": "Psychosomatische Klinik Bad Neustadt", "operator": "Rhön-Klinikum, Campus Bad Neustadt", "phone": "+49 9771 6770", "website": "https://psychosomatik.campus-nes.de/"}}, {"name": "Marbachtalklinik", "latitude": 50.1984023, "longitude": 10.0608312, "source": "osm", "_tags": {"addr:city": "Bad Kissingen", "addr:housenumber": "4", "addr:postcode": "97688", "addr:street": "Doktor-Georg-Heim-Straße", "amenity": "hospital", "check_date": "2024-09-27", "email": "info.marbachtal-klinik@drv-oldenburg-bremen.de", "healthcare": "hospital", "name": "Marbachtalklinik", "operator": "Deutsche Rentenversicherung", "phone": "+49 971 8080", "website": "http://www.marbachtalklinik.de/"}}, {"name": "Deegenbergklinik Bad Kissingen", "latitude": 50.1928436, "longitude": 10.0877969, "source": "osm", "_tags": {"addr:country": "DE", "addr:housenumber": "21", "addr:postcode": "97688", "addr:street": "Burgstraße", "amenity": "hospital", "email": "info@deegenberg.de", "healthcare": "hospital", "name": "Deegenbergklinik Bad Kissingen", "phone": "+49 971 8210", "website": "https://deegenberg.de/"}}, {"name": "Klinik Bavaria", "latitude": 50.1980272, "longitude": 10.0846566, "source": "osm", "_tags": {"addr:city": "Bad Kissingen", "addr:country": "DE", "addr:housenumber": "18-22", "addr:postcode": "97688", "addr:street": "Von-der-Tann-Straße", "amenity": "hospital", "check_date": "2024-10-16", "email": "info@klinik-bavaria.com", "fax": "+49 971 829-1180", "healthcare": "hospital", "name": "Klinik Bavaria", "phone": "+49 971 829-0", "source": "Bing", "website": "https://kissingen.klinikbavaria.de/"}}, {"name": "Klinik Neumühle", "latitude": 50.3502853, "longitude": 10.3057638, "source": "osm", "_tags": {"addr:city": "Hollstadt", "addr:country": "DE", "addr:housenumber": "3", "addr:postcode": "97618", "addr:street": "Neumühle", "amenity": "hospital", "healthcare": "hospital", "name": "Klinik Neumühle", "operator": "Haus Saaletal GmbH", "website": "https://www.rhoen-klinikum-ag.com/rka/cms/stk_2/deu/57962.html"}}, {"name": "Helios St. Elisabeth Klinik Hünfeld", "latitude": 50.6628028, "longitude": 9.7665828, "source": "osm", "_tags": {"amenity": "hospital", "brand": "Helios Kliniken", "contact:email": "info.huenfeld@helios-gesundheit.de", "contact:fax": "+49 6652 987-699", "contact:phone": "+49 6652 987-0", "contact:website": "https://www.helios-gesundheit.de/standorte-angebote/kliniken/huenfeld/", "emergency": "yes", "healthcare": "hospital", "name": "Helios St. Elisabeth Klinik Hünfeld", "opening_hours": "24/7", "operator": "Helios Kliniken", "operator:type": "private", "operator:wikidata": "Q1254151", "wheelchair": "yes", "wikidata": "Q126368701"}}, {"name": "Rhön Klinik Gersfeld", "latitude": 50.4566329, "longitude": 9.9185635, "source": "osm", "_tags": {"addr:city": "Gersfeld", "addr:housenumber": "18", "addr:postcode": "36129", "addr:street": "Wolf-Hirth-Straße", "amenity": "hospital", "check_date": "2024-06-18", "healthcare": "hospital", "name": "Rhön Klinik Gersfeld"}}, {"name": "Dr. Becker Burg-Klinik", "latitude": 50.7824358, "longitude": 10.1275561, "source": "osm", "_tags": {"addr:city": "Dermbach", "addr:housenumber": "19", "addr:postcode": "36466", "addr:street": "Am Burgplatz", "addr:suburb": "Stadtlengsfeld", "amenity": "hospital", "emergency": "no", "healthcare": "hospital", "healthcare:speciality": "psychiatry", "name": "Dr. Becker Burg-Klinik", "operator": "Dr. Becker Klinikgrupe"}}, {"name": "REGIOMED Klinikum Hildburghausen", "latitude": 50.4292246, "longitude": 10.7284895, "source": "osm", "_tags": {"addr:city": "Hildburghausen", "addr:housenumber": "17", "addr:postcode": "98646", "addr:street": "Schleusinger Straße", "amenity": "hospital", "check_date": "2024-05-26", "description": "Anästhesie und Intensivmedizin\n    Chirurgie\n    Gastroenterologie\n    Geriatrie\n    Kardiologie\n    Notfallambulanz\n    Orthopädie und Unfallchirurgie\n    Physiotherapie\n    Radiologie", "email": "info.hbn@regiomed-kliniken.de", "emergency": "yes", "fax": "03685 773-209", "healthcare": "hospital", "healthcare:speciality": "intensive;surgery;oncology;internal;gynaecology;emergency;cardiology;orthopaedics", "image": "https://www.regiomed-kliniken.de/img/inhalt/kliniken/Hildburghausen/hildburghausen.jpg", "name": "REGIOMED Klinikum Hildburghausen", "operator": "REGIOMED", "operator:type": "private", "phone": "+49 3685 7730", "website": "https://www.henneberg-kliniken.de/henneberg-klinik-hildburghausen/", "wheelchair": "yes"}}, {"name": "Geriatrische Fachklinik \"Georgenhaus\"", "latitude": 50.5800136, "longitude": 10.4224739, "source": "osm", "_tags": {"addr:city": "Meiningen", "addr:housenumber": "7", "addr:postcode": "98617", "addr:street": "Ernststraße", "amenity": "hospital", "emergency": "no", "healthcare": "hospital", "healthcare:speciality": "geriatrics", "name": "Geriatrische Fachklinik \"Georgenhaus\"", "operator": "Sozialwerk Meiningen gGmbH", "short_name": "KH Meiningen Geriatrie"}}, {"name": "Hemera-Klinik", "latitude": 50.1977809, "longitude": 10.0686836, "source": "osm", "_tags": {"addr:city": "Bad Kissingen", "addr:housenumber": "16", "addr:postcode": "97688", "addr:street": "Schönbornstraße", "amenity": "hospital", "check_date": "2025-04-12", "healthcare": "hospital", "healthcare:speciality": "psychiatry", "name": "Hemera-Klinik", "operator": "HEMERA Klinik GmbH", "website": "https://www.hemera.de", "wheelchair": "yes"}}, {"name": "Rhönklinikum", "latitude": 50.3237397, "longitude": 10.2342802, "source": "osm", "_tags": {"amenity": "hospital", "emergency": "yes", "healthcare": "hospital", "name": "Rhönklinikum", "operator": "Rhön-Klinikum", "operator:type": "private", "operator:wikidata": "Q573604", "operator:wikipedia": "de:Rhön-Klinikum", "website": "https://www.campus-nes.de/fileadmin/FILES/CAMPUS_NES/Aktuelles/Downloads/Flyer_Campus_Uebersicht_web.pdf", "wheelchair": "yes"}}, {"name": "", "latitude": 50.8138621, "longitude": 10.3532886, "source": "osm", "_tags": {"amenity": "hospital", "healthcare": "hospital"}}, {"name": "", "latitude": 50.810305, "longitude": 10.3523343, "source": "osm", "_tags": {"amenity": "hospital", "healthcare": "hospital"}}, {"name": "Limes Schlossklinik Fürstenhof", "latitude": 50.3047801, "longitude": 9.7468803, "source": "osm", "_tags": {"addr:city": "Bad Brückenau", "addr:housenumber": "16", "addr:postcode": "97769", "addr:street": "Heinrich-von-Bibra-Straße", "amenity": "hospital", "contact:website": "https://www.limes-schlossklinik-fuerstenhof.de/", "emergency": "no", "healthcare": "rehabilitation", "healthcare:speciality": "psychiatry;physiatry", "name": "Limes Schlossklinik Fürstenhof", "operator": "LIMES Schlossklinik Fürstenhof GmbH", "operator:type": "private"}}, {"name": "m&i-Fachklinik Bad Liebenstein", "latitude": 50.8134734, "longitude": 10.3528973, "source": "osm", "_tags": {"addr:city": "Bad Liebenstein", "addr:housenumber": "2", "addr:postcode": "36448", "addr:street": "Kurpromenade", "amenity": "hospital", "building": "yes", "building:levels": "4", "healthcare": "rehabilitation", "image": "https://commons.wikimedia.org/wiki/File:WAK_BALI_207.JPG", "name": "m&i-Fachklinik Bad Liebenstein", "phone": "+49 36961 660", "toilets:wheelchair": "yes", "website": "https://www.fachklinik-bad-liebenstein.de/", "wheelchair": "yes", "wikidata": "Q56721930"}}, {"name": "Asklepios Burgseekliniken (Parkklinik)", "latitude": 50.8080298, "longitude": 10.2392785, "source": "osm", "_tags": {"addr:city": "Bad Salzungen", "addr:country": "DE", "addr:housenumber": "5", "addr:postcode": "36433", "addr:street": "Burgseestraße", "amenity": "hospital", "emergency": "yes", "healthcare": "hospital", "name": "Asklepios Burgseekliniken (Parkklinik)", "operator": "Asklepios Kliniken", "operator:type": "private", "operator:wikidata": "Q732068", "wheelchair": "yes"}}]