[{"name": "Zachary Merton Hospital", "latitude": 50.8079485, "longitude": -0.5006716, "source": "osm", "_tags": {"addr:city": "Rustington", "addr:postcode": "BN16 2EB", "addr:street": "Glenville Road", "amenity": "hospital", "emergency": "no", "fhrs:authority": "Arun", "fhrs:id": "59323", "fhrs:local_authority_id": "130712", "healthcare": "hospital", "name": "Zachary Merton Hospital", "operator": "NHS Sussex Community Trust", "phone": "+44 1903 858100", "website": "https://www.sussexcommunity.nhs.uk/services/locations/zachary-merton-hospital.htm"}}, {"name": "Zachary Merton Hospital", "latitude": 50.8080476, "longitude": -0.5010988, "source": "osm", "_tags": {"amenity": "hospital", "emergency": "no", "healthcare": "hospital", "name": "Zachary Merton Hospital"}}, {"name": "Saint Mary's", "latitude": 50.7998085, "longitude": -1.0632119, "source": "osm", "_tags": {"addr:city": "Portsmouth", "addr:country": "GB", "addr:postcode": "PO3 6DR", "addr:street": "Milton Road", "amenity": "hospital", "emergency": "no", "fhrs:id": "893921", "healthcare": "hospital", "name": "Saint Mary's", "wikidata": "Q30281059"}}, {"name": "St Mary’s NHS Treatment Centre", "latitude": 50.7992811, "longitude": -1.0619395, "source": "osm", "_tags": {"addr:city": "Portsmouth", "addr:country": "GB", "addr:county": "Hampshire", "addr:housename": "St Mary’s NHS Treatment Centre", "addr:place": "Milton", "addr:postcode": "PO3 6DW", "addr:street": "Milton Road", "amenity": "hospital", "building": "hospital", "emergency": "yes", "healthcare": "hospital", "name": "St Mary’s NHS Treatment Centre", "opening_hours": "Mo-Fr 07:30-22:00; Sa,Su 08:00-22:00", "ref:GB:uprn": "1775106595"}}, {"name": "Gosport War Memorial Hospital", "latitude": 50.7934452, "longitude": -1.1480448, "source": "osm", "_tags": {"addr:city": "Gosport", "addr:country": "GB", "addr:postcode": "PO12 3PW", "addr:street": "Bury Road", "amenity": "hospital", "fhrs:id": "627538", "healthcare": "hospital", "name": "Gosport War Memorial Hospital", "source:addr": "FHRS Open Data", "wikidata": "Q30292819", "wikipedia": "en:Gosport War Memorial Hospital"}}, {"name": "Gosport War Memorial Minor Injuries Unit", "latitude": 50.7930354, "longitude": -1.1475059, "source": "osm", "_tags": {"addr:city": "Gosport", "addr:country": "GB", "addr:county": "Hampshire", "addr:postcode": "PO12 3PW", "addr:street": "Bury Road", "amenity": "hospital", "building": "hospital", "emergency": "yes", "healthcare": "hospital", "name": "Gosport War Memorial Minor Injuries Unit", "opening_hours": "Mo-Su 08:00-21:00", "phone": "+442392794753;+442392794754"}}, {"name": "Rowner Health Centre", "latitude": 50.8134198, "longitude": -1.1743035, "source": "osm", "_tags": {"amenity": "hospital", "healthcare": "hospital", "name": "Rowner Health Centre"}}, {"name": "Nelson House (Psychiatric Rehabilitation Facility)", "latitude": 50.8127325, "longitude": -1.159318, "source": "osm", "_tags": {"amenity": "hospital", "building": "hospital", "name": "Nelson House (Psychiatric Rehabilitation Facility)", "ref:GB:cqc_location": "1-2137188897"}}, {"name": "Bognor Regis War Memorial Hospital", "latitude": 50.7929681, "longitude": -0.6750046, "source": "osm", "_tags": {"addr:city": "Bognor Regis", "addr:postcode": "PO22 9PP", "addr:street": "Shripney Road", "amenity": "hospital", "fhrs:authority": "Arun", "fhrs:id": "145979", "fhrs:local_authority_id": "879845", "healthcare": "hospital", "name": "Bognor Regis War Memorial Hospital", "phone": "+44 1243 865418", "wikidata": "Q30293026", "wikipedia": "en:Bognor Regis War Memorial Hospital"}}, {"name": "Goring Hall Hospital", "latitude": 50.8112228, "longitude": -0.4319747, "source": "osm", "_tags": {"addr:city": "Worthing", "addr:locality": "Goring-by-Sea", "addr:postcode": "BN12 5AT", "addr:street": "Bodiam Avenue", "amenity": "hospital", "healthcare": "hospital", "name": "Goring Hall Hospital", "operator": "BMI Healthcare", "phone": "+44 1903 867315", "wheelchair": "yes"}}, {"name": "The Orchards", "latitude": 50.7962216, "longitude": -1.0455076, "source": "osm", "_tags": {"amenity": "hospital", "name": "The Orchards", "operator": "The National Health Service"}}, {"name": "The Limes", "latitude": 50.7973152, "longitude": -1.0452891, "source": "osm", "_tags": {"amenity": "hospital", "healthcare": "hospital", "name": "The Limes", "operator": "The National Health Service", "toilets:wheelchair": "yes", "wheelchair": "yes", "wikidata": "Q65058975"}}, {"name": "St James Hospital", "latitude": 50.7960102, "longitude": -1.0458224, "source": "osm", "_tags": {"amenity": "hospital", "name": "St James Hospital", "note": "Remnants of St James' . Not sure how much is still active or is still considered \"St James'\"", "ref:GB:cqc_location": "RW1U2", "website": "https://hiowhealthcare.nhs.uk/our-services/our-main-sites-and-locations/st-james-healthcare-campus"}}]