[{"name": "Centre Hospitalier de Corbie", "latitude": 49.914026, "longitude": 2.5140718, "source": "osm", "_tags": {"addr:city": "Corbie", "addr:housenumber": "33", "addr:postcode": "80800", "addr:street": "Rue Gambetta", "amenity": "hospital", "healthcare": "hospital", "name": "Centre Hospitalier de Corbie", "ref:FR:FINESS": "800000200", "source": "Le ministère des solidarités et de la santé - 03/2019"}}, {"name": "Clinique Victor Pauchet", "latitude": 49.8718944, "longitude": 2.2941754, "source": "osm", "_tags": {"amenity": "hospital", "emergency": "no", "healthcare": "hospital", "name": "Clinique Victor Pauchet", "ref:FR:FINESS": "800009920", "type:FR:FINESS": "365"}}, {"name": "Clinique Sainte-Isabelle", "latitude": 50.0986058, "longitude": 1.8608015, "source": "osm", "_tags": {"amenity": "hospital", "healthcare": "hospital", "name": "Clinique Sainte-Isabelle", "ref:FR:FINESS": "800002503", "type:FR:FINESS": "365"}}, {"name": "Centre de long séjour Germon", "latitude": 50.5155788, "longitude": 2.6714198, "source": "osm", "_tags": {"fax": "+33321644253", "healthcare": "hospital", "name": "Centre de long séjour Germon", "phone": "+33321644212", "ref:FR:FINESS": "620105965", "ref:FR:NAF": "86.10Z", "ref:FR:SIRET": "26620929500036", "source": "Le ministère des solidarités et de la santé - 03/2019", "type:FR:FINESS": "362"}}, {"name": "Maison de santé pluridisciplinaire d'Auxi-le-Château", "latitude": 50.2285642, "longitude": 2.1176792, "source": "osm", "_tags": {"amenity": "hospital", "healthcare": "centre", "name": "Maison de santé pluridisciplinaire d'Auxi-le-Château", "phone": "+33321040009", "ref:FR:FINESS": "620029256", "short_name": "MSP d'Auxi-le-Château", "type:FR:FINESS": "603", "website": "https://annuairesante.ameli.fr/trouver-un-professionnel-de-sante/medecin-generaliste/62-pas-de-calais-auxi-le-chateau"}}, {"name": "", "latitude": 50.3663986, "longitude": 2.027249, "source": "osm", "_tags": {"amenity": "hospital", "fax": "+33321816350", "phone": "+33321901600", "ref:FR:FINESS": "620000117", "ref:FR:SIRET": "26620938600017", "source": "Le ministère des solidarités et de la santé - 2022-11", "type:FR:FINESS": "106"}}, {"name": "Service de Sante Universitaire (SSU) Citadelle", "latitude": 49.9044064, "longitude": 2.2994988, "source": "osm", "_tags": {"addr:city": "Amiens", "addr:housenumber": "10", "addr:postcode": "80000", "addr:street": "Rue des Français Libres", "amenity": "hospital", "healthcare": "hospital", "name": "Service de Sante Universitaire (SSU) Citadelle"}}, {"name": "Service Universitaire de Médecine Préventive et de Promotion de la Santé", "latitude": 49.8780806, "longitude": 2.2670439, "source": "osm", "_tags": {"amenity": "hospital", "healthcare": "yes", "name": "Service Universitaire de Médecine Préventive et de Promotion de la Santé"}}, {"name": "Centre Hospitalier d'Hazebrouck", "latitude": 50.7287065, "longitude": 2.5389668, "source": "osm", "_tags": {"amenity": "hospital", "emergency": "yes", "fax": "+33 3 28 42 66 05", "healthcare": "hospital", "name": "Centre Hospitalier d'Hazebrouck", "operator:type": "public", "phone": "+33 3 28 42 66 00", "ref:FR:FINESS": "590000774", "type:FR:FINESS": "355", "website": "http://ch-hazebrouck.fr/", "wheelchair": "yes"}}, {"name": "Polyclinique de Picardie", "latitude": 49.8709064, "longitude": 2.2969253, "source": "osm", "_tags": {"amenity": "hospital", "building": "hospital", "fax": "+33 3 22 33 34 00", "healthcare": "hospital", "name": "Polyclinique de Picardie", "operator:type": "private", "phone": "+33 3 22 33 33 33", "ref:FR:FINESS": "800009466", "source": "cadastre-dgi-fr source : Direction Générale des Impôts - Cadastre ; mise à jour : 2008", "type:FR:FINESS": "128", "website": "http://polyclinique-picardie.fr/index.php?page=1&kw=clinique&kw1=amiens"}}, {"name": "Clinique de Saint-Omer", "latitude": 50.7290025, "longitude": 2.2661719, "source": "osm", "_tags": {"amenity": "hospital", "emergency": "no", "healthcare": "hospital", "name": "Clinique de Saint-Omer", "phone": "+33 321386500", "ref:FR:FINESS": "620000331", "ref:FR:SIREN": "577080088", "type:FR:FINESS": "698", "website": "https://www.elsan.care/fr/clinique-saint-omer"}}, {"name": "Centre hospitalier de Béthune", "latitude": 50.5149479, "longitude": 2.6688422, "source": "osm", "_tags": {"alt_name": "Centre hospitalier Germon et Gauthier", "amenity": "hospital", "emergency": "yes", "fax": "+33 3 21 61 90 09", "healthcare": "hospital", "healthcare:speciality": "intensive", "name": "Centre hospitalier de Béthune", "operator:type": "public", "phone": "+33 3 21 64 44 44", "ref:FR:FINESS": "620000224", "type:FR:FINESS": "355", "website": "https://www.ch-bethune.fr/"}}, {"name": "Polyclinique de la Clarence", "latitude": 50.4785994, "longitude": 2.4908412, "source": "osm", "_tags": {"amenity": "hospital", "emergency": "yes", "fax": "+33 3 21 54 90 01", "healthcare": "hospital", "name": "Polyclinique de la Clarence", "operator": "Groupe AHNAC", "operator:type": "private", "phone": "+33 3 21 54 90 00", "ref:FR:FINESS": "620025346", "ref:FR:SIRET": "31245483800292", "type:FR:FINESS": "122", "website": "https://polyclinique-divion.ahnac.com/"}}, {"name": "Centre hospitalier de la Région de Saint-Omer", "latitude": 50.7027756, "longitude": 2.2528196, "source": "osm", "_tags": {"amenity": "hospital", "email": "direction@ch-saintomer.fr", "emergency": "yes", "fax": "+33 3 21 88 70 09", "healthcare": "hospital", "healthcare:speciality": "intensive", "name": "Centre hospitalier de la Région de Saint-Omer", "operator:type": "public", "phone": "+33 3 21 88 70 00", "ref:FR:FINESS": "620000349", "source": "Union européenne - SOeS, CORINE Land Cover, 2006.", "type:FR:FINESS": "355", "website": "https://ch-saintomer.fr/", "wikidata": "Q105174116"}}, {"name": "Centre de Post-Cure", "latitude": 49.8670563, "longitude": 2.277194, "source": "osm", "_tags": {"amenity": "hospital", "healthcare": "hospital", "name": "Centre de Post-Cure", "ref:FR:FINESS": "800000382", "type:FR:FINESS": "292"}}, {"name": "Centre hospitalier d'Abbeville", "latitude": 50.1023006, "longitude": 1.8313247, "source": "osm", "_tags": {"amenity": "hospital", "email": "direction@ch-abbeville.fr", "emergency": "yes", "fax": "+33 3 22 25 52 33", "healthcare": "hospital", "healthcare:speciality": "intensive", "name": "Centre hospitalier d'Abbeville", "operator:type": "public", "phone": "+33 3 22 25 52 00", "ref:FR:FINESS": "800000143", "type:FR:FINESS": "355", "website": "https://www.ch-abbeville.fr/"}}, {"name": "CHU Amiens Picardie - Centre Saint-Victor", "latitude": 49.9043971, "longitude": 2.3183293, "source": "osm", "_tags": {"amenity": "hospital", "healthcare": "hospital", "name": "CHU Amiens Picardie - Centre Saint-Victor", "ref:FR:FINESS": "800000614", "source": "Bing;knowledge", "type:FR:FINESS": "101"}}, {"name": "Centre de Psychothérapie Les Marronniers", "latitude": 50.4599099, "longitude": 2.7171599, "source": "osm", "_tags": {"amenity": "hospital", "healthcare": "psychotherapist", "name": "Centre de Psychothérapie Les Marronniers", "operator": "ANHAC", "ref:FR:FINESS": "620004838", "source": "cadastre-dgi-fr source : Direction Générale des Impôts - Cadastre. Mise à jour : 2015", "type:FR:FINESS": "161", "wikidata": "Q22997439"}}, {"name": "Centre Hospitalier du Ternois", "latitude": 50.3792143, "longitude": 2.3226566, "source": "osm", "_tags": {"amenity": "hospital", "healthcare": "hospital", "name": "Centre Hospitalier du Ternois", "ref:FR:FINESS": "620000067", "source": "cadastre-dgi-fr source : Direction Générale des Impôts - Cadastre. Mise à jour : 2015", "type:FR:FINESS": "355", "website": "https://www.centrehospitalierduternois.com/", "wikidata": "Q53580542"}}, {"name": "Polyclinique du Ternois", "latitude": 50.38784, "longitude": 2.3361379, "source": "osm", "_tags": {"amenity": "hospital", "fax": "+33321474141", "healthcare": "hospital", "name": "Polyclinique du Ternois", "phone": "+33826020263", "ref:FR:FINESS": "620105940", "ref:FR:SIRET": "31796196900019", "source": "cadastre-dgi-fr source : Direction Générale des Impôts - Cadastre. Mise à jour : 2015", "type:FR:FINESS": "365", "website": "http://finess.sante.gouv.fr/fininter/jsp/actionDetailEtablissement.do?noFiness=620105940"}}, {"name": "Hôpital Psychiatrique Philippe Pinel", "latitude": 49.8705086, "longitude": 2.2755927, "source": "osm", "_tags": {"addr:city": "Amiens", "addr:housenumber": "74410", "addr:postcode": "80044", "addr:street": "Route d'Amiens", "amenity": "hospital", "emergency": "yes", "healthcare": "hospital", "name": "Hôpital Psychiatrique Philippe Pinel", "phone": "+33 3 22 53 46 46", "ref:FR:FINESS": "800000457", "source": "cadastre-dgi-fr source : Direction Générale des Impôts - Cadastre. Mise à jour : 2009", "type:FR:FINESS": "292", "website": "http://www.ch-pinel.fr/"}}, {"name": "CHU Amiens Sud", "latitude": 49.8726387, "longitude": 2.2538897, "source": "osm", "_tags": {"amenity": "hospital", "emergency": "yes", "fax": "+33 3 22 66 85 95", "healthcare": "hospital", "healthcare:speciality": "intensive", "name": "CHU Amiens Sud", "operator:type": "public", "phone": "+33 3 22 45 60 00", "ref:FR:FINESS": "800006124", "type:FR:FINESS": "101", "website": "https://www.chu-amiens.fr/", "wikidata": "Q30279619"}}, {"name": "Centre Hospitalier de Doullens", "latitude": 50.1525114, "longitude": 2.3521769, "source": "osm", "_tags": {"amenity": "hospital", "emergency": "yes", "fax": "+33 3 22 32 33 84", "healthcare": "hospital", "name": "Centre Hospitalier de Doullens", "phone": "+33 3 22 32 33 33", "ref:FR:FINESS": "800000226", "source": "cadastre-dgi-fr source : Direction Générale des Finances Publiques - Cadastre. Mise à jour : 2014", "type:FR:FINESS": "355", "website": "https://www.ch-doullens.fr/"}}, {"name": "Centre Hospitalier d'Albert", "latitude": 49.9998001, "longitude": 2.654432, "source": "osm", "_tags": {"amenity": "hospital", "fax": "+33 3 22 74 41 41", "healthcare": "hospital", "name": "Centre Hospitalier d'Albert", "operator:type": "public", "phone": "+33 3 22 74 41 35", "ref:FR:FINESS": "800000184", "type:FR:FINESS": "355", "website": "https://www.ch-albert.fr/v3/"}}, {"name": "Clinique Anne d'Artois", "latitude": 50.5398015, "longitude": 2.6300543, "source": "osm", "_tags": {"addr:housenumber": "100", "addr:street": "Rue Émile Basly", "amenity": "hospital", "emergency": "yes", "fax": "+33 3 21 63 88 88", "healthcare": "hospital", "name": "Clinique Anne d'Artois", "operator:type": "private", "phone": "+33 826 200 110", "ref:FR:FINESS": "620100735", "type:FR:FINESS": "365", "website": "https://www.groupehpl.com/anne-artois"}}, {"name": "Clinique de Bruay-la-Buissière", "latitude": 50.4783377, "longitude": 2.5511718, "source": "osm", "_tags": {"amenity": "hospital", "emergency": "yes", "healthcare": "hospital", "name": "Clinique de Bruay-la-Buissière", "operator": "Hôpitaux Privés du Littoral", "operator:type": "private_for_profit", "ref:FR:FINESS": "620106088", "source": "Cadastre 2019", "type:FR:FINESS": "365"}}, {"name": "clinique du Campus", "latitude": 49.867858, "longitude": 2.2758419, "source": "osm", "_tags": {"amenity": "hospital", "building": "yes", "healthcare": "hospital", "healthcare:speciality": "psychiatry", "name": "clinique du Campus", "ref:FR:FINESS": "800018228", "source": "cadastre-dgi-fr source : Direction Générale des Impôts - Cadastre. Mise à jour : 2019", "type:FR:FINESS": "698"}}, {"name": "cabinet dentaire", "latitude": 50.7252631, "longitude": 2.5377101, "source": "osm", "_tags": {"amenity": "hospital", "healthcare": "hospital", "healthcare:speciality": "dentistry", "name": "cabinet dentaire", "source": "cadastre-dgi-fr source : Direction Générale des Finances Publiques - Cadastre. Mise à jour : 2021"}}, {"name": "Centre Hospitalier d'Aire sur la Lys", "latitude": 50.6416378, "longitude": 2.3990633, "source": "osm", "_tags": {"amenity": "hospital", "healthcare": "hospital", "name": "Centre Hospitalier d'Aire sur la Lys", "phone": "+33321390065", "ref:FR:FINESS": "620000299", "ref:FR:SIRET": "26620943600044", "source": "Le ministère des solidarités et de la santé - 2024-05", "type:FR:FINESS": "382", "website": "https://ch-airesurlalys.fr/"}}, {"name": "Centre de Soins de Suite Henriville", "latitude": 49.8849535, "longitude": 2.301888, "source": "osm", "_tags": {"amenity": "hospital", "healthcare": "hospital", "name": "Centre de Soins de Suite Henriville", "ref:FR:FINESS": "800016735", "source": "Le ministère des solidarités et de la santé - 10/2018"}}, {"name": "Clinique de l'Europe", "latitude": 49.8708302, "longitude": 2.295548, "source": "osm", "_tags": {"addr:postcode": "80000", "amenity": "hospital", "building": "hospital", "emergency": "yes", "fax": "+33 3 60 12 53 07", "healthcare": "hospital", "name": "Clinique de l'Europe", "opening_hours": "24/7", "phone": "+33322354848", "ref:FR:FINESS": "800013179", "type": "multipolygon", "type:FR:FINESS": "129"}}]