[{"name": "Tavistock Hospital", "latitude": 50.5471567, "longitude": -4.1536325, "source": "osm", "_tags": {"addr:city": "Tavistock", "addr:housename": "Tavistock Hospital", "addr:postcode": "PL19 8LD", "addr:street": "Spring Hill", "amenity": "hospital", "fhrs:id": "1421042", "healthcare": "hospital", "name": "Tavistock Hospital", "source:addr": "FHRS Open Data"}}, {"name": "Dawlish Community Hospital", "latitude": 50.5804017, "longitude": -3.4744584, "source": "osm", "_tags": {"addr:city": "Dawlish", "addr:postcode": "EX7 9QH", "addr:street": "Barton Terrace", "amenity": "hospital", "emergency": "no", "healthcare": "hospital", "name": "Dawlish Community Hospital"}}, {"name": "Moreton Hospital", "latitude": 50.6627778, "longitude": -3.7670412, "source": "osm", "_tags": {"amenity": "hospital", "healthcare": "hospital", "name": "Moreton Hospital"}}, {"name": "Dartmouth and Kingswear Hospital", "latitude": 50.3502256, "longitude": -3.5776785, "source": "osm", "_tags": {"amenity": "hospital", "healthcare": "hospital", "name": "Dartmouth and Kingswear Hospital"}}, {"name": "University Hospital Plymouth Derriford", "latitude": 50.4163165, "longitude": -4.1142456, "source": "osm", "_tags": {"amenity": "hospital", "emergency": "no", "healthcare": "hospital", "name": "University Hospital Plymouth Derriford", "wheelchair": "yes"}}, {"name": "Emergency Department", "latitude": 50.4167391, "longitude": -4.1133356, "source": "osm", "_tags": {"amenity": "hospital", "healthcare": "hospital", "name": "Emergency Department", "wheelchair": "yes"}}, {"name": "Phlebotomy Services", "latitude": 50.4139601, "longitude": -4.1250295, "source": "osm", "_tags": {"amenity": "hospital", "healthcare": "hospital", "name": "Phlebotomy Services"}}, {"name": "Urgent Treatment Centre", "latitude": 50.4178784, "longitude": -4.1189156, "source": "osm", "_tags": {"amenity": "hospital", "emergency": "no", "healthcare": "hospital", "name": "Urgent Treatment Centre", "opening_hours": "08:00-20:00"}}, {"name": "Dermatology", "latitude": 50.4185469, "longitude": -4.1184204, "source": "osm", "_tags": {"amenity": "hospital", "healthcare": "hospital", "name": "Dermatology"}}, {"name": "Mount Gould Hospital", "latitude": 50.3780503, "longitude": -4.1130814, "source": "osm", "_tags": {"addr:city": "Plymouth", "addr:postcode": "PL4 7QD", "addr:street": "Mount Gould Road", "amenity": "hospital", "check_date": "2025-04-03", "emergency": "no", "healthcare": "hospital", "name": "Mount Gould Hospital"}}, {"name": "Ottery St Mary Hospital", "latitude": 50.7502411, "longitude": -3.291435, "source": "osm", "_tags": {"amenity": "hospital", "check_date": "2025-08-19", "healthcare": "hospital", "name": "Ottery St Mary Hospital"}}, {"name": "Royal Devon & Exeter Hospital (Heavitree)", "latitude": 50.7247155, "longitude": -3.5139967, "source": "osm", "_tags": {"addr:city": "Exeter", "addr:postcode": "EX1 2ED", "addr:street": "Gladstone Road", "amenity": "hospital", "emergency": "no", "healthcare": "hospital", "name": "Royal Devon & Exeter Hospital (Heavitree)", "wikidata": "Q30293207", "wikipedia": "en:Heavitree hospital"}}, {"name": "Seachange", "latitude": 50.6315439, "longitude": -3.3191654, "source": "osm", "_tags": {"amenity": "hospital", "emergency": "no", "healthcare": "hospital", "name": "Seachange", "operator": "Westbank", "operator:type": "charitable"}}, {"name": "Mardon Neuro-Rehabilitation Centre", "latitude": 50.7172588, "longitude": -3.5135752, "source": "osm", "_tags": {"addr:city": "Exeter", "addr:postcode": "EX2 4UD", "addr:street": "Wonford Road", "amenity": "hospital", "healthcare": "hospital", "name": "Mardon Neuro-Rehabilitation Centre", "operator": "Royal Devon and Exeter NHS Foundation Trust", "phone": "+44 1392 208580", "website": "https://www.rdehospital.nhs.uk/patients/centres/mardon/default.html"}}, {"name": "Nuffield Hospital", "latitude": 50.7164476, "longitude": -3.5119479, "source": "osm", "_tags": {"addr:city": "Exeter", "addr:housename": "The Exeter Nuffield Hospital", "addr:postcode": "EX2 4UG", "addr:street": "Wonford Road", "amenity": "hospital", "emergency": "no", "fhrs:id": "178966", "healthcare": "hospital", "healthcare:speciality": "orthopaedics", "name": "Nuffield Hospital", "operator": "Nuffield Health", "operator:type": "private", "operator:wikidata": "Q7068711", "phone": "+44 1392 249341", "website": "https://www.nuffieldhealth.com/hospitals/exeter", "wikidata": "Q30293063"}}, {"name": "Brixham Hospital", "latitude": 50.3893319, "longitude": -3.514009, "source": "osm", "_tags": {"amenity": "hospital", "healthcare": "hospital", "name": "Brixham Hospital", "wikidata": "Q30293021"}}, {"name": "Derriford Hospital", "latitude": 50.4171632, "longitude": -4.1162781, "source": "osm", "_tags": {"addr:city": "Plymouth", "addr:postcode": "PL6 8DH", "addr:street": "Derriford Road", "amenity": "hospital", "emergency": "yes", "healthcare": "hospital", "name": "Derriford Hospital", "phone": "+44 1752 202082", "website": "https://www.plymouthhospitals.nhs.uk/", "wheelchair": "yes", "wikidata": "Q5263135", "wikipedia": "en:Derriford Hospital"}}, {"name": "Nuffield Clinic", "latitude": 50.4185648, "longitude": -4.1149566, "source": "osm", "_tags": {"amenity": "hospital", "healthcare": "hospital", "name": "Nuffield Clinic"}}, {"name": "Totnes Community Hospital", "latitude": 50.4327715, "longitude": -3.6841293, "source": "osm", "_tags": {"addr:city": "Totnes", "addr:postcode": "TQ9 5GH", "amenity": "hospital", "building": "hospital", "emergency": "no", "healthcare": "hospital", "name": "Totnes Community Hospital", "nohousenumber": "yes", "operator": "South West NHS Trust", "source:postcode": "ons_opendata_postcodes"}}, {"name": "HMS Raleigh Medical Centre", "latitude": 50.3731721, "longitude": -4.2241362, "source": "osm", "_tags": {"amenity": "hospital", "building": "yes", "emergency": "no", "healthcare": "hospital", "name": "HMS Raleigh Medical Centre"}}, {"name": "Newton Abbot Community Hospital", "latitude": 50.5391842, "longitude": -3.6125136, "source": "osm", "_tags": {"addr:city": "Newton Abbot", "addr:postcode": "TQ12 2TS", "amenity": "hospital", "building": "hospital", "healthcare": "hospital", "name": "Newton Abbot Community Hospital", "nohousenumber": "yes", "source": "Bing", "source:postcode": "ons_opendata_postcodes"}}, {"name": "Renal Unit", "latitude": 50.4188175, "longitude": -4.0938887, "source": "osm", "_tags": {"amenity": "hospital", "building": "yes", "emergency": "no", "healthcare": "hospital", "name": "Renal Unit"}}, {"name": "Mount Stuart Hospital", "latitude": 50.4751061, "longitude": -3.5416511, "source": "osm", "_tags": {"amenity": "hospital", "emergency": "no", "healthcare": "hospital", "name": "Mount Stuart Hospital", "wikidata": "Q22964879"}}, {"name": "Royal Devon & Exeter Hospital (Wonford)", "latitude": 50.7174312, "longitude": -3.5059556, "source": "osm", "_tags": {"amenity": "hospital", "emergency": "yes", "healthcare": "hospital", "name": "Royal Devon & Exeter Hospital (Wonford)"}}, {"name": "", "latitude": 50.5803238, "longitude": -3.4735359, "source": "osm", "_tags": {"amenity": "hospital", "healthcare": "hospital"}}, {"name": "Lee Mill Hospital", "latitude": 50.3901905, "longitude": -3.9616289, "source": "osm", "_tags": {"amenity": "hospital", "emergency": "no", "healthcare": "hospital", "name": "Lee Mill Hospital", "operator": "Livewell", "operator:type": "private"}}, {"name": "Crediton Hospital (No A & E)", "latitude": 50.7920325, "longitude": -3.6738964, "source": "osm", "_tags": {"amenity": "hospital", "healthcare": "hospital", "name": "Crediton Hospital (No A & E)"}}, {"name": "Franklyn Hospital", "latitude": 50.7126089, "longitude": -3.5492754, "source": "osm", "_tags": {"addr:city": "Exeter", "addr:postcode": "EX2 9HS", "addr:street": "Franklyn Drive", "amenity": "hospital", "fhrs:id": "163588", "healthcare": "hospital", "name": "Franklyn Hospital", "phone": "+44 1392 674310 (ext. 300)", "website": "https://www.nhs.uk/services/hospital/franklyn-community-hospital/RWV98", "wikidata": "Q26397920"}}, {"name": "Okehampton Community Hospital", "latitude": 50.7420061, "longitude": -3.9974549, "source": "osm", "_tags": {"amenity": "hospital", "healthcare": "hospital", "name": "Okehampton Community Hospital"}}, {"name": "Urgent Treatment Centre, Cumberland Centre", "latitude": 50.3698925, "longitude": -4.1687115, "source": "osm", "_tags": {"amenity": "hospital", "building": "hospital", "healthcare": "hospital", "name": "Urgent Treatment Centre, Cumberland Centre", "opening_hours": "Fr-We 08:30-22:00; Th 09:00-22:00", "operator": "Livewell South West", "ref:GB:cqc_location": "RK906", "ref:GB:nhs_ods": "RK906"}}, {"name": "Torbay Hospital", "latitude": 50.4817898, "longitude": -3.5540363, "source": "osm", "_tags": {"amenity": "hospital", "emergency": "yes", "healthcare": "hospital", "name": "Torbay Hospital", "operator": "NHS", "operator:type": "public", "operator:wikidata": "Q918396", "ref:GB:cqc_location": "RA901", "ref:GB:nhs_ods": "RA901", "wikidata": "Q7825446", "wikipedia": "en:Torbay Hospital"}}, {"name": "Exmouth Hospital", "latitude": 50.6208786, "longitude": -3.4015855, "source": "osm", "_tags": {"amenity": "hospital", "name": "Exmouth Hospital"}}, {"name": "Langdon Hospital", "latitude": 50.6010529, "longitude": -3.4701845, "source": "osm", "_tags": {"addr:city": "Dawlish", "addr:postcode": "EX7 0NR", "addr:street": "Exeter Road", "amenity": "hospital", "healthcare": "hospital", "name": "Langdon Hospital", "phone": "+44 1626 888372"}}, {"name": "Honeylands Children Centre", "latitude": 50.731283, "longitude": -3.4964489, "source": "osm", "_tags": {"amenity": "hospital", "healthcare": "hospital", "name": "Honeylands Children Centre", "wikidata": "Q114940276", "wikipedia": "en:Honeylands"}}, {"name": "Exeter Community Hospital", "latitude": 50.7312964, "longitude": -3.4831766, "source": "osm", "_tags": {"addr:city": "Exeter", "addr:country": "GB", "addr:postcode": "EX1 3RB", "addr:street": "Hospital Lane", "amenity": "hospital", "healthcare": "hospital", "name": "Exeter Community Hospital"}}, {"name": "Teignmouth Hospital", "latitude": 50.5483402, "longitude": -3.5108238, "source": "osm", "_tags": {"addr:postcode": "TQ14 9BQ", "addr:street": "Mill Lane", "amenity": "hospital", "contact:phone": "+44 1626 772161", "emergency": "no", "healthcare": "hospital", "name": "Teignmouth Hospital", "opening_hours": "Mo-Fr 08:30-17:00"}}, {"name": "Penntorr Health", "latitude": 50.3746965, "longitude": -4.2245753, "source": "osm", "_tags": {"amenity": "hospital", "healthcare": "hospital", "name": "Penntorr Health"}}, {"name": "", "latitude": 50.3711194, "longitude": -4.1471906, "source": "osm", "_tags": {"amenity": "hospital", "healthcare": "hospital"}}, {"name": "Pinhoe View", "latitude": 50.7313071, "longitude": -3.4692698, "source": "osm", "_tags": {"addr:city": "Exeter", "addr:housename": "Pinhoe View", "addr:postcode": "EX1 3PZ", "addr:street": "College Way", "amenity": "hospital", "beds": "16", "emergency": "no", "healthcare": "hospital", "name": "Pinhoe View", "operator": "Elysium Healthcare", "website": "https://www.elysiumhealthcare.co.uk/location/pinhoe-view-2/"}}, {"name": "NHS Nightingale Hospital", "latitude": 50.7232417, "longitude": -3.4664588, "source": "osm", "_tags": {"addr:city": "Exeter", "addr:postcode": "EX2 7JG", "addr:street": "Moor Lane", "amenity": "hospital", "healthcare": "hospital", "name": "NHS Nightingale Hospital", "operator": "NHS", "operator:wikidata": "Q918396", "website": "https://nightingale-exeter.nhs.uk/"}}, {"name": "Abbey Surgery", "latitude": 50.4800023, "longitude": -4.1920859, "source": "osm", "_tags": {"addr:city": "Yelverton", "addr:housename": "Health Authority Pcss, The Surgery", "addr:postcode": "PL20 7EJ", "addr:street": "Station Road", "building": "yes", "building:levels": "1", "healthcare": "hospital", "name": "Abbey Surgery"}}, {"name": "", "latitude": 50.5479884, "longitude": -4.1483032, "source": "osm", "_tags": {"amenity": "hospital", "healthcare": "hospital"}}, {"name": "Newton Abbot Community Hospital", "latitude": 50.5394246, "longitude": -3.6134386, "source": "osm", "_tags": {"addr:city": "Newton Abbot", "addr:postcode": "TQ12 2TS", "amenity": "hospital", "building": "hospital", "healthcare": "hospital", "name": "Newton Abbot Community Hospital", "nohousenumber": "yes", "source": "Bing", "source:postcode": "ons_opendata_postcodes"}}, {"name": "Wonford House Hospital", "latitude": 50.7150324, "longitude": -3.5051691, "source": "osm", "_tags": {"amenity": "hospital", "healthcare": "hospital", "name": "Wonford House Hospital", "type": "multipolygon"}}]