[{"name": "Clinique du Sport Namur", "latitude": 50.4650461, "longitude": 4.8966506, "source": "osm", "_tags": {"addr:city": "Jambes", "addr:housenumber": "477", "addr:postcode": "5100", "addr:street": "chaussée de Liège", "amenity": "hospital", "emergency": "no", "healthcare": "hospital", "healthcare:speciality": "sports;kinesitherapy;orthopedics;doctor;physiotherapy", "name": "Clinique du Sport Namur", "operator": "CSN Sprl"}}, {"name": "ISoSL Services Les Pléiades", "latitude": 50.6478537, "longitude": 5.5698971, "source": "osm", "_tags": {"amenity": "hospital", "healthcare": "rehabilitation", "name": "ISoSL Services Les Pléiades", "operator": "ISoSL", "website": "https://www.isosl.be/Health/careunit.aspx?id=33f75a6d-5104-4879-967c-b44fb4b388d6"}}, {"name": "Centre Hospitalier du Bois de l'Abbaye", "latitude": 50.5810583, "longitude": 5.4936102, "source": "osm", "_tags": {"addr:housenumber": "40", "addr:street": "Rue Laplace", "amenity": "hospital", "healthcare": "hospital", "name": "Centre Hospitalier du Bois de l'Abbaye", "wheelchair": "yes"}}, {"name": "AZ Vesalius - Campus Tongeren", "latitude": 50.7892667, "longitude": 5.4832431, "source": "osm", "_tags": {"addr:city": "Tongeren", "addr:housenumber": "51", "addr:postcode": "3700", "addr:street": "Hazelereik", "alt_name": "A.Z. Vesalius", "amenity": "hospital", "emergency": "yes", "healthcare": "hospital", "name": "AZ Vesalius - Campus Tongeren", "phone": "+32 12 39 61 11", "website": "https://www.azvesalius.be/"}}, {"name": "Clinique CHC MontLégia", "latitude": 50.6482944, "longitude": 5.5345694, "source": "osm", "_tags": {"addr:city": "Liège", "addr:housenumber": "2", "addr:postcode": "4000", "addr:street": "Boulevard Patience et Beaujonc", "amenity": "hospital", "emergency": "yes", "healthcare": "hospital", "name": "Clinique CHC MontLégia", "operator": "Groupe santé CHC", "operator:type": "private", "phone": "+32 4 355 50 00", "website": "https://www.chc.be/Etablissements/Clinique-CHC-MontLegia", "wheelchair": "yes", "wikidata": "Q19952146", "wikimedia_commons": "Category:Clinique du Mont Légia (Liège)", "wikipedia": "fr:Clinique CHC MontLégia"}}, {"name": "Clinique universitaire de Mont-Godinne", "latitude": 50.3584661, "longitude": 4.8825405, "source": "osm", "_tags": {"addr:housenumber": "1", "addr:street": "Avenue Docteur Gaston Thérasse", "amenity": "hospital", "emergency": "yes", "emergency_ward": "complete", "healthcare": "hospital", "healthcare:speciality": "general", "name": "Clinique universitaire de Mont-Godinne", "operator": "CHU UCL Namur", "ref:fps_health:campus": "3280", "ref:fps_health:recognition": "39", "website": "https://www.chuuclnamur.be/"}}, {"name": "Hôpital de Marche", "latitude": 50.2276995, "longitude": 5.3234407, "source": "osm", "_tags": {"addr:city": "Aye", "addr:housenumber": "21", "addr:postcode": "6900", "addr:street": "Rue du Vivier", "amenity": "hospital", "emergency": "yes", "emergency_ward": "complete", "healthcare:speciality": "general", "name": "Hôpital de Marche", "official_name": "Vivalia - Hopital De Marche", "operator": "Vivalia", "operator:type": "public", "phone": "+32 63 55 12 00", "ref:fps_health:campus": "3230", "ref:fps_health:recognition": "164", "website": "https://www.vivalia.be/hopital-de-marche"}}, {"name": "Hôpital Neuro-Psychiatrique Saint-Martin", "latitude": 50.4279789, "longitude": 4.8785167, "source": "osm", "_tags": {"addr:city": "Dave", "addr:housenumber": "84", "addr:postcode": "5100", "addr:street": "Rue du Fort de Dave", "amenity": "hospital", "emergency": "no", "healthcare": "hospital", "name": "Hôpital Neuro-Psychiatrique Saint-Martin", "social_facility": "group_home", "social_facility:for": "mental_health", "source": "bing"}}, {"name": "Clinique Sainte-Élisabeth", "latitude": 50.46015, "longitude": 4.8446545, "source": "osm", "_tags": {"addr:city": "Namur", "addr:housenumber": "15", "addr:postcode": "5000", "addr:street": "Place Louise Godin", "amenity": "hospital", "emergency": "yes", "emergency_ward": "complete", "healthcare": "hospital", "healthcare:speciality": "general", "name": "Clinique Sainte-Élisabeth", "operator": "CHU UCL Namur", "ref:fps_health:campus": "3290", "ref:fps_health:recognition": "166", "website": "https://www.cmsenamur.be", "wikidata": "Q29576408"}}, {"name": "Centre Hospitalier Régional de Huy", "latitude": 50.5142503, "longitude": 5.2402453, "source": "osm", "_tags": {"addr:city": "Huy", "addr:housenumber": "2", "addr:postcode": "4500", "addr:street": "Rue des Trois Ponts", "amenity": "hospital", "emergency": "yes", "emergency_ward": "complete", "healthcare": "hospital", "healthcare:speciality": "general", "name": "Centre Hospitalier Régional de Huy", "phone": "+32 85 27 21 11", "ref:fps_health:campus": "2870", "ref:fps_health:recognition": "68", "source": "bing", "website": "https://www.chrh.be/", "wheelchair": "limited"}}, {"name": "Hôpital Pèrî", "latitude": 50.6492335, "longitude": 5.570498, "source": "osm", "_tags": {"addr:housenumber": "4B", "addr:street": "Montagne Sainte-Walburge", "amenity": "hospital", "building": "yes", "healthcare": "hospital", "name": "Hôpital Pèrî", "old_name": "Hôpital Le Péri", "operator": "ISoSL", "website": "https://www.isosl.be/Health/hospital.aspx?id=2edc34ae-82fe-4399-92b3-f755402ea323", "wheelchair": "yes"}}, {"name": "Clinique du Château Rouge", "latitude": 50.6723148, "longitude": 5.6378853, "source": "osm", "_tags": {"amenity": "hospital", "healthcare": "hospital", "name": "Clinique du Château Rouge"}}, {"name": "Clinique André Renard", "latitude": 50.6747213, "longitude": 5.6333237, "source": "osm", "_tags": {"amenity": "hospital", "healthcare": "hospital", "name": "Clinique André Renard"}}, {"name": "Hôpital de jour La Clé", "latitude": 50.6458504, "longitude": 5.5926456, "source": "osm", "_tags": {"addr:city": "Liège", "addr:country": "BE", "addr:housenumber": "153", "addr:postcode": "4020", "addr:street": "Boulevard de la Constitution", "amenity": "hospital", "beds": "30", "building": "hospital", "emergency": "no", "healthcare": "hospital", "name": "Hôpital de jour La Clé", "website": "https://www.hjulacle.be"}}, {"name": "Clinique CHC Waremme", "latitude": 50.6910333, "longitude": 5.2437036, "source": "osm", "_tags": {"addr:city": "Waremme", "addr:housenumber": "47", "addr:postcode": "4300", "addr:street": "Rue Edmond de Sélys-Longchamps", "amenity": "hospital", "emergency": "yes", "emergency_ward": "complete", "healthcare": "hospital", "healthcare:speciality": "general;psychiatry", "landuse": "residential", "name": "Clinique CHC Waremme", "old_name": "Clinique Notre Dame", "operator": "Groupe santé CHC", "operator:type": "private", "phone": "+32 19 33 94 11", "ref:fps_health:campus": "2930", "ref:fps_health:recognition": "152", "website": "https://www.chc.be/Etablissements/Clinique-CHC-Waremme", "wheelchair": "yes"}}, {"name": "Vivalia Cup - Hôpital psychiatrique La Clairière", "latitude": 49.836605, "longitude": 5.2663377, "source": "osm", "_tags": {"addr:housenumber": "100", "addr:street": "Route des Ardoisières", "amenity": "hospital", "emergency": "no", "healthcare": "hospital", "healthcare:speciality": "psychiatry", "name": "Vivalia Cup - Hôpital psychiatrique La Clairière"}}, {"name": "Asster Psychiatrische ziekenhuis Campus Stad", "latitude": 50.8124865, "longitude": 5.1760678, "source": "osm", "_tags": {"amenity": "hospital", "healthcare": "hospital", "healthcare:speciality": "psychiatry", "name": "Asster Psychiatrische ziekenhuis Campus Stad", "old_name": "Ziekeren"}}, {"name": "RZ Tienen - Campus Mariëndal", "latitude": 50.8108722, "longitude": 4.9333821, "source": "osm", "_tags": {"addr:housenumber": "45", "addr:postcode": "3300", "addr:street": "Kliniekstraat", "amenity": "hospital", "emergency": "yes", "emergency_ward": "complete", "healthcare": "hospital", "healthcare:speciality": "general", "name": "RZ Tienen - Campus Mariëndal", "phone": "+32 16 80 90 11", "ref:fps_health:campus": "1370", "ref:fps_health:recognition": "109", "short_name": "RZ Tienen", "website": "https://www.rztienen.be/"}}, {"name": "Campus Sint-Jan", "latitude": 50.8147985, "longitude": 4.940679, "source": "osm", "_tags": {"addr:city": "Tienen", "addr:country": "BE", "addr:housenumber": "115", "addr:postcode": "3300", "addr:province": "Vlaams-Brabant", "addr:street": "Houtemstraat", "amenity": "hospital", "healthcare": "hospital", "name": "Campus Sint-Jan"}}, {"name": "C.H.U. Notre-dame des Bruyères", "latitude": 50.6230255, "longitude": 5.6367651, "source": "osm", "_tags": {"addr:housenumber": "600", "addr:street": "Rue de Gaillarmont", "amenity": "hospital", "emergency": "yes", "healthcare": "hospital", "loc_name": "Clinique des Bruyères", "name": "C.H.U. Notre-dame des Bruyères", "short_name": "Clinique des Bruyères"}}, {"name": "Centre Hospitalier Bois de l'Abbaye - Joseph Wauters", "latitude": 50.6918411, "longitude": 5.2487857, "source": "osm", "_tags": {"addr:housenumber": "2", "addr:street": "Avenue de la Résistance", "amenity": "hospital", "healthcare": "hospital", "name": "Centre Hospitalier Bois de l'Abbaye - Joseph Wauters"}}, {"name": "CHU Esneux Polyclinique", "latitude": 50.532282, "longitude": 5.5778416, "source": "osm", "_tags": {"addr:city": "Esneux", "addr:housenumber": "33", "addr:postcode": "4130", "addr:street": "Rue Grandfosse", "alt_name": "CHU de Liège Site Ourthe-Amblève", "amenity": "hospital", "building": "hospital", "emergency": "no", "healthcare": "hospital", "name": "CHU Esneux Polyclinique", "website": "https://www.chuliege.be/jcms/c2_17079296/fr/site-ourthe-ambleve"}}, {"name": "CHU Esneux Polyclinique", "latitude": 50.5321127, "longitude": 5.5761336, "source": "osm", "_tags": {"addr:city": "Esneux", "addr:housenumber": "25-27", "addr:postcode": "4130", "addr:street": "Rue Grandfosse", "alt_name": "CHU de Liège Site Ourthe-Amblève", "amenity": "hospital", "building": "hospital", "emergency": "no", "healthcare": "hospital", "name": "CHU Esneux Polyclinique", "website": "https://www.chuliege.be/jcms/c2_17079296/fr/site-ourthe-ambleve"}}, {"name": "Centre Medical Mosan", "latitude": 50.675792, "longitude": 5.542146, "source": "osm", "_tags": {"addr:city": "Rocourt", "addr:housenumber": "122", "addr:postcode": "4000", "addr:street": "Rue de Lantin", "amenity": "hospital", "building": "yes", "healthcare": "hospital", "name": "Centre Medical Mosan", "phone": "+32 4 247 81 20", "website": "https://www.centre-medical-mosan.be"}}, {"name": "Hôpital Saint-Vincent", "latitude": 50.2645719, "longitude": 4.9450597, "source": "osm", "_tags": {"addr:city": "Dinant", "addr:country": "BE", "addr:housenumber": "501", "addr:postcode": "5500", "addr:street": "Rue Saint-Jacques", "amenity": "hospital", "emergency": "yes", "emergency_ward": "complete", "healthcare:speciality": "general", "name": "Hôpital Saint-Vincent", "name:etymology:wikidata": "Q108247", "operator": "CHU UCL Namur | Site de Dinant", "ref:fps_health:campus": "3260", "ref:fps_health:recognition": "264", "website": "https://www.chdinant.be"}}, {"name": "Hôpital de la Citadelle (CHR)", "latitude": 50.6521225, "longitude": 5.5780945, "source": "osm", "_tags": {"amenity": "hospital", "healthcare": "hospital", "name": "Hôpital de la Citadelle (CHR)", "wikidata": "Q2945738", "wikimedia_commons": "Category:Centre hospitalier régional de la Citadelle", "wikipedia": "fr:Centre hospitalier régional de la Citadelle"}}, {"name": "Hôpital de Libramont", "latitude": 49.9251593, "longitude": 5.3798595, "source": "osm", "_tags": {"addr:housenumber": "35", "addr:street": "Avenue de Houffalize", "amenity": "hospital", "emergency": "yes", "emergency_ward": "complete", "healthcare": "hospital", "healthcare:speciality": "general", "name": "Hôpital de Libramont", "operator": "Vivalia", "ref:fps_health:campus": "3240", "ref:fps_health:recognition": "168", "website": "https://www.vivalia.be/hopital-de-libramont"}}, {"name": "Clinique des Houx", "latitude": 50.5509919, "longitude": 5.4081661, "source": "osm", "_tags": {"addr:housenumber": "41D", "addr:street": "Aux Houx", "amenity": "hospital", "building": "yes", "check_date": "2025-05-11", "healthcare": "hospital", "healthcare:speciality": "plastic_surgery", "name": "Clinique des Houx"}}, {"name": "Centre Neurologique et de Réadaptation Fonctionnelle", "latitude": 50.4859673, "longitude": 5.4328033, "source": "osm", "_tags": {"addr:city": "Fraiture", "addr:housenumber": "30", "addr:postcode": "4557", "addr:street": "Champ des Alouettes", "alt_name": "Centre Neurologique de Fraiture", "amenity": "hospital", "healthcare": "hospital", "healthcare:speciality": "neurology", "name": "Centre Neurologique et de Réadaptation Fonctionnelle", "short_name": "CNRF"}}, {"name": "Polyclinique Universitaire d'Aywaille (CHU Liège)", "latitude": 50.4723781, "longitude": 5.6681551, "source": "osm", "_tags": {"amenity": "hospital", "building": "yes", "name": "Polyclinique Universitaire d'Aywaille (CHU Liège)"}}, {"name": "Centre Hospitalier Spécialisé Notre-Dame des Anges", "latitude": 50.6469425, "longitude": 5.5450429, "source": "osm", "_tags": {"addr:housenumber": "67", "addr:street": "Rue Émile Vandervelde", "amenity": "hospital", "emergency": "no", "healthcare": "psychotherapist", "name": "Centre Hospitalier Spécialisé Notre-Dame des Anges", "operator": "Centre Hospitalier Spécialisé Notre-Dame des Anges asbl", "website": "https://www.cnda.be"}}, {"name": "Hôpital psychiatrique Le Petit Bourgogne", "latitude": 50.6145051, "longitude": 5.5576032, "source": "osm", "_tags": {"addr:housenumber": "84", "addr:street": "Rue Professeur Mahaim", "amenity": "hospital", "healthcare": "psychotherapist", "name": "Hôpital psychiatrique Le Petit Bourgogne", "name:uk": "Психіатрична лікарня імені Le Petit Bourgogne"}}, {"name": "Centre Hospitalier de Nouzonville", "latitude": 49.8154332, "longitude": 4.7473678, "source": "osm", "_tags": {"amenity": "hospital", "check_date": "2024-03-24", "healthcare": "hospital", "name": "Centre Hospitalier de Nouzonville", "ref:FR:FINESS": "080000300", "type:FR:FINESS": "355"}}, {"name": "Hôpital de Bastogne", "latitude": 50.0121708, "longitude": 5.7222804, "source": "osm", "_tags": {"addr:housenumber": "1", "addr:street": "Chaussée de Houffalize", "amenity": "hospital", "emergency": "yes", "emergency_ward": "complete", "healthcare:speciality": "general", "name": "Hôpital de Bastogne", "official_name": "Vivalia - Hopital De Bastogne", "old_name": "Vivalia - Hopital Sainte-Therese", "ref:fps_health:campus": "3720", "ref:fps_health:recognition": "168", "website": "https://www.vivalia.be/hopital-de-bastogne"}}, {"name": "Polyclinique du Mont Falise", "latitude": 50.5352698, "longitude": 5.2431963, "source": "osm", "_tags": {"addr:housenumber": "139", "addr:street": "Chaussée de Waremme", "amenity": "hospital", "healthcare": "hospital", "name": "Polyclinique du Mont Falise"}}, {"name": "Clinique CHC Hermalle", "latitude": 50.7316463, "longitude": 5.6876828, "source": "osm", "_tags": {"amenity": "hospital", "emergency": "yes", "healthcare": "hospital", "name": "Clinique CHC Hermalle", "operator": "Groupe santé CHC", "operator:type": "private", "phone": "+32 4 374 70 00", "website": "https://www.chc.be/Etablissements/Clinique-CHC-Hermalle", "wheelchair": "yes"}}, {"name": "Centre Hospitalier Universitaire de Liège (CHU)", "latitude": 50.5725223, "longitude": 5.5679391, "source": "osm", "_tags": {"addr:city": "Liège", "addr:country": "BE", "addr:suburb": "Sart Tilman", "alt_name": "CHU de Liège", "amenity": "hospital", "emergency": "yes", "name": "Centre Hospitalier Universitaire de Liège (CHU)", "website": "https://www.chuliege.be", "wikidata": "Q2945766"}}, {"name": "Policliniques Universitaires d'Ougrée", "latitude": 50.6062388, "longitude": 5.5413059, "source": "osm", "_tags": {"addr:street": "Esplanade de la Mairie", "amenity": "hospital", "healthcare": "hospital", "name": "Policliniques Universitaires d'Ougrée"}}, {"name": "Citadelle  Site Laveu", "latitude": 50.6303196, "longitude": 5.5561673, "source": "osm", "_tags": {"amenity": "hospital", "emergency": "yes", "healthcare": "hospital", "name": "Citadelle  Site Laveu", "operator": "Clinique Sainte-Rosalie", "phone": "+32 4 321 72 11", "website": "https://www.citadelle.be/L-hopital/Nos-sites/Site-Laveu.aspx"}}, {"name": "Hôpital Agora ISoSL", "latitude": 50.6481293, "longitude": 5.5707995, "source": "osm", "_tags": {"addr:housenumber": "4A", "addr:street": "Montagne Sainte-Walburge", "amenity": "hospital", "fixme": "verify outline", "healthcare": "hospital", "name": "Hôpital Agora ISoSL", "operator": "ISoSL", "website": "https://www.isosl.be/Health/hospital.aspx?id=22ae00df-9e2b-4a72-815b-d1848ffac695"}}, {"name": "Centre Louis Hillier", "latitude": 50.6322823, "longitude": 5.5496996, "source": "osm", "_tags": {"addr:housenumber": "10", "addr:street": "Boulevard Louis Hillier", "amenity": "hospital", "healthcare": "hospital", "healthcare:speciality": "psychiatry", "name": "Centre Louis Hillier", "website": "https://www.isosl.be/org/site.aspx?id=aa98fee2-f6c6-4ceb-bdb2-7c94d9d79260"}}, {"name": "CHR Sambre & Meuse - Site Meuse", "latitude": 50.467608, "longitude": 4.8866879, "source": "osm", "_tags": {"addr:city": "Namur", "addr:country": "BE", "addr:housenumber": "185", "addr:postcode": "5000", "addr:street": "Avenue Albert 1er", "amenity": "hospital", "emergency": "yes", "emergency_ward": "complete", "healthcare": "hospital", "healthcare:speciality": "general", "name": "CHR Sambre & Meuse - Site Meuse", "phone": "+32 81 72 61 11", "ref:fps_health:campus": "3300", "ref:fps_health:recognition": "6", "website": "https://meuse.chrsm.be/"}}, {"name": "Clinique Saint-Luc Bouge", "latitude": 50.4772401, "longitude": 4.8803688, "source": "osm", "_tags": {"amenity": "hospital", "emergency": "yes", "healthcare": "hospital", "healthcare:speciality": "general", "name": "Clinique Saint-Luc Bouge", "operator": "Clinique Saint-Luc", "phone": "+32 81 20 91 11", "website": "https://slbo.be/centre/clinique-saint-luc-bouge/", "wheelchair": "yes"}}, {"name": "CHU de Liège - Sart-Tilman", "latitude": 50.5721693, "longitude": 5.5670293, "source": "osm", "_tags": {"addr:city": "Liège", "addr:country": "BE", "addr:suburb": "Sart Tilman", "amenity": "hospital", "building": "hospital", "healthcare": "hospital", "name": "CHU de Liège - Sart-Tilman", "type": "multipolygon"}}, {"name": "Hôpital Valdor", "latitude": 50.6342469, "longitude": 5.589288, "source": "osm", "_tags": {"addr:housenumber": "145", "addr:street": "Rue Basse-Wez", "amenity": "hospital", "building": "yes", "name": "Hôpital Valdor", "operator": "Intercommunale de Soins Spécialisés de Liège", "source:geometry": "outdated", "source:geometry:ref": "Picc/1952066", "type": "multipolygon", "website": "https://www.isosl.be"}}]