[{"name": "ZSVA/AEMP", "latitude": 49.867554, "longitude": 10.8919957, "source": "osm", "_tags": {"amenity": "hospital", "emergency": "no", "healthcare": "hospital", "level": "4", "name": "ZSVA/AEMP", "operator": "Service Gesellschaft Sozialstiftung Bamberg mbH", "operator:type": "private"}}, {"name": "Defibrilatorstandort", "latitude": 50.4315635, "longitude": 11.0245546, "source": "osm", "_tags": {"amenity": "hospital", "emergency": "yes", "healthcare": "hospital", "name": "Defibrilatorstandort"}}, {"name": "Bezirkskrankenhaus", "latitude": 49.9560931, "longitude": 11.5689933, "source": "osm", "_tags": {"addr:city": "Bayreuth", "addr:housenumber": "2", "addr:postcode": "95445", "addr:street": "Nordring", "amenity": "hospital", "healthcare": "hospital", "healthcare:speciality": "psychiatry", "name": "Bezirkskrankenhaus", "operator": "Bezirk Oberfranken", "phone": "+49 921 2830", "toilets:wheelchair": "yes", "website": "http://www.bezirkskliniken-oberfranken.de/pages/php/list_aktuelles_bayreuth.php", "wheelchair": "yes", "wheelchair:description": "Psychiatrisches Krankenhaus", "wikidata": "Q854261"}}, {"name": "Klinikum Bayreuth", "latitude": 49.9435669, "longitude": 11.5323759, "source": "osm", "_tags": {"addr:city": "Bayreuth", "addr:housenumber": "101", "addr:postcode": "95445", "addr:street": "Preuschwitzer Straße", "amenity": "hospital", "blind:description:de": "Haupteingang: Taktiles Blindenleitsystem führt aus dem dem Außenbereich in den Innenbereich.", "healthcare": "hospital", "name": "Klinikum Bayreuth", "operator": "Klinikum Bayreuth GmbH", "phone": "+49 921 40000", "toilets:wheelchair": "yes", "website": "https://klinikum-bayreuth.de/", "wheelchair": "yes", "wikidata": "Q13497549"}}, {"name": "Klinik Hohe Warte", "latitude": 49.9684122, "longitude": 11.5839674, "source": "osm", "_tags": {"addr:city": "Bayreuth", "addr:housenumber": "8", "addr:postcode": "95445", "addr:street": "Hohe Warte", "amenity": "hospital", "emergency": "yes", "healthcare": "hospital", "name": "Klinik Hohe Warte", "phone": "+49 921 40001", "toilets:wheelchair": "yes", "website": "https://klinikum-bayreuth.de/", "wheelchair": "yes", "wheelchair:description": "automatischer Türöffner Schwelle 0 cm Tür B 90 cm Aufzug Zugang über Ebene 2 Therapiegebäude E3 WC Tür B 98 cm WC H 46 cm Platz L v.WC 178 cm Platz R v.WC 89 cm davor 165 cm Klappgriff H 85 cm Waschtisch H 83 cm Spiegel H 91-171 cm Kleiderhaken 112 cm.", "wikidata": "Q1774564"}}, {"name": "Juraklinik Scheßlitz", "latitude": 49.978936, "longitude": 11.0379438, "source": "osm", "_tags": {"amenity": "hospital", "contact:website": "https://gkg-bamberg.de/klinik/juraklinik/", "healthcare": "hospital", "name": "Juraklinik Scheßlitz", "operator": "GKG"}}, {"name": "Bezirksklinikum Obermain", "latitude": 50.0494937, "longitude": 10.9712418, "source": "osm", "_tags": {"amenity": "hospital", "healthcare": "hospital", "name": "Bezirksklinikum Obermain", "phone": "+49 9547 810", "website": "https://www.gebo-med.de/standorte/bezirksklinikum-obermain", "wikidata": "Q854251"}}, {"name": "Klinikum Coburg", "latitude": 50.2468733, "longitude": 10.9731559, "source": "osm", "_tags": {"addr:city": "Coburg", "addr:country": "DE", "addr:housenumber": "33", "addr:postcode": "96450", "addr:street": "Ketschendorfer Straße", "amenity": "hospital", "building": "yes", "healthcare": "hospital", "name": "Klinikum Coburg", "phone": "+49-9561-22-0", "toilets:wheelchair": "no", "wheelchair": "yes", "wheelchair:description": "Kein geschultes Personal für Rollstuhlfahrer*innen und querscnittsgelähmte Personen.", "wikidata": "Q1774603", "wikipedia": "de:Klinikum Coburg"}}, {"name": "Hennebergklinik", "latitude": 50.5082005, "longitude": 10.7546761, "source": "osm", "_tags": {"amenity": "hospital", "building": "yes", "emergency": "yes", "healthcare": "hospital", "name": "Hennebergklinik", "toilets:wheelchair": "yes", "wheelchair": "yes"}}, {"name": "Ilm-Kreis-Kliniken Arnstadt-Ilmenau - Standort Ilmenau", "latitude": 50.6787084, "longitude": 10.9176093, "source": "osm", "_tags": {"addr:city": "Ilmenau", "addr:country": "DE", "addr:housenumber": "26", "addr:postcode": "98693", "addr:street": "Krankenhausstraße", "amenity": "hospital", "contact:fax": "+49 3677 882035", "contact:phone": "+49 3677 606-0", "contact:website": "http://www.ilm-kreis-kliniken.de/", "emergency": "yes", "healthcare": "hospital", "healthcare:speciality": "intensive;emergency;cardiology;internal;radiology;orthopaedics;surgery", "name": "Ilm-Kreis-Kliniken Arnstadt-Ilmenau - Standort Ilmenau", "operator": "Ilm-Kreis-Kliniken Arnstadt-Ilmenau gGmbH, Bärwinkelstr. 33, 99310 Arnstadt", "short_name": "KH Ilmenau", "wheelchair": "yes"}}, {"name": "Fachklinik Haus Immanuel", "latitude": 50.0392391, "longitude": 11.414936, "source": "osm", "_tags": {"amenity": "hospital", "name": "Fachklinik Haus Immanuel", "wikidata": "Q22916063"}}, {"name": "REGIOMED Klinikum Sonneberg/Neuhaus", "latitude": 50.3539763, "longitude": 11.162693, "source": "osm", "_tags": {"addr:city": "Sonneberg", "addr:housenumber": "61", "addr:postcode": "96515", "addr:street": "Neustadter Straße", "amenity": "hospital", "check_date": "2024-03-06", "emergency": "yes", "healthcare": "hospital", "name": "REGIOMED Klinikum Sonneberg/Neuhaus", "short_name": "KH Sonneberg", "toilets:wheelchair": "yes", "website": "https://www.regiomed-kliniken.de/", "wheelchair": "yes", "wikipedia": "de:Medinos-Kliniken Sonneberg/Neuhaus"}}, {"name": "Helios Fachklinken Hildburghausen", "latitude": 50.4251195, "longitude": 10.7419977, "source": "osm", "_tags": {"addr:city": "Hildburghausen", "addr:country": "DE", "addr:postcode": "98646", "addr:street": "Eisfelder Straße", "amenity": "hospital", "contact:phone": "+49 3685 7760", "contact:website": "https://www.helios-gesundheit.de/standorte-angebote/kliniken/hildburghausen/", "healthcare": "hospital", "healthcare:speciality": "psychiatry", "name": "Helios Fachklinken Hildburghausen", "operator": "Helios Kliniken", "operator:wikidata": "Q1254151", "operator:wikipedia": "de:Helios Kliniken", "short_name": "KH Hildburghausen"}}, {"name": "Mutter-und-Kind-Kurklinik Regenbogenland", "latitude": 50.5300921, "longitude": 11.611574, "source": "osm", "_tags": {"amenity": "hospital", "building": "yes", "check_date": "2023-05-25", "healthcare": "rehabilitation", "name": "Mutter-und-Kind-Kurklinik Regenbogenland", "source": "bing"}}, {"name": "Krankenhaus Neustadt bei Coburg", "latitude": 50.3267672, "longitude": 11.1283948, "source": "osm", "_tags": {"amenity": "hospital", "emergency": "yes", "name": "Krankenhaus Neustadt bei Coburg", "wheelchair": "yes"}}, {"name": "Steigerwaldklinik Burgebrach", "latitude": 49.8189069, "longitude": 10.731628, "source": "osm", "_tags": {"amenity": "hospital", "healthcare": "hospital", "name": "Steigerwaldklinik Burgebrach"}}, {"name": "Steigerwaldklinik", "latitude": 49.8191769, "longitude": 10.7313269, "source": "osm", "_tags": {"amenity": "hospital", "name": "Steigerwaldklinik"}}, {"name": "Klinikum am Bruderwald", "latitude": 49.8673665, "longitude": 10.8906281, "source": "osm", "_tags": {"addr:city": "Bamberg", "addr:country": "DE", "addr:housenumber": "80", "addr:postcode": "96049", "addr:street": "Buger Straße", "amenity": "hospital", "contact:email": "info@sozialstiftung-bamberg.de", "contact:fax": "+49 951 50311009", "contact:phone": "+49 951 5030", "contact:website": "https://www.sozialstiftung-bamberg.de/klinikum-bamberg/", "emergency": "yes", "healthcare": "hospital", "name": "Klinikum am Bruderwald", "opening_hours": "24/7", "operator": "Sozialstiftung Bamberg", "operator:type": "public", "toilets:wheelchair": "yes", "wheelchair": "limited", "wikidata": "Q18022269"}}, {"name": "Fachklinik Stadtsteinach", "latitude": 50.1662145, "longitude": 11.500873, "source": "osm", "_tags": {"amenity": "hospital", "check_date": "2025-05-12", "healthcare": "hospital", "name": "Fachklinik Stadtsteinach", "wheelchair": "yes"}}, {"name": "Thüringen-Kliniken \"Georgius Agricola\"- Standort Rudolstadt", "latitude": 50.7071499, "longitude": 11.3156061, "source": "osm", "_tags": {"addr:city": "Rudolstadt", "addr:housenumber": "2-4", "addr:postcode": "07407", "addr:street": "Hugo-Trinckler-Straße", "amenity": "hospital", "check_date": "2025-05-03", "contact:website": "http://www.thueringen-klinik.de", "emergency": "yes", "healthcare": "hospital", "name": "Thüringen-Kliniken \"Georgius Agricola\"- Standort Rudolstadt", "operator": "Thüringen-Kliniken \"Georgius Agricola\" GmbH", "short_name": "KH Rudolstadt", "shortest_name": "TKR", "toilets": "yes", "toilets:wheelchair": "yes", "wheelchair": "yes"}}, {"name": "Klinik an der Weißenburg", "latitude": 50.731318, "longitude": 11.4483644, "source": "osm", "_tags": {"addr:city": "Uhlstädt-Kirchhasel", "addr:housenumber": "1", "addr:postcode": "07407", "addr:street": "Weißen", "amenity": "hospital", "emergency": "no", "healthcare": "hospital", "name": "Klinik an der Weißenburg"}}, {"name": "Sani-Hütte", "latitude": 50.4323574, "longitude": 11.0253395, "source": "osm", "_tags": {"amenity": "hospital", "building": "yes", "emergency": "no", "healthcare": "hospital", "name": "Sani-Hütte"}}, {"name": "Gesundheitszentrum \"Am Rennsteig\"", "latitude": 50.4723281, "longitude": 11.0817159, "source": "osm", "_tags": {"addr:city": "Neuhaus am Rennweg", "addr:country": "DE", "addr:housenumber": "15", "addr:postcode": "98724", "addr:street": "Schanzweg", "amenity": "hospital", "building": "hospital", "email": "Kur@awo-sonneberg.de", "fax": "+49 36704 882288", "name": "Gesundheitszentrum \"Am Rennsteig\"", "operator": "AWO Kreisverband Sonneberg e. V.", "phone": "+49 36704 8820", "website": "https://www.haus-am-rennsteig.de/", "wheelchair": "yes"}}, {"name": "Helios Frankenwaldklinik Kronach", "latitude": 50.2437656, "longitude": 11.3322307, "source": "osm", "_tags": {"addr:city": "Kronach", "addr:country": "DE", "addr:housenumber": "41", "addr:postcode": "96317", "addr:street": "Friesener Straße", "amenity": "hospital", "healthcare": "hospital", "name": "Helios Frankenwaldklinik Kronach", "operator": "Helios Kliniken", "operator:wikidata": "Q1254151", "operator:wikipedia": "de:Helios Kliniken", "toilets:wheelchair": "yes", "website": "http://www.helios-kliniken.de/klinik/kronach/", "wheelchair": "yes"}}, {"name": "Juraklinik Scheßlitz", "latitude": 49.9791108, "longitude": 11.0380742, "source": "osm", "_tags": {"addr:city": "Scheßlitz", "addr:country": "DE", "addr:housenumber": "29", "addr:postcode": "96110", "addr:street": "Oberend", "amenity": "hospital", "emergency": "yes", "healthcare": "hospital", "healthcare:speciality": "surgery;anaesthetics;intensive;internal", "name": "Juraklinik Scheßlitz", "opening_hours": "24/7", "operator": "Gemeinnützige Krankenhausgesellschaft des Landkreises Bamberg mbH", "operator:type": "public", "phone": "+49 95427790", "wikidata": "Q114009994", "wikipedia": "de:Juraklinik Scheßlitz"}}, {"name": "Thüringen-Kliniken \"Georgius Agricola\"- Standort Saalfeld", "latitude": 50.6444594, "longitude": 11.3439016, "source": "osm", "_tags": {"addr:city": "Saalfeld/Saale", "addr:country": "DE", "addr:housenumber": "68", "addr:postcode": "07318", "addr:street": "Rainweg", "amenity": "hospital", "contact:email": "kontakt@thueringen-kliniken.de", "contact:fax": "+49 3671 35074", "contact:google_plus": "https://plus.google.com/117812659503781619325", "contact:phone": "+49 3671 540", "contact:website": "http://www.thueringen-kliniken.de", "emergency": "yes", "healthcare": "hospital;psychotherapist", "healthcare:speciality": "anaesthetics;intensive;pain_therapy;surgery;dermatology;otolaryngology;internal;vascular_surgery;gynaecology;paediatrics;dental_oral_maxillo_facial_surgery;nephrology;emergency;orthopaedics;trauma;pathology;psychiatry;urology;radiology;spine_therapy", "internet_access": "wlan", "internet_access:fee": "customers", "name": "Thüringen-Kliniken \"Georgius Agricola\"- Standort Saalfeld", "name:etymology:wikidata": "Q76579", "name:etymology:wikipedia": "de:Georgius Agricola", "old_name": "Kreiskrankenhaus Saalfeld", "operator": "Thüringen-Kliniken \"Georgius Agricola\" GmbH", "operator:wikidata": "Q2430744", "operator:wikipedia": "de:Thüringen-Kliniken „Georgius Agricola“", "short_name": "KH Saalfeld;TKS", "shortest_name": "TKS", "website": "https://www.thueringen-kliniken.de/", "wheelchair": "yes"}}, {"name": "Klinikum Kulmbach", "latitude": 50.1177637, "longitude": 11.4663904, "source": "osm", "_tags": {"amenity": "hospital", "healthcare": "hospital", "name": "Klinikum Kulmbach", "toilets:wheelchair": "yes", "website": "http://www.klinikum-kulmbach.de", "wheelchair": "yes", "wikidata": "Q124389338", "wikipedia": "de:Klinikum Kulmbach"}}, {"name": "Helmuth-G.-Walther Klinikum", "latitude": 50.137809, "longitude": 11.0813193, "source": "osm", "_tags": {"amenity": "hospital", "healthcare": "hospital", "name": "Helmuth-G.-Walther Klinikum", "wheelchair": "yes"}}, {"name": "MEDIAN Klinik Bad Lobenstein", "latitude": 50.4418634, "longitude": 11.6321597, "source": "osm", "_tags": {"amenity": "hospital", "area": "yes", "emergency": "no", "name": "MEDIAN Klinik Bad Lobenstein", "operator": "MEDIAN Kliniken GmbH & Co.KG"}}, {"name": "DRK-Vorsorge- und Rehaeinrichtung für Mutter und Kind - \"Schloss Neuhaus\"", "latitude": 50.3147188, "longitude": 11.2447432, "source": "osm", "_tags": {"addr:city": "Föritztal", "addr:country": "DE", "addr:housenumber": "1", "addr:postcode": "96524", "addr:street": "Schloßbergring", "addr:suburb": "Neuhaus-Schierschnitz", "amenity": "hospital", "brand": "Deutsches Rotes Kreuz", "brand:wikidata": "Q694104", "emergency": "no", "healthcare": "hospital", "name": "DRK-Vorsorge- und Rehaeinrichtung für Mutter und Kind - \"Schloss Neuhaus\""}}, {"name": "Kliniken Hochfranken - Klinik Naila", "latitude": 50.3245857, "longitude": 11.7202997, "source": "osm", "_tags": {"addr:city": "Naila", "addr:housenumber": "45", "addr:postcode": "95119", "addr:street": "Hofer Straße", "amenity": "hospital", "check_date": "2024-05-14", "email": "info@kliniken-hochfranken.de", "emergency": "yes", "fax": "+49928260619", "healthcare": "hospital", "healthcare:speciality": "general;intensive;gynaecology;emergency;surgery;cardiology;radiology;internal;maternity", "internet_access": "wlan", "name": "Kliniken Hochfranken - Klinik Naila", "operator": "Kliniken HochFranken (Anstalt des öffentlichen Rechts)", "operator:type": "public", "phone": "+499282600", "start_date": "1957", "website": "https://www.kliniken-hochfranken.de/"}}, {"name": "Haßberg-Kliniken Haus Ebern", "latitude": 50.0972332, "longitude": 10.7982507, "source": "osm", "_tags": {"addr:city": "Ebern", "addr:country": "DE", "addr:housenumber": "21", "addr:postcode": "96106", "addr:street": "Coburger Straße", "alt_name": "Haßberg-Kliniken Ebern", "amenity": "hospital", "emergency": "yes", "healthcare": "hospital", "name": "Haßberg-Kliniken Haus Ebern", "phone": "+49-9531-628-0", "website": "https://www.hassberg-kliniken.de/kliniken-hausebn.html"}}, {"name": "Klinikum am Michelsberg", "latitude": 49.8931298, "longitude": 10.871427, "source": "osm", "_tags": {"addr:city": "Bamberg", "addr:country": "DE", "addr:housenumber": "18", "addr:postcode": "96049", "addr:street": "Sankt-Getreu-Straße", "amenity": "hospital", "contact:website": "https://www.sozialstiftung-bamberg.de/klinikum-bamberg/kliniken-und-experten/psychiatrie/", "emergency": "no", "healthcare": "hospital", "name": "Klinikum am Michelsberg", "operator": "Sozialstiftung Bamberg", "toilets:wheelchair": "yes", "wheelchair": "yes"}}, {"name": "Schön Klinik", "latitude": 50.1110989, "longitude": 10.992458, "source": "osm", "_tags": {"addr:city": "Bad Staffelstein", "addr:housenumber": "11", "addr:postcode": "96231", "addr:street": "Am Kurpark", "amenity": "hospital", "beds": "330", "healthcare": "hospital", "healthcare:speciality": "orthopaedics;psychosomatic;psychiatry;neurology", "name": "Schön Klinik", "operator": "Schön Klinik", "operator:type": "private", "operator:wikidata": "Q2258661", "phone": "+49-9573-560", "start_date": "1995", "website": "https://www.schoen-klinik.de/bad-staffelstein", "wheelchair": "yes"}}, {"name": "Klinik Bergfried Saalfeld", "latitude": 50.6322189, "longitude": 11.3707504, "source": "osm", "_tags": {"addr:city": "Saalfeld/Saale", "addr:country": "DE", "addr:housenumber": "20", "addr:postcode": "07318", "addr:street": "Zum Fuchsturm", "amenity": "hospital", "description": "Fachklinik für Psychosomatik und Psychotherapie", "healthcare": "hospital", "healthcare:speciality": "psychiatry", "name": "Klinik Bergfried Saalfeld", "operator": "Dr. Ebel Fachkliniken Verwaltungs-GmbH", "website": "https://ebel-kliniken.com/klinik-bergfried-saalfeld/"}}, {"name": "Reha-Klinik Lautergrund", "latitude": 50.067286, "longitude": 11.082662, "source": "osm", "_tags": {"amenity": "hospital", "healthcare": "hospital", "name": "Reha-Klinik Lautergrund"}}, {"name": "Fachkrankenhaus für Dermatologie Schloß Friedensburg", "latitude": 50.5653275, "longitude": 11.45887, "source": "osm", "_tags": {"addr:city": "Leutenberg", "addr:housenumber": "25", "addr:postcode": "07338", "addr:street": "Schloßstraße", "amenity": "hospital", "contact:phone": "+49 36734 800", "contact:website": "https://www.schlossfriedensburg.de", "healthcare": "hospital", "healthcare:speciality": "dermatology", "name": "Fachkrankenhaus für Dermatologie Schloß Friedensburg", "operator": "Schloss Friedensburg GmbH", "website": "https://www.schlossfriedensburg.de/startseite.html", "wikipedia": "de:Schloss_Friedensburg"}}, {"name": "REGIOMED Klinik Neuhaus", "latitude": 50.511143, "longitude": 11.1300531, "source": "osm", "_tags": {"addr:city": "Neuhaus am Rennweg", "addr:housenumber": "39", "addr:postcode": "98724", "addr:street": "Schöne Aussicht", "amenity": "hospital", "healthcare": "hospital", "name": "REGIOMED Klinik Neuhaus", "short_name": "KH Neuhaus"}}, {"name": "Thüringen-Kliniken \"Georgius Agricola\" - Standort Pößneck", "latitude": 50.6983834, "longitude": 11.5906721, "source": "osm", "_tags": {"addr:city": "Pößneck", "addr:housenumber": "8-10", "addr:postcode": "07381", "addr:street": "Hohes Gäßchen", "amenity": "hospital", "emergency": "yes", "healthcare": "hospital", "healthcare:speciality": "chiropractic;intensive", "name": "Thüringen-Kliniken \"Georgius Agricola\" - Standort Pößneck", "short_name": "KH Pößneck", "shortest_name": "TKP"}}, {"name": "Alexander-von-Humboldt-Klinik", "latitude": 50.3698487, "longitude": 11.6503927, "source": "osm", "_tags": {"amenity": "hospital", "name": "Alexander-von-Humboldt-Klinik"}}, {"name": "Fachklinik Bad Blankenburg", "latitude": 50.6758746, "longitude": 11.2664017, "source": "osm", "_tags": {"addr:city": "Bad Blankenburg", "addr:housenumber": "40", "addr:postcode": "07422", "addr:street": "Georgstraße", "amenity": "hospital", "healthcare": "hospital", "name": "Fachklinik Bad Blankenburg", "phone": "+49 36741 41490", "url": "http://www.klinik-bad-blankenburg.de"}}, {"name": "Medical Park Bad Rodach", "latitude": 50.3310299, "longitude": 10.7664796, "source": "osm", "_tags": {"addr:city": "Bad Rodach", "addr:country": "DE", "addr:housenumber": "16", "addr:postcode": "96476", "addr:street": "Kurring", "amenity": "hospital", "building": "hospital", "healthcare": "hospital", "name": "Medical Park Bad Rodach", "operator": "Medical Park", "operator:wikidata": "Q47087904", "type": "multipolygon"}}]