[{"name": "Knappschaftsklinik", "latitude": 50.2887774, "longitude": 9.3578335, "source": "osm", "_tags": {"addr:city": "Bad Soden-Salmünster", "addr:country": "DE", "addr:housenumber": "2", "addr:postcode": "63628", "addr:street": "Knappschaftsweg", "addr:suburb": "Bad Soden", "alt_name": "Knappschafts-Klinik", "amenity": "hospital", "emergency": "no", "healthcare": "rehabilitation", "name": "Knappschaftsklinik", "website": "https://www.kbs.de/DE/Kliniken/RehaKliniken/KlinikauswahlNachStandort/BadSodenSalmuenster/badsodensalmuenster_node.html"}}, {"name": "Krankenhausapotheke DRK Eichenzell", "latitude": 50.4931466, "longitude": 9.6995187, "source": "osm", "_tags": {"access": "customers", "addr:city": "Eichenzell", "addr:housename": "DRK Eichenzell", "addr:housenumber": "3", "addr:postcode": "36124", "addr:street": "Munkenstraße", "amenity": "hospital", "brand": "Deutsches Rotes Kreuz", "brand:wikidata": "Q694104", "description": "nichtöffentliche Krankenhausapotheke", "dispensing": "no", "healthcare": "hospital", "name": "Krankenhausapotheke DRK Eichenzell"}}, {"name": "Sportklinik Bad Nauheim", "latitude": 50.3526373, "longitude": 8.7433133, "source": "osm", "_tags": {"addr:city": "Bad Nauheim", "addr:country": "DE", "addr:housenumber": "30-32", "addr:postcode": "61231", "addr:street": "In der Au", "amenity": "hospital", "email": "info@sportklinik-bad-nauheim.de", "emergency": "no", "name": "Sportklinik Bad Nauheim", "operator": "MCI GmbH", "phone": "+49 6032 1880", "website": "https://www.sportpark-badnauheim.de/"}}, {"name": "KJP Tokmak - Kinder- und Jugendpsychiatrie und -psychotherapie", "latitude": 50.5396009, "longitude": 9.7140512, "source": "osm", "_tags": {"addr:city": "Künzell", "addr:housenumber": "3", "addr:postcode": "36093", "addr:street": "Friedrich-Dietz-Straße", "amenity": "hospital", "description": "Facharzt für Kinder- und Jugendpsychiatrie und -psychotherapie", "email": "info@kjp-tokmak.de", "fax": "+49 661 90198118", "healthcare": "hospital", "healthcare:speciality": "child_psychiatry", "level": "über_dem_schuhhaus_zentgraf", "name": "KJP Tokmak - Kinder- und Jugendpsychiatrie und -psychotherapie", "opening_hours": "Mo,Tu,Th 08:15-12:00,14:00-17:00; We,Fr 08:15-12:00", "operator": "Dr. med. univ. Ismayil Tokmak", "operator:type": "business", "phone": "+49 661 90198118", "website": "https://kjp-tokmak.de"}}, {"name": "St. Marien", "latitude": 50.2903286, "longitude": 9.372057, "source": "osm", "_tags": {"amenity": "hospital", "healthcare": "hospital", "healthcare:speciality": "physiatry", "name": "St. Marien", "operator": "Klinik St. Marien GmbH & Co. KG"}}, {"name": "Klinik für Psychiatrie & Psychotherapie", "latitude": 50.3343701, "longitude": 8.7421877, "source": "osm", "_tags": {"addr:city": "Friedberg (Hessen)", "addr:country": "DE", "addr:housenumber": "3", "addr:postcode": "61169", "addr:street": "Johann-Peter-Schäfer-Straße", "amenity": "hospital", "healthcare": "hospital", "name": "Klinik für Psychiatrie & Psychotherapie", "operator": "Gesundheitszentrum Wetterau gGmbH", "wheelchair": "yes"}}, {"name": "Ketteler Krankenhaus", "latitude": 50.0943532, "longitude": 8.7846122, "source": "osm", "_tags": {"addr:city": "Offenbach am Main", "addr:housenumber": "85", "addr:postcode": "63071", "addr:street": "Lichtenplattenweg", "amenity": "hospital", "fax": "+49 69 873265", "healthcare": "hospital", "name": "Ketteler Krankenhaus", "phone": "+49 69 85850", "website": "https://www.ketteler-krankenhaus.org/", "wheelchair": "yes"}}, {"name": "Bergman Clinik Hofgartenklinik Aschaffenburg", "latitude": 49.9752736, "longitude": 9.155114, "source": "osm", "_tags": {"addr:city": "Aschaffenburg", "addr:country": "DE", "addr:housenumber": "6", "addr:postcode": "63739", "addr:street": "Hofgartenstraße", "amenity": "hospital", "building": "yes", "building:levels": "3", "healthcare": "hospital", "healthcare:speciality": "orthopaedics;ophthalmology", "heritage": "4", "heritage:operator": "BLfD", "image": "http://commons.wikimedia.org/wiki/File:AB_Hofgartenstraße_Klinik.JPG", "name": "Bergman Clinik Hofgartenklinik Aschaffenburg", "operator": "Bergman Clinics", "ref:BLfD": "D-6-61-000-127", "start_date": "1913", "website": "https://www.bergmanclinics-hofgartenklinik.de/", "wikidata": "Q1270697"}}, {"name": "Universitätsklinikum Gießen und Marburg", "latitude": 50.8165448, "longitude": 8.8064273, "source": "osm", "_tags": {"addr:city": "Marburg", "addr:housenumber": "1", "addr:postcode": "35043", "addr:street": "Baldingerstraße", "amenity": "hospital", "branch": "Marburg", "emergency": "yes", "healthcare": "hospital", "healthcare:speciality": "intensive;gynaecology;dialysis;emergency;cardiology;radiology;dermatology;surgery;internal;urology;paediatrics", "name": "Universitätsklinikum Gießen und Marburg", "operator": "Rhön-Klinikum", "operator:type": "private", "operator:wikidata": "Q573604", "short_name": "UKGM", "website": "https://www.ukgm.de", "wheelchair": "yes", "wikidata": "Q2496396", "wikipedia": "de:Universitätsklinikum Gießen und Marburg"}}, {"name": "MEDIAN Klinik Odenwald", "latitude": 49.8309063, "longitude": 9.0155212, "source": "osm", "_tags": {"addr:city": "Breuberg", "addr:housenumber": "101 - 115", "addr:postcode": "64747", "addr:street": "Ernst-Ludwig-Straße", "addr:suburb": "Sandbach", "amenity": "hospital", "emergency": "no", "healthcare": "rehabilitation", "loc_name": "Ernst-Ludwig-Klinik", "name": "MEDIAN Klinik Odenwald", "old_name": "Ernst-Ludwig-Heilstätte", "old_name_2": "AHG Klinik Hardberg", "phone": "+49 6163 740", "website": "https://www.median-kliniken.de/de/median-klinik-odenwald/", "wikidata": "Q47543175", "wikipedia": "de:Median Klinik Odenwald"}}, {"name": "Sana Klinikum Offenbach", "latitude": 50.0943736, "longitude": 8.7563291, "source": "osm", "_tags": {"addr:city": "Offenbach am Main", "addr:housenumber": "66", "addr:postcode": "63069", "addr:street": "Starkenburgring", "amenity": "hospital", "emergency": "yes", "healthcare": "hospital", "name": "Sana Klinikum Offenbach", "operator": "Sana Klinikum Offenbach GmbH", "phone": "+49 69 8405-0", "toilets:wheelchair": "yes", "website": "https://www.klinikum-offenbach.de/", "wheelchair": "yes", "wikidata": "Q1750506", "wikimedia_commons": "Category:Klinikum Offenbach am Main", "wikipedia": "de:Sana Klinikum Offenbach"}}, {"name": "Klinik für Psychiatrie und Psychotherapie Vitos - Standort Marburg", "latitude": 50.7917376, "longitude": 8.7719763, "source": "osm", "_tags": {"addr:city": "Marburg", "addr:country": "DE", "addr:housenumber": "98", "addr:postcode": "35039", "addr:street": "Cappeler Straße", "amenity": "hospital", "emergency": "no", "healthcare": "hospital", "healthcare:speciality": "psychiatry", "leisure": "park", "name": "Klinik für Psychiatrie und Psychotherapie Vitos - Standort Marburg"}}, {"name": "Spessart-Klinik", "latitude": 50.2268959, "longitude": 9.3516641, "source": "osm", "_tags": {"addr:city": "Bad Orb", "addr:country": "DE", "addr:housenumber": "7-11", "addr:postcode": "63619", "addr:street": "Würzburger Straße", "amenity": "hospital", "fax": "+49 6052 87100", "healthcare": "rehabilitation", "name": "Spessart-Klinik", "operator": "Independent", "phone": "+49 6052 870", "website": "https://spessart-klinik.de/", "wheelchair": "limited"}}, {"name": "MediClin Reha-Zentrum Bad Orb", "latitude": 50.2160267, "longitude": 9.3531827, "source": "osm", "_tags": {"amenity": "hospital", "fax": "+49 6052 808649", "healthcare": "rehabilitation", "healthcare:speciality": "neurology;neuropsychology;orthopaedics", "name": "MediClin Reha-Zentrum Bad Orb", "phone": "+49 6052 8080", "website": "https://www.reha-zentrum-bad-orb.de/", "wheelchair": "yes"}}, {"name": "Kreiskrankenhaus Alsfeld", "latitude": 50.7630268, "longitude": 9.268783, "source": "osm", "_tags": {"addr:city": "Alsfeld", "addr:housenumber": "81", "addr:postcode": "36304", "addr:street": "Schwabenröder Straße", "amenity": "hospital", "check_date": "2025-01-25", "emergency": "yes", "healthcare": "hospital", "name": "Kreiskrankenhaus Alsfeld", "phone": "+49 6631 980", "short_name": "KKH Alsfeld", "website": "https://www.kkh-alsfeld.de/", "wheelchair": "yes"}}, {"name": "Sabine Frimmel Physiotherapie", "latitude": 50.6110672, "longitude": 9.3669037, "source": "osm", "_tags": {"addr:city": "Lauterbach", "addr:country": "DE", "addr:housenumber": "17", "addr:postcode": "36341", "addr:street": "Alte Obergasse", "addr:suburb": "Frischborn", "amenity": "hospital", "building": "yes", "healthcare": "psychotherapist", "name": "Sabine Frimmel Physiotherapie", "phone": "+49 6641 9118650"}}, {"name": "Psychiatrische Abteilung (Krankenhaus Eichhof)", "latitude": 50.6303978, "longitude": 9.3913864, "source": "osm", "_tags": {"building": "yes", "email": "pia@eichhof-online.de", "fax": "+49 6641 82-418", "healthcare": "hospital", "image": "https://www.eichhof-online.de/fileadmin/user_upload/eichhof-online.de/Logos-Stiftung/Logo-Krankenhaus.png", "name": "Psychiatrische Abteilung (Krankenhaus Eichhof)", "phone": "+49 6641 82-530", "website": "https://www.eichhof-online.de/krankenhaus-eichhof/fachabteilungen/psychiatrie-und-psychotherapie.html"}}, {"name": "Bürgerhospital Friedberg", "latitude": 50.3348255, "longitude": 8.7513713, "source": "osm", "_tags": {"addr:city": "Friedberg (Hessen)", "addr:country": "DE", "addr:housenumber": "3-5", "addr:postcode": "61169", "addr:street": "Ockstädter Straße", "amenity": "hospital", "check_date": "2025-08-28", "emergency": "yes", "healthcare": "hospital", "name": "Bürgerhospital Friedberg", "operator": "Gesundheitszentrum Wetterau gGmbH", "toilets:wheelchair": "yes", "website": "https://www.gz-w.de", "wheelchair": "yes"}}, {"name": "Bezirkskrankenhaus Lohr", "latitude": 49.9887406, "longitude": 9.568589, "source": "osm", "_tags": {"amenity": "hospital", "healthcare": "hospital", "name": "Bezirkskrankenhaus Lohr", "phone": "+49 9352 5030", "website": "https://www.bezirkskrankenhaus-lohr.de/", "wheelchair": "yes", "wikidata": "Q37224192", "wikipedia": "de:Bezirkskrankenhaus Lohr"}}, {"name": "Klinik Rabenstein", "latitude": 50.4193169, "longitude": 8.9859798, "source": "osm", "_tags": {"addr:city": "Nidda", "addr:housenumber": "34", "addr:postcode": "63667", "addr:street": "Kurstraße", "addr:suburb": "Bad Salzhausen", "amenity": "hospital", "building": "hospital", "name": "Klinik Rabenstein", "wheelchair": "yes"}}, {"name": "Fachklinik Neue Rhön", "latitude": 50.6870188, "longitude": 9.6881732, "source": "osm", "_tags": {"addr:city": "Burghaun", "addr:housenumber": "4", "addr:postcode": "36151", "addr:street": "Mahlertshof", "amenity": "hospital", "contact:phone": "+49 6652 9910", "contact:website": "https://neue-rhoen.de/", "healthcare": "hospital", "name": "Fachklinik Neue Rhön"}}, {"name": "Klinikum Hanau", "latitude": 50.1334486, "longitude": 8.9237507, "source": "osm", "_tags": {"addr:city": "Hanau", "addr:housenumber": "20", "addr:postcode": "63450", "addr:street": "Leimenstraße", "amenity": "hospital", "emergency": "yes", "healthcare": "hospital", "name": "Klinikum Hanau", "phone": "+49 6181 2960", "toilets:wheelchair": "yes", "website": "https://www.klinikum-hanau.de/", "wheelchair": "yes", "wikidata": "Q27890135", "wikipedia": "de:Klinikum Hanau"}}, {"name": "", "latitude": 49.8484208, "longitude": 9.6237449, "source": "osm", "_tags": {"amenity": "hospital", "healthcare": "hospital", "wheelchair": "yes"}}, {"name": "St. Vinzenz Krankenhaus", "latitude": 50.1351427, "longitude": 8.9122132, "source": "osm", "_tags": {"addr:city": "Hanau", "addr:housenumber": "25", "addr:postcode": "63450", "addr:street": "Am Frankfurter Tor", "amenity": "hospital", "emergency": "yes", "healthcare": "hospital", "name": "St. Vinzenz Krankenhaus", "phone": "+49 6181 2720", "website": "https://www.vinzenz-hanau.de/", "wheelchair": "yes", "wikidata": "Q37833463", "wikipedia": "de:St. Vinzenz-Krankenhaus Hanau"}}, {"name": "Asklepios Klinik Seligenstadt", "latitude": 50.0418547, "longitude": 8.9644898, "source": "osm", "_tags": {"addr:city": "Seligenstadt", "addr:country": "DE", "addr:housenumber": "9", "addr:postcode": "63500", "addr:street": "Dudenhöfer Straße", "amenity": "hospital", "emergency": "yes", "fax": "+49 6182 838100", "healthcare": "hospital", "name": "Asklepios Klinik Seligenstadt", "not:operator:wikidata": "Q732068", "operator": "Asklepios Kliniken GmbH & Co. KGaA", "phone": "+49 6182 830", "website": "https://www.asklepios.com/klinik/default.aspx?name=Asklepios_Klinik_Seligenstadt", "wheelchair": "yes"}}, {"name": "Vitos Kinder- und Jugendpsychiatrische Ambulanz und Tagesklinik Alsfeld", "latitude": 50.7453712, "longitude": 9.2662664, "source": "osm", "_tags": {"addr:city": "Alsfeld", "addr:country": "DE", "addr:housenumber": "37", "addr:street": "Jahnstraße", "building": "hospital", "emergency": "no", "healthcare": "hospital", "name": "Vitos Kinder- und Jugendpsychiatrische Ambulanz und Tagesklinik Alsfeld", "social_facility": "day_care"}}, {"name": "Vogelsbergklinik", "latitude": 50.5164713, "longitude": 9.3110905, "source": "osm", "_tags": {"addr:city": "Grebenhain", "addr:country": "DE", "addr:housenumber": "31", "addr:postcode": "36355", "addr:street": "Jean-Berlit-Straße", "amenity": "hospital", "building": "hospital", "fixme": "Eine Klinik mit wheelchair=no?", "name": "Vogelsbergklinik", "wheelchair": "no"}}, {"name": "Klinikum Main-Spessart", "latitude": 49.9963025, "longitude": 9.5715656, "source": "osm", "_tags": {"addr:city": "Lohr am Main", "addr:country": "DE", "addr:housenumber": "5", "addr:postcode": "97816", "addr:street": "Grafen-von-Rieneck-Straße", "amenity": "hospital", "building": "yes", "check_date": "2024-04-04", "emergency": "yes", "healthcare": "hospital", "name": "Klinikum Main-Spessart", "phone": "+49 9352 505-0", "toilets:wheelchair": "yes", "website": "https://www.klinikum-msp.de/", "wheelchair": "yes"}}, {"name": "Main-Kinzig-Kliniken Gelnhausen", "latitude": 50.2066396, "longitude": 9.181324, "source": "osm", "_tags": {"addr:city": "Gelnhausen", "addr:country": "DE", "addr:housenumber": "14", "addr:postcode": "63571", "addr:street": "Herzbachweg", "amenity": "hospital", "emergency": "yes", "fax": "+49 6051 87-2617", "healthcare": "hospital", "name": "Main-Kinzig-Kliniken Gelnhausen", "phone": "+49 6051 870", "website": "https://www.mkkliniken.de/", "wheelchair": "yes"}}, {"name": "Salus Klinik", "latitude": 50.3471215, "longitude": 8.7736648, "source": "osm", "_tags": {"addr:city": "Friedberg (Hessen)", "addr:country": "DE", "addr:housenumber": "3", "addr:postcode": "61169", "addr:street": "Warthfeldsiedlung", "amenity": "hospital", "name": "Salus Klinik"}}, {"name": "DRK Dorndiel/Klein-Umstadt", "latitude": 49.8660105, "longitude": 9.0164272, "source": "osm", "_tags": {"addr:city": "Groß-Umstadt", "addr:country": "DE", "addr:housenumber": "12", "addr:postcode": "64823", "addr:street": "Seewiese", "addr:suburb": "Dorndiel", "amenity": "hospital", "brand": "Deutsches Rotes Kreuz", "brand:wikidata": "Q694104", "building": "yes", "emergency": "no", "healthcare": "hospital", "name": "DRK Dorndiel/Klein-Umstadt"}}, {"name": "Hochwaldkrankenhaus", "latitude": 50.3571013, "longitude": 8.7296614, "source": "osm", "_tags": {"addr:city": "Bad Nauheim", "addr:country": "DE", "addr:housenumber": "1", "addr:postcode": "61231", "addr:street": "Chaumontplatz", "amenity": "hospital", "building": "hospital", "email": "info@gz-wetterau.de", "emergency": "yes", "name": "Hochwaldkrankenhaus", "operator": "Gesundheitszentrum Wetterau gGmbH", "phone": "+49 6032 7020", "website": "https://www.gesundheitszentrum-wetterau.de"}}, {"name": "Asklepios Klinik Lich", "latitude": 50.5250198, "longitude": 8.8055938, "source": "osm", "_tags": {"addr:city": "Lich", "addr:country": "DE", "addr:housenumber": "4", "addr:postcode": "35423", "addr:street": "Goethestraße", "amenity": "hospital", "healthcare": "hospital", "landuse": "commercial", "name": "Asklepios Klinik Lich"}}, {"name": "Kreiskrankenhaus Schotten", "latitude": 50.5065991, "longitude": 9.1041817, "source": "osm", "_tags": {"addr:city": "Schotten", "addr:country": "DE", "addr:housenumber": "1", "addr:postcode": "63679", "addr:street": "Wetterauer Platz", "amenity": "hospital", "name": "Kreiskrankenhaus Schotten", "operator": "Gesundheitszentrum Wetterau gGmbH", "phone": "+49 6044 610", "website": "https://www.gesundheitszentrum-wetterau.de/ueber-uns/standorte-und-betriebsstaetten/kreiskrankenhaus-schotten"}}, {"name": "Vitos Kinder- und Jugendpsychiatrie Hanau", "latitude": 50.1440823, "longitude": 8.9413197, "source": "osm", "_tags": {"addr:city": "Hanau", "addr:country": "DE", "addr:housenumber": "1a", "addr:postcode": "63452", "addr:street": "Sophie-Scholl-Platz", "amenity": "hospital", "emergency": "yes", "healthcare": "hospital", "healthcare:speciality": "child_psychiatry", "name": "Vitos Kinder- und Jugendpsychiatrie Hanau", "website": "https://www.vitos.de/gesellschaften/vitos-herborn/einrichtungen/vitos-kinder-und-jugendpsychiatrische-tagesklinik-hanau"}}, {"name": "Naturklinik", "latitude": 49.8271214, "longitude": 9.5223691, "source": "osm", "_tags": {"amenity": "hospital", "healthcare": "hospital", "name": "Naturklinik"}}, {"name": "Krankenhaus Eichhof", "latitude": 50.6296369, "longitude": 9.3903261, "source": "osm", "_tags": {"addr:city": "Lauterbach", "addr:country": "DE", "addr:housenumber": "1", "addr:postcode": "36341", "addr:street": "Eichhofstraße", "amenity": "hospital", "email": "info@eichhof-online.de", "fax": "+49 6641 82 208", "healthcare": "hospital", "image": "https://www.eichhof-online.de/fileadmin/templates/eichhof-online.de/Resources/Images/Logo-Stiftung.png", "name": "Krankenhaus Eichhof", "operator": "Eichhof-Stiftung Lauterbach", "phone": "+49 6641 82 0", "website": "https://www.eichhof-online.de/"}}, {"name": "Herz-Jesu-Krankenhaus Fulda", "latitude": 50.5633071, "longitude": 9.6733013, "source": "osm", "_tags": {"addr:city": "Fulda", "addr:housenumber": "74", "addr:postcode": "36039", "addr:street": "Buttlarstraße", "amenity": "hospital", "emergency": "yes", "fax": "+49 661 155383", "healthcare": "hospital", "name": "Herz-Jesu-Krankenhaus Fulda", "phone": "+49 661 150", "website": "https://herz-jesu-krankenhaus.de/", "wheelchair": "yes", "wikidata": "Q29904077"}}, {"name": "Universitätsmedizin Marburg Campus Fulda", "latitude": 50.5467606, "longitude": 9.7060983, "source": "osm", "_tags": {"addr:city": "Fulda", "addr:housenumber": "4", "addr:postcode": "36043", "addr:street": "Pacelliallee", "amenity": "hospital", "emergency": "yes", "healthcare": "hospital", "loc_name": "Klinikum Fulda", "name": "Universitätsmedizin Marburg Campus Fulda", "operator": "Klinikum Fulda gAG", "reg_name": "Uniklinik Marburg", "website": "https://www.klinikum-fulda.de/", "wikidata": "Q1774615"}}, {"name": "Klinik Dr. Frühauf", "latitude": 50.0911777, "longitude": 8.7889198, "source": "osm", "_tags": {"addr:city": "Offenbach am Main", "addr:housenumber": "83", "addr:postcode": "63071", "addr:street": "Scheffelstraße", "amenity": "hospital", "emergency": "no", "healthcare": "hospital", "healthcare:speciality": "internal;cardiology", "name": "Klinik Dr. Frühauf", "operator:type": "private", "phone": "+49 69 850010", "website": "https://klinik-dr-fruehauf.de/"}}, {"name": "Asklepios Neurologische Klinik Bad Salzhausen", "latitude": 50.4196877, "longitude": 8.9884644, "source": "osm", "_tags": {"amenity": "hospital", "healthcare": "hospital", "name": "Asklepios Neurologische Klinik Bad Salzhausen", "operator": "Asklepios", "wheelchair": "limited"}}, {"name": "Kerckhoff Klinik", "latitude": 50.3697055, "longitude": 8.7425366, "source": "osm", "_tags": {"addr:city": "Bad Nauheim", "addr:country": "DE", "addr:housenumber": "2 - 8", "addr:postcode": "61231", "addr:street": "Benekestraße", "amenity": "hospital", "check_date": "2024-05-28", "contact:email": "info@kerckhoff-klinik.de", "contact:fax": "+49 60 32 9 96 23 99", "contact:phone": "+49 6032 99 60", "contact:website": "https://www.kerckhoff-klinik.de/", "name": "Kerckhoff Klinik", "wheelchair": "yes", "wikidata": "Q30282241"}}, {"name": "Salztal Klinik", "latitude": 50.2840709, "longitude": 9.358733, "source": "osm", "_tags": {"addr:city": "Bad Soden-Salmünster", "addr:housenumber": "18", "addr:postcode": "63628", "addr:street": "Parkstraße", "addr:suburb": "Bad Soden", "alt_name": "Salztalklinik", "amenity": "hospital", "emergency": "no", "healthcare": "hospital", "name": "Salztal Klinik", "website": "https://www.salztalklinik.de/"}}, {"name": "Main-Kinzig-Kliniken Schlüchtern", "latitude": 50.3541778, "longitude": 9.5273952, "source": "osm", "_tags": {"addr:city": "Schlüchtern", "addr:housenumber": "17", "addr:postcode": "36381", "addr:street": "Kurfürstenstraße", "amenity": "hospital", "check_date": "2024-10-09", "contact:phone": "+49 6661 810", "contact:website": "https://www.mkkliniken.de", "emergency": "yes", "healthcare": "hospital", "name": "Main-Kinzig-Kliniken Schlüchtern", "opening_hours": "24/7"}}, {"name": "Bergman Clinics Mathilden-Hospital", "latitude": 50.2871478, "longitude": 9.1136021, "source": "osm", "_tags": {"addr:city": "Büdingen", "addr:country": "DE", "addr:housenumber": "9", "addr:postcode": "63654", "addr:street": "Am Schlag", "amenity": "hospital", "check_date": "2025-04-17", "emergency": "no", "healthcare": "hospital", "healthcare:speciality": "psychiatry", "name": "Bergman Clinics Mathilden-Hospital", "operator": "Bergman Deutsche Klinik Büdingen GmbH", "phone": "+49 6042 86-0", "website": "https://www.bergmanclinics-mathildenhospital.de/", "wheelchair": "yes"}}, {"name": "Kreisklinik Groß-Umstadt", "latitude": 49.8673068, "longitude": 8.9359288, "source": "osm", "_tags": {"amenity": "hospital", "healthcare": "hospital", "name": "Kreisklinik Groß-Umstadt", "website": "https://www.kreiskliniken-darmstadt-dieburg.de", "wheelchair": "yes"}}, {"name": "Wohnheim des Klinikums Fulda", "latitude": 50.5474191, "longitude": 9.6799376, "source": "osm", "_tags": {"amenity": "hospital", "healthcare": "hospital", "name": "Wohnheim des Klinikums Fulda"}}, {"name": "Reha-Kliniken Küppelsmühle", "latitude": 50.2125055, "longitude": 9.3587159, "source": "osm", "_tags": {"amenity": "hospital", "fax": "+49 6052 82828", "healthcare": "rehabilitation", "name": "Reha-Kliniken Küppelsmühle", "phone": "+49 6052 820", "website": "https://bad-orb.kueppelsmuehle.de/", "wheelchair": "yes"}}, {"name": "Klinikum Aschaffenburg-Alzenau", "latitude": 50.0697991, "longitude": 9.0760149, "source": "osm", "_tags": {"addr:city": "Alzenau", "addr:housenumber": "1", "addr:postcode": "63755", "addr:street": "Schloßhof", "addr:suburb": "Wasserlos", "amenity": "hospital", "description": "Klinikum Aschaffenburg-Alzenau Standort Alzenau", "emergency": "no", "name": "Klinikum Aschaffenburg-Alzenau", "phone": "+49 6023 506-0", "url": "https://www.klinikum-ab-alz.de/unternehmen/ueber-uns/klinik-geschichte/standort-alzenau", "website": "https://www.klinikum-ab-alz.de", "wheelchair": "yes"}}, {"name": "Vital Klinik", "latitude": 50.1005904, "longitude": 9.0919765, "source": "osm", "_tags": {"addr:city": "Alzenau", "addr:housenumber": "100", "addr:postcode": "63755", "addr:street": "Streuweg", "addr:suburb": "Michelbach", "amenity": "hospital", "healthcare": "clinic", "healthcare:speciality": "dermatology", "name": "Vital Klinik", "phone": "+49 6023 50590", "website": "https://www.vital-klinik.de"}}, {"name": "MEDIAN Kinzigtal-Klinik", "latitude": 50.2867588, "longitude": 9.3601616, "source": "osm", "_tags": {"addr:city": "Bad Soden-Salmünster", "addr:country": "DE", "addr:housenumber": "7-9", "addr:postcode": "63628", "addr:street": "Parkstraße", "amenity": "hospital", "building": "hospital", "contact:email": "kontakt.kinzigtal@median-kliniken.de", "contact:phone": "+49 6056 7370", "contact:website": "https://www.median-kliniken.de/de/median-kinzigtal-klinik-bad-soden-salmuenster/", "healthcare": "hospital", "healthcare:speciality": "orthopaedics;psychosomatic", "name": "MEDIAN Kinzigtal-Klinik", "operator": "MEDIAN Unternehmensgruppe B.V. & Co. KG", "operator:type": "business", "type": "multipolygon"}}, {"name": "Klinikum Aschaffenburg", "latitude": 49.9762496, "longitude": 9.1873771, "source": "osm", "_tags": {"addr:city": "Aschaffenburg", "addr:housenumber": "1", "addr:postcode": "63739", "addr:street": "Am Hasenkopf", "amenity": "hospital", "email": "info@klinikum-ab-alz.de", "emergency": "yes", "healthcare": "hospital", "name": "Klinikum Aschaffenburg", "operator": "Klinikum Aschaffenburg-Alzenau gGmbH", "operator:type": "public", "phone": "+49 6021 32", "type": "multipolygon", "website": "https://www.klinikum-ab-alz.de/", "wheelchair": "yes", "wikidata": "Q30282261"}}, {"name": "Klinik Sonnenblick", "latitude": 50.7983893, "longitude": 8.8018938, "source": "osm", "_tags": {"addr:city": "Marburg", "addr:housenumber": "1", "addr:postcode": "35043", "addr:street": "Amöneburger Straße", "amenity": "hospital", "healthcare": "hospital", "name": "Klinik Sonnenblick", "operator": "Deutsche Rentenversicherung", "operator:type": "public", "type": "multipolygon", "wheelchair": "yes"}}, {"name": "Psychiatrische Klinik Aschaffenburg", "latitude": 49.9779401, "longitude": 9.1909482, "source": "osm", "_tags": {"addr:housenumber": "3", "addr:street": "Am Hasenkopf", "amenity": "hospital", "building": "hospital", "healthcare:speciality": "psychiatry", "name": "Psychiatrische Klinik Aschaffenburg", "type": "multipolygon", "website": "https://www.bezirkskrankenhaus-lohr.de/unsere-einrichtung/unsere-auenstellen/standort-aschaffenburg/23027.Psychiatrische-Klinik-Aschaffenburg.html"}}, {"name": "Hamm Klinik Bellevue", "latitude": 50.2835242, "longitude": 9.356778, "source": "osm", "_tags": {"addr:city": "Bad Soden-Salmünster", "addr:housenumber": "20", "addr:postcode": "63628", "addr:street": "Brüder-Grimm-Straße", "addr:suburb": "Bad Soden", "amenity": "hospital", "building": "hospital", "fax": "+49 6056 72274", "healthcare": "rehabilitation", "healthcare:speciality": "oncology", "name": "Hamm Klinik Bellevue", "phone": "+49 6056 720", "type": "multipolygon", "website": "https://www.hamm-kliniken.de/kliniken/klinik-bellevue"}}]