[{"name": "Konduktive Förderung", "latitude": 50.4374574, "longitude": 7.402254, "source": "osm", "_tags": {"addr:city": "Andernach", "addr:housenumber": "16", "addr:postcode": "56626", "addr:street": "Drususstraße", "amenity": "hospital", "emergency": "no", "healthcare": "hospital", "name": "Konduktive Förderung", "operator": "St. Nikolaus-Stiftshospital"}}, {"name": "Medizinisches Versorgungszentrum (MVZ) Geschäftsführung", "latitude": 50.7041756, "longitude": 7.1010546, "source": "osm", "_tags": {"amenity": "hospital", "healthcare": "hospital", "name": "Medizinisches Versorgungszentrum (MVZ) Geschäftsführung"}}, {"name": "MVZ Psychiatrie", "latitude": 50.7042056, "longitude": 7.1010527, "source": "osm", "_tags": {"amenity": "hospital", "healthcare": "hospital", "name": "MVZ Psychiatrie"}}, {"name": "Strahlenschutz", "latitude": 50.7042853, "longitude": 7.1021384, "source": "osm", "_tags": {"amenity": "hospital", "healthcare": "hospital", "name": "Strahlenschutz", "wheelchair": "yes"}}, {"name": "Hausarztmedizin", "latitude": 50.7042356, "longitude": 7.1010508, "source": "osm", "_tags": {"amenity": "hospital", "healthcare": "hospital", "name": "Hausarztmedizin"}}, {"name": "Klinische Chemie und Pharmakologie / Biochemie", "latitude": 50.7025585, "longitude": 7.1036028, "source": "osm", "_tags": {"amenity": "hospital", "name": "Klinische Chemie und Pharmakologie / Biochemie", "wheelchair": "yes"}}, {"name": "Molekularmedizin und Experimentelle Immunologie", "latitude": 50.7025938, "longitude": 7.1036028, "source": "osm", "_tags": {"amenity": "hospital", "name": "Molekularmedizin und Experimentelle Immunologie", "wheelchair": "yes"}}, {"name": "Zentrales OP Management", "latitude": 50.7026146, "longitude": 7.1024166, "source": "osm", "_tags": {"amenity": "hospital", "check_date": "2024-11-20", "name": "Zentrales OP Management"}}, {"name": "Orthopädie und Unfallchirurgie", "latitude": 50.7022446, "longitude": 7.1022295, "source": "osm", "_tags": {"amenity": "hospital", "check_date": "2024-11-20", "name": "Orthopädie und Unfallchirurgie", "website": "https://www.ortho-unfall-bonn.de/"}}, {"name": "Anästhesiologie und Operative Intensivmedizin", "latitude": 50.7023279, "longitude": 7.1022143, "source": "osm", "_tags": {"amenity": "hospital", "check_date": "2024-11-20", "name": "Anästhesiologie und Operative Intensivmedizin", "website": "https://www.ukbonn.de/42256BC8002AF3E7/direct/anaesthesie"}}, {"name": "Zentrum für ambulantes Operieren (ZAO)", "latitude": 50.7029614, "longitude": 7.1021485, "source": "osm", "_tags": {"amenity": "hospital", "check_date": "2024-11-20", "healthcare": "hospital", "name": "Zentrum für ambulantes Operieren (ZAO)", "wheelchair": "yes"}}, {"name": "Medizinische Kliniken III", "latitude": 50.7030479, "longitude": 7.1021498, "source": "osm", "_tags": {"amenity": "hospital", "check_date": "2024-11-20", "healthcare": "hospital", "name": "Medizinische Kliniken III", "wheelchair": "yes"}}, {"name": "Centrum für Integrierte Onkologie (CIO)", "latitude": 50.7030191, "longitude": 7.1021494, "source": "osm", "_tags": {"amenity": "hospital", "check_date": "2024-11-20", "healthcare": "hospital", "name": "Centrum für Integrierte Onkologie (CIO)", "wheelchair": "yes", "wikidata": "Q25378564"}}, {"name": "Ambulantes Operieren", "latitude": 50.7029902, "longitude": 7.1021489, "source": "osm", "_tags": {"amenity": "hospital", "check_date": "2024-11-20", "healthcare": "hospital", "name": "Ambulantes Operieren", "wheelchair": "yes"}}, {"name": "Kreißsaal", "latitude": 50.7006913, "longitude": 7.1052038, "source": "osm", "_tags": {"amenity": "hospital", "emergency": "yes", "healthcare": "hospital", "name": "Kreißsaal", "phone": "+49 228 287-37900"}}, {"name": "Radiologische Klinik", "latitude": 50.7027418, "longitude": 7.1034671, "source": "osm", "_tags": {"amenity": "hospital", "level": "0", "name": "Radiologische Klinik", "wheelchair": "yes"}}, {"name": "Klinisches Zentrum", "latitude": 50.4285578, "longitude": 7.3964527, "source": "osm", "_tags": {"amenity": "hospital", "healthcare": "hospital", "healthcare:speciality": "neurology", "name": "Klinisches Zentrum", "operator": "Rhein-Mosel-Fachklinik"}}, {"name": "Rhein-Mosel-Fachklinik", "latitude": 50.4277402, "longitude": 7.3977023, "source": "osm", "_tags": {"amenity": "hospital", "healthcare": "hospital", "healthcare:speciality": "psychiatry", "name": "Rhein-Mosel-Fachklinik", "operator": "Landeskrankenhaus"}}, {"name": "LVR-Klinik Bonn", "latitude": 50.7465382, "longitude": 7.0895745, "source": "osm", "_tags": {"amenity": "hospital", "emergency": "yes", "healthcare": "hospital", "name": "LVR-Klinik Bonn", "old_name": "Rheinische Kliniken", "operator": "Landschaftsverband Rheinland", "url": "http://www.rk-bonn.lvr.de/", "wheelchair": "yes", "wikidata": "Q17379401"}}, {"name": "Marien-Hospital Euskirchen", "latitude": 50.6424263, "longitude": 6.7910058, "source": "osm", "_tags": {"amenity": "hospital", "check_date": "2024-08-29", "contact:email": "info@marien-hospital.com", "contact:facebook": "https://www.facebook.com/Stiftung.Marien.Hospital.Euskirchen/", "contact:fax": "+49 2251 901092", "contact:phone": "+49 2251 900", "contact:website": "https://www.marien-hospital.com/", "emergency": "yes", "healthcare": "hospital", "name": "Marien-Hospital Euskirchen"}}, {"name": "Evangelisches Stift Sankt Martin", "latitude": 50.3481962, "longitude": 7.5933444, "source": "osm", "_tags": {"addr:city": "Koblenz", "addr:housenumber": "7", "addr:postcode": "56068", "addr:street": "Johannes-Müller-Straße", "amenity": "hospital", "check_date": "2024-11-05", "healthcare": "hospital", "name": "Evangelisches Stift Sankt Martin", "operator": "Gemeinschaftsklinikum Mittelrhein GmbH", "wheelchair": "yes", "wikipedia": "de:Evangelisches Stift St. Martin Koblenz"}}, {"name": "Katholisches Klinikum Marienhof Koblenz", "latitude": 50.359282, "longitude": 7.5716202, "source": "osm", "_tags": {"addr:city": "Koblenz", "addr:country": "DE", "addr:housenumber": "7", "addr:postcode": "56073", "addr:street": "Rudolf-Virchow-Straße", "amenity": "hospital", "building": "hospital", "building:levels": "3", "check_date": "2024-04-15", "denomination": "roman_catholic", "emergency": "yes", "healthcare": "hospital", "name": "Katholisches Klinikum Marienhof Koblenz", "operator": "Katholisches Klinikum Koblenz", "phone": "+49 261 4960", "religion": "christian", "wikidata": "Q1736453"}}, {"name": "Barmherzige Brüder Saffig", "latitude": 50.3778925, "longitude": 7.4195807, "source": "osm", "_tags": {"addr:city": "Saffig", "addr:postcode": "56648", "amenity": "hospital", "building": "yes", "emergency": "no", "healthcare": "hospital", "name": "Barmherzige Brüder Saffig", "operator": "Barmherzige Brüder Trier gGmbH", "website": "http://www.bb-saffig.de"}}, {"name": "Klinik Nette-Gut für Forensische Psychiatrie", "latitude": 50.4243073, "longitude": 7.4349691, "source": "osm", "_tags": {"access": "private", "addr:city": "Weißenthurm", "addr:housenumber": "2", "addr:postcode": "56575", "addr:street": "Am Nette-Gut", "amenity": "hospital", "healthcare": "hospital", "name": "Klinik Nette-Gut für Forensische Psychiatrie", "phone": "+49 2637 9110", "toilets:wheelchair": "yes", "website": "https://www.klinik-nette-gut.de/", "wheelchair": "yes", "wikidata": "Q59035919"}}, {"name": "Kemperhof", "latitude": 50.3561716, "longitude": 7.565562, "source": "osm", "_tags": {"alt_name": "Gemeinschaftsklinikum Mittelrhein Kemperhof", "amenity": "hospital", "contact:email": "info@gk.de", "contact:fax": "+49 261 499-2000", "contact:phone": "+49 261 499-0", "contact:website": "https://www.gk.de/krankenhaeuser/kemperhof-koblenz/", "emergency": "yes", "healthcare": "hospital", "name": "Kemperhof", "opening_hours": "24/7", "operator": "Gemeinschaftsklinikum Mittelrhein gGmbH", "wheelchair": "yes", "wikidata": "Q1774624", "wikipedia": "de:Kemperhof"}}, {"name": "Asklepios Kinderklinik Sankt Augustin", "latitude": 50.7755886, "longitude": 7.1816343, "source": "osm", "_tags": {"amenity": "hospital", "contact:phone": "+49 2241 249-0", "contact:website": "https://www.asklepios.com/sankt-augustin/", "emergency": "yes", "healthcare": "hospital", "healthcare:speciality": "paediatrics;child_psychiatry", "name": "Asklepios Kinderklinik Sankt Augustin", "official_name": "Asklepios Klinik Sankt Augustin", "opening_hours": "24/7", "operator": "Asklepios Kliniken", "operator:type": "private", "operator:wikidata": "Q732068", "operator:wikipedia": "de:Asklepios Kliniken", "toilets:wheelchair": "yes", "wheelchair": "yes", "wikidata": "Q107031224"}}, {"name": "Die Johanniter Waldkrankenhaus", "latitude": 50.6822036, "longitude": 7.1283967, "source": "osm", "_tags": {"addr:city": "Bonn", "addr:country": "DE", "addr:housenumber": "73", "addr:postcode": "53177", "addr:street": "Waldstraße", "amenity": "hospital", "brand": "Johanniter-Unfall-Hilfe", "brand:short": "JUH", "brand:wikidata": "Q14751117", "building": "yes", "emergency": "ambulance_station", "healthcare": "hospital", "name": "Die Johanniter Waldkrankenhaus", "ref": "Evangelisches Waldkrankenhaus", "short_name": "JUH", "wheelchair": "yes"}}, {"name": "St. Elisabeth Krankenhaus", "latitude": 50.0001647, "longitude": 6.8921278, "source": "osm", "_tags": {"alt_name": "Verbundkrankenhaus Wittlich-Bernkastel", "amenity": "hospital", "contact:city": "Wittlich", "contact:country": "DE", "contact:email": "info@verbund-krankenhaus.de", "contact:fax": "+49 6571 15-39990", "contact:housenumber": "91", "contact:phone": "+49 6571 15-0", "contact:postcode": "54516", "contact:street": "Koblenzer Straße", "contact:website": "http://www.verbund-krankenhaus.de/", "emergency": "yes", "healthcare": "hospital", "healthcare:speciality": "surgery;gynaecology;internal;cardiology;paediatrics;anaesthetics;neurology;emergency;orthopaedics;trauma", "name": "St. Elisabeth Krankenhaus", "opening_hours": "24/7", "operator": "cusanus trägergesellschaft trier mbH", "wheelchair": "yes"}}, {"name": "Dermatologie / MKG-Chirurgie", "latitude": 50.7031518, "longitude": 7.1015445, "source": "osm", "_tags": {"building": "hospital", "building:levels": "3", "healthcare": "hospital", "healthcare:speciality": "dermatology:dental_oral_maxillo_facial_surgery", "name": "Dermatologie / MKG-Chirurgie", "roof:levels": "1", "roof:shape": "hipped"}}, {"name": "Hunsrück Klinik", "latitude": 49.980508, "longitude": 7.5174576, "source": "osm", "_tags": {"addr:city": "Simmern/Hunsrück", "addr:country": "DE", "addr:housenumber": "1", "addr:postcode": "55469", "addr:street": "Holzbacher Straße", "amenity": "hospital", "building": "hospital", "contact:email": "info@kreuznacherdiakonie.de", "contact:phone": "+49 6761 81-0", "contact:website": "https://www.kreuznacherdiakonie.de/", "healthcare": "hospital", "name": "Hunsrück Klinik", "operator": "kreuznacher diakonie", "wheelchair": "yes"}}, {"name": "Dr. v. Ehrenwall'sche Klinik", "latitude": 50.539677, "longitude": 7.0914368, "source": "osm", "_tags": {"addr:city": "Bad Neuenahr-Ahrweiler", "addr:country": "DE", "addr:housenumber": "2", "addr:postcode": "53474", "addr:street": "Walporzheimer Straße", "amenity": "hospital", "building": "hospital", "building:levels": "3", "check_date": "2024-03-04", "contact:website": "https://www.ehrenwall.de/", "email": "info@ehrenwall.de", "fax": "+49 2641 37 166", "healthcare": "hospital", "healthcare:speciality": "psychiatry;neurology", "name": "Dr. v. Ehrenwall'sche Klinik", "phone": "+49 2641 3860", "roof:levels": "1", "roof:shape": "hipped", "toilets:wheelchair": "yes", "wheelchair": "yes", "wikidata": "Q1112730", "wikimedia_commons": "Category:Dr. von Ehrenwall’sche Klinik", "wikipedia": "de:Dr. von Ehrenwall’sche Klinik"}}, {"name": "St. Franziskus Hospital", "latitude": 50.7134142, "longitude": 7.1056834, "source": "osm", "_tags": {"addr:city": "Bonn", "addr:country": "DE", "addr:housenumber": "14", "addr:postcode": "53129", "addr:street": "Nikolausstraße", "amenity": "hospital", "building": "yes", "fax": "+492289238224", "healthcare": "hospital", "name": "St. Franziskus Hospital", "phone": "+49228923820"}}, {"name": "St. Nikolaus-Stiftshospital", "latitude": 50.4403691, "longitude": 7.4047616, "source": "osm", "_tags": {"amenity": "hospital", "contact:email": "information@stiftshospital-andernach.de", "contact:fax": "+49 2632 4045272", "contact:phone": "+49 2632 4040", "contact:website": "https://www.stiftshospital-andernach.de/", "emergency": "yes", "healthcare": "hospital", "name": "St. Nikolaus-Stiftshospital", "operator": "St. Nikolaus-Stiftshospital GmbH", "wheelchair": "yes"}}, {"name": "Krankenhaus Maria Hilf Bad Neuenahr-Ahrweiler", "latitude": 50.5406049, "longitude": 7.1272646, "source": "osm", "_tags": {"amenity": "hospital", "check_date": "2025-04-22", "contact:fax": "+49 2641 83-1771", "contact:phone": "+49 2641 83-0", "contact:website": "http://www.marienhaus-klinikum-ahr.de/unserklinikum/standorte/krankenhaus-maria-hilf-bad-neuenahr-ahrweiler/", "emergency": "yes", "healthcare": "hospital", "name": "Krankenhaus Maria Hilf Bad Neuenahr-Ahrweiler", "wheelchair": "yes"}}, {"name": "BDH-Klinik Vallendar", "latitude": 50.3998574, "longitude": 7.6116395, "source": "osm", "_tags": {"amenity": "hospital", "building": "yes", "healthcare": "hospital", "name": "BDH-Klinik Vallendar", "toilets:wheelchair": "yes", "website": "https://www.bdh-reha.de/", "wheelchair": "yes"}}, {"name": "Evangelisches Krankenhaus Dierdorf", "latitude": 50.5480774, "longitude": 7.6617135, "source": "osm", "_tags": {"addr:city": "Dierdorf", "addr:country": "DE", "addr:housenumber": "16", "addr:postcode": "56269", "addr:street": "Hachenburger Straße", "amenity": "hospital", "building": "hospital", "healthcare": "hospital", "name": "Evangelisches Krankenhaus Dierdorf", "operator": "Evangelisches Krankenhaus Dierdorf/Selters gGmbH", "wheelchair": "yes"}}, {"name": "GFO Kliniken Troisdorf St. Johannes Krankenhaus", "latitude": 50.7972676, "longitude": 7.1171181, "source": "osm", "_tags": {"addr:city": "Troisdorf", "addr:country": "DE", "addr:housenumber": "9", "addr:postcode": "53844", "addr:street": "Wilhelm-Busch-Straße", "addr:suburb": "Sieglar", "amenity": "hospital", "building": "yes", "building:colour": "white", "building:levels": "1", "healthcare": "hospital", "height": "4.00", "name": "GFO Kliniken Troisdorf St. Johannes Krankenhaus", "roof:colour": "grey", "roof:shape": "flat", "website": "https://www.gfo-kliniken-troisdorf.de", "wheelchair": "yes"}}, {"name": "Krankenhaus Maria Stern", "latitude": 50.5739473, "longitude": 7.2329643, "source": "osm", "_tags": {"addr:city": "Remagen", "addr:housenumber": "1", "addr:postcode": "53424", "addr:street": "Am Anger", "amenity": "hospital", "building": "hospital", "emergency": "yes", "healthcare": "hospital", "name": "Krankenhaus Maria Stern", "opening_hours": "24/7", "website": "http://www.krankenhaus-remagen.de", "wheelchair": "yes"}}, {"name": "Krankenhaus Maria Hilf", "latitude": 50.1932148, "longitude": 6.8321818, "source": "osm", "_tags": {"amenity": "hospital", "email": "mariahilf@krankenhaus-daun.de", "emergency": "yes", "fax": "+49 6592 715 2510", "healthcare": "hospital", "healthcare:speciality": "gynaecology;internal;cardiology;trauma", "name": "Krankenhaus Maria Hilf", "operator": "Krankenhaus Maria Hilf GmbH", "phone": "+49 6592 715 0", "website": "https://www.krankenhaus-maria-hilf.de/", "wheelchair": "yes"}}, {"name": "DRK Kamillus Klinik Asbach", "latitude": 50.6679294, "longitude": 7.4240214, "source": "osm", "_tags": {"addr:city": "Asbach", "addr:housenumber": "6", "addr:postcode": "53567", "addr:street": "Hospitalstraße", "amenity": "hospital", "name": "DRK Kamillus Klinik Asbach", "phone": "+49 2683 59-0", "toilets:wheelchair": "yes", "website": "http://www.drk-kamillus-klinik.de", "wheelchair": "yes"}}, {"name": "Gemeinschaftskrankenhaus Bonn Haus Sankt Elisabeth", "latitude": 50.7275413, "longitude": 7.1027037, "source": "osm", "_tags": {"amenity": "hospital", "check_date": "2025-02-14", "email": "info@gk-bonn.de", "emergency": "yes", "fax": "+49 228 5081503", "healthcare": "hospital", "name": "Gemeinschaftskrankenhaus Bonn Haus Sankt Elisabeth", "old_name": "Sankt Elisabeth-Krankenhaus", "operator": "Gemeinschaftskrankenhaus Bonn gGmbH", "phone": "+49 228 5080", "ref": "Sankt Elisabeth", "short_name": "Elisabeth-Krankenhaus", "website": "http://www.gk-bonn.de/", "wheelchair": "yes"}}, {"name": "Brohltal-Klinik St. Josef", "latitude": 50.4559906, "longitude": 7.2789573, "source": "osm", "_tags": {"addr:city": "Burgbrohl", "addr:housenumber": "16", "addr:postcode": "56659", "addr:street": "Kirchstraße", "amenity": "hospital", "building": "yes", "email": "info.bbr@marienhaus.de", "emergency": "no", "fax": "+49 2636 533799", "healthcare": "hospital", "healthcare:speciality": "physiatry", "name": "Brohltal-Klinik St. Josef", "operator": "Marienhaus", "operator:type": "private", "operator:wikidata": "Q20828783", "phone": "+49 2636 530", "website": "https://www.marienhaus-klinikum-ahr.de/", "wheelchair": "yes"}}, {"name": "MEDIAN Kliniken Daun Altburg", "latitude": 50.1596132, "longitude": 6.8441918, "source": "osm", "_tags": {"amenity": "hospital", "email": "daun-altburg-kontakt@median-kliniken.de", "healthcare": "clinic", "healthcare:speciality": "psychiatry;physiatry", "name": "MEDIAN Kliniken Daun Altburg", "operator": "MEDIAN Unternehmensgruppe B.V. & Co. KG", "phone": "+49 6592 201800", "source": "https://www.median-kliniken.de/de/median-klinik-daun-altburg/", "source:date": "2018_09_30", "website": "https://www.median-kliniken.de/de/median-klinik-daun-altburg/"}}, {"name": "Brüderhaus Koblenz", "latitude": 50.3536069, "longitude": 7.5868732, "source": "osm", "_tags": {"addr:housenumber": "1-5", "addr:postcode": "56073", "addr:street": "Kardinal-Krementz-Straße", "amenity": "hospital", "healthcare": "hospital", "name": "Brüderhaus Koblenz", "operator": "Katholische Kliniken Koblenz", "toilets:wheelchair": "yes", "wheelchair": "yes"}}, {"name": "St. Josef-Krankenhaus Zell", "latitude": 50.0236154, "longitude": 7.1679618, "source": "osm", "_tags": {"amenity": "hospital", "contact:email": "info@krankenhaus-zell.de", "contact:fax": "+49 6542 971721", "contact:phone": "+49 6542 970", "contact:website": "http://www.krankenhaus-zell.de", "emergency": "yes", "healthcare": "hospital", "name": "St. Josef-Krankenhaus Zell", "toilets:wheelchair": "yes", "wheelchair": "yes"}}, {"name": "Heilig Geist", "latitude": 50.232458, "longitude": 7.5874522, "source": "osm", "_tags": {"alt_name": "Hospital zum Heiligen Geist Boppard", "amenity": "hospital", "contact:email": "info@gk.de", "contact:fax": "+49 6472 1016609", "contact:phone": "+49 6472 1010", "contact:website": "https://www.gk.de", "healthcare": "hospital", "name": "Heilig Geist", "old_name": "Gesundheitszentrum zum Heiligen Geist", "operator": "Gemeinschaftsklinikum Mittelrhein gGmbH", "wheelchair": "yes", "wikidata": "Q2700047", "wikipedia": "de:Hospital zum Heiligen Geist Boppard"}}, {"name": "Johanniter-Krankenhaus", "latitude": 50.7125609, "longitude": 7.1324916, "source": "osm", "_tags": {"amenity": "hospital", "brand": "Johanniter-Unfall-Hilfe", "brand:short": "JUH", "brand:wikidata": "Q14751117", "contact:website": "http://www.johanniter.de/einrichtungen/krankenhaus/bonn/", "emergency": "ambulance_station", "healthcare": "hospital", "name": "Johanniter-Krankenhaus", "short_name": "JUH", "wheelchair": "yes", "wikidata": "Q56582990"}}, {"name": "St. Franziskus Krankenhaus Eitorf", "latitude": 50.7678133, "longitude": 7.4518754, "source": "osm", "_tags": {"addr:city": "Eitorf", "addr:country": "DE", "addr:housenumber": "7", "addr:postcode": "53783", "addr:street": "Hospitalstraße", "amenity": "hospital", "building": "hospital", "check_date": "2024-07-14", "emergency": "yes", "healthcare": "hospital", "name": "St. Franziskus Krankenhaus Eitorf", "wheelchair": "yes"}}, {"name": "Marienhaus Klinikum St. Elisabeth Neuwied", "latitude": 50.4275674, "longitude": 7.471172, "source": "osm", "_tags": {"amenity": "hospital", "contact:email": "info@marienhaus-klinikum.de", "contact:fax": "+49 2631 82-1243", "contact:phone": "+49 2631 82-0", "contact:website": "http://marienhaus-klinikum.de", "emergency": "yes", "healthcare": "hospital", "name": "Marienhaus Klinikum St. Elisabeth Neuwied", "operator": "Marienhaus", "operator:type": "private", "operator:wikidata": "Q20828783", "wheelchair": "yes"}}, {"name": "Marien-Hospital", "latitude": 50.8072976, "longitude": 6.80865, "source": "osm", "_tags": {"amenity": "hospital", "emergency": "yes", "name": "Marien-Hospital", "operator": "Stiftung Marien-Hospital Erftstadt-Frauenthal", "phone": "+4922354040", "website": "http://www.marienerft.de", "wheelchair": "yes"}}, {"name": "Kinderneurologisches Zentrum KiNZ im Gustav-Heinemann-Haus", "latitude": 50.7522838, "longitude": 7.0434075, "source": "osm", "_tags": {"addr:city": "Bonn", "addr:country": "DE", "addr:housenumber": "46", "addr:postcode": "53119", "addr:street": "Waldenburger Ring", "amenity": "hospital", "building": "public", "building:levels": "4", "description": "Veranstaltungen, Rehabilitation", "emergency": "no", "fax": "+49 228 6683111", "healthcare": "hospital", "healthcare:speciality": "neurology", "name": "Kinderneurologisches Zentrum KiNZ im Gustav-Heinemann-Haus", "operator": "LVR-Klinik Bonn", "phone": "+49 228 66830", "roof:levels": "0", "source": "Yahoo!Sat;knowledge;Bing", "website": "https://klinik-bonn.lvr.de//de/nav_main/fachgebiete/kinderneurologie/kinderneurologie_1.html", "wheelchair": "yes", "wheelchair:description": "Förderzentrum für körperlich und geistige Behinderte Kinder und Jugendliche"}}, {"name": "Cura Krankenhaus Bad Honnef", "latitude": 50.6476461, "longitude": 7.2259944, "source": "osm", "_tags": {"amenity": "hospital", "contact:email": "info@gfo-kliniken-bonn.de", "contact:phone": "+49 2224 772-0", "contact:website": "https://www.gfo-kliniken-bonn.de", "denomination": "catholic", "emergency": "yes", "healthcare": "hospital", "name": "Cura Krankenhaus Bad Honnef", "note": "Abgrenzung geschätzt, Fraglich ob Hausnr. 14 noch zum Gelände gehört", "old_name": "St.-Johannes-Krankenhaus", "opening_hours": "24/7", "operator": "Gemeinnützige Gesellschaft der Franziskanerinnen zu Olpe mbH", "religion": "christian", "wheelchair": "yes", "wikidata": "Q15718748", "wikimedia_commons": "Category:Katholisches Krankenhaus im Siebengebirge", "wikipedia": "de:Katholisches Krankenhaus im Siebengebirge"}}, {"name": "Sankt Josef", "latitude": 50.7360583, "longitude": 7.1186239, "source": "osm", "_tags": {"amenity": "hospital", "contact:email": "info@gfo-kliniken-bonn.de", "contact:phone": "+49 228 407-0", "contact:website": "https://www.gfo-kliniken-bonn.de", "emergency": "yes", "healthcare": "hospital", "name": "Sankt Josef", "opening_hours": "24/7", "operator": "Gemeinnützige Gesellschaft der Franziskanerinnen zu Olpe mbH", "short_name": "St. Josef", "wheelchair": "yes"}}, {"name": "Helios Klinikum Siegburg", "latitude": 50.7992103, "longitude": 7.2062373, "source": "osm", "_tags": {"amenity": "hospital", "check_date": "2024-05-29", "contact:phone": "+49 2241 18-0", "contact:website": "https://www.helios-gesundheit.de/kliniken/siegburg/", "emergency": "yes", "healthcare": "hospital", "name": "Helios Klinikum Siegburg", "opening_hours": "24/7", "operator": "Helios Kliniken", "operator:type": "private", "operator:wikidata": "Q1254151", "operator:wikipedia": "de:Helios Kliniken", "wheelchair": "yes", "wikidata": "Q50038603"}}, {"name": "Gemeinschaftskrankenhaus Bonn Haus Sankt Petrus", "latitude": 50.728329, "longitude": 7.0983726, "source": "osm", "_tags": {"addr:city": "Bonn", "addr:country": "DE", "addr:housenumber": "4-6", "addr:postcode": "53113", "addr:street": "Bonner Talweg", "amenity": "hospital", "check_date": "2024-10-30", "email": "info@gk-bonn.de", "emergency": "yes", "fax": "+49 228 5062150", "healthcare": "hospital", "name": "Gemeinschaftskrankenhaus Bonn Haus Sankt Petrus", "old_name": "Brüderkrankenhaus St. Petrus", "operator": "Gemeinschaftskrankenhaus Bonn gGmbH", "phone": "+49 228 5060", "ref": "St. Petrus", "source": "NRW Orthophoto", "toilets:wheelchair": "yes", "website": "http://www.gk-bonn.de/", "wheelchair": "yes", "wikidata": "Q46092992", "wikipedia": "de:Gemeinschaftskrankenhaus Bonn"}}, {"name": "Cusanus-Krankenhaus Bernkastel-Kues", "latitude": 49.9155607, "longitude": 7.0629135, "source": "osm", "_tags": {"amenity": "hospital", "emergency": "yes", "healthcare": "hospital", "healthcare:speciality": "surgery;geriatrics;internal;oncology;urology;palliative", "name": "Cusanus-Krankenhaus Bernkastel-Kues", "opening_hours": "24/7", "operator": "Verbundkrankenhaus Bernkastel-Wittlich", "wheelchair": "yes"}}, {"name": "Sankt-Marien-Hospital Bonn", "latitude": 50.7172056, "longitude": 7.0938969, "source": "osm", "_tags": {"addr:city": "Bonn", "addr:housenumber": "1", "addr:postcode": "53115", "addr:street": "Robert-Koch-Straße", "alt_name": "Marienhospital", "amenity": "hospital", "email": "info@marien-hospital-bonn.de", "emergency": "yes", "fax": "+49 228 5052019", "healthcare": "hospital", "name": "Sankt-Marien-Hospital Bonn", "note": "Vergroesserung von Relation 1269846", "operator": "Gemeinnützige Gesellschaft der Franziskanerinnen zu Olpe mbH", "phone": "+49 228 5050", "ref": "Sankt-Marien-Hospital", "url": "http://www.marien-hospital-bonn.de/", "website": "https://www.gfo-kliniken-bonn.de/startseite.html", "wheelchair": "yes", "wikidata": "Q17287234", "wikimedia_commons": "Category:Marienhospital (Bonn)", "wikipedia": "de:St. Marien-Hospital Bonn"}}, {"name": "Marienkrankenhaus Cochem", "latitude": 50.1555986, "longitude": 7.1794418, "source": "osm", "_tags": {"amenity": "hospital", "contact:email": "info@marienkrankenhaus-cochem.de", "contact:fax": "+49 2671 985-103", "contact:phone": "+49 2671 985-0", "contact:website": "http://www.marienkrankenhaus-cochem.de/", "emergency": "yes", "healthcare": "hospital", "name": "Marienkrankenhaus Cochem", "operator": "Marienkrankenhaus Cochem GmbH", "wheelchair": "yes"}}, {"name": "St. Elisabeth Krankenhaus Lahnstein", "latitude": 50.3052488, "longitude": 7.6090213, "source": "osm", "_tags": {"amenity": "hospital", "description:healthcare:specialty": "Seit Februar 2024 nur Psychatrie und Psychotherapie", "email": "info@krankenhaus-lahnstein.de", "emergency": "yes", "fax": "+49 2621 171 1009", "healthcare": "hospital", "healthcare:speciality": "psychiatry", "name": "St. Elisabeth Krankenhaus Lahnstein", "opening_hours": "24/7", "phone": "+49 2621 171 0", "website": "https://krankenhaus-lahnstein.de", "wheelchair": "yes", "wikidata": "Q126505386"}}, {"name": "DRK Fachklinik Bad Neuenahr", "latitude": 50.5435323, "longitude": 7.1382406, "source": "osm", "_tags": {"amenity": "hospital", "brand": "Deutsches Rotes Kreuz", "brand:wikidata": "Q694104", "emergency": "yes", "fax": "+49 2641 754200", "healthcare": "hospital", "healthcare:speciality": "child_psychiatry", "name": "DRK Fachklinik Bad Neuenahr", "phone": "+49 2641 7540", "website": "https://www.drk-fk-badneuenahr.de/", "wikidata": "Q15804336"}}, {"name": "Verbundkrankenhaus Linz-Remagen", "latitude": 50.5644906, "longitude": 7.319102, "source": "osm", "_tags": {"amenity": "hospital", "email": "info@krankenhaus-linz.de", "emergency": "yes", "healthcare": "hospital", "name": "Verbundkrankenhaus Linz-Remagen", "phone": "+49 2644 550", "type": "multipolygon", "website": "https://www.krankenhaus-linz-remagen.de"}}, {"name": "Helios Klinikum Bonn/Rhein-Sieg", "latitude": 50.7077079, "longitude": 7.0325135, "source": "osm", "_tags": {"amenity": "hospital", "contact:phone": "+49 228 6481 0", "contact:website": "https://www.helios-gesundheit.de/kliniken/bonn/", "healthcare": "hospital", "loc_name": "Malteser-Krankenhaus", "name": "Helios Klinikum Bonn/Rhein-Sieg", "old_name": "Malteser Krankenhaus Seliger Gerhard Bonn/Rhein-Sieg", "operator": "Helios Kliniken", "operator:wikidata": "Q1254151", "phone": "+4922864810", "source": "Landsat", "type": "multipolygon"}}, {"name": "Marienhaus Klinikum St. Matthias Neuwied", "latitude": 50.4294912, "longitude": 7.4649349, "source": "osm", "_tags": {"addr:city": "Neuwied", "addr:country": "DE", "addr:housenumber": "104", "addr:postcode": "56564", "addr:street": "Marktstraße", "amenity": "hospital", "brand": "Deutsches Rotes Kreuz", "brand:wikidata": "Q694104", "building": "hospital", "fax": "+49 2631 98-1002", "healthcare": "hospital", "name": "Marienhaus Klinikum St. Matthias Neuwied", "operator": "Marienhaus Kliniken GmbH", "operator:type": "private", "operator:wikidata": "Q20828783", "phone": "+49 2631 82-0", "toilets:wheelchair": "yes", "type": "multipolygon", "was:name": "DRK Krankenhaus Neuwied", "website": "https://www.marienhaus-klinikum.de", "wheelchair": "yes"}}, {"name": "Gemeinschaftsklinikum Koblenz-Mayen St. Elisabeth Mayen", "latitude": 50.3252384, "longitude": 7.2182312, "source": "osm", "_tags": {"addr:city": "Mayen", "addr:housenumber": "20", "addr:postcode": "56727", "addr:street": "Siegfriedstraße", "amenity": "hospital", "building": "yes", "emergency": "yes", "healthcare": "hospital", "name": "Gemeinschaftsklinikum Koblenz-Mayen St. Elisabeth Mayen", "type": "multipolygon", "wheelchair": "yes"}}, {"name": "DRK-Krankenhaus Altenkirchen", "latitude": 50.6828998, "longitude": 7.6304726, "source": "osm", "_tags": {"addr:city": "Altenkirchen", "addr:country": "DE", "addr:housenumber": "21", "addr:postcode": "57610", "addr:street": "Leuzbacher Weg", "amenity": "hospital", "brand": "Deutsches Rotes Kreuz", "brand:wikidata": "Q694104", "brand:wikipedia": "de:Deutsches Rotes Kreuz", "building": "hospital", "contact:phone": "+49 2681 88 0", "emergency": "yes", "healthcare": "hospital", "name": "DRK-Krankenhaus Altenkirchen", "operator": "DRK Gem. Krankenhaus GmbH Rheinland-Pfalz", "type": "multipolygon"}}, {"name": "Bundeswehrzentralkrankenhaus Koblenz", "latitude": 50.3681587, "longitude": 7.5434886, "source": "osm", "_tags": {"addr:city": "Koblenz", "addr:housenumber": "170", "addr:postcode": "56072", "addr:street": "Rübenacher Straße", "amenity": "hospital", "contact:email": "BwZKrhsKoblenz@bundeswehr.org", "contact:phone": "+49 261 281 89", "contact:website": "https://www.bwkrankenhaus.de/de/bundeswehrzentralkrankenhaus-koblenz", "emergency": "yes", "healthcare": "hospital", "healthcare:speciality": "emergency;internal;dermatology;dermatovenereology;allergology;otolaryngology;dental_oral_maxillo_facial_surgery;neurology;urology;pathology;nuclear;cardiothoracic_surgery;dentistry;surgery;psychiatry;radiology;anaesthetics;intensive;neurosurgery", "landuse": "military", "loc_name": "BwZK", "military": "hospital", "name": "Bundeswehrzentralkrankenhaus Koblenz", "official_name": "BundeswehrZentralkrankenhaus Koblenz", "operator": "Bundeswehr", "operator:type": "government", "short_name": "BwZKrhs Koblenz", "start_date": "1957-07-02", "type": "multipolygon", "wheelchair": "yes", "wikidata": "Q1009286", "wikipedia": "de:Bundeswehrzentralkrankenhaus Koblenz"}}, {"name": "Universitätsklinikum Bonn", "latitude": 50.7000917, "longitude": 7.1042362, "source": "osm", "_tags": {"addr:housenumber": "1", "addr:street": "Venusberg-Campus", "alt_name": "Uniklinikum Bonn", "amenity": "hospital", "emergency": "yes", "healthcare": "hospital", "loc_name": "Uniklinik Bonn", "name": "Universitätsklinikum Bonn", "operator": "Universitätsklinikum Bonn AöR", "phone": "+49 228 287 0", "short_name": "UKB", "type": "multipolygon", "website": "https://www.ukb.uni-bonn.de/", "wikidata": "Q2496385", "wikipedia": "de:Universitätsklinikum Bonn"}}]