[{"name": "Centre Hospitalier Jean de Luxembourg", "latitude": 50.6126187, "longitude": 2.986561, "source": "osm", "_tags": {"addr:city": "Haubourdin", "addr:country": "FR", "addr:housenumber": "29", "addr:postcode": "59481", "addr:street": "Rue Henri Barbusse", "amenity": "hospital", "check_date": "2024-12-21", "healthcare": "hospital", "name": "Centre Hospitalier Jean de Luxembourg", "phone": "+33320101515", "ref:FR:FINESS": "590000089", "source": "Le ministère des solidarités et de la santé - 03/2019", "type:FR:FINESS": "355"}}, {"name": "Hôpital de Carvin", "latitude": 50.496545, "longitude": 2.9614658, "source": "osm", "_tags": {"amenity": "hospital", "name": "Hôpital de Carvin", "ref:FR:FINESS": "620000232", "source": "cadastre-dgi-fr source : Direction Générale des Impôts - Cadastre. Mise à jour : 2011"}}, {"name": "Clinique psychiatrique", "latitude": 50.447908, "longitude": 3.4250523, "source": "osm", "_tags": {"amenity": "hospital", "emergency": "no", "healthcare": "hospital", "name": "Clinique psychiatrique", "ref:FR:FINESS": "590037511", "source": "Le ministère des solidarités et de la santé - 03/2019"}}, {"name": "Centre Hospitalier La Bassée", "latitude": 50.5330162, "longitude": 2.8077283, "source": "osm", "_tags": {"amenity": "hospital", "healthcare": "hospital", "name": "Centre Hospitalier La Bassée", "ref:FR:FINESS": "590000097", "source": "Le ministère des solidarités et de la santé - 03/2019", "type:FR:FINESS": "355"}}, {"name": "USLD Au Fil de l'Eau", "latitude": 50.5487314, "longitude": 3.0183868, "source": "osm", "_tags": {"amenity": "hospital", "healthcare": "hospital", "name": "USLD Au Fil de l'Eau", "ref:FR:FINESS": "590804522", "type:FR:FINESS": "362"}}, {"name": "Maternité de Beaumont", "latitude": 50.6803842, "longitude": 3.1743074, "source": "osm", "_tags": {"addr:city": "Roubaix", "addr:housenumber": "80", "addr:postcode": "59100", "addr:street": "Rue de Beaumont", "description": "La maternité de Beaumont remplace la maternité Paul Gellé depuis le 16 mai 2017.", "facebook": "Maternité de Beaumont", "healthcare": "hospital", "healthcare:speciality": "obstetrics", "name": "Maternité de Beaumont", "operator": "Centre Hospitalier de Roubaix", "operator:type": "public", "phone": "+33 3 20 99 31 31", "website": "http://www.ch-roubaix.fr/#recherche/service/s/maternite"}}, {"name": "SSR Les Abeilles", "latitude": 50.161401, "longitude": 3.4853458, "source": "osm", "_tags": {"addr:housenumber": "11", "addr:postcode": "59730", "addr:street": "Rue Foch", "amenity": "hospital", "healthcare": "hospital", "internet_access": "wlan", "name": "SSR Les Abeilles", "opening_hours": "24/7", "phone": "+33 3 27 73 77 77", "ref:FR:FINESS": "590783171", "type:FR:FINESS": "109"}}, {"name": "Cabinet Médical Montebello", "latitude": 50.6250464, "longitude": 3.0420849, "source": "osm", "_tags": {"amenity": "doctors", "check_date:opening_hours": "2023-05-01", "contact:city": "Lille", "contact:housenumber": "27", "contact:postcode": "59000", "contact:street": "Boulevard Montebello", "healthcare": "hospital", "healthcare:speciality": "general;neurology", "name": "Cabinet Médical Montebello", "opening_hours:signed": "no"}}, {"name": "Centres d’Education et de Prévention en Santé", "latitude": 50.6809115, "longitude": 3.1981261, "source": "osm", "_tags": {"addr:city": "Roubaix", "addr:housenumber": "85", "addr:postcode": "59100", "addr:street": "Rue de Maufait", "amenity": "hospital", "healthcare": "centre", "name": "Centres d’Education et de Prévention en Santé", "type:FR:FINESS": "636", "website": "https://www.ch-roubaix.fr/nos-prises-en-charge-specialisees/centre-dexamens-de-sante/"}}, {"name": "G.I.E SCANNER DU VERMANDOIS Centre de scanographie", "latitude": 49.8598142, "longitude": 3.3101371, "source": "osm", "_tags": {"addr:city": "Saint-Quentin", "addr:housenumber": "1", "addr:postcode": "02100", "addr:street": "Boulevard du Docteur Schweitzer", "amenity": "hospital", "healthcare": "hospital", "name": "G.I.E SCANNER DU VERMANDOIS Centre de scanographie"}}, {"name": "Hôpital de jour", "latitude": 50.2892724, "longitude": 2.7807949, "source": "osm", "_tags": {"amenity": "hospital", "healthcare": "hospital", "name": "Hôpital de jour", "ref:FR:FINESS": "620032383", "type:FR:FINESS": "355", "website": "https://www.gh-artoisternois.fr/offre-de-soin/structures-de-ville/", "wheelchair": "yes"}}, {"name": "Pavillon Christian", "latitude": 50.6065044, "longitude": 3.0378509, "source": "osm", "_tags": {"amenity": "hospital", "name": "Pavillon Christian", "name:fr": "Pavillon Christiaens - Centre de prélèvements covid 19"}}, {"name": "Centre de jour \"Les 4 Chemins\"", "latitude": 50.6231154, "longitude": 3.0547091, "source": "osm", "_tags": {"amenity": "hospital", "fax": "+33320571122", "healthcare": "yes", "healthcare:speciality": "psychiatry", "name": "Centre de jour \"Les 4 Chemins\"", "operator": "EPSM de l'agglomération lilloise", "operator:type": "public", "phone": "+33320570121", "ref:FR:FINESS": "590802930", "ref:FR:NAF": "86.10Z", "ref:FR:SIRET": "26590870700218", "source": "Le ministère des solidarités et de la santé - 03/2019", "type:FR:FINESS": "292"}}, {"name": "Hôpital de jour Les Mosaïques", "latitude": 50.6201275, "longitude": 3.0438342, "source": "osm", "_tags": {"addr:city": "Lille", "addr:housenumber": "41", "addr:postcode": "59000", "addr:street": "Rue Van Hende", "amenity": "hospital", "healthcare": "hospital", "healthcare:speciality": "psychiatry", "name": "Hôpital de jour Les Mosaïques", "operator": "CHR de Lille", "operator:type": "public", "phone": "+33320571159", "ref:FR:FINESS": "590813374", "ref:FR:SIRET": "26590671900330", "source": "Le ministère des solidarités et de la santé - 2021-07", "type:FR:FINESS": "101"}}, {"name": "Centre psychiatrique d'accueil et d'admission", "latitude": 50.619644, "longitude": 3.0759682, "source": "osm", "_tags": {"amenity": "hospital", "fax": "+33320637680", "healthcare": "hospital", "name": "Centre psychiatrique d'accueil et d'admission", "phone": "+33320637600", "ref:FR:FINESS": "590045977", "ref:FR:SIRET": "26590870700010", "source": "Le ministère des solidarités et de la santé - 2021-09", "type:FR:FINESS": "292"}}, {"name": "Centre Mormal", "latitude": 50.2411512, "longitude": 3.6371685, "source": "osm", "_tags": {"addr:city": "Le Quesnoy", "addr:housenumber": "3", "addr:postcode": "59530", "addr:street": "Chemin de Ghissignies", "amenity": "hospital", "emergency": "no", "healthcare": "hospital", "healthcare:speciality": "cardiology;otorhinolaryngology;angiology;dentiste;infirmière;kiné;vascular_surgery;voir_https://centremormal.fr", "name": "Centre Mormal", "operator": "SCM Centre Mormal", "operator:type": "private", "website": "https://centremormal.fr", "wheelchair": "yes"}}, {"name": "Les Petits Cygnes", "latitude": 50.1245035, "longitude": 3.4175294, "source": "osm", "_tags": {"amenity": "hospital", "healthcare": "hospital", "healthcare:speciality": "child_psychiatry", "name": "Les Petits Cygnes", "phone": "+33327850297", "ref:FR:FINESS": "590806709", "ref:FR:SIRET": "26590678400094", "source": "Le ministère des solidarités et de la santé - 2023-05", "type:FR:FINESS": "355"}}, {"name": "L'Escale", "latitude": 50.4183374, "longitude": 2.9517632, "source": "osm", "_tags": {"amenity": "hospital", "fax": "+33321963600", "healthcare": "hospital", "name": "L'Escale", "phone": "+33321764700", "ref:FR:FINESS": "620025080", "ref:FR:SIRET": "26620933700143", "source": "Le ministère des solidarités et de la santé - 2024-09", "type:FR:FINESS": "355"}}, {"name": "Le Cèdre vert", "latitude": 50.7637872, "longitude": 3.0042317, "source": "osm", "_tags": {"amenity": "hospital", "healthcare": "hospital", "name": "Le Cèdre vert", "phone": "+33320394099", "ref:FR:FINESS": "590809141", "ref:FR:SIRET": "26590706300233", "source": "Le ministère des solidarités et de la santé - 2024-11", "type:FR:FINESS": "292"}}, {"name": "Centre psychothérapeutique de jour pour jeunes enfants L'Arc-en-ciel", "latitude": 50.6864635, "longitude": 3.1708393, "source": "osm", "_tags": {"amenity": "hospital", "fax": "+33320206199", "healthcare": "hospital", "name": "Centre psychothérapeutique de jour pour jeunes enfants L'Arc-en-ciel", "phone": "+33320206191", "ref:FR:FINESS": "590817177", "ref:FR:SIRET": "26590870700143", "source": "Le ministère des solidarités et de la santé - 2024-11", "type:FR:FINESS": "292"}}, {"name": "Clinique du Nouveau Monde", "latitude": 50.6974796, "longitude": 3.175806, "source": "osm", "_tags": {"amenity": "hospital", "fax": "+33320286421", "healthcare": "hospital", "healthcare:speciality": "psychiatry", "name": "Clinique du Nouveau Monde", "phone": "+33320286420", "ref:FR:FINESS": "590033718", "ref:FR:SIRET": "26590870700374", "source": "Le ministère des solidarités et de la santé - 2024-11", "type:FR:FINESS": "292"}}, {"name": "USLD Malatray", "latitude": 50.7437128, "longitude": 3.1823921, "source": "osm", "_tags": {"amenity": "hospital", "fax": "+33320692374", "healthcare": "hospital", "name": "USLD Malatray", "phone": "+33320694468", "ref:FR:FINESS": "590817763", "ref:FR:SIRET": "26590700600190", "source": "Le ministère des solidarités et de la santé - 2024-11", "type:FR:FINESS": "355"}}, {"name": "Centre de jour Froissart", "latitude": 50.3639429, "longitude": 3.5228646, "source": "osm", "_tags": {"amenity": "hospital", "healthcare": "hospital", "name": "Centre de jour Froissart", "phone": "+33327140783", "ref:FR:FINESS": "590064119", "source": "Le ministère des solidarités et de la santé - 2025-05", "type:FR:FINESS": "355"}}, {"name": "Centre de jour-CMP-CATTP", "latitude": 50.3924158, "longitude": 3.532918, "source": "osm", "_tags": {"addr:housenumber": "203bis", "addr:street": "Rue Jean Jaurès", "amenity": "hospital", "healthcare": "hospital", "name": "Centre de jour-CMP-CATTP", "phone": "+33327228784", "ref:FR:FINESS": "590046728;590071767;590071775", "ref:FR:SIRET": "26590673500328", "source": "Le ministère des solidarités et de la santé - 2025-07", "type:FR:FINESS": "355"}}, {"name": "Centre de Soins et d'Accompagnement et de Prévention en Addictologie", "latitude": 50.6192753, "longitude": 3.0452429, "source": "osm", "_tags": {"amenity": "hospital", "building": "yes", "healthcare": "hospital", "mapillary": "209558021001648", "name": "Centre de Soins et d'Accompagnement et de Prévention en Addictologie", "ref:FR:FINESS": "590815098", "source": "Le ministère des solidarités et de la santé - 03/2019", "survey:date": "2017-08-23"}}, {"name": "Hôpital privé Bois-Bernard", "latitude": 50.3763331, "longitude": 2.9090688, "source": "osm", "_tags": {"amenity": "hospital", "emergency": "yes", "fax": "+33 3 21 79 28 05", "healthcare": "hospital", "name": "Hôpital privé Bois-Bernard", "operator": "Ramsay Santé", "operator:type": "private", "operator:wikidata": "Q3123085", "phone": "+33 3 74 82 00 00", "ref:FR:FINESS": "620101501", "type:FR:FINESS": "365", "website": "https://hopital-prive-bois-bernard.ramsaygds.fr/"}}, {"name": "Établissement Public de Santé Mentale des Flandres", "latitude": 50.7460929, "longitude": 2.7442707, "source": "osm", "_tags": {"amenity": "hospital", "emergency": "no", "healthcare": "hospital", "name": "Établissement Public de Santé Mentale des Flandres", "ref:FR:FINESS": "590000790", "short_name": "EPSM des Flandres", "type:FR:FINESS": "292"}}, {"name": "Centre Hospitalier Régional Universitaire de Lille", "latitude": 50.6083351, "longitude": 3.0336364, "source": "osm", "_tags": {"CLC:id": "FR-1046", "alt_name": "CHRU de Lille", "amenity": "hospital", "emergency": "yes", "healthcare": "hospital", "healthcare:speciality": "intensive", "name": "Centre Hospitalier Régional Universitaire de Lille", "ref:FR:FINESS": "590000105", "source": "Le ministère des solidarités et de la santé - 03/2019", "survey:date": "2014", "website": "https://www.chu-lille.fr/", "wheelchair": "yes", "wikidata": "Q2945741", "wikipedia": "fr:Centre hospitalier universitaire de Lille"}}, {"name": "Centre Hospitalier de Cambrai", "latitude": 50.1652208, "longitude": 3.2240214, "source": "osm", "_tags": {"amenity": "hospital", "contact:city": "Cambrai", "contact:fax": "+33 3 27 73 73 85", "contact:housenumber": "516", "contact:phone": "+33 3 27 73 73 73", "contact:postcode": "59400", "contact:street": "Avenue de Paris", "contact:website": "https://www.ch-cambrai.fr/", "emergency": "yes", "healthcare": "hospital", "healthcare:speciality": "intensive;psychiatry;emergency;clinical_pathology;community;surgery;paediatrics", "name": "Centre Hospitalier de Cambrai", "operator:type": "public", "ref:FR:FINESS": "590000428", "type:FR:FINESS": "355", "updated": "2023-12-29"}}, {"name": "Clinique du Croisé Laroche", "latitude": 50.6663416, "longitude": 3.101669, "source": "osm", "_tags": {"addr:city": "Marcq-en-Barœul", "addr:country": "FR", "addr:housenumber": "199", "addr:postcode": "59700", "addr:street": "Rue de la Rianderie", "amenity": "hospital", "building": "hospital", "healthcare": "hospital", "name": "Clinique du Croisé Laroche", "ref:FR:FINESS": "590781951", "source": "cadastre-dgi-fr source : Direction Générale des Impôts - Cadastre ; mise à jour : 2010", "type:FR:FINESS": "365"}}, {"name": "Clinique de la Victoire", "latitude": 50.7165133, "longitude": 3.1567706, "source": "osm", "_tags": {"amenity": "hospital", "building": "yes", "healthcare": "hospital", "name": "Clinique de la Victoire", "ref:FR:FINESS": "590817458", "source": "cadastre-dgi-fr source : Direction Générale des Impôts - Cadastre ; mise à jour : 2010", "type:FR:FINESS": "365"}}, {"name": "Halle Saint-Vincent-de-Paul", "latitude": 50.6220368, "longitude": 3.0777952, "source": "osm", "_tags": {"amenity": "hospital", "building": "yes", "healthcare": "hospital", "name": "Halle Saint-Vincent-de-Paul", "operator": "Hôpital Saint-Vincent de Paul", "operator:type": "private", "source": "cadastre-dgi-fr source : Direction Générale des Impôts - Cadastre. Mise à jour : 2010", "was:building": "industrial"}}, {"name": "Hôpital de Jour Isabeau", "latitude": 50.6961189, "longitude": 3.1871229, "source": "osm", "_tags": {"amenity": "hospital", "building": "yes", "emergency": "no", "healthcare": "hospital", "name": "Hôpital de Jour Isabeau", "ref:FR:FINESS": "590802781", "source": "cadastre-dgi-fr source : Direction Générale des Impôts - Cadastre. Mise à jour : 2010", "type:FR:FINESS": "292"}}, {"name": "", "latitude": 50.6781041, "longitude": 3.1730918, "source": "osm", "_tags": {"addr:housenumber": "26", "addr:postcode": "59100", "addr:street": "Boulevard Lacordaire", "amenity": "hospital", "building": "yes", "healthcare": "hospital", "healthcare:speciality": "endocrinology", "operator": "Centre Hospitalier de Roubaix", "operator:type": "public", "source": "cadastre-dgi-fr source : Direction Générale des Impôts - Cadastre. Mise à jour : 2010"}}, {"name": "Établissement Public de Santé Mentale", "latitude": 50.6822657, "longitude": 2.8933031, "source": "osm", "_tags": {"amenity": "hospital", "emergency": "no", "healthcare": "hospital", "name": "Établissement Public de Santé Mentale", "ref:FR:FINESS": "590000782", "type:FR:FINESS": "292"}}, {"name": "EPSM de l'Agglomération Lilloise Lommelet", "latitude": 50.6689484, "longitude": 3.046476, "source": "osm", "_tags": {"amenity": "hospital", "emergency": "no", "healthcare": "hospital", "name": "EPSM de l'Agglomération Lilloise Lommelet", "ref:FR:FINESS": "590001418", "type:FR:FINESS": "292"}}, {"name": "Centre de l'Espoir", "latitude": 50.6216757, "longitude": 3.1228352, "source": "osm", "_tags": {"amenity": "clinic", "building": "yes", "fax": "+33320059316", "healthcare": "hospital", "healthcare:speciality": "physiatry", "name": "Centre de l'Espoir", "phone": "+33320058500", "ref:FR:FINESS": "590797387", "ref:FR:SIRET": "33123261100029", "source": "Le ministère des solidarités et de la santé - 2021-09", "type:FR:FINESS": "109"}}, {"name": "Hôpital Léon Schwartzenberg", "latitude": 50.2518377, "longitude": 3.6271385, "source": "osm", "_tags": {"amenity": "hospital", "building": "yes", "healthcare": "hospital", "name": "Hôpital Léon Schwartzenberg", "ref:FR:FINESS": "590000477", "source": "cadastre-dgi-fr source : Direction Générale des Impôts - Cadastre. Mise à jour : 2010", "type:FR:FINESS": "365"}}, {"name": "Centre Hospitalier de Lens", "latitude": 50.4392633, "longitude": 2.8175503, "source": "osm", "_tags": {"addr:city": "Lens", "addr:housenumber": "99", "addr:postcode": "62300", "addr:street": "Route de La Bassée", "alt_name": "Centre Hospitalier Docteur Schaffner", "amenity": "hospital", "emergency": "yes", "fax": "+33 3 21 69 16 57", "healthcare": "hospital", "healthcare:speciality": "intensive", "name": "Centre Hospitalier de Lens", "operator:type": "public", "phone": "+33 3 21 69 12 34", "ref:FR:FINESS": "620000257", "source": "cadastre-dgi-fr source : Direction Générale des Impôts - Cadastre. Mise à jour : 2010", "type:FR:FINESS": "355", "website": "https://www.ch-lens.fr/"}}, {"name": "Centre de Santé Médical", "latitude": 50.4905615, "longitude": 2.850085, "source": "osm", "_tags": {"amenity": "hospital", "building": "yes", "check_date": "2024-10-02", "healthcare": "hospital", "name": "Centre de Santé Médical", "ref:FR:FINESS": "620116111", "source": "cadastre-dgi-fr source : Direction Générale des Impôts - Cadastre. Mise à jour : 2010", "type:FR:FINESS": "124"}}, {"name": "Hôpital Saint-Vincent de Paul", "latitude": 50.6200575, "longitude": 3.07718, "source": "osm", "_tags": {"amenity": "hospital", "check_date": "2024-10-11", "emergency": "yes", "fax": "+33 3 20 22 38 78", "healthcare": "hospital", "name": "Hôpital Saint-Vincent de Paul", "operator:type": "private", "phone": "+33 3 20 87 48 48", "ref:FR:FINESS": "590797353", "source": "cadastre-dgi-fr source : Direction Générale des Impôts - Cadastre. Mise à jour : 2011", "type:FR:FINESS": "697", "website": "https://www.saintvincentdepaul-lille.fr/", "wheelchair": "yes"}}, {"name": "Centre Hospitalier de Wallonie picarde - site IMC", "latitude": 50.5931199, "longitude": 3.4026664, "source": "osm", "_tags": {"amenity": "hospital", "contact:website": "https://www.chwapi.be/", "name": "Centre Hospitalier de Wallonie picarde - site IMC", "wheelchair": "yes"}}, {"name": "Maison de Santé et de Cure Médicale La Plaine de la Scarpe", "latitude": 50.391024, "longitude": 3.174762, "source": "osm", "_tags": {"amenity": "hospital", "building": "yes", "healthcare": "alternative", "healthcare:speciality": "physiatry", "name": "Maison de Santé et de Cure Médicale La Plaine de la Scarpe", "ref:FR:FINESS": "590790473", "source": "cadastre-dgi-fr source : Direction Générale des Impôts - Cadastre. Mise à jour : 2011", "type:FR:FINESS": "109"}}, {"name": "Centre de Biologie-Pathologie", "latitude": 50.6092639, "longitude": 3.0316691, "source": "osm", "_tags": {"amenity": "hospital", "building": "hospital", "emergency": "no", "healthcare": "hospital", "name": "Centre de Biologie-Pathologie", "ref:FR:FINESS": "590048468", "source": "cadastre-dgi-fr source : Direction Générale des Impôts - Cadastre. Mise à jour : 2010"}}, {"name": "Polyclinique d'Hénin-Beaumont", "latitude": 50.434642, "longitude": 2.949204, "source": "osm", "_tags": {"addr:city": "Hénin-Beaumont", "addr:housenumber": "110", "addr:postcode": "62110", "addr:street": "Route de Courrières", "amenity": "hospital", "building": "hospital", "emergency": "yes", "fax": "+33 3 21 13 30 11", "healthcare": "hospital", "name": "Polyclinique d'Hénin-Beaumont", "operator": "Groupe AHNAC", "operator:type": "private", "phone": "+33 3 21 13 30 00", "ref:FR:FINESS": "620003376", "source": "cadastre-dgi-fr source : Direction Générale des Impôts - Cadastre. Mise à jour : 2011", "type:FR:FINESS": "365", "website": "https://polyclinique-henin-beaumont.ahnac.com/"}}, {"name": "Hôpital de jour Adèle Hugo", "latitude": 50.3574225, "longitude": 3.280868, "source": "osm", "_tags": {"addr:city": "Somain", "addr:housenumber": "28", "addr:postcode": "59490", "addr:street": "Rue Wilson", "amenity": "hospital", "building": "yes", "emergency": "no", "healthcare": "hospital", "healthcare:speciality": "psychiatry", "name": "Hôpital de jour Adèle Hugo", "operator": "Centre hospitalier de Somain", "ref:FR:FINESS": "590808762", "ref:FR:SIRET": "26590699000055", "source": "cadastre-dgi-fr source : Direction Générale des Impôts - Cadastre. Mise à jour : 2011", "type:FR:FINESS": "355"}}, {"name": "Centre hospitalier d'Arras", "latitude": 50.2956472, "longitude": 2.7580728, "source": "osm", "_tags": {"amenity": "hospital", "emergency": "yes", "fax": "+33 3 21 21 10 02", "healthcare": "hospital", "healthcare:speciality": "intensive", "name": "Centre hospitalier d'Arras", "operator:type": "public", "phone": "+33 3 21 21 10 10", "ref:FR:FINESS": "620000034", "ref:FR:SIRET": "26620925300134", "source": "Le ministère des solidarités et de la santé - 2021-11", "type:FR:FINESS": "355", "website": "https://www.ch-arras.fr/", "wheelchair": "yes"}}, {"name": "Hôpital privé Arras Les Bonnettes", "latitude": 50.3043224, "longitude": 2.7366219, "source": "osm", "_tags": {"amenity": "hospital", "email": "hparraslesbonnettes@gsante.fr", "fax": "+33321602000", "healthcare": "hospital", "name": "Hôpital privé Arras Les Bonnettes", "old_name": "Clinique du Bon Secours", "operator": "Générale de Santé", "operator:type": "private", "phone": "+33321602020", "ref:FR:FINESS": "620100099", "ref:FR:SIRET": "42379263900035", "source": "Le ministère des solidarités et de la santé - 2024-11", "type:FR:FINESS": "365", "website": "https://hopital-prive-arras-les-bonnettes.ramsaygds.fr/", "wheelchair": "yes"}}, {"name": "Clinique Saint-Roch", "latitude": 50.7323657, "longitude": 3.1149972, "source": "osm", "_tags": {"amenity": "hospital", "building": "yes", "emergency": "no", "healthcare": "hospital", "name": "Clinique Saint-Roch", "ref:FR:FINESS": "590810784", "source": "cadastre-dgi-fr source : Direction Générale des Impôts - Cadastre. Mise à jour : 2011", "type:FR:FINESS": "109"}}, {"name": "CMPP", "latitude": 49.828976, "longitude": 3.2803713, "source": "osm", "_tags": {"addr:city": "Gauchy", "addr:housenumber": "1", "addr:postcode": "02430", "addr:street": "Allée de l'Espoir", "alt_name": "Centre Medico-Psycho-Pédiatrique", "amenity": "hospital", "building": "yes", "building:levels": "1", "healthcare": "hospital", "healthcare:speciality": "psychiatry", "name": "CMPP", "ref:FR:FINESS": "020002481", "type:FR:FINESS": "189"}}, {"name": "Centre hospitalier de Saint-Quentin", "latitude": 49.8605475, "longitude": 3.2686019, "source": "osm", "_tags": {"amenity": "hospital", "emergency": "yes", "fax": "+33 3 23 06 73 01", "healthcare": "hospital", "healthcare:speciality": "maternity;psychiatry;ophthalmology;radiology;intensive", "name": "Centre hospitalier de Saint-Quentin", "operator:type": "public", "phone": "+33 3 23 06 71 71", "ref:FR:FINESS": "020000162", "type:FR:FINESS": "355", "website": "https://www.ch-stquentin.fr/", "wikidata": "Q50039537"}}, {"name": "Centre Hospitalier de Bailleul", "latitude": 50.7369518, "longitude": 2.7371919, "source": "osm", "_tags": {"amenity": "hospital", "healthcare": "hospital", "name": "Centre Hospitalier de Bailleul", "ref:FR:FINESS": "590000766", "source": "Le ministère des solidarités et de la santé - 03/2019", "type:FR:FINESS": "355"}}, {"name": "Polyclinique Vauban", "latitude": 50.3605898, "longitude": 3.512818, "source": "osm", "_tags": {"amenity": "hospital", "emergency": "yes", "fax": "+33 3 27 32 42 53", "healthcare": "hospital", "name": "Polyclinique Vauban", "operator": "Groupe Elsan", "operator:type": "private", "operator:wikidata": "Q48747106", "phone": "+33 8 26 20 42 52", "ref:FR:FINESS": "590008041", "type:FR:FINESS": "365", "website": "http://www.vauban.groupe-elsan.com/", "wheelchair": "yes"}}, {"name": "Clinique Aloïse Corbaz", "latitude": 50.2971425, "longitude": 2.761149, "source": "osm", "_tags": {"amenity": "hospital", "building": "hospital", "building:levels": "4", "healthcare": "hospital", "healthcare:speciality": "psychiatry", "height": "12", "name": "Clinique Aloïse Corbaz", "name:etymology:wikidata": "Q124783", "ref:FR:FINESS": "620035501", "source": "cadastre-dgi-fr source : Direction Générale des Impôts - Cadastre. Mise à jour : 2011", "start_date": "2004", "type:FR:FINESS": "355", "wheelchair": "yes"}}, {"name": "Hôpital André Fourrier", "latitude": 50.6097542, "longitude": 3.0337862, "source": "osm", "_tags": {"amenity": "hospital", "building": "yes", "check_date": "2024-05-27", "healthcare": "hospital", "name": "Hôpital André Fourrier", "ref:FR:FINESS": "590062279", "source": "Le ministère des solidarités et de la santé - 2021-09", "type:FR:FINESS": "101"}}, {"name": "CHwapi", "latitude": 50.5997055, "longitude": 3.3852965, "source": "osm", "_tags": {"addr:city": "Tournai", "addr:housenumber": "51", "addr:postcode": "7500", "addr:street": "Rue des Sports", "amenity": "hospital", "contact:website": "https://www.chwapi.be/", "emergency": "yes", "emergency_ward": "complete", "healthcare": "hospital", "healthcare:speciality": "general", "name": "CHwapi", "official_name": "Centre Hospitalier De Wallonie Picarde (Chwapi) - Union", "old_name": "CHwapi - Site Union", "phone": "+32 69 33 31 11", "ref:fps_health:campus": "2830", "ref:fps_health:recognition": "534"}}, {"name": "AZ Glorieux", "latitude": 50.7555685, "longitude": 3.6027512, "source": "osm", "_tags": {"addr:housenumber": "55", "addr:street": "Stefaan-Modest Glorieuxlaan", "amenity": "hospital", "email": "info@azglorieux.be", "emergency": "yes", "emergency_ward": "complete", "healthcare": "hospital", "healthcare:speciality": "general", "name": "AZ Glorieux", "phone": "+32 55 23 30 11", "ref:fps_health:campus": "1680", "ref:fps_health:recognition": "550", "website": "https://azglorieux.be/"}}, {"name": "Polyclinique de Riaumont", "latitude": 50.416567, "longitude": 2.7838569, "source": "osm", "_tags": {"amenity": "hospital", "emergency": "yes", "fax": "+33 3 21 44 84 61", "healthcare": "hospital", "name": "Polyclinique de Riaumont", "operator": "AHNAC", "operator:type": "private", "phone": "+33 3 21 44 80 80", "ref:FR:FINESS": "620003350", "type:FR:FINESS": "365", "website": "https://polyclinique-lievin.ahnac.com/"}}, {"name": "Centre de Soins", "latitude": 50.3413755, "longitude": 3.346774, "source": "osm", "_tags": {"amenity": "hospital", "building": "yes", "healthcare": "alternative", "historic": "building", "name": "Centre de Soins", "operator": "CA.R.MI", "ref:FR:FINESS": "590786984", "ref:whc": "1360-019E", "source": "cadastre-dgi-fr source : Direction Générale des Impôts - Cadastre. Mise à jour : 2012", "type:FR:FINESS": "109"}}, {"name": "Centre Hospitalier", "latitude": 50.4467245, "longitude": 3.4333873, "source": "osm", "_tags": {"amenity": "hospital", "healthcare": "hospital", "name": "Centre Hospitalier", "ref:FR:FINESS": "590000600", "type:FR:FINESS": "355"}}, {"name": "Polyclinique du Parc", "latitude": 50.373405, "longitude": 3.5511821, "source": "osm", "_tags": {"addr:city": "Saint-Saulve", "addr:housenumber": "62", "addr:postcode": "59880", "addr:street": "Rue Henri Barbusse", "amenity": "hospital", "building": "yes", "healthcare": "hospital", "name": "Polyclinique du Parc", "ref:FR:FINESS": "590782298", "ref:FR:SIRET": "32262352100018", "source": "cadastre-dgi-fr source : Direction Générale des Impôts - Cadastre. Mise à jour : 2013", "type:FR:FINESS": "365"}}, {"name": "Centre Hospitalier de Valenciennes", "latitude": 50.3602739, "longitude": 3.5014134, "source": "osm", "_tags": {"amenity": "hospital", "emergency": "yes", "fax": "+33 3 27 14 31 12", "healthcare": "hospital", "healthcare:speciality": "intensive", "name": "Centre Hospitalier de Valenciennes", "operator:type": "public", "phone": "+33 3 27 14 33 33", "ref:FR:FINESS": "590000618", "type:FR:FINESS": "355", "website": "https://www.ch-valenciennes.fr/", "wikidata": "Q22961088"}}, {"name": "Hôpital Michel Fontan", "latitude": 50.6105605, "longitude": 3.0281975, "source": "osm", "_tags": {"alt_name": "Hôpital Michel Fontan 1", "amenity": "hospital", "building": "yes", "healthcare": "hospital", "name": "Hôpital Michel Fontan", "ref:FR:FINESS": "590791653", "type:FR:FINESS": "101"}}, {"name": "Centre hospitalier d'Armentières", "latitude": 50.6847018, "longitude": 2.8678808, "source": "osm", "_tags": {"amenity": "hospital", "emergency": "yes", "fax": "+33 3 20 48 10 37", "healthcare": "hospital", "healthcare:speciality": "intensive", "name": "Centre hospitalier d'Armentières", "operator:type": "public", "phone": "+33 3 20 48 33 33", "ref:FR:FINESS": "590000758", "type:FR:FINESS": "355", "website": "https://www.ch-armentieres.fr/", "wheelchair": "yes"}}, {"name": "Centre hospitalier de Tourcoing", "latitude": 50.7455712, "longitude": 3.1814065, "source": "osm", "_tags": {"alt_name": "Hôpital Guy Chatiliez", "amenity": "hospital", "emergency": "yes", "fax": "+33 3 20 69 43 87", "healthcare": "hospital", "healthcare:speciality": "intensive", "name": "Centre hospitalier de Tourcoing", "phone": "+33 3 20 69 49 49", "ref:FR:FINESS": "590804696", "type:FR:FINESS": "355", "website": "https://www.ch-tourcoing.fr/", "wikidata": "Q30281562"}}, {"name": "Centre hospitalier de Roubaix", "latitude": 50.6797338, "longitude": 3.1725315, "source": "osm", "_tags": {"alt_name": "Hôpital Victor Provo", "amenity": "hospital", "emergency": "yes", "fax": "+33 3 20 99 30 01", "healthcare": "hospital", "healthcare:speciality": "intensive", "name": "Centre hospitalier de Roubaix", "operator:type": "public", "phone": "+33 3 20 99 31 31", "ref:FR:FINESS": "590801106", "source": "cadastre-dgi-fr source : Direction Générale des Finances Publiques - Cadastre. Mise à jour : 2018", "type:FR:FINESS": "355", "wall": "no", "website": "http://www.ch-roubaix.fr/#"}}, {"name": "Hôpital Claude Huriez", "latitude": 50.6105208, "longitude": 3.034724, "source": "osm", "_tags": {"addr:city": "Lille", "addr:country": "FR", "addr:postcode": "59037", "addr:street": "Rue Michel Polonovski", "amenity": "hospital", "architect": "Jean Walter;Urbain Cassan;Louis Madeline", "architect:wikipedia": "fr:Jean Walter", "building": "hospital", "healthcare": "hospital", "healthcare:speciality": "intensive", "name": "Hôpital Claude Huriez", "operator:type": "public", "ref:FR:FINESS": "590811279", "source": "cadastre-dgi-fr source : Direction Générale des Impôts - Cadastre. Mise à jour : 2010", "type:FR:FINESS": "101", "wheelchair": "yes"}}, {"name": "Hôpital Privé La Louvière", "latitude": 50.6467023, "longitude": 3.0839193, "source": "osm", "_tags": {"alt_name": "Polyclinique de la Louvière", "amenity": "hospital", "check_date": "2025-04-24", "contact:email": "contact.hplalouviere@gsante.fr", "contact:fax": "+33 3 20 15 77 77", "contact:housenumber": "69", "contact:phone": "+33 826 30 70 00", "contact:postcode": "59042", "contact:website": "http://www.generale-de-sante.fr/hopital-prive-la-louviere-lille", "description": "L'hôpital ne possède pas de Service d'Accueil des Urgences mais dispose de quelques lits d'urgences cardiologiques", "dog": "no", "emergency": "no", "healthcare": "hospital", "mapillary": "224922962433931", "name": "Hôpital Privé La Louvière", "operator": "Générale de Santé", "ref:FR:FINESS": "590780383", "ref:FR:SIRET": "47150251800015", "source": "www.generale-de-sante.fr;Bing;cadastre-dgi-fr source : Direction Générale des Impôts - Cadastre;mise à jour : 2013"}}, {"name": "Clinique de l'Escrebieux", "latitude": 50.374841, "longitude": 3.0011231, "source": "osm", "_tags": {"amenity": "hospital", "healthcare": "hospital", "name": "Clinique de l'Escrebieux", "ref:FR:FINESS": "590813069", "type:FR:FINESS": "161"}}, {"name": "Centre Hospitalier de Somain", "latitude": 50.3546814, "longitude": 3.2878563, "source": "osm", "_tags": {"addr:city": "Somain", "addr:postcode": "59490", "addr:street": "Rue Joseph Bouliez", "amenity": "hospital", "healthcare": "hospital", "name": "Centre Hospitalier de Somain", "ref:FR:FINESS": "590000014", "short_name": "CH Somain", "type:FR:FINESS": "355"}}, {"name": "Centre Sainte-Barbe", "latitude": 50.4219135, "longitude": 2.8919622, "source": "osm", "_tags": {"amenity": "hospital", "healthcare": "hospital", "name": "Centre Sainte-Barbe", "official_name": "Fondation Hopale - Centre Sainte-Barbe", "operator": "Hopale", "ref:FR:FINESS": "620003822", "source": "cadastre-dgi-fr source : Direction Générale des Impôts - Cadastre. Mise à jour : 2015", "type:FR:FINESS": "109"}}, {"name": "Hôpital de Jour", "latitude": 50.7157574, "longitude": 3.1567171, "source": "osm", "_tags": {"amenity": "hospital", "building": "yes", "healthcare": "hospital", "name": "Hôpital de Jour", "ref:FR:FINESS": "590809133", "type:FR:FINESS": "292"}}, {"name": "Clinique Tessier", "latitude": 50.360358, "longitude": 3.4986985, "source": "osm", "_tags": {"amenity": "hospital", "beds": "118", "building": "hospital", "healthcare": "hospital", "healthcare:speciality": "pulmonology", "name": "Clinique Tessier", "operator:type": "private", "ref:FR:FINESS": "590785374", "source": "cadastre-dgi-fr source : Direction Générale des Finances Publiques - Cadastre. Mise à jour : 2015", "type:FR:FINESS": "365", "website": "https://clinique-teissier.ahnac.com/"}}, {"name": "Centre Hospitalier de Seclin", "latitude": 50.5470467, "longitude": 3.0180906, "source": "osm", "_tags": {"amenity": "hospital", "emergency": "yes", "healthcare": "hospital", "name": "Centre Hospitalier de Seclin", "operator:type": "public", "ref:FR:FINESS": "590000121", "type:FR:FINESS": "355", "website": "https://www.ghsc.fr/"}}, {"name": "Unité Hospitalière Spécialement Aménagée", "latitude": 50.5472082, "longitude": 3.0145205, "source": "osm", "_tags": {"amenity": "prison", "healthcare": "hospital", "name": "Unité Hospitalière Spécialement Aménagée", "ref:FR:FINESS": "590045886", "short_name": "UHSA", "type:FR:FINESS": "292"}}, {"name": "Maison de Repos", "latitude": 50.7189472, "longitude": 3.45599, "source": "osm", "_tags": {"amenity": "hospital", "emergency": "no", "healthcare": "hospital", "name": "Maison de Repos"}}, {"name": "Centre hospitalier de Guise", "latitude": 49.9022224, "longitude": 3.6399051, "source": "osm", "_tags": {"amenity": "hospital", "healthcare": "hospital", "name": "Centre hospitalier de Guise", "ref:FR:FINESS": "020016366", "source": "Le ministère des solidarités et de la santé - 03/2019"}}, {"name": "Le Roseau Vert", "latitude": 50.3772607, "longitude": 3.6657013, "source": "osm", "_tags": {"addr:housenumber": "2", "addr:street": "Place du Roseau Vert", "amenity": "hospital", "healthcare": "hospital", "name": "Le Roseau Vert"}}, {"name": "Centre Hospitalier de Péronne", "latitude": 49.9340528, "longitude": 2.9297875, "source": "osm", "_tags": {"amenity": "hospital", "emergency": "yes", "fax": "+33 3 22 84 04 26", "healthcare": "hospital", "name": "Centre Hospitalier de Péronne", "operator:type": "public", "phone": "+33 3 22 83 60 00", "ref:FR:FINESS": "800000432", "type:FR:FINESS": "355", "website": "https://www.ch-peronne.fr/"}}, {"name": "Centre hospitalier de Denain", "latitude": 50.328732, "longitude": 3.3937911, "source": "osm", "_tags": {"amenity": "hospital", "emergency": "yes", "fax": "+33 3 27 24 30 14", "healthcare": "hospital", "name": "Centre hospitalier de Denain", "operator:type": "public", "phone": "+33 3 27 24 30 00", "ref:FR:FINESS": "590000592", "type:FR:FINESS": "355", "website": "https://www.ch-denain.fr/"}}, {"name": "Centre hospitalier Le Cateau", "latitude": 50.104637, "longitude": 3.5335827, "source": "osm", "_tags": {"amenity": "hospital", "emergency": "yes", "fax": "+33 3 27 84 66 13", "healthcare": "hospital", "name": "Centre hospitalier Le Cateau", "operator:type": "public", "phone": "+33 3 27 84 66 66", "ref:FR:FINESS": "590000436", "type:FR:FINESS": "355", "website": "https://www.ch-lecateau.fr/"}}, {"name": "Centre Hospitalier de Douai", "latitude": 50.337892, "longitude": 3.1035313, "source": "osm", "_tags": {"amenity": "hospital", "emergency": "yes", "fax": "+33 3 27 99 62 80", "healthcare": "hospital", "healthcare:speciality": "intensive", "name": "Centre Hospitalier de Douai", "operator:type": "public", "phone": "+33 3 27 99 61 61", "ref:FR:FINESS": "590001004", "source": "cadastre-dgi-fr source : Direction Générale des Impôts - Cadastre. Mise à jour : 2011", "type:FR:FINESS": "355", "website": "https://www.ch-douai.fr/", "wikidata": "Q50036400"}}, {"name": "Scanner Gie Liévin", "latitude": 50.4167743, "longitude": 2.7843509, "source": "osm", "_tags": {"addr:city": "Liévin", "addr:postcode": "62800", "addr:street": "Rue D'entre Deux Monts", "building": "yes", "healthcare": "hospital", "healthcare:speciality": "scanner", "name": "Scanner Gie Liévin", "phone": "+33 321 449 800", "source": "cadastre-dgi-fr source : Direction Générale des Impôts - Cadastre. Mise à jour : 2018"}}, {"name": "Centre Hospitalier de Bapaume", "latitude": 50.1028781, "longitude": 2.856624, "source": "osm", "_tags": {"amenity": "hospital", "healthcare": "hospital", "name": "Centre Hospitalier de Bapaume", "ref:FR:FINESS": "620000059", "source": "Le ministère des solidarités et de la santé - 03/2019", "website": "https://www.ch-arras.fr/Groupe-Hospitalier-Artois-Ternois/Centre-Hospitalier-de-Bapaume"}}, {"name": "Centre Hospitalier d'Hénin-Beaumont", "latitude": 50.4306266, "longitude": 2.9437084, "source": "osm", "_tags": {"amenity": "hospital", "contact:phone": "+33 3 21 08 15 15", "contact:website": "http://www.ch-henin.fr/", "emergency": "no", "healthcare": "hospital", "name": "Centre Hospitalier d'Hénin-Beaumont", "ref:FR:FINESS": "620000240", "short_name": "CHHB", "source": "Le ministère des solidarités et de la santé - 10/2018", "type:FR:FINESS": "355", "wikidata": "Q53580663"}}, {"name": "CHwapi - site Notre-Dame", "latitude": 50.6133748, "longitude": 3.3866781, "source": "osm", "_tags": {"amenity": "hospital", "healthcare": "hospital", "name": "CHwapi - site Notre-Dame"}}, {"name": "CRP Les Marronniers", "latitude": 50.5948819, "longitude": 3.3926452, "source": "osm", "_tags": {"addr:city": "Tournai", "addr:housenumber": "94", "addr:postcode": "7500", "addr:street": "Rue Despars", "amenity": "hospital", "emergency": "no", "healthcare": "hospital", "healthcare:speciality": "psychiatry", "layer": "1", "name": "CRP Les Marronniers"}}, {"name": "Clinique Saint-Amé", "latitude": 50.3587184, "longitude": 3.0583999, "source": "osm", "_tags": {"amenity": "hospital", "emergency": "yes", "fax": "+33 3 27 71 17 18", "healthcare": "hospital", "name": "Clinique Saint-Amé", "operator": "Ramsay Santé", "operator:type": "private", "operator:wikidata": "Q3123085", "phone": "+33 3 74 82 17 17", "ref:FR:FINESS": "590816310", "source": "cadastre-dgi-fr source : Direction Générale des Impôts - Cadastre. Mise à jour : 2019", "type:FR:FINESS": "365", "website": "https://clinique-saint-ame-douai.ramsaygds.fr/"}}, {"name": "Centre Hospitalier Spécialisé", "latitude": 50.5963673, "longitude": 3.3908552, "source": "osm", "_tags": {"addr:city": "Tournai", "addr:housenumber": "94", "addr:postcode": "7500", "addr:street": "Rue Despars", "building": "yes", "healthcare": "hospital", "name": "Centre Hospitalier Spécialisé"}}, {"name": "Centre Thérapeutique Culturel et Sportif", "latitude": 50.5959067, "longitude": 3.3910326, "source": "osm", "_tags": {"addr:city": "Tournai", "addr:housenumber": "94", "addr:postcode": "7500", "addr:street": "Rue Despars", "building": "yes", "healthcare": "hospital", "name": "Centre Thérapeutique Culturel et Sportif"}}, {"name": "Maison de Soins Pychiatriques La Traversée", "latitude": 50.5957502, "longitude": 3.3883694, "source": "osm", "_tags": {"addr:city": "Tournai", "addr:housenumber": "94", "addr:postcode": "7500", "addr:street": "Rue Despars", "building": "yes", "healthcare": "hospital", "name": "Maison de Soins Pychiatriques La Traversée"}}, {"name": "Centre Thérapeutique Culturel et Sportif", "latitude": 50.5958169, "longitude": 3.3902034, "source": "osm", "_tags": {"addr:city": "Tournai", "addr:housenumber": "94", "addr:postcode": "7500", "addr:street": "Rue Despars", "building": "yes", "healthcare": "hospital", "name": "Centre Thérapeutique Culturel et Sportif"}}, {"name": "Centre Thérapeutique Culturel et Sportif", "latitude": 50.5961669, "longitude": 3.3901591, "source": "osm", "_tags": {"addr:city": "Tournai", "addr:housenumber": "94", "addr:postcode": "7500", "addr:street": "Rue Despars", "building": "yes", "healthcare": "hospital", "name": "Centre Thérapeutique Culturel et Sportif"}}, {"name": "AZ Groeninge - campus Kennedylaan", "latitude": 50.8016097, "longitude": 3.2648837, "source": "osm", "_tags": {"addr:city": "Kortrijk", "addr:country": "BE", "addr:housenumber": "4", "addr:postcode": "8500", "addr:street": "President Kennedylaan", "amenity": "hospital", "emergency": "yes", "emergency_ward": "complete", "healthcare": "hospital", "healthcare:speciality": "general", "name": "AZ Groeninge - campus Kennedylaan", "ref:fps_health:campus": "1090", "ref:fps_health:recognition": "396", "website": "https://www.azgroeninge.be/", "wikidata": "Q2553113"}}, {"name": "Clinique Psychiatrique du Secteur de Seclin", "latitude": 50.5496482, "longitude": 3.0161277, "source": "osm", "_tags": {"amenity": "hospital", "healthcare": "hospital", "healthcare:speciality": "psychiatry", "name": "Clinique Psychiatrique du Secteur de Seclin", "ref:FR:FINESS": "590060893", "source": "cadastre-dgi-fr source : Direction Générale des Finances Publiques - Cadastre. Mise à jour : 2015", "type:FR:FINESS": "292"}}, {"name": "Hôpital de Loos", "latitude": 50.6104573, "longitude": 3.0079103, "source": "osm", "_tags": {"amenity": "hospital", "fax": "+33362210403", "healthcare": "hospital", "name": "Hôpital de Loos", "phone": "+33362210400", "ref:FR:FINESS": "590804456", "ref:FR:SIRET": "20003523600039", "source": "Le ministère des solidarités et de la santé - 03/2019", "type:FR:FINESS": "500", "wikidata": "Q112971596"}}, {"name": "Hôpital de la Fraternité", "latitude": 50.682234, "longitude": 3.1974791, "source": "osm", "_tags": {"amenity": "hospital", "healthcare": "hospital", "name": "Hôpital de la Fraternité", "ref:FR:FINESS": "590812186", "source": "Le ministère des solidarités et de la santé - 03/2019", "type:FR:FINESS": "355"}}, {"name": "AZ Delta Campus Menen", "latitude": 50.7929051, "longitude": 3.1224163, "source": "osm", "_tags": {"addr:city": "Menen", "addr:country": "BE", "addr:housenumber": "6", "addr:postcode": "8930", "addr:street": "Oude Leielaan", "addr:suburb": "Menen", "amenity": "hospital", "emergency": "yes", "emergency_ward": "complete", "healthcare:speciality": "general", "name": "AZ Delta Campus Menen", "ref:fps_health:campus": "1960", "ref:fps_health:recognition": "117", "website": "https://www.azdelta.be"}}, {"name": "Clinique Ambroise Paré", "latitude": 50.6491575, "longitude": 3.0857549, "source": "osm", "_tags": {"amenity": "hospital", "check_date": "2025-05-26", "healthcare": "hospital", "mapillary": "747788775894185", "name": "Clinique Ambroise Paré", "operator": "Groupe HPM", "phone": "+33826204700", "ref:FR:FINESS": "590780342", "ref:FR:SIRET": "88608028200082", "source": "Le ministère des solidarités et de la santé - 03/2019", "type:FR:FINESS": "365", "website": "http://www.groupehpm.com/clinique-ambroisepare-lille/"}}, {"name": "", "latitude": 49.9377435, "longitude": 2.921991, "source": "osm", "_tags": {"amenity": "hospital", "healthcare": "hospital", "phone": "+33322843686", "ref:FR:FINESS": "800004152", "ref:FR:SIRET": "26800020500065", "source": "Le ministère des solidarités et de la santé - 2021-01", "type:FR:FINESS": "355"}}, {"name": "", "latitude": 50.677855, "longitude": 3.1729195, "source": "osm", "_tags": {"addr:housenumber": "26", "addr:postcode": "59100", "addr:street": "Boulevard Lacordaire", "amenity": "hospital", "building": "yes", "healthcare": "hospital", "healthcare:speciality": "endocrinology", "operator": "Centre Hospitalier de Roubaix", "operator:type": "public"}}, {"name": "Centre Guy Talpaert", "latitude": 50.6776548, "longitude": 3.1722914, "source": "osm", "_tags": {"amenity": "hospital", "healthcare": "hospital", "name": "Centre Guy Talpaert", "ref:FR:FINESS": "590033429", "ref:FR:SIRET": "26590672700184", "source": "Le ministère des solidarités et de la santé - 2021-01", "type:FR:FINESS": "355"}}, {"name": "Centre hospitalier de Wattrelos", "latitude": 50.7000706, "longitude": 3.2225166, "source": "osm", "_tags": {"addr:city": "Wattrelos", "addr:housenumber": "30", "addr:postcode": "59150", "addr:street": "Rue Alexander Fleming", "amenity": "hospital", "emergency": "yes", "healthcare": "hospital", "healthcare:speciality": "general", "name": "Centre hospitalier de Wattrelos", "ref:FR:FINESS": "590000691", "ref:FR:SIRET": "26590701400012", "type:FR:FINESS": "355"}}, {"name": "Institut ophtalmique", "latitude": 50.3599004, "longitude": 3.2774778, "source": "osm", "_tags": {"addr:city": "Somain", "addr:housenumber": "28", "addr:postcode": "59490", "addr:street": "Rue Anatole France", "amenity": "hospital", "emergency": "no", "healthcare": "hospital", "healthcare:speciality": "surgery;ophthalmology", "name": "Institut ophtalmique", "operator": "Institut ophtalmique", "operator:type": "private", "ref:FR:FINESS": "590780060", "ref:FR:NAF": "8622C", "ref:FR:SIRET": "37858963400013", "type:FR:FINESS": "128"}}, {"name": "Centre de psychothérapie - CH de Saint-Quentin", "latitude": 49.8575707, "longitude": 3.2641501, "source": "osm", "_tags": {"addr:city": "Saint-Quentin", "addr:housenumber": "241", "addr:postcode": "02100", "addr:street": "Rue de Fayet", "amenity": "hospital", "healthcare": "hospital", "healthcare:speciality": "physiatry", "name": "Centre de psychothérapie - CH de Saint-Quentin", "operator": "Centre hospitalier de Saint-Quentin", "operator:type": "public", "ref:FR:FINESS": "020006664", "ref:FR:SIRET": "26020861600094", "type:FR:FINESS": "355"}}, {"name": "Centre de rééducation fonctionnelle La Rougeville", "latitude": 50.3725001, "longitude": 3.5519481, "source": "osm", "_tags": {"amenity": "hospital", "contact:website": "https://www.elsan.care/fr/hopitaux-prives-hainaut", "fax": "+33327239313", "healthcare": "hospital", "healthcare:speciality": "physiatry", "name": "Centre de rééducation fonctionnelle La Rougeville", "operator": "Elsan", "operator:type": "private", "operator:wikidata": "Q48747106", "phone": "+33826209400", "ref:FR:FINESS": "590034732", "ref:FR:SIRET": "32262352100018", "source": "Le ministère des solidarités et de la santé - 2025-05", "type:FR:FINESS": "109"}}, {"name": "Clinique Saint-Roch", "latitude": 50.3327474, "longitude": 3.4014425, "source": "osm", "_tags": {"addr:city": "Denain", "addr:housenumber": "440", "addr:postcode": "59220", "addr:street": "Rue Pierre Nève", "amenity": "hospital", "emergency": "no", "healthcare": "hospital", "healthcare:speciality": "physiatry", "name": "Clinique Saint-Roch", "operator": "SAS Clinique Saint-Roch", "operator:type": "private", "ref:FR:FINESS": "590782280", "ref:FR:SIRET": "35298187200042", "type:FR:FINESS": "109"}}, {"name": "Hôpital Saint-Philibert", "latitude": 50.6510858, "longitude": 2.9730844, "source": "osm", "_tags": {"amenity": "hospital", "emergency": "yes", "fax": "+33 3 20 00 56 55", "healthcare": "hospital", "healthcare:speciality": "intensive", "name": "Hôpital Saint-Philibert", "operator:type": "private", "phone": "+33 3 20 22 50 50", "ref:FR:FINESS": "590780284", "source": "cadastre-dgi-fr source : Direction Générale des Impôts - Cadastre. Mise à jour : 2011", "type:FR:FINESS": "365", "website": "https://www.saintphilibert-lomme.fr/"}}, {"name": "Clinique Marie Savoie", "latitude": 50.0967974, "longitude": 3.5389707, "source": "osm", "_tags": {"addr:city": "Le Cateau-Cambrésis", "addr:housenumber": "26", "addr:postcode": "59360", "addr:street": "Avenue du Maréchal de Lattre de Tassigny", "amenity": "hospital", "description:healthcare:speciality": "Post-cure_psychiatrique;Réhabilitation_psychosociale", "email": "clinique.mariesavoie@orpea.net", "fax": "+33 327770547", "healthcare": "hospital", "healthcare:speciality": "psychiatry", "internet_access": "wlan", "name": "Clinique Marie Savoie", "operator": "CLINEA", "operator:type": "private", "phone": "+33 327071300", "source": "cadastre-dgi-fr source : Direction Générale des Impôts - Cadastre. Mise à jour : 2010", "website": "https://www.clinea.fr/clinique-psychiatrique-marie-savoie-le-cateau-cambresis-59", "wheelchair": "yes"}}, {"name": "Centre Hospitalier de Mouscron", "latitude": 50.7483496, "longitude": 3.2200275, "source": "osm", "_tags": {"addr:housenumber": "49", "addr:postcode": "7700", "addr:street": "Avenue de Fécamp", "amenity": "hospital", "email": "info@chmouscron.be", "emergency": "yes", "emergency_ward": "complete", "healthcare": "hospital", "healthcare:speciality": "general", "internet_access": "wlan", "name": "Centre Hospitalier de Mouscron", "phone": "+32 56 85 85 85", "ref:fps_health:campus": "2770", "ref:fps_health:recognition": "247", "short_name": "CHM", "website": "https://www.chmouscron.be/"}}, {"name": "Hôpital gériatrique Les Bateliers", "latitude": 50.6464596, "longitude": 3.0634055, "source": "osm", "_tags": {"addr:city": "Lille", "addr:housenumber": "23", "addr:postcode": "59000", "addr:street": "Rue des Bateliers", "amenity": "hospital", "emergency": "no", "healthcare": "hospital", "healthcare:speciality": "geriatrics", "name": "Hôpital gériatrique Les Bateliers", "operator": "CHRU de Lille", "operator:type": "public", "ref:FR:FINESS": "590791091", "source": "cadastre-dgi-fr source : Direction Générale des Impôts - Cadastre;mise à jour : 2010", "type:FR:FINESS": "101", "wheelchair": "yes"}}, {"name": "Polyclinique du Val de Lys", "latitude": 50.7243422, "longitude": 3.1478211, "source": "osm", "_tags": {"amenity": "hospital", "fax": "+33320234790", "healthcare": "hospital", "name": "Polyclinique du Val de Lys", "phone": "+33320234700", "ref:FR:FINESS": "590817839", "ref:FR:SIRET": "88608028200033", "type:FR:FINESS": "365", "website": "https://clinique-du-val-de-lys-tourcoing.ramsaysante.fr/"}}, {"name": "Centre Hospitalier Le Quesnoy", "latitude": 50.2517676, "longitude": 3.6273549, "source": "osm", "_tags": {"amenity": "hospital", "name": "Centre Hospitalier Le Quesnoy", "ref:FR:FINESS": "590000477", "website": "https://www.ch-lequesnoy.fr/"}}, {"name": "Maison du Médical du pays bas", "latitude": 50.5922735, "longitude": 2.7427954, "source": "osm", "_tags": {"addr:city": "rihebourg", "addr:housenumber": "3", "addr:postcode": "62136", "addr:street": "Rue des Charbonniers", "amenity": "hospital", "healthcare": "hospital", "layer": "1", "name": "Maison du Médical du pays bas", "wheelchair": "yes"}}, {"name": "Hôpital Privé de Villeneuve d'Ascq", "latitude": 50.6528822, "longitude": 3.1525663, "source": "osm", "_tags": {"amenity": "hospital", "emergency": "yes", "fax": "+33320995678", "healthcare": "hospital", "name": "Hôpital Privé de Villeneuve d'Ascq", "operator": "Ramsay Santé", "operator:type": "private", "operator:wikidata": "Q3123085", "operator:wikipedia": "fr:Ramsay Santé", "phone": "+33 3 20 99 41 41", "ref:FR:FINESS": "590782553", "ref:FR:SIRET": "47678033300037", "source": "Le ministère des solidarités et de la santé - 03/2019", "type:FR:FINESS": "365", "website": "https://hopital-prive-villeneuve-d-ascq.ramsaygds.fr/"}}, {"name": "Hôpital Lucien Bonnafé", "latitude": 50.6820065, "longitude": 3.1993627, "source": "osm", "_tags": {"amenity": "hospital", "fax": "+33328325011", "healthcare": "hospital", "name": "Hôpital Lucien Bonnafé", "phone": "+33328325010", "ref:FR:FINESS": "590033668", "ref:FR:SIRET": "26590870700010", "source": "Le ministère des solidarités et de la santé - 2025-01", "type:FR:FINESS": "292"}}, {"name": "Hôpital privé Le Bois", "latitude": 50.6344931, "longitude": 3.0311902, "source": "osm", "_tags": {"addr:city": "Lille", "addr:housenumber": "44", "addr:postcode": "59000", "addr:street": "Avenue Marx Dormoy", "amenity": "clinic", "building": "hospital", "fax": "+33320157777", "healthcare": "hospital", "healthcare:speciality": "intensive", "mapillary": "763401934366064", "name": "Hôpital privé Le Bois", "old_name": "Polyclinique du Bois", "operator": "Ramsay Santé", "operator:type": "private", "operator:wikidata": "Q3123085", "operator:wikipedia": "fr:Ramsay Santé", "phone": "+33 3 59 75 75 75", "ref:FR:FINESS": "590780268", "ref:FR:SIRET": "88608028200090", "source": "cadastre-dgi-fr source : Direction Générale des Impôts - Cadastre;mise à jour : 2008", "survey:date": "2017-09-13", "type": "multipolygon", "type:FR:FINESS": "365", "website": "https://hopital-prive-le-bois-lille.ramsaygds.fr/"}}, {"name": "Hôpital Pierre Swynghedauw", "latitude": 50.6101239, "longitude": 3.0307813, "source": "osm", "_tags": {"amenity": "hospital", "building": "yes", "healthcare": "hospital", "name": "Hôpital Pierre Swynghedauw", "ref:FR:FINESS": "590784898", "type": "multipolygon"}}, {"name": "Hôpital Jeanne de Flandre", "latitude": 50.6057446, "longitude": 3.0329015, "source": "osm", "_tags": {"amenity": "hospital", "building": "hospital", "healthcare": "hospital", "healthcare:speciality": "intensive", "name": "Hôpital Jeanne de Flandre", "operator:type": "public", "ref:FR:FINESS": "590006607", "source": "cadastre-dgi-fr source : Direction Générale des Impôts - Cadastre. Mise à jour : 2010", "type": "multipolygon", "type:FR:FINESS": "101"}}, {"name": "Hôpital Salengro", "latitude": 50.60751, "longitude": 3.0328913, "source": "osm", "_tags": {"addr:city": "Lille", "addr:country": "FR", "addr:postcode": "59037", "amenity": "hospital", "building": "hospital", "fax": "+33320446076", "healthcare": "hospital", "name": "Hôpital Salengro", "phone": "+33320445962", "ref:FR:FINESS": "590796975", "ref:FR:SIRET": "26590671900173", "source": "cadastre-dgi-fr source : Direction Générale des Impôts - Cadastre. Mise à jour : 2010", "type": "multipolygon", "type:FR:FINESS": "101"}}, {"name": "Hôpital Albert Calmette", "latitude": 50.6061136, "longitude": 3.0365206, "source": "osm", "_tags": {"amenity": "hospital", "building": "hospital", "healthcare": "hospital", "name": "Hôpital Albert Calmette", "operator:type": "public", "ref:FR:FINESS": "590784864", "source": "cadastre-dgi-fr source : Direction Générale des Impôts - Cadastre. Mise à jour : 2010", "type": "multipolygon", "type:FR:FINESS": "101"}}, {"name": "Hôpital Fontan 2", "latitude": 50.611219, "longitude": 3.0301083, "source": "osm", "_tags": {"alt_name": "Hôpital Michel Fontan 2", "amenity": "hospital", "building": "yes", "healthcare": "hospital", "name": "Hôpital Fontan 2", "ref:FR:FINESS": "590791653", "type": "multipolygon", "type:FR:FINESS": "101"}}, {"name": "Institut Coeur Poumon", "latitude": 50.6084477, "longitude": 3.0343215, "source": "osm", "_tags": {"amenity": "hospital", "building": "hospital", "healthcare": "hospital", "healthcare:speciality": "intensive", "name": "Institut Coeur Poumon", "operator:type": "public", "ref:FR:FINESS": "590787586", "type": "multipolygon", "type:FR:FINESS": "101", "wikidata": "Q30279862"}}, {"name": "Centre Oscar Lambret", "latitude": 50.6124131, "longitude": 3.0317092, "source": "osm", "_tags": {"amenity": "hospital", "building": "yes", "healthcare": "hospital", "name": "Centre Oscar Lambret", "ref:FR:FINESS": "590000188", "type": "multipolygon", "type:FR:FINESS": "131", "wikidata": "Q30296137"}}]