[{"name": "Laidlaw Day Hospital", "latitude": 50.7088926, "longitude": -1.2994988, "source": "osm", "_tags": {"amenity": "hospital", "healthcare": "hospital", "name": "Laidlaw Day Hospital"}}, {"name": "Christchurch Hospital", "latitude": 50.7451615, "longitude": -1.790275, "source": "osm", "_tags": {"amenity": "hospital", "emergency": "no", "healthcare": "hospital", "name": "Christchurch Hospital", "operator": "Royal Bournemouth & Christchurch Hospitals NHS Foundation Trust", "wikidata": "Q5109080"}}, {"name": "Kings Park Hospital", "latitude": 50.7317716, "longitude": -1.8330574, "source": "osm", "_tags": {"amenity": "hospital", "check_date": "2024-07-09", "emergency": "no", "name": "Kings Park Hospital", "source": "http://www.nhs.uk/Services/hospitals/Facilities/DefaultView.aspx?id=2539"}}, {"name": "Orchard Private Hospital", "latitude": 50.7123856, "longitude": -1.2812029, "source": "osm", "_tags": {"addr:city": "Newport", "addr:country": "GB", "addr:housenumber": "189", "addr:postcode": "PO30 2EP", "addr:street": "Fairlee Road", "amenity": "hospital", "emergency": "no", "fhrs:id": "542061", "healthcare": "hospital", "name": "Orchard Private Hospital"}}, {"name": "Royal Bournemouth Hospital", "latitude": 50.7474951, "longitude": -1.8227757, "source": "osm", "_tags": {"addr:city": "Bournemouth", "addr:postcode": "BH7 7DW", "addr:street": "Castle Lane East", "alt_name": "Bournemouth Hospital", "alt_name_1": "RBH", "amenity": "hospital", "emergency": "yes", "fhrs:id": "342621", "healthcare": "hospital", "name": "Royal Bournemouth Hospital", "operator": "Royal Bournemouth & Christchurch Hospitals NHS Foundation Trust", "phone": "+44 1202 303626", "source": "Bing;OS_OpenData_StreetView", "website": "https://www.rbch.nhs.uk/", "wheelchair": "yes", "wikidata": "Q7373840"}}, {"name": "Lymington New Forest Hospital", "latitude": 50.7693385, "longitude": -1.5458149, "source": "osm", "_tags": {"addr:city": "Lymington", "addr:postcode": "SO41 8QD", "addr:street": "Wellworthy Road", "alt_name": "Lymington Hospital", "amenity": "hospital", "emergency": "no", "healthcare": "hospital", "name": "Lymington New Forest Hospital", "wikidata": "Q6708182"}}, {"name": "Alderney Hospital", "latitude": 50.7499536, "longitude": -1.94129, "source": "osm", "_tags": {"amenity": "hospital", "healthcare": "hospital", "name": "Alderney Hospital", "wikidata": "Q30292792"}}, {"name": "Addington Clinic", "latitude": 50.7662167, "longitude": -1.9061529, "source": "osm", "_tags": {"amenity": "hospital", "healthcare": "hospital", "name": "Addington Clinic"}}, {"name": "Poole General Hospital", "latitude": 50.7213936, "longitude": -1.9738157, "source": "osm", "_tags": {"addr:postcode": "BH15 2JB", "addr:street": "Longfleet Road", "amenity": "hospital", "contact:phone": "+44 1202 665511", "emergency": "yes", "healthcare": "hospital", "name": "Poole General Hospital", "operator": "Poole NHS Trust", "website": "https://www.poole.nhs.uk", "wheelchair": "yes", "wikidata": "Q7228621"}}, {"name": "Nuffield Health Bournemouth Hospital", "latitude": 50.7298007, "longitude": -1.8699644, "source": "osm", "_tags": {"addr:housenumber": "67-71", "addr:postcode": "BH1 1RW", "addr:street": "Lansdowne Road", "amenity": "hospital", "building": "yes", "fhrs:id": "495084", "healthcare": "hospital", "name": "Nuffield Health Bournemouth Hospital", "source:addr": "FHRS Open Data"}}, {"name": "Dorset HealthCare", "latitude": 50.7167884, "longitude": -1.9032677, "source": "osm", "_tags": {"amenity": "hospital", "building": "yes", "name": "Dorset HealthCare"}}, {"name": "Swanage Hospital", "latitude": 50.6055016, "longitude": -1.9612562, "source": "osm", "_tags": {"amenity": "hospital", "healthcare": "hospital", "name": "Swanage Hospital"}}, {"name": "Earl Mountbatten Hospice", "latitude": 50.7071557, "longitude": -1.2813125, "source": "osm", "_tags": {"addr:city": "Newport", "addr:country": "GB", "addr:county": "Isle Of Wight", "addr:postcode": "PO30 2ER", "addr:street": "Halberry Lane", "amenity": "hospital", "fhrs:id": "1814711", "healthcare": "hospital", "name": "Earl Mountbatten Hospice", "survey:date": "2020-01-13"}}, {"name": "Wareham Hospital", "latitude": 50.687054, "longitude": -2.1171032, "source": "osm", "_tags": {"amenity": "hospital", "healthcare": "hospital", "name": "Wareham Hospital", "wheelchair": "yes"}}, {"name": "Bovington Medical Centre", "latitude": 50.6997746, "longitude": -2.2466377, "source": "osm", "_tags": {"addr:city": "Wareham", "addr:country": "GB", "addr:postcode": "BH20 6PH", "addr:street": "Sir Richard Hull Road", "addr:suburb": "Bovington", "amenity": "hospital", "building": "yes", "healthcare": "hospital", "name": "Bovington Medical Centre", "ref:GB:uprn": "10013732602", "source": "bing"}}, {"name": "Victoria Hospital Wimborne", "latitude": 50.802268, "longitude": -1.9956303, "source": "osm", "_tags": {"addr:postcode": "BH21 1ER", "addr:street": "Victoria Road", "amenity": "hospital", "building": "yes", "emergency": "no", "fhrs:id": "340813", "healthcare": "hospital", "name": "Victoria Hospital Wimborne", "phone": "+44 1202 856410", "website": "https://www.dorsethealthcare.nhs.uk/patients-and-visitors/our-services-hospitals/community-hospitals/victoria-community-hospital"}}, {"name": "Harbour Hospital", "latitude": 50.7219714, "longitude": -1.9756935, "source": "osm", "_tags": {"amenity": "hospital", "healthcare": "hospital", "name": "Harbour Hospital", "operator": "BMI"}}, {"name": "St Mary's Hospital Outpatient Assessment Centre", "latitude": 50.7226836, "longitude": -1.9748781, "source": "osm", "_tags": {"amenity": "hospital", "healthcare": "hospital", "name": "St Mary's Hospital Outpatient Assessment Centre"}}, {"name": "", "latitude": 50.8021695, "longitude": -1.9954273, "source": "osm", "_tags": {"amenity": "hospital"}}, {"name": "St Ann's Hospital", "latitude": 50.6986674, "longitude": -1.9274979, "source": "osm", "_tags": {"amenity": "hospital", "healthcare": "hospital", "name": "St Ann's Hospital", "source": "OS_OpenData_Streetview"}}, {"name": "St Mary's Hospital", "latitude": 50.7112221, "longitude": -1.3003088, "source": "osm", "_tags": {"addr:city": "Newport", "addr:country": "GB", "addr:postcode": "PO30 5TG", "addr:street": "Parkhurst Road", "amenity": "hospital", "check_date": "2024-06-17", "emergency": "yes", "fhrs:id": "540370", "healthcare": "hospital", "name": "St Mary's Hospital", "type": "multipolygon", "website": "https://www.iow.nhs.uk/", "wikidata": "Q7594496", "wikipedia": "en:St Mary's Hospital, Isle of Wight"}}]