[{"name": "Nemocnice Jablonec nad Nisou", "latitude": 50.7298146, "longitude": 15.15903, "source": "osm", "_tags": {"addr:city": "Jablonec nad Nisou", "addr:housenumber": "4446/15", "addr:postcode": "46601", "addr:street": "Nemocniční", "amenity": "hospital", "emergency": "yes", "name": "Nemocnice Jablonec nad Nisou", "phone": "+420 483 345 111", "website": "https://www.nemjbc.cz/", "wheelchair": "yes"}}, {"name": "LDN", "latitude": 50.7409711, "longitude": 15.3018051, "source": "osm", "_tags": {"amenity": "hospital", "healthcare": "hospital", "name": "LDN"}}, {"name": "Nemocnice Nový Bydžov", "latitude": 50.2426581, "longitude": 15.4813481, "source": "osm", "_tags": {"amenity": "hospital", "healthcare": "hospital", "name": "Nemocnice Nový Bydžov"}}, {"name": "Krajská nemocnice Liberec", "latitude": 50.7699676, "longitude": 15.0647613, "source": "osm", "_tags": {"amenity": "hospital", "healthcare": "hospital", "name": "Krajská nemocnice Liberec", "source": "cuzk:km", "website": "https://www.nemlib.cz/"}}, {"name": "Psychiatrická nemocnice Kosmonosy - pobočka Sadská", "latitude": 50.1542321, "longitude": 14.9832694, "source": "osm", "_tags": {"amenity": "hospital", "healthcare": "hospital", "name": "Psychiatrická nemocnice Kosmonosy - pobočka Sadská"}}, {"name": "Ústav chirurgie ruky a plastické chirurgie Vysoké nad Jizerou", "latitude": 50.6824135, "longitude": 15.4046966, "source": "osm", "_tags": {"amenity": "hospital", "email": "vysoke@ruka-kosmetika.cz", "emergency": "yes", "healthcare": "hospital", "name": "Ústav chirurgie ruky a plastické chirurgie Vysoké nad Jizerou", "phone": "+420481350905", "website": "https://www.ruka-kosmetika.cz/"}}, {"name": "Nemocnice Nymburk", "latitude": 50.1870847, "longitude": 15.0370879, "source": "osm", "_tags": {"amenity": "hospital", "contact:website": "http://www.nemnbk.cz/", "emergency": "yes", "healthcare": "hospital", "name": "Nemocnice Nymburk"}}, {"name": "Městská nemocnice Čáslav", "latitude": 49.9041723, "longitude": 15.4013311, "source": "osm", "_tags": {"amenity": "hospital", "emergency": "yes", "healthcare": "hospital", "name": "Městská nemocnice Čáslav"}}, {"name": "LDN", "latitude": 50.5242482, "longitude": 14.9814563, "source": "osm", "_tags": {"amenity": "hospital", "building": "hospital", "building:levels": "1", "building:ruian:type": "3", "name": "LDN", "ref:ruian:building": "15446395", "source": "cuzk:ruian"}}, {"name": "Panochova nemocnice Turnov", "latitude": 50.5890662, "longitude": 15.1698601, "source": "osm", "_tags": {"amenity": "hospital", "emergency": "yes", "name": "Panochova nemocnice Turnov", "source": "cuzk:ruian"}}, {"name": "Klaudiánova nemocnice", "latitude": 50.4181519, "longitude": 14.909588, "source": "osm", "_tags": {"alt_name": "Klaudiánka", "amenity": "hospital", "emergency": "yes", "healthcare": "hospital", "healthcare:speciality": "general", "name": "Klaudiánova nemocnice", "website": "http://klaudianovanemocnice.cz/"}}, {"name": "Nemocnice následné péče", "latitude": 50.5279256, "longitude": 15.3718643, "source": "osm", "_tags": {"amenity": "hospital", "healthcare": "hospital", "name": "Nemocnice následné péče"}}, {"name": "Psychiatrická nemocnice Kosmonosy, pracoviště Sadská", "latitude": 50.1519337, "longitude": 14.9815841, "source": "osm", "_tags": {"addr:city": "Sadská", "addr:housenumber": "515", "addr:postcode": "28912", "addr:street": "Lázeňská", "amenity": "hospital", "email": "hts@lsadska.cz", "fax": "+420325594559", "healthcare": "hospital", "name": "Psychiatrická nemocnice Kosmonosy, pracoviště Sadská", "phone": "+420325594473"}}, {"name": "Nemocnice Semily", "latitude": 50.5978296, "longitude": 15.3530019, "source": "osm", "_tags": {"addr:city": "Semily", "addr:postcode": "51301", "amenity": "hospital", "emergency": "yes", "healthcare": "hospital", "name": "Nemocnice Semily", "website": "https://www.nemsem.cz/"}}, {"name": "Masarykova městská nemocnice", "latitude": 50.611914, "longitude": 15.5002767, "source": "osm", "_tags": {"amenity": "hospital", "healthcare": "hospital", "name": "Masarykova městská nemocnice", "wikidata": "Q116735759", "wikipedia": "cs:Nemocnice Jilemnice"}}, {"name": "Psychiatrická nemocnice Kosmonosy", "latitude": 50.4436333, "longitude": 14.9265332, "source": "osm", "_tags": {"amenity": "hospital", "contact:website": "http://www.plkosmonosy.cz", "healthcare": "hospital", "name": "Psychiatrická nemocnice Kosmonosy", "wikidata": "Q58511900", "wikipedia": "cs:Psychiatrická nemocnice Kosmonosy"}}, {"name": "Nemocnice Kutná Hora", "latitude": 49.9461636, "longitude": 15.2534596, "source": "osm", "_tags": {"amenity": "hospital", "emergency": "yes", "healthcare": "hospital", "name": "Nemocnice Kutná Hora", "operator": "Oblastní nemocnice Kolín, a.s., nemocnice Středočeského kraje", "operator:type": "public", "wikidata": "Q12040650", "wikimedia_commons": "Category:Nemocnice_Kutná_Hora", "wikipedia": "cs:Nemocnice Kutná Hora"}}, {"name": "Nemocnice Tanvald", "latitude": 50.7401181, "longitude": 15.3018132, "source": "osm", "_tags": {"amenity": "hospital", "emergency": "yes", "healthcare": "hospital", "name": "Nemocnice Tanvald"}}, {"name": "Nemocnice", "latitude": 50.0723299, "longitude": 14.8516152, "source": "osm", "_tags": {"addr:housenumber": "282", "addr:postcode": "28201", "addr:street": "Žižkova", "amenity": "hospital", "email": "info@nem-cb.cz", "healthcare": "hospital", "name": "Nemocnice", "opening_hours": "24/7", "phone": "+420 321610 867", "website": "https://www.nem-cb.cz/"}}, {"name": "Poliklinika Poděbrady", "latitude": 50.1451438, "longitude": 15.1299562, "source": "osm", "_tags": {"amenity": "hospital", "healthcare": "hospital", "name": "Poliklinika Poděbrady", "website": "https://poliklinikapodebrady.cz/"}}, {"name": "Dětská léčebna Dr. Filipa", "latitude": 50.1469592, "longitude": 15.1196213, "source": "osm", "_tags": {"amenity": "hospital", "email": "filip.podebrady@seznam.cz", "healthcare": "hospital", "name": "Dětská léčebna Dr. Filipa", "operator": "Lázně Poděbrady, a.s.", "phone": "+420 325 612 907", "website": "https://www.lazne-podebrady.cz/detska-lecebna-dr-filipa", "wikidata": "Q110947022"}}, {"name": "Sanatorium", "latitude": 49.9893165, "longitude": 14.8665919, "source": "osm", "_tags": {"disused:amenity": "hospital", "healthcare": "hospital", "name": "Sanatorium"}}, {"name": "Městská nemocnice Městec Králové", "latitude": 50.2054613, "longitude": 15.2880619, "source": "osm", "_tags": {"amenity": "hospital", "healthcare": "hospital", "name": "Městská nemocnice Městec Králové"}}, {"name": "Oblastní nemocnice Kolín", "latitude": 50.0193658, "longitude": 15.1937911, "source": "osm", "_tags": {"amenity": "hospital", "contact:facebook": "https://www.facebook.com/pages/Oblastn%C3%AD-nemocnice-Kol%C3%ADn-as/237832082900135", "contact:instagram": "https://www.instagram.com/nemocnicekolin", "healthcare": "hospital", "name": "Oblastní nemocnice Kolín", "operator": "Středočeský kraj", "operator:ref:ico": "27256391", "phone": "+420 321 756 111", "website": "https://www.nemocnicekolin.cz/", "wheelchair": "yes", "wikidata": "Q15091755"}}, {"name": "", "latitude": 50.4405535, "longitude": 15.3538129, "source": "osm", "_tags": {"amenity": "hospital", "healthcare": "hospital"}}, {"name": "", "latitude": 50.4390164, "longitude": 15.3556321, "source": "osm", "_tags": {"amenity": "hospital", "healthcare": "hospital"}}, {"name": "", "latitude": 50.7690807, "longitude": 15.061911, "source": "osm", "_tags": {"amenity": "hospital", "healthcare": "hospital"}}, {"name": "Nemocnice Jičín", "latitude": 50.4401074, "longitude": 15.356505, "source": "osm", "_tags": {"amenity": "hospital", "emergency": "yes", "healthcare": "hospital", "name": "Nemocnice Jičín", "type": "multipolygon", "website": "https://www.nemjc.cz/"}}]