[{"name": "Hospitalite N.D.", "latitude": 50.5375878, "longitude": 5.7486738, "source": "osm", "_tags": {"amenity": "hospital", "healthcare": "hospital", "name": "Hospitalite N.D."}}, {"name": "U-center", "latitude": 50.7727742, "longitude": 5.8985542, "source": "osm", "_tags": {"addr:city": "Epen", "addr:housenumber": "23A", "addr:postcode": "6285AH", "addr:street": "Julianastraat", "amenity": "hospital", "check_date": "2025-08-06", "emergency": "no", "healthcare": "hospital", "name": "U-center", "source": "BAG", "source:date": "2014-03-24"}}, {"name": "Bethlehem Gesundheitszentrum", "latitude": 50.7727068, "longitude": 6.2289172, "source": "osm", "_tags": {"amenity": "hospital", "check_date": "2024-10-04", "contact:email": "zentrale@bethlehem.de", "contact:fax": "+49 2402 107-4180", "contact:phone": "+49 2402 107-0", "contact:website": "https://www.bethlehem.de/", "emergency": "yes", "healthcare": "hospital", "name": "Bethlehem Gesundheitszentrum", "official_name": "Bethlehem Gesundheitszentrum Stolberg", "toilets:wheelchair": "yes", "wheelchair": "yes", "wikidata": "Q831329", "wikimedia_commons": "Category:Bethlehem Gesundheitszentrum Stolberg", "wikipedia": "de:Bethlehem Gesundheitszentrum Stolberg"}}, {"name": "Rhein-Maas Klinikum", "latitude": 50.8146199, "longitude": 6.14266, "source": "osm", "_tags": {"amenity": "hospital", "contact:phone": "+49 2405 620", "contact:website": "https://www.rheinmaasklinikum.de/", "emergency": "yes", "healthcare": "hospital", "name": "Rhein-Maas Klinikum", "operator": "Rhein-Maas Klinikum GmbH"}}, {"name": "Landschaftsverband Rheinland - Klinik Düren", "latitude": 50.8169127, "longitude": 6.4829758, "source": "osm", "_tags": {"addr:city": "Düren", "addr:country": "DE", "addr:housenumber": "15", "addr:postcode": "52353", "addr:street": "Meckerstraße", "amenity": "hospital", "healthcare": "hospital", "name": "Landschaftsverband Rheinland - Klinik Düren", "old_name": "Provinzial Heil- und Pflegeanstalt", "operator": "Landschaftsverband Rheinland", "website": "https://klinik-dueren.lvr.de/", "wikidata": "Q1798442", "wikimedia_commons": "Category:LVR-Klinik Düren", "wikipedia": "de:LVR-Klinik Düren"}}, {"name": "Krankenhaus Düren", "latitude": 50.8081304, "longitude": 6.4978276, "source": "osm", "_tags": {"addr:city": "Düren", "addr:country": "DE", "addr:housenumber": "30", "addr:postcode": "52351", "addr:street": "Roonstraße", "amenity": "hospital", "email": "info@krankenhaus-dueren.de", "emergency": "yes", "fax": "+49 2421 301387", "healthcare": "hospital", "name": "Krankenhaus Düren", "phone": "+49 2421 300", "website": "https://www.krankenhaus-dueren.de/", "wheelchair": "yes", "wikidata": "Q1786532", "wikimedia_commons": "Category:Krankenhaus Düren", "wikipedia": "de:Krankenhaus Düren"}}, {"name": "Luisenhospital", "latitude": 50.7676232, "longitude": 6.0764444, "source": "osm", "_tags": {"addr:city": "Aachen", "addr:country": "DE", "addr:housenumber": "99", "addr:postcode": "52064", "addr:street": "Boxgraben", "amenity": "hospital", "building": "hospital", "building:levels": "9", "emergency": "yes", "healthcare": "hospital", "name": "Luisenhospital", "roof:levels": "0", "website": "https://www.luisenhospital.de/", "wheelchair": "yes", "wikidata": "Q1876710", "wikimedia_commons": "Category:Luisenhospital Aachen", "wikipedia": "de:Luisenhospital Aachen"}}, {"name": "Marienhospital", "latitude": 50.7626072, "longitude": 6.0948822, "source": "osm", "_tags": {"addr:city": "Aachen", "addr:country": "DE", "addr:housenumber": "4", "addr:postcode": "52066", "addr:street": "Zeise", "amenity": "hospital", "building": "hospital", "emergency": "yes", "healthcare": "hospital", "name": "Marienhospital", "phone": "+49 241 6006 0", "toilets:wheelchair": "yes", "website": "https://www.marienhospital.de/", "wheelchair": "yes", "wikidata": "Q1897712", "wikimedia_commons": "Category:Marienhospital Aachen", "wikipedia": "de:Marienhospital Aachen"}}, {"name": "Uniklinik RWTH Aachen: Phoniatrie, Psychiatrische Tagesklinik für Erwachsene und Institutsambulanz", "latitude": 50.7743789, "longitude": 6.0430355, "source": "osm", "_tags": {"addr:city": "Aachen", "addr:housenumber": "52", "addr:postcode": "52074", "addr:street": "Kullenhofstraße", "amenity": "hospital", "building": "yes", "healthcare": "hospital", "name": "Uniklinik RWTH Aachen: Phoniatrie, Psychiatrische Tagesklinik für Erwachsene und Institutsambulanz"}}, {"name": "Gut Großer Neuenhof - Klinik für Kinder- und Jugendpsychiatrie", "latitude": 50.7721299, "longitude": 6.0429705, "source": "osm", "_tags": {"addr:city": "Aachen", "addr:country": "DE", "addr:housenumber": "21", "addr:postcode": "52074", "addr:street": "Neuenhofer Weg", "amenity": "hospital", "healthcare": "hospital", "name": "Gut Großer Neuenhof - Klinik für Kinder- und Jugendpsychiatrie", "operator": "Uniklinik RWTH Aachen", "wheelchair": "yes"}}, {"name": "St. Elisabeth Krankenhaus Gerolstein", "latitude": 50.22645, "longitude": 6.6652663, "source": "osm", "_tags": {"amenity": "hospital", "healthcare": "hospital", "name": "St. Elisabeth Krankenhaus Gerolstein", "website": "http://www.krankenhaus-gerolstein.de/", "wheelchair": "yes"}}, {"name": "Centre Hospitalier Reine Astrid Malmedy", "latitude": 50.4262866, "longitude": 6.0239643, "source": "osm", "_tags": {"addr:city": "Malmedy", "addr:housenumber": "2", "addr:street": "Rue Devant les Religieuses", "amenity": "hospital", "email": "info@chram.be", "emergency": "yes", "emergency_ward": "complete", "healthcare": "hospital", "healthcare:speciality": "general", "name": "Centre Hospitalier Reine Astrid Malmedy", "name:etymology:wikidata": "Q230238", "old_name": "Clinique Reine Astrid", "phone": "+32 80 79 31 11", "ref:fps_health:campus": "2950", "ref:fps_health:recognition": "4", "wheelchair": "yes"}}, {"name": "Klinik St Josef", "latitude": 50.2771125, "longitude": 6.1273549, "source": "osm", "_tags": {"addr:city": "Sankt Vith", "addr:housenumber": "9", "addr:street": "Klosterstraße", "amenity": "hospital", "emergency": "yes", "emergency_ward": "complete", "healthcare": "hospital", "healthcare:speciality": "general", "name": "Klinik St Josef", "ref:fps_health:campus": "2980", "ref:fps_health:recognition": "257", "website": "https://www.klinik.be/", "wheelchair": "yes", "wheelchair:description": "Behandlung möglich, ohne den Rollstuhl zu verlassen. 4 rollstuhlgerechte Parkplätze vorhanden."}}, {"name": "Klinik für Kinder- und Jugendpsychiatrie - Erweiterung", "latitude": 50.7724061, "longitude": 6.0440423, "source": "osm", "_tags": {"addr:city": "Aachen", "addr:country": "DE", "addr:housenumber": "22", "addr:postcode": "52074", "addr:street": "Neuenhofer Weg", "amenity": "hospital", "check_date": "2025-02-16", "healthcare": "hospital", "name": "Klinik für Kinder- und Jugendpsychiatrie - Erweiterung", "operator": "Uniklinik RWTH Aachen", "source": "https://www.ukaachen.de/kliniken-institute/ukafacilities/projekte/aktuelle-projekte/neubau-kinder-und-jugendpsychiatrie.html"}}, {"name": "Clinique Psychiatrique des Frères Alexiens", "latitude": 50.6726781, "longitude": 5.955642, "source": "osm", "_tags": {"addr:city": "Welkenraedt", "addr:housenumber": "68", "addr:postcode": "4840", "addr:street": "Rue du Chateau de Ruyff", "amenity": "hospital", "healthcare": "hospital", "name": "Clinique Psychiatrique des Frères Alexiens"}}, {"name": "Centre Hospitalier Spécialisé l'Accueil", "latitude": 50.2871853, "longitude": 5.7882985, "source": "osm", "_tags": {"addr:city": "Lierneux", "addr:housenumber": "15", "addr:street": "Rue du Doyard", "amenity": "hospital", "name": "Centre Hospitalier Spécialisé l'Accueil", "website": "https://www.isosl.be/index.php/left-menu-1-accueil/hopitaux-specialises/site-lierneux", "wikidata": "Q20900481"}}, {"name": "Franziskushospital", "latitude": 50.7654183, "longitude": 6.0693066, "source": "osm", "_tags": {"addr:city": "Aachen", "addr:country": "DE", "addr:housenumber": "27", "addr:postcode": "52074", "addr:street": "Morillenhang", "amenity": "hospital", "emergency": "no", "healthcare": "hospital", "name": "Franziskushospital", "name:etymology:wikidata": "Q676555", "official_name": "Uniklinik RWTH Aachen - Franziskus", "operator": "Uniklinik RWTH Aachen", "phone": "+49 241 75010", "website": "https://www.ukaachen.de/kliniken-institute/franziskus", "wikidata": "Q1450419", "wikimedia_commons": "Category:Franziskushospital Aachen", "wikipedia": "de:Franziskushospital Aachen"}}, {"name": "Klinik für Psychiatrie, Psychotherapie und Psychosomatik", "latitude": 50.7738775, "longitude": 6.0431219, "source": "osm", "_tags": {"addr:city": "Aachen", "addr:housenumber": "155", "addr:postcode": "52074", "addr:street": "Hans-Böckler-Allee", "amenity": "hospital", "healthcare": "hospital", "name": "Klinik für Psychiatrie, Psychotherapie und Psychosomatik", "operator": "Uniklinik RWTH Aachen", "toilets:wheelchair": "yes", "wheelchair": "yes"}}, {"name": "Alexianer Krankenhaus", "latitude": 50.7717545, "longitude": 6.0820052, "source": "osm", "_tags": {"amenity": "hospital", "contact:email": "info-zfsg@alexianer.de", "contact:fax": "+49 241 4770115193", "contact:phone": "+49 241 477010", "contact:website": "https://www.alexianer-zentrum-fuer-seelische-gesundheit.de/leistungen/krankenhaus-abteilungen-aachen", "emergency": "no", "healthcare": "hospital", "name": "Alexianer Krankenhaus", "name:etymology:wikidata": "Q622385", "operator": "Alexianer Aachen GmbH", "wikidata": "Q84495045", "wikimedia_commons": "Category:Alexianerkloster Aachen", "wikipedia": "de:Alexianer-Krankenhaus Aachen"}}, {"name": "St. Augustinus Krankenhaus", "latitude": 50.7698902, "longitude": 6.4879117, "source": "osm", "_tags": {"addr:city": "Düren", "addr:country": "DE", "addr:housename": "St. Augustinus Krankenhaus", "addr:housenumber": "45", "addr:postcode": "52355", "addr:street": "Renkerstraße", "amenity": "hospital", "email": "zentrale.sak-dn@ct-west.de", "emergency": "yes", "fax": "+49 2421 599458", "healthcare": "hospital", "name": "St. Augustinus Krankenhaus", "phone": "+49 2421 5990", "website": "https://www.sankt-augustinus-krankenhaus.de/", "wheelchair": "yes", "wikidata": "Q1271413", "wikipedia": "de:St. Augustinus-Krankenhaus (Lendersdorf)"}}, {"name": "Clinique Peltzer (CHR)", "latitude": 50.5838611, "longitude": 5.8545597, "source": "osm", "_tags": {"addr:city": "Verviers", "addr:housenumber": "107", "addr:postcode": "4800", "addr:street": "Rue de Liège", "amenity": "hospital", "healthcare": "hospital", "name": "Clinique Peltzer (CHR)", "website": "https://www.chrverviers.be/sites-peltzer__verviers_-2.html"}}, {"name": "CHR Verviers | La Tourelle", "latitude": 50.582221, "longitude": 5.8593447, "source": "osm", "_tags": {"addr:city": "Verviers", "addr:housenumber": "29", "addr:postcode": "4800", "addr:street": "Rue du Parc", "alt_name": "Hôpital de Verviers", "amenity": "hospital", "emergency": "yes", "healthcare": "hospital", "name": "CHR Verviers | La Tourelle", "operator": "CHR Verviers", "website": "https://www.chrverviers.be/", "wikidata": "Q104481014"}}, {"name": "Clinique CHC Heusy", "latitude": 50.5778076, "longitude": 5.8625434, "source": "osm", "_tags": {"addr:city": "Heusy", "addr:housenumber": "17", "addr:postcode": "4802", "addr:street": "Rue du Naimeux", "amenity": "hospital", "check_date": "2024-11-26", "emergency": "yes", "emergency_ward": "limited", "healthcare": "hospital", "healthcare:speciality": "general", "name": "Clinique CHC Heusy", "old_name": "Clinique Sainte-Elisabeth", "operator": "Groupe santé CHC", "operator:type": "private", "phone": "+32 87 21 31 11", "ref:fps_health:campus": "2970", "ref:fps_health:recognition": "158", "website": "https://www.chc.be/Etablissements/Clinique-CHC-Heusy", "wheelchair": "yes"}}, {"name": "Marienhaus Klinikum Eifel Bitburg", "latitude": 49.9717121, "longitude": 6.5263986, "source": "osm", "_tags": {"addr:city": "Bitburg", "addr:housenumber": "1", "addr:postcode": "54634", "addr:street": "Krankenhausstraße", "amenity": "hospital", "contact:email": "info.eif@marienhaus.de", "contact:fax": "+49 6561 64-2657", "contact:phone": "+49 6561 64-0", "contact:website": "https://www.marienhaus-klinikum-eifel.de", "emergency": "yes", "healthcare": "hospital", "name": "Marienhaus Klinikum Eifel Bitburg", "opening_hours": "24/7", "operator": "Marienhaus Klinikum Eifel", "operator:type": "private", "operator:wikidata": "Q20828783", "operator:wikipedia": "de:Marienhaus", "wheelchair": "yes"}}, {"name": "Urgences La Tourelle", "latitude": 50.5819755, "longitude": 5.8580317, "source": "osm", "_tags": {"addr:city": "Verviers", "addr:housenumber": "29", "addr:postcode": "4800", "addr:street": "Rue du Parc", "amenity": "hospital", "building": "yes", "emergency": "yes", "healthcare": "hospital", "healthcare:speciality": "general", "name": "Urgences La Tourelle", "operator": "CHR Verviers", "website": "https://www.chrverviers.be/services-urgences-36.html"}}, {"name": "Centre hospitalier Neuro-Psychiatrique (CHNP)", "latitude": 49.8429118, "longitude": 6.0961166, "source": "osm", "_tags": {"amenity": "hospital", "healthcare": "hospital", "name": "Centre hospitalier Neuro-Psychiatrique (CHNP)"}}, {"name": "Sankt Nikolaus-Hospital", "latitude": 50.6282961, "longitude": 6.0293532, "source": "osm", "_tags": {"addr:city": "Eupen", "addr:housenumber": "4-8", "addr:postcode": "4700", "addr:street": "Hufengasse", "alt_name": "St. Nikolaus-Hospital", "amenity": "hospital", "emergency": "yes", "emergency_ward": "complete", "healthcare": "hospital", "healthcare:speciality": "general", "name": "Sankt Nikolaus-Hospital", "phone": "+32 87 59 95 99", "ref:fps_health:campus": "2850", "ref:fps_health:recognition": "15", "website": "http://www.hospital-eupen.be/"}}, {"name": "Kreiskrankenhaus Mechernich", "latitude": 50.592562, "longitude": 6.6511944, "source": "osm", "_tags": {"addr:city": "Mechernich", "addr:country": "DE", "addr:housenumber": "2-6", "addr:postcode": "53894", "addr:street": "Sankt-Elisabeth-Straße", "amenity": "hospital", "contact:phone": "+49 2443 170", "contact:website": "https://www.kkhm.de", "emergency": "yes", "healthcare": "hospital", "name": "Kreiskrankenhaus Mechernich", "opening_hours": "24/7", "operator": "Kreiskrankenhaus Mechernich GmbH", "wheelchair": "yes", "wikidata": "Q1787709"}}, {"name": "Centre Hospitalier du Nord", "latitude": 49.8537244, "longitude": 6.095601, "source": "osm", "_tags": {"amenity": "hospital", "contact:email": "chdn@chdn.lu", "contact:fax": "+352 8166-3049", "contact:phone": "+352 8166-1", "contact:website": "http://www.chdn.lu", "healthcare": "hospital", "name": "Centre Hospitalier du Nord", "name:de": "Nordisches Krankenhauszentrum Ettelbruck", "old_name": "Hôpital St Louis", "short_name": "CHdN Ettelbruck", "wikidata": "Q25583349", "wikipedia": "lb:Centre hospitalier du Nord"}}, {"name": "Centre Hospitalier du Nord", "latitude": 49.9654316, "longitude": 5.934082, "source": "osm", "_tags": {"addr:city": "Wiltz", "addr:country": "LU", "addr:housenumber": "10", "addr:postcode": "9515", "addr:street": "Rue Grande-Duchesse Charlotte", "amenity": "hospital", "emergency": "yes", "healthcare": "hospital", "name": "Centre Hospitalier du Nord", "old_name": "Clinique St Joseph", "short_name": "CHdN Wiltz"}}, {"name": "CHR - Polyclinique -  CRESCEND'EAU", "latitude": 50.5903991, "longitude": 5.8486617, "source": "osm", "_tags": {"amenity": "hospital", "healthcare": "hospital", "name": "CHR - Polyclinique -  CRESCEND'EAU"}}, {"name": "Uniklinik RWTH Aachen", "latitude": 50.7768538, "longitude": 6.0433717, "source": "osm", "_tags": {"addr:city": "Aachen", "addr:country": "DE", "addr:housenumber": "30", "addr:postcode": "52074", "addr:street": "Pauwelsstraße", "alt_name": "Klinikum;Uniklinikum Aachen", "amenity": "hospital", "building": "yes", "building:levels": "12", "email": "info@ukaachen.de", "emergency": "yes", "healthcare": "hospital", "healthcare:speciality": "abortion", "heritage": "8", "heritage:operator": "UntereDenkmalbehörde", "name": "Uniklinik RWTH Aachen", "official_name": "Universitätsklinikum Aachen AöR", "phone": "+49 241 80-0", "roof:material": "concrete", "roof:shape": "flat", "smoking": "no", "toilets:wheelchair": "yes", "type": "multipolygon", "website": "https://www.ukaachen.de/", "wheelchair": "yes", "wikidata": "Q560144", "wikimedia_commons": "Category:Universitätsklinikum Aachen", "wikipedia": "de:Universitätsklinikum Aachen"}}, {"name": "St. Joseph-Krankenhaus", "latitude": 50.2118978, "longitude": 6.4101199, "source": "osm", "_tags": {"addr:city": "Prüm", "addr:housenumber": "4", "addr:postcode": "54595", "addr:street": "Kalvarienbergstraße", "amenity": "hospital", "building": "hospital", "contact:phone": "+49 6551 15 0", "contact:website": "http://www.krankenhaus-pruem.de", "healthcare": "hospital", "name": "St. Joseph-Krankenhaus", "type": "multipolygon", "wheelchair": "yes"}}, {"name": "Eifelklinik St. Brigida", "latitude": 50.6047475, "longitude": 6.3014279, "source": "osm", "_tags": {"addr:city": "Simmerath", "addr:country": "DE", "addr:housenumber": "8", "addr:postcode": "52152", "addr:street": "Kammerbruchstraße", "amenity": "hospital", "building": "hospital", "contact:email": "info@st-brigida.de", "contact:fax": "+49 2473 89-2280", "contact:phone": "+49 2473 89-0", "contact:website": "https://st-brigida.de", "emergency": "yes", "healthcare": "hospital", "name": "Eifelklinik St. Brigida", "opening_hours": "24/7", "operator": "Eifelklinik St. Brigida GmbH & Co. KG", "type": "multipolygon", "wheelchair": "yes", "wikidata": "Q15110167", "wikipedia": "de:Eifelklinik St. Brigida"}}, {"name": "Krankenhaus Schleiden", "latitude": 50.5333723, "longitude": 6.487419, "source": "osm", "_tags": {"addr:city": "Schleiden", "addr:country": "DE", "addr:housenumber": "36", "addr:postcode": "53937", "addr:street": "Am Hähnchen", "amenity": "hospital", "building": "hospital", "healthcare": "hospital", "name": "Krankenhaus Schleiden", "phone": "+49 2445 870", "type": "multipolygon", "website": "https://www.kkhm.de/einrichtungen/krankenhaus-schleiden/uebersicht"}}]