[{"name": "Sidmouth Victoria Hospital", "latitude": 50.6816055, "longitude": -3.2395673, "source": "osm", "_tags": {"amenity": "hospital", "check_date": "2024-08-03", "emergency": "no", "healthcare": "hospital", "name": "Sidmouth Victoria Hospital", "wheelchair": "yes"}}, {"name": "Maiden Castle House", "latitude": 50.7057852, "longitude": -2.446185, "source": "osm", "_tags": {"amenity": "hospital", "healthcare": "hospital", "name": "Maiden Castle House"}}, {"name": "Seaton Hospital", "latitude": 50.7119464, "longitude": -3.0718298, "source": "osm", "_tags": {"addr:city": "Seaton", "addr:postcode": "EX12 2UU", "addr:street": "Valley View", "amenity": "hospital", "healthcare": "hospital", "name": "Seaton Hospital"}}, {"name": "Honiton Community Hospital", "latitude": 50.7952157, "longitude": -3.1869983, "source": "osm", "_tags": {"addr:city": "Honiton", "addr:postcode": "EX14 2DE", "addr:street": "Marlpits Lane", "amenity": "hospital", "email": "rduh.honitonreception@nhs.net", "healthcare": "hospital", "name": "Honiton Community Hospital", "opening_hours": "Mo-Su 08:00-20:00", "phone": "+44 1404 540540", "website": "https://www.royaldevon.nhs.uk/our-sites/honiton-hospital/"}}, {"name": "Westhaven Hospital", "latitude": 50.614883, "longitude": -2.480805, "source": "osm", "_tags": {"addr:postcode": "DT4 0QE", "addr:street": "Radipole Lane", "amenity": "hospital", "fhrs:id": "992562", "healthcare": "hospital", "name": "Westhaven Hospital", "source:addr": "FHRS Open Data"}}, {"name": "Weymouth Community Hospital and Health Centre", "latitude": 50.6213469, "longitude": -2.4507747, "source": "osm", "_tags": {"addr:housenumber": "3", "addr:postcode": "DT4 7TB", "addr:street": "Melcombe Avenue", "amenity": "hospital", "fhrs:id": "992505", "healthcare": "hospital", "name": "Weymouth Community Hospital and Health Centre", "source:addr": "FHRS Open Data", "wheelchair": "yes"}}, {"name": "Portland Hospital (Minor Injuries Unit)", "latitude": 50.5658325, "longitude": -2.4449558, "source": "osm", "_tags": {"amenity": "hospital", "building": "yes", "emergency": "no", "healthcare": "hospital", "name": "Portland Hospital (Minor Injuries Unit)", "wikidata": "Q16899469", "wikipedia": "en:Royal Naval Hospital, Portland"}}, {"name": "Dorset County Hospital", "latitude": 50.7126712, "longitude": -2.4470683, "source": "osm", "_tags": {"amenity": "hospital", "healthcare": "hospital", "name": "Dorset County Hospital"}}, {"name": "Axminster Hospital", "latitude": 50.7839597, "longitude": -2.9956277, "source": "osm", "_tags": {"addr:city": "Axminster", "addr:postcode": "EX13 5DU", "addr:street": "Chard Street", "amenity": "hospital", "email": "rduh.axminsterhospitalreception@nhs.net", "emergency": "no", "fhrs:id": "163974", "healthcare": "hospital", "name": "Axminster Hospital", "phone": "+44 1297 630400", "source:addr": "FHRS Open Data", "source:outline": "Bing;land_registry_index_polygons", "website": "https://www.royaldevon.nhs.uk/our-sites/axminster-hospital/"}}, {"name": "Bridport Community Hospital", "latitude": 50.7418016, "longitude": -2.7699299, "source": "osm", "_tags": {"amenity": "hospital", "building": "yes", "healthcare": "hospital", "name": "Bridport Community Hospital", "type": "multipolygon"}}, {"name": "Dorset County Hospital", "latitude": 50.7129913, "longitude": -2.4466291, "source": "osm", "_tags": {"amenity": "hospital", "building": "yes", "healthcare": "hospital", "name": "Dorset County Hospital", "source": "bing", "source:name": "local_knowledge", "type": "multipolygon", "wikidata": "Q5298846"}}, {"name": "The Winterbourne Hospital", "latitude": 50.7010671, "longitude": -2.442005, "source": "osm", "_tags": {"amenity": "hospital", "building": "yes", "healthcare": "hospital", "name": "The Winterbourne Hospital", "operator": "BMI Healthcare", "source": "local_knowledge", "source:building": "OS_OpenData_StreetView", "type": "multipolygon"}}]