[{"name": "C.A.T.T.P.", "latitude": 50.7202498, "longitude": 1.6117367, "source": "osm", "_tags": {"addr:city": "Boulogne-sur-Mer", "addr:housenumber": "39-41", "addr:postcode": "62200", "addr:street": "Rue Edmond Hedouin", "amenity": "hospital", "description": "Centre d’Accueil Thérapeutique à Temps Partiel", "email": "sec_psy_nord@ch-boulogne.fr", "healthcare": "hospital", "name": "C.A.T.T.P.", "opening_hours": "Mo-Fr 9:30-16:30", "operator": "Centre Hospitalier de Boulogne sur Mer", "phone": "+33 3 21 87 60 31", "website": "https://www.ch-boulogne.fr/la-psychiatrie/centre-daccueil-therapeutique-a-temps-partiel"}}, {"name": "Fondation Jacques Calve", "latitude": 50.4113497, "longitude": 1.5630075, "source": "osm", "_tags": {"amenity": "hospital", "check_date": "2024-12-13", "name": "Fondation Jacques Calve"}}, {"name": "Centre hospitalier de Dieppe", "latitude": 49.9186428, "longitude": 1.0786551, "source": "osm", "_tags": {"addr:city": "Dieppe", "addr:postcode": "76200", "addr:street": "Avenue Pasteur", "amenity": "hospital", "emergency": "yes", "fax": "+33 2 35 82 61 28", "healthcare": "hospital", "healthcare:speciality": "intensive", "name": "Centre hospitalier de Dieppe", "operator:type": "public", "phone": "+33 2 32 14 76 76", "ref:FR:FINESS": "760000018", "short_name": "CH Dieppe", "source": "cadastre-dgi-fr source : Direction Générale des Impôts - Cadastre. Mise à jour : 2009", "type:FR:FINESS": "355", "website": "http://www.ch-dieppe.fr", "wikidata": "Q16627532", "wikipedia": "fr:Centre hospitalier de Dieppe"}}, {"name": "Centre Hospitalier de Eu", "latitude": 50.0503606, "longitude": 1.422132, "source": "osm", "_tags": {"addr:full": "2 rue de Clèves 76260 Eu", "amenity": "hospital", "emergency": "yes", "fax": "+33 2 35 86 43 91", "healthcare": "hospital", "name": "Centre Hospitalier de Eu", "operator:type": "public", "phone": "+33 2 27 28 22 22", "ref:FR:FINESS": "760000042", "type:FR:FINESS": "355"}}, {"name": "Cliniques des Aubépines", "latitude": 49.8985472, "longitude": 1.076719, "source": "osm", "_tags": {"addr:city": "Saint-Aubin-sur-Scie", "addr:housenumber": "300", "addr:postcode": "76550", "addr:street": "Rue de la Providence", "amenity": "hospital", "barrier": "fence", "contact:email": "contact@clinique-des-aubepines.fr", "contact:fax": "+33 2 35 06 92 47", "emergency": "no", "healthcare": "hospital", "name": "Cliniques des Aubépines", "phone": "+33 2 35 06 92 00", "ref:FR:FINESS": "760780197", "ref:FR:SIRET": "30393707200021", "type:FR:FINESS": "122", "website": "https://clinique-des-aubepines.fr/"}}, {"name": "Hôpital Maritime de Berck", "latitude": 50.4006366, "longitude": 1.5588011, "source": "osm", "_tags": {"amenity": "hospital", "branch": "Université Paris Saclay", "check_date": "2022-09-05", "healthcare": "hospital", "name": "Hôpital Maritime de Berck", "operator": "Assistance publique - Hôpitaux de Paris", "operator:short": "APHP", "operator:type": "public", "operator:wikidata": "Q2867205", "ref:FR:FINESS": "620100016", "type:FR:FINESS": "101", "website": "https://maritimeberck.aphp.fr/", "wikidata": "Q3145347"}}, {"name": "Centre Hospitalier de l'Arrondissement de Montreuil-sur-Mer", "latitude": 50.4143404, "longitude": 1.6628565, "source": "osm", "_tags": {"addr:city": "Rang-du-Fliers", "addr:housenumber": "140", "addr:postcode": "62180", "addr:street": "Route Départementale", "amenity": "hospital", "emergency": "yes", "fax": "+33 3 21 89 38 28", "healthcare": "hospital", "healthcare:speciality": "intensive", "name": "Centre Hospitalier de l'Arrondissement de Montreuil-sur-Mer", "operator:type": "public", "phone": "+33 3 21 89 46 25", "ref:FR:FINESS": "620003202", "short_name": "CHAM", "source": "cadastre-dgi-fr source : Direction Générale des Impôts - Cadastre. Mise à jour : 2011", "type:FR:FINESS": "355", "website": "https://www.ch-montreuil.fr/"}}, {"name": "Centre hospitalier de Boulogne-sur-Mer", "latitude": 50.7225349, "longitude": 1.6293749, "source": "osm", "_tags": {"amenity": "hospital", "emergency": "yes", "fax": "+33 3 21 99 30 00", "healthcare": "hospital", "healthcare:speciality": "intensive", "name": "Centre hospitalier de Boulogne-sur-Mer", "operator:type": "public", "phone": "+33 3 21 99 33 33", "ref:FR:FINESS": "620000653", "source": "knowledge", "type:FR:FINESS": "355", "website": "https://www.ch-boulogne.fr/"}}, {"name": "Clinique de la Côte d'Opale", "latitude": 50.7242529, "longitude": 1.6433428, "source": "osm", "_tags": {"amenity": "hospital", "healthcare": "hospital", "name": "Clinique de la Côte d'Opale", "ref:FR:FINESS": "620118513", "type:FR:FINESS": "365"}}, {"name": "", "latitude": 50.5135374, "longitude": 1.6488197, "source": "osm", "_tags": {"amenity": "hospital", "healthcare": "hospital"}}, {"name": "Clinique Des Acacias", "latitude": 50.5061066, "longitude": 1.621917, "source": "osm", "_tags": {"addr:city": "Cucq", "addr:postcode": "62780", "addr:street": "Chemin Monthor", "amenity": "hospital", "fax": "+33321097872", "healthcare": "hospital", "name": "Clinique Des Acacias", "phone": "+33321942666", "ref:FR:FINESS": "620100487", "ref:FR:SIRET": "61642052700015", "source": "Le ministère des solidarités et de la santé - 2021-01", "type:FR:FINESS": "365"}}, {"name": "Clinique Mégival", "latitude": 49.8956651, "longitude": 1.0789483, "source": "osm", "_tags": {"amenity": "clinic", "fax": "+33276206041", "healthcare": "hospital", "name": "Clinique Mégival", "phone": "+33276203040", "ref:FR:FINESS": "760027292", "ref:FR:SIRET": "49815816100022", "source": "Le ministère des solidarités et de la santé - 2023-01", "type:FR:FINESS": "365"}}, {"name": "Institut Départemental Albert Calmette - IDAC", "latitude": 50.5712678, "longitude": 1.6186728, "source": "osm", "_tags": {"amenity": "hospital", "healthcare": "hospital", "healthcare:speciality": "psychiatry;child_psychiatry", "name": "Institut Départemental Albert Calmette - IDAC", "ref:FR:FINESS": "620112607", "short_name": "IDAC", "website": "https://www.epsm-camiers.com/"}}, {"name": "Institut Calot", "latitude": 50.4161175, "longitude": 1.564099, "source": "osm", "_tags": {"amenity": "hospital", "building": "hospital", "description": "Fondation HOPALE - Institut Calot, Centre Hélio-Marin", "healthcare": "hospital", "healthcare:speciality": "intensive", "name": "Institut Calot", "ref:FR:FINESS": "620000026", "type": "multipolygon", "type:FR:FINESS": "365"}}, {"name": "Centre hospitalier de Dieppe le Château Michel", "latitude": 49.9069815, "longitude": 1.0748145, "source": "osm", "_tags": {"addr:city": "Dieppe", "addr:postcode": "76200", "amenity": "hospital", "emergency": "no", "healthcare": "hospital", "name": "Centre hospitalier de Dieppe le Château Michel", "ref:FR:FINESS": "760800938", "source": "Le ministère des solidarités et de la santé - 03/2019", "type": "multipolygon", "website": "http://www.ch-dieppe.fr"}}]