[{"name": "Mount Hawke Surgery", "latitude": 50.2807544, "longitude": -5.2098874, "source": "osm", "_tags": {"addr:city": "Truro", "addr:country": "GB", "addr:place": "Mount Hawke", "addr:postcode": "TR4 8UE", "addr:street": "Short Cross Road", "amenity": "hospital", "emergency": "no", "healthcare": "hospital", "name": "Mount Hawke Surgery"}}, {"name": "WW2 RAF Davidstow Sick Quarters", "latitude": 50.6511583, "longitude": -4.6226582, "source": "osm", "_tags": {"amenity": "hospital", "healthcare": "hospital", "name": "WW2 RAF Davidstow Sick Quarters", "operator": "RAF", "operator:type": "military"}}, {"name": "WW2 American Field Hospital (site of)", "latitude": 50.2506944, "longitude": -5.0379343, "source": "osm", "_tags": {"healthcare": "hospital", "historic": "hospital", "name": "WW2 American Field Hospital (site of)", "operator": "US Military", "operator:type": "military"}}, {"name": "The Eye Unit", "latitude": 50.2665803, "longitude": -5.0906838, "source": "osm", "_tags": {"amenity": "clinic", "healthcare": "hospital", "healthcare:speciality": "ophthalmology", "name": "The Eye Unit", "operator": "Royal Cornwall Hospitals NHS Trust"}}, {"name": "Helston Community Hospital", "latitude": 50.0917905, "longitude": -5.2651715, "source": "osm", "_tags": {"addr:city": "Helston", "addr:country": "GB", "addr:postcode": "TR13 8DR", "addr:street": "Meneage Road", "amenity": "hospital", "fhrs:id": "455260", "healthcare": "hospital", "name": "Helston Community Hospital"}}, {"name": "Newquay Hospital", "latitude": 50.4109287, "longitude": -5.0739946, "source": "osm", "_tags": {"alt_name": "Newquay Community Hospital", "amenity": "hospital", "healthcare": "hospital", "name": "Newquay Hospital", "operator": "Cornwall Partnership NHS Foundation Trust", "operator:type": "public", "operator:wikidata": "Q16988175", "source": "bing"}}, {"name": "Diabetes and Endocrine Centre", "latitude": 50.2677738, "longitude": -5.0944774, "source": "osm", "_tags": {"amenity": "clinic", "building": "hospital", "emergency": "no", "healthcare": "hospital", "healthcare:speciality": "endocrinology", "name": "Diabetes and Endocrine Centre", "source": "OS Local", "source:id": "FB5D9F6E-BF1C-43B3-AF0E-D16F6DF1BA9A"}}, {"name": "Falmouth Hospital", "latitude": 50.155613, "longitude": -5.0860695, "source": "osm", "_tags": {"amenity": "hospital", "building": "yes", "healthcare": "hospital", "name": "Falmouth Hospital"}}, {"name": "Liskeard Community Hospital", "latitude": 50.4617525, "longitude": -4.450848, "source": "osm", "_tags": {"addr:postcode": "PL14 3XD", "addr:street": "Clemo Road", "alt_name": "Minor Injuries Unit: 0800-2200", "amenity": "hospital", "building": "yes", "emergency": "yes", "fhrs:id": "408130", "healthcare": "hospital", "name": "Liskeard Community Hospital", "source": "gps_survey; local knowledge"}}, {"name": "Bodmin Hospital", "latitude": 50.4676172, "longitude": -4.7421552, "source": "osm", "_tags": {"amenity": "hospital", "emergency": "yes", "healthcare": "hospital", "name": "Bodmin Hospital", "source": "OS_OpenData_Streatview", "website": "https://www.nhs.uk/Services/hospitals/Overview/DefaultView.aspx?id=5QP11", "wheelchair": "yes", "wikidata": "Q4936671"}}, {"name": "The Duchy Hospital", "latitude": 50.2681529, "longitude": -5.0935435, "source": "osm", "_tags": {"amenity": "hospital", "emergency": "yes", "healthcare": "hospital", "hospital": "private", "name": "The Duchy Hospital", "wikidata": "Q30293081"}}, {"name": "Camborne Redruth Community Hospital", "latitude": 50.229006, "longitude": -5.2454763, "source": "osm", "_tags": {"addr:city": "Redruth", "addr:postcode": "TR15 3ER", "addr:street": "Barncoose Terrace", "amenity": "hospital", "emergency": "no", "fhrs:id": "492687", "healthcare": "hospital", "healthcare:speciality": "minor_injuries;general;psychiatry", "name": "Camborne Redruth Community Hospital", "operator": "Cornwall Partnership NHS Foundation Trust", "operator:type": "public", "operator:wikidata": "Q16988175", "website": "https://www.cornwallft.nhs.uk/hospitals/camborne-redruth/", "wikidata": "Q14956769", "wikipedia": "en:Camborne Redruth Community Hospital"}}, {"name": "St Austell Community Hospital", "latitude": 50.3273746, "longitude": -4.773206, "source": "osm", "_tags": {"addr:postcode": "PL26 6AD", "addr:street": "Porthpean Road", "alt_name": "Penrice Hospital", "amenity": "hospital", "healthcare": "hospital", "name": "St Austell Community Hospital", "operator": "Cornwall Partnership NHS Foundation Trust", "operator:type": "public", "operator:wikidata": "Q16988175", "wikidata": "Q30292913", "wikipedia": "en:St Austell Community Hospital"}}, {"name": "Royal Cornwall Hospital", "latitude": 50.2669391, "longitude": -5.0932588, "source": "osm", "_tags": {"amenity": "hospital", "emergency": "yes", "healthcare": "hospital", "name": "Royal Cornwall Hospital", "wikidata": "Q7374067"}}, {"name": "Emergency Department", "latitude": 50.266069, "longitude": -5.0920692, "source": "osm", "_tags": {"amenity": "clinic", "building": "hospital", "emergency": "yes", "healthcare": "hospital", "healthcare:speciality": "emergency", "name": "Emergency Department", "nohousenumber": "yes", "operator": "Royal Cornwall Hospitals NHS Trust"}}, {"name": "Launceston Community Hospital", "latitude": 50.6279184, "longitude": -4.3591548, "source": "osm", "_tags": {"amenity": "hospital", "healthcare": "hospital", "name": "Launceston Community Hospital", "ref:GB:cqc_location": "RJ870", "ref:GB:nhs_ods": "RJ870"}}, {"name": "Child Development Centre", "latitude": 50.2679824, "longitude": -5.0946687, "source": "osm", "_tags": {"amenity": "clinic", "building": "hospital", "healthcare": "hospital", "name": "Child Development Centre", "operator": "Royal Cornwall Hospitals NHS Trust", "type": "multipolygon"}}]