[{"name": "Eastbourne District General Hospital", "latitude": 50.7859854, "longitude": 0.2707186, "source": "osm", "_tags": {"addr:city": "Eastbourne", "addr:postcode": "BN21 2UD", "addr:street": "King's Drive", "alt_name": "Eastbourne Hospital", "amenity": "hospital", "emergency": "yes", "healthcare": "hospital", "healthcare:speciality": "psychiatry;paediatrics;emergency;radiology", "name": "Eastbourne District General Hospital", "operator": "NHS England", "operator:type": "government", "website": "https://www.esht.nhs.uk/eastbournedgh/", "wikidata": "Q30279701"}}, {"name": "Searchlight Care home (Fitzroy)", "latitude": 50.8012096, "longitude": 0.0652432, "source": "osm", "_tags": {"amenity": "hospital", "healthcare": "hospital", "name": "Searchlight Care home (Fitzroy)"}}, {"name": "Etablissement de soins de suite Les Broussailles", "latitude": 49.8237692, "longitude": 0.7060011, "source": "osm", "_tags": {"amenity": "clinic", "fax": "+33235973946", "healthcare": "hospital", "name": "Etablissement de soins de suite Les Broussailles", "phone": "+33235970850", "ref:FR:FINESS": "760780130", "ref:FR:SIRET": "48008096900904", "source": "Le ministère des solidarités et de la santé - 2025-05", "type:FR:FINESS": "109"}}, {"name": "Newhaven Rehabilitation Centre", "latitude": 50.7915416, "longitude": 0.0420498, "source": "osm", "_tags": {"amenity": "hospital", "building": "hospital", "building:levels": "2", "healthcare": "hospital", "name": "Newhaven Rehabilitation Centre"}}, {"name": "Horder Centre, Seaford", "latitude": 50.7738758, "longitude": 0.1079761, "source": "osm", "_tags": {"addr:city": "Seaford", "addr:housename": "Horder Healthcare Seaford", "addr:postcode": "BN25 1SS", "addr:street": "Sutton Road", "amenity": "hospital", "building": "yes", "email": "info@horder.co.uk", "healthcare": "hospital", "height": "6", "name": "Horder Centre, Seaford", "name:en": "Horder Centre", "phone": "+44 1323 810926", "ref:GB:uprn": "100062256277", "roof:material": "asphalt", "roof:shape": "flat", "website": "https://www.horderhealthcare.co.uk/"}}, {"name": "Centre hospitalier du Grand Large", "latitude": 49.8671046, "longitude": 0.7059815, "source": "osm", "_tags": {"amenity": "hospital", "healthcare": "hospital", "name": "Centre hospitalier du Grand Large", "ref:FR:FINESS": "760000026", "source": "Le ministère des solidarités et de la santé - 03/2019", "type": "multipolygon", "type:FR:FINESS": "106", "wikidata": "Q92062501"}}]