[{"name": "Centre neurologique William Lennox", "latitude": 50.6795685, "longitude": 4.5918814, "source": "osm", "_tags": {"addr:housenumber": "6", "addr:street": "Allée de Clerlande", "amenity": "hospital", "emergency": "no", "healthcare": "hospital", "healthcare:speciality": "neurology", "name": "Centre neurologique William Lennox", "operator": "Groupe hospitalier Saint-Luc UCL", "operator:type": "private_non_profit", "website": "https://www.cnwl.be", "wheelchair": "yes"}}, {"name": "Centre Hospitalier de Vervins", "latitude": 49.8323177, "longitude": 3.9027865, "source": "osm", "_tags": {"addr:city": "Vervins", "addr:housenumber": "20", "addr:postcode": "02140", "addr:street": "Place de la Liberté", "amenity": "hospital", "healthcare": "hospital", "name": "Centre Hospitalier de Vervins", "ref:FR:FINESS": "020000246", "source": "Le ministère des solidarités et de la santé - 10/2018", "type:FR:FINESS": "355"}}, {"name": "Clinique Léon Neuens", "latitude": 50.4005854, "longitude": 4.5185732, "source": "osm", "_tags": {"addr:housenumber": "80", "addr:street": "Rue du Beau Moulin", "amenity": "hospital", "name": "Clinique Léon Neuens"}}, {"name": "Dr Laflotte", "latitude": 50.1962718, "longitude": 4.5472048, "source": "osm", "_tags": {"amenity": "hospital", "emergency": "no", "name": "Dr Laflotte"}}, {"name": "Croix-Rouge de Belgique", "latitude": 50.4534141, "longitude": 4.235283, "source": "osm", "_tags": {"amenity": "hospital", "healthcare": "hospital", "name": "Croix-Rouge de Belgique"}}, {"name": "Centre de Médecine Spécialisée de Courcelles", "latitude": 50.4622322, "longitude": 4.3766487, "source": "osm", "_tags": {"addr:city": "Courcelles", "addr:housenumber": "47", "addr:postcode": "6180", "addr:street": "Rue Philippe Monnoyer", "amenity": "clinic", "emergency": "no", "healthcare": "hospital", "healthcare:speciality": "radiology;orthopaedics;gynaecology;cardiology;surgery;dermatology;biology;blood_check", "image": "https://www.cmscourcelles.be/sites/default/files/uploads/batiment.jpg", "name": "Centre de Médecine Spécialisée de Courcelles", "opening_hours": "Mo-Fr 08:00-17:30", "phone": "+32 71 45 59 45", "start_date": "1962-01-01", "website": "https://www.cmscourcelles.be/", "wheelchair": "limited"}}, {"name": "Centre Cotherapsy", "latitude": 50.553697, "longitude": 3.797613, "source": "osm", "_tags": {"amenity": "hospital", "contact:facebook": "https://www.facebook.com/cotherapsy", "contact:instagram": "https://www.instagram.com/cotherapsy/", "contact:mobile": "+32 476 04 26 51", "email": "cotherapsy@outlook.com", "healthcare": "hospital", "name": "Centre Cotherapsy", "opening_hours": "Mo 09:00-18:00; Tu,Th 09:00-20:00; We 08:30-18:00; Fr 10:00-18:00; Sa 10:00-12:00", "website": "https://cotherapsy.be/"}}, {"name": "Epicura Beloeil", "latitude": 50.5497318, "longitude": 3.7353529, "source": "osm", "_tags": {"addr:city": "Beloeil", "addr:postcode": "7970", "addr:street": "Rue d'Ath", "amenity": "hospital", "emergency": "no", "healthcare": "hospital", "name": "Epicura Beloeil"}}, {"name": "Hôpital de jour Georges Galliot", "latitude": 50.2823816, "longitude": 3.9611062, "source": "osm", "_tags": {"amenity": "hospital", "fax": "+33327588041", "healthcare": "hospital", "name": "Hôpital de jour Georges Galliot", "phone": "+33327580337", "ref:FR:FINESS": "590008199", "source": "Le ministère des solidarités et de la santé - 2023-05", "type:FR:FINESS": "355"}}, {"name": "Clinique Sainte-Élisabeth - Sint-Elisabeth Ziekenhuis", "latitude": 50.8054513, "longitude": 4.3687322, "source": "osm", "_tags": {"addr:housenumber": "206", "addr:street": "Avenue De Fré - De Frélaan", "alt_name": "Cliniques de l'Europe (Sainte-Élisabeth) - Europa Ziekenhuizen (Sint-Elisabeth)", "amenity": "hospital", "contact:phone": "+32 2 614 20 00", "emergency": "yes", "name": "Clinique Sainte-Élisabeth - Sint-Elisabeth Ziekenhuis", "name:fr": "Clinique Sainte-Élisabeth", "name:nl": "Sint-Elisabeth Ziekenhuis"}}, {"name": "AZ Sint-Maria Halle", "latitude": 50.7363283, "longitude": 4.2258205, "source": "osm", "_tags": {"addr:city": "Halle", "addr:housenumber": "100", "addr:postcode": "1500", "addr:street": "Ziekenhuislaan", "amenity": "hospital", "emergency": "yes", "emergency_ward": "complete", "healthcare": "hospital", "healthcare:speciality": "general", "name": "AZ Sint-Maria Halle", "official_name": "Algemeen Ziekenhuis Sint-Maria", "phone": "+32 2 363 12 11", "ref:fps_health:campus": "1340", "ref:fps_health:recognition": "106", "website": "https://sintmaria.be/", "wheelchair": "yes"}}, {"name": "CHSA - Centre de Psychothérapie", "latitude": 50.2795423, "longitude": 3.9588577, "source": "osm", "_tags": {"building": "yes", "healthcare": "hospital", "name": "CHSA - Centre de Psychothérapie", "phone": "+33327694303", "ref:FR:FINESS": "590065785", "source": "cadastre-dgi-fr source : Direction Générale des Impôts - Cadastre;mise à jour : 2009;Le ministère des solidarités et de la santé - 2022-07", "type:FR:FINESS": "355"}}, {"name": "Clinique du Val-de-Sambre", "latitude": 50.2934593, "longitude": 3.9778366, "source": "osm", "_tags": {"amenity": "hospital", "building": "yes", "healthcare": "hospital", "name": "Clinique du Val-de-Sambre", "ref:FR:FINESS": "590813507", "source": "cadastre-dgi-fr source : Direction Générale des Impôts - Cadastre. Mise à jour : 2009", "type:FR:FINESS": "365"}}, {"name": "Hôpital Départemental de Felleries-Liessies", "latitude": 50.1361081, "longitude": 4.0883918, "source": "osm", "_tags": {"amenity": "hospital", "name": "Hôpital Départemental de Felleries-Liessies", "ref:FR:FINESS": "590000543", "source": "Le ministère des solidarités et de la santé - 03/2019"}}, {"name": "Centre Hospitalier Tubize Nivelles - Site de Tubize", "latitude": 50.6928645, "longitude": 4.2032695, "source": "osm", "_tags": {"addr:housenumber": "8", "addr:street": "Avenue de Scandiano", "amenity": "hospital", "building": "yes", "name": "Centre Hospitalier Tubize Nivelles - Site de Tubize"}}, {"name": "CH de Jeumont", "latitude": 50.2890432, "longitude": 4.1017426, "source": "osm", "_tags": {"amenity": "hospital", "building": "yes", "healthcare": "hospital", "name": "CH de Jeumont", "ref:FR:FINESS": "590000444", "source": "cadastre-dgi-fr source : Direction Générale des Impôts - Cadastre. Mise à jour : 2010", "type:FR:FINESS": "355"}}, {"name": "Clinique Notre-Dame de Grâce", "latitude": 50.4750558, "longitude": 4.4272505, "source": "osm", "_tags": {"addr:city": "Charleroi", "addr:housenumber": "212", "addr:postcode": "6041", "addr:street": "chaussée de Nivelles", "amenity": "hospital", "emergency": "yes", "emergency_ward": "complete", "healthcare": "hospital", "healthcare:speciality": "general", "name": "Clinique Notre-Dame de Grâce", "operator": "Clinique Notre-Dame de Grâce ASBL", "ref:fps_health:campus": "3350", "ref:fps_health:recognition": "409", "website": "https://www.cndg.be/"}}, {"name": "EpiCURA Hôpital de Baudour", "latitude": 50.469721, "longitude": 3.8402297, "source": "osm", "_tags": {"addr:city": "Baudour", "addr:housenumber": "136", "addr:postcode": "7331", "addr:street": "Rue Louis Caty", "amenity": "hospital", "emergency": "yes", "healthcare": "hospital", "name": "EpiCURA Hôpital de Baudour", "operator": "EpiCURA", "operator:type": "private", "website": "http://www.epicura.be/site-de-baudour"}}, {"name": "Hôpital de Mons - Site Kennedy", "latitude": 50.4572163, "longitude": 3.9633846, "source": "osm", "_tags": {"addr:housenumber": "2", "addr:street": "Boulevard du Président Kennedy", "amenity": "hospital", "emergency": "yes", "emergency_ward": "complete", "healthcare": "hospital", "healthcare:speciality": "general", "name": "Hôpital de Mons - Site Kennedy", "official_name": "CHU Helora - Site Kennedy - Kennedy Mons", "ref:fps_health:campus": "2730", "ref:fps_health:recognition": "254", "website": "https://www.jolimont.be/hopitaux/hopital-de-mons-site-kennedy", "wikidata": "Q3145129"}}, {"name": "Hôpital de Lobbes", "latitude": 50.3459699, "longitude": 4.2596634, "source": "osm", "_tags": {"addr:city": "Lobbes", "addr:housenumber": "25", "addr:postcode": "6540", "addr:street": "Rue de la Station", "amenity": "hospital", "description": "https://www.helora.be/hopitaux/hopital-de-lobbes", "emergency": "yes", "emergency_ward": "complete", "healthcare:speciality": "general", "name": "Hôpital de Lobbes", "official_name": "CHU Helora - Site Jolimont", "operator": "CHU Helora", "ref:fps_health:campus": "3210", "ref:fps_health:recognition": "146"}}, {"name": "Centre Hospitalier Epicura - Hornu", "latitude": 50.4361124, "longitude": 3.8308106, "source": "osm", "_tags": {"addr:city": "Hornu", "addr:housenumber": "63", "addr:postcode": "7301", "addr:street": "Rue de Mons", "amenity": "hospital", "emergency": "yes", "emergency_ward": "complete", "healthcare": "hospital", "healthcare:speciality": "general", "name": "Centre Hospitalier Epicura - Hornu", "operator": "Epicura", "operator:type": "public", "operator:website": "https://www.epicura.be", "phone": "+32 65 71 31 11", "ref:fps_health:campus": "3380", "ref:fps_health:recognition": "410"}}, {"name": "Hôpital de Warquignies", "latitude": 50.4177751, "longitude": 3.8060763, "source": "osm", "_tags": {"addr:city": "Boussu", "addr:housenumber": "27", "addr:postcode": "7300", "addr:street": "Rue des Chaufours", "amenity": "hospital", "emergency": "yes", "emergency_ward": "complete", "healthcare": "hospital", "healthcare:speciality": "general", "name": "Hôpital de Warquignies", "ref:fps_health:campus": "2720", "ref:fps_health:recognition": "266", "website": "https://www.jolimont.be/hopitaux/hopital-de-warquignies"}}, {"name": "Clinique Saint-Pierre", "latitude": 50.6674696, "longitude": 4.56037, "source": "osm", "_tags": {"addr:housenumber": "9", "addr:street": "Avenue Reine Fabiola", "amenity": "hospital", "contact:phone": "+32 10 43 72 11", "emergency": "yes", "emergency_ward": "complete", "healthcare": "hospital", "healthcare:speciality": "general;psychiatry", "loc_name": "Saint-Pierre", "name": "Clinique Saint-Pierre", "operator": "H.uni", "ref:fps_health:campus": "1730", "ref:fps_health:recognition": "43", "website": "https://www.cspo.be/"}}, {"name": "Centre Hospitalier Hornu - Frameries", "latitude": 50.4065204, "longitude": 3.8920525, "source": "osm", "_tags": {"amenity": "hospital", "designation": "CH Hornu-Frameries", "emergency": "no", "healthcare": "hospital", "name": "Centre Hospitalier Hornu - Frameries"}}, {"name": "Saint-Alfred (malades mentaux)", "latitude": 50.542815, "longitude": 4.0411574, "source": "osm", "_tags": {"amenity": "hospital", "name": "Saint-Alfred (malades mentaux)"}}, {"name": "Centre Hospitalier de la Haute Senne - site Saint Vincent", "latitude": 50.5766463, "longitude": 4.0671968, "source": "osm", "_tags": {"addr:city": "Soignies", "addr:housenumber": "17", "addr:postcode": "7060", "addr:street": "Boulevard Roosevelt", "amenity": "hospital", "emergency": "no", "healthcare": "hospital", "healthcare:speciality": "general", "name": "Centre Hospitalier de la Haute Senne - site Saint Vincent", "phone": "+32 67 34 84 11", "website": "https://chrhautesenne.be"}}, {"name": "Chêne aux Haies", "latitude": 50.4615374, "longitude": 3.9839221, "source": "osm", "_tags": {"amenity": "hospital", "healthcare:speciality": "psychiatry", "name": "Chêne aux Haies", "wikidata": "Q2945727"}}, {"name": "Le Domaine - Centre hospitalier", "latitude": 50.6813919, "longitude": 4.3398062, "source": "osm", "_tags": {"addr:city": "Braine-l'Alleud", "addr:housenumber": "39", "addr:postcode": "1420", "addr:street": "Chemin Jean Lanneau", "amenity": "hospital", "healthcare": "hospital", "name": "Le Domaine - Centre hospitalier"}}, {"name": "Hôpital de Mons - Site Constantinople", "latitude": 50.4545841, "longitude": 3.9599648, "source": "osm", "_tags": {"addr:housenumber": "5", "addr:street": "Avenue Baudouin de Constantinople", "amenity": "hospital", "emergency": "yes", "emergency_ward": "complete", "healthcare": "hospital", "healthcare:speciality": "general", "name": "Hôpital de Mons - Site Constantinople", "operator": "Helora - Centres Hospitaliers Universitaires", "ref:fps_health:campus": "2710", "ref:fps_health:recognition": "266", "website": "https://www.helora.be/hopitaux/hopital-de-mons-site-constantinople"}}, {"name": "Clairs Vallons", "latitude": 50.6612207, "longitude": 4.602271, "source": "osm", "_tags": {"addr:housenumber": "24", "addr:street": "Rue de Mont-Saint-Guibert", "amenity": "hospital", "healthcare": "hospital", "name": "Clairs Vallons"}}, {"name": "Centre Hospitalier de Hirson", "latitude": 49.925312, "longitude": 4.073176, "source": "osm", "_tags": {"addr:city": "Hirson", "addr:country": "FR", "addr:housenumber": "40", "addr:postcode": "02200", "addr:street": "Rue Aux Loups", "alt_name": "Centre hospitalier Jean-Antoine Brisset", "amenity": "hospital", "building": "hospital", "email": "direction@ch-hirson.fr", "emergency": "yes", "fax": "+33 3 23 58 82 47", "healthcare": "hospital", "name": "Centre Hospitalier de Hirson", "operator:type": "public", "phone": "+33 3 23 58 82 82", "ref:FR:FINESS": "020001087", "source": "cadastre-dgi-fr source : Direction Générale des Finances Publiques - Cadastre. Mise à jour : 2014;website https://finess.sante.gouv.fr/  - 12/2022", "type:FR:FINESS": "355"}}, {"name": "Medisch Centrum", "latitude": 50.8092596, "longitude": 3.7702088, "source": "osm", "_tags": {"addr:city": "Brakel", "addr:housenumber": "76", "addr:postcode": "9660", "addr:street": "Watermolenstraat", "amenity": "hospital", "building": "house", "name": "Medisch Centrum", "source:geometry:date": "2018-03-08", "source:geometry:ref": "Gbg/6243890"}}, {"name": "Ziekenhuis Inkendaal", "latitude": 50.8034545, "longitude": 4.223008, "source": "osm", "_tags": {"amenity": "hospital", "name": "Ziekenhuis Inkendaal"}}, {"name": "Chirec - Hôpital de Braine-Waterloo", "latitude": 50.6845302, "longitude": 4.367786, "source": "osm", "_tags": {"addr:city": "Braine-l'Alleud", "addr:country": "BE", "addr:housenumber": "35", "addr:postcode": "1420", "addr:street": "Rue Wayez", "amenity": "hospital", "emergency": "yes", "emergency_ward": "complete", "healthcare": "hospital", "healthcare:speciality": "general", "name": "Chirec - Hôpital de Braine-Waterloo", "official_name": "Chirec - Sare - Hopital De Braine-L'Alleud", "phone": "+32 2 434 91 11", "ref:fps_health:campus": "1760", "ref:fps_health:recognition": "723", "website": "https://chirec.be"}}, {"name": "Epicura Ath", "latitude": 50.6346133, "longitude": 3.7766057, "source": "osm", "_tags": {"addr:city": "Ath", "addr:housenumber": "1", "addr:postcode": "7800", "addr:street": "Rue Maria Thomée", "amenity": "hospital", "emergency": "yes", "emergency_ward": "complete", "healthcare": "hospital", "healthcare:speciality": "general", "name": "Epicura Ath", "operator": "Epicura", "phone": "+32 78 150 170", "ref:fps_health:campus": "1910", "ref:fps_health:recognition": "724", "website": "http://epicura.org/site-d-ath"}}, {"name": "Centre psychiatrique Saint-Bernard", "latitude": 50.5010556, "longitude": 4.2248653, "source": "osm", "_tags": {"amenity": "hospital", "healthcare": "hospital", "name": "Centre psychiatrique Saint-Bernard"}}, {"name": "Clinique des Hauts-de-France - emeis", "latitude": 50.2481286, "longitude": 3.9578633, "source": "osm", "_tags": {"addr:city": "Louvroil", "addr:postcode": "59720", "addr:street": "Route d'Avesnes", "amenity": "hospital", "healthcare": "hospital", "name": "Clinique des Hauts-de-France - emeis", "phone": "+33 3 27 62 52 52", "ref:FR:FINESS": "590816427", "type:FR:FINESS": "161", "website": "https://www.emeis-cliniques.fr/clinique-des-hauts-de-france-louvroil-59"}}, {"name": "Résidence Caraman", "latitude": 50.4333919, "longitude": 3.7912846, "source": "osm", "_tags": {"amenity": "hospital", "healthcare": "hospital", "name": "Résidence Caraman"}}, {"name": "Home \"Le Bon Repos\"", "latitude": 50.3954771, "longitude": 3.7704912, "source": "osm", "_tags": {"amenity": "hospital", "healthcare": "hospital", "name": "Home \"Le Bon Repos\""}}, {"name": "Centre hospitalier de Fourmies", "latitude": 50.0098687, "longitude": 4.0594385, "source": "osm", "_tags": {"alt_name": "Hôpital Saint-Charles", "amenity": "hospital", "emergency": "yes", "fax": "+33 3 27 56 47 00", "healthcare": "hospital", "name": "Centre hospitalier de Fourmies", "operator:type": "public", "phone": "+33 3 27 56 47 47", "ref:FR:FINESS": "590000469", "type:FR:FINESS": "355", "website": "https://www.ch-fourmies.fr/"}}, {"name": "Centre hospitalier de Maubeuge", "latitude": 50.2802156, "longitude": 3.989216, "source": "osm", "_tags": {"amenity": "hospital", "emergency": "yes", "healthcare": "hospital", "name": "Centre hospitalier de Maubeuge", "operator:type": "public", "ref:FR:FINESS": "590000535", "type:FR:FINESS": "355", "website": "https://www.ch-maubeuge.fr/"}}, {"name": "Centre hospitalier de Fumay", "latitude": 49.9898489, "longitude": 4.7101991, "source": "osm", "_tags": {"addr:city": "Fumay", "addr:country": "FR", "addr:housenumber": "30", "addr:postcode": "08170", "addr:street": "Place du Baty", "amenity": "hospital", "fax": "+33 3 24 41 11 66", "name": "Centre hospitalier de Fumay", "operator:type": "public", "phone": "+33 3 24 41 10 32", "ref:FR:FINESS": "080000284", "type:FR:FINESS": "106"}}, {"name": "Les Jours Heureux", "latitude": 50.3798702, "longitude": 3.810588, "source": "osm", "_tags": {"amenity": "hospital", "healthcare": "hospital", "name": "Les Jours Heureux"}}, {"name": "Maison de retraite", "latitude": 50.354102, "longitude": 4.0590743, "source": "osm", "_tags": {"amenity": "hospital", "healthcare": "hospital", "name": "Maison de retraite", "operator": "ACIS"}}, {"name": "Polyclinique de la Thiérache", "latitude": 50.0284712, "longitude": 4.0147184, "source": "osm", "_tags": {"amenity": "hospital", "healthcare": "hospital", "name": "Polyclinique de la Thiérache", "ref:FR:FINESS": "590006896", "source": "cadastre-dgi-fr source : Direction Générale des Impôts - Cadastre. Mise à jour : 2011", "type:FR:FINESS": "128"}}, {"name": "Institut Jules Bordet - Jules Bordet Instituut", "latitude": 50.8123739, "longitude": 4.2625889, "source": "osm", "_tags": {"addr:housenumber": "90", "addr:street": "Rue Meylemeersch - Mijlenmeersstraat", "amenity": "hospital", "contact:phone": "+32 2 541 31 11", "contact:website": "https://www.bordet.be", "emergency": "yes", "emergency_ward": "limited", "healthcare:speciality": "oncology", "name": "Institut Jules Bordet - Jules Bordet Instituut", "name:fr": "Institut Jules Bordet", "name:nl": "Jules Bordet Instituut", "note": "official classification says there's a limited emergency ward, but if there is one it is specialised in urgent cancer-related care only", "ref:fps_health:campus": "6220", "ref:fps_health:recognition": "79", "wikidata": "Q964636", "wikipedia": "fr:Institut Jules Bordet"}}, {"name": "Centre Hospitalier du Pays d'Avesnes", "latitude": 50.1147512, "longitude": 3.9223042, "source": "osm", "_tags": {"amenity": "hospital", "healthcare": "hospital", "name": "Centre Hospitalier du Pays d'Avesnes", "ref:FR:FINESS": "590000527", "type:FR:FINESS": "355", "website": "https://www.ch-avesnes.fr/"}}, {"name": "Centre Hospitalier d'Hautmont", "latitude": 50.2576932, "longitude": 3.9109289, "source": "osm", "_tags": {"amenity": "hospital", "healthcare": "hospital", "name": "Centre Hospitalier d'Hautmont", "ref:FR:FINESS": "590000451", "source": "cadastre-dgi-fr source : Direction Générale des Impôts - Cadastre ; mise à jour : 2009", "type:FR:FINESS": "355"}}, {"name": "Centre Psychothérapeutique de jour Charles-Albert Frère", "latitude": 50.3676136, "longitude": 4.4337418, "source": "osm", "_tags": {"addr:housenumber": "650", "addr:street": "Rue de Nalinnes", "amenity": "hospital", "healthcare:speciality": "child_psychiatry", "name": "Centre Psychothérapeutique de jour Charles-Albert Frère", "website": "http://centrepsycho.be/"}}, {"name": "CHU Charleroi - La Madeleine", "latitude": 50.4471913, "longitude": 4.4259719, "source": "osm", "_tags": {"amenity": "hospital", "healthcare": "hospital", "name": "CHU Charleroi - La Madeleine"}}, {"name": "A.S.Z. Campus Geraardsbergen", "latitude": 50.7704739, "longitude": 3.8775695, "source": "osm", "_tags": {"addr:housenumber": "4", "addr:street": "Gasthuisstraat", "amenity": "hospital", "check_date": "2024-05-17", "emergency": "yes", "emergency_ward": "complete", "healthcare": "hospital", "healthcare:speciality": "general", "name": "A.S.Z. Campus Geraardsbergen", "official_name": "A.S.Z. - Autonome Verzorgingsinstelling - ASZ Geraardsbergen", "phone": "+32 54 43 21 11", "ref:fps_health:campus": "1820", "ref:fps_health:recognition": "176", "website": "https://www.asz.be/nl/asz-campus-geraardsbergen", "wheelchair": "yes"}}, {"name": "CH EpiCura", "latitude": 50.5483847, "longitude": 3.7358128, "source": "osm", "_tags": {"amenity": "hospital", "emergency": "no", "healthcare": "hospital", "name": "CH EpiCura"}}, {"name": "CHU Charleroi-Chimay - Marie Curie (Lodelinsart)", "latitude": 50.4310358, "longitude": 4.4379449, "source": "osm", "_tags": {"addr:city": "Lodelinsart", "addr:housenumber": "140", "addr:postcode": "6042", "addr:street": "Chaussée de Bruxelles", "amenity": "hospital", "emergency": "yes", "emergency_ward": "complete", "healthcare": "hospital", "healthcare:speciality": "general", "name": "CHU Charleroi-Chimay - Marie Curie (Lodelinsart)", "name:etymology:wikidata": "Q7186", "operator": "CHU Charleroi-Chimay", "phone": "+32 71 92 07 01", "ref:fps_health:campus": "3130", "ref:fps_health:recognition": "718", "website": "https://www.chu-charleroi.be/sites/hopital-civil-marie-curie", "wheelchair": "yes", "wikidata": "Q19951058", "wikipedia": "fr:Hôpital civil Marie Curie"}}, {"name": "docteur malice", "latitude": 50.5476202, "longitude": 3.8017356, "source": "osm", "_tags": {"addr:city": "Chièvres", "addr:postcode": "7950", "addr:street": "Chaussée de Saint-Ghislain", "amenity": "hospital", "healthcare": "hospital", "healthcare:speciality": "general", "name": "docteur malice", "operator": "medecin"}}, {"name": "docteur malice", "latitude": 50.5476267, "longitude": 3.801842, "source": "osm", "_tags": {"addr:city": "Chièvres", "addr:postcode": "7950", "addr:street": "Chaussée de Saint-Ghislain", "amenity": "hospital", "healthcare": "hospital", "healthcare:speciality": "general", "name": "docteur malice"}}, {"name": "IMS Hornu", "latitude": 50.4391617, "longitude": 3.8368072, "source": "osm", "_tags": {"addr:housenumber": "230", "addr:street": "Rue de Mons", "amenity": "hospital", "emergency": "no", "healthcare": "hospital", "name": "IMS Hornu", "website": "https://ims-hornu.be/"}}, {"name": "CHU HELORA - Hôpital de La Louvière - Site Jolimont", "latitude": 50.4774874, "longitude": 4.2150789, "source": "osm", "_tags": {"addr:city": "Haine-Saint-Paul", "addr:housenumber": "159", "addr:postcode": "7100", "addr:street": "Rue Ferrer", "alt_name": "Hôpital de Jolimont", "amenity": "hospital", "emergency": "yes", "healthcare": "hospital", "name": "CHU HELORA - Hôpital de La Louvière - Site Jolimont", "operator": "HELORA", "operator:type": "university", "phone": "+32 64 23 30 11", "start_date": "1881", "website": "https://www.helora.be/hopitaux/hopital-de-la-louviere-site-jolimont"}}, {"name": "Centre de consultations du groupe Jolimont", "latitude": 50.4784187, "longitude": 4.1752959, "source": "osm", "_tags": {"addr:city": "La Louvière", "addr:housenumber": "31", "addr:postcode": "7100", "addr:street": "Rue Gustave Boël", "amenity": "hospital", "building": "hospital", "name": "Centre de consultations du groupe Jolimont", "source:geometry:date": "2016-06-15", "source:geometry:ref": "Picc/1462799;Picc/1374803;Picc/3618394;Picc/1650624"}}, {"name": "EpiCURA Polyclinique de Frameries", "latitude": 50.406551, "longitude": 3.8924174, "source": "osm", "_tags": {"addr:city": "Frameries", "addr:housenumber": "2", "addr:postcode": "7080", "addr:street": "Rue de France", "amenity": "hospital", "emergency": "no", "healthcare": "hospital", "name": "EpiCURA Polyclinique de Frameries", "wheelchair": "yes"}}, {"name": "CHU Tivoli", "latitude": 50.4777782, "longitude": 4.2072832, "source": "osm", "_tags": {"addr:city": "La Louvière", "addr:housenumber": "34", "addr:postcode": "7100", "addr:street": "Avenue Max Buset", "alt_name": "Centre Hospitalier Universitaire du Tivoli", "amenity": "hospital", "emergency": "yes", "emergency_ward": "complete", "healthcare": "hospital", "healthcare:speciality": "general;psychiatry;dentistry;emergency;ophthalmology", "name": "CHU Tivoli", "ref:fps_health:campus": "3220", "ref:fps_health:recognition": "96", "toilets:wheelchair": "yes", "website": "https://www.chu-tivoli.be/", "wheelchair": "yes"}}, {"name": "Grand Hopital De Charleroi - Notre-Dame", "latitude": 50.417596, "longitude": 4.4546389, "source": "osm", "_tags": {"addr:housenumber": "3", "addr:street": "Grand'Rue", "alt_name": "GHdC (Notre-Dame)", "amenity": "hospital", "emergency": "no", "emergency_ward": "limited", "healthcare": "hospital", "healthcare:speciality": "general", "name": "Grand Hopital De Charleroi - Notre-Dame", "phone": "+32 71 10 21 11", "ref:fps_health:campus": "3100", "ref:fps_health:recognition": "10", "website": "https://www.ghdc.be/"}}, {"name": "Polyclinique du Mambourg", "latitude": 50.413101, "longitude": 4.453336, "source": "osm", "_tags": {"amenity": "hospital", "healthcare": "hospital", "name": "Polyclinique du Mambourg"}}, {"name": "GHdC - Les Viviers", "latitude": 50.4197137, "longitude": 4.491321, "source": "osm", "_tags": {"amenity": "hospital", "emergency_ward": "complete", "healthcare": "hospital", "healthcare:speciality": "general", "name": "GHdC - Les Viviers", "operator": "Grand Hôpital de Charleroi", "website": "https://www.ghdc.be/implantations/les-viviers"}}, {"name": "Hôpital de Nivelles", "latitude": 50.5950833, "longitude": 4.3171263, "source": "osm", "_tags": {"addr:city": "Nivelles", "addr:housenumber": "1", "addr:postcode": "1400", "addr:street": "Rue Samiette", "amenity": "hospital", "emergency": "yes", "emergency_ward": "complete", "healthcare:speciality": "general", "name": "Hôpital de Nivelles", "official_name": "Chu Helora - Site Nivelles - Tubize - Nivelles", "phone": "+32 67 88 52 11", "ref:fps_health:campus": "1710", "ref:fps_health:recognition": "346", "website": "https://www.jolimont.be/hopitaux/hopital-de-nivelles"}}, {"name": "CHR Haute Senne - Site Le Tilleriau", "latitude": 50.5813401, "longitude": 4.0804897, "source": "osm", "_tags": {"addr:city": "Soignies", "addr:housenumber": "49", "addr:postcode": "7060", "addr:street": "Chaussée de Braine", "amenity": "hospital", "email": "info@chrhautesenne.be", "emergency": "yes", "emergency_ward": "complete", "healthcare": "hospital", "healthcare:speciality": "general", "name": "CHR Haute Senne - Site Le Tilleriau", "phone": "+32 67 34 84 11", "ref:fps_health:campus": "2790", "ref:fps_health:recognition": "7", "website": "https://chrhautesenne.be/fr/sites/2/le-tilleriau"}}, {"name": "Campus Helha/IESCA/UCL", "latitude": 50.4085915, "longitude": 4.4813415, "source": "osm", "_tags": {"addr:city": "Charleroi", "addr:postcode": "6061", "addr:street": "Rue Trieu Kaisin", "amenity": "university", "healthcare": "hospital", "internet_access": "yes", "internet_access:fee": "customers", "name": "Campus Helha/IESCA/UCL"}}, {"name": "Centre de santé des Fagnes", "latitude": 50.0448356, "longitude": 4.3098053, "source": "osm", "_tags": {"addr:housenumber": "18", "addr:street": "Boulevard Louise", "amenity": "hospital", "emergency": "yes", "emergency_ward": "complete", "healthcare": "hospital", "healthcare:speciality": "general", "name": "Centre de santé des Fagnes", "phone": "+32 60 21 88 11", "ref:fps_health:campus": "3160", "ref:fps_health:recognition": "249", "website": "https://csf.be/"}}, {"name": "Hôpital Vincent Van Gogh", "latitude": 50.4044242, "longitude": 4.4011684, "source": "osm", "_tags": {"amenity": "hospital", "fax": "+32 71 92 00 61", "healthcare:speciality": "psychiatry", "name": "Hôpital Vincent Van Gogh", "phone": "+32 71 92 14 11", "website": "https://www.humani.be/chu-charleroi-chimay/nos-sites-hospitaliers/hopital-vincent-van-gogh/"}}, {"name": "CHU Charleroi-Chimay - André Vésale", "latitude": 50.3599139, "longitude": 4.3682237, "source": "osm", "_tags": {"addr:city": "Montigny-le-Tilleul", "addr:housenumber": "706", "addr:postcode": "6110", "addr:street": "Rue de Gozée", "amenity": "hospital", "building": "hospital", "emergency": "yes", "emergency_ward": "complete", "healthcare:speciality": "general", "name": "CHU Charleroi-Chimay - André Vésale", "operator": "CHU Charleroi-Chimay", "operator:type": "university", "ref:fps_health:campus": "2750", "ref:fps_health:recognition": "325", "type": "multipolygon", "website": "https://www.humani.be/chu-charleroi-chimay/nos-sites-hospitaliers/hopital-andre-vesale/"}}, {"name": "Centre Hospitalier Régional du Val de Sambre", "latitude": 50.4351815, "longitude": 4.6273207, "source": "osm", "_tags": {"addr:city": "Auvelais", "addr:country": "BE", "addr:housename": "Centre Hospitalier Régional du Val de Sambre", "addr:housenumber": "75", "addr:postcode": "5060", "addr:province": "Namur", "addr:street": "Rue Chère-Voie", "amenity": "hospital", "building": "yes", "name": "Centre Hospitalier Régional du Val de Sambre", "old_name": "Clinique Reine Fabiola", "phone": "+32 71 26 52 11", "type": "multipolygon", "website": "http://www.chrvs.be/Accueil.aspx"}}, {"name": "Le Douaire", "latitude": 50.400551, "longitude": 4.2728323, "source": "osm", "_tags": {"amenity": "hospital", "healthcare": "hospital", "name": "Le Douaire", "type": "multipolygon"}}, {"name": "Hôpital Érasme - Erasmusziekenhuis", "latitude": 50.813812, "longitude": 4.265808, "source": "osm", "_tags": {"amenity": "hospital", "emergency": "yes", "emergency_ward": "complete", "healthcare": "hospital", "healthcare:speciality": "general", "name": "Hôpital Érasme - Erasmusziekenhuis", "name:en": "Erasmus Hospital", "name:fr": "Hôpital Érasme", "name:nl": "Erasmusziekenhuis", "ref:fps_health:campus": "4210", "ref:fps_health:recognition": "406", "type": "multipolygon", "wikipedia": "fr:Hôpital Érasme"}}]