[{"name": "Nemocnice Ostrov", "latitude": 50.3122314, "longitude": 12.9638984, "source": "osm", "_tags": {"amenity": "hospital", "healthcare": "hospital", "name": "Nemocnice Ostrov"}}, {"name": "REHOS Nejdek", "latitude": 50.3290788, "longitude": 12.7413515, "source": "osm", "_tags": {"amenity": "hospital", "emergency": "no", "name": "REHOS Nejdek", "website": "http://www.rehos-nejdek.cz/"}}, {"name": "Rehabilitationsklinik Miriquidi", "latitude": 50.6181533, "longitude": 13.0448297, "source": "osm", "_tags": {"addr:city": "Thermalbad Wiesenbad", "addr:housenumber": "33", "addr:postcode": "09488", "addr:street": "Freiberger Straße", "amenity": "hospital", "healthcare": "rehabilitation", "name": "Rehabilitationsklinik Miriquidi", "phone": "+49 3733 504 1103;+49 3733 504 1104", "toilets:wheelchair": "yes", "website": "https://wiesenbad.de/thermalbad-und-rehaklinik/rehaklinik", "wheelchair": "yes"}}, {"name": "Podkrušnohorská nemocnice následné péče", "latitude": 50.6041712, "longitude": 13.6132958, "source": "osm", "_tags": {"addr:city": "Litvínov", "addr:conscriptionnumber": "638", "addr:country": "CZ", "addr:housenumber": "638", "addr:postcode": "43601", "addr:street": "Podkrušnohorská", "amenity": "hospital", "healthcare": "hospital", "name": "Podkrušnohorská nemocnice následné péče", "ref:ruian:addr": "5153409", "source:addr": "cuzk:ruian"}}, {"name": "Pečovatelský dům", "latitude": 50.5125274, "longitude": 13.6495548, "source": "osm", "_tags": {"amenity": "hospital", "healthcare": "hospital", "name": "Pečovatelský dům"}}, {"name": "Hospic v Mostě", "latitude": 50.5088942, "longitude": 13.6228219, "source": "osm", "_tags": {"addr:city": "Most", "addr:housenumber": "1528", "addr:postcode": "43401", "addr:street": "Svážná", "amenity": "hospital", "healthcare": "hospital", "name": "Hospic v Mostě", "phone": "+420 476 000 166", "website": "https://www.hospic-most.cz/"}}, {"name": "Záchranná služba Royal Rangers", "latitude": 49.8519028, "longitude": 12.8428918, "source": "osm", "_tags": {"amenity": "hospital", "contact:facebook": "https://zs-rr.cz/", "email": "zsrr@email.cz", "healthcare": "hospital", "healthcare:speciality": "emergency", "mobile": "+420 724 800 500", "name": "Záchranná služba Royal Rangers", "operator": "Záchranná služba Royal Rangers", "operator:type": "charitable"}}, {"name": "Kreiskrankenhaus Zschopau", "latitude": 50.7352018, "longitude": 13.0793545, "source": "osm", "_tags": {"addr:city": "Zschopau", "addr:country": "DE", "addr:housenumber": "52", "addr:postcode": "09405", "addr:street": "Alte Marienberger Straße", "amenity": "hospital", "contact:email": "zschopau@erzgebirgsklinikum.de", "contact:facebook": "https://www.facebook.com/Erzgebirgsklinikum/", "contact:fax": "+49 3725 401209", "contact:instagram": "https://www.instagram.com/erzgebirgsklinikum/", "contact:linkedin": "https://www.linkedin.com/company/erzgebirgsklinikum", "contact:phone": "+49 3725 400", "contact:website": "Erzgebirgsklinikum gGmbH", "emergency": "yes", "healthcare": "hospital", "name": "Kreiskrankenhaus Zschopau", "operator": "Erzgebirgsklinikum gGmbH"}}, {"name": "Nemocnice následné péče", "latitude": 50.5164724, "longitude": 13.6335388, "source": "osm", "_tags": {"addr:conscriptionnumber": "1304", "addr:country": "CZ", "addr:housenumber": "1304/1", "addr:street": "Jana Žižky", "addr:streetnumber": "1", "amenity": "hospital", "building": "civic", "building:levels": "4", "building:ruian:type": "15", "healthcare": "hospital", "name": "Nemocnice následné péče", "ref:ruian:building": "5063124", "source": "cuzk:ruian"}}, {"name": "Nemocnice s poliklinikou Kadaň", "latitude": 50.3914447, "longitude": 13.2702695, "source": "osm", "_tags": {"amenity": "hospital", "healthcare": "hospital", "name": "Nemocnice s poliklinikou Kadaň", "website": "https://www.nemkadan.cz/"}}, {"name": "Nemocnice Žatec", "latitude": 50.3195424, "longitude": 13.5379142, "source": "osm", "_tags": {"amenity": "hospital", "building": "civic", "building:levels": "1", "building:ruian:type": "5", "healthcare": "hospital", "name": "Nemocnice Žatec", "ref:ruian:building": "9230351", "source": "cuzk:ruian"}}, {"name": "", "latitude": 50.3215746, "longitude": 13.536999, "source": "osm", "_tags": {"amenity": "hospital", "building": "civic", "building:ruian:type": "5", "healthcare": "hospital", "ref:ruian:building": "9213856", "source": "cuzk:ruian"}}, {"name": "", "latitude": 50.6027328, "longitude": 13.6060044, "source": "osm", "_tags": {"amenity": "hospital", "building": "civic", "building:levels": "1", "building:ruian:type": "15", "ref:ruian:building": "5121825", "source": "cuzk:ruian"}}, {"name": "Erzgebirgsklinikum Annaberg", "latitude": 50.5926238, "longitude": 13.0057168, "source": "osm", "_tags": {"amenity": "hospital", "barrier": "fence", "check_date": "2024-03-14", "contact:phone": "+49 3733 800", "contact:website": "http://www.erzgebirgsklinikum.de/", "emergency": "yes", "healthcare": "hospital", "name": "Erzgebirgsklinikum Annaberg", "operator": "EKA Erzgebirgsklinikum Annaberg gemeinnützige GmbH", "wheelchair": "yes", "wikidata": "Q1366147"}}, {"name": "Nemocnice Chomutov", "latitude": 50.4533062, "longitude": 13.4098192, "source": "osm", "_tags": {"amenity": "hospital", "contact:website": "https://www.kzcr.eu/cz/cv/Chomutov", "healthcare": "hospital", "name": "Nemocnice Chomutov"}}, {"name": "Swiss Medic Clinic", "latitude": 49.8696283, "longitude": 12.749691, "source": "osm", "_tags": {"amenity": "hospital", "building": "civic", "building:ruian:type": "15", "name": "Swiss Medic Clinic", "ref:ruian:building": "49212591", "source": "cuzk:ruian"}}, {"name": "Masarykova nemocnice", "latitude": 50.108052, "longitude": 13.7162123, "source": "osm", "_tags": {"amenity": "hospital", "emergency": "yes", "healthcare": "hospital", "name": "Masarykova nemocnice", "website": "https://www.nemorako.cz/"}}, {"name": "Nemocnice Most, o.z.", "latitude": 50.5057402, "longitude": 13.6275849, "source": "osm", "_tags": {"addr:city": "Most", "addr:housenumber": "270", "addr:postcode": "43464", "addr:street": "J. E. Purkyně", "amenity": "hospital", "barrier": "fence", "emergency": "yes", "healthcare": "hospital", "name": "Nemocnice Most, o.z.", "operator": "Krajská zdravotní, a.s.", "operator:type": "government"}}, {"name": "Erzgebirgsklinikum Haus Stollberg", "latitude": 50.7177804, "longitude": 12.7881008, "source": "osm", "_tags": {"addr:city": "Stollberg", "addr:housenumber": "7", "addr:postcode": "09366", "addr:street": "Jahnsdorfer Straße", "amenity": "hospital", "email": "stollberg@erzgebirgsklinikum.de", "name": "Erzgebirgsklinikum Haus Stollberg", "operator": "Erzgebirgsklinikum gGmbH", "phone": "+49 37296 530", "website": "https://www.erzgebirgsklinikum.de/haus/stollberg/"}}, {"name": "Karlovarská krajská nemocnice a.s.", "latitude": 50.2330465, "longitude": 12.8761044, "source": "osm", "_tags": {"amenity": "hospital", "barrier": "fence", "healthcare": "hospital", "name": "Karlovarská krajská nemocnice a.s."}}, {"name": "Územní zdravotnická záchranná služba Karlovarského kraje", "latitude": 50.2208144, "longitude": 12.8252387, "source": "osm", "_tags": {"addr:city": "Karlovy Vary", "addr:housenumber": "390/98C", "addr:postcode": "36006", "addr:street": "Závodní", "amenity": "hospital", "building": "civic", "building:levels": "4", "building:ruian:type": "15", "emergency": "yes", "healthcare": "hospital", "name": "Územní zdravotnická záchranná služba Karlovarského kraje", "ref:ruian:building": "51498588", "source": "cuzk:ruian", "start_date": "2012-08-10"}}, {"name": "", "latitude": 50.3202634, "longitude": 13.5374866, "source": "osm", "_tags": {"amenity": "hospital", "healthcare": "hospital"}}, {"name": "", "latitude": 50.3126728, "longitude": 12.9642071, "source": "osm", "_tags": {"amenity": "hospital", "healthcare": "hospital"}}, {"name": "", "latitude": 50.3291574, "longitude": 12.7414584, "source": "osm", "_tags": {"amenity": "hospital"}}, {"name": "Psychiatrická léčebna Petrohrad", "latitude": 50.1256471, "longitude": 13.4427271, "source": "osm", "_tags": {"alt_name": "zámek Petrohrad", "amenity": "hospital", "emergency": "no", "healthcare": "hospital", "healthcare:speciality": "psychiatry", "name": "Psychiatrická léčebna Petrohrad", "phone": "+420 415 236 111", "website": "https://www.plpetrohrad.cz/"}}, {"name": "REHA Fachklinik EUBIOS", "latitude": 50.701136, "longitude": 12.8575837, "source": "osm", "_tags": {"addr:city": "Thalheim/Erzgebirge", "addr:housenumber": "4a", "addr:postcode": "09380", "addr:street": "Gornsdorfer Straße", "amenity": "hospital", "email": "verwaltung@eubios.de", "emergency": "no", "fax": "+49 3721 880666", "healthcare": "hospital", "healthcare:speciality": "speech_therapy", "name": "REHA Fachklinik EUBIOS", "note": "Klinik als Sondergebiet im Flächennutzungsplan Ergänzung 8, Kleingartenanlage ist nicht mehr vorhanden (aufgekauft und eingeebnet) ist auf anderen Kartendiensten auch schon sichtbar. Erweiterungsbau bergseitig Richtung Salzstraße ist in 1. stufe fertig.", "operator": "Psychosomatische Reha-Fachklinik EUBIOS GmbH & Co. KG", "phone": "+49 3721 84110", "type": "multipolygon", "website": "https://www.eubios.de/"}}]