[{"name": "", "latitude": 51.0673344, "longitude": 10.9332973, "source": "osm", "_tags": {"amenity": "hospital", "healthcare": "hospital"}}, {"name": "Spezialisierte ambulante Palliativversorgung (SAPV)", "latitude": 51.7920202, "longitude": 10.9543283, "source": "osm", "_tags": {"amenity": "hospital", "healthcare": "hospital", "healthcare:speciality": "palliative", "name": "Spezialisierte ambulante Palliativversorgung (SAPV)", "operator": "Medizinisches Zentrum Harz GmbH"}}, {"name": "Universitätsklinikum Jena - Standort Bachstraße", "latitude": 50.9291402, "longitude": 11.5785016, "source": "osm", "_tags": {"addr:city": "Jena", "addr:housenumber": "18", "addr:postcode": "07743", "addr:street": "Bachstraße", "amenity": "hospital", "healthcare": "hospital", "name": "Universitätsklinikum Jena - Standort Bachstraße", "short_name": "KH Jena Geriatrie"}}, {"name": "Lungenklinik Neustadt GmbH", "latitude": 51.5601724, "longitude": 10.8401532, "source": "osm", "_tags": {"addr:city": "Harztor", "addr:country": "DE", "addr:housenumber": "23", "addr:postcode": "99768", "addr:street": "Badestraße", "addr:suburb": "Neustadt/Harz", "amenity": "hospital", "healthcare": "hospital", "name": "Lungenklinik Neustadt GmbH", "phone": "+49 36331 360", "short_name": "KH Neustadt/Harz", "toilets:wheelchair": "no", "website": "https://doceins.de/neustadt/", "wheelchair": "limited"}}, {"name": "Helios Klinikum Erfurt", "latitude": 50.9926769, "longitude": 11.0130251, "source": "osm", "_tags": {"addr:city": "Erfurt", "addr:country": "DE", "addr:housenumber": "74", "addr:postcode": "99089", "addr:street": "Nordhäuser Straße", "amenity": "hospital", "beds": "1261", "contact:email": "info.erfurt@helios-gesundheit.de", "contact:fax": "+49 361 7811002", "contact:phone": "+49 361 7810", "contact:website": "https://www.helios-gesundheit.de/standorte-angebote/kliniken/erfurt", "emergency": "yes", "healthcare": "hospital", "healthcare:speciality": "paediatrics;intensive;orthopaedics;gynaecology;emergency;surgery;cardiology;ophthalmology;dermatology;radiology;oncology;internal", "hospital:level:DE": "3", "name": "Helios Klinikum Erfurt", "operator": "Helios Kliniken GmbH", "operator:type": "private", "operator:wikidata": "Q1254151", "operator:wikipedia": "de:Helios Kliniken", "short_name": "KH Erfurt Helios", "wheelchair": "yes", "wikidata": "Q1774607", "wikipedia": "de:Klinikum Erfurt"}}, {"name": "Barbarossa Klinik", "latitude": 51.4304219, "longitude": 11.0299712, "source": "osm", "_tags": {"addr:city": "Kelbra (Kyffhäuser)", "addr:housenumber": "111", "addr:postcode": "06537", "addr:street": "Lange Straße", "amenity": "hospital", "email": "info@barbarossa-klinik-kelbra.de", "healthcare": "hospital", "name": "Barbarossa Klinik", "phone": "+49 34651 459-0", "website": "https://www.barbarossa-klinik-kelbra.de/"}}, {"name": "HELIOS Klinik Sangerhausen Mansfeld-Südharz", "latitude": 51.4719587, "longitude": 11.3094395, "source": "osm", "_tags": {"addr:city": "Sangerhausen", "addr:housenumber": "2a", "addr:postcode": "06526", "addr:street": "Am Beinschuh", "amenity": "hospital", "emergency": "yes", "healthcare": "hospital", "name": "HELIOS Klinik Sangerhausen Mansfeld-Südharz", "operator": "Helios Kliniken", "operator:wikidata": "Q1254151", "operator:wikipedia": "de:Helios Kliniken", "wheelchair": "yes"}}, {"name": "Helios Klinik Blankenhain", "latitude": 50.8601016, "longitude": 11.3394497, "source": "osm", "_tags": {"addr:city": "Blankenhain", "addr:housenumber": "5", "addr:postcode": "99444", "addr:street": "Wirthstraße", "amenity": "hospital", "emergency": "yes", "healthcare": "hospital", "healthcare:speciality": "intensive;emergency;surgery;internal", "name": "Helios Klinik Blankenhain", "operator": "Helios Kliniken", "operator:wikidata": "Q1254151", "operator:wikipedia": "de:Helios Kliniken", "short_name": "KH Blankenhain", "wikidata": "Q23936342"}}, {"name": "Harzklinikum Dorothea Christiane Erxleben GmbH", "latitude": 51.7949284, "longitude": 11.1634411, "source": "osm", "_tags": {"addr:city": "Quedlinburg", "addr:country": "DE", "addr:housenumber": "24", "addr:postcode": "06484", "addr:street": "Ditfurter Weg", "amenity": "hospital", "building": "hospital", "emergency": "yes", "healthcare": "hospital", "name": "Harzklinikum Dorothea Christiane Erxleben GmbH", "operator": "Klinikum Dorothea Christiane Erxleben Quedlinburg GmbH", "website": "http://www.klinikum-quedlinburg.de", "wheelchair": "yes"}}, {"name": "Paracelsusklinik", "latitude": 51.726052, "longitude": 11.1085954, "source": "osm", "_tags": {"amenity": "hospital", "healthcare": "hospital", "name": "Paracelsusklinik", "wheelchair": "limited"}}, {"name": "Harzklinikum", "latitude": 51.7940906, "longitude": 11.1627169, "source": "osm", "_tags": {"amenity": "hospital", "healthcare": "hospital", "name": "Harzklinikum"}}, {"name": "Diakonie-Krankenhaus Harz", "latitude": 51.7721178, "longitude": 10.7906065, "source": "osm", "_tags": {"addr:city": "Oberharz am Brocken", "addr:country": "DE", "addr:housenumber": "1", "addr:postcode": "38875", "addr:street": "Brockenstraße", "addr:suburb": "Elbingerode (Harz)", "amenity": "hospital", "building": "hospital", "healthcare": "hospital", "name": "Diakonie-Krankenhaus Harz", "wikidata": "Q1208253"}}, {"name": "Ilm-Kreis-Kliniken Arnstadt-Ilmenau GmbH - Standort Arnstadt", "latitude": 50.8394141, "longitude": 10.9414569, "source": "osm", "_tags": {"addr:city": "Arnstadt", "addr:country": "DE", "addr:housenumber": "33", "addr:postcode": "99310", "addr:street": "Bärwinkelstraße", "amenity": "hospital", "contact:fax": "+49 3628 919-130", "contact:phone": "+49 3628 919-0", "contact:website": "http://www.ilm-kreis-kliniken.de", "emergency": "yes", "healthcare": "hospital", "healthcare:speciality": "intensive;cardiology;orthopaedics;surgery;paediatrics;gynaecology;internal;radiology;emergency;abortion", "name": "Ilm-Kreis-Kliniken Arnstadt-Ilmenau GmbH - Standort Arnstadt", "operator": "Ilm-Kreis Kliniken", "short_name": "KH Arnstadt", "wikidata": "Q56696650"}}, {"name": "Katholisches Krankenhaus \"St. Johann Nepomuk\" Erfurt", "latitude": 50.9477408, "longitude": 11.0850534, "source": "osm", "_tags": {"addr:city": "Erfurt", "addr:country": "DE", "addr:housenumber": "72", "addr:postcode": "99097", "addr:street": "Haarbergstraße", "amenity": "hospital", "check_date": "2025-06-12", "emergency": "yes", "healthcare": "hospital", "healthcare:speciality": "psychiatry;orthopaedics;gynaecology;emergency;surgery;internal;intensive;cardiology;radiology", "name": "Katholisches Krankenhaus \"St. Johann Nepomuk\" Erfurt", "operator": "Katholische Hospitalvereinigung Thüringen gGmbH", "short_name": "KKH Erfurt", "wheelchair": "yes", "wikidata": "Q1736457"}}, {"name": "Zentralklinik Bad Berka", "latitude": 50.890018, "longitude": 11.2670446, "source": "osm", "_tags": {"addr:city": "Bad Berka", "addr:housenumber": "9", "addr:postcode": "99438", "addr:street": "Robert-Koch-Allee", "amenity": "hospital", "check_date": "2024-06-27", "emergency": "yes", "healthcare": "hospital", "healthcare:speciality": "intensive;orthopaedics;emergency;surgery;cardiology;oncology;internal;radiology", "name": "Zentralklinik Bad Berka", "operator": "Rhön-Klinikum AG", "short_name": "KH Bad Berka", "shortest_name": "ZBB", "toilets:wheelchair": "yes", "wheelchair": "yes", "wikidata": "Q190638"}}, {"name": "Klinik Lutherstadt Eisleben", "latitude": 51.5327846, "longitude": 11.5415713, "source": "osm", "_tags": {"addr:city": "Lutherstadt Eisleben", "addr:country": "DE", "addr:housenumber": "25", "addr:postcode": "06295", "addr:street": "Hohetorstraße", "amenity": "hospital", "contact:phone": "+49 3475 900", "contact:website": "https://www.helios-gesundheit.de/kliniken/lutherstadt-eisleben/", "emergency": "yes", "healthcare": "hospital", "name": "Klinik Lutherstadt Eisleben", "operator": "Helios Kliniken", "operator:wikidata": "Q1254151"}}, {"name": "PHV-Dialysezentrum Sangerhausen", "latitude": 51.4726125, "longitude": 11.318598, "source": "osm", "_tags": {"addr:city": "Sangerhausen", "addr:housenumber": "7", "addr:postcode": "06526", "addr:street": "Sotterhäuser Weg", "amenity": "hospital", "building": "hospital", "building:levels": "2", "healthcare": "dialysis", "healthcare:speciality": "dialysis", "name": "PHV-Dialysezentrum Sangerhausen", "website": "https://www.phv-dialyse.de/sangerhausen/"}}, {"name": "Marienstift Arnstadt", "latitude": 50.8374888, "longitude": 10.9448779, "source": "osm", "_tags": {"addr:city": "Arnstadt", "addr:country": "DE", "addr:housenumber": "12", "addr:postcode": "99310", "addr:street": "Wachsenburgallee", "amenity": "hospital", "contact:website": "http://www.ms-arn.de", "healthcare": "hospital", "healthcare:speciality": "orthopaedics", "name": "Marienstift Arnstadt", "short_name": "KH Arnstadt Marienstift", "wheelchair": "yes", "wikidata": "Q12352334"}}, {"name": "KMG Klinikum Sömmerda", "latitude": 51.1621496, "longitude": 11.1219341, "source": "osm", "_tags": {"addr:city": "Sömmerda", "addr:country": "DE", "addr:housenumber": "36", "addr:postcode": "99610", "addr:street": "Bahnhofstraße", "amenity": "hospital", "emergency": "yes", "healthcare": "hospital", "name": "KMG Klinikum Sömmerda", "operator": "KMG Kliniken SE", "phone": "+49 3634 520", "short_name": "KH Sömmerda", "website": "https://kmg-kliniken.de/kmg-klinikum-soemmerda/", "wheelchair": "yes", "wikidata": "Q23787623"}}, {"name": "Ev. Fachkrankenhaus für Psychiatrie \"Hildegard von Bingen\"", "latitude": 51.7519834, "longitude": 11.0940642, "source": "osm", "_tags": {"addr:city": "Thale", "addr:housenumber": "11", "addr:postcode": "06502", "addr:street": "Suderöder Straße", "amenity": "hospital", "building": "hospital", "healthcare": "hospital", "healthcare:speciality": "psychiatry", "name": "Ev. Fachkrankenhaus für Psychiatrie \"Hildegard von Bingen\"", "operator": "Evangelische Stiftung Neinstedt", "operator:short": "ESN", "operator:wikidata": "Q1974948", "phone": "+49 3947 99300"}}, {"name": "Robert-Koch-Krankenhaus Apolda", "latitude": 51.0126815, "longitude": 11.5122751, "source": "osm", "_tags": {"alt_name": "Robert-Koch-Krankenhaus", "amenity": "hospital", "contact:city": "Apolda", "contact:country": "DE", "contact:email": "info@rkk-apolda.de", "contact:fax": "+49 3644 57 10 80", "contact:housenumber": "66", "contact:phone": "+49 3644 57 0", "contact:postcode": "99510", "contact:street": "Jenaer Straße", "contact:website": "http://www.rkk-apolda.de", "emergency": "yes", "healthcare": "hospital", "healthcare:speciality": "paediatrics;intensive;orthopaedics;gynaecology;emergency;surgery;abortion;radiology;internal", "name": "Robert-Koch-Krankenhaus Apolda", "short_name": "KH Apolda", "shortest_name": "RKK", "wikidata": "Q1404583", "wikipedia": "de:Robert-Koch-Krankenhaus Apolda"}}, {"name": "Asklepios Fachklinikum Stadtroda", "latitude": 50.8619133, "longitude": 11.7265646, "source": "osm", "_tags": {"addr:city": "Stadtroda", "addr:country": "DE", "addr:housenumber": "1a", "addr:postcode": "07646", "addr:street": "Bahnhofstraße", "amenity": "hospital", "emergency": "no", "healthcare": "hospital", "healthcare:speciality": "psychiatry", "name": "Asklepios Fachklinikum Stadtroda", "operator": "Asklepios Kliniken", "operator:type": "private", "operator:wikidata": "Q732068", "operator:wikipedia": "de:Asklepios Kliniken", "short_name": "KH Stadtroda", "shortest_name": "AFK", "toilets:wheelchair": "yes", "wheelchair": "yes"}}, {"name": "Reha-Klinik am Kyffhäuser für Kinder und Jugendliche", "latitude": 51.3597949, "longitude": 11.0924344, "source": "osm", "_tags": {"addr:city": "Bad Frankenhausen/Kyffhäuser", "addr:housenumber": "4a", "addr:postcode": "06567", "addr:street": "Rottlebener Straße", "amenity": "hospital", "name": "Reha-Klinik am Kyffhäuser für Kinder und Jugendliche", "phone": "+49 34671 6630", "website": "https://www.kinderreha-kyffhaeuser.de/"}}, {"name": "Deutsche Rentenversicherung BUND – Reha-Zentrum Bad Frankenhausen", "latitude": 51.3588575, "longitude": 11.1154982, "source": "osm", "_tags": {"addr:city": "Bad Frankenhausen/Kyffhäuser", "addr:country": "DE", "addr:housenumber": "35", "addr:postcode": "06567", "addr:street": "Udersleber Weg", "amenity": "hospital", "healthcare": "hospital", "name": "Deutsche Rentenversicherung BUND – Reha-Zentrum Bad Frankenhausen", "operator": "Deutsche Rentenversicherung BUNDDeutsche Rentenversicherung BUND"}}, {"name": "Ökumenisches Hainich Klinikum - Klinik Bad Frankenhausen", "latitude": 51.3537502, "longitude": 11.1079495, "source": "osm", "_tags": {"amenity": "hospital", "healthcare": "hospital", "name": "Ökumenisches Hainich Klinikum - Klinik Bad Frankenhausen"}}, {"name": "MVZ Kölleda", "latitude": 51.1841858, "longitude": 11.2463022, "source": "osm", "_tags": {"amenity": "hospital", "emergency": "no", "name": "MVZ Kölleda", "wheelchair": "yes"}}, {"name": "Carl-von-Basedow-Klinikum", "latitude": 51.3702754, "longitude": 11.6074159, "source": "osm", "_tags": {"amenity": "hospital", "area": "yes", "healthcare": "hospital", "name": "Carl-von-Basedow-Klinikum", "wheelchair": "yes"}}, {"name": "Südharz Klinikum", "latitude": 51.5159905, "longitude": 10.7948214, "source": "osm", "_tags": {"addr:city": "Nordhausen", "addr:country": "DE", "addr:housenumber": "39", "addr:postcode": "99734", "addr:street": "Dr.-Robert-Koch-Straße", "amenity": "hospital", "email": "info@shk-ndh.de", "emergency": "yes", "healthcare": "hospital", "name": "Südharz Klinikum", "phone": "+49 3631 410", "short_name": "KH Nordhausen", "shortest_name": "SHK", "toilets:wheelchair": "yes", "website": "https://www.suedharz-klinikum.de/", "wheelchair": "yes", "wikidata": "Q23936341", "wikipedia": "de:Südharz Klinikum Nordhausen"}}, {"name": "KMG Klinikum Sondershausen", "latitude": 51.3736886, "longitude": 10.8786114, "source": "osm", "_tags": {"addr:city": "Sondershausen", "addr:country": "DE", "addr:housenumber": "2", "addr:postcode": "99706", "addr:street": "Hospitalstraße", "amenity": "hospital", "email": "sondershausen@kmg-kliniken.de", "emergency": "yes", "healthcare": "hospital", "name": "KMG Klinikum Sondershausen", "opening_hours": "Mo-Fr 06:30-20:00; Sa-Su 08:00-20:00", "operator": "KMG Kliniken SE", "operator:type": "private", "phone": "+49 3632 670", "short_name": "KH Sondershausen", "toilets:wheelchair": "yes", "website": "https://kmg-kliniken.de/kmg-klinikum-sondershausen", "wheelchair": "yes", "wikidata": "Q23787615", "wikipedia": "de:KMG Klinikum Sondershausen"}}, {"name": "Haus A", "latitude": 50.9608418, "longitude": 11.3231848, "source": "osm", "_tags": {"building": "hospital", "healthcare": "hospital", "name": "Haus A"}}, {"name": "Haus B", "latitude": 50.9599429, "longitude": 11.3223361, "source": "osm", "_tags": {"building": "hospital", "healthcare": "hospital", "name": "Haus B"}}, {"name": "Helios Klinik Hettstedt", "latitude": 51.6601433, "longitude": 11.4936801, "source": "osm", "_tags": {"amenity": "hospital", "emergency": "yes", "healthcare": "hospital", "name": "Helios Klinik Hettstedt", "operator": "Helios Kliniken", "operator:type": "private", "operator:wikidata": "Q1254151", "phone": "+49 3476 9330"}}, {"name": "Universitätsklinikum Jena", "latitude": 50.8853957, "longitude": 11.6208646, "source": "osm", "_tags": {"addr:city": "Jena", "addr:housenumber": "1", "addr:postcode": "07747", "addr:street": "Am Klinikum", "amenity": "hospital", "emergency": "yes", "healthcare": "hospital", "loc_name": "KH Jena", "name": "Universitätsklinikum Jena", "short_name": "UKJ", "wheelchair": "yes"}}, {"name": "Sophien- und Hufeland- Klinikum Weimar", "latitude": 50.9603358, "longitude": 11.3221058, "source": "osm", "_tags": {"addr:city": "Weimar", "addr:housenumber": "2", "addr:postcode": "99425", "addr:street": "Henry-van-de-Velde-Straße", "amenity": "hospital", "emergency": "yes", "healthcare": "hospital", "name": "Sophien- und Hufeland- Klinikum Weimar", "short_name": "KH Weimar", "shortest_name": "SHW", "website": "https://www.klinikum-weimar.de/", "wheelchair": "limited", "wikidata": "Q30260704", "wikipedia": "de:Sophien- und Hufeland-Klinikum Weimar"}}, {"name": "Waldklinik", "latitude": 51.7934816, "longitude": 11.7183607, "source": "osm", "_tags": {"addr:city": "Bernburg", "addr:country": "DE", "addr:housenumber": "8", "addr:postcode": "06406", "addr:street": "Keßlerstraße", "amenity": "hospital", "email": "verwaltung@waldklinik-bernburg.de", "emergency": "no", "fax": "+49 3471 365-200", "healthcare": "hospital", "name": "Waldklinik", "operator": "Waldklinik Bernburg GmbH", "phone": "+49 3471 365-0", "website": "https://www.waldklinik-bernburg.de/"}}, {"name": "Harzklinikum Dorothea Christiane Erxleben", "latitude": 51.792366, "longitude": 10.9552658, "source": "osm", "_tags": {"addr:city": "Blankenburg (Harz)", "addr:housenumber": "7-10", "addr:postcode": "38889", "addr:street": "Thiestraße", "amenity": "hospital", "emergency": "no", "healthcare": "hospital", "healthcare:speciality": "psychiatry", "name": "Harzklinikum Dorothea Christiane Erxleben", "operator": "Harzklinikum Dorothea Christiane Erxleben GmbH", "phone": "+49 3944 960", "type": "multipolygon", "website": "https://www.harzklinikum.com/", "wheelchair": "yes"}}, {"name": "SALUS Fachklinikum Bernburg", "latitude": 51.7868235, "longitude": 11.7270363, "source": "osm", "_tags": {"addr:city": "Bernburg", "addr:housenumber": "16-18", "addr:postcode": "06406", "addr:street": "Olga-Benario-Straße", "amenity": "hospital", "email": "fkh.bernburg@salus-lsa.de", "emergency": "no", "healthcare": "hospital", "healthcare:speciality": "psychiatry;child_psychiatry;neuropsychiatry", "name": "SALUS Fachklinikum Bernburg", "operator": "Salus GmbH", "operator:type": "private", "phone": "+49 3471343", "social_facility": "day_care", "type": "multipolygon", "website": "https://www.salus-lsa.de/kliniken-einrichtungen-leistungen/fachklinikum-bernburg/"}}, {"name": "Klinik für Psychiatrie und Psychotherapie", "latitude": 50.9324106, "longitude": 11.5820771, "source": "osm", "_tags": {"alt_name": "Standort Philosophenweg", "amenity": "hospital", "contact:website": "https://www.uniklinikum-jena.de/psychiatrie/", "healthcare": "clinic", "healthcare:speciality": "psychiatry", "name": "Klinik für Psychiatrie und Psychotherapie", "operator": "Universitätsklinikum Jena", "type": "multipolygon"}}, {"name": "Ameos-Klinikum", "latitude": 51.746201, "longitude": 11.4576877, "source": "osm", "_tags": {"addr:city": "Aschersleben", "addr:housenumber": "7a", "addr:postcode": "06449", "addr:street": "Eislebener Straße", "alt_name": "KH Aschersleben", "amenity": "hospital", "barrier": "fence", "check_date": "2025-06-13", "emergency": "yes", "healthcare": "hospital", "name": "Ameos-Klinikum", "operator": "Ameos", "operator:type": "private", "operator:wikidata": "Q462865", "operator:wikipedia": "de:Ameos", "phone": "+49 3473 970", "toilets:wheelchair": "yes", "type": "multipolygon", "wheelchair": "yes"}}]