[{"name": "Kreiskrankenhaus Weißwasser", "latitude": 51.5027422, "longitude": 14.6311049, "source": "osm", "_tags": {"addr:city": "Weißwasser/O.L.", "addr:country": "DE", "addr:housenumber": "1", "addr:postcode": "02943", "addr:street": "Karl-Liebknecht-Straße", "amenity": "hospital", "contact:fax": "+49 3576 267257", "contact:phone": "+49 3576 2670", "contact:website": "http://www.kreiskrankenhaus-weisswasser.de/", "emergency": "yes", "healthcare": "hospital", "name": "Kreiskrankenhaus Weißwasser", "operator": "Kreiskrankenhaus Weißwasser gGmbH"}}, {"name": "Krankenhaus Spremberg", "latitude": 51.5652149, "longitude": 14.3739244, "source": "osm", "_tags": {"addr:city": "Spremberg", "addr:country": "DE", "addr:housenumber": "80", "addr:postcode": "03130", "addr:street": "Karl-Marx-Straße", "amenity": "hospital", "check_date": "2024-03-31", "emergency": "yes", "healthcare": "hospital", "name": "Krankenhaus Spremberg", "operator": "Spremberger Krankenhaus GmbH", "phone": "+49 3563 520", "website": "https://krankenhaus-spremberg.de/", "wheelchair": "yes"}}, {"name": "Klinik am Waldschlößchen", "latitude": 51.0691175, "longitude": 13.7773451, "source": "osm", "_tags": {"addr:city": "Dresden", "addr:country": "DE", "addr:housenumber": "6", "addr:postcode": "01099", "addr:street": "Sudhausweg", "amenity": "hospital", "check_date": "2025-08-11", "fax": "+49 351 65877720", "healthcare": "rehabilitation", "name": "Klinik am Waldschlößchen", "phone": "+49 351 6587770", "website": "https://www.klinik-waldschloesschen.de/"}}, {"name": "St.-Marien-Krankenhaus Dresden", "latitude": 51.1207271, "longitude": 13.7834621, "source": "osm", "_tags": {"addr:city": "Dresden", "addr:country": "DE", "addr:housenumber": "29", "addr:postcode": "01109", "addr:street": "Selliner Straße", "amenity": "hospital", "check_date": "2024-07-28", "contact:website": "http://www.stmarienkh-dd.de/", "healthcare": "hospital", "healthcare:speciality": "psychiatry;neurology", "name": "St.-Marien-Krankenhaus Dresden", "opening_hours": "24/7", "operator": "Caritasverband für das Bistum Dresden-Meißen e.V.", "wheelchair": "limited"}}, {"name": "Sana Kliniken Niederlausitz", "latitude": 51.5274084, "longitude": 14.000652, "source": "osm", "_tags": {"amenity": "hospital", "contact:phone": "+49 3573 750", "contact:website": "https://www.sana.de/niederlausitz", "email": "info@klinikum-niederlausitz.de", "emergency": "yes", "healthcare": "hospital", "name": "Sana Kliniken Niederlausitz", "operator": "Sana Kliniken", "operator:type": "private", "operator:wikidata": "Q2220152", "operator:wikipedia": "de:Sana Kliniken", "start_date": "1890-11-03", "survey:date": "2024-08-01", "website": "https://www.sana.de/niederlausitz", "wheelchair": "yes"}}, {"name": "", "latitude": 50.9587874, "longitude": 13.9531555, "source": "osm", "_tags": {"addr:city": "Pirna", "addr:country": "DE", "addr:housenumber": "13", "addr:postcode": "01796", "addr:street": "Struppener Straße", "building": "hospital", "building:levels": "5", "emergency": "yes", "healthcare": "hospital", "roof:shape": "flat"}}, {"name": "Krankenhaus Bischofswerda", "latitude": 51.1361328, "longitude": 14.1785653, "source": "osm", "_tags": {"addr:city": "Bischofswerda", "addr:housenumber": "55", "addr:postcode": "01877", "addr:street": "Kamenzer Straße", "amenity": "hospital", "contact:fax": "+49 3591 3632455", "contact:phone": "+49 3591 3630", "contact:website": "https://www.oberlausitz-kliniken.de/kliniken-bereiche/krankenhaus-bischofswerda", "email": "info@oberlausitz-kliniken.de", "emergency": "yes", "fax": "+49 3594 7873177", "healthcare": "hospital", "name": "Krankenhaus Bischofswerda", "operator": "Oberlausitz-Kliniken gGmbH", "phone": "+49 3594 7870", "toilets:wheelchair": "yes", "wheelchair": "yes"}}, {"name": "Sächsisches Krankenhaus Großschweidnitz", "latitude": 51.0741916, "longitude": 14.643814, "source": "osm", "_tags": {"addr:city": "Großschweidnitz", "addr:country": "DE", "addr:housenumber": "41", "addr:postcode": "02708", "addr:street": "Dr.-Max-Krell-Park", "amenity": "hospital", "contact:phone": "+49 3585 4530", "contact:website": "https://www.skh-grossschweidnitz.sachsen.de/startseite", "healthcare": "hospital", "healthcare:speciality": "psychiatry;child_psychiatry;neurology", "name": "Sächsisches Krankenhaus Großschweidnitz", "operator": "Sächsisches Krankenhaus für Psychiatrie, Psychotherapie, Psychosomatik und Neurologie Großschweidnitz"}}, {"name": "Nemocnice Varnsdorf", "latitude": 50.8936054, "longitude": 14.611524, "source": "osm", "_tags": {"amenity": "hospital", "name": "Nemocnice Varnsdorf", "name:de": "Krankenhaus Varnsdorf", "website": "http://nemvdf.cz"}}, {"name": "Kirnitzschtal-Klinik", "latitude": 50.9236478, "longitude": 14.1614229, "source": "osm", "_tags": {"addr:city": "Bad Schandau", "addr:country": "DE", "addr:housenumber": "6", "addr:postcode": "01814", "addr:street": "Kirnitzschtalstraße", "amenity": "hospital", "building": "hospital", "building:colour": "white", "building:levels": "4", "emergency": "no", "healthcare": "hospital", "name": "Kirnitzschtal-Klinik", "roof:colour": "grey", "roof:levels": "0", "roof:shape": "hipped", "website": "https://www.kirnitzschtal-klinik.de/", "wheelchair": "yes"}}, {"name": "Medizinische Universität Lausitz – Carl Thiem", "latitude": 51.7424551, "longitude": 14.3222667, "source": "osm", "_tags": {"addr:city": "Cottbus", "addr:country": "DE", "addr:housenumber": "111", "addr:postcode": "03048", "addr:street": "Thiemstraße", "amenity": "hospital", "contact:phone": "+49 355 460", "contact:website": "https://www.mul-ct.de/", "emergency": "yes", "healthcare": "hospital", "name": "Medizinische Universität Lausitz – Carl Thiem", "name:hsb": "C. Thiemowy klinikum", "old_name:-2024-06-30": "Carl-Thiem-Klinikum", "operator": "Ministerium für Wissenschaft, Forschung und Kultur des Landes Brandenburg (MWFK)", "operator:-2024-06-30": "Carl-Thiem-Klinikum Cottbus gGmbH", "short_name": "MUL-CT", "toilets:wheelchair": "yes", "wheelchair": "yes", "wikidata": "Q1036616"}}, {"name": "Oberlausitz-Kliniken", "latitude": 51.18456, "longitude": 14.4309102, "source": "osm", "_tags": {"addr:city": "Bautzen", "addr:country": "DE", "addr:housename": "Krankenhaus Bautzen", "addr:housenumber": "3", "addr:postcode": "02625", "addr:street": "Am Stadtwall", "amenity": "hospital", "email": "info@oberlausitz-kliniken.de", "emergency": "yes", "fax": "+49 3591 3632549", "healthcare": "hospital", "name": "Oberlausitz-Kliniken", "name:hsb": "Hornjołužiske kliniki", "opening_hours": "24/7", "operator": "Oberlausitz-Kliniken gGmbH", "phone": "+49 3591 3630", "website": "https://www.oberlausitz-kliniken.de", "wheelchair": "yes", "wheelchair:description": "voll", "wikidata": "Q21036448"}}, {"name": "Lužická nemocnice Rumburk", "latitude": 50.9486742, "longitude": 14.5466146, "source": "osm", "_tags": {"amenity": "hospital", "healthcare": "hospital", "name": "Lužická nemocnice Rumburk"}}, {"name": "Lausitz Klinik Forst", "latitude": 51.7548698, "longitude": 14.6380688, "source": "osm", "_tags": {"amenity": "hospital", "emergency": "yes", "fax": "+49 3562-985 150", "healthcare": "hospital", "name": "Lausitz Klinik Forst", "operator": "Lausitz Klinik Forst GmbH", "phone": "+49 3562-985 0", "website": "https://www.lausitz-klinik.de/", "wheelchair": "yes"}}, {"name": "Klinikum Oberlausitzer Bergland", "latitude": 51.0049418, "longitude": 14.5700221, "source": "osm", "_tags": {"addr:city": "Ebersbach-Neugersdorf", "addr:country": "DE", "addr:housenumber": "23", "addr:postcode": "02730", "addr:street": "Röntgenstraße", "addr:suburb": "Ebersbach", "amenity": "hospital", "contact:phone": "+49 3586 7623000", "contact:website": "http://www.klinikum-oberlausitzer-bergland.de/kliniken-bereiche/klinikum-ebersbach/", "emergency": "yes", "healthcare": "hospital", "name": "Klinikum Oberlausitzer Bergland", "operator": "Klinikum Oberlausitzer Bergland gemeinnützige GmbH", "wheelchair": "yes"}}, {"name": "Krankenhaus Lauchhammer", "latitude": 51.49854, "longitude": 13.7891262, "source": "osm", "_tags": {"addr:city": "Lauchhammer", "addr:country": "DE", "addr:housenumber": "18", "addr:postcode": "01979", "addr:street": "Friedensstraße", "amenity": "hospital", "contact:phone": "+49 3573 750", "contact:website": "https://www.klinikum-niederlausitz.de/de/kliniken_einrichtungen.html", "emergency": "yes", "healthcare": "hospital", "name": "Krankenhaus Lauchhammer", "operator": "Klinikum Niederlausitz GmbH", "wheelchair": "yes", "wikidata": "Q110595945"}}, {"name": "Tagesklinik für Psychatrie und Psychotherapie", "latitude": 51.4992647, "longitude": 13.7899224, "source": "osm", "_tags": {"amenity": "clinic", "building": "hospital", "healthcare": "hospital", "name": "Tagesklinik für Psychatrie und Psychotherapie"}}, {"name": "Klinikum Weißer Hirsch", "latitude": 51.0649971, "longitude": 13.835851, "source": "osm", "_tags": {"addr:city": "Dresden", "addr:housenumber": "12", "addr:postcode": "01324", "addr:street": "Heinrich-Cotta-Straße", "alt_name": "Klinikum Weißer Hirsch", "amenity": "hospital", "check_date": "2024-07-12", "contact:website": "https://www.klinikum-dresden.de/iwh_khdn/", "emergency": "yes", "healthcare": "hospital", "name": "Klinikum Weißer Hirsch", "operator": "Städtisches Klinikum Dresden", "wheelchair": "yes"}}, {"name": "Krankenhaus St. Joseph-Stift", "latitude": 51.0474063, "longitude": 13.7611938, "source": "osm", "_tags": {"amenity": "hospital", "check_date": "2024-03-07", "emergency": "yes", "healthcare": "hospital", "name": "Krankenhaus St. Joseph-Stift", "operator": "Krankenhaus St. Joseph-Stift Dresden GmbH", "website": "https://www.josephstift-dresden.de/", "wheelchair": "yes", "wikidata": "Q2319667"}}, {"name": "Malteser Krankenhaus St. Johannes", "latitude": 51.2641258, "longitude": 14.1240854, "source": "osm", "_tags": {"addr:city": "Kamenz", "addr:country": "DE", "addr:housenumber": "40", "addr:postcode": "01917", "addr:street": "Nebelschützer Straße", "amenity": "hospital", "brand": "Malteser Hilfsdienst", "brand:wikidata": "Q1318397", "emergency": "ambulance_station", "healthcare": "hospital", "name": "Malteser Krankenhaus St. Johannes", "name:hsb": "Chorownja maltezow swjateho Jana", "operator": "Malteser Sachsen-Brandenburg gGmbH", "short_name": "MHD", "website": "https://www.malteser-krankenhaus-stjohannes.de/", "wheelchair": "yes"}}, {"name": "Krankenhaus Sankt Joseph-Stift", "latitude": 51.0463781, "longitude": 13.7615486, "source": "osm", "_tags": {"amenity": "hospital", "check_date": "2024-10-08", "healthcare": "hospital", "name": "Krankenhaus Sankt Joseph-Stift"}}, {"name": "Asklepios Fachklinik Hohwald", "latitude": 51.0474181, "longitude": 14.2899167, "source": "osm", "_tags": {"addr:city": "Neustadt in Sachsen", "addr:country": "DE", "addr:housenumber": "40", "addr:postcode": "01844", "addr:street": "Hohwaldstraße", "addr:suburb": "Hohwald", "alt_name": "Hohwaldklinik", "amenity": "hospital", "contact:email": "hohwald@asklepios.com", "contact:fax": "+49 3596 567204", "contact:phone": "+49 3596 5670", "contact:website": "http://www.hohwaldklinik.de", "healthcare": "hospital", "healthcare:speciality": "orthopaedics", "heritage": "4", "heritage:operator": "lfd", "name": "Asklepios Fachklinik Hohwald", "operator": "Asklepios Kliniken", "operator:type": "private", "operator:wikidata": "Q732068", "ref:lfd": "09303127", "wikidata": "Q49462712", "wikimedia_commons": "Category:Hohwaldklinik"}}, {"name": "Nemocnice v Podhájí", "latitude": 50.945534, "longitude": 14.541849, "source": "osm", "_tags": {"amenity": "hospital", "healthcare": "hospital", "name": "Nemocnice v Podhájí"}}, {"name": "", "latitude": 51.123384, "longitude": 13.9306037, "source": "osm", "_tags": {"amenity": "hospital", "healthcare": "hospital"}}, {"name": "VAMED Klinik Schloss Pulsnitz", "latitude": 51.1795409, "longitude": 14.0139232, "source": "osm", "_tags": {"addr:city": "Pulsnitz", "addr:country": "DE", "addr:housenumber": "1", "addr:postcode": "01896", "addr:street": "Wittgensteiner Straße", "amenity": "hospital", "building": "hospital", "contact:phone": "+493595550", "healthcare": "hospital", "name": "VAMED Klinik Schloss Pulsnitz", "operator": "VAMED Gesundheit Holding Deutschland GmbH", "website": "https://www.vamed-gesundheit.de/reha/schloss-pulsnitz/"}}, {"name": "Asklepios Klinik Sebnitz", "latitude": 50.9828655, "longitude": 14.2669317, "source": "osm", "_tags": {"addr:city": "Sebnitz", "addr:housenumber": "75b", "addr:postcode": "01855", "addr:street": "Doktor-Steudner-Straße", "amenity": "hospital", "emergency": "yes", "healthcare": "hospital", "name": "Asklepios Klinik Sebnitz", "operator": "Asklepios Kliniken", "operator:type": "private", "operator:wikidata": "Q732068"}}, {"name": "Falkenstein-Klinik", "latitude": 50.9189623, "longitude": 14.172976, "source": "osm", "_tags": {"amenity": "hospital", "healthcare": "hospital", "name": "Falkenstein-Klinik"}}, {"name": "Klinikum Pirna", "latitude": 50.9586394, "longitude": 13.9543677, "source": "osm", "_tags": {"addr:city": "Pirna", "addr:country": "DE", "addr:housenumber": "13", "addr:postcode": "01796", "addr:street": "Struppener Straße", "amenity": "hospital", "contact:phone": "+49 3501 71180", "contact:website": "https://www.helios-gesundheit.de/kliniken/pirna/", "emergency": "yes", "healthcare": "hospital", "healthcare:speciality": "general;paediatrics;ophthalmology;intensive;dialysis;gynaecology;emergency;cardiology;orthopaedics;surgery;radiology;internal", "name": "Klinikum Pirna", "operator": "Helios Kliniken", "operator:type": "private", "operator:wikidata": "Q1254151", "operator:wikipedia": "de:Helios Kliniken", "source": "survey;Yahoo_aerial_imagery;local knowledge", "wheelchair": "yes"}}, {"name": "Lausitzer Seenland Klinikum", "latitude": 51.442051, "longitude": 14.2729992, "source": "osm", "_tags": {"addr:city": "Hoyerswerda", "addr:housenumber": "10", "addr:postcode": "02977", "addr:street": "Maria-Grollmuß-Straße", "amenity": "hospital", "contact:fax": "+49 3571 442264", "contact:phone": "+49 3571 440", "contact:website": "https://www.seenlandklinikum.de", "emergency": "yes", "healthcare": "hospital", "name": "Lausitzer Seenland Klinikum", "name:hsb": "Łužiski jězorinowy klinikum", "operator": "Lausitzer Seenland Klinikum GmbH", "operator:type": "private", "type": "multipolygon"}}, {"name": "Diakonissenkrankenhaus", "latitude": 51.0631073, "longitude": 13.7614826, "source": "osm", "_tags": {"addr:city": "Dresden", "addr:country": "DE", "addr:housenumber": "29", "addr:postcode": "01099", "addr:street": "Holzhofgasse", "amenity": "hospital", "building": "hospital", "emergency": "yes", "healthcare": "hospital", "name": "Diakonissenkrankenhaus", "operator": "Ev.-Luth. Diakonissenanstalt Dresden e.V.", "phone": "+49 351 8100", "type": "multipolygon", "website": "https://www.diako-dresden.de/krankenhaeuser/diakonissenkrankenhaus-dresden", "wikidata": "Q1208323"}}, {"name": "Universitätsklinikum Carl Gustav Carus", "latitude": 51.0566641, "longitude": 13.7825131, "source": "osm", "_tags": {"addr:city": "Dresden", "addr:country": "DE", "addr:housenumber": "74", "addr:postcode": "01307", "addr:street": "Fetscherstraße", "amenity": "hospital", "contact:facebook": "https://www.facebook.com/ukdresden", "contact:youtube": "https://www.youtube.com/user/UKDresden", "emergency": "yes", "healthcare": "hospital", "name": "Universitätsklinikum Carl Gustav Carus", "name:de": "Universitätsklinikum Carl Gustav Carus", "name:fr": "Hôpital universitaire Carl Gustav Carus", "opening_hours": "24/7", "operator": "Universitätsklinikum Carl Gustav Carus an der TU Dresden", "phone": "+49 351 4580", "type": "multipolygon", "website": "https://www.uniklinikum-dresden.de", "wheelchair": "yes", "wikidata": "Q1651640", "wikipedia": "de:Universitätsklinikum Carl Gustav Carus Dresden"}}, {"name": "Asklepios-ASB Klinik Radeberg", "latitude": 51.1233926, "longitude": 13.9304712, "source": "osm", "_tags": {"addr:city": "Radeberg", "addr:country": "DE", "addr:housenumber": "60", "addr:postcode": "01454", "addr:street": "Pulsnitzer Straße", "amenity": "hospital", "building": "yes", "contact:phone": "+49 3528 4590", "contact:website": "https://www.asklepios.com/radeberg/", "healthcare": "hospital", "name": "Asklepios-ASB Klinik Radeberg", "operator": "Asklepios Kliniken", "operator:type": "private", "operator:wikidata": "Q732068", "type": "multipolygon", "wheelchair": "yes"}}]