[{"name": "Stratton Hospital", "latitude": 50.8305542, "longitude": -4.5176143, "source": "osm", "_tags": {"addr:city": "Bude", "addr:postcode": "EX23 9BP", "addr:street": "Hospital Road", "addr:suburb": "Stratton", "amenity": "hospital", "healthcare": "hospital", "minor_injury_unit": "yes", "name": "Stratton Hospital"}}, {"name": "Withybush Hospital", "latitude": 51.8131241, "longitude": -4.9646904, "source": "osm", "_tags": {"addr:postcode": "SA61 2PZ", "addr:street": "Fishguard Road", "amenity": "hospital", "fhrs:id": "856282", "healthcare": "hospital", "name": "Withybush Hospital", "name:cy": "Ysbyty Cyffredinol Llwynhelyg", "source:addr": "FHRS Open Data", "wheelchair": "yes", "wikidata": "Q8028300", "wikipedia": "en:Withybush General Hospital"}}, {"name": "South Pembrokeshire Hospital", "latitude": 51.6928458, "longitude": -4.9564043, "source": "osm", "_tags": {"addr:postcode": "SA72 6SX", "addr:street": "Fort Road", "amenity": "hospital", "fhrs:id": "856893", "healthcare": "hospital", "name": "South Pembrokeshire Hospital", "source:addr": "FHRS Open Data", "wikidata": "Q19604556"}}, {"name": "Tenby Cottage Hospital", "latitude": 51.6775464, "longitude": -4.7028074, "source": "osm", "_tags": {"addr:postcode": "SA70 8AG", "addr:street": "Gas Lane", "amenity": "hospital", "fhrs:id": "856689", "healthcare": "hospital", "name": "Tenby Cottage Hospital", "source:addr": "FHRS Open Data", "wikidata": "Q65078774"}}, {"name": "Holsworthy Hospital", "latitude": 50.818319, "longitude": -4.3498021, "source": "osm", "_tags": {"amenity": "hospital", "healthcare": "hospital", "name": "Holsworthy Hospital"}}]