[{"name": "Elkerliek Ziekenhuis", "latitude": 51.4818128, "longitude": 5.6424049, "source": "osm", "_tags": {"addr:city": "Helmond", "addr:housenumber": "25", "addr:postcode": "5707HA", "addr:street": "Wesselmanlaan", "amenity": "hospital", "healthcare": "hospital", "name": "Elkerliek Ziekenhuis", "phone": "+31 492 595 555", "source": "BAG", "source:date": "2014-06-06", "website": "https://www.elkerliek.nl"}}, {"name": "Jeroen Bosch, locatie Liduina", "latitude": 51.5940047, "longitude": 5.3209513, "source": "osm", "_tags": {"amenity": "hospital", "created_by": "JOSM", "name": "Jeroen Bosch, locatie Liduina"}}, {"name": "Sint Jans Gasthuis", "latitude": 51.2546458, "longitude": 5.7132511, "source": "osm", "_tags": {"addr:city": "Weert", "addr:housenumber": "5", "addr:postcode": "6001BE", "addr:street": "Vogelsbleek", "amenity": "hospital", "emergency": "yes", "healthcare": "hospital", "name": "Sint Jans Gasthuis", "short_name": "SJG", "website": "https://sjgweert.nl/"}}, {"name": "Anna Ziekenhuis", "latitude": 51.4168439, "longitude": 5.4774037, "source": "osm", "_tags": {"addr:city": "Eindhoven", "addr:housenumber": "1-03", "addr:postcode": "5644RX", "addr:street": "Antoon Coolenlaan", "amenity": "hospital", "healthcare": "hospital", "name": "Anna Ziekenhuis", "phone": "+31 40 286 4144", "source": "BAG", "source:date": "2014-02-11", "website": "https://www.st-anna.nl/", "wikidata": "Q97600121"}}, {"name": "Polikliniek Jeroen Bosch Ziekenhuis", "latitude": 51.7136447, "longitude": 5.3703338, "source": "osm", "_tags": {"addr:city": "Rosmalen", "addr:housenumber": "90", "addr:postcode": "5242CN", "addr:street": "De Hoef", "amenity": "hospital", "healthcare": "hospital", "name": "Polikliniek Jeroen Bosch Ziekenhuis", "source": "BAG", "source:date": "2014-03-24", "toilets:wheelchair": "yes", "wheelchair": "yes"}}, {"name": "Amphia Ziekenhuis", "latitude": 51.6483637, "longitude": 4.8717802, "source": "osm", "_tags": {"addr:city": "Oosterhout", "addr:housenumber": "6", "addr:postcode": "4901ZG", "addr:street": "Muldersteeg", "amenity": "hospital", "healthcare": "hospital", "name": "Amphia Ziekenhuis", "operator": "Amphia", "source:date": "2014-05-07", "website": "https://www.amphia.nl/"}}, {"name": "Anna Ziekenhuis", "latitude": 51.4198514, "longitude": 5.5585586, "source": "osm", "_tags": {"addr:city": "Geldrop", "addr:housenumber": "2", "addr:postcode": "5664EH", "addr:street": "Bogardeind", "amenity": "hospital", "healthcare": "hospital", "name": "Anna Ziekenhuis", "old_name": "St. Anna Ziekenhuis", "phone": "+31 40 286 4040", "source": "BAG", "source:date": "2014-05-20", "website": "https://www.annaziekenhuis.nl/", "wikidata": "Q29642844"}}, {"name": "Tweesteden Ziekenhuis Waalwijk", "latitude": 51.6859904, "longitude": 5.0533357, "source": "osm", "_tags": {"addr:city": "Waalwijk", "addr:housenumber": "4", "addr:postcode": "5141BM", "addr:street": "Kasteellaan", "amenity": "hospital", "healthcare": "hospital", "name": "Tweesteden Ziekenhuis Waalwijk", "source": "BAG", "source:date": "2014-05-30"}}, {"name": "Zorgcentrum Martinus", "latitude": 51.2547568, "longitude": 5.710275, "source": "osm", "_tags": {"addr:city": "Weert", "addr:housenumber": "1", "addr:postcode": "6001BE", "addr:street": "Vogelsbleek", "amenity": "hospital", "description": "St. Martinus is gespecialiseerd op het terrein van dementie, geronto-psychiatrie, gedragsproblematiek, reactivering en beschikt over ruime ervaring en behandeling ten aanzien van chronisch somatische aandoeningen.", "healthcare": "hospital", "name": "Zorgcentrum Martinus", "operator": "Land van Horne", "source": "BAG", "source:date": "2021-11-11", "toilets:wheelchair": "yes", "wheelchair": "yes"}}, {"name": "Medish Centrum Maastricht Annadal", "latitude": 50.8482578, "longitude": 5.6687388, "source": "osm", "_tags": {"addr:city": "Maastricht", "addr:housenumber": "17", "addr:postcode": "6216BX", "addr:street": "Becanusstraat", "amenity": "hospital", "healthcare": "hospital", "name": "Medish Centrum Maastricht Annadal", "phone": "+31 43 387 5000", "website": "https://www.mumc.nl/patienten-en-bezoekers/uw-polikliniek-bezoeken/medisch-centrum-annadal"}}, {"name": "Annadal Kliniek", "latitude": 50.8479188, "longitude": 5.6688266, "source": "osm", "_tags": {"addr:city": "Maastricht", "addr:housenumber": "100 C02", "addr:postcode": "6216EG", "addr:street": "Brouwersweg", "amenity": "hospital", "healthcare": "hospital", "name": "Annadal Kliniek", "website": "https://www.annadal-kliniek.nl/"}}, {"name": "Jessa Ziekenhuis, campus Virga Jesse", "latitude": 50.9260436, "longitude": 5.3421818, "source": "osm", "_tags": {"addr:city": "Hasselt", "addr:housenumber": "11", "addr:postcode": "3500", "addr:street": "Stadsomvaart", "amenity": "hospital", "emergency": "yes", "healthcare": "hospital", "name": "Jessa Ziekenhuis, campus Virga Jesse", "wheelchair": "yes"}}, {"name": "Openbaar Psychiatrisch Zorgcentrum Rekem", "latitude": 50.9313172, "longitude": 5.6664958, "source": "osm", "_tags": {"amenity": "hospital", "healthcare": "hospital", "landuse": "residential", "name": "Openbaar Psychiatrisch Zorgcentrum Rekem"}}, {"name": "AZ Turnhout Campus Sint Jozef", "latitude": 51.33489, "longitude": 4.9209147, "source": "osm", "_tags": {"addr:city": "Turnhout", "addr:country": "BE", "addr:housenumber": "44", "addr:postcode": "2300", "addr:street": "Steenweg op Merksplas", "amenity": "hospital", "emergency": "yes", "emergency_ward": "limited", "healthcare": "hospital", "healthcare:speciality": "general", "name": "AZ Turnhout Campus Sint Jozef", "operator:website": "https://www.azturnhout.be/", "phone": "+32 14 44 41 11", "ref:fps_health:campus": "2100", "ref:fps_health:recognition": "63", "short_name": "AZ Turnhout"}}, {"name": "Amphia Breda", "latitude": 51.5818941, "longitude": 4.7969227, "source": "osm", "_tags": {"addr:city": "Breda", "addr:housenumber": "21", "addr:postcode": "4818CK", "addr:street": "Molengracht", "amenity": "hospital", "contact:phone": "+31 76 595 5000", "contact:website": "https://www.amphia.nl", "emergency": "yes", "healthcare": "hospital", "name": "Amphia Breda", "operator": "Amphia", "smoking": "no", "wikidata": "Q2282926"}}, {"name": "AZ Turnhout Campus Sint-Elizabeth", "latitude": 51.3140865, "longitude": 4.941688, "source": "osm", "_tags": {"addr:housenumber": "166", "addr:street": "Rubensstraat", "amenity": "hospital", "email": "info@azturnhout.be", "emergency": "yes", "emergency_ward": "complete", "healthcare": "hospital", "healthcare:speciality": "general", "name": "AZ Turnhout Campus Sint-Elizabeth", "official_name": "Az Turnhout - Sint-Elisabeth", "phone": "+32 14 40 60 11", "ref:fps_health:campus": "1280", "ref:fps_health:recognition": "63", "source": "Bing", "website": "https://www.azturnhout.be/"}}, {"name": "", "latitude": 51.5407833, "longitude": 5.1043289, "source": "osm", "_tags": {"designation": "Ziekenhuis", "healthcare": "hospital"}}, {"name": "UPC Sint-Kamillus", "latitude": 50.8530558, "longitude": 4.7508665, "source": "osm", "_tags": {"addr:city": "Bierbeek", "addr:housenumber": "1", "addr:street": "Krijkelberg", "alt_name": "Sint-Kamillus Bierbeek", "amenity": "hospital", "healthcare": "hospital", "healthcare:speciality": "psychiatry", "name": "UPC Sint-Kamillus", "operator": "Broeders van Liefde - Zorggroep Sint-Kamillus"}}, {"name": "ZOL Ziekenhuis Oost Limburg Campus Sint-Barbara", "latitude": 50.9095772, "longitude": 5.6278077, "source": "osm", "_tags": {"addr:city": "Lanaken", "addr:country": "BE", "addr:housenumber": "478", "addr:postcode": "3620", "addr:street": "Bessemerstraat", "amenity": "hospital", "building": "hospital", "building:levels": "4", "emergency": "no", "healthcare": "hospital", "name": "ZOL Ziekenhuis Oost Limburg Campus Sint-Barbara"}}, {"name": "Ziekenhuis Geel", "latitude": 51.1592818, "longitude": 5.0014882, "source": "osm", "_tags": {"addr:housenumber": "2", "addr:street": "J.B.-Stessensstraat", "amenity": "hospital", "contact:facebook": "ziekenhuisgeel", "contact:linkedin": "https://www.linkedin.com/company/ziekenhuisgeel", "contact:twitter": "ZiekenhuisGeel", "email": "info@ziekenhuisgeel.be", "emergency": "yes", "emergency_ward": "complete", "healthcare": "hospital", "healthcare:speciality": "general", "internet_access": "wlan", "name": "Ziekenhuis Geel", "old_name": "AZ Sint-Dimpna", "phone": "+32 14 57 77 77", "ref:fps_health:campus": "2690", "ref:fps_health:recognition": "709", "website": "https://www.ziekenhuisgeel.be"}}, {"name": "Asster Psychiatrische ziekenhuis Campus Stad", "latitude": 50.8124865, "longitude": 5.1760678, "source": "osm", "_tags": {"amenity": "hospital", "healthcare": "hospital", "healthcare:speciality": "psychiatry", "name": "Asster Psychiatrische ziekenhuis Campus Stad", "old_name": "Ziekeren"}}, {"name": "Regionaal Ziekenhuis Sint-Trudo", "latitude": 50.8236648, "longitude": 5.1854786, "source": "osm", "_tags": {"addr:city": "Sint Truiden", "addr:country": "BE", "addr:housenumber": "100", "addr:postcode": "3800", "addr:street": "Diestersteenweg", "amenity": "hospital", "email": "info@stzh.be", "emergency": "yes", "emergency_ward": "complete", "healthcare": "hospital", "healthcare:speciality": "general", "name": "Regionaal Ziekenhuis Sint-Trudo", "phone": "+32 11 69 91 11", "ref:fps_health:campus": "3650", "ref:fps_health:recognition": "715", "website": "https://www.sint-trudo.be/"}}, {"name": "Reva Herk", "latitude": 50.9389525, "longitude": 5.1627044, "source": "osm", "_tags": {"alt_name": "Revalidatiecentrum", "amenity": "hospital", "healthcare": "hospital", "name": "Reva Herk", "old_name": "Jessa Ziekenhuis Campus Sint-Ursula"}}, {"name": "Jessa Ziekenhuis, campus Salvator", "latitude": 50.910657, "longitude": 5.3434473, "source": "osm", "_tags": {"addr:city": "Hasselt", "addr:flats": "28", "addr:housenumber": "20", "addr:postcode": "3500", "addr:street": "Salvatorstraat", "amenity": "hospital", "emergency": "no", "healthcare": "hospital", "name": "Jessa Ziekenhuis, campus Salvator", "old_name": "Salvatorziekenhuis", "website": "https://www.jessazh.be/bereikbaarheid/campus-salvator"}}, {"name": "Sint-Franciscus ziekenhuis", "latitude": 51.0467369, "longitude": 5.3161791, "source": "osm", "_tags": {"addr:city": "Heusden-Zolder", "addr:housenumber": "129", "addr:postcode": "3550", "addr:street": "Pastoor Paquaylaan", "amenity": "hospital", "email": "info@sfz.be", "emergency": "yes", "emergency_ward": "complete", "healthcare": "hospital", "healthcare:speciality": "general", "name": "Sint-Franciscus ziekenhuis", "phone": "+32 11 71 50 00", "ref:fps_health:campus": "3600", "ref:fps_health:recognition": "714", "website": "https://www.sfz.be/", "wikidata": "Q15881991", "wikipedia": "nl:Sint-Franciscusziekenhuis"}}, {"name": "Heilig Hart Ziekenhuis Mol", "latitude": 51.1874602, "longitude": 5.1142659, "source": "osm", "_tags": {"addr:city": "Mol", "addr:housenumber": "1", "addr:postcode": "2400", "addr:street": "Gasthuisstraat", "amenity": "hospital", "email": "info@azmol.be", "emergency": "yes", "emergency_ward": "complete", "healthcare": "hospital", "healthcare:speciality": "general", "name": "Heilig Hart Ziekenhuis Mol", "phone": "+32 14 71 20 00", "ref:fps_health:campus": "2080", "ref:fps_health:recognition": "102", "short_name": "H. Hartziekenhuis Mol", "website": "https://www.azmol.be/", "wikidata": "Q20900484"}}, {"name": "Campus Sint-Jan", "latitude": 50.8147985, "longitude": 4.940679, "source": "osm", "_tags": {"addr:city": "Tienen", "addr:country": "BE", "addr:housenumber": "115", "addr:postcode": "3300", "addr:province": "Vlaams-Brabant", "addr:street": "Houtemstraat", "amenity": "hospital", "healthcare": "hospital", "name": "Campus Sint-Jan"}}, {"name": "Máxima Medisch Centrum Eindhoven", "latitude": 51.4545516, "longitude": 5.4877291, "source": "osm", "_tags": {"addr:city": "Eindhoven", "addr:housenumber": "1", "addr:postcode": "5631BM", "addr:street": "Ds Theodor Fliednerstraat", "amenity": "hospital", "emergency": "no", "healthcare": "hospital", "name": "Máxima Medisch Centrum Eindhoven"}}, {"name": "Catharina Ziekenhuis", "latitude": 51.4657273, "longitude": 5.4721327, "source": "osm", "_tags": {"addr:city": "Eindhoven", "addr:country": "NL", "addr:housenumber": "2", "addr:postcode": "5623EJ", "addr:street": "Michelangelolaan", "amenity": "hospital", "emergency": "yes", "healthcare": "hospital", "name": "Catharina Ziekenhuis", "source": "BAG", "source:date": "2017-03-30", "website": "https://www.catharinaziekenhuis.nl/", "wikidata": "Q3120439", "wikimedia_commons": "Category:Catharina Ziekenhuis", "wikipedia": "nl:Catharina Ziekenhuis"}}, {"name": "Amphia Ziekenhuis, Locatie Pasteurlaan", "latitude": 51.6476796, "longitude": 4.8702466, "source": "osm", "_tags": {"addr:city": "Oosterhout", "addr:country": "NL", "addr:housenumber": "9", "addr:postcode": "4901DH", "addr:street": "Pasteurlaan", "amenity": "hospital", "building": "yes", "healthcare": "hospital", "name": "Amphia Ziekenhuis, Locatie Pasteurlaan", "ref:bag": "826100000000594", "source": "BAG", "source:date": "2014-05-07", "start_date": "1973"}}, {"name": "OPZ Geel", "latitude": 51.1520347, "longitude": 4.9792289, "source": "osm", "_tags": {"addr:housenumber": "4", "addr:street": "Dokter-Sanodreef", "addr:street_official": "Dr.-Sanodreef", "alt_name": "OPZ Geel (openbaar psychiatrisch zorgcentrum)", "amenity": "hospital", "healthcare": "hospital", "healthcare:speciality": "psychiatry", "hospital": "psychiatric", "internet_access": "wlan", "name": "OPZ Geel", "phone": "+32 14 57 91 11", "website": "https://www.opzgeel.be/", "wheelchair": "yes", "wikidata": "Q98141175", "wikipedia": "nl:Openbaar Psychiatrisch Zorgcentrum Geel"}}, {"name": "Asster Psychiatrisch Ziekenhuis Campus Melveren", "latitude": 50.8383834, "longitude": 5.1954683, "source": "osm", "_tags": {"amenity": "hospital", "healthcare": "hospital", "name": "Asster Psychiatrisch Ziekenhuis Campus Melveren", "old_name": "Sancta Maria"}}, {"name": "AZ Diest Campus Hasseltsestraat", "latitude": 50.981029, "longitude": 5.0521877, "source": "osm", "_tags": {"amenity": "hospital", "healthcare": "hospital", "name": "AZ Diest Campus Hasseltsestraat", "website": "https://www.azdiest.be/"}}, {"name": "K-Delta", "latitude": 50.8909834, "longitude": 5.5230342, "source": "osm", "_tags": {"addr:housenumber": "8", "addr:street": "Appelboomgaardstraat", "building": "yes", "healthcare": "hospital", "name": "K-Delta"}}, {"name": "Bernhoven", "latitude": 51.6737926, "longitude": 5.6061899, "source": "osm", "_tags": {"amenity": "hospital", "healthcare": "hospital", "name": "Bernhoven"}}, {"name": "Psychiatrisch ziekenhuis Sint-Annendael", "latitude": 50.9870698, "longitude": 5.0597421, "source": "osm", "_tags": {"addr:city": "Diest", "addr:housenumber": "1", "addr:postcode": "3290", "addr:street": "Vestenstraat", "amenity": "hospital", "healthcare": "hospital", "healthcare:speciality": "psychiatry", "name": "Psychiatrisch ziekenhuis Sint-Annendael", "operator": "vzw Sint-Annendael Diest Grauwzusters", "phone": "+32 13 38 05 11", "website": "https://www.sad.be/"}}, {"name": "Maastricht UMC+", "latitude": 50.8346038, "longitude": 5.7127878, "source": "osm", "_tags": {"addr:city": "Maastricht", "addr:country": "NL", "addr:housenumber": "25", "addr:postcode": "6229HX", "addr:street": "P Debyelaan", "amenity": "hospital", "healthcare": "hospital", "name": "Maastricht UMC+", "phone": "+31 43 387 6543", "website": "https://www.mumc.nl/"}}, {"name": "ETZ TweeSteden ziekenhuis", "latitude": 51.5775151, "longitude": 5.0597832, "source": "osm", "_tags": {"addr:city": "Tilburg", "addr:housenumber": "5", "addr:postcode": "5042AD", "addr:street": "Dr. Deelenlaan", "amenity": "hospital", "healthcare": "hospital", "name": "ETZ TweeSteden ziekenhuis", "toilets:wheelchair": "yes", "website": "https://www.etz.nl", "wheelchair": "yes"}}, {"name": "Jeroen Bosch Ziekenhuis", "latitude": 51.6851328, "longitude": 5.2761141, "source": "osm", "_tags": {"amenity": "hospital", "changing_table": "yes", "changing_table:fee": "no", "emergency": "yes", "healthcare": "hospital", "name": "Jeroen Bosch Ziekenhuis", "short_name": "JBZ", "website": "https://jbz.nl", "wheelchair": "yes"}}, {"name": "Máxima Medisch Centrum", "latitude": 51.4057368, "longitude": 5.4196351, "source": "osm", "_tags": {"addr:city": "Veldhoven", "addr:housenumber": "4600", "addr:postcode": "5504DB", "addr:street": "De Run", "amenity": "hospital", "healthcare": "hospital", "name": "Máxima Medisch Centrum", "phone": "+31 40 888 8000", "short_name": "Máxima MC", "website": "https://www.mmc.nl"}}, {"name": "Kinder Psychiatrisch Centrum", "latitude": 50.9551378, "longitude": 5.5190189, "source": "osm", "_tags": {"addr:housenumber": "5000", "addr:street": "Synaps Park", "amenity": "hospital", "healthcare": "hospital", "healthcare:speciality": "child_psychiatry", "name": "Kinder Psychiatrisch Centrum", "website": "https://kpc-genk.be/"}}, {"name": "OPZ Geel", "latitude": 51.1545247, "longitude": 4.9833259, "source": "osm", "_tags": {"addr:housenumber": "4", "addr:street": "Dokter-Sanodreef", "addr:street_official": "Dr.-Sanodreef", "amenity": "hospital", "healthcare": "hospital", "hospital": "psychiatric", "internet_access": "wlan", "name": "OPZ Geel", "name:nl": "OPZ Geel (openbaar psychiatrisch zorgcentrum)", "operator": "Openbaar Psychiatrisch Zorgcentrum Geel (EVZ)", "phone": "+32 14 57 91 11", "website": "https://www.opzgeel.be/", "wheelchair": "yes", "wikipedia": "nl:Gezinsverpleging (Geel)"}}, {"name": "UZ Pellenberg", "latitude": 50.8616805, "longitude": 4.800384, "source": "osm", "_tags": {"amenity": "hospital", "check_date": "2024-07-28", "healthcare": "hospital", "name": "UZ Pellenberg"}}, {"name": "Langdurige Forensisch Psychiatrische Zorg Zeeland", "latitude": 51.6826882, "longitude": 5.659114, "source": "osm", "_tags": {"addr:city": "Zeeland", "addr:housenumber": "75", "addr:postcode": "5411RW", "addr:street": "Brand", "amenity": "hospital", "healthcare:speciality": "psychiatry", "name": "Langdurige Forensisch Psychiatrische Zorg Zeeland", "old_name": "TBS \"de Corridor\"", "operator": "pompestichting", "short_name": "LFPZ Zeeland", "website": "https://www.pompestichting.nl/Behandeling/Langdurige-Forensisch-Psychiatrische-Zorg/"}}, {"name": "AZ Herentals", "latitude": 51.184669, "longitude": 4.8360189, "source": "osm", "_tags": {"amenity": "hospital", "emergency": "yes", "emergency_telephone_code": "+32 014 246 003", "emergency_ward": "complete", "healthcare": "hospital", "healthcare:speciality": "general", "name": "AZ Herentals", "old_name": "Sint Elisabeth", "phone": "+32 014 246 111", "ref:fps_health:campus": "1250", "ref:fps_health:recognition": "308", "short_name": "AZH", "website": "https://www.azherentals.be/"}}, {"name": "Gezondheidscentrum De Grote Beek", "latitude": 51.4680743, "longitude": 5.4417108, "source": "osm", "_tags": {"amenity": "hospital", "healthcare:speciality": "psychiatry", "name": "Gezondheidscentrum De Grote Beek", "operator": "GGzE", "website": "https://www.ggze.nl/teams/gezondheidscentrum-de-grote-beek", "wikidata": "Q88253439", "wikimedia_commons": "Category:De Grote Beek, Eindhoven", "wikipedia": "nl:Grote Beek (psychiatrisch ziekenhuis)"}}, {"name": "Noorderhart Mariaziekenhuis", "latitude": 51.2123355, "longitude": 5.4156016, "source": "osm", "_tags": {"addr:city": "Pelt", "addr:housenumber": "1", "addr:postcode": "3900", "addr:street": "Maesensveld", "amenity": "hospital", "email": "info@noorderhart.be", "emergency_ward": "complete", "healthcare": "hospital", "healthcare:speciality": "general", "name": "Noorderhart Mariaziekenhuis", "old_name": "Mariaziekenhuis", "phone": "+32 11 82 60 00", "ref:fps_health:campus": "3615", "ref:fps_health:recognition": "719", "website": "https://www.noorderhart.be/nl/mariaziekenhuis/"}}, {"name": "Noorderhart - Revalidatie & MS centrum", "latitude": 51.1915937, "longitude": 5.3877083, "source": "osm", "_tags": {"amenity": "hospital", "name": "Noorderhart - Revalidatie & MS centrum"}}, {"name": "PVT Andreas campus Lubbeek", "latitude": 50.8807916, "longitude": 4.8440746, "source": "osm", "_tags": {"addr:housenumber": "2", "addr:street": "Binkomstraat", "amenity": "hospital", "healthcare": "rehabilitation", "healthcare:speciality": "psychiatry", "long_name": "Psychiatrisch VerzorgingsTehuis Andreas Campus Lubbeek", "name": "PVT Andreas campus Lubbeek", "operator": "Z.org KU Leuven", "short_name": "PVT Andreas Lubbeek", "website": "https://www.zorgkuleuven.be/andreas/?sp=pvtcontact"}}, {"name": "", "latitude": 51.5888274, "longitude": 4.7906719, "source": "osm", "_tags": {"amenity": "hospital", "healthcare": "hospital", "layer": "-1", "type": "multipolygon"}}, {"name": "ZOL Ziekenhuis Oost-Limburg Campus Sint-Jan", "latitude": 50.9577745, "longitude": 5.5175371, "source": "osm", "_tags": {"addr:city": "Genk", "addr:housenumber": "1", "addr:postcode": "3600", "addr:street": "Synaps Park", "amenity": "hospital", "building": "hospital", "emergency": "yes", "emergency_ward": "complete", "healthcare:speciality": "general", "layer": "1", "name": "ZOL Ziekenhuis Oost-Limburg Campus Sint-Jan", "ref:fps_health:campus": "3560", "ref:fps_health:recognition": "371", "type": "multipolygon", "website": "https://www.zol.be/contact/zol-genk-campus-sint-jan"}}, {"name": "Medisch Centrum St.-Jozef", "latitude": 50.8896653, "longitude": 5.5245057, "source": "osm", "_tags": {"amenity": "hospital", "healthcare": "hospital", "healthcare:speciality": "psychiatry", "name": "Medisch Centrum St.-Jozef", "type": "multipolygon", "website": "https://www.mc-st-jozef.be/", "wikipedia": "nl:Medisch Centrum Sint-Jozef"}}, {"name": "ETZ Elisabeth Ziekenhuis", "latitude": 51.5402248, "longitude": 5.1044823, "source": "osm", "_tags": {"amenity": "hospital", "building": "yes", "emergency": "yes", "emergency_telephone_code": "hospital", "name": "ETZ Elisabeth Ziekenhuis", "phone": "+31 13 221 0000", "ref:bag": "0855100000107983", "source": "BAG", "source:date": "2024-12-06", "start_date": "1982", "type": "multipolygon", "website": "https://www.etz.nl"}}, {"name": "AZ Diest Campus Statiestraat", "latitude": 50.9875569, "longitude": 5.0521198, "source": "osm", "_tags": {"amenity": "hospital", "email": "die.info@uzleuven.be", "emergency": "yes", "emergency_ward": "complete", "healthcare": "hospital", "healthcare:speciality": "general", "name": "AZ Diest Campus Statiestraat", "phone": "+32 13 35 40 11", "ref:fps_health:campus": "1320", "ref:fps_health:recognition": "712", "type": "multipolygon", "website": "https://www.azdiest.be/"}}]