[{"name": "Muschinsky-Klinik", "latitude": 51.623677, "longitude": 10.4688028, "source": "osm", "_tags": {"addr:city": "Bad Lauterberg im Harz", "addr:housenumber": "7-10", "addr:postcode": "37431", "addr:street": "Wiesenbek", "amenity": "hospital", "fax": "+49 5524 858 333", "healthcare": "hospital", "name": "Muschinsky-Klinik", "phone": "+49 5524 858 0", "wheelchair": "yes"}}, {"name": "", "latitude": 50.9967702, "longitude": 10.5442251, "source": "osm", "_tags": {"amenity": "hospital", "designation": "Arzt", "source": "Stüber"}}, {"name": "Dr. K. Hildebrandt, Dr. E. Sauermann", "latitude": 51.8075734, "longitude": 10.334122, "source": "osm", "_tags": {"amenity": "hospital", "brand": "Deutsches Rotes Kreuz", "brand:wikidata": "Q694104", "brand:wikipedia": "de:Deutsches Rotes Kreuz", "contact:phone": "+49 5323 44 88", "description": "Praxis für Frauen", "healthcare": "hospital", "name": "Dr. K. Hildebrandt, Dr. E. Sauermann", "opening_hours": "Mo-Th 08:00-12:00,14:00-17:00; We,Fr 08:00-12:00", "operator": "MVZ-Oberharz"}}, {"name": "Hausarztpraxis", "latitude": 51.1764063, "longitude": 10.2768273, "source": "osm", "_tags": {"amenity": "hospital", "healthcare": "hospital", "healthcare:speciality": "general", "name": "Hausarztpraxis", "operator": "MVZ Mühlhausen", "operator:type": "private"}}, {"name": "Psychiatrische Institutsambulanz - Außenstelle Am Holtenser Berg", "latitude": 51.5612749, "longitude": 9.9046376, "source": "osm", "_tags": {"addr:city": "Göttingen", "addr:housenumber": "17b", "addr:postcode": "37079", "addr:street": "Genfstraße", "amenity": "hospital", "healthcare": "hospital", "healthcare:speciality": "psychiatry", "name": "Psychiatrische Institutsambulanz - Außenstelle Am Holtenser Berg", "opening_hours": "Th 15:00-18:00", "operator": "Asklepios Fachklinikum Göttingen", "phone": "+49 551 402-1888", "website": "https://www.asklepios.com/goettingen/experten/suchtbehandlung/sia-holtenser-berg/"}}, {"name": "Hospiz an der Lutter", "latitude": 51.5413545, "longitude": 9.9420543, "source": "osm", "_tags": {"addr:city": "Göttingen", "addr:country": "DE", "addr:housenumber": "10", "addr:postcode": "37073", "addr:street": "Humboldtallee", "amenity": "hospital", "contact:phone": "+49 551 27072610", "contact:website": "https://www.hospiz-goettingen.de/", "healthcare": "hospice", "name": "Hospiz an der Lutter", "source": "hi-res aerial imagery"}}, {"name": "KfH-Nierenzentrum", "latitude": 50.9796362, "longitude": 10.3256242, "source": "osm", "_tags": {"abandoned:landuse": "industrial", "addr:city": "Eisenach", "addr:country": "DE", "addr:housenumber": "4", "addr:postcode": "99817", "addr:street": "Rennbahn", "amenity": "hospital", "contact:website": "https://www.kfh.de/", "healthcare": "hospital", "name": "KfH-Nierenzentrum"}}, {"name": "Asklepios Fachklinikum Allgemeine Patientenaufnahme", "latitude": 51.5243033, "longitude": 9.9166111, "source": "osm", "_tags": {"addr:housenumber": "70", "addr:street": "Rosdorfer Weg", "amenity": "hospital", "healthcare": "hospital", "healthcare:speciality": "psychiatry", "name": "Asklepios Fachklinikum Allgemeine Patientenaufnahme", "operator": "Asklepios Kliniken", "operator:type": "private", "operator:wikidata": "Q732068"}}, {"name": "Asklepios Fachklinikum Gerontopsychiatrie (GPA)", "latitude": 51.5241867, "longitude": 9.9166011, "source": "osm", "_tags": {"addr:housenumber": "70", "addr:street": "Rosdorfer Weg", "amenity": "hospital", "healthcare": "hospital", "name": "Asklepios Fachklinikum Gerontopsychiatrie (GPA)", "operator": "Asklepios Kliniken", "operator:type": "private", "operator:wikidata": "Q732068"}}, {"name": "Haus T", "latitude": 50.9892638, "longitude": 10.3168812, "source": "osm", "_tags": {"amenity": "hospital", "healthcare": "hospital", "healthcare:speciality": "general", "name": "Haus T"}}, {"name": "Haus B", "latitude": 50.9885896, "longitude": 10.3155799, "source": "osm", "_tags": {"amenity": "hospital", "healthcare": "hospital", "healthcare:speciality": "general", "name": "Haus B"}}, {"name": "Haus C", "latitude": 50.9883878, "longitude": 10.3166501, "source": "osm", "_tags": {"amenity": "hospital", "healthcare": "hospital", "healthcare:speciality": "general", "name": "Haus C"}}, {"name": "Haus A", "latitude": 50.9886681, "longitude": 10.3151914, "source": "osm", "_tags": {"amenity": "hospital", "healthcare": "hospital", "healthcare:speciality": "general", "name": "Haus A"}}, {"name": "Haus D", "latitude": 50.9881827, "longitude": 10.3150148, "source": "osm", "_tags": {"amenity": "hospital", "healthcare": "hospital", "healthcare:speciality": "general", "name": "Haus D"}}, {"name": "Haus F", "latitude": 50.9876919, "longitude": 10.3156085, "source": "osm", "_tags": {"amenity": "hospital", "healthcare": "hospital", "healthcare:speciality": "general", "name": "Haus F"}}, {"name": "Haus N", "latitude": 50.9895139, "longitude": 10.315123, "source": "osm", "_tags": {"amenity": "hospital", "healthcare": "hospital", "healthcare:speciality": "general", "name": "Haus N"}}, {"name": "", "latitude": 51.8078338, "longitude": 10.3333335, "source": "osm", "_tags": {"building": "hospital", "building:levels": "2", "healthcare": "hospital", "healthcare:speciality": "geriatrics", "roof:levels": "2", "wheelchair": "yes"}}, {"name": "St. Georg Klinikum Eisenach", "latitude": 50.9885958, "longitude": 10.316079, "source": "osm", "_tags": {"addr:city": "Eisenach", "addr:country": "DE", "addr:housenumber": "94-95", "addr:postcode": "99817", "addr:street": "Mühlhäuser Straße", "amenity": "hospital", "check_date": "2025-05-02", "contact:website": "http://www.stgeorgklinikum.de/", "emergency": "yes", "healthcare": "hospital", "healthcare:speciality": "intensive;surgery;gynaecology;cardiology;oncology;internal;paediatrics;orthopaedics;emergency", "name": "St. Georg Klinikum Eisenach", "phone": "+49 3691 6980", "short_name": "KH Eisenach", "wheelchair": "yes"}}, {"name": "Kurparkklinik Dr. Lauterbach", "latitude": 50.8142701, "longitude": 10.3520709, "source": "osm", "_tags": {"addr:city": "Bad Liebenstein", "addr:housenumber": "5", "addr:postcode": "36448", "addr:street": "Heinrich-Mann-Straße", "amenity": "hospital", "building": "yes", "building:levels": "4", "healthcare": "rehabilitation", "layer": "1", "name": "Kurparkklinik Dr. Lauterbach", "phone": "+49 36961 790", "website": "https://www.dr-lauterbach-klinik.de/", "wheelchair": "yes"}}, {"name": "Kirchbergklinik", "latitude": 51.6261947, "longitude": 10.4688507, "source": "osm", "_tags": {"addr:city": "Bad Lauterberg im Harz", "addr:housenumber": "7-11", "addr:postcode": "37431", "addr:street": "Kirchberg", "amenity": "hospital", "healthcare": "hospital", "name": "Kirchbergklinik", "phone": "+49 5524 859 0", "wheelchair": "limited"}}, {"name": "Hufeland Klinikum Mühlhausen", "latitude": 51.2013226, "longitude": 10.4682145, "source": "osm", "_tags": {"addr:city": "Mühlhausen", "addr:housenumber": "1", "addr:postcode": "99974", "addr:street": "Langensalzaer Landstraße", "amenity": "hospital", "emergency": "yes", "healthcare": "hospital", "name": "Hufeland Klinikum Mühlhausen", "short_name": "KH Mühlhausen Hufeland", "source": "Bing", "wheelchair": "yes"}}, {"name": "Ökumenisches Hainich Klinikum", "latitude": 51.2093503, "longitude": 10.4016343, "source": "osm", "_tags": {"addr:city": "Mühlhausen", "addr:housenumber": "102", "addr:postcode": "99974", "addr:street": "Pfafferode", "amenity": "hospital", "emergency": "yes", "healthcare": "hospital", "healthcare:speciality": "psychiatry", "leisure": "park", "name": "Ökumenisches Hainich Klinikum", "short_name": "KH Mühlhausen Hainich", "website": "https://www.oehk.de/", "wikidata": "Q15136352"}}, {"name": "Diabeteszentrum Bad Lauterberg", "latitude": 51.6277331, "longitude": 10.4724068, "source": "osm", "_tags": {"addr:city": "Bad Lauterberg im Harz", "addr:housenumber": "21", "addr:postcode": "37431", "addr:street": "Kirchberg", "amenity": "hospital", "building": "hospital", "healthcare": "hospital", "name": "Diabeteszentrum Bad Lauterberg", "phone": "+49 5524 81 1", "website": "https://www.diabeteszentrum.de/"}}, {"name": "Klinik am Rennsteig", "latitude": 50.8719031, "longitude": 10.5131759, "source": "osm", "_tags": {"addr:city": "Bad Tabarz", "addr:housenumber": "34", "addr:postcode": "99891", "addr:street": "Zimmerbergstraße", "amenity": "hospital", "building": "yes", "building:levels": "5", "emergency": "no", "healthcare": "hospital", "name": "Klinik am Rennsteig", "operator": "Mediclin", "operator:type": "private", "operator:wikidata": "Q1916295", "phone": "+4936259640", "source": "bing", "website": "https://www.klinik-am-rennsteig.de/", "wheelchair": "yes"}}, {"name": "Fachklinik Rusteberg", "latitude": 51.3853517, "longitude": 10.0081408, "source": "osm", "_tags": {"addr:city": "Marth", "addr:country": "DE", "addr:housenumber": "1", "addr:postcode": "37318", "addr:street": "Rusteberger Straße", "amenity": "hospital", "check_date": "2025-02-04", "email": "info@fachklinik-rusteberg.de", "fax": "+49 36081 69141", "healthcare": "hospital", "healthcare:counselling": "addiction", "name": "Fachklinik Rusteberg", "operator": "SiT - Suchthilfe in Thüringen gGmbH", "phone": "+49 36081 6910", "source": "Thüringen DOP20;Esri;website", "website": "https://sit-online.org/suchthilfe-aus-einer-hand/fachklinik-rusteberg"}}, {"name": "UMG - Augenheilkunde (Standort Hainberg)", "latitude": 51.534065, "longitude": 9.946853, "source": "osm", "_tags": {"addr:city": "Göttingen", "addr:country": "DE", "addr:housenumber": "3", "addr:postcode": "37085", "addr:street": "Wagnerstraße", "amenity": "hospital", "building": "hospital", "healthcare": "hospital", "name": "UMG - Augenheilkunde (Standort Hainberg)", "operator": "Universitätsmedizin Göttingen", "roof:shape": "flat"}}, {"name": "Immanuel Therapiezentrum Bad Liebenstein", "latitude": 50.8163192, "longitude": 10.3356289, "source": "osm", "_tags": {"addr:city": "Bad Liebenstein", "addr:housenumber": "131", "addr:postcode": "36448", "addr:street": "Altensteiner Straße", "amenity": "hospital", "building": "yes", "healthcare": "rehabilitation", "name": "Immanuel Therapiezentrum Bad Liebenstein", "old_name": "Landeskrankenhaus Marienthal", "wheelchair": "limited"}}, {"name": "Herz-Kreislauf-Zentrum", "latitude": 51.0044858, "longitude": 9.7375233, "source": "osm", "_tags": {"addr:city": "Rotenburg an der Fulda", "addr:country": "DE", "addr:housenumber": "100", "addr:postcode": "36199", "addr:street": "Heinz-Meise-Straße", "amenity": "hospital", "building": "yes", "healthcare": "hospital", "name": "Herz-Kreislauf-Zentrum", "short_name": "HKZ", "wheelchair": "yes"}}, {"name": "Psychiatrisches Pflegezentrum Buntenbock GmbH", "latitude": 51.7710172, "longitude": 10.3285985, "source": "osm", "_tags": {"addr:city": "Clausthal-Zellerfeld", "addr:housenumber": "24", "addr:postcode": "38678", "addr:street": "Moosholzweg", "amenity": "hospital", "email": "info@pflegezentrum-buntenbock.de", "fax": "+49 5323 9616300", "healthcare": "hospital", "healthcare:speciality": "psychiatry", "name": "Psychiatrisches Pflegezentrum Buntenbock GmbH", "phone": "+49 5323 96160", "website": "http://pflegezentrum-buntenbock.de"}}, {"name": "BalzerbornKliniken", "latitude": 51.2625087, "longitude": 9.9672404, "source": "osm", "_tags": {"addr:city": "Bad Sooden-Allendorf", "addr:country": "DE", "addr:housenumber": "27", "addr:postcode": "37242", "addr:street": "Balzerbornweg", "amenity": "hospital", "building": "hospital", "email": "info@bbk-reha.de", "fax": "+49 5652 5876 2018", "healthcare": "hospital", "name": "BalzerbornKliniken", "operator": "Balzerborn Kliniken Bad Sooden-Allendorf GmbH", "phone": "+49 5652 5876 2000", "website": "https://www.balzerborn-reha.de/", "wheelchair": "yes"}}, {"name": "Klinik Werraland", "latitude": 51.2658075, "longitude": 9.9641353, "source": "osm", "_tags": {"addr:city": "Bad Sooden-Allendorf", "addr:country": "DE", "addr:housenumber": "2", "addr:postcode": "37242", "addr:street": "Balzerbornweg", "amenity": "hospital", "building": "hospital", "email": "info@klinik-werraland.de", "fax": "+49 5652 955 100", "healthcare": "hospital", "name": "Klinik Werraland", "operator": "Werraland Stiftung für Familiengesundheit - Stiftung bürgerlichen Rechts", "phone": "+49 5652 955 0", "website": "https://www.klinik-werraland.de/", "wheelchair": "yes", "wikidata": "Q116525754"}}, {"name": "Klinikum Werra-Meißner Standort Eschwege", "latitude": 51.1830091, "longitude": 10.0511387, "source": "osm", "_tags": {"amenity": "hospital", "contact:fax": "+49 5651 82-1016", "contact:phone": "+49 5651 82-0", "contact:website": "https://www.klinikum-werra-meissner.de", "emergency": "yes", "healthcare": "hospital", "name": "Klinikum Werra-Meißner Standort Eschwege", "opening_hours": "24/7", "operator": "Klinikum Werra-Meißner GmbH", "wheelchair": "yes"}}, {"name": "Evangelisches Krankenhaus Weende", "latitude": 51.5545918, "longitude": 9.9436862, "source": "osm", "_tags": {"addr:city": "Göttingen", "addr:housenumber": "24", "addr:postcode": "37075", "addr:street": "An der Lutter", "addr:suburb": "Weende", "amenity": "hospital", "contact:email": "kontakt@ekweende.de", "contact:phone": "+49 551 50340", "contact:website": "https://www.ekweende.de/", "emergency": "yes", "healthcare": "hospital", "name": "Evangelisches Krankenhaus Weende", "old_name:-1950": "Artillerie-Kaserne Weende", "operator": "Evangelisches Krankenhaus Göttingen-Weende gGmbH", "short_name": "EKW", "start_date": "1947", "toilets:wheelchair": "yes", "wheelchair": "yes", "wikidata": "Q15906343"}}, {"name": "Eichsfeld Klinikum Haus St. Vincenz Heiligenstadt", "latitude": 51.3763467, "longitude": 10.1411296, "source": "osm", "_tags": {"addr:city": "Heilbad Heiligenstadt", "addr:country": "DE", "addr:housenumber": "112", "addr:postcode": "37308", "addr:street": "Windische Gasse", "amenity": "hospital", "check_date": "2024-05-14", "contact:phone": "+49 3606 760", "contact:website": "http://www.eichsfeld-klinikum.de/", "healthcare": "hospital", "healthcare:speciality": "intensive;gynaecology;internal;paediatrics;orthopaedics", "name": "Eichsfeld Klinikum Haus St. Vincenz Heiligenstadt", "operator": "Eichsfeld Klinikum", "operator:type": "religious", "short_name": "KH Heiligenstadt", "wheelchair": "yes"}}, {"name": "Asklepios Fachklinikum Göttingen", "latitude": 51.5239093, "longitude": 9.9172202, "source": "osm", "_tags": {"addr:city": "Göttingen", "addr:country": "DE", "addr:housenumber": "70", "addr:postcode": "37081", "addr:street": "Rosdorfer Weg", "amenity": "hospital", "check_date": "2024-10-16", "contact:phone": "+49 551 4020", "contact:website": "http://asklepios.com/goettingen", "healthcare": "hospital", "healthcare:speciality": "psychiatry", "name": "Asklepios Fachklinikum Göttingen", "operator": "Asklepios Kliniken", "operator:type": "private", "operator:wikidata": "Q732068", "wikidata": "Q731994", "wikipedia": "de:Asklepios Fachklinikum Göttingen"}}, {"name": "Klinik Kurhessen", "latitude": 51.2704386, "longitude": 9.9608401, "source": "osm", "_tags": {"addr:city": "Bad Sooden-Allendorf", "addr:housenumber": "7", "addr:postcode": "37242", "addr:street": "Am Haintor", "amenity": "hospital", "building": "hospital", "email": "klinik-kurhessen@drv-hessen.de", "fax": "+49 5652 953 953", "healthcare": "hospital", "name": "Klinik Kurhessen", "operator": "Deutsche Rentenversicherung Hessen", "phone": "+49 5652 953 0", "website": "https://www.klinik-kurhessen.de/", "wheelchair": "yes"}}, {"name": "Universitätsmedizin Göttingen", "latitude": 51.5508411, "longitude": 9.942862, "source": "osm", "_tags": {"addr:city": "Göttingen", "addr:country": "DE", "addr:housenumber": "40", "addr:postcode": "37075", "addr:street": "Robert-Koch-Straße", "addr:suburb": "Weende", "alt_name": "Universitätsklinikum Göttingen", "amenity": "hospital", "contact:phone": "+49 551 39 0", "contact:website": "http://www.med.uni-goettingen.de/", "emergency": "yes", "healthcare": "hospital", "hospital:level:DE": "3", "name": "Universitätsmedizin Göttingen", "operator": "Georg-August-Universität", "short_name": "UMG", "wheelchair": "yes", "wikidata": "Q2496408"}}, {"name": "Helios Klinik Bleicherode", "latitude": 51.4431931, "longitude": 10.5666409, "source": "osm", "_tags": {"addr:city": "Bleicherode", "addr:country": "DE", "addr:housenumber": "11", "addr:postcode": "99752", "addr:street": "Barbarastraße", "amenity": "hospital", "contact:fax": "+49 36338 65-333", "contact:phone": "+49 36338 65-0", "contact:website": "http://www.helios-kliniken.de/klinik/bleicherode.html", "emergency": "yes", "healthcare": "hospital", "healthcare:speciality": "orthopaedics", "name": "Helios Klinik Bleicherode", "operator": "Helios Kliniken", "operator:wikidata": "Q1254151", "operator:wikipedia": "de:Helios Kliniken", "short_name": "KH Bleicherode"}}, {"name": "Hufeland Klinikum Bad Langensalza", "latitude": 51.1052518, "longitude": 10.6496021, "source": "osm", "_tags": {"addr:city": "Bad Langensalza", "addr:country": "DE", "addr:housenumber": "1-5", "addr:postcode": "99947", "addr:street": "Rudolf-Weiss-Straße", "amenity": "hospital", "contact:email": "info@hufeland.de", "contact:facebook": "https://www.facebook.com/pages/Hufeland-Klinikum-GmbH/764577056885986", "contact:fax": "+49 3603 855-100", "contact:phone": "+49 3603 855-0", "contact:website": "http://www.hufeland.de/", "emergency": "yes", "healthcare": "hospital", "healthcare:speciality": "orthopaedics;emergency;surgery;intensive;gynaecology;internal;paediatrics;biology;radiology;abortion", "name": "Hufeland Klinikum Bad Langensalza", "operator": "Hufeland Klinikum GmbH", "short_name": "KH Bad Langensalza", "toilets:wheelchair": "yes", "wheelchair": "yes", "wikidata": "Q107295076"}}, {"name": "HELIOS Albert-Schweitzer-Klinik Northeim", "latitude": 51.7294572, "longitude": 9.9792081, "source": "osm", "_tags": {"addr:city": "Northeim", "addr:country": "DE", "addr:housename": "Helios Krankenhaus", "addr:housenumber": "1", "addr:postcode": "37154", "addr:street": "Albert-Schweitzer-Weg", "amenity": "hospital", "fax": "+49 5551 97 1299", "healthcare": "hospital", "name": "HELIOS Albert-Schweitzer-Klinik Northeim", "operator": "Helios Kliniken", "operator:wikidata": "Q1254151", "phone": "+49 5551 97 0", "toilets:wheelchair": "yes", "website": "https://www.helios-kliniken.de/klinik/northeim.html", "wheelchair": "yes", "wikidata": "Q30269912"}}, {"name": "Agaplesion Neu-Bethlehem", "latitude": 51.5407387, "longitude": 9.9430858, "source": "osm", "_tags": {"addr:city": "Göttingen", "addr:country": "DE", "addr:housenumber": "8", "addr:postcode": "37073", "addr:street": "Humboldtallee", "amenity": "hospital", "contact:fax": "+49 551 494273", "contact:phone": "+49 551 4940", "contact:website": "http://neubethlehem.de/", "healthcare": "hospital", "name": "Agaplesion Neu-Bethlehem", "operator": "Agaplesion Krankenhaus Neu-Bethlehem gGmbH", "short_name": "NBH", "toilets:wheelchair": "yes", "wheelchair": "yes", "wikidata": "Q15781840"}}, {"name": "Rehaklinik Zorge für Mutter-Vater-Kind", "latitude": 51.6145894, "longitude": 10.6225987, "source": "osm", "_tags": {"addr:city": "Walkenried", "addr:housenumber": "34", "addr:postcode": "37445", "addr:street": "Schlesierstraße", "addr:suburb": "Zorge", "amenity": "hospital", "building": "healthcare", "healthcare": "rehabilitation", "name": "Rehaklinik Zorge für Mutter-Vater-Kind"}}, {"name": "Herz- & Gefäßzentrum Göttingen", "latitude": 51.5403522, "longitude": 9.9426762, "source": "osm", "_tags": {"amenity": "hospital", "healthcare": "hospital", "name": "Herz- & Gefäßzentrum Göttingen"}}, {"name": "Neu-Mariahilf", "latitude": 51.5416959, "longitude": 9.9426059, "source": "osm", "_tags": {"addr:city": "Göttingen", "addr:housenumber": "9", "addr:postcode": "37073", "addr:street": "Waldweg", "amenity": "hospital", "contact:fax": "+49 551 50341514", "contact:phone": "+49 551 50340", "contact:website": "http://www.neumariahilf.de/", "healthcare": "hospital", "healthcare:speciality": "internal;angiology;gynaecology;vascular_surgery;orthopaedics;anaesthetics;imc", "name": "Neu-Mariahilf", "official_name": "Medizinisches Versorgungszentrum Neu-Mariahilf", "operator": "MVZ Gesundheitspark Südniedersachsen GmbH", "short_name": "NMH", "short_name:de": "NMH - IMC", "wheelchair": "yes", "wikidata": "Q16774770"}}, {"name": "Klinikum Werra-Meißner Standort Witzenhausen", "latitude": 51.3432284, "longitude": 9.8605796, "source": "osm", "_tags": {"amenity": "hospital", "emergency": "yes", "fax": "+49 5542 504119", "healthcare": "hospital", "name": "Klinikum Werra-Meißner Standort Witzenhausen", "opening_hours": "24/7", "phone": "+49 5542 5040", "website": "https://klinikum-werra-meissner.de/", "wheelchair": "yes"}}, {"name": "Helios Klinikum Gotha", "latitude": 50.9280885, "longitude": 10.6774405, "source": "osm", "_tags": {"addr:city": "Gotha", "addr:housenumber": "1", "addr:postcode": "99867", "addr:street": "Heliosstraße", "amenity": "hospital", "emergency": "yes", "healthcare": "hospital", "healthcare:speciality": "psychiatry;paediatrics;orthopaedics;gynaecology;emergency;surgery;cardiology;oncology;internal", "name": "Helios Klinikum Gotha", "operator": "Helios Kliniken", "operator:wikidata": "Q1254151", "operator:wikipedia": "de:Helios Kliniken", "short_name": "KH Gotha", "wheelchair": "yes", "wikidata": "Q19965382"}}, {"name": "", "latitude": 51.3470159, "longitude": 10.3631646, "source": "osm", "_tags": {"amenity": "hospital", "healthcare": "hospital"}}, {"name": "Inselsberg Klinik", "latitude": 50.8825047, "longitude": 10.4997578, "source": "osm", "_tags": {"addr:city": "Bad Tabarz", "addr:country": "DE", "addr:housenumber": "36", "addr:postcode": "99891", "addr:street": "Fischbacher Straße", "amenity": "hospital", "contact:email": "info@ibk-bt.de", "contact:fax": "+49 36259 53213", "contact:phone": "+49 36259 530", "contact:website": "https://inselsberg-klinik.de/index.html", "description": "Fachklinik für Onkologie und hämatologische Systemerkrankungen, Zentrum für Lymphologie und Gefäßerkrankungen", "healthcare": "hospital", "healthcare:speciality": "oncology;haematology;angiology;lymphologie", "name": "Inselsberg Klinik", "operator": "Wicker GmbH u. Co. oHG", "wheelchair": "yes"}}, {"name": "Landambulanz", "latitude": 50.9619532, "longitude": 10.0707677, "source": "osm", "_tags": {"addr:city": "Gerstungen", "addr:housenumber": "1", "addr:postcode": "99834", "addr:street": "Jahnstraße", "building": "hospital", "check_date": "2023-05-14", "description": "Das Gebäude war bis zur Auflösung der Praxisgemeinschaft\nDr. med. W. Broßmann, und  Dr. Balinski FA für Innere Medizin und Allgemeinmedizin in Gerstungen genutzt worden.  Zur Zeit ungenutzt.", "healthcare": "hospital", "name": "Landambulanz"}}, {"name": "Sanatorium Dr. Barner", "latitude": 51.7294003, "longitude": 10.6179762, "source": "osm", "_tags": {"addr:city": "Braunlage", "addr:housenumber": "1", "addr:postcode": "38700", "addr:street": "Dr.-Barner-Straße", "amenity": "hospital", "healthcare": "hospital", "healthcare:speciality": "psychotherapist;general", "name": "Sanatorium Dr. Barner", "operator": "Johannes Barner", "operator:type": "private", "wikidata": "Q65244714"}}, {"name": "SRH Krankenhaus Waltershausen-Friedrichroda", "latitude": 50.8609546, "longitude": 10.5603936, "source": "osm", "_tags": {"addr:city": "Friedrichroda", "addr:housenumber": "17", "addr:postcode": "99894", "addr:street": "Reinhardsbrunner Straße", "amenity": "hospital", "check_date": "2024-03-12", "emergency": "yes", "healthcare": "hospital", "healthcare:speciality": "intensive;gynaecology;orthopaedics;surgery;internal;emergency", "name": "SRH Krankenhaus Waltershausen-Friedrichroda", "short_name": "KH Waltershausen"}}, {"name": "Eichsfeld Klinikum Haus Reifenstein", "latitude": 51.3473621, "longitude": 10.3638176, "source": "osm", "_tags": {"addr:city": "Niederorschel", "addr:housenumber": "7", "addr:postcode": "37355", "addr:street": "Im Kloster", "amenity": "hospital", "fixme": "bitte Umriss Krankenhausgelände prüfen und ggf. anpassen", "healthcare": "hospital", "healthcare:speciality": "surgery", "name": "Eichsfeld Klinikum Haus Reifenstein", "short_name": "KH Eichsfeld Reifenstein"}}, {"name": "St. Elisabeth-Krankenhaus Lengenfeld unterm Stein", "latitude": 51.2135397, "longitude": 10.2178664, "source": "osm", "_tags": {"addr:city": "Lengenfeld unterm Stein", "addr:housenumber": "19", "addr:postcode": "99976", "addr:street": "Bahnhofstraße", "amenity": "hospital", "check_date": "2024-03-24", "emergency": "no", "healthcare": "hospital", "internet_access": "wlan", "internet_access:fee": "customers", "name": "St. Elisabeth-Krankenhaus Lengenfeld unterm Stein", "payment:cash": "yes", "payment:credit_cards": "yes", "payment:debit_cards": "yes", "short_name": "KH Lengenfeld u. Stein", "source": "survey", "wheelchair": "yes"}}, {"name": "Helios Klinik Herzberg/Osterode", "latitude": 51.6694064, "longitude": 10.3431348, "source": "osm", "_tags": {"addr:city": "Herzberg am Harz", "addr:country": "DE", "addr:housenumber": "1", "addr:postcode": "37412", "addr:street": "Dr.-Frössel-Allee", "amenity": "hospital", "contact:phone": "+49 5521 8660", "contact:website": "https://www.helios-gesundheit.de/standorte-angebote/kliniken/herzberg-osterode/", "healthcare": "hospital", "name": "Helios Klinik Herzberg/Osterode", "operator": "Helios Kliniken", "operator:wikidata": "Q1254151", "operator:wikipedia": "de:Helios Kliniken", "wheelchair": "yes", "wikidata": "Q63225040"}}, {"name": "", "latitude": 51.8075367, "longitude": 10.3340236, "source": "osm", "_tags": {"addr:city": "Clausthal-Zellerfeld", "addr:country": "DE", "addr:housenumber": "1", "addr:postcode": "38678", "addr:street": "Windmühlenstraße", "addr:suburb": "Clausthal", "building": "hospital", "building:levels": "2", "healthcare": "hospital", "healthcare:speciality": "geriatrics", "heritage": "yes", "roof:levels": "2", "wheelchair": "yes"}}, {"name": "Rehbergklinik", "latitude": 51.7113626, "longitude": 10.540963, "source": "osm", "_tags": {"abandoned": "yes", "access": "private", "amenity": "hospital", "disused": "yes", "emergency": "no", "healthcare": "hospital", "name": "Rehbergklinik"}}, {"name": "St. Martini Krankenhaus", "latitude": 51.5170276, "longitude": 10.2465133, "source": "osm", "_tags": {"addr:city": "Duderstadt", "addr:country": "DE", "addr:housenumber": "34", "addr:postcode": "37115", "addr:street": "Göttinger Straße", "amenity": "hospital", "contact:phone": "+49 5527 8420", "contact:website": "https://www.vinzenz-verbund.de/martini-duderstadt/", "emergency": "yes", "healthcare": "hospital", "name": "St. Martini Krankenhaus", "operator": "Der Elisabeth Vinzenz Verbund", "operator:type": "ngo"}}, {"name": "", "latitude": 50.8138621, "longitude": 10.3532886, "source": "osm", "_tags": {"amenity": "hospital", "healthcare": "hospital"}}, {"name": "Klinik für Psychosomatische Medizin und Psychotherapie", "latitude": 51.5477983, "longitude": 9.9417154, "source": "osm", "_tags": {"addr:city": "Göttingen", "addr:housenumber": "5", "addr:postcode": "37075", "addr:street": "Von-Siebold-Straße", "amenity": "hospital", "healthcare": "hospital", "name": "Klinik für Psychosomatische Medizin und Psychotherapie"}}, {"name": "", "latitude": 50.9884222, "longitude": 10.3164597, "source": "osm", "_tags": {"building": "hospital", "healthcare": "hospital", "type": "multipolygon"}}, {"name": "Asklepios Fachklinikum Tiefenbrunn", "latitude": 51.4991518, "longitude": 9.8745183, "source": "osm", "_tags": {"addr:city": "Rosdorf", "addr:country": "DE", "addr:postcode": "37124", "addr:street": "Tiefenbrunn", "amenity": "hospital", "contact:phone": "+49 551 50050", "contact:website": "http://asklepios.com/tiefenbrunn", "healthcare": "hospital", "healthcare:speciality": "psychiatry", "name": "Asklepios Fachklinikum Tiefenbrunn", "old_name:-2006-12": "Niedersächsisches Landeskrankenhaus Tiefenbrunn", "type": "multipolygon", "wikidata": "Q732007", "wikipedia": "de:Asklepios Fachklinikum Tiefenbrunn"}}]