[{"name": "William Harvey Hospital (Ashford)", "latitude": 51.1405834, "longitude": 0.9166115, "source": "osm", "_tags": {"addr:city": "Willesborough", "addr:postcode": "TN24 0LZ", "addr:street": "Kennington Road", "amenity": "hospital", "healthcare": "hospital", "name": "William Harvey Hospital (Ashford)", "operator": "NHS", "operator:wikidata": "Q918396", "phone": "+44 1233 633331", "website": "http://www.ekhuft.nhs.uk/williamharvey"}}, {"name": "WIlliam Harvey Hospital", "latitude": 51.1415748, "longitude": 0.916478, "source": "osm", "_tags": {"addr:city": "Ashford", "addr:housename": "Willaim Harvey Hospital", "addr:postcode": "TN24 0LZ", "addr:street": "Kennington Road", "amenity": "hospital", "contact:phone": "+44 01233 633331", "contact:website": "https://www.nhs.uk/Services/hospitals/Overview/DefaultView.aspx?id=RVV01", "emergency": "yes", "healthcare": "hospital", "name": "WIlliam Harvey Hospital"}}, {"name": "Kent Community Health", "latitude": 51.0788642, "longitude": 1.1802996, "source": "osm", "_tags": {"amenity": "hospital", "check_date": "2024-02-03", "healthcare": "hospital", "name": "Kent Community Health"}}, {"name": "Queen Elizabeth The Queen Mother Hospital", "latitude": 51.377117, "longitude": 1.3890081, "source": "osm", "_tags": {"amenity": "hospital", "healthcare": "hospital", "name": "Queen Elizabeth The Queen Mother Hospital", "operator": "NHS", "operator:wikidata": "Q918396", "wheelchair": "yes", "wikidata": "Q30280534", "wikipedia": "en:Queen Elizabeth The Queen Mother Hospital"}}, {"name": "Sheppey Community Hospital", "latitude": 51.4151901, "longitude": 0.7930516, "source": "osm", "_tags": {"addr:city": "Minster-on-Sea", "addr:postcode": "ME12 3LT", "addr:street": "Plover Road", "amenity": "hospital", "emergency": "no", "healthcare": "hospital", "healthcare:speciality": "general", "name": "Sheppey Community Hospital", "opening_hours:minor_injuries": "08:00-20:00", "operator": "NHS England;Kent Community Health NHS Foundation Trust", "operator:type": "government", "phone": "+44 1795 879100", "website": "https://www.kentcht.nhs.uk/location/sheppey-miu/"}}, {"name": "Clacton Hospital", "latitude": 51.7855005, "longitude": 1.1480647, "source": "osm", "_tags": {"addr:city": "Clacton-on-Sea", "addr:postcode": "CO15 1LH", "amenity": "hospital", "healthcare": "hospital", "name": "Clacton Hospital", "ref:GB:cqc_location": "RDEE2", "ref:GB:nhs_ods": "RDEE2"}}, {"name": "The One Ashford Hospital", "latitude": 51.1425546, "longitude": 0.912922, "source": "osm", "_tags": {"amenity": "hospital", "healthcare": "hospital", "name": "The One Ashford Hospital", "source": "Bing"}}, {"name": "William Harvey Hospital", "latitude": 51.1418594, "longitude": 0.9145353, "source": "osm", "_tags": {"amenity": "hospital", "emergency": "yes", "healthcare": "hospital", "name": "William Harvey Hospital", "postal_code": "TN24 0LZ", "wikidata": "Q8010991"}}, {"name": "Kent and Canterbury Hospital", "latitude": 51.2659343, "longitude": 1.0868392, "source": "osm", "_tags": {"addr:city": "Canterbury", "addr:country": "GB", "addr:county": "Kent", "addr:housename": "Kent and Canterbury Hospital", "addr:postcode": "CT1 3NG", "addr:street": "Ethelbert Road", "amenity": "hospital", "contact:phone": "+44 01227 766877", "contact:website": "https://www.nhs.uk/Services/hospitals/Overview/DefaultView.aspx?id=RVVKC", "emergency": "no", "fhrs:id": "1102615;1103016", "healthcare": "hospital", "name": "Kent and Canterbury Hospital", "opening_hours": "24/7", "operator": "East Kent Hospitals University NHS Foundation Trust", "operator:type": "public", "operator:wikidata": "Q5328698", "wheelchair": "yes", "wikidata": "Q30280359", "wikipedia": "en:Kent and Canterbury Hospital"}}, {"name": "Saint Martin's Hospital", "latitude": 51.2771245, "longitude": 1.1077481, "source": "osm", "_tags": {"addr:city": "Canterbury", "addr:country": "GB", "addr:county": "Kent", "addr:postcode": "CT1 1TD", "addr:street": "Littlebourne Road", "amenity": "hospital", "emergency": "no", "fhrs:id": "1102786;1103636", "healthcare": "hospital", "name": "Saint Martin's Hospital", "opening_hours": "24/7", "phone": "+44 1227 459371", "website": "https://www.nhs.uk/services/hospitals/overview/defaultview.aspx?id=29250", "wikidata": "Q30292948"}}, {"name": "Royal Victoria Hospital and Folkestone Minor Injury Unit", "latitude": 51.0860679, "longitude": 1.1715356, "source": "osm", "_tags": {"amenity": "hospital", "emergency": "no", "healthcare": "hospital", "name": "Royal Victoria Hospital and Folkestone Minor Injury Unit", "operator": "NHS", "operator:wikidata": "Q918396", "wheelchair": "yes", "wikidata": "Q20047280", "wikipedia": "en:Royal Victoria Hospital, Folkestone"}}, {"name": "Buckland Hospital", "latitude": 51.1317323, "longitude": 1.2913084, "source": "osm", "_tags": {"addr:city": "Dover", "addr:country": "GB", "addr:county": "Kent", "addr:postcode": "CT17 0HD", "addr:street": "Coombe Valley Road", "amenity": "hospital", "emergency": "no", "healthcare": "hospital", "name": "Buckland Hospital", "phone": "+44 1304201624", "wikidata": "Q30293037"}}, {"name": "The Chaucer Hospital", "latitude": 51.2620033, "longitude": 1.0874102, "source": "osm", "_tags": {"addr:city": "Canterbury", "addr:country": "GB", "addr:county": "Kent", "addr:postcode": "CT4 7AR", "addr:street": "Nackington Road", "amenity": "hospital", "emergency": "no", "fhrs:id": "1103247", "healthcare": "hospital", "name": "The Chaucer Hospital", "operator": "Circle Health Group", "phone": "+44 1227 825100", "website": "https://www.circlehealthgroup.co.uk/hospitals/the-chaucer-hospital", "wheelchair": "yes"}}, {"name": "Queen Victoria Memorial Hospital", "latitude": 51.3681236, "longitude": 1.1432567, "source": "osm", "_tags": {"amenity": "hospital", "emergency": "no", "name": "Queen Victoria Memorial Hospital"}}, {"name": "Estuary View Medical Centre", "latitude": 51.3416366, "longitude": 1.0131637, "source": "osm", "_tags": {"addr:city": "Whitstable", "addr:postcode": "CT5 3SE", "addr:street": "Boorman Way", "amenity": "hospital", "building": "hospital", "check_date": "2025-08-09", "contact:phone": "+44 1227 284309", "contact:website": "https://www.whitstablemedicalpractice.co.uk/estuary-view-utc-and-miu", "emergency": "yes", "healthcare": "hospital", "internet_access": "wlan", "internet_access:fee": "no", "name": "Estuary View Medical Centre", "opening_hours": "08:00-20:00", "operator": "NHS", "operator:type": "public", "operator:wikidata": "Q918396", "wheelchair": "yes"}}, {"name": "Sydenham House Medical Centre", "latitude": 51.1482159, "longitude": 0.8816841, "source": "osm", "_tags": {"addr:city": "Ashford", "addr:housename": "Sydenham House", "addr:postcode": "TN24 8DN", "addr:street": "Mill Court", "amenity": "hospital", "building": "yes", "fax": "+44 1233 639267", "healthcare": "hospital", "healthcare:speciality": "general;surgery", "name": "Sydenham House Medical Centre", "phone": "+44 1233 645851", "website": "https://www.sydenhamhouse.co.uk/"}}, {"name": "Sittingbourne Memorial Hospital", "latitude": 51.3345533, "longitude": 0.7362598, "source": "osm", "_tags": {"amenity": "hospital", "healthcare": "hospital", "name": "Sittingbourne Memorial Hospital"}}, {"name": "Whitstable and Tankerton Hospital", "latitude": 51.3610152, "longitude": 1.0505891, "source": "osm", "_tags": {"amenity": "hospital", "emergency": "no", "name": "Whitstable and Tankerton Hospital"}}, {"name": "Cedar House", "latitude": 51.2017615, "longitude": 1.1758093, "source": "osm", "_tags": {"addr:city": "Barham", "addr:housename": "Cedar House Hospital", "addr:postcode": "CT4 6PW", "addr:street": "Dover Road", "amenity": "hospital", "contact:phone": "+44 1227 833700", "contact:website": "https://www.coveberry.co.uk/cedar-house-hospital/", "emergency": "no", "healthcare": "hospital", "healthcare:speciality": "learning_disability", "name": "Cedar House", "operator": "Coveberry", "operator:type": "private"}}, {"name": "Faversham Cottage Hospital", "latitude": 51.3143453, "longitude": 0.8888888, "source": "osm", "_tags": {"addr:city": "Faversham", "addr:postcode": "ME13 8PA", "addr:street": "Stone Street", "building": "hospital", "healthcare": "hospital", "name": "Faversham Cottage Hospital", "opening_hours": "24/7", "phone": "+44 1795 562066", "ref:GB:cqc_location": "RYYAL", "ref:GB:nhs_ods": "RYYAL", "website": "https://www.kentcht.nhs.uk/service/faversham-cottage-hospital/"}}, {"name": "Rye, Winchelsea & District Memorial Hospital", "latitude": 50.9620726, "longitude": 0.7310913, "source": "osm", "_tags": {"addr:city": "Rye", "addr:postcode": "TN31 7UD", "addr:street": "Peasmarsh Road", "amenity": "hospital", "building": "hospital", "emergency": "no", "healthcare": "hospital", "name": "Rye, Winchelsea & District Memorial Hospital", "operator": "NHS", "operator:wikidata": "Q918396", "phone": "+44 1797 224499", "website": "https://www.esht.nhs.uk/our-locations/rye-winchelsea-and-district-memorial-hospital/"}}, {"name": "", "latitude": 51.362808, "longitude": 0.7350895, "source": "osm", "_tags": {"amenity": "hospital", "healthcare": "hospital"}}, {"name": "", "latitude": 51.2569866, "longitude": 1.0835257, "source": "osm", "_tags": {"amenity": "hospital", "healthcare": "hospital"}}]