[{"name": "Kreiskrankenhaus Torgau", "latitude": 51.5615645, "longitude": 12.984629, "source": "osm", "_tags": {"addr:city": "Torgau", "addr:country": "DE", "addr:housenumber": "1", "addr:postcode": "04860", "addr:street": "Christianistraße", "amenity": "hospital", "contact:fax": "+49 3421 771009", "contact:phone": "+49 3421 770", "contact:website": "http://www.kkh-torgau.de/", "description": "Eingang über Dommitzscher Straße", "emergency": "yes", "healthcare": "hospital", "healthcare:speciality": "general;internal;paediatrics;radiology;surgery;gynaecology;ophthalmology;otolaryngology", "name": "Kreiskrankenhaus Torgau", "operator": "Kreiskrankenhaus Torgau \"Johann Kentmann\" gGmbH", "wheelchair": "yes", "wikidata": "Q130389475"}}, {"name": "Diakomed", "latitude": 50.8830028, "longitude": 12.7926678, "source": "osm", "_tags": {"addr:city": "Hartmannsdorf", "addr:country": "DE", "addr:housenumber": "19b", "addr:postcode": "09232", "addr:street": "Limbacher Straße", "amenity": "hospital", "contact:email": "info@diakomed.de", "contact:fax": "+49 3722 762010", "contact:phone": "+49 3722 7610", "contact:website": "http://www.diakomed.de/", "emergency": "yes", "healthcare": "hospital", "name": "Diakomed", "operator": "Diakoniekrankenhaus Chemnitzer Land gGmbH", "wheelchair": "yes"}}, {"name": "Helios Weißeritztal-Kliniken", "latitude": 50.9008493, "longitude": 13.6677577, "source": "osm", "_tags": {"addr:city": "Dippoldiswalde", "addr:country": "DE", "addr:housenumber": "9", "addr:postcode": "01744", "addr:street": "Rabenauer Straße", "alt_name": "Helios Weißeritztal-Kliniken Klinikum Dippoldiswalde", "contact:facebook": "https://www.facebook.com/HeliosWeisseritztalKliniken/", "contact:instagram": "https://www.instagram.com/heliosweisseritztal/", "emergency": "yes", "entrance": "main", "healthcare": "hospital", "image": "http://wiki.openstreetmap.org/wiki/File:2014_Dippoldiswalde_Helios-Wei%C3%9Feritztal-Klinik.jpg", "loc_name": "Krankenhaus Dippoldiswalde", "name": "Helios Weißeritztal-Kliniken", "old_name": "Klinikum Dippoldiswalde", "operator": "HELIOS Kliniken GmbH", "phone": "+49 3504 6320", "smoking": "no", "toilets:wheelchair": "yes", "website": "https://www.helios-gesundheit.de/kliniken/weisseritztal/", "wheelchair": "yes"}}, {"name": "Helios Weißeritztal-Kliniken", "latitude": 50.9914894, "longitude": 13.6454717, "source": "osm", "_tags": {"addr:city": "Freital", "addr:country": "DE", "addr:housenumber": "7", "addr:postcode": "01705", "addr:street": "Bürgerstraße", "addr:suburb": "Deuben", "alt_name": "Helios Weißeritztal-Kliniken Klinikum Freital", "contact:facebook": "https://www.facebook.com/HeliosWeisseritztalKliniken/", "contact:instagram": "https://www.instagram.com/heliosweisseritztal/", "emergency": "yes", "entrance": "main", "healthcare": "hospital", "image": "http://wiki.openstreetmap.org/wiki/File:2014_Freital_HELIOS-Klinikum_in_Deuben.jpg", "loc_name": "Krankenhaus Freital", "name": "Helios Weißeritztal-Kliniken", "old_name": "Klinikum Freital", "operator": "HELIOS Kliniken GmbH", "phone": "+49 351 64660", "smoking": "no", "toilets:wheelchair": "yes", "website": "https://www.helios-gesundheit.de/kliniken/weisseritztal/", "wheelchair": "yes"}}, {"name": "Deutsches Rotes Kreuz", "latitude": 50.9742356, "longitude": 13.1185997, "source": "osm", "_tags": {"amenity": "hospital", "brand": "Deutsches Rotes Kreuz", "brand:wikidata": "Q694104", "brand:wikipedia": "de:Deutsches Rotes Kreuz", "healthcare": "hospital", "name": "Deutsches Rotes Kreuz"}}, {"name": "", "latitude": 51.1421544, "longitude": 13.4591304, "source": "osm", "_tags": {"amenity": "hospital", "contact:phone": "+49 3521 403301", "female": "yes", "healthcare": "hospital", "male": "yes", "wheelchair": "limited"}}, {"name": "Klinikum Flemmingstraße", "latitude": 50.8451779, "longitude": 12.8873773, "source": "osm", "_tags": {"amenity": "hospital", "contact:website": "https://www.klinikumchemnitz.de/das-klinikum/standorte/flemmingstrasse-4/", "healthcare": "hospital", "name": "Klinikum Flemmingstraße", "operator": "Klinikum Chemnitz gGmbH", "toilets:wheelchair": "yes", "wheelchair": "yes", "wikidata": "Q1774602"}}, {"name": "Städtisches Klinikum Dresden-Friedrichstadt", "latitude": 51.0583303, "longitude": 13.7177566, "source": "osm", "_tags": {"addr:city": "Dresden", "addr:country": "DE", "addr:housenumber": "41", "addr:postcode": "01067", "addr:street": "Friedrichstraße", "alt_name": "Städtisches Klinikum Dresden", "amenity": "hospital", "emergency": "yes", "healthcare": "hospital", "name": "Städtisches Klinikum Dresden-Friedrichstadt", "opening_hours": "24/7", "operator": "Städtisches Klinikum Dresden", "website": "http://www.khdf.de", "wheelchair": "yes", "wikidata": "Q1737313"}}, {"name": "DRK Krankenhaus Chemnitz-Rabenstein", "latitude": 50.8208895, "longitude": 12.8250637, "source": "osm", "_tags": {"addr:city": "Chemnitz", "addr:country": "DE", "addr:housenumber": "23", "addr:postcode": "09117", "addr:street": "Unritzstraße", "amenity": "hospital", "brand": "Deutsches Rotes Kreuz", "brand:short_name": "DRK", "brand:wikidata": "Q694104", "brand:wikipedia": "de:Deutsches Rotes Kreuz", "contact:fax": "+49 371 8321004", "contact:phone": "+49 371 8320", "contact:website": "http://rab.drk-khs.de/", "healthcare": "hospital", "name": "DRK Krankenhaus Chemnitz-Rabenstein", "operator": "DRK Gemeinnützige Krankenhaus GmbH Sachsen", "wheelchair": "yes"}}, {"name": "Elblandklinikum Riesa", "latitude": 51.2959708, "longitude": 13.3117987, "source": "osm", "_tags": {"amenity": "hospital", "emergency": "yes", "healthcare": "hospital", "name": "Elblandklinikum Riesa", "wheelchair": "yes", "wikidata": "Q27479421", "wikipedia": "de:Elblandklinikum Riesa"}}, {"name": "Muldentalklinik Wurzen", "latitude": 51.3789686, "longitude": 12.7323531, "source": "osm", "_tags": {"addr:city": "Wurzen", "addr:country": "DE", "addr:housenumber": "70", "addr:postcode": "04808", "addr:street": "Kutusowstraße", "amenity": "hospital", "email": "kh.wurzen@krankenhaus-muldental.de", "healthcare": "hospital", "healthcare:speciality": "abortion", "name": "Muldentalklinik Wurzen", "operator": "Muldentalkliniken GmbH - Gemeinnützige Gesellschaft", "phone": "+49 3425 930", "website": "https://www.kh-muldental.de/khm/", "wheelchair": "yes"}}, {"name": "Frauen- und Kinderklinik", "latitude": 50.8440551, "longitude": 12.8840445, "source": "osm", "_tags": {"amenity": "hospital", "contact:fax": "+49 371 33322121", "contact:phone": "+49 371 33322201", "contact:website": "https://www.klinikumchemnitz.de/kliniken-bereiche/kliniken/frauenheilkunde-und-geburtshilfe/", "healthcare": "clinic", "healthcare:speciality": "gynaecology", "name": "Frauen- und Kinderklinik", "operator": "Klinikum Chemnitz gGmbH", "wheelchair": "limited"}}, {"name": "Krankenhaus Elsterwerda", "latitude": 51.4558978, "longitude": 13.5220328, "source": "osm", "_tags": {"addr:city": "Elsterwerda", "addr:country": "DE", "addr:housenumber": "37", "addr:postcode": "04910", "addr:street": "Elsterstraße", "amenity": "hospital", "check_date": "2024-09-16", "contact:phone": "+49 3533 6030", "contact:website": "http://www.ee-klinikum.de/index.php/standorte/elsterwerda", "emergency": "yes", "healthcare": "hospital", "name": "Krankenhaus Elsterwerda", "operator": "Elbe-Elster Klinikum GmbH", "wheelchair": "yes"}}, {"name": "Krankenhaus Küchwald", "latitude": 50.8478339, "longitude": 12.8928226, "source": "osm", "_tags": {"addr:city": "Chemnitz", "addr:country": "DE", "addr:housenumber": "2", "addr:postcode": "09113", "addr:street": "Bürgerstraße", "amenity": "hospital", "contact:website": "https://www.klinikumchemnitz.de/das-klinikum/standorte/buergerstrasse-2-kuechwald/", "healthcare": "hospital", "name": "Krankenhaus Küchwald", "operator": "Klinikum Chemnitz gGmbH", "wheelchair": "yes"}}, {"name": "Helios Weißeritztal-Kliniken Klinikum Dippoldiswalde", "latitude": 50.9011955, "longitude": 13.6673239, "source": "osm", "_tags": {"addr:country": "DE", "addr:housenumber": "9", "addr:postcode": "01744", "addr:street": "Rabenauer Straße", "amenity": "hospital", "healthcare": "hospital", "name": "Helios Weißeritztal-Kliniken Klinikum Dippoldiswalde", "operator": "Helios Kliniken", "operator:wikidata": "Q1254151"}}, {"name": "Fachkrankenhaus Coswig", "latitude": 51.1308398, "longitude": 13.594178, "source": "osm", "_tags": {"amenity": "hospital", "description": "Zentrum für Pneumologie, Allergologie, Beatmungsmedizin, Thorax- und Gefäßchirurgie", "healthcare": "hospital", "name": "Fachkrankenhaus Coswig", "old_name": "Heilstätte Lindenhof", "wikidata": "Q5428538"}}, {"name": "Landkreis Mittweida Krankenhaus", "latitude": 50.9809987, "longitude": 12.9844836, "source": "osm", "_tags": {"addr:city": "Mittweida", "addr:country": "DE", "addr:housenumber": "4 - 6", "addr:postcode": "09648", "addr:street": "Hainichener Straße", "amenity": "hospital", "email": "geschaeftsleitung@lmkgmbh.de", "emergency": "yes", "fax": "+49 3727 99 1216", "healthcare": "hospital", "name": "Landkreis Mittweida Krankenhaus", "operator": "Landkreis Mittweida Krankenhaus gGmbH", "phone": "+49 3727 990", "website": "https://www.lmkgmbh.de/LMK/", "wheelchair": "yes"}}, {"name": "Zeisigwaldkliniken Bethanien Chemnitz", "latitude": 50.8399595, "longitude": 12.9625394, "source": "osm", "_tags": {"addr:city": "Chemnitz", "addr:country": "DE", "addr:housenumber": "101", "addr:postcode": "09130", "addr:street": "Zeisigwaldstraße", "amenity": "hospital", "contact:fax": "+49 371 4301014", "contact:phone": "+49 371 4300", "contact:website": "http://www.bethanien-sachsen.de/Chemnitz", "emergency": "yes", "healthcare": "hospital", "name": "Zeisigwaldkliniken Bethanien Chemnitz", "operator": "Bethanien Krankenhaus Chemnitz gemeinnützige GmbH", "wheelchair": "yes", "wikidata": "Q184971", "wikipedia": "de:Zeisigwaldkliniken Bethanien Chemnitz"}}, {"name": "Tagesklinik für Psychiatrie und Psychotherapie", "latitude": 51.3130544, "longitude": 13.29038, "source": "osm", "_tags": {"addr:city": "Riesa", "addr:housenumber": "3", "addr:postcode": "01591", "addr:street": "Elbweg", "amenity": "hospital", "building": "yes", "healthcare": "hospital", "name": "Tagesklinik für Psychiatrie und Psychotherapie", "social_facility": "day_care"}}, {"name": "Tagesklinik für Kinder- und Jugendpsychiatrie", "latitude": 51.3127985, "longitude": 13.2907125, "source": "osm", "_tags": {"addr:city": "Riesa", "addr:housenumber": "2", "addr:postcode": "01591", "addr:street": "Elbweg", "amenity": "hospital", "building": "yes", "healthcare": "hospital", "name": "Tagesklinik für Kinder- und Jugendpsychiatrie", "social_facility": "day_care"}}, {"name": "HELIOS Klinik Leisnig", "latitude": 51.1558361, "longitude": 12.9207864, "source": "osm", "_tags": {"addr:city": "Leisnig", "addr:country": "DE", "addr:housenumber": "48", "addr:postcode": "04703", "addr:street": "Colditzer Straße", "amenity": "hospital", "emergency": "yes", "healthcare": "hospital", "healthcare:speciality": "surgery;gynaecology;internal;paediatrics", "name": "HELIOS Klinik Leisnig", "operator": "Helios Kliniken", "operator:wikidata": "Q1254151", "phone": "+49 34321 8-0", "website": "https://www.helios-gesundheit.de/kliniken/leisnig/", "wheelchair": "yes"}}, {"name": "Krankenhaus Finsterwalde", "latitude": 51.6356982, "longitude": 13.6981648, "source": "osm", "_tags": {"addr:city": "Finsterwalde", "addr:housenumber": "42", "addr:postcode": "03238", "addr:street": "Kirchhainer Straße", "amenity": "hospital", "building": "hospital", "contact:phone": "+49 3531 5030", "contact:website": "http://www.elbe-elster-klinikum.de/index.php/standorte/finsterwalde", "emergency": "yes", "healthcare": "hospital", "name": "Krankenhaus Finsterwalde", "operator": "Elbe-Elster Klinikum GmbH", "wheelchair": "yes"}}, {"name": "Helios Weißeritztal-Kliniken Klinikum Freital", "latitude": 50.9917749, "longitude": 13.6453429, "source": "osm", "_tags": {"addr:city": "Freital", "addr:country": "DE", "addr:housenumber": "7", "addr:postcode": "01705", "addr:street": "Bürgerstraße", "addr:suburb": "Deuben", "amenity": "hospital", "healthcare": "hospital", "name": "Helios Weißeritztal-Kliniken Klinikum Freital", "operator": "Helios Kliniken", "operator:wikidata": "Q1254151"}}, {"name": "Klinikum Döbeln", "latitude": 51.1187787, "longitude": 13.1312528, "source": "osm", "_tags": {"addr:city": "Döbeln", "addr:country": "DE", "addr:housenumber": "10", "addr:postcode": "04720", "addr:street": "Sörmitzer Straße", "amenity": "hospital", "building": "hospital", "contact:phone": "+49 3431 7220", "contact:website": "http://www.klinikum-doebeln.de/", "emergency": "yes", "healthcare": "hospital", "name": "Klinikum Döbeln", "operator": "Klinikum Döbeln GmbH", "wheelchair": "yes"}}, {"name": "Kreiskrankenhaus Freiberg", "latitude": 50.9207746, "longitude": 13.3516239, "source": "osm", "_tags": {"addr:city": "Freiberg", "addr:country": "DE", "addr:housenumber": "20", "addr:postcode": "09599", "addr:street": "Donatsring", "amenity": "hospital", "check_date": "2024-04-01", "contact:fax": "+49 3731 772399", "contact:phone": "+49 3731 770", "contact:website": "https://www.kkh-freiberg.com/", "emergency": "yes", "healthcare": "hospital", "name": "Kreiskrankenhaus Freiberg", "operator": "Kreiskrankenhaus Freiberg gGmbH", "toilets:wheelchair": "yes", "wheelchair": "yes"}}, {"name": "Städtisches Klinikum Dresden-Neustadt", "latitude": 51.0906605, "longitude": 13.7083406, "source": "osm", "_tags": {"addr:city": "Dresden", "addr:country": "DE", "addr:housenumber": "40", "addr:postcode": "01129", "addr:street": "Industriestraße", "alt_name": "Städtisches Klinikum Dresden-Neustadt", "amenity": "hospital", "emergency": "yes", "healthcare": "hospital", "name": "Städtisches Klinikum Dresden-Neustadt", "operator": "Städtisches Klinikum Dresden", "website": "http://www.khdn.de/", "wheelchair": "yes", "wikidata": "Q106035306"}}, {"name": "Collm Klinik Oschatz", "latitude": 51.2921246, "longitude": 13.1143525, "source": "osm", "_tags": {"addr:city": "Oschatz", "addr:country": "DE", "addr:housenumber": "1", "addr:postcode": "04758", "addr:street": "Parkstraße", "amenity": "hospital", "contact:fax": "+49 3435 941003", "contact:phone": "+49 3435 940", "contact:website": "http://www.collm-klinik-oschatz.de/", "emergency": "yes", "healthcare": "hospital", "name": "Collm Klinik Oschatz", "operator": "COLLM KLINIK OSCHATZ GmbH"}}, {"name": "Elblandklinikum Radebeul", "latitude": 51.108031, "longitude": 13.650612, "source": "osm", "_tags": {"addr:city": "Radebeul", "addr:housenumber": "13", "addr:postcode": "01445", "addr:street": "Heinrich-Zille-Straße", "amenity": "hospital", "emergency": "yes", "healthcare": "hospital", "name": "Elblandklinikum Radebeul", "wheelchair": "yes", "wikidata": "Q1787710", "wikipedia": "de:Elblandklinikum Radebeul"}}, {"name": "Krankenhaus Herzberg", "latitude": 51.6854695, "longitude": 13.2076281, "source": "osm", "_tags": {"addr:city": "Herzberg (Elster)", "addr:country": "DE", "addr:housenumber": "24", "addr:postcode": "04916", "addr:street": "Alte Prettiner Straße", "amenity": "hospital", "contact:phone": "+49 3535 4910", "contact:website": "http://www.ee-klinikum.de/index.php/standorte/herzberg", "emergency": "yes", "healthcare": "hospital", "name": "Krankenhaus Herzberg", "operator": "Elbe-Elster Klinikum GmbH", "toilets:wheelchair": "yes", "wheelchair": "yes"}}, {"name": "", "latitude": 51.6358901, "longitude": 13.6973307, "source": "osm", "_tags": {"amenity": "hospital", "healthcare": "hospital"}}, {"name": "Elblandklinikum Meißen", "latitude": 51.1733157, "longitude": 13.5063986, "source": "osm", "_tags": {"addr:city": "Meißen", "addr:housenumber": "7", "addr:postcode": "01662", "addr:street": "Nassauweg", "amenity": "hospital", "beds": "350", "contact:email": "kontakt.meissen@elblandkliniken.de", "contact:fax": "+49 3521 743-1102", "contact:phone": "+49 3521 743-0", "contact:website": "https://www.elblandkliniken.de/meissen", "emergency": "yes", "healthcare": "hospital", "name": "Elblandklinikum Meißen", "opening_hours": "24/7", "operator": "Elblandkliniken Stiftung & Co. KG", "wheelchair": "yes", "wikidata": "Q30033213", "wikipedia": "de:Elblandklinikum Meißen"}}, {"name": "Ärztehaus Riesa - Am Kutzschenstein", "latitude": 51.3154022, "longitude": 13.2879232, "source": "osm", "_tags": {"amenity": "hospital", "check_date:opening_hours": "2024-05-08", "contact:email": "aerztehaus-riesa@t-online.de", "contact:phone": "+49 3525 732375", "contact:website": "http://www.aerztehaus-riesa.de/", "healthcare": "centre", "loc_name": "Ärztehaus - Am Kutzschenstein", "name": "Ärztehaus Riesa - Am Kutzschenstein", "opening_hours": "Mo-Fr 07:00-19:00", "operator": "Stadt Riesa", "short_name": "Am Kutzschenstein", "wheelchair": "yes"}}, {"name": "", "latitude": 50.8198137, "longitude": 12.8176027, "source": "osm", "_tags": {"amenity": "hospital", "healthcare": "hospital"}}]