[{"name": "Hôpital de Jour François Tosquelles", "latitude": 51.0417357, "longitude": 2.3930961, "source": "osm", "_tags": {"addr:city": "Dunkerque", "addr:housenumber": "567", "addr:street": "Avenue Louis Herbeaux", "amenity": "hospital", "check_date": "2025-02-01", "fax": "+33328633243", "healthcare": "hospital", "healthcare:speciality": "psychiatry", "name": "Hôpital de Jour François Tosquelles", "operator": "EPSM Flandres", "operator:type": "public", "phone": "+33328583010", "ref:FR:FINESS": "590802906", "ref:FR:SIRET": "26590707100616", "source": "Le ministère des solidarités et de la santé - 2022-01", "type:FR:FINESS": "292"}}, {"name": "Hôpital de Jour Le Petit Prince", "latitude": 51.0423173, "longitude": 2.3932057, "source": "osm", "_tags": {"addr:housenumber": "1ter", "addr:street": "Boulevard de la République - François Mitterrand", "amenity": "hospital", "check_date": "2025-08-06", "fax": "+33328518611", "healthcare": "hospital", "name": "Hôpital de Jour Le Petit Prince", "operator": "EPSM Flandres", "operator:type": "public", "phone": "+33328518610", "ref:FR:FINESS": "590034906", "ref:FR:SIRET": "26590707100509", "source": "Le ministère des solidarités et de la santé - 2022-01", "type:FR:FINESS": "292"}}, {"name": "Clinique psychothérapique de Rosendaël", "latitude": 51.036441, "longitude": 2.3988645, "source": "osm", "_tags": {"amenity": "hospital", "contact:city": "Dunkerque", "contact:fax": "+33 3 28 63 49 16", "contact:phone": "+33 3 28 59 60 70", "contact:postcode": "59140", "contact:street": "Rue du Pont Neuf", "healthcare": "hospital", "healthcare:speciality": "psychiatry", "name": "Clinique psychothérapique de Rosendaël", "operator": "EPSM Flandres", "operator:type": "public", "ref:FR:FINESS": "590811923", "ref:FR:SIRET": "26590707100194", "source": "Le ministère des solidarités et de la santé - 2022-01", "type:FR:FINESS": "292"}}, {"name": "Hôpital Maritime de Zuydcoote", "latitude": 51.0676075, "longitude": 2.4794213, "source": "osm", "_tags": {"amenity": "hospital", "check_date": "2024-05-06", "healthcare": "hospital", "name": "Hôpital Maritime de Zuydcoote", "phone": "+33 3 28 26 20 20", "ref:FR:FINESS": "590001442", "type:FR:FINESS": "355", "website": "https://www.ch-zuydcoote.fr/"}}, {"name": "Unité de Santé Mentale pour Adultes", "latitude": 50.9575735, "longitude": 1.884549, "source": "osm", "_tags": {"amenity": "hospital", "building": "hospital", "healthcare": "hospital", "name": "Unité de Santé Mentale pour Adultes", "source": "cadastre-dgi-fr source : Direction Générale des Impôts - Cadastre. Mise à jour : 2011"}}, {"name": "Centre hospitalier de Dunkerque", "latitude": 51.0379411, "longitude": 2.3985161, "source": "osm", "_tags": {"alt_name": "CHD", "amenity": "hospital", "email": "contact@ch-dunkerque.fr", "emergency": "yes", "fax": "+33 3 28 28 57 41", "healthcare": "hospital", "healthcare:speciality": "intensive", "name": "Centre hospitalier de Dunkerque", "official_name": "Hôpital Alexandra Lepève", "phone": "+33 3 28 28 59 00", "ref:FR:FINESS": "590000337", "source": "cadastre-dgi-fr source : Direction Générale des Impôts - Cadastre. Mise à jour : 2012", "type:FR:FINESS": "355", "website": "https://www.ch-dunkerque.fr/"}}, {"name": "Clinique Villette", "latitude": 51.0332914, "longitude": 2.3943754, "source": "osm", "_tags": {"amenity": "hospital", "emergency": "no", "fax": "+33328237798", "healthcare": "yes", "name": "Clinique Villette", "phone": "+33328237700", "ref:FR:FINESS": "590813382", "ref:FR:SIRET": "34985974400022", "source": "Le ministère des solidarités et de la santé - 03/2019", "type:FR:FINESS": "365"}}, {"name": "AZ West", "latitude": 51.0622292, "longitude": 2.6688732, "source": "osm", "_tags": {"addr:housenumber": "100", "addr:street": "Ieperse Steenweg", "amenity": "hospital", "email": "info@azwest.be", "emergency": "yes", "emergency_ward": "complete", "healthcare": "hospital", "healthcare:speciality": "general", "name": "AZ West", "phone": "+32 58 33 31 11", "ref:fps_health:campus": "1980", "ref:fps_health:recognition": "310", "website": "https://www.azwest.be/", "wikidata": "Q27984824"}}, {"name": "Polyclinique Grande-Synthe", "latitude": 51.007486, "longitude": 2.2902144, "source": "osm", "_tags": {"amenity": "hospital", "email": "contact@polyclinique-grande-synthe.com", "emergency": "yes", "fax": "+33 3 28 58 60 01", "healthcare": "hospital", "name": "Polyclinique Grande-Synthe", "operator:type": "private", "phone": "+33 3 28 58 60 00", "ref:FR:FINESS": "590001749", "ref:FR:SIRET": "30805440200026", "source": "cadastre-dgi-fr source : Direction Générale des Impôts - Cadastre. Mise à jour : 2014", "type:FR:FINESS": "365", "website": "https://www.polyclinique-grande-synthe.com/"}}, {"name": "Centre hospitalier de Calais", "latitude": 50.9407281, "longitude": 1.8917616, "source": "osm", "_tags": {"alt_name": "Centre hospitalier Docteur Techer", "amenity": "hospital", "check_date": "2024-05-29", "emergency": "yes", "fax": "+33 3 21 46 33 35", "healthcare": "hospital", "healthcare:speciality": "intensive", "name": "Centre hospitalier de Calais", "operator:type": "public", "phone": "+33 3 21 46 33 33", "ref:FR:FINESS": "620000323", "type:FR:FINESS": "355", "website": "https://www.ch-calais.fr/"}}, {"name": "Clinique du Virval", "latitude": 50.9425382, "longitude": 1.8955279, "source": "osm", "_tags": {"amenity": "hospital", "healthcare": "hospital", "name": "Clinique du Virval", "ref:FR:FINESS": "620024349", "type:FR:FINESS": "161"}}, {"name": "Clinique des Oyats", "latitude": 50.9413952, "longitude": 1.8961653, "source": "osm", "_tags": {"amenity": "hospital", "healthcare": "hospital", "name": "Clinique des Oyats", "ref:FR:FINESS": "620030726", "type:FR:FINESS": "430"}}, {"name": "Clinique de Flandre", "latitude": 51.0041148, "longitude": 2.3850793, "source": "osm", "_tags": {"amenity": "hospital", "healthcare": "hospital", "name": "Clinique de Flandre", "ref:FR:FINESS": "590815056", "type:FR:FINESS": "365"}}]