[{"name": "St John Ambulance - Not manned 24/7", "latitude": 51.7681244, "longitude": -3.7078793, "source": "osm", "_tags": {"amenity": "hospital", "emergency": "no", "healthcare": "hospital", "name": "St John Ambulance - Not manned 24/7"}}, {"name": "Gower Physiotherapy Clinic", "latitude": 51.578905, "longitude": -4.0444326, "source": "osm", "_tags": {"addr:city": "Swansea", "addr:housenumber": "33", "addr:postcode": "SA3 3DE", "addr:street": "Oldway", "amenity": "hospital", "healthcare": "hospital", "name": "Gower Physiotherapy Clinic", "operator": "Mary Griffiths", "phone": "+44 7929923526", "website": "https://www.gowerphysio.co.uk/"}}, {"name": "Morriston Hospital", "latitude": 51.6835309, "longitude": -3.935429, "source": "osm", "_tags": {"amenity": "hospital", "healthcare": "hospital", "name": "Morriston Hospital", "name:cy": "Ysbyty Treforys", "wikidata": "Q6914100"}}, {"name": "Cefn Coed Hospital", "latitude": 51.6279291, "longitude": -3.9886673, "source": "osm", "_tags": {"addr:postcode": "SA2 0GH", "addr:street": "Waunarlwydd Road", "amenity": "hospital", "fhrs:id": "89480", "healthcare": "hospital", "name": "Cefn Coed Hospital", "wikidata": "Q5057250"}}, {"name": "Prince Charles Hospital / Ysbyty'r Tywysog Siarl", "latitude": 51.7633695, "longitude": -3.3862286, "source": "osm", "_tags": {"addr:postcode": "CF47 9DT", "addr:street": "Gurnos Road", "amenity": "hospital", "fhrs:id": "919181", "healthcare": "hospital", "name": "Prince Charles Hospital / Ysbyty'r Tywysog Siarl", "name:cy": "Ysbyty'r Tywysog Siarl", "name:en": "Prince Charles Hospital", "phone": "+44 1685721721", "wikidata": "Q7243851"}}, {"name": "Gorseinon Hospital", "latitude": 51.6721966, "longitude": -4.0479854, "source": "osm", "_tags": {"addr:postcode": "SA4 4UU", "addr:street": "Brynawel Road", "amenity": "hospital", "fhrs:id": "51232", "healthcare": "hospital", "name": "Gorseinon Hospital", "name:cy": "Ysbyty Gorseinon", "source:addr": "FHRS Open Data", "wikidata": "Q65088910"}}, {"name": "Culm Valley Integrated Centre for Health", "latitude": 50.8643744, "longitude": -3.3926649, "source": "osm", "_tags": {"amenity": "hospital", "healthcare": "hospital", "name": "Culm Valley Integrated Centre for Health"}}, {"name": "Prince Philip Hospital", "latitude": 51.6919683, "longitude": -4.1354596, "source": "osm", "_tags": {"access": "permissive", "amenity": "hospital", "emergency": "yes", "healthcare": "hospital", "motor_vehicle": "permissive", "name": "Prince Philip Hospital", "name:cy": "Ysbyty Tywysog Philip", "wheelchair": "yes", "wikidata": "Q30280386"}}, {"name": "Neath Port Talbot Hospital", "latitude": 51.5987005, "longitude": -3.8013496, "source": "osm", "_tags": {"amenity": "hospital", "emergency": "yes", "healthcare": "hospital", "name": "Neath Port Talbot Hospital", "name:cy": "Ysbyty Castell-Nedd Port Talbot", "name:en": "Neath Port Talbot Hospital", "wikidata": "Q6984501"}}, {"name": "Weavers House", "latitude": 51.6173871, "longitude": -3.9354683, "source": "osm", "_tags": {"addr:city": "Swansea", "addr:housename": "Weavers House", "addr:postcode": "SA1 1RU", "amenity": "hospital", "healthcare": "hospital", "name": "Weavers House"}}, {"name": "Tonna Hospital", "latitude": 51.6797609, "longitude": -3.7654464, "source": "osm", "_tags": {"amenity": "hospital", "name": "Tonna Hospital", "name:cy": "Ysbyty Tonna", "wikidata": "Q65088797"}}, {"name": "Barry Hospital", "latitude": 51.4139491, "longitude": -3.2848958, "source": "osm", "_tags": {"amenity": "hospital", "healthcare": "hospital", "name": "Barry Hospital", "source": "OS_OpenData_StreetView;Bing;survey", "wikidata": "Q4864321"}}, {"name": "Tŷ Garngoch Hospital", "latitude": 51.6584521, "longitude": -4.0112119, "source": "osm", "_tags": {"addr:city": "Gorseinon", "addr:postcode": "SA4 4LH", "addr:street": "Hospital Road", "amenity": "hospital", "emergency": "no", "healthcare": "hospital", "healthcare:speciality": "psychiatry", "name": "Tŷ Garngoch Hospital", "name:cy": "Ysbyty Tŷ Garngoch", "operator": "Swansea Bay University Health Board", "website": "https://111.wales.nhs.uk/localservices/viewlocalservice.aspx?id=3115", "wheelchair": "yes"}}, {"name": "Royal Glamorgan Hospital", "latitude": 51.5482968, "longitude": -3.3922908, "source": "osm", "_tags": {"addr:city": "Ynysmaerdy", "addr:postcode": "CF72 8XR", "amenity": "hospital", "emergency": "yes", "healthcare": "hospital", "name": "Royal Glamorgan Hospital", "name:cy": "Ysbyty Brenhinol Morgannwg", "operator": "Cwm Taf Morgannwg University Health Board", "operator:type": "government", "phone": "+44 1443 443 443", "source": "Bing;survey", "website": "https://cwmtafmorgannwg.wales/visiting/royal-glamorgan-hospital/", "wikidata": "Q7374219"}}, {"name": "Pontypridd and District Hospital", "latitude": 51.6023837, "longitude": -3.326093, "source": "osm", "_tags": {"amenity": "hospital", "healthcare": "hospital", "name": "Pontypridd and District Hospital", "name:cy": "Ysbyty Pontypridd a'r Cylch"}}, {"name": "Glanrhyd Hospital", "latitude": 51.5265514, "longitude": -3.5860279, "source": "osm", "_tags": {"amenity": "hospital", "healthcare": "hospital", "name": "Glanrhyd Hospital", "wikidata": "Q30280545", "wikipedia": "en:Glanrhyd Hospital"}}, {"name": "Tiverton and District Hospital", "latitude": 50.9092336, "longitude": -3.4933496, "source": "osm", "_tags": {"addr:city": "Tiverton", "addr:postcode": "EX16 6NT", "addr:street": "Kennedy Way", "amenity": "hospital", "fhrs:id": "8232", "healthcare": "hospital", "name": "Tiverton and District Hospital", "source:addr": "FHRS Open Data", "wikidata": "Q30293055", "wikipedia": "en:Tiverton and District Hospital"}}, {"name": "Ysbyty Cwm Cynon", "latitude": 51.6871111, "longitude": -3.3923072, "source": "osm", "_tags": {"addr:postcode": "CF45 4BZ", "addr:street": "New Road", "amenity": "hospital", "name": "Ysbyty Cwm Cynon", "phone": "+44 1685 721721", "website": "https://cwmtafmorgannwg.wales/visiting/ysbyty-cwm-cynon/", "wheelchair": "yes", "wikidata": "Q96415908"}}, {"name": "Minehead Community Hospital", "latitude": 51.1987822, "longitude": -3.462711, "source": "osm", "_tags": {"addr:city": "Minehead", "addr:country": "GB", "addr:postcode": "TA24 6DF", "addr:street": "Luttrell Way", "amenity": "hospital", "fhrs:authority": "West Somerset", "fhrs:id": "165820", "fhrs:local_authority_id": "PI/000008549", "healthcare": "hospital", "name": "Minehead Community Hospital"}}, {"name": "Maesteg Community Hospital", "latitude": 51.6110636, "longitude": -3.6695334, "source": "osm", "_tags": {"addr:city": "Maesteg", "addr:housename": "Maesteg Community Hospital", "addr:postcode": "CF34 9PW", "addr:street": "Neath Road", "amenity": "hospital", "emergency": "no", "fhrs:id": "1127999", "healthcare": "hospital", "name": "Maesteg Community Hospital", "name:cy": "Ysbyty Cymunedol Maesteg", "operator": "Cwm Taf Morgannwg University Health Board", "phone": "+44 1656 752 752", "source:addr": "FHRS Open Data", "website": "https://cwmtafmorgannwg.wales/visiting/maesteg-community-hospital/"}}, {"name": "Bideford Hospital", "latitude": 51.0179945, "longitude": -4.213255, "source": "osm", "_tags": {"amenity": "hospital", "contact:phone": "+44 1271 322 577", "contact:website": "http://www.northdevonhealth.nhs.uk/", "emergency": "no", "healthcare": "hospital", "name": "Bideford Hospital"}}, {"name": "The Woodmill", "latitude": 50.846914, "longitude": -3.3925754, "source": "osm", "_tags": {"addr:city": "Cullompton", "addr:postcode": "EX15 1EA", "addr:street": "Exeter Road", "amenity": "hospital", "emergency": "no", "fhrs:id": "8330", "healthcare": "hospital", "name": "The Woodmill", "source:addr": "FHRS Open Data"}}, {"name": "Williton Community Hospital", "latitude": 51.1628872, "longitude": -3.3231847, "source": "osm", "_tags": {"addr:city": "Taunton", "addr:country": "GB", "addr:county": "Somerset", "addr:postcode": "TA4 4RA", "addr:street": "North Road", "addr:village": "Williton", "amenity": "hospital", "fhrs:authority": "West Somerset", "fhrs:id": "161706", "fhrs:local_authority_id": "PI/000001790", "healthcare": "hospital", "name": "Williton Community Hospital", "operator": "NHS", "operator:wikidata": "Q918396", "phone": "+44 1984 635600"}}, {"name": "Dewi Sant Hospital", "latitude": 51.5984, "longitude": -3.3435365, "source": "osm", "_tags": {"addr:city": "Pontypridd", "addr:housename": "Dewi Sant Hospital", "addr:postcode": "CF37 1LB", "addr:street": "Albert Road", "amenity": "hospital", "emergency": "no", "healthcare": "hospital", "name": "Dewi Sant Hospital", "name:cy": "Ysbyty Dewi Sant", "phone": "+44 1443 486 222", "website": "https://111.wales.nhs.uk/localservices/ViewLocalService.aspx?id=3151&s=Hospital", "wikidata": "Q5268246"}}, {"name": "South Molton Hospital", "latitude": 51.0167441, "longitude": -3.8383212, "source": "osm", "_tags": {"addr:city": "South Molton", "addr:postcode": "EX36 4DP", "addr:street": "Widgery Drive", "amenity": "hospital", "emergency": "no", "healthcare": "hospital", "name": "South Molton Hospital", "operator": "NHS", "operator:type": "public", "operator:wikidata": "Q918396"}}, {"name": "Sancta Maria Hospital", "latitude": 51.620986, "longitude": -3.925616, "source": "osm", "_tags": {"addr:city": "Swansea", "addr:postcode": "SA1 8FD", "addr:street": "Lamberts Road", "amenity": "hospital", "check_date": "2025-09-07", "contact:facebook": "https://www.facebook.com/SanctaMariaHospital/", "contact:twitter": "https://twitter.com/HMTSanctaMaria", "email": "SMEnquiries@hmtsanctamaria.org", "fhrs:id": "247494", "healthcare": "hospital", "healthcare:speciality": "plastic_surgery;general;gynaecology;ophthalmology;orthopaedics;dermatology;radiology;urology;surgery;physiotherapy;cardiology", "name": "Sancta Maria Hospital", "operator": "The Healthcare Management Trust", "operator:type": "business", "phone": "+44 1792 479040", "website": "https://hmtsanctamaria.org/"}}, {"name": "Ysbyty Cwm Rhondda", "latitude": 51.6365922, "longitude": -3.4500773, "source": "osm", "_tags": {"addr:postcode": "CF40 2LX", "addr:street": "Partridge Road", "addr:town": "Llwynypia", "amenity": "hospital", "emergency": "no", "healthcare": "hospital", "name": "Ysbyty Cwm Rhondda", "phone": "+44 1443 430022", "website": "http://cwmtaf.wales/visiting/ysbyty-cwm-rhondda/", "wikidata": "Q96415910"}}, {"name": "Ilfracombe Tyrrell Hospital", "latitude": 51.2046649, "longitude": -4.1246883, "source": "osm", "_tags": {"addr:city": "Ilfracombe", "addr:postcode": "EX34 8JF", "addr:street": "St Brannocks Park Road", "amenity": "hospital", "contact:phone": "+44 1271 863448", "emergency": "no", "healthcare": "hospital", "name": "Ilfracombe Tyrrell Hospital"}}, {"name": "Ysbyty George Thomas", "latitude": 51.6554991, "longitude": -3.5032877, "source": "osm", "_tags": {"addr:postcode": "CF42 6YG", "amenity": "hospital", "healthcare": "hospital", "name": "Ysbyty George Thomas", "wheelchair": "yes", "wikidata": "Q96415913"}}, {"name": "Amman Valley Hospital", "latitude": 51.8085341, "longitude": -3.9240195, "source": "osm", "_tags": {"addr:postcode": "SA18 2BQ", "addr:street": "Folland Road", "amenity": "hospital", "emergency": "no", "name": "Amman Valley Hospital", "phone": "+44 1269 822226", "wheelchair": "yes", "wikidata": "Q65088799"}}, {"name": "Torrington Community Hospital", "latitude": 50.9547893, "longitude": -4.137064, "source": "osm", "_tags": {"addr:city": "Torrington", "addr:country": "GB", "addr:postcode": "EX38 7BJ", "addr:street": "Calf Street", "addr:suburb": "Great Torrington", "amenity": "hospital", "emergency": "no", "fhrs:id": "233710", "healthcare": "hospital", "name": "Torrington Community Hospital", "phone": "+44 1805 622208"}}, {"name": "Rhymney Health Centre", "latitude": 51.7581407, "longitude": -3.284644, "source": "osm", "_tags": {"addr:city": "Tredegar", "addr:housename": "Rhymney Health Centre", "addr:postcode": "NP22 5PW", "addr:street": "Lawn Terrace", "addr:suburb": "Rhymney", "amenity": "hospital", "emergency": "no", "healthcare": "hospital", "name": "Rhymney Health Centre", "name:cy": "Canolfan Iechyd Rhymni"}}, {"name": "Pine Lodge", "latitude": 50.9111244, "longitude": -3.4447186, "source": "osm", "_tags": {"amenity": "hospital", "building": "yes", "name": "Pine Lodge"}}, {"name": "Gellinudd Recovery Centre", "latitude": 51.7232748, "longitude": -3.8307085, "source": "osm", "_tags": {"addr:postcode": "SA8 3DX", "addr:street": "Lon Catwg", "alt_name": "Gellinudd Hospital", "amenity": "hospital", "emergency": "no", "healthcare": "hospital", "name": "Gellinudd Recovery Centre", "name:cy": "Canolfan Adferiad Gellinudd", "name:en": "Gellinudd Recovery Centre", "source:addr:postcode": "code-point_open", "website": "https://www.gellinudd.org.uk/", "wikidata": "Q25331102"}}, {"name": "Ystradgynlais Community Hospital", "latitude": 51.7671641, "longitude": -3.7640822, "source": "osm", "_tags": {"amenity": "hospital", "emergency": "no", "healthcare": "hospital", "name": "Ystradgynlais Community Hospital", "phone": "+44 1639 844777", "wikidata": "Q96415925"}}, {"name": "Accident & Emergency", "latitude": 51.6849584, "longitude": -3.9351626, "source": "osm", "_tags": {"emergency": "yes", "healthcare": "hospital", "indoor": "yes", "name": "Accident & Emergency", "name:cy": "Damweiniau ac Achosion Brys"}}, {"name": "North Devon District Hospital", "latitude": 51.0917158, "longitude": -4.0506535, "source": "osm", "_tags": {"amenity": "hospital", "emergency": "yes", "healthcare": "hospital", "name": "North Devon District Hospital", "wikidata": "Q7055120", "wikipedia": "en:North Devon District Hospital"}}, {"name": "Brynmair", "latitude": 51.6854943, "longitude": -4.1625883, "source": "osm", "_tags": {"addr:city": "Llanelli", "addr:housenumber": "11", "addr:postcode": "SA15 3HH", "addr:street": "Goring Road", "amenity": "hospital", "emergency": "no", "healthcare": "hospital", "name": "Brynmair", "operator": "Hywel Dda Health Board", "operator:type": "public"}}, {"name": "St Teilo House", "latitude": 51.7605683, "longitude": -3.2878421, "source": "osm", "_tags": {"amenity": "hospital", "name": "St Teilo House"}}, {"name": "Priory Hospital Ty Cwm Rhondda", "latitude": 51.6431816, "longitude": -3.4565622, "source": "osm", "_tags": {"addr:city": "Ystrad", "addr:country": "GB", "addr:postcode": "CF41 7SU", "addr:street": "Tyntyla Avenue", "amenity": "hospital", "beds": "20", "building": "yes", "healthcare": "hospital", "healthcare:for": "males", "healthcare:speciality": "mental_health", "hospital": "secure", "name": "Priory Hospital Ty Cwm Rhondda", "operator": "The Priory Group", "operator:type": "private", "website": "https://www.priorygroup.com/locations/nhs/priory-hospital-ty-cwm-rhondda"}}, {"name": "Singleton Hospital", "latitude": 51.6092095, "longitude": -3.9868266, "source": "osm", "_tags": {"amenity": "hospital", "fixme": "Turn me into a closed way!", "healthcare": "hospital", "name": "Singleton Hospital", "name:cy": "Ysbyty Singleton", "type": "multipolygon", "wikidata": "Q7524102"}}, {"name": "Princess of Wales Hospital", "latitude": 51.518096, "longitude": -3.5709689, "source": "osm", "_tags": {"amenity": "hospital", "emergency": "yes", "healthcare": "hospital", "healthcare:speciality": "general;intensive;emergency;surgery;maternity;community", "name": "Princess of Wales Hospital", "name:cy": "Ysbyty Tywysoges Cymru", "name:en": "Princess of Wales Hospital", "operator": "Bwrdd Iechyd Cwm Taf Morgannwg | Cwm Taf Morgannwg University Health Board", "operator:type": "government", "type": "multipolygon", "wikidata": "Q7244905"}}]