[{"name": "St. Martinus", "latitude": 51.2115753, "longitude": 6.7606506, "source": "osm", "_tags": {"amenity": "hospital", "check_date": "2025-01-06", "fixme": "Genau Fläche vom Gelände fehlt. Und dann Krankenhaus als Fläche einzeichnen", "healthcare": "hospital", "name": "St. Martinus", "wheelchair": "limited"}}, {"name": "St. Anna-Hospital", "latitude": 51.537557, "longitude": 7.1590304, "source": "osm", "_tags": {"addr:city": "Herne", "addr:country": "DE", "addr:housenumber": "19", "addr:postcode": "44649", "addr:street": "Hospitalstraße", "amenity": "hospital", "emergency": "yes", "healthcare": "hospital", "name": "St. Anna-Hospital", "website": "https://www.annahospital.de/", "wheelchair": "limited", "wikidata": "Q28197053"}}, {"name": "VAMED Klinik Hagen-Ambrock", "latitude": 51.3149273, "longitude": 7.5148275, "source": "osm", "_tags": {"addr:city": "Hagen", "addr:housenumber": "60", "addr:postcode": "58091", "addr:street": "Ambrocker Weg", "amenity": "hospital", "healthcare:speciality": "neurology;pneumology;weading", "name": "VAMED Klinik Hagen-Ambrock", "operator": "VAMED", "operator:type": "business", "website": "https://www.vamed-gesundheit.de/kliniken/hagen-ambrock/", "wheelchair": "yes"}}, {"name": "Krankenhaus Bethanien", "latitude": 51.1379978, "longitude": 7.0126699, "source": "osm", "_tags": {"addr:housenumber": "169", "addr:street": "Aufderhöher Straße", "amenity": "hospital", "check_date": "2025-04-22", "healthcare": "hospital", "name": "Krankenhaus Bethanien", "phone": "+49 212 6300", "postal_code": "42699", "toilets:wheelchair": "yes", "website": "https://www.diakonie-bethanien.de/", "wheelchair": "yes"}}, {"name": "LVR-Klinik Köln, Mülheim", "latitude": 50.9631915, "longitude": 7.0037081, "source": "osm", "_tags": {"addr:city": "Köln", "addr:country": "DE", "addr:housenumber": "12", "addr:postcode": "51063", "addr:street": "Adamsstraße", "amenity": "hospital", "healthcare": "hospital", "name": "LVR-Klinik Köln, Mülheim", "operator": "LVR"}}, {"name": "Berglandklinik Lüdenscheid - dauerhaft geschlossen", "latitude": 51.2072819, "longitude": 7.6373849, "source": "osm", "_tags": {"addr:city": "Lüdenscheid", "addr:country": "DE", "addr:housenumber": "6", "addr:postcode": "58511", "addr:street": "Am Hundebrink", "amenity": "hospital", "contact:phone": "+49 2351 438-0", "healthcare": "hospital", "name": "Berglandklinik Lüdenscheid - dauerhaft geschlossen", "website": "https://www.berglandklinik-luedenscheid.de/"}}, {"name": "Klinikzentrum Mitte", "latitude": 51.5079809, "longitude": 7.4569014, "source": "osm", "_tags": {"addr:city": "Dortmund", "addr:housenumber": "40", "addr:postcode": "44137", "addr:street": "Beurhausstraße", "amenity": "hospital", "healthcare": "hospital", "name": "Klinikzentrum Mitte", "note": "label node for Klinikum Dortmund (site relation)", "operator": "Klinikum Dortmund gGmbH"}}, {"name": "Klinik Wersbach", "latitude": 51.1071185, "longitude": 7.1184293, "source": "osm", "_tags": {"amenity": "hospital", "name": "Klinik Wersbach"}}, {"name": "Wilfried-Rasch-Klinik", "latitude": 51.5082186, "longitude": 7.5548938, "source": "osm", "_tags": {"addr:city": "Dortmund", "addr:country": "DE", "addr:housenumber": "207", "addr:postcode": "44287", "addr:street": "Leni-Rommel-Straße", "amenity": "hospital", "healthcare": "hospital", "healthcare:speciality": "forensic_psychiatry", "name": "Wilfried-Rasch-Klinik", "phone": "+49 231 450302", "website": "https://www.lwl-forensik-dortmund.de/", "wheelchair": "no", "wikidata": "Q19968120", "wikimedia_commons": "Category:Aplerbeck: Wilfried-Rasch-Klinik", "wikipedia": "de:Wilfried-Rasch-Klinik"}}, {"name": "Privatklinik Prof. Lenz", "latitude": 50.9364373, "longitude": 6.7748579, "source": "osm", "_tags": {"amenity": "hospital", "name": "Privatklinik Prof. Lenz"}}, {"name": "Klinik am Ring", "latitude": 50.9312366, "longitude": 6.9411745, "source": "osm", "_tags": {"addr:city": "Köln", "addr:country": "DE", "addr:housenumber": "28", "addr:postcode": "50674", "addr:street": "Hohenstaufenring", "amenity": "hospital", "healthcare": "hospital", "name": "Klinik am Ring", "toilets:wheelchair": "yes", "wheelchair": "yes"}}, {"name": "Palliativstation", "latitude": 51.5364042, "longitude": 7.6851426, "source": "osm", "_tags": {"addr:city": "Unna", "addr:housenumber": "2", "addr:postcode": "59423", "addr:street": "Obere Husemannstraße", "amenity": "hospital", "name": "Palliativstation"}}, {"name": "Rehazentrum Burgerland GmbH", "latitude": 51.2379255, "longitude": 7.1020061, "source": "osm", "_tags": {"addr:city": "Wuppertal", "addr:country": "DE", "addr:housenumber": "2", "addr:postcode": "42327", "addr:street": "Sonnborner Ufer", "amenity": "hospital", "healthcare": "rehabilitation", "healthcare:speciality": "physiatry", "name": "Rehazentrum Burgerland GmbH", "wheelchair": "yes"}}, {"name": "Krankenhaus Elbroich - Tagesklinik für Psychiatrie und Psychotherapie", "latitude": 51.1941919, "longitude": 6.8111248, "source": "osm", "_tags": {"amenity": "hospital", "healthcare": "hospital", "name": "Krankenhaus Elbroich - Tagesklinik für Psychiatrie und Psychotherapie"}}, {"name": "Haus für Seelische Gesundheit", "latitude": 51.1816571, "longitude": 7.190659, "source": "osm", "_tags": {"addr:city": "Remscheid", "addr:housenumber": "2", "addr:postcode": "42853", "addr:street": "Konrad-Adenauer-Straße", "amenity": "hospital", "healthcare": "rehabilitation", "name": "Haus für Seelische Gesundheit", "website": "https://www.stiftung-tannenhof.de/klinik/tagesklinik-remscheid"}}, {"name": "Florence-Nightingale-Krankenhaus", "latitude": 51.3003466, "longitude": 6.7493957, "source": "osm", "_tags": {"amenity": "hospital", "emergency": "yes", "fax": "+49 211 409-2111", "healthcare": "hospital", "name": "Florence-Nightingale-Krankenhaus", "opening_hours": "24/7", "operator": "Kaiserswerther Diakonie", "phone": "+49 211 409-0", "website": "https://www.florence-nightingale-krankenhaus.de/", "wheelchair": "yes"}}, {"name": "Krankenhaus Elbroich", "latitude": 51.1745154, "longitude": 6.8249818, "source": "osm", "_tags": {"addr:city": "Düsseldorf", "addr:country": "DE", "addr:housenumber": "6", "addr:postcode": "40589", "addr:street": "Am Falder", "amenity": "hospital", "email": "info@krankenhaus-elbroich.de", "fax": "+49 211 7560109", "healthcare": "hospital", "name": "Krankenhaus Elbroich", "phone": "+49 211 75600", "website": "https://www.krankenhaus-elbroich.de/", "wheelchair": "yes"}}, {"name": "Dr. Becker Klinik Juliana", "latitude": 51.309814, "longitude": 7.2379577, "source": "osm", "_tags": {"alt_name": "Kurklinik Juliana", "amenity": "hospital", "contact:email": "info.klinik-juliana@dbkg.de", "contact:fax": "+49 202 281591500", "contact:phone": "+49 202 281590", "contact:website": "https://www.dbkg.de/kliniken/klinik-juliana", "internet_access": "wlan", "internet_access:fee": "no", "name": "Dr. Becker Klinik Juliana"}}, {"name": "Luisenkrankenhaus", "latitude": 51.2347233, "longitude": 6.8208559, "source": "osm", "_tags": {"addr:city": "Düsseldorf", "addr:country": "DE", "addr:housenumber": "6-10", "addr:postcode": "40235", "addr:street": "Luise-Rainer-Straße", "amenity": "hospital", "fax": "+49 211 4477 4499", "healthcare": "hospital", "name": "Luisenkrankenhaus", "operator": "Luisenkrankenhaus GmbH", "phone": "+49 211 4477 1000", "toilets:wheelchair": "yes", "website": "https://www.medical-center-duesseldorf.de/luisenkrankenhaus-2", "wheelchair": "yes"}}, {"name": "Fachklinik Curt-von-Knobelsdorff-Haus, Blaues Kreuz Diakoniewerk mGmbH", "latitude": 51.2050628, "longitude": 7.3480612, "source": "osm", "_tags": {"addr:city": "Radevormwald", "addr:housenumber": "17", "addr:postcode": "42477", "addr:street": "Hermannstraße", "amenity": "hospital", "emergency": "no", "fax": "+49 2195 672-199", "healthcare": "hospital", "healthcare:speciality": "Withdrawal_Clinic", "mapillary": "1198878541403325", "name": "Fachklinik Curt-von-Knobelsdorff-Haus, Blaues Kreuz Diakoniewerk mGmbH", "operator": "Blaues Kreuz", "phone": "+49 2195 672-0", "ref:vatin": "DE814466237", "website": "https://www.blaues-kreuz.de/de/rheinland/radevormwald/fachklinik-curt-von-knobelsdorff-haus/das-haus/", "wheelchair": "limited"}}, {"name": "Grafental Klinik", "latitude": 51.2345078, "longitude": 6.8208326, "source": "osm", "_tags": {"addr:city": "Düsseldorf", "addr:country": "DE", "addr:housenumber": "6-10", "addr:postcode": "40235", "addr:street": "Luise-Rainer-Straße", "amenity": "hospital", "healthcare": "hospital", "healthcare:speciality": "orthopaedics;gynaecology;surgery", "name": "Grafental Klinik", "website": "https://www.grafental-klinik.de"}}, {"name": "Integrationsfachdienst im Märkischen Kreis", "latitude": 51.2077158, "longitude": 7.6596547, "source": "osm", "_tags": {"healthcare": "hospital", "name": "Integrationsfachdienst im Märkischen Kreis", "operator": "Märkische Kliniken GmbH"}}, {"name": "Herzzentrum Duisburg (Kaiser-Wilhelm-Krankenhaus)", "latitude": 51.462461, "longitude": 6.7763065, "source": "osm", "_tags": {"addr:city": "Duisburg", "addr:housenumber": "21", "addr:postcode": "47137", "addr:street": "Gerrickstraße", "amenity": "hospital", "beds": "270", "emergency": "yes", "healthcare": "hospital", "healthcare:speciality": "cardiology", "name": "Herzzentrum Duisburg (Kaiser-Wilhelm-Krankenhaus)", "operator": "Evangelisches Klinikum Niederrhein"}}, {"name": "Ambulanz-Zentrum", "latitude": 51.0317792, "longitude": 7.0343144, "source": "osm", "_tags": {"amenity": "hospital", "contact:facebook": "klinikumlev", "contact:instagram": "klinikumleverkusen", "emergency": "yes", "name": "Ambulanz-Zentrum", "ref": "1.FF", "website": "https://www.klinikum-lev.de/notaufnahme"}}, {"name": "PhysioSport Performance Athletic Center", "latitude": 50.9709807, "longitude": 7.0158376, "source": "osm", "_tags": {"addr:city": "Köln", "addr:housenumber": "33", "addr:postcode": "51063", "addr:street": "Schanzenstraße", "amenity": "hospital", "email": "pace@physiosportkoeln.de", "healthcare": "hospital", "healthcare:speciality": "physiotherapy;physiotherapist;osteopathy", "image": "https://physiosportkoeln.de/wp-content/uploads/2021/05/PACE_Training_Start.jpeg", "internet_access": "wlan", "internet_access:fee": "customers", "name": "PhysioSport Performance Athletic Center", "operator": "PhysioSport Köln", "operator:type": "business", "start_date": "01.06.2021", "website": "https://physiosportkoeln.de/", "wheelchair": "yes"}}, {"name": "Augenklinik", "latitude": 51.4214936, "longitude": 7.0005595, "source": "osm", "_tags": {"amenity": "hospital", "healthcare": "hospital", "name": "Augenklinik"}}, {"name": "Diabeteszentrum Bochum/Hattingen", "latitude": 51.4049169, "longitude": 7.2228327, "source": "osm", "_tags": {"addr:city": "Hattingen", "addr:housenumber": "9", "addr:postcode": "45527", "addr:street": "Im Vogelsang", "amenity": "hospital", "emergency": "yes", "healthcare": "hospital", "healthcare:speciality": "diabetology;endocrinology", "name": "Diabeteszentrum Bochum/Hattingen", "operator": "Katholisches Klinikum Bochum gGmbH", "operator:type": "religious", "website": "http://www.endokrinologie-hattingen.de"}}, {"name": "MVZ Kinderwunschzentrum Dortmund GmbH", "latitude": 51.5121227, "longitude": 7.4690323, "source": "osm", "_tags": {"amenity": "hospital", "healthcare": "hospital", "name": "MVZ Kinderwunschzentrum Dortmund GmbH"}}, {"name": "St. Josef Krankenhaus", "latitude": 51.0313348, "longitude": 6.9753799, "source": "osm", "_tags": {"amenity": "hospital", "healthcare": "hospital", "name": "St. Josef Krankenhaus"}}, {"name": "Notaufnahme liegend", "latitude": 51.3810848, "longitude": 6.7854008, "source": "osm", "_tags": {"amenity": "hospital", "emergency": "yes", "healthcare": "hospital", "healthcare:speciality": "emergency", "name": "Notaufnahme liegend", "operator": "BG Klinik Duisburg", "wheelchair": "yes"}}, {"name": "Phoniatrie, Pädaudiologie, Klinikseelsorge", "latitude": 51.1982136, "longitude": 6.7912367, "source": "osm", "_tags": {"amenity": "hospital", "fixme": "position", "healthcare": "hospital", "name": "Phoniatrie, Pädaudiologie, Klinikseelsorge", "operator": "UKD"}}, {"name": "ME 04", "latitude": 51.1950912, "longitude": 6.790161, "source": "osm", "_tags": {"addr:city": "Düsseldorf", "addr:housenumber": "5", "addr:postcode": "40225", "addr:street": "Moorenstraße", "amenity": "hospital", "emergency": "no", "healthcare": "hospital", "name": "ME 04", "operator": "UKD"}}, {"name": "KMT", "latitude": 51.1950552, "longitude": 6.7901781, "source": "osm", "_tags": {"addr:city": "Düsseldorf", "addr:housenumber": "5", "addr:postcode": "40225", "addr:street": "Moorenstraße", "amenity": "hospital", "emergency": "no", "healthcare": "hospital", "name": "KMT", "operator": "UKD"}}, {"name": "AOZ Ambulantes Operatives Zentrum", "latitude": 51.1982379, "longitude": 6.7892364, "source": "osm", "_tags": {"addr:city": "Düsseldorf", "addr:housenumber": "5", "addr:postcode": "40225", "addr:street": "Moorenstraße", "amenity": "hospital", "check_date": "2024-10-28", "emergency": "no", "healthcare": "hospital", "name": "AOZ Ambulantes Operatives Zentrum", "operator": "UKD", "operator:type": "university"}}, {"name": "IAC Interdisziplinäres ambulantes Chemotherapiezentrum", "latitude": 51.1984772, "longitude": 6.7900967, "source": "osm", "_tags": {"addr:city": "Düsseldorf", "addr:housenumber": "5", "addr:postcode": "40225", "addr:street": "Moorenstraße", "amenity": "hospital", "check_date": "2024-10-28", "emergency": "no", "healthcare": "hospital", "name": "IAC Interdisziplinäres ambulantes Chemotherapiezentrum", "operator": "UKD", "operator:type": "university"}}, {"name": "Schmerzambulanz 13.72", "latitude": 51.1980794, "longitude": 6.7894339, "source": "osm", "_tags": {"addr:city": "Düsseldorf", "addr:housenumber": "5", "addr:postcode": "40225", "addr:street": "Moorenstraße", "amenity": "hospital", "check_date": "2024-10-28", "emergency": "no", "healthcare": "hospital", "name": "Schmerzambulanz 13.72", "operator": "UKD", "operator:type": "university"}}, {"name": "UNIKID Kinderwunschzentrum 14.75 13.72", "latitude": 51.1983798, "longitude": 6.790884, "source": "osm", "_tags": {"addr:city": "Düsseldorf", "addr:housenumber": "5", "addr:postcode": "40225", "addr:street": "Moorenstraße", "amenity": "hospital", "check_date": "2024-10-28", "emergency": "no", "healthcare": "hospital", "name": "UNIKID Kinderwunschzentrum 14.75 13.72", "operator": "UKD", "operator:type": "university"}}, {"name": "Phoniatrie und Pädaudiologie 13.77", "latitude": 51.1978519, "longitude": 6.7914614, "source": "osm", "_tags": {"addr:city": "Düsseldorf", "addr:housenumber": "5", "addr:postcode": "40225", "addr:street": "Moorenstraße", "amenity": "hospital", "check_date": "2024-10-28", "emergency": "no", "healthcare": "hospital", "name": "Phoniatrie und Pädaudiologie 13.77", "operator": "UKD", "operator:type": "university"}}, {"name": "Gesundheitspark Altenessen", "latitude": 51.4995123, "longitude": 7.0058575, "source": "osm", "_tags": {"addr:city": "Essen", "addr:country": "DE", "addr:housenumber": "24", "addr:postcode": "45329", "addr:street": "Hospitalstraße", "addr:suburb": "Altenessen", "amenity": "hospital", "check_date": "2025-06-23", "contact:email": "gesundheitspark-altenessen@contilia.de", "contact:fax": "+49 201 640 071 004", "contact:phone": "+49 201 640 071 001", "healthcare": "hospital", "name": "Gesundheitspark Altenessen", "old_name": "Marienhospital", "operator": "Contilia; Katholisches Klinikum Essen", "service_times": "Mo-Th 08:00-16:30; Fr 08:00-15:30", "website": "https://www.contilia.de/einrichtungen/gesundheitspark-altenessen.html", "wheelchair": "yes", "wikidata": "Q17322783", "wikipedia": "de:Katholisches Klinikum Essen"}}, {"name": "St.-Marien-Hospital", "latitude": 51.6188451, "longitude": 7.5180027, "source": "osm", "_tags": {"alt_name": "Klinikum Lünen", "amenity": "hospital", "contact:email": "info@klinikum-luenen.de", "contact:fax": "+49 2306 772229", "contact:phone": "+49 2306 770", "contact:website": "https://www.klinikum-luenen.de/", "healthcare": "hospital", "healthcare:speciality": "cardiology", "loc_name": "St. Marien", "name": "St.-Marien-Hospital", "operator": "Katholisches Klinikum Lünen/Werne GmbH", "start_date": "1865-10-15", "wheelchair": "yes", "wikidata": "Q30293424"}}, {"name": "Augusta-Kranken-Anstalt Bochum-Linden", "latitude": 51.4242013, "longitude": 7.1584019, "source": "osm", "_tags": {"amenity": "hospital", "check_date": "2025-05-25", "healthcare": "hospital", "name": "Augusta-Kranken-Anstalt Bochum-Linden"}}, {"name": "Evangelisches Krankenhaus Kalk", "latitude": 50.9412983, "longitude": 7.0093887, "source": "osm", "_tags": {"amenity": "hospital", "denomination": "protestant", "emergency": "yes", "healthcare": "hospital", "name": "Evangelisches Krankenhaus Kalk", "religion": "christian", "toilets:wheelchair": "yes", "website": "https://www.evkk.de/", "wheelchair": "yes", "wikidata": "Q30269773"}}, {"name": "GFO Kliniken Troisdorf Betriebsstätte St. Josef Troisdorf", "latitude": 50.8174585, "longitude": 7.1602286, "source": "osm", "_tags": {"amenity": "hospital", "healthcare": "hospital", "name": "GFO Kliniken Troisdorf Betriebsstätte St. Josef Troisdorf", "toilets:wheelchair": "yes", "wheelchair": "yes"}}, {"name": "LVR-Klinikum Düsseldorf für Psychiatrie und Psychotherapie", "latitude": 51.2437226, "longitude": 6.8442609, "source": "osm", "_tags": {"addr:city": "Düsseldorf", "addr:country": "DE", "addr:housenumber": "2", "addr:postcode": "40629", "addr:street": "Bergische Landstraße", "amenity": "hospital", "healthcare": "hospital", "healthcare:speciality": "psychiatry", "name": "LVR-Klinikum Düsseldorf für Psychiatrie und Psychotherapie", "name:en": "\"LVR-Klinikum Düsseldorf\", hospital for Psychiatry and Psychotherapy", "url": "http://www.klinikum-duesseldorf.lvr.de/", "wheelchair": "limited", "wikidata": "Q20180497", "wikimedia_commons": "Category:LVR-Klinikum Düsseldorf"}}, {"name": "Evangelische Kliniken", "latitude": 51.5097676, "longitude": 7.0889406, "source": "osm", "_tags": {"amenity": "hospital", "check_date": "2024-08-02", "healthcare": "hospital", "name": "Evangelische Kliniken", "wheelchair": "yes", "wikidata": "Q50038304"}}, {"name": "Sana Kliniken Düsseldorf Gerresheim", "latitude": 51.24332, "longitude": 6.855374, "source": "osm", "_tags": {"addr:city": "Düsseldorf", "addr:country": "DE", "addr:housenumber": "120", "addr:postcode": "40625", "addr:street": "Gräulinger Straße", "amenity": "hospital", "healthcare": "hospital", "name": "Sana Kliniken Düsseldorf Gerresheim", "operator": "Sana Kliniken", "operator:wikidata": "Q2220152", "website": "https://www.sana-gerresheim.de/", "wheelchair": "yes"}}, {"name": "Marienhospital", "latitude": 51.4785067, "longitude": 7.4421086, "source": "osm", "_tags": {"addr:city": "Dortmund", "addr:housenumber": "9", "addr:postcode": "44225", "addr:street": "Gablonzstraße", "amenity": "hospital", "email": "pforte.mh@marien-hospital-dortmund.de", "emergency": "yes", "fax": "+49 231 775041399", "healthcare": "hospital", "healthcare:speciality": "psychiatry", "name": "Marienhospital", "phone": "+49 231 77500", "rd_do:kh": "K 18", "website": "https://www.marien-hospital-dortmund.de/", "wheelchair": "yes", "wikidata": "Q19965573", "wikipedia": "de:Marien Hospital Dortmund-Hombruch"}}, {"name": "GFO Klinik Brühl - Marienhospital", "latitude": 50.8273822, "longitude": 6.9004652, "source": "osm", "_tags": {"addr:city": "Brühl", "addr:country": "DE", "addr:housenumber": "21-25", "addr:postcode": "50321", "addr:street": "Mühlenstraße", "amenity": "hospital", "emergency": "yes", "healthcare": "hospital", "name": "GFO Klinik Brühl - Marienhospital", "operator": "Gemeinnützige Gesellschaft der Franziskanerinnen zu Olpe mbH (GFO)", "phone": "+49 2232 74 0", "ref": "Marienhospital", "short_name": "Marienhospital", "website": "https://klinik-bruehl.gfo-online.de/", "wheelchair": "yes"}}, {"name": "Kinderkrankenhaus Amsterdamer Straße", "latitude": 50.9627397, "longitude": 6.9664631, "source": "osm", "_tags": {"addr:city": "Köln", "addr:country": "DE", "addr:housenumber": "59", "addr:postcode": "50735", "addr:street": "Amsterdamer Straße", "amenity": "hospital", "check_date": "2024-11-19", "emergency": "yes", "healthcare": "hospital", "name": "Kinderkrankenhaus Amsterdamer Straße", "operator": "Kliniken der Stadt Köln", "phone": "+49 221 8907-0", "website": "https://www.kliniken-koeln.de/Kinderkrankenhaus_Index.htm", "wheelchair": "yes"}}, {"name": "St. Vinzenz Hospital", "latitude": 50.9668479, "longitude": 6.9458978, "source": "osm", "_tags": {"addr:city": "Köln", "addr:postcode": "50733", "addr:street": "Merheimer Straße", "amenity": "hospital", "emergency": "yes", "healthcare": "hospital", "name": "St. Vinzenz Hospital", "operator": "Celitinnen zur hl. Maria", "phone": "+49 221 77120", "website": "https://www.vinzenz-hospital.de/", "wheelchair": "yes", "wikidata": "Q116948275", "wikimedia_commons": "Category:St. Vinzenz-Hospital (Köln-Nippes)"}}, {"name": "Remigius-Krankenhaus-Opladen", "latitude": 51.0681805, "longitude": 7.0054361, "source": "osm", "_tags": {"addr:city": "Leverkusen", "addr:country": "DE", "addr:housenumber": "26", "addr:postcode": "51379", "addr:street": "An St. Remigius", "amenity": "hospital", "building": "hospital", "contact:facebook": "stremigiuskrankenhausopladen", "contact:instagram": "alexianer_stremigius", "emergency": "yes", "healthcare": "hospital", "name": "Remigius-Krankenhaus-Opladen", "ref": "Remigius-Krankenhaus-Opladen", "source": "yahoo", "website": "https://www.remigius.de/", "wheelchair": "yes"}}, {"name": "St. Christophorus-Krankenhaus", "latitude": 51.6752528, "longitude": 7.616585, "source": "osm", "_tags": {"amenity": "hospital", "contact:email": "info@krankenhaus-werne.de", "contact:phone": "+49 2389 787-0", "contact:website": "https://www.krankenhaus-werne.de/", "healthcare": "hospital", "name": "St. Christophorus-Krankenhaus", "operator": "Katholisches Klinikum Lünen/Werne GmbH", "wheelchair": "yes"}}, {"name": "Klinik Blankenstein", "latitude": 51.4050086, "longitude": 7.2229969, "source": "osm", "_tags": {"amenity": "hospital", "healthcare": "hospital", "name": "Klinik Blankenstein", "toilets:wheelchair": "yes", "wheelchair": "yes", "wikidata": "Q15111122", "wikipedia": "de:Klinik Blankenstein"}}, {"name": "Helios Universitätsklinkum Wuppertal", "latitude": 51.2752817, "longitude": 7.1738834, "source": "osm", "_tags": {"addr:city": "Wuppertal", "addr:country": "DE", "addr:housenumber": "40", "addr:postcode": "42283", "addr:street": "Heusnerstraße", "alt_name": "HELIOS Universitätsklinikum Wuppertal - Universität Witten/Herdecke", "amenity": "hospital", "emergency": "yes", "healthcare": "hospital", "name": "Helios Universitätsklinkum Wuppertal", "operator": "Helios Kliniken", "operator:wikidata": "Q1254151", "operator:wikipedia": "de:Helios Kliniken", "website": "https://www.helios-gesundheit.de/wuppertal", "wheelchair": "yes", "wikipedia": "de:Helios Universitätsklinikum Wuppertal"}}, {"name": "Elisabeth-Krankenhaus Recklinhausen", "latitude": 51.5677623, "longitude": 7.2071942, "source": "osm", "_tags": {"addr:city": "Recklinghausen", "addr:housenumber": "10", "addr:postcode": "45661", "addr:street": "Röntgenstraße", "amenity": "hospital", "healthcare": "hospital", "name": "Elisabeth-Krankenhaus Recklinhausen", "operator": "St. Franziskus-Stiftung Münster", "operator:wikidata": "Q2318238", "wheelchair": "yes", "wikidata": "Q78777662", "wikipedia": "de:Elisabeth-Krankenhaus Recklinghausen"}}, {"name": "St. Josef Krankenhaus Essen-Werden", "latitude": 51.3891577, "longitude": 7.0063882, "source": "osm", "_tags": {"addr:city": "Essen", "addr:country": "DE", "addr:housenumber": "2", "addr:postcode": "45239", "addr:street": "Propsteistraße", "amenity": "hospital", "building": "hospital", "emergency": "yes", "healthcare": "hospital", "name": "St. Josef Krankenhaus Essen-Werden", "operator": "Universitätsklinikum Essen", "wheelchair": "yes"}}, {"name": "St. Marien-Hospital", "latitude": 51.5020732, "longitude": 6.8896557, "source": "osm", "_tags": {"addr:city": "Oberhausen", "addr:country": "DE", "addr:housenumber": "10", "addr:postcode": "46117", "addr:street": "Nürnberger Straße", "addr:suburb": "Osterfeld", "amenity": "hospital", "contact:phone": "+49 208 8991-0", "contact:website": "http://www.kk-ob.de/standorte/st-marien-hospital.html", "healthcare": "hospital", "name": "St. Marien-Hospital", "wheelchair": "yes"}}, {"name": "Helios Klinikum Schwelm", "latitude": 51.2937271, "longitude": 7.3123069, "source": "osm", "_tags": {"addr:city": "Schwelm", "addr:country": "DE", "addr:housenumber": "15", "addr:postcode": "58332", "addr:street": "Dr.-Moeller-Straße", "amenity": "hospital", "building": "hospital", "contact:phone": "+49 2336 48-0", "contact:website": "https://www.helios-gesundheit.de/kliniken/schwelm/", "emergency": "yes", "healthcare": "hospital", "healthcare:speciality": "paediatrics;emergency;orthopaedics;gynaecology;intensive;radiology;surgery;anaesthetics;urology;geriatrics;oncology", "name": "Helios Klinikum Schwelm", "opening_hours": "24/7", "operator": "Helios Kliniken", "operator:wikidata": "Q1254151", "toilets:wheelchair": "yes", "wheelchair": "yes", "wikidata": "Q56551155"}}, {"name": "LWL Ambulante Jugendpsychiatrie", "latitude": 51.6171539, "longitude": 7.5902013, "source": "osm", "_tags": {"amenity": "hospital", "name": "LWL Ambulante Jugendpsychiatrie"}}, {"name": "MEDIAN Klinik Dormagen", "latitude": 51.099723, "longitude": 6.8161483, "source": "osm", "_tags": {"addr:city": "Dormagen", "addr:country": "DE", "addr:housenumber": "4", "addr:postcode": "41539", "addr:street": "Kurt-Tucholsky-Straße", "amenity": "hospital", "building": "yes", "fax": "+49 2133 2660-262", "healthcare": "hospital", "name": "MEDIAN Klinik Dormagen", "phone": "+49 2133 2660-0", "website": "https://www.median-kliniken.de/"}}, {"name": "Evangelisches Krankenhaus Mettmann", "latitude": 51.2505231, "longitude": 6.9698152, "source": "osm", "_tags": {"addr:city": "Mettmann", "addr:housenumber": "4-8", "addr:postcode": "40822", "addr:street": "Gartenstraße", "amenity": "hospital", "building": "yes", "emergency": "yes", "healthcare": "hospital", "name": "Evangelisches Krankenhaus Mettmann", "phone": "+49 (0)2104 773-0", "website": "https://www.evk-mettmann.de/", "wheelchair": "yes"}}, {"name": "Christliches Klinikum Unna gGmbH / Standort Mitte (CKU Mitte)", "latitude": 51.5369694, "longitude": 7.6848663, "source": "osm", "_tags": {"addr:city": "Unna", "addr:country": "DE", "addr:housenumber": "2", "addr:postcode": "59423", "addr:street": "Obere Husemannstraße", "amenity": "hospital", "building": "yes", "emergency": "yes", "healthcare": "hospital", "name": "Christliches Klinikum Unna gGmbH / Standort Mitte (CKU Mitte)", "phone": "+49 2303 1000", "wheelchair": "yes"}}, {"name": "Evangelisches Krankenhaus Essen-Werden", "latitude": 51.3899944, "longitude": 7.0058848, "source": "osm", "_tags": {"addr:city": "Essen", "addr:country": "DE", "addr:housenumber": "1-3", "addr:postcode": "45239", "addr:street": "Pattbergstraße", "amenity": "hospital", "building": "hospital", "emergency": "yes", "healthcare": "hospital", "healthcare:speciality": "cardiology;child_psychiatry;geriatrics;haematology;oncology;ophthalmology;orthopaedics;transplant", "healthcare:speciality:de": "Kardiologie;Geriatrie;Hämatologie;Internistische_Onkologie;Stammzelltransplantation;Augenheilkunde;Orthopädie;Kinder-_und_Jugendpsychiatrie,_-Psychotherapie_und_-Psychosomatik", "name": "Evangelisches Krankenhaus Essen-Werden", "operator": "Kliniken Essen Mitte", "wheelchair": "yes", "wikidata": "Q1381351", "wikipedia": "de:Evangelisches Krankenhaus Essen-Werden"}}, {"name": "Evangelisches Krankenhaus Essen-Steele", "latitude": 51.4419557, "longitude": 7.0613849, "source": "osm", "_tags": {"addr:city": "Essen", "addr:country": "DE", "addr:housenumber": "34a", "addr:postcode": "45276", "addr:street": "Am Deimelsberg", "amenity": "hospital", "building": "hospital", "contact:email": "info@kem-med.com", "contact:phone": "+49 201 1740", "emergency": "no", "healthcare": "hospital", "healthcare:speciality": "geriatrics", "name": "Evangelisches Krankenhaus Essen-Steele", "operator": "Evangelische Kliniken Essen-Mitte", "operator:type": "religious", "short_name": "KEM", "website": "https://www.kliniken.de/krankenhaus/kem-i-kliniken-essen-mitte-standort-steele-1057K.html"}}, {"name": "Universitätsklinikum Köln", "latitude": 50.9251984, "longitude": 6.919302, "source": "osm", "_tags": {"amenity": "hospital", "emergency": "yes", "healthcare": "hospital", "name": "Universitätsklinikum Köln", "old_name": "Lindenburg", "operator:type": "public", "short_name": "Uniklinik Köln", "toilets:wheelchair": "yes", "website": "https://www.uk-koeln.de/", "wheelchair": "yes", "wikidata": "Q2494398", "wikimedia_commons": "Category:Uniklinik Köln", "wikipedia": "de:Universitätsklinikum Köln"}}, {"name": "Bergmannsheil und Kinderklinik Buer", "latitude": 51.5707569, "longitude": 7.0606777, "source": "osm", "_tags": {"amenity": "hospital", "contact:phone": "+49 209 59020", "contact:website": "http://www.bergmannsheil-buer.de/", "emergency": "yes", "healthcare": "hospital", "layer": "1", "name": "Bergmannsheil und Kinderklinik Buer", "wheelchair": "yes", "wikidata": "Q820012", "wikipedia": "de:Bergmannsheil und Kinderklinik Buer"}}, {"name": "St.Josef Krankenhaus", "latitude": 51.3916489, "longitude": 7.0855385, "source": "osm", "_tags": {"addr:city": "Essen", "addr:country": "DE", "addr:housenumber": "22-24", "addr:postcode": "45257", "addr:street": "Heidbergweg", "addr:suburb": "Kupferdreh", "amenity": "hospital", "building": "hospital", "building:levels": "0", "emergency": "yes", "healthcare": "hospital", "name": "St.Josef Krankenhaus", "wheelchair": "yes"}}, {"name": "St. Josef-Hospital Gelsenkirchen-Horst", "latitude": 51.5411287, "longitude": 7.0277616, "source": "osm", "_tags": {"amenity": "hospital", "check_date": "2024-09-24", "healthcare": "hospital", "name": "St. Josef-Hospital Gelsenkirchen-Horst", "wheelchair": "yes"}}, {"name": "Helios St. Elisabeth Klinik", "latitude": 51.4614653, "longitude": 6.8546089, "source": "osm", "_tags": {"amenity": "hospital", "emergency": "yes", "healthcare": "hospital", "name": "Helios St. Elisabeth Klinik", "operator": "Helios Kliniken", "operator:type": "private", "operator:wikidata": "Q1254151", "wheelchair": "yes", "wikidata": "Q30294850"}}, {"name": "Städtische Kliniken", "latitude": 51.5083612, "longitude": 7.4574824, "source": "osm", "_tags": {"addr:city": "Dortmund", "addr:housenumber": "40", "addr:postcode": "44137", "addr:street": "Beurhausstraße", "amenity": "hospital", "emergency": "yes", "healthcare": "hospital", "hospital:level:DE": "3", "name": "Städtische Kliniken", "phone": "+49 231 9530", "rd_do:kh": "K 1", "toilets:wheelchair": "yes", "website": "https://www.klinikumdo.de", "wheelchair": "yes", "wikidata": "Q1658834", "wikimedia_commons": "Category:Klinikum Dortmund", "wikipedia": "de:Klinikum Dortmund"}}, {"name": "Gemeinschaftskrankenhaus Herdecke", "latitude": 51.4111022, "longitude": 7.3989687, "source": "osm", "_tags": {"amenity": "hospital", "check_date": "2023-07-22", "contact:city": "Herdecke", "contact:country": "DE", "contact:housenumber": "4", "contact:street": "Gerhard-Kienle-Weg", "emergency": "yes", "fax": "+49 2330 623995", "healthcare": "hospital", "name": "Gemeinschaftskrankenhaus Herdecke", "phone": "+49 2330 620", "ref:vatin": "DE265321361", "toilets": "yes", "toilets:wheelchair": "yes", "website": "https://www.gemeinschaftskrankenhaus.de/", "wheelchair": "yes", "wikidata": "Q1501014", "wikipedia": "de:Gemeinschaftskrankenhaus Herdecke"}}, {"name": "LWL-Klinik Dortmund Elisabeth-Klinik", "latitude": 51.5028336, "longitude": 7.5471893, "source": "osm", "_tags": {"amenity": "hospital", "emergency": "yes", "healthcare": "hospital", "name": "LWL-Klinik Dortmund Elisabeth-Klinik", "operator": "Landschaftsverband Westfalen-Lippe", "phone": "+49 231 9130190", "website": "https://www.lwl-jugendpsychiatrie-dortmund.de/", "wikidata": "Q27938191", "wikipedia": "de:LWL-Klinik Dortmund -Elisabeth-Klinik-"}}, {"name": "LWL-Klinik Dortmund", "latitude": 51.5071063, "longitude": 7.5505077, "source": "osm", "_tags": {"amenity": "hospital", "healthcare": "hospital", "healthcare:speciality": "psychiatry", "name": "LWL-Klinik Dortmund", "phone": "+49 231 450301", "website": "https://www.lwl-klinik-dortmund.de/", "wheelchair": "yes", "wikidata": "Q1666405", "wikimedia_commons": "Category:Aplerbeck: Landeskrankenhaus", "wikipedia": "de:LWL-Klinik Dortmund"}}, {"name": "Kreiskrankenhaus Waldbröl", "latitude": 50.8781432, "longitude": 7.6313965, "source": "osm", "_tags": {"addr:city": "Waldbröl", "addr:housenumber": "10", "addr:postcode": "51545", "addr:street": "Dr.-Goldenbogen-Straße", "amenity": "hospital", "building": "hospital", "healthcare": "hospital", "name": "Kreiskrankenhaus Waldbröl", "wheelchair": "yes", "wikidata": "Q1352214", "wikipedia": "de:Kreiskrankenhaus Waldbröl"}}, {"name": "Ruhrlandklinik", "latitude": 51.3629089, "longitude": 6.9895264, "source": "osm", "_tags": {"addr:city": "Essen", "addr:country": "DE", "addr:housenumber": "40", "addr:postcode": "45239", "addr:street": "Tüschener Weg", "amenity": "hospital", "contact:email": "info.allgemein@ruhrlandklinik.uk-essen.de", "contact:fax": "+49 201 4332009", "contact:phone": "+49 201 43301", "contact:website": "http://www.ruhrlandklinikhausderlunge.de", "emergency": "no", "healthcare": "hospital", "name": "Ruhrlandklinik", "operator": "Ruhrlandklinik, Westdeutsches Lungenzentrum am Universitätsklinikum Essen gGmbH"}}, {"name": "Paracelsus-Klinik Golzheim", "latitude": 51.2544319, "longitude": 6.7595047, "source": "osm", "_tags": {"addr:city": "Düsseldorf", "addr:country": "DE", "addr:housenumber": "11", "addr:postcode": "40474", "addr:street": "Friedrich-Lau-Straße", "amenity": "hospital", "fax": "+49 211 4380987", "healthcare": "hospital", "name": "Paracelsus-Klinik Golzheim", "phone": "+49 211 4386 0", "source": "survey, yahoo", "website": "https://www.paracelsus-kliniken.de/duesseldorf.html", "wheelchair": "limited", "wikidata": "Q56582996"}}, {"name": "Krankenhaus der Augustinerinnen „Klösterchen“", "latitude": 50.9248651, "longitude": 6.9570199, "source": "osm", "_tags": {"addr:city": "Köln", "addr:housenumber": "27–31", "addr:postcode": "50678", "addr:street": "Jakobstraße", "amenity": "hospital", "healthcare": "hospital", "name": "Krankenhaus der Augustinerinnen „Klösterchen“", "phone": "+49-221-3308-0", "source": "survey", "url": "http://www.koeln-kh-augustinerinnen.de"}}, {"name": "Sankt-Marien-Hospital", "latitude": 51.7695585, "longitude": 7.4474909, "source": "osm", "_tags": {"addr:housenumber": "1", "addr:street": "Neustraße", "amenity": "hospital", "emergency": "yes", "healthcare": "hospital", "name": "Sankt-Marien-Hospital", "operator": "St. Franziskus-Stiftung Münster", "operator:type": "private_non_profit", "operator:wikidata": "Q2318238", "toilets:wheelchair": "yes", "wheelchair": "yes"}}, {"name": "Evangelisches Krankenhaus Oberhausen", "latitude": 51.4748241, "longitude": 6.8669468, "source": "osm", "_tags": {"amenity": "hospital", "healthcare": "hospital", "name": "Evangelisches Krankenhaus Oberhausen", "wheelchair": "yes", "wikidata": "Q44724846"}}, {"name": "Alexianer-Krankenhaus Köln", "latitude": 50.8978869, "longitude": 7.042654, "source": "osm", "_tags": {"amenity": "hospital", "name": "Alexianer-Krankenhaus Köln", "wheelchair": "yes", "wheelchair:description": "Seiteneingang nutzen (keine Stufen)"}}, {"name": "Huyssens-Stiftung - Kliniken Essen-Mitte", "latitude": 51.4411514, "longitude": 7.0300314, "source": "osm", "_tags": {"amenity": "hospital", "healthcare": "hospital", "name": "Huyssens-Stiftung - Kliniken Essen-Mitte", "short_name": "Huyssenstift", "wikidata": "Q1639474", "wikipedia": "de:Huyssens-Stiftung"}}, {"name": "Elisabeth Krankenhaus", "latitude": 51.4451811, "longitude": 7.0328691, "source": "osm", "_tags": {"amenity": "hospital", "healthcare": "hospital", "name": "Elisabeth Krankenhaus", "operator": "Contilia Gruppe", "toilets:wheelchair": "yes", "wheelchair": "yes", "wikidata": "Q1329685", "wikipedia": "de:Elisabeth-Krankenhaus Essen"}}, {"name": "Knappschaft Kliniken Dortmund", "latitude": 51.5197496, "longitude": 7.5333304, "source": "osm", "_tags": {"addr:city": "Dortmund", "addr:country": "DE", "addr:housenumber": "1", "addr:postcode": "44309", "addr:street": "Am Knappschaftskrankenhaus", "amenity": "hospital", "emergency": "yes", "healthcare": "hospital", "name": "Knappschaft Kliniken Dortmund", "old_name": "Knappschaftskrankenhaus Dortmund", "operator": "Knappschaft Kliniken Westfalen GmbH", "website": "https://www.knappschaft-kliniken.de/dortmund/", "wheelchair": "yes", "wikidata": "Q1776899", "wikimedia_commons": "Category:Brackel: Knappschaftskrankenhaus", "wikipedia": "de:Knappschaftskrankenhaus Dortmund"}}, {"name": "Allgemeinpsychiatrische Tagesklinik", "latitude": 51.5046294, "longitude": 7.5481647, "source": "osm", "_tags": {"addr:city": "Dortmund", "addr:country": "DE", "addr:housenumber": "1", "addr:postcode": "44287", "addr:street": "Allerstraße", "amenity": "hospital", "building": "yes", "healthcare": "hospital", "name": "Allgemeinpsychiatrische Tagesklinik", "source": "HiRes aerial imagery"}}, {"name": "Alfried Krupp Krankenhaus Steele", "latitude": 51.4500988, "longitude": 7.0916184, "source": "osm", "_tags": {"amenity": "hospital", "emergency": "yes", "healthcare": "hospital", "name": "Alfried Krupp Krankenhaus Steele", "wheelchair": "yes"}}, {"name": "VAMED Klinik Hattingen", "latitude": 51.3898938, "longitude": 7.216765, "source": "osm", "_tags": {"amenity": "hospital", "name": "VAMED Klinik Hattingen"}}, {"name": "Krankenhaus Porz am Rhein", "latitude": 50.8921931, "longitude": 7.0502406, "source": "osm", "_tags": {"amenity": "hospital", "healthcare": "hospital", "name": "Krankenhaus Porz am Rhein", "wheelchair": "yes", "wikidata": "Q15824352", "wikipedia": "de:Krankenhaus Porz am Rhein"}}, {"name": "Evangelisches Krankenhaus Witten", "latitude": 51.4459545, "longitude": 7.3439016, "source": "osm", "_tags": {"addr:city": "Witten", "addr:country": "DE", "addr:housenumber": "27", "addr:postcode": "58455", "addr:street": "Pferdebachstraße", "addr:suburb": "Mitte", "amenity": "hospital", "building": "hospital", "building:fireproof": "yes", "capacity": "302", "contact:facebook": "https://www.facebook.com/evkwitten", "contact:fax": "+49 2302 1752000", "contact:foursquare": "4c861bf374d7b60c65d1a0d8", "contact:phone": "+49 2302 1750", "contact:website": "https://www.evk-witten.de/", "contact:yelp": "evangel-krankenhaus-witten", "currency:EUR": "yes", "currency:others": "no", "denomination": "protestant", "healthcare": "hospital", "healthcare:speciality": "general", "image": "File:Witten - Diakonissenhaus2006.jpg", "internet_access": "wlan", "internet_access:operator": "Frederix", "name": "Evangelisches Krankenhaus Witten", "old_name": "Diakonissenhaus", "opening_hours": "24/7", "payment:cash": "yes", "payment:girocard": "yes", "payment:maestro": "yes", "payment:mastercard": "yes", "payment:visa": "yes", "religion": "christian", "religion:wikidata": "Q23540", "roof:colour": "gray", "roof:material": "concrete", "roof:shape": "flat", "smoking": "no", "toilets": "yes", "toilets:wheelchair": "yes", "wheelchair": "yes", "wikidata": "Q1381358", "wikimedia_commons": "Category:Evangelisches Krankenhaus Witten", "wikipedia": "de:Evangelisches Krankenhaus Witten", "year_of_construction": "1976"}}, {"name": "LVR-Klinik Langenfeld", "latitude": 51.0949877, "longitude": 6.9627374, "source": "osm", "_tags": {"amenity": "hospital", "healthcare": "hospital", "name": "LVR-Klinik Langenfeld", "wheelchair": "yes", "wikidata": "Q1798443"}}, {"name": "St. Marien Hospital Eickel", "latitude": 51.515214, "longitude": 7.1822115, "source": "osm", "_tags": {"addr:city": "Herne", "addr:country": "DE", "addr:housenumber": "2", "addr:postcode": "44651", "addr:street": "Marienstraße", "amenity": "hospital", "building": "hospital", "emergency": "no", "healthcare": "hospital", "healthcare:speciality": "psychiatry", "name": "St. Marien Hospital Eickel", "phone": "+49 2325 3740", "website": "https://www.marienhospital-eickel.de/", "wheelchair": "yes"}}, {"name": "Alfried-Krupp-Krankenhaus", "latitude": 51.4265137, "longitude": 7.008338, "source": "osm", "_tags": {"amenity": "hospital", "check_date": "2025-08-11", "name": "Alfried-Krupp-Krankenhaus", "name:etymology:wikidata": "Q61430", "wikidata": "Q1650578", "wikipedia": "de:Alfried Krupp Krankenhaus Rüttenscheid"}}, {"name": "St. Elisabeth Hospital", "latitude": 51.3796535, "longitude": 7.6907257, "source": "osm", "_tags": {"amenity": "hospital", "contact:website": "https://kkimk.de/standorte/st-elisabeth-hospital-iserlohn/", "emergency": "yes", "healthcare": "hospital", "name": "St. Elisabeth Hospital", "opening_hours": "24/7", "operator": "Kath. Kliniken im Märkischen Kreis gem. GmbH", "wheelchair": "yes"}}, {"name": "Kreiskrankenhaus Gummersbach", "latitude": 51.0155028, "longitude": 7.5674969, "source": "osm", "_tags": {"addr:city": "Gummersbach", "addr:housenumber": "20", "addr:postcode": "51643", "addr:street": "Wilhelm-Breckow-Allee", "amenity": "hospital", "building": "hospital", "email": "info@klinikum-oberberg.de", "emergency": "yes", "fax": "+49 2261 171444", "healthcare": "hospital", "healthcare:speciality": "emergency;paediatrics", "layer": "1", "name": "Kreiskrankenhaus Gummersbach", "opening_hours": "24/7", "phone": "+49 2261 170", "toilets:wheelchair": "yes", "website": "https://www.klinikum-oberberg.de", "wheelchair": "yes", "wheelchair:description": "Ebenerdiger Eingang:! Beh.Toiletten gibt's im Terapiebereich, in der Röntgenabt, sowie auf einigen Etagen.!", "wikidata": "Q1626679"}}, {"name": "Praxisklinik Haan", "latitude": 51.1988689, "longitude": 7.0207852, "source": "osm", "_tags": {"addr:city": "Haan", "addr:country": "DE", "addr:housenumber": "16", "addr:postcode": "42781", "addr:street": "Robert-Koch-Straße", "amenity": "hospital", "building": "yes", "email": "Haan@diepraxiskliniken.de", "healthcare": "hospital", "name": "Praxisklinik Haan", "note": "https://www.gelenkzentrum-bergischland.de/praxisklinik-haan-der-gesundheitscampus-haan-nimmt-gestalt-an/", "old_name": "St. Josef Krankenhaus", "operator": "GZBL Praxiskliniken GmbH", "phone": "+49 2129 929 4600 0", "website": "https://www.diepraxiskliniken.de/", "wheelchair": "yes"}}, {"name": "Aggertalklinik Engelskirchen", "latitude": 50.9873221, "longitude": 7.3837234, "source": "osm", "_tags": {"amenity": "hospital", "building": "yes", "name": "Aggertalklinik Engelskirchen", "wheelchair": "yes"}}, {"name": "ev. Krankenhaus Hattingen", "latitude": 51.3934037, "longitude": 7.1930621, "source": "osm", "_tags": {"amenity": "hospital", "contact:email": "post@krankenhaus-hattingen.de", "contact:phone": "+49 2324/502-0", "healthcare": "hospital", "name": "ev. Krankenhaus Hattingen", "website": "http://www.augusta-bochum.de/", "wheelchair": "yes"}}, {"name": "St.-Katharinen - Hospital", "latitude": 50.9228673, "longitude": 6.8096778, "source": "osm", "_tags": {"amenity": "hospital", "building": "hospital", "emergency": "yes", "healthcare": "hospital", "name": "St.-Katharinen - Hospital", "wheelchair": "yes", "wikidata": "Q15129135", "wikimedia_commons": "Category:St. Katharinen-Hospital Frechen"}}, {"name": "HELIOS Klinikum Niederberg", "latitude": 51.3504926, "longitude": 7.0116404, "source": "osm", "_tags": {"amenity": "hospital", "check_date": "2018-02-27", "emergency": "yes", "healthcare": "hospital", "name": "HELIOS Klinikum Niederberg", "operator": "Helios Kliniken", "operator:wikidata": "Q1254151", "operator:wikipedia": "de:Helios Kliniken", "website": "https://www.helios-gesundheit.de/kliniken/niederberg/", "wheelchair": "yes", "wikidata": "Q1774649"}}, {"name": "Evangelisches Krankenhaus Dinslaken", "latitude": 51.558391, "longitude": 6.7302513, "source": "osm", "_tags": {"amenity": "hospital", "healthcare": "hospital", "name": "Evangelisches Krankenhaus Dinslaken", "phone": "+49 2064 42-0", "website": "https://www.evkln.de/startseite/ev-krankenhaus-dinslaken/", "wheelchair": "yes"}}, {"name": "Berufsgenossenschaftliches Universitätsklinikum Bergmannsheil GmbH", "latitude": 51.4682212, "longitude": 7.2111606, "source": "osm", "_tags": {"addr:city": "Bochum", "addr:country": "DE", "addr:housenumber": "1", "addr:postcode": "44789", "addr:street": "Bürkle de la Camp-Platz", "amenity": "hospital", "email": "bergmannsheil@bergmannsheil.de", "fax": "+49 234 330734", "healthcare": "hospital", "name": "Berufsgenossenschaftliches Universitätsklinikum Bergmannsheil GmbH", "phone": "+49 234 302-0", "toilets:wheelchair": "yes", "website": "https://www.bg-kliniken.de/universitaetsklinikum-bergmannsheil-bochum/", "wheelchair": "yes"}}, {"name": "Augusta-Klinik Bochum-Mitte", "latitude": 51.4851446, "longitude": 7.2237617, "source": "osm", "_tags": {"amenity": "hospital", "contact:email": "info@augusta-bochum.de", "emergency": "yes", "healthcare": "hospital", "internet_access": "wlan", "name": "Augusta-Klinik Bochum-Mitte", "opening_hours": "24/7", "phone": "+49 234 5170", "toilets:wheelchair": "yes", "website": "https://www.augusta-kliniken.de/standorte/augusta-kranken-anstalt-bochum-mitte.html", "wheelchair": "yes", "wikidata": "Q765362", "wikipedia": "de:Augusta-Kranken-Anstalt Bochum"}}, {"name": "Universitätsklinikum St.-Josef-Hospital Bochum", "latitude": 51.4920611, "longitude": 7.2301822, "source": "osm", "_tags": {"addr:city": "Bochum", "addr:country": "DE", "addr:housenumber": "56", "addr:postcode": "44791", "addr:street": "Gudrunstraße", "amenity": "hospital", "email": "info@klinikum-bochum.de", "emergency": "yes", "healthcare": "hospital", "name": "Universitätsklinikum St.-Josef-Hospital Bochum", "phone": "+49 234509-0", "wheelchair": "yes"}}, {"name": "Klinik Königsfeld", "latitude": 51.2760807, "longitude": 7.3309653, "source": "osm", "_tags": {"addr:city": "Ennepetal", "addr:country": "DE", "addr:housenumber": "2", "addr:postcode": "58256", "addr:street": "Holthauser Talstraße", "amenity": "hospital", "building": "yes", "healthcare": "hospital", "name": "Klinik Königsfeld", "operator": "Deutsche Rentenversicherung Westfalen", "website": "http://www.klinik-koenigsfeld.de/", "wheelchair": "limited"}}, {"name": "Agaplesion Klinikum Hagen", "latitude": 51.3546556, "longitude": 7.4664931, "source": "osm", "_tags": {"amenity": "hospital", "building": "hospital", "building:levels": "1", "email": "info.akh@agaplesion.de", "healthcare": "hospital", "name": "Agaplesion Klinikum Hagen", "operator": "Agaplesion Klinikum Hagen gGmbH", "operator:wikidata": "Q55445", "operator:wikipedia": "de:Agaplesion", "phone": "+49 2331 201 0", "roof:shape": "flat", "short_name": "AKH", "website": "https://www.akh-hagen.de", "wheelchair": "yes"}}, {"name": "St. Hildegardis Krankenhaus", "latitude": 50.9318445, "longitude": 6.9238012, "source": "osm", "_tags": {"amenity": "hospital", "emergency": "yes", "healthcare": "hospital", "name": "St. Hildegardis Krankenhaus", "ref": "Malteser Krankenhaus St Hildegardis", "toilets:wheelchair": "yes", "wheelchair": "yes"}}, {"name": "Fachklinik für Suchterkrankungen", "latitude": 50.8856793, "longitude": 6.8680309, "source": "osm", "_tags": {"addr:city": "Hürth", "addr:housenumber": "1", "addr:postcode": "50354", "addr:street": "Willy-Brandt-Platz", "building": "hospital", "healthcare": "hospital", "name": "Fachklinik für Suchterkrankungen"}}, {"name": "Marien Hospital Düsseldorf", "latitude": 51.2359753, "longitude": 6.7855856, "source": "osm", "_tags": {"addr:city": "Düsseldorf", "addr:country": "DE", "addr:housenumber": "2", "addr:postcode": "40479", "addr:street": "Rochusstraße", "amenity": "hospital", "contact:email": "info@marien-hospital.de", "contact:fax": "+49 211 442610", "contact:phone": "+49 211 44 000", "contact:website": "https://www.marien-hospital.de/", "healthcare": "hospital", "name": "Marien Hospital Düsseldorf", "source:outline": "NRW-Kataster", "toilets:wheelchair": "yes", "wheelchair": "yes", "wikidata": "Q30260541", "wikipedia": "de:Marien-Hospital Düsseldorf"}}, {"name": "AMEOS Klinikum St. Clemens", "latitude": 51.5179265, "longitude": 6.8449462, "source": "osm", "_tags": {"amenity": "hospital", "contact:website": "https://www.ameos.eu/standorte/ameos-west/oberhausen/ameos-klinikum-st-clemens-oberhausen/", "emergency": "yes", "healthcare": "hospital", "name": "AMEOS Klinikum St. Clemens", "operator": "AMEOS Holding AG", "operator:type": "private", "wheelchair": "yes"}}, {"name": "Fachklinik Im Deerth", "latitude": 51.3375788, "longitude": 7.448157, "source": "osm", "_tags": {"amenity": "hospital", "emergency": "no", "name": "Fachklinik Im Deerth", "operator": "AWO Unterbezirk Hagen-Märkischer Kreis", "social_facility:for": "drug_addicted", "type": "Addiction"}}, {"name": "St. Elisabeth Krankenhaus", "latitude": 51.4031581, "longitude": 7.1353422, "source": "osm", "_tags": {"addr:city": "Hattingen", "addr:housenumber": "31", "addr:postcode": "45529", "addr:street": "Essener Straße", "addr:suburb": "Niederwenigern", "amenity": "hospital", "building": "yes", "healthcare": "hospital", "name": "St. Elisabeth Krankenhaus", "operator": "Katholische Kliniken Ruhrhalbinsel"}}, {"name": "St. Elisabeth Krankenhaus", "latitude": 51.4025391, "longitude": 7.1345099, "source": "osm", "_tags": {"addr:city": "Hattingen", "addr:housenumber": "31a", "addr:postcode": "45529", "addr:street": "Essener Straße", "addr:suburb": "Niederwenigern", "amenity": "hospital", "building": "yes", "healthcare": "hospital", "name": "St. Elisabeth Krankenhaus", "operator": "Katholische Kliniken Ruhrhalbinsel"}}, {"name": "Klinik im Park", "latitude": 51.1643533, "longitude": 6.9383058, "source": "osm", "_tags": {"addr:city": "Hilden", "addr:housenumber": "37", "addr:postcode": "40721", "addr:street": "Hagelkreuzstraße", "amenity": "hospital", "healthcare": "hospital", "name": "Klinik im Park", "operator": "Remigius Klinik im Park GmbH", "website": "https://remigius-klinikimpark.de/", "wikidata": "Q50038305"}}, {"name": "St. Vinzenz-Krankenhaus", "latitude": 51.2424958, "longitude": 6.7913819, "source": "osm", "_tags": {"addr:city": "Düsseldorf", "addr:country": "DE", "addr:housenumber": "85", "addr:postcode": "40477", "addr:street": "Schloßstraße", "amenity": "hospital", "healthcare": "hospital", "name": "St. Vinzenz-Krankenhaus", "toilets:wheelchair": "yes", "wheelchair": "yes", "wheelchair:description": "Zwar ebenerdig, Aufzüge vorhanden - aber:nur schwere Türen ohne elektrische Türöffner, nur 1 Rollstuhltoilette auf Station. A1 und eine in Cafeterianähe im Nebengebäude fürs gesamte Krankenhaus"}}, {"name": "Helios St. Anna Klinik", "latitude": 51.3648723, "longitude": 6.7548584, "source": "osm", "_tags": {"addr:city": "Duisburg", "addr:country": "DE", "addr:housenumber": "33", "addr:postcode": "47259", "addr:street": "Albertus-Magnus-Straße", "amenity": "hospital", "contact:email": "krankenhaus.duisburg@malteser.org", "contact:fax": "+49 203 755 1606", "contact:phone": "+49 203 755 0", "contact:website": "https://www.helios-gesundheit.de/kliniken/duisburg-anna/", "description": "Auf dem Gelände befindet sich noch das Malteser Hospiz St. Raphael das unter Leitung der Malteser geblieben ist.", "emergency": "yes", "healthcare": "hospital", "name": "Helios St. Anna Klinik", "operator": "Helios Kliniken", "operator:wikidata": "Q1254151", "wheelchair": "yes", "wikidata": "Q1786547"}}, {"name": "Evangelisches Krankenhaus", "latitude": 50.9900892, "longitude": 7.137488, "source": "osm", "_tags": {"amenity": "hospital", "check_date": "2025-01-15", "healthcare": "hospital", "name": "Evangelisches Krankenhaus", "wheelchair": "yes"}}, {"name": "Knappschaft Kliniken Kamen", "latitude": 51.595427, "longitude": 7.6626895, "source": "osm", "_tags": {"addr:city": "Kamen", "addr:housenumber": "34", "addr:postcode": "59174", "addr:street": "Nordstraße", "amenity": "hospital", "building": "yes", "healthcare": "hospital", "name": "Knappschaft Kliniken Kamen", "old_name": "Hellmig-Krankenhaus", "operator": "Knappschaft Kliniken Westfalen GmbH", "wheelchair": "yes", "wikidata": "Q29868757"}}, {"name": "Sankt-Josefs-Hospital", "latitude": 51.3670536, "longitude": 7.465896, "source": "osm", "_tags": {"addr:city": "Hagen", "addr:country": "DE", "addr:housenumber": "17", "addr:postcode": "58097", "addr:street": "Dreieckstraße", "alt_name": "St. Josefs-Hospital", "amenity": "hospital", "building": "hospital", "check_date": "2024-12-02", "healthcare": "hospital", "name": "Sankt-Josefs-Hospital", "roof:shape": "flat"}}, {"name": "Rehazentrum Burgerland", "latitude": 51.159593, "longitude": 7.1161281, "source": "osm", "_tags": {"addr:city": "Solingen", "addr:country": "DE", "addr:housenumber": "55", "addr:postcode": "42659", "addr:street": "Burger Landstraße", "amenity": "hospital", "building": "yes", "healthcare": "hospital", "name": "Rehazentrum Burgerland", "phone": "+49 212 382060", "website": "https://www.burgerland.de"}}, {"name": "BG Klinikum Duisburg", "latitude": 51.3806975, "longitude": 6.7846759, "source": "osm", "_tags": {"addr:city": "Duisburg", "addr:housenumber": "260", "addr:postcode": "47249", "addr:street": "Großenbaumer Allee", "amenity": "hospital", "emergency": "yes", "healthcare": "hospital", "healthcare:speciality": "emergency", "name": "BG Klinikum Duisburg", "operator": "BG Kliniken", "operator:wikidata": "Q27074262", "operator:wikipedia": "de:BG Kliniken", "phone": "+49 203 7688-0", "toilets:wheelchair": "yes", "website": "http://www.bgu-duisburg.de/", "wheelchair": "yes"}}, {"name": "Kliniken St. Antonius - Petrus Krankenhaus", "latitude": 51.2759479, "longitude": 7.1909085, "source": "osm", "_tags": {"amenity": "hospital", "contact:phone": "+49 202 299 4666", "emergency": "yes", "healthcare": "hospital", "name": "Kliniken St. Antonius - Petrus Krankenhaus", "wheelchair": "yes"}}, {"name": "Sana Krankenhaus Benrath", "latitude": 51.1523406, "longitude": 6.8717482, "source": "osm", "_tags": {"amenity": "hospital", "email": "info@sana-duesseldorf.de", "emergency": "yes", "fax": "+49 211 9971930", "health_facility:type": "hospital", "healthcare": "hospital", "medical_system:western": "yes", "name": "Sana Krankenhaus Benrath", "operator": "Sana Kliniken Düsseldorf GmbH, Gräulinger Straße 120, 40625 Düsseldorf", "phone": "+49 211 99702", "website": "https://www.sana-benrath.de/", "wikidata": "Q125860369", "wikipedia": "de:Sana Krankenhaus Benrath"}}, {"name": "Fliedner Tagesklinik", "latitude": 51.3173413, "longitude": 7.3378236, "source": "osm", "_tags": {"addr:city": "Gevelsberg", "addr:country": "DE", "addr:housenumber": "1", "addr:postcode": "58285", "addr:street": "Sudfeldstraße", "amenity": "hospital", "building": "yes", "name": "Fliedner Tagesklinik"}}, {"name": "Forensische Psychiatrie der LVR-Klinik Köln", "latitude": 50.910327, "longitude": 7.0169235, "source": "osm", "_tags": {"addr:city": "Köln", "addr:country": "DE", "addr:housenumber": "25", "addr:postcode": "51149", "addr:street": "Porzer Ringstraße", "alt_name": "LVR-Klinik Forensische Psychiatrie", "amenity": "hospital", "emergency": "no", "health_specialty": "forensic_psychiatry", "healthcare": "hospital", "name": "Forensische Psychiatrie der LVR-Klinik Köln", "short_name": "Forensische Psychiatrie", "website": "https://klinik-koeln.lvr.de/de/nav_main/fachgebiete___behandlungsangebote/forensische_psychiatrie/forensische_psychiatrie_i/forensische_psychiatrie_i_1.html"}}, {"name": "Krankenhaus Bethanien Iserlohn", "latitude": 51.3710884, "longitude": 7.6931512, "source": "osm", "_tags": {"addr:city": "Iserlohn", "addr:housenumber": "3", "addr:postcode": "58644", "addr:street": "Bethanienallee", "amenity": "hospital", "emergency": "no", "healthcare": "hospital", "healthcare:speciality": "gynaecology;internal;cardiology;geriatrics;emergency;geburtshilfe", "name": "Krankenhaus Bethanien Iserlohn", "operator": "Katholische Kliniken im Märkischen Kreis", "operator:type": "private_non_profit", "phone": "+492371212-0", "website": "https://kkimk.de/standorte/bethanien-krankenhaus/", "wheelchair": "yes"}}, {"name": "Landesklinik Marienheide - Zentrum für seelische Gesundheit", "latitude": 51.0759619, "longitude": 7.5236851, "source": "osm", "_tags": {"addr:city": "Marienheide", "addr:housenumber": "65-67", "addr:postcode": "51709", "addr:street": "Leppestraße", "amenity": "hospital", "name": "Landesklinik Marienheide - Zentrum für seelische Gesundheit"}}, {"name": "Eduardus-Krankenhaus", "latitude": 50.9325047, "longitude": 6.9808828, "source": "osm", "_tags": {"addr:city": "Köln", "addr:housenumber": "3-17", "addr:postcode": "50679", "addr:street": "Custodisstraße", "addr:suburb": "Deutz", "amenity": "hospital", "check_date": "2024-08-12", "emergency": "yes", "healthcare": "hospital", "name": "Eduardus-Krankenhaus", "wheelchair": "yes"}}, {"name": "St. Maria-Hilf-Krankenhaus", "latitude": 51.5198254, "longitude": 7.2723217, "source": "osm", "_tags": {"amenity": "hospital", "contact:website": "https://www.klinikum-bochum.de/st-maria-hilf-krankenhaus/standort.html", "healthcare": "hospital", "name": "St. Maria-Hilf-Krankenhaus", "wheelchair": "yes", "wikidata": "Q14956892"}}, {"name": "Ev. Krankenhaus Hagen-Haspe", "latitude": 51.3475519, "longitude": 7.4124516, "source": "osm", "_tags": {"amenity": "hospital", "healthcare": "hospital", "name": "Ev. Krankenhaus Hagen-Haspe", "operator": "Ev. Stiftung Volmarstein", "wheelchair": "yes"}}, {"name": "Knappschaftskrankenhaus", "latitude": 51.5151179, "longitude": 6.9070596, "source": "osm", "_tags": {"amenity": "hospital", "emergency": "yes", "healthcare": "hospital", "name": "Knappschaftskrankenhaus", "wheelchair": "yes", "wikidata": "Q57378771", "wikipedia": "de:Knappschaftskrankenhaus Bottrop"}}, {"name": "Marienkrankenhaus Goethestraße", "latitude": 51.4439057, "longitude": 7.5676702, "source": "osm", "_tags": {"addr:city": "Schwerte", "addr:housenumber": "19", "addr:postcode": "58239", "addr:street": "Goethestraße", "amenity": "hospital", "building": "yes", "check_date": "2022-08-29", "contact:phone": "+49 2304 109-0", "contact:website": "http://www.marien-kh.de", "emergency": "yes", "healthcare": "hospital", "name": "Marienkrankenhaus Goethestraße", "opening_hours": "24/7", "operator": "Marienkrankenhaus gGmbH", "wheelchair": "yes", "wikidata": "Q15119601", "wikipedia": "de:Marienkrankenhaus Schwerte"}}, {"name": "St. Marien-Hospital", "latitude": 50.9475069, "longitude": 6.9622107, "source": "osm", "_tags": {"addr:city": "Köln", "addr:country": "DE", "addr:housenumber": "11-13", "addr:postcode": "50668", "addr:street": "Kunibertskloster", "amenity": "hospital", "emergency": "yes", "healthcare": "hospital", "name": "St. Marien-Hospital", "website": "https://www.st-marien-hospital.de/", "wheelchair": "yes", "wikidata": "Q2320771", "wikimedia_commons": "Category:St. Marien-Hospital (Köln)", "wikipedia": "de:St. Marien-Hospital Köln"}}, {"name": "Psychiatrie Bochum", "latitude": 51.4902321, "longitude": 7.2295131, "source": "osm", "_tags": {"addr:city": "Bochum", "addr:country": "DE", "addr:housenumber": "1-3", "addr:postcode": "44791", "addr:street": "Alexandrinenstraße", "amenity": "hospital", "check_date": "2025-02-24", "healthcare": "hospital", "healthcare:speciality": "psychiatry", "name": "Psychiatrie Bochum", "operator": "LWL-Universitätsklinik", "website": "https://uk-bochum.lwl.org/", "wikidata": "Q1798481", "wikipedia": "de:LWL-Universitätsklinik Bochum"}}, {"name": "Fliedner Krankenhaus Ratingen", "latitude": 51.3334884, "longitude": 6.8186108, "source": "osm", "_tags": {"amenity": "hospital", "contact:email": "info.krankenhaus@fliedner.de", "contact:fax": "+49 2102 303-285", "contact:phone": "+49 2102 303-0", "contact:website": "https://www.krankenhaus.fliedner.de", "healthcare": "hospital", "name": "Fliedner Krankenhaus Ratingen"}}, {"name": "St.Vincenz-Krankenhaus Datteln", "latitude": 51.6518374, "longitude": 7.3449656, "source": "osm", "_tags": {"addr:city": "Datteln", "addr:housenumber": "11", "addr:postcode": "45711", "addr:street": "Rottstraße", "amenity": "hospital", "emergency": "yes", "name": "St.Vincenz-Krankenhaus Datteln", "operator": "Vestische Caritas-Kliniken GmbH", "wheelchair": "yes"}}, {"name": "Vestische Kinder- und Jugendklinik Datteln", "latitude": 51.642802, "longitude": 7.3380359, "source": "osm", "_tags": {"amenity": "hospital", "healthcare": "hospital", "name": "Vestische Kinder- und Jugendklinik Datteln", "url": "http://www.kinderklinik-datteln.de", "website": "https://www.kinderklinik-datteln.de", "wheelchair": "yes", "wikidata": "Q2521228"}}, {"name": "Zentrum für Seelische Gesundheit Elsey", "latitude": 51.358904, "longitude": 7.5663104, "source": "osm", "_tags": {"addr:city": "Hagen", "addr:housenumber": "43", "addr:postcode": "58119", "addr:street": "Iserlohner Straße", "amenity": "hospital", "check_date": "2025-02-16", "emergency": "no", "healthcare": "yes", "name": "Zentrum für Seelische Gesundheit Elsey", "website": "https://kkh-hagen.de/fachkliniken/psychiatrie-und-psychotherapie-suchtbehandlungszentrum/leistungsspektrum/zentrum-fuer-seelische-gesundheit-elsey/", "wheelchair": "yes"}}, {"name": "Sankt Elisabeth-Hospital", "latitude": 51.4827507, "longitude": 7.2211891, "source": "osm", "_tags": {"addr:city": "Bochum", "addr:country": "DE", "addr:housenumber": "15", "addr:postcode": "44787", "addr:street": "Bleichstraße", "amenity": "hospital", "check_date": "2024-08-20", "fax": "+49 234 612-656", "healthcare": "hospital", "name": "Sankt Elisabeth-Hospital", "phone": "+49 234 612-0", "website": "https://www.klinikum-bochum.de/st-elisabeth-hospital/standort.html", "wheelchair": "yes", "wikidata": "Q15129272", "wikipedia": "de:St. Elisabeth-Hospital Bochum"}}, {"name": "St. Josef Krankenhaus", "latitude": 50.9860325, "longitude": 7.3791623, "source": "osm", "_tags": {"addr:city": "Engelskirchen", "addr:housenumber": "30", "addr:postcode": "51766", "addr:street": "Wohlandstraße", "amenity": "hospital", "building": "yes", "emergency": "no", "name": "St. Josef Krankenhaus", "operator": "Katholische Kliniken Oberberg gGmbH", "toilets:wheelchair": "yes", "wheelchair": "yes"}}, {"name": "Augusta Krankenhaus", "latitude": 51.2668595, "longitude": 6.8246961, "source": "osm", "_tags": {"addr:city": "Düsseldorf", "addr:country": "DE", "addr:housenumber": "9", "addr:postcode": "40472", "addr:street": "Amalienstraße", "amenity": "hospital", "email": "info@augusta-duesseldorf.de", "fax": "+49 211 9043190", "healthcare": "hospital", "name": "Augusta Krankenhaus", "operator": "Krankenhaus Mörsenbroich-Rath GmbH", "phone": "+49 211 90430", "website": "https://www.augusta-duesseldorf.de/", "wheelchair": "yes", "wikidata": "Q30279870", "wikipedia": "de:Augusta-Krankenhaus (Düsseldorf)"}}, {"name": "LWL-Klinik Marl-Sinsen - Haardklinik -", "latitude": 51.6912609, "longitude": 7.1827946, "source": "osm", "_tags": {"addr:city": "Marl", "addr:housenumber": "525", "addr:postcode": "45770", "addr:street": "Halterner Straße", "amenity": "hospital", "email": "lwl-klinik.marl@lwl.org", "emergency": "no", "fax": "+49 2365 802 2209", "healthcare": "hospital", "healthcare:speciality": "psychiatry", "name": "LWL-Klinik Marl-Sinsen - Haardklinik -", "operator": "LWL", "phone": "+49 2365 8020", "website": "https://www.haardklinik.lwl.org", "wikidata": "Q1798470", "wikipedia": "de:LWL-Klinik Marl-Sinsen"}}, {"name": "LWL-Klinik Herten", "latitude": 51.5918187, "longitude": 7.1272955, "source": "osm", "_tags": {"addr:city": "Herten", "addr:country": "DE", "addr:housenumber": "20", "addr:postcode": "45699", "addr:street": "Im Schloßpark", "amenity": "hospital", "building": "hospital", "contact:email": "info-herten@lwl.org", "contact:fax": "+49 2366 802 5009", "contact:phone": "+49 2366 802 0", "emergency": "no", "healthcare": "hospital", "healthcare:speciality": "psychiatry", "name": "LWL-Klinik Herten", "operator": "LWL"}}, {"name": "Marienhospital Bochum-Wattenscheid", "latitude": 51.4838166, "longitude": 7.1393068, "source": "osm", "_tags": {"amenity": "hospital", "check_date": "2025-07-02", "emergency": "no", "healthcare": "hospital", "name": "Marienhospital Bochum-Wattenscheid", "toilets:wheelchair": "yes", "wheelchair": "yes", "wikidata": "Q15119418"}}, {"name": "Martin-Luther-Krankenhaus", "latitude": 51.4825873, "longitude": 7.143233, "source": "osm", "_tags": {"addr:city": "Bochum", "addr:housenumber": "79", "addr:postcode": "44866", "addr:street": "Voedestraße", "amenity": "hospital", "contact:phone": "+49 2327 65-0", "contact:website": "https://www.martin-luther-krankenhaus-bo.de/", "emergency": "yes", "healthcare": "hospital", "name": "Martin-Luther-Krankenhaus", "operator": "Katholisches Klinikum Bochum", "wheelchair": "yes", "wikidata": "Q1903246", "wikipedia": "de:Martin-Luther-Krankenhaus (Wattenscheid)"}}, {"name": "Evangelisches Krankenhaus BETHESDA zu Duisburg GmbH", "latitude": 51.4173778, "longitude": 6.7613769, "source": "osm", "_tags": {"addr:city": "Duisburg", "addr:housenumber": "219", "addr:postcode": "47053", "addr:street": "Heerstraße", "amenity": "hospital", "beds": "413", "check_date": "2025-07-05", "email": "info@bethesda.de", "emergency": "yes", "healthcare": "hospital", "name": "Evangelisches Krankenhaus BETHESDA zu Duisburg GmbH", "operator": "Evangelische Kirchengemeinden Alt-Duisburg, Hochfeld, Wanheimerort, Neudorf-Ost und Neudorf-West sowie der Evangelische Kirchenkreis Duisburg", "phone": "+49203 6008-0", "website": "https://www.bethesda-krankenhaus-duisburg.de/", "wheelchair": "yes"}}, {"name": "HELIOS Marien Klinik Duisburg", "latitude": 51.4134628, "longitude": 6.7550697, "source": "osm", "_tags": {"addr:city": "Duisburg", "addr:housenumber": "96", "addr:postcode": "47053", "addr:street": "Grunewaldstraße", "amenity": "hospital", "beds": "1000", "emergency": "yes", "healthcare": "hospital", "name": "HELIOS Marien Klinik Duisburg", "operator": "Helios Kliniken", "operator:type": "private", "operator:wikidata": "Q1254151", "operator:wikipedia": "de:Helios Kliniken", "phone": "+49203 5460", "website": "https://www.helios-gesundheit.de/kliniken/duisburg/unsere-standorte/helios-marien-klinik/"}}, {"name": "LWL Tagesklinik", "latitude": 51.5324607, "longitude": 7.6758324, "source": "osm", "_tags": {"addr:city": "Unna", "addr:housenumber": "10", "addr:postcode": "59423", "addr:street": "Falkstraße", "amenity": "hospital", "building": "yes", "healthcare": "hospital", "name": "LWL Tagesklinik", "wheelchair": "yes"}}, {"name": "Praxisklinik Remscheid", "latitude": 51.1811776, "longitude": 7.1776943, "source": "osm", "_tags": {"addr:city": "Remscheid", "addr:country": "DE", "addr:housenumber": "203-205", "addr:postcode": "42853", "addr:street": "Freiheitstraße", "amenity": "hospital", "building": "yes", "check_date": "2025-09-17", "healthcare": "hospital", "name": "Praxisklinik Remscheid", "phone": "+49 2191 9516500", "toilets:wheelchair": "yes", "website": "https://www.praxisklinik-remscheid.de/", "wheelchair": "yes"}}, {"name": "Prosper-Hospital", "latitude": 51.606331, "longitude": 7.1921336, "source": "osm", "_tags": {"addr:city": "Recklinghausen", "addr:housenumber": "27", "addr:postcode": "45659", "addr:street": "Mühlenstraße", "building": "hospital", "building:levels": "10", "email": "info@prosper-hospital.de", "emergency": "yes", "healthcare": "hospital", "name": "Prosper-Hospital", "phone": "+49 2361 540", "website": "https://www.prosper-hospital.de/", "wheelchair": "yes", "wikidata": "Q29386320"}}, {"name": "Sana Kliniken Duisburg", "latitude": 51.3967835, "longitude": 6.7842709, "source": "osm", "_tags": {"addr:city": "Duisburg", "addr:housenumber": "9-11", "addr:postcode": "47055", "addr:street": "Zu den Rehwiesen", "amenity": "hospital", "beds": "545", "contact:website": "http://www.sana-duisburg.de/", "email": "info.duisburg@sana.de", "emergency": "yes", "healthcare": "hospital", "name": "Sana Kliniken Duisburg", "operator": "Sana", "operator:type": "private", "phone": "+49203 733-0", "toilets:wheelchair": "yes", "wheelchair": "yes"}}, {"name": "St. Elisabeth-Krankenhaus", "latitude": 51.6572066, "longitude": 6.9563976, "source": "osm", "_tags": {"amenity": "hospital", "email": "dorsten@kkrn.de", "emergency": "yes", "healthcare": "hospital", "name": "St. Elisabeth-Krankenhaus", "operator": "KKRN Katholisches Klinikum Ruhrgebiet Nord GmbH", "operator:type": "religious", "phone": "+49 2362 290", "toilets:wheelchair": "yes", "website": "https://st-elisabeth-krankenhaus-dorsten.de/", "wheelchair": "yes"}}, {"name": "Facharztzentrum Mediplus Hilden", "latitude": 51.1685229, "longitude": 6.9438916, "source": "osm", "_tags": {"addr:city": "Hilden", "addr:housenumber": "38", "addr:postcode": "40724", "addr:street": "Walder Straße", "amenity": "hospital", "building": "yes", "designation": "Kplus-Verbund", "healthcare": "centre", "name": "Facharztzentrum Mediplus Hilden", "wheelchair": "yes"}}, {"name": "Helios St. Johannes Klinik Duisburg", "latitude": 51.4899264, "longitude": 6.7610278, "source": "osm", "_tags": {"addr:city": "Duisburg", "addr:housenumber": "7-11", "addr:postcode": "47166", "addr:street": "An der Abtei", "amenity": "hospital", "beds": "500", "emergency": "yes", "healthcare": "hospital", "name": "Helios St. Johannes Klinik Duisburg", "operator": "Helios Kliniken", "operator:type": "private", "operator:wikidata": "Q1254151", "operator:wikipedia": "de:Helios Kliniken", "phone": "+492035460", "website": "http://www.helios-kliniken.de/klinik/duisburg.html", "wheelchair": "yes", "wikipedia": "de:Katholisches Klinikum Duisburg"}}, {"name": "St.-Elisabeth-Krankenhaus Hohenlind", "latitude": 50.9230859, "longitude": 6.8967971, "source": "osm", "_tags": {"amenity": "hospital", "healthcare": "hospital", "internet_access": "wlan", "name": "St.-Elisabeth-Krankenhaus Hohenlind", "operator": "St.-Elisabeth-Krankenhaus GmbH", "phone": "+49 221 46770", "website": "https://www.hohenlind.de/"}}, {"name": "Reha-Klinik Lüdenscheid", "latitude": 51.20925, "longitude": 7.6651103, "source": "osm", "_tags": {"addr:city": "Lüdenscheid", "addr:country": "DE", "addr:housenumber": "14", "addr:postcode": "58515", "addr:street": "Paulmannshöher Straße", "amenity": "hospital", "building": "yes", "healthcare": "hospital", "name": "Reha-Klinik Lüdenscheid", "website": "https://www.reha-mk.de/RehaLuedenscheid/RehaLuedenscheid.htm", "website2": "https://www.facebook.com/Reha-Klinik-L%C3%BCdenscheid-269473086516612"}}, {"name": "", "latitude": 51.1071723, "longitude": 7.1183823, "source": "osm", "_tags": {"amenity": "hospital", "healthcare": "hospital"}}, {"name": "Marienhospital Gelsenkirchen", "latitude": 51.4955001, "longitude": 7.101255, "source": "osm", "_tags": {"amenity": "hospital", "emergency": "yes", "healthcare": "hospital", "name": "Marienhospital Gelsenkirchen", "website": "https://marienhospital.eu/marienhospital-gelsenkirchen/", "wheelchair": "yes", "wikidata": "Q1897713", "wikipedia": "de:Marienhospital Gelsenkirchen"}}, {"name": "St. Antonius Krankenhaus", "latitude": 50.9103481, "longitude": 6.9668519, "source": "osm", "_tags": {"amenity": "hospital", "emergency": "yes", "healthcare": "hospital", "name": "St. Antonius Krankenhaus", "ref": "St. Antonius", "source": "survey", "website": "https://www.antonius-koeln.de/", "wheelchair": "yes", "wikidata": "Q23933734", "wikipedia": "de:St. Antonius Krankenhaus Köln"}}, {"name": "Orthopädische Klinik - Volmarstein", "latitude": 51.369359, "longitude": 7.3748619, "source": "osm", "_tags": {"addr:city": "Wetter (Ruhr)", "addr:country": "DE", "addr:housenumber": "11", "addr:postcode": "58300", "addr:street": "Lothar-Gau-Straße", "addr:suburb": "Volmarstein", "amenity": "hospital", "building": "yes", "contact:phone": "+49 2335 639400", "contact:website": "http://klinik-volmarstein.de", "image": "File:Volmarstein-OrthopaedischeKlinik1-Bubo.JPG", "name": "Orthopädische Klinik - Volmarstein", "operator": "Evangelische Stiftung Volmarstein", "wheelchair": "yes", "wheelchair:description": "Aufzüge vorhanden"}}, {"name": "Städtisches Klinikum Leverkusen - Kinderklinikum", "latitude": 51.0315272, "longitude": 7.0346073, "source": "osm", "_tags": {"amenity": "hospital", "building": "yes", "contact:facebook": "klinikumlev", "contact:instagram": "klinikumleverkusen", "emergency": "yes", "healthcare": "hospital", "name": "Städtisches Klinikum Leverkusen - Kinderklinikum", "website": "https://www.klinikum-lev.de/kinderklinik", "wheelchair": "yes"}}, {"name": "Evangelisches Krankenhaus Mülheim", "latitude": 51.4241861, "longitude": 6.8831971, "source": "osm", "_tags": {"amenity": "hospital", "check_date": "2025-08-01", "emergency": "yes", "healthcare": "hospital", "name": "Evangelisches Krankenhaus Mülheim", "wheelchair": "yes", "wikidata": "Q1381350"}}, {"name": "Gesundheitspark Altenessen", "latitude": 51.4995544, "longitude": 7.0052113, "source": "osm", "_tags": {"amenity": "hospital", "healthcare": "hospital", "name": "Gesundheitspark Altenessen", "old_name": "Marienhospital", "operator": "Contilia; Katholisches Klinikum Essen", "wheelchair": "yes", "wikidata": "Q17322783", "wikipedia": "de:Katholisches Klinikum Essen"}}, {"name": "St. Agatha Krankenhaus", "latitude": 50.9873383, "longitude": 6.9604557, "source": "osm", "_tags": {"addr:city": "Köln", "addr:housenumber": "97", "addr:postcode": "50735", "addr:street": "Feldgärtenstraße", "amenity": "hospital", "building": "yes", "building:levels": "4", "name": "St. Agatha Krankenhaus", "website": "https://www.st-agatha-krankenhaus.de", "wheelchair": "yes"}}, {"name": "MediClin Fachklinik Rhein/Ruhr", "latitude": 51.3547584, "longitude": 6.9412661, "source": "osm", "_tags": {"amenity": "hospital", "healthcare": "hospital", "healthcare:speciality": "orthopaedics;neurology;cardiology", "name": "MediClin Fachklinik Rhein/Ruhr", "operator": "MediClin", "operator:wikidata": "Q1916295", "operator:wikipedia": "de:Mediclin", "phone": "+49205488-0", "website": "https://www.fachklinik-rheinruhr.de/", "wikidata": "Q60540281"}}, {"name": "Paracelsus-Klinik", "latitude": 51.6620049, "longitude": 7.1241505, "source": "osm", "_tags": {"addr:city": "Marl", "addr:country": "DE", "addr:housenumber": "11", "addr:postcode": "45770", "addr:street": "Lipper Weg", "amenity": "hospital", "check_date": "2025-05-29", "contact:fax": "+49 2365 90-2099", "contact:phone": "+49 2365 90-0", "contact:website": "https://www.klinikum-vest.de/Inhalt/Kliniken_Zentren_Bereiche/Paracelsus-Klinik_Marl/index.php", "email": "info@klinikum-vest.de", "emergency": "yes", "fax": "+49 2361 56 1098", "healthcare": "hospital", "name": "Paracelsus-Klinik", "operator": "Klinikum Vest GmbH", "operator:type": "private", "phone": "+49 2361 56 0", "source": "local knowledge", "website": "https://www.klinikum-vest.de/", "wheelchair": "yes"}}, {"name": "Evangelisches Krankenhaus Herne-Eickel", "latitude": 51.5106093, "longitude": 7.1757205, "source": "osm", "_tags": {"amenity": "hospital", "contact:email": "info@evk-herne.de", "contact:fax": "+49 2323 498-92208", "contact:phone": "+49 2323 498-90", "contact:website": "https://www.evk-herne.de/", "healthcare": "hospital", "name": "Evangelisches Krankenhaus Herne-Eickel", "operator": "Ev. Krankenhausgemeinschaft Herne | Castrop-Rauxel gGmbH"}}, {"name": "Krankenhaus Köln-Merheim", "latitude": 50.9374513, "longitude": 7.0523589, "source": "osm", "_tags": {"addr:city": "Köln", "addr:housenumber": "200", "addr:postcode": "51109", "addr:street": "Ostmerheimer Straße", "amenity": "hospital", "emergency": "yes", "healthcare": "hospital", "name": "Krankenhaus Köln-Merheim", "opening_hours": "24/7", "operator": "Kliniken der Stadt Köln gGmbH", "operator:type": "community", "phone": "+49 221 8907-0", "website": "https://www.kliniken-koeln.de/", "wheelchair": "yes"}}, {"name": "LWL-Klinik für Psychosomatische Medizin und Psychotherapie", "latitude": 51.4908948, "longitude": 7.2284387, "source": "osm", "_tags": {"addr:city": "Bochum", "addr:country": "DE", "addr:housenumber": "56", "addr:postcode": "44791", "addr:street": "Klinikstraße", "amenity": "hospital", "building": "hospital", "healthcare": "hospital", "name": "LWL-Klinik für Psychosomatische Medizin und Psychotherapie", "operator": "Landschaftsverband Westfalen-Lippe", "operator:type": "public", "operator:wikidata": "Q896216", "operator:wikipedia": "de:Landschaftsverband Westfalen-Lippe", "website": "https://uk-bochum.lwl.org/de/klinik-fur-psychosomatische-medizin-psychotherapie/", "wikidata": "Q1798481", "wikipedia": "de:LWL-Universitätsklinik Bochum"}}, {"name": "Haus Siloah", "latitude": 51.3362354, "longitude": 6.8157406, "source": "osm", "_tags": {"amenity": "hospital", "name": "Haus Siloah", "operator": "Theodor Fliedner Stiftung", "website": "http://siloah.fliedner.de/"}}, {"name": "St. Marien-Hospital", "latitude": 51.4260383, "longitude": 6.8867307, "source": "osm", "_tags": {"addr:city": "Mülheim an der Ruhr", "addr:housenumber": "50", "addr:postcode": "45468", "addr:street": "Kaiserstraße", "amenity": "hospital", "check_date": "2025-03-16", "healthcare": "hospital", "name": "St. Marien-Hospital", "opening_hours": "24/7", "toilets:wheelchair": "yes", "website": "https://www.contilia.de", "wheelchair": "yes", "wikidata": "Q60504071"}}, {"name": "Marienhospital Herne", "latitude": 51.528691, "longitude": 7.2265212, "source": "osm", "_tags": {"addr:city": "Herne", "addr:country": "DE", "addr:housenumber": "40", "addr:postcode": "44625", "addr:street": "Hölkeskampring", "amenity": "hospital", "check_date": "2024-08-15", "emergency": "yes", "healthcare": "hospital", "name": "Marienhospital Herne", "operator": "St. Elisabeth Gruppe GmbH - Katholische Kliniken Rhein-Ruhr", "phone": "+49 2323 4990", "website": "https://www.marienhospital-herne.de/", "wikidata": "Q1897715"}}, {"name": "Evangelisches Krankenhaus Herne Mitte", "latitude": 51.5338627, "longitude": 7.2306001, "source": "osm", "_tags": {"addr:city": "Herne", "addr:country": "DE", "addr:housenumber": "24", "addr:postcode": "44623", "addr:street": "Wiescherstraße", "amenity": "hospital", "emergency": "yes", "healthcare": "hospital", "name": "Evangelisches Krankenhaus Herne Mitte", "operator": "Ev. Krankenhausgemeinschaft Herne Castrop-Rauxel gGmbH", "toilets:wheelchair": "yes", "website": "https://www.evk-herne.de/", "wheelchair": "yes"}}, {"name": "Sana-Krankenhaus Hürth", "latitude": 50.8836169, "longitude": 6.8874454, "source": "osm", "_tags": {"amenity": "hospital", "healthcare": "hospital", "name": "Sana-Krankenhaus Hürth", "wheelchair": "yes"}}, {"name": "St.-Sixtus-Hospital", "latitude": 51.7454709, "longitude": 7.1941866, "source": "osm", "_tags": {"addr:city": "Haltern am See", "addr:housenumber": "2", "addr:postcode": "45721", "addr:street": "Gartenstraße", "amenity": "hospital", "contact:website": "http://www.kkrn.de/index.php?id=st-sixtus-hospital", "healthcare": "hospital", "name": "St.-Sixtus-Hospital", "operator": "Katholisches Klinikum Ruhrgebiet Nord GmbH", "wheelchair": "yes"}}, {"name": "Evangelisches Krankenhaus", "latitude": 51.2131737, "longitude": 6.7730583, "source": "osm", "_tags": {"addr:city": "Düsseldorf", "addr:country": "DE", "addr:housenumber": "40", "addr:postcode": "40217", "addr:street": "Kirchfeldstraße", "amenity": "hospital", "contact:email": "verwaltung@evk-duesseldorf.de", "contact:fax": "+49 211 919-3900", "contact:phone": "+49 211 919-0", "contact:website": "http://www.evk-duesseldorf.de/", "description": "Lehrkrankenhaus der Heinrich-Heine-Universität Düsseldorf", "emergency": "yes", "healthcare": "hospital", "name": "Evangelisches Krankenhaus", "wheelchair": "limited", "wheelchair:description": "Ort ist zwar stufenlos, aber viele Türen sind manuell zu bedienen."}}, {"name": "Bethesda-Krankenhaus", "latitude": 51.2677048, "longitude": 7.1301853, "source": "osm", "_tags": {"addr:city": "Wuppertal", "addr:country": "DE", "addr:housenumber": "15-35", "addr:postcode": "42109", "addr:street": "Hainstraße", "amenity": "hospital", "contact:website": "http://www.bethesda-wuppertal.de/", "emergency": "yes", "healthcare": "hospital", "name": "Bethesda-Krankenhaus", "official_name": "Agaplesion Bethesda Krankenhaus Wuppertal", "toilets:wheelchair": "yes", "wheelchair": "yes", "wikidata": "Q390556", "wikipedia": "de:Agaplesion Bethesda Krankenhaus Wuppertal"}}, {"name": "Klinikum Lüdenscheid", "latitude": 51.2076814, "longitude": 7.6623278, "source": "osm", "_tags": {"addr:city": "Lüdenscheid", "addr:country": "DE", "addr:housename": "Klinikum Lüdenscheid", "addr:housenumber": "14", "addr:postcode": "58515", "addr:street": "Paulmannshöher Straße", "amenity": "hospital", "check_date": "2024-08-18", "emergency": "yes", "healthcare": "hospital", "name": "Klinikum Lüdenscheid", "website": "http://www.maerkische-kliniken.de/M%C3%A4rkische_Kliniken/Startseite_Maerkische_Kliniken.htm", "wheelchair": "yes"}}, {"name": "Sportklinik Hellersen", "latitude": 51.2083329, "longitude": 7.6576303, "source": "osm", "_tags": {"amenity": "hospital", "healthcare": "hospital", "name": "Sportklinik Hellersen"}}, {"name": "St.-Johannes-Hospital", "latitude": 51.5110291, "longitude": 7.4566492, "source": "osm", "_tags": {"addr:city": "Dortmund", "addr:housenumber": "9-17", "addr:postcode": "44137", "addr:street": "Johannesstraße", "amenity": "hospital", "healthcare": "hospital", "name": "St.-Johannes-Hospital", "phone": "+49 231 18 43 0", "website": "https://www.joho-dortmund.de/", "wheelchair": "yes", "wikidata": "Q2316196", "wikimedia_commons": "Category:St. Johannes-Hospital (Dortmund)", "wikipedia": "de:St.-Johannes-Hospital Dortmund"}}, {"name": "St. Barbara-Hospital", "latitude": 51.5748129, "longitude": 6.9873998, "source": "osm", "_tags": {"addr:city": "Gladbeck", "addr:housenumber": "1", "addr:postcode": "45964", "addr:street": "Barbarastraße", "amenity": "hospital", "check_date": "2025-07-31", "healthcare": "hospital", "name": "St. Barbara-Hospital", "operator": "Katholische Kliniken Emscher-Lippe GmbH", "operator:type": "religious", "toilets:wheelchair": "yes", "website": "https://st-barbara-hospital.eu/", "wheelchair": "yes"}}, {"name": "Marien-Hospital", "latitude": 51.4451899, "longitude": 7.3374023, "source": "osm", "_tags": {"addr:city": "Witten", "addr:country": "DE", "addr:housenumber": "2", "addr:postcode": "58452", "addr:street": "Marienplatz", "addr:suburb": "Mitte", "alt_name": "Marienhospital", "amenity": "hospital", "building": "hospital", "building:fireproof": "yes", "contact:email": "info@marien-hospital-witten.de", "contact:facebook": "https://www.facebook.com/Marien-Hospital-Witten-170568779682227/", "contact:foursquare": "4c861bf374d7b60c65d1a0d8", "contact:phone": "+49 2302 1730", "contact:website": "https://www.marien-hospital-witten.de/", "contact:yelp": "marien-hospital-witten-ggmbh-witten", "currency:EUR": "yes", "currency:others": "no", "denomination": "roman_catholic", "dog": "no", "healthcare": "hospital", "healthcare:speciality": "general", "image": "File:Witten Marienhospital.jpg", "internet_access": "wlan", "internet_access:fee": "no", "mapillary": "150561793683001", "name": "Marien-Hospital", "name:ar": "مشفى مارين", "name:en": "Marian-Hospital", "name:etymology:wikidata": "Q345", "official_name": "Marien-Hospital Witten", "opening_hours": "24/7", "operator": "St. Elisabeth Gruppe GmbH – Katholische Kliniken Rhein-Ruhr", "payment:cash": "yes", "payment:girocard": "yes", "religion": "christian", "religion:wikidata": "Q9592", "smoking": "no", "toilets": "yes", "toilets:wheelchair": "yes", "wheelchair": "yes", "wikidata": "Q1897720", "wikimedia_commons": "Category:Marienhospital Witten", "wikipedia": "de:Marienhospital Witten"}}, {"name": "Marien-Krankenhaus", "latitude": 50.9937501, "longitude": 7.1305487, "source": "osm", "_tags": {"amenity": "hospital", "check_date": "2024-04-02", "healthcare": "hospital", "name": "Marien-Krankenhaus", "toilets:wheelchair": "yes", "wheelchair": "yes"}}, {"name": "Evangelisches Krankenhaus Duisburg-Nord", "latitude": 51.515344, "longitude": 6.7657358, "source": "osm", "_tags": {"addr:city": "Duisburg", "addr:country": "DE", "addr:housenumber": "133", "addr:postcode": "47169", "addr:street": "Fahrner Straße", "amenity": "hospital", "beds": "351", "emergency": "yes", "healthcare": "hospital", "name": "Evangelisches Krankenhaus Duisburg-Nord", "operator": "Evangelisches Klinikum Niederrhein", "phone": "+4920350800", "website": "https://www.evkln.de/ueber-uns/unsere-standorte/evangelisches-krankenhaus-duisburg-nord/"}}, {"name": "Krankenhaus Wermelskirchen", "latitude": 51.1344507, "longitude": 7.2223201, "source": "osm", "_tags": {"amenity": "hospital", "emergency": "yes", "healthcare": "hospital", "name": "Krankenhaus Wermelskirchen", "operator": "Krankenhaus Wermelskirchen GmbH"}}, {"name": "Vinzenz-Pallotti-Hospital", "latitude": 50.9621118, "longitude": 7.176197, "source": "osm", "_tags": {"amenity": "hospital", "contact:phone": "+49 2204 41-0", "contact:website": "http://www.vph-bensberg.de", "emergency": "yes", "healthcare": "hospital", "name": "Vinzenz-Pallotti-Hospital", "wheelchair": "yes"}}, {"name": "Klinikzentrum Nord", "latitude": 51.5343161, "longitude": 7.4541768, "source": "osm", "_tags": {"addr:city": "Dortmund", "addr:housenumber": "240", "addr:postcode": "44145", "addr:street": "Münsterstraße", "amenity": "hospital", "healthcare": "hospital", "name": "Klinikzentrum Nord", "wikidata": "Q1658834", "wikimedia_commons": "Category:Klinikum Dortmund", "wikipedia": "de:Klinikum Dortmund"}}, {"name": "Sankt Franzikus-Hospital", "latitude": 50.9539691, "longitude": 6.9171562, "source": "osm", "_tags": {"addr:city": "Köln", "addr:housenumber": "63", "addr:postcode": "50825", "addr:street": "Schönsteinstraße", "amenity": "hospital", "healthcare": "hospital", "name": "Sankt Franzikus-Hospital", "operator": "Cellitinnen zur hl. Maria", "website": "https://www.stfranziskus.de/", "wikidata": "Q17373662", "wikimedia_commons": "Category:St. Franziskus-Hospital Köln"}}, {"name": "Heilig-Geist-Krankenhaus", "latitude": 50.9915588, "longitude": 6.9252613, "source": "osm", "_tags": {"addr:city": "Köln", "addr:housenumber": "105", "addr:postcode": "50737", "addr:street": "Graseggerstraße", "amenity": "hospital", "emergency": "yes", "name": "Heilig-Geist-Krankenhaus", "operator": "Stiftung der Cellitinnen zur hl. Maria", "website": "https://www.hgk-koeln.de/", "wikidata": "Q105714320", "wikimedia_commons": "Category:Heilig-Geist-Krankenhaus Köln-Longerich"}}, {"name": "Universitätsklinikum Knappschaftskrankenhaus Bochum", "latitude": 51.4640955, "longitude": 7.3272049, "source": "osm", "_tags": {"addr:city": "Bochum", "addr:country": "DE", "addr:housenumber": "23-25", "addr:postcode": "44892", "addr:street": "In der Schornau", "amenity": "hospital", "emergency": "yes", "healthcare": "hospital", "name": "Universitätsklinikum Knappschaftskrankenhaus Bochum", "wikidata": "Q1776898"}}, {"name": "AMEOS Klinikum St. Josef Oberhausen", "latitude": 51.476878, "longitude": 6.8628217, "source": "osm", "_tags": {"addr:city": "Oberhausen", "addr:housenumber": "83", "addr:postcode": "46045", "addr:street": "Mülheimer Straße", "amenity": "hospital", "healthcare": "hospital", "name": "AMEOS Klinikum St. Josef Oberhausen", "operator": "Ameos", "operator:type": "business", "operator:wikidata": "Q462865", "website": "https://www.ameos.de/klinikum-st-josef-oberhausen", "wikidata": "Q44736480"}}, {"name": "LWL-Klinik Herten", "latitude": 51.5910609, "longitude": 7.1259954, "source": "osm", "_tags": {"amenity": "hospital", "name": "LWL-Klinik Herten", "operator": "LWL"}}, {"name": "St. Elisabeth Hospital", "latitude": 51.5922184, "longitude": 7.1241373, "source": "osm", "_tags": {"addr:city": "Herten", "addr:country": "DE", "addr:housenumber": "12", "addr:postcode": "45699", "addr:street": "Im Schloßpark", "amenity": "hospital", "contact:email": "info@st-elisabeth-hospital.de", "contact:fax": "+49 2366 15-3099", "contact:phone": "+49 2366 15-0", "emergency": "yes", "healthcare": "hospital", "healthcare:speciality": "orthopaedics;emergency;general;internal;radiology", "name": "St. Elisabeth Hospital", "operator": "St. Elisabeth-Hospital Herten gGmbH"}}, {"name": "Gertrudis-Hospital Westerholt", "latitude": 51.5999101, "longitude": 7.085608, "source": "osm", "_tags": {"addr:city": "Herten", "addr:housenumber": "23", "addr:postcode": "45701", "addr:street": "Kuhstraße", "amenity": "hospital", "contact:email": "westerholt@kkrn.de", "contact:fax": "+49 209 6191 109", "contact:phone": "+49 209 6191 0", "emergency": "yes", "healthcare": "hospital", "healthcare:speciality": "surgery;internal;emergency;geriatrics", "name": "Gertrudis-Hospital Westerholt", "operator": "KKRN Katholisches Klinikum Ruhrgebiet Nord GmbH"}}, {"name": "Katholisches Krankenhaus Dortmund-West", "latitude": 51.5240469, "longitude": 7.3672633, "source": "osm", "_tags": {"addr:city": "Dortmund", "addr:country": "DE", "addr:housenumber": "40", "addr:postcode": "44379", "addr:street": "Zollernstraße", "amenity": "hospital", "emergency": "yes", "healthcare": "hospital", "name": "Katholisches Krankenhaus Dortmund-West", "operator": "Katholische St. Lukas Gesellschaft", "wikidata": "Q15116418", "wikipedia": "de:Katholisches Krankenhaus Dortmund-West"}}, {"name": "Marienhospital Bottrop", "latitude": 51.5341244, "longitude": 6.9179798, "source": "osm", "_tags": {"amenity": "hospital", "healthcare": "hospital", "name": "Marienhospital Bottrop", "wheelchair": "yes", "wikidata": "Q50038656"}}, {"name": "Klinikum Vest Recklinghausen", "latitude": 51.6199652, "longitude": 7.1759926, "source": "osm", "_tags": {"addr:city": "Recklinghausen", "addr:housenumber": "151", "addr:postcode": "45657", "addr:street": "Dorstener Straße", "amenity": "hospital", "email": "info@klinikum-vest.de", "emergency": "yes", "healthcare": "hospital", "healthcare:speciality": "trauma", "name": "Klinikum Vest Recklinghausen", "operator": "Klinikum Vest GmbH", "phone": "+49 2361 560", "website": "https://www.klinikum-vest.de/Inhalt/Kliniken_Zentren_Bereiche/Knappschaftskrankenhaus_Recklinghausen/", "wikidata": "Q23788064", "wikipedia": "de:Knappschaftskrankenhaus Recklinghausen"}}, {"name": "Marien-Hospital Marl", "latitude": 51.6524123, "longitude": 7.0840208, "source": "osm", "_tags": {"addr:city": "Marl", "addr:housenumber": "57", "addr:postcode": "45768", "addr:street": "Hervester Straße", "amenity": "hospital", "email": "marl@kkrn.de", "emergency": "yes", "fax": "+49 2365 911 300", "healthcare": "hospital", "name": "Marien-Hospital Marl", "operator": "KKRN Katholisches Klinikum Ruhrgebiet Nord GmbH", "phone": "+49 2365 911 0", "website": "https://www.kkrn.de/marien-hospital-marl/startseite/", "wheelchair": "yes"}}, {"name": "St. Rochus-Hospital", "latitude": 51.5468489, "longitude": 7.3159072, "source": "osm", "_tags": {"addr:city": "Castrop-Rauxel", "addr:housenumber": "10", "addr:postcode": "44575", "addr:street": "Glückaufstraße", "amenity": "hospital", "healthcare": "hospital", "name": "St. Rochus-Hospital", "phone": "+49 2305 294 0", "website": "http://www.st-rochus-hospital.de/", "wheelchair": "limited", "wikidata": "Q15129799"}}, {"name": "Evangelisches Krankenhaus Castrop-Rauxel", "latitude": 51.5673349, "longitude": 7.3199585, "source": "osm", "_tags": {"amenity": "hospital", "healthcare": "hospital", "name": "Evangelisches Krankenhaus Castrop-Rauxel", "phone": "+49 2305 1020", "website": "https://www.evk-castrop-rauxel.de/"}}, {"name": "St.-Laurentius-Stift", "latitude": 51.6208689, "longitude": 7.3873629, "source": "osm", "_tags": {"addr:city": "Waltrop", "addr:housenumber": "20", "addr:postcode": "45731", "addr:street": "Hochstraße", "amenity": "hospital", "healthcare": "hospital", "name": "St.-Laurentius-Stift", "phone": "+49 2309 63 1", "website": "https://www.laurentius-stift.de", "wheelchair": "yes"}}, {"name": "Klinik Roderbirken", "latitude": 51.1043703, "longitude": 7.0380879, "source": "osm", "_tags": {"amenity": "hospital", "healthcare": "hospital", "name": "Klinik Roderbirken", "operator": "Deutsche Rentenversicherung Rheinland", "website": "https://www.klinik-roderbirken.de/", "wheelchair": "yes", "wikidata": "Q50038635"}}, {"name": "Kath. Klinikum Philippusstift", "latitude": 51.4754955, "longitude": 6.9496125, "source": "osm", "_tags": {"amenity": "hospital", "contact:facebook": "https://www.facebook.com/katholischesklinikumessen", "contact:twitter": "https://twitter.com/KK_Essen", "contact:website": "http://www.kkenw.de/", "contact:xing": "https://www.xing.com/companies/katholischesklinikumessengmbh", "contact:youtube": "https://www.youtube.com/channel/UCPOcn-4-dudmKI93C-ZpF4g", "healthcare": "hospital", "name": "Kath. Klinikum Philippusstift", "toilets:wheelchair": "yes", "wheelchair": "limited", "wikidata": "Q60423219"}}, {"name": "Johanniter-Krankenhaus", "latitude": 51.5096489, "longitude": 6.8539064, "source": "osm", "_tags": {"amenity": "hospital", "emergency": "yes", "healthcare": "hospital", "healthcare:speciality": "psychiatry", "name": "Johanniter-Krankenhaus", "operator": "Johanniterorden", "wheelchair": "yes", "wikidata": "Q1698980"}}, {"name": "Dreifaltigkeits-Krankenhaus", "latitude": 50.8217851, "longitude": 6.9853126, "source": "osm", "_tags": {"addr:city": "Wesseling", "addr:country": "DE", "addr:housenumber": "84", "addr:postcode": "50389", "addr:street": "Bonner Straße", "amenity": "hospital", "contact:email": "info@krankenhaus-wesseling.de", "contact:fax": "+49 2236 77398", "contact:instagram": "https://www.instagram.com/krankenhaus_wesseling/", "contact:phone": "+49 2236 771", "contact:website": "https://www.krankenhaus-wesseling.de/", "emergency": "yes", "healthcare": "hospital", "heritage": "8", "heritage:operator": "UntereDenkmalbehörde", "historic": "building", "name": "Dreifaltigkeits-Krankenhaus", "operator": "Katharina Kasper ViaSalus GmbH", "operator:type": "religious", "ref": "69", "start_date": "1915", "wikidata": "Q19856805", "wikipedia": "de:Dreifaltigkeits-Krankenhaus Wesseling"}}, {"name": "St. Elisabeth-Krankenhaus", "latitude": 51.4028625, "longitude": 7.1350495, "source": "osm", "_tags": {"amenity": "hospital", "emergency": "yes", "healthcare": "hospital", "healthcare:speciality": "internal;psychiatry", "name": "St. Elisabeth-Krankenhaus", "operator": "Kath.Kliniken Ruhrhalbinsel"}}, {"name": "Evangelisches Krankenhaus Köln-Weyertal", "latitude": 50.9276265, "longitude": 6.9255891, "source": "osm", "_tags": {"addr:city": "Köln", "addr:country": "DE", "addr:housenumber": "76", "addr:postcode": "50931", "addr:street": "Weyertal", "amenity": "hospital", "contact:website": "https://www.evk-koeln.de/", "healthcare": "hospital", "name": "Evangelisches Krankenhaus Köln-Weyertal"}}, {"name": "Klinikum Solingen", "latitude": 51.1847942, "longitude": 7.0701213, "source": "osm", "_tags": {"amenity": "hospital", "healthcare": "hospital", "name": "Klinikum Solingen", "notice": "Campus-Plan:https://www.klinikumsolingen.de/media/05-patienten-besucher/Klinikum_Solingen_Uebersichtsplan_final_ZW.pdf"}}, {"name": "Sana Kinder- und Jugendpsychiatrie", "latitude": 51.2500355, "longitude": 7.1440753, "source": "osm", "_tags": {"amenity": "hospital", "check_date": "2025-05-04", "email": "kjp-wuppertal@sana.de", "healthcare": "hospital", "name": "Sana Kinder- und Jugendpsychiatrie", "opening_hours": "Mo-Th 08:30-12:00,13:00-16:00; Fr 08:30-12:00,13:00-14:30", "phone": "+49 202 758450", "website": "https://www.sana.de/remscheid/medizin-pflege/zentrum-fuer-seelische-gesundheit-des-kindes-und-jugendalters/ambulanzen-sprechstunden-1"}}, {"name": "Sana-Krankenhaus Radevormwald", "latitude": 51.1984382, "longitude": 7.3511309, "source": "osm", "_tags": {"addr:city": "Radevormwald", "addr:housenumber": "33", "addr:postcode": "42477", "addr:street": "Siepenstraße", "amenity": "hospital", "contact:email": "info-rvw@sana.de", "contact:fax": "+49 2195 600155", "contact:phone": "+49 2195 6000", "contact:website": "https://www.sana-radevormwald.de", "emergency": "yes", "healthcare": "hospital", "healthcare:speciality": "anesthesia;geriatrics;internal;surgery", "name": "Sana-Krankenhaus Radevormwald", "opening_hours": "24/7", "operator": "Sana Krankenhaus Radevormwald gGmbH", "wheelchair": "yes"}}, {"name": "Krankenhaus St. Josef", "latitude": 51.2595431, "longitude": 7.14297, "source": "osm", "_tags": {"amenity": "hospital", "contact:email": "info.kh-josef@cellitinnen.de", "contact:fax": "+49 202 485-2909", "contact:phone": "+49 202 485-0", "contact:website": "https://www.krankenhaus-st-josef-wuppertal.de", "emergency": "yes", "healthcare": "hospital", "name": "Krankenhaus St. Josef", "operator": "Klinikverbund St. Antonius und St. Josef GmbH", "operator:wikidata": "Q1774664", "operator:wikipedia": "de:Klinikverbund St. Antonius und St. Josef", "wheelchair": "yes"}}, {"name": "HELIOS-Klinik Elberfeld", "latitude": 51.2501479, "longitude": 7.1331649, "source": "osm", "_tags": {"addr:housenumber": "20", "addr:street": "Arrenberger Straße", "amenity": "hospital", "healthcare": "hospital", "name": "HELIOS-Klinik Elberfeld", "operator": "Helios Kliniken", "operator:type": "private", "operator:wikidata": "Q1254151", "operator:wikipedia": "de:Helios Kliniken", "wheelchair": "yes"}}, {"name": "Evangelische Stiftung Tannenhof", "latitude": 51.2056692, "longitude": 7.2259558, "source": "osm", "_tags": {"addr:city": "Remscheid", "addr:housenumber": "76", "addr:postcode": "42899", "addr:street": "Remscheider Straße", "amenity": "hospital", "healthcare": "hospital", "name": "Evangelische Stiftung Tannenhof", "phone": "+49 2191 120", "website": "https://www.stiftung-tannenhof.de/", "wheelchair": "yes", "wikidata": "Q2349180", "wikipedia": "de:Evangelische Stiftung Tannenhof"}}, {"name": "Sankt-Marien-Hospital Buer", "latitude": 51.5818964, "longitude": 7.048076, "source": "osm", "_tags": {"addr:city": "Gelsenkirchen", "addr:country": "DE", "addr:housenumber": "5", "addr:postcode": "45894", "addr:street": "Mühlenstraße", "amenity": "hospital", "contact:website": "http://www.marienhospital-buer.de/", "healthcare": "hospital", "name": "Sankt-Marien-Hospital Buer", "toilets:wheelchair": "yes", "wheelchair": "yes"}}, {"name": "Knappschaftskrankenhaus Lütgendortmund", "latitude": 51.5027431, "longitude": 7.3300121, "source": "osm", "_tags": {"addr:city": "Dortmund", "addr:housenumber": "40", "addr:postcode": "44388", "addr:street": "Volksgartenstraße", "amenity": "hospital", "emergency": "yes", "health_facility:type": "hospital", "healthcare": "hospital", "medical_system:western": "yes", "name": "Knappschaftskrankenhaus Lütgendortmund", "old_name": "Evangelisches Krankenhaus Lütgendortmund", "type": "health", "wikidata": "Q19965218", "wikipedia": "de:Knappschaftskrankenhaus Lütgendortmund"}}, {"name": "Rheinland Klinikum Dormagen", "latitude": 51.0730179, "longitude": 6.8086842, "source": "osm", "_tags": {"addr:city": "Dormagen", "addr:country": "DE", "addr:housenumber": "20", "addr:postcode": "41540", "addr:street": "Dr.-Geldmacher-Straße", "alt_name": "KKH-DO", "amenity": "hospital", "email": "info@rheinlandklinikum.de", "emergency": "yes", "healthcare": "hospital", "internet_access": "wlan", "name": "Rheinland Klinikum Dormagen", "old_name": "Kreiskrankenhaus Dormagen", "phone": "+49 2133 660", "website": "https://rheinlandklinikum.de", "wikidata": "Q22674539"}}, {"name": "Krankenhaus Holweide", "latitude": 50.9665107, "longitude": 7.0581037, "source": "osm", "_tags": {"amenity": "hospital", "emergency": "yes", "healthcare": "hospital", "name": "Krankenhaus Holweide", "operator": "Kliniken der Stadt Köln gGmbH", "phone": "+49 221 89070", "website": "https://www.kliniken-koeln.de/Krankenhaus_Holweide_Startseite.htm", "wheelchair": "yes"}}, {"name": "Helios Klinik Wipperfürth", "latitude": 51.1132873, "longitude": 7.3855148, "source": "osm", "_tags": {"addr:city": "Wipperfürth", "addr:housenumber": "9", "addr:postcode": "51688", "addr:street": "Alte-Kölner-Straße", "amenity": "hospital", "healthcare": "hospital", "name": "Helios Klinik Wipperfürth", "operator": "Helios Kliniken", "operator:type": "private", "operator:wikidata": "Q1254151"}}, {"name": "GFO Kliniken Mettmann-Süd St. Martinus Krankenhaus", "latitude": 51.1303956, "longitude": 6.9416178, "source": "osm", "_tags": {"amenity": "hospital", "email": "krankenhaus@stmartinus-langenfeld.de", "emergency": "yes", "fax": "+49 2173 77482", "health_facility:type": "hospital", "healthcare": "hospital", "medical_system:western": "yes", "name": "GFO Kliniken Mettmann-Süd St. Martinus Krankenhaus", "operator": "Gemeinnützige Gesellschaft der Franziskanerinnen zu Olpe, Maria-Theresia-Str. 30a, 57462 Olpe"}}, {"name": "Knappschaftskrankenhaus Lütgendortmund", "latitude": 51.5027431, "longitude": 7.3300121, "source": "osm", "_tags": {"amenity": "hospital", "emergency": "yes", "name": "Knappschaftskrankenhaus Lütgendortmund", "type": "site"}}, {"name": "Klinikzentrum Mitte", "latitude": 51.5083612, "longitude": 7.4574824, "source": "osm", "_tags": {"abbreviation": "K 1", "addr:city": "Dortmund", "addr:country": "DE", "addr:housenumber": "40", "addr:postcode": "44137", "addr:street": "Beurhausstraße", "amenity": "hospital", "emergency": "yes", "name": "Klinikzentrum Mitte", "old_name": "Städtische Kliniken Dortmund", "operator": "Klinikum Dortmund gGmbH", "phone": "+49 231 953-0", "toilets:wheelchair": "yes", "type": "site", "website": "https://www.klinikumdo.de/", "wheelchair": "yes"}}, {"name": "Wohn- und Pflegezentrum St. Barbara", "latitude": 51.5027166, "longitude": 7.3268089, "source": "osm", "_tags": {"amenity": "hospital", "name": "Wohn- und Pflegezentrum St. Barbara", "operator": "Caritas Dortmund", "type": "site"}}, {"name": "Sankt Josefs Krankenhaus", "latitude": 51.1681662, "longitude": 6.9430442, "source": "osm", "_tags": {"addr:city": "Hilden", "addr:housenumber": "34-38", "addr:postcode": "40724", "addr:street": "Walder Straße", "amenity": "hospital", "building": "yes", "emergency": "yes", "fax": "+49  2103 8290", "healthcare": "hospital", "name": "Sankt Josefs Krankenhaus", "operator": "Kplus Gruppe", "phone": "+49 2103 8 99-0", "type": "multipolygon", "website": "https://www.st-josefs-krankenhaus.de", "wheelchair": "yes"}}, {"name": "Fabricius-Klinik", "latitude": 51.1801037, "longitude": 7.1805716, "source": "osm", "_tags": {"addr:city": "Remscheid", "addr:housenumber": "65", "addr:postcode": "42853", "addr:street": "Brüderstraße", "amenity": "hospital", "building": "hospital", "emergency": "no", "healthcare": "hospital", "name": "Fabricius-Klinik", "note:opening_hours": "for visitors", "opening_hours": "10:00-20:00", "type": "multipolygon"}}, {"name": "Universitätsklinikum Düsseldorf", "latitude": 51.1959746, "longitude": 6.7894365, "source": "osm", "_tags": {"addr:city": "Düsseldorf", "addr:country": "DE", "addr:housenumber": "5", "addr:postcode": "40225", "addr:street": "Moorenstraße", "amenity": "hospital", "description": "Gelände des Universitätsklinikums Düsseldorf", "emergency": "yes", "health_facility:type": "hospital", "healthcare": "hospital", "healthcare:speciality": "intensive;cardiology", "medical_system:western": "yes", "name": "Universitätsklinikum Düsseldorf", "name:en": "University Hospital Duesseldorf", "phone": "+49 211 8100", "type": "multipolygon", "website": "https://www.uniklinik-duesseldorf.de/", "wheelchair": "yes", "wikidata": "Q2496389", "wikipedia": "de:Universitätsklinikum Düsseldorf"}}, {"name": "Sana-Klinikum Remscheid", "latitude": 51.1614079, "longitude": 7.1893804, "source": "osm", "_tags": {"amenity": "hospital", "email": "skr-info@sana.de", "emergency": "yes", "fax": "+49 2191 13-3116", "healthcare": "hospital", "name": "Sana-Klinikum Remscheid", "phone": "+49 2191 13-0", "type": "multipolygon", "website": "https://www.sana.de/remscheid"}}, {"name": "Fachklinik 360°", "latitude": 51.3000991, "longitude": 6.859167, "source": "osm", "_tags": {"addr:city": "Ratingen", "addr:country": "DE", "addr:housenumber": "2", "addr:postcode": "40882", "addr:street": "Rosenstraße", "amenity": "hospital", "building": "hospital", "building:use:healthcare": "yes", "fax": "+49 2102 206 282", "healthcare": "hospital", "name": "Fachklinik 360°", "old_name": "Evangelisches Fachkrankenhaus", "phone": "+49 2102 206 0", "type": "multipolygon", "website": "http://www.clinic.de/", "wheelchair": "yes"}}, {"name": "Städtisches Klinikum Leverkusen", "latitude": 51.0323413, "longitude": 7.0331652, "source": "osm", "_tags": {"addr:city": "Leverkusen", "addr:housenumber": "11", "addr:postcode": "51375", "addr:street": "Am Gesundheitspark", "amenity": "hospital", "building": "hospital", "contact:facebook": "klinikumlev", "contact:instagram": "klinikumleverkusen", "contact:phone": "+49 214 13-0", "contact:website": "http://www.klinikum-lev.de/", "emergency": "yes", "healthcare": "hospital", "name": "Städtisches Klinikum Leverkusen", "name:en": "Leverkusen Municipal Hospital", "name:es": "Hospital Municipal de Leverkusen", "name:it": "Ospedale municipale di Leverkusen", "ref": "1", "toilets:wheelchair": "yes", "type": "multipolygon", "wheelchair": "yes", "wikidata": "Q1774630"}}, {"name": "Marienkrankenhaus Schützenstraße", "latitude": 51.44448, "longitude": 7.5746686, "source": "osm", "_tags": {"addr:city": "Schwerte", "addr:housenumber": "9", "addr:postcode": "58239", "addr:street": "Schützenstraße", "amenity": "hospital", "building": "hospital", "building:levels": "3", "healthcare": "hospital", "name": "Marienkrankenhaus Schützenstraße", "operator": "Marienkrankenhaus gGmbH", "roof:levels": "1", "roof:shape": "many", "type": "multipolygon", "website": "https://www.marien-kh.de/", "wheelchair": "yes"}}, {"name": "Klinik am Park", "latitude": 51.5900766, "longitude": 7.4421823, "source": "osm", "_tags": {"addr:city": "Lünen", "addr:country": "DE", "addr:housenumber": "59", "addr:postcode": "44536", "addr:street": "Brechtener Straße", "amenity": "hospital", "building": "civic", "healthcare": "hospital", "name": "Klinik am Park", "type": "multipolygon", "website": "http://www.krankenhaus-brambauer.de/", "wheelchair": "yes"}}, {"name": "Hüttenhospital", "latitude": 51.480713, "longitude": 7.5098542, "source": "osm", "_tags": {"abbreviation": "K15", "addr:city": "Dortmund", "addr:country": "DE", "addr:housenumber": "28", "addr:postcode": "44269", "addr:street": "Am Marksbach", "amenity": "hospital", "building": "hospital", "building:levels": "4", "healthcare": "hospital", "name": "Hüttenhospital", "roof:levels": "1", "source": "HiRes aerial imagery", "type": "multipolygon", "wikidata": "Q19965026", "wikipedia": "de:Hüttenhospital"}}, {"name": "Helios Klinik Wipperfürth", "latitude": 51.1130653, "longitude": 7.385356, "source": "osm", "_tags": {"addr:city": "Wipperfürth", "addr:housenumber": "9", "addr:postcode": "51688", "addr:street": "Alte-Kölner-Straße", "amenity": "hospital", "building": "hospital", "emergency": "yes", "healthcare": "hospital", "name": "Helios Klinik Wipperfürth", "operator": "Helios Kliniken", "operator:type": "private", "operator:wikidata": "Q1254151", "phone": "+49 2267 8890", "type": "multipolygon", "website": "http://www.helios-kliniken.de/klinik/wipperfuerth"}}, {"name": "St.-Elisabeth Krankenhaus Dortmund-Kurl", "latitude": 51.5543461, "longitude": 7.5829378, "source": "osm", "_tags": {"addr:city": "Dortmund", "addr:country": "DE", "addr:housenumber": "130", "addr:postcode": "44319", "addr:street": "Kurler Straße", "amenity": "hospital", "building": "yes", "emergency": "no", "fixme": "Umrisse", "healthcare": "hospital", "name": "St.-Elisabeth Krankenhaus Dortmund-Kurl", "rd_do:kh": "K 8", "source": "HiRes aerial imagery", "type": "multipolygon", "website": "https://www.elisabeth-dortmund.de/", "wikidata": "Q19965795", "wikipedia": "de:St.-Elisabeth-Krankenhaus Dortmund-Kurl"}}, {"name": "St.-Josefs-Hospital K14", "latitude": 51.4851208, "longitude": 7.5052045, "source": "osm", "_tags": {"addr:city": "Dortmund", "addr:country": "DE", "addr:housenumber": "4", "addr:postcode": "44263", "addr:street": "Wilhelm-Schmidt-Straße", "amenity": "hospital", "building": "yes", "healthcare": "hospital", "name": "St.-Josefs-Hospital K14", "phone": "+49 231 4342-0", "source": "HiRes aerial imagery", "type": "multipolygon"}}, {"name": "Kinderklinik", "latitude": 51.4344666, "longitude": 6.9883943, "source": "osm", "_tags": {"building": "hospital", "healthcare": "hospital", "healthcare:speciality": "paediatrics", "name": "Kinderklinik", "toilets:wheelchair": "yes", "type": "multipolygon", "wheelchair": "yes"}}, {"name": "A", "latitude": 51.2761339, "longitude": 7.1908582, "source": "osm", "_tags": {"addr:city": "Wuppertal", "addr:country": "DE", "addr:housenumber": "60", "addr:postcode": "42283", "addr:street": "Carnaper Straße", "building": "hospital", "building:levels": "4;3", "healthcare": "hospital", "name": "A", "roof:levels": "1", "toilets:wheelchair": "yes", "type": "multipolygon", "wheelchair": "yes"}}, {"name": "Universitätsklinikum Essen", "latitude": 51.4347056, "longitude": 6.9883548, "source": "osm", "_tags": {"amenity": "hospital", "emergency": "yes", "healthcare": "hospital", "name": "Universitätsklinikum Essen", "operator": "Universitätsklinikum Essen", "phone": "+49 201 723-0", "short_name": "UK Essen", "type": "multipolygon", "website": "https://www.uk-essen.de", "wheelchair": "yes", "wikidata": "Q2496379"}}, {"name": "Christliches Klinikum Unna gGmbH / Standort West (CKU West)", "latitude": 51.5333427, "longitude": 7.6765396, "source": "osm", "_tags": {"addr:city": "Unna", "addr:housenumber": "10", "addr:postcode": "59423", "addr:street": "Holbeinstraße", "amenity": "hospital", "building": "hospital", "building:levels": "6", "emergency": "yes", "healthcare": "hospital", "name": "Christliches Klinikum Unna gGmbH / Standort West (CKU West)", "phone": "+49 2303 1060", "roof:levels": "0", "roof:shape": "flat", "type": "multipolygon", "wheelchair": "yes"}}]