[{"name": "Nemocnice Frýdlant - gynekologie", "latitude": 50.9260298, "longitude": 15.0880617, "source": "osm", "_tags": {"addr:postcode": "46401", "amenity": "doctors", "healthcare": "hospital", "healthcare:speciality": "gynaecology", "name": "Nemocnice Frýdlant - gynekologie", "website": "http://www.nemfry.cz"}}, {"name": "Zakład Opiekuńczo-Leczniczy", "latitude": 51.1615644, "longitude": 14.9945085, "source": "osm", "_tags": {"amenity": "hospital", "healthcare": "hospital", "name": "Zakład Opiekuńczo-Leczniczy"}}, {"name": "Łużyckie Centrum Medyczne", "latitude": 51.1162022, "longitude": 15.2710671, "source": "osm", "_tags": {"addr:city": "Lubań", "addr:housenumber": "4", "addr:postcode": "59-800", "addr:street": "Zawidowska", "amenity": "hospital", "name": "Łużyckie Centrum Medyczne", "website": "http://www.lcm-luban.pl/"}}, {"name": "Pogotowie, Nocna i Świąteczna Opieka Lekarska", "latitude": 51.7870131, "longitude": 14.9693221, "source": "osm", "_tags": {"addr:city": "Lubsko", "addr:city:simc": "0988490", "addr:housenumber": "4", "addr:postcode": "68-300", "addr:street": "Mikołaja Reja", "amenity": "hospital", "building:levels": "2", "healthcare": "hospital", "name": "Pogotowie, Nocna i Świąteczna Opieka Lekarska", "source:addr": "lubsko.e-mapa.net"}}, {"name": "Klinikum Oberlausitzer Bergland", "latitude": 50.899379, "longitude": 14.8211595, "source": "osm", "_tags": {"addr:city": "Zittau", "addr:country": "DE", "addr:housenumber": "8", "addr:postcode": "02763", "addr:street": "Görlitzer Straße", "amenity": "hospital", "emergency": "yes", "fax": "+49 3583 881000", "healthcare": "hospital", "name": "Klinikum Oberlausitzer Bergland", "operator": "Klinikum Oberlausitzer Bergland gemeinnützige GmbH", "phone": "+49 3583 880", "website": "https://www.klinikum-oberlausitzer-bergland.de/", "wheelchair": "yes"}}, {"name": "Szpital Na Wyspie", "latitude": 51.793966, "longitude": 14.9746803, "source": "osm", "_tags": {"addr:city": "Lubsko", "addr:city:simc": "0988490", "addr:housenumber": "1a", "addr:postcode": "68-300", "addr:street": "Pokoju", "amenity": "hospital", "building": "yes", "healthcare": "hospital", "name": "Szpital Na Wyspie", "operator": "Szpital Na Wyspie Sp. z o.o.", "source:addr": "lubsko.e-mapa.net", "url": "https://fotopolska.eu/NZOZ_Szpital_na_Wyspie_Sp._z_o.o._Lubsko?map_z=17"}}, {"name": "Städtisches Klinikum Görlitz", "latitude": 51.1612278, "longitude": 14.9709757, "source": "osm", "_tags": {"addr:city": "Görlitz", "addr:country": "DE", "addr:housenumber": "1-3", "addr:postcode": "02828", "addr:street": "Girbigsdorfer Straße", "amenity": "hospital", "contact:fax": "+49 3581 371109", "contact:phone": "+49 3581 370", "contact:website": "http://www.klinikum-goerlitz.de", "dog": "no", "emergency": "yes", "healthcare": "hospital", "heritage": "4", "heritage:operator": "lfd", "name": "Städtisches Klinikum Görlitz", "operator": "Städtisches Klinikum Görlitz gGmbH", "operator:type": "government", "photography": "no", "ref:lfd": "09302671", "start_date": "1905", "surveillance": "yes", "wikidata": "Q1431657", "wikimedia_commons": "Category:Klinikum Görlitz"}}, {"name": "Ośrodek Rehabilitacji im. prof. dr. Wiktora Degi", "latitude": 51.1464339, "longitude": 15.00728, "source": "osm", "_tags": {"addr:city": "Zgorzelec", "addr:housenumber": "5", "addr:postcode": "59-900", "addr:street": "Stanisława Konarskiego", "alt_name": "Centrum Fizjoterapii", "amenity": "hospital", "description": "rehabilitacja w warunkach stacjonarnych", "emergency": "no", "healthcare": "hospital", "name": "Ośrodek Rehabilitacji im. prof. dr. Wiktora Degi", "name:de": "Rehabilitationszentrum Professor Dr. Wiktor Dega", "name:en": "Dega Rehabilitation Centre", "name:pl": "Ośrodek Rehabilitacji im. prof. dr. Wiktora Degi", "official_name": "Ośrodek Rehabilitacji Narządu Ruchu dla Dorosłych i Dzieci im. prof. dr. Wiktora Degi Wielospecjalistycznego Szpitala - SP ZOZ w Zgorzelcu", "operator": "Wielospecjalistyczny Szpital SPZOZ w Zgorzelcu"}}, {"name": "Wojewódzki Szpital dla Nerwowo i Psychicznie Chorych w Sieniawce", "latitude": 50.8920507, "longitude": 14.8395505, "source": "osm", "_tags": {"addr:city": "Sieniawka", "addr:country": "PL", "addr:housenumber": "25", "addr:postcode": "59-921", "addr:street": "Rolnicza", "amenity": "hospital", "building": "hospital", "healthcare": "hospital", "name": "Wojewódzki Szpital dla Nerwowo i Psychicznie Chorych w Sieniawce"}}, {"name": "Szpital SPZOZ w Bogatynii", "latitude": 50.907111, "longitude": 14.9704675, "source": "osm", "_tags": {"addr:city": "Bogatynia", "addr:housenumber": "16", "addr:postcode": "59-920", "addr:street": "Szpitalna", "amenity": "hospital", "building": "public", "building:levels": "3", "name": "Szpital SPZOZ w Bogatynii", "operator": "Samodzielny Publiczny Zespół Opieki Zdrowotnej w Bogatyni", "source:building": "BDOT", "source:geometry": "EGiB", "website": "http://www.zozbogatynia.pl/index.php/szpital"}}, {"name": "", "latitude": 51.0178728, "longitude": 15.4175123, "source": "osm", "_tags": {"addr:city": "Gryfów Śląski", "addr:housenumber": "25", "addr:postcode": "59-620", "addr:street": "Rzeczna", "healthcare": "hospital", "leaf_cycle": "evergreen", "leaf_type": "needleleaved", "operator": "Powiatowe Centrum Zdrowia", "website": "https://www.pczlwowek.pl"}}, {"name": "FILIA 105. Kresowy Szpital Wojskowy z Przychodnią SPZOZ", "latitude": 51.6125567, "longitude": 15.3318791, "source": "osm", "_tags": {"addr:city": "Żagań", "addr:housenumber": "1", "addr:postcode": "68-100", "addr:street": "Żelazna", "amenity": "hospital", "email": "info@105szpital.pl", "emergency": "no", "healthcare": "hospital", "name": "FILIA 105. Kresowy Szpital Wojskowy z Przychodnią SPZOZ", "phone": "+48 68 477 12 02", "website": "https://www.105szpital.pl/"}}, {"name": "Krankenhaus Emmaus Niesky", "latitude": 51.2944515, "longitude": 14.8168599, "source": "osm", "_tags": {"addr:city": "Niesky", "addr:housenumber": "24", "addr:postcode": "02906", "addr:street": "Plittstraße", "amenity": "hospital", "building": "hospital", "emergency": "yes", "healthcare": "hospital", "healthcare:speciality": "surgery;internal;anaesthetics", "name": "Krankenhaus Emmaus Niesky", "operator": "Diakonissen Anstalt Dresden", "operator:type": "religious", "phone": "+49 3588 2640", "website": "https://www.diako-dresden.de/medizinische-versorgung/krankenhaus-emmaus-niesky", "wheelchair": "yes"}}, {"name": "PJ-Med Rehabilitacja", "latitude": 50.9746087, "longitude": 15.5262701, "source": "osm", "_tags": {"amenity": "hospital", "name": "PJ-Med Rehabilitacja", "phone": "+48 75 789 13 30", "website": "http://www.rehabilitacja-popielowek.pl/"}}, {"name": "Szpital Powiatowy", "latitude": 51.1578374, "longitude": 15.0109327, "source": "osm", "_tags": {"addr:city": "Zgorzelec", "addr:housenumber": "11-12", "addr:postcode": "59-900", "addr:street": "Lubańska", "amenity": "hospital", "building": "yes", "emergency": "yes", "healthcare": "hospital", "name": "Szpital Powiatowy", "official_name": "Wielospecjalistyczny Szpital SPZOZ w Zgorzelcu"}}, {"name": "Izerskie Centrum Pulmonologii i Chemioterapii „IZER-MED” Oddział przy ul. Szpitalnej 1", "latitude": 50.8329271, "longitude": 15.522358, "source": "osm", "_tags": {"amenity": "hospital", "name": "Izerskie Centrum Pulmonologii i Chemioterapii „IZER-MED” Oddział przy ul. Szpitalnej 1"}}, {"name": "Malteser Krankenhaus St. Carolus", "latitude": 51.1444812, "longitude": 14.9389312, "source": "osm", "_tags": {"addr:city": "Görlitz", "addr:country": "DE", "addr:housenumber": "212", "addr:postcode": "02827", "addr:street": "Carolusstraße", "amenity": "hospital", "brand": "Malteser Hilfsdienst", "brand:wikidata": "Q1318397", "contact:email": "info@carolus-goerlitz.de", "contact:fax": "+49 3581 721993", "contact:phone": "+49 3581 720", "contact:website": "https://www.malteser-krankenhaus-stcarolus.de", "emergency": "yes", "healthcare": "hospital", "heritage": "4", "heritage:operator": "lfd", "name": "Malteser Krankenhaus St. Carolus", "operator": "Malteser Sachsen-Brandenburg gGmbH", "ref:lfd": "09282676", "start": "1927", "start_date": "1927", "wheelchair": "yes", "wikidata": "Q1786549", "wikipedia": "de:Krankenhaus St. Carolus (Görlitz)"}}, {"name": "", "latitude": 51.6439227, "longitude": 15.1528136, "source": "osm", "_tags": {"amenity": "hospital", "healthcare": "hospital"}}, {"name": "105. Kresowy Szpital Wojskowy z Przychodnią SP ZOZ w Żarach", "latitude": 51.6430353, "longitude": 15.1481561, "source": "osm", "_tags": {"amenity": "hospital", "healthcare": "hospital", "name": "105. Kresowy Szpital Wojskowy z Przychodnią SP ZOZ w Żarach"}}, {"name": "", "latitude": 51.3284417, "longitude": 14.9662904, "source": "osm", "_tags": {"building": "hospital", "description": "Stationen 2,3,4", "healthcare": "hospital", "healthcare:speciality": "orthopaedics", "wheelchair": "yes"}}, {"name": "Orthopädisches Zentrum Martin-Ulbrich-Haus", "latitude": 51.328012, "longitude": 14.9656906, "source": "osm", "_tags": {"addr:city": "Rothenburg/Oberlausitz", "addr:country": "DE", "addr:housenumber": "15-21", "addr:postcode": "02929", "addr:street": "Horkaer Straße", "amenity": "hospital", "brand": "Diakonie", "contact:fax": "+49 35891 42170", "contact:phone": "+49 35891 420", "email": "info@klinik-rothenburg.de", "healthcare": "hospital", "healthcare:speciality": "orthopaedics", "heritage": "4", "heritage:operator": "lfd", "name": "Orthopädisches Zentrum Martin-Ulbrich-Haus", "old_name": "Schlesisches Krüppelheim", "operator": "Orthopädischen Zentrums Martin-Ulbrich-Haus Rothenburg gGmbH", "operator:type": "charitable", "ref:lfd": "09300916", "website": "http://klinik-rothenburg.diakonie.foundation"}}, {"name": "Lázně Libverda", "latitude": 50.8901664, "longitude": 15.1897051, "source": "osm", "_tags": {"amenity": "hospital", "emergency": "no", "name": "Lázně Libverda", "site": "hospital", "source": "cuzk:km;uhul:ortofoto;survey", "type": "site"}}, {"name": "Nemocnice Frýdlant", "latitude": 50.9262757, "longitude": 15.088163, "source": "osm", "_tags": {"amenity": "hospital", "emergency": "yes", "healthcare": "hospital", "name": "Nemocnice Frýdlant", "type": "multipolygon", "website": "https://www.eucnemocnice.cz/frydlant", "wikidata": "Q15211163", "wikipedia": "cs:Nemocnice Frýdlant"}}]