[{"name": "Sankt Marien Hospital", "latitude": 51.4650438, "longitude": 8.8440701, "source": "osm", "_tags": {"addr:city": "Marsberg", "addr:country": "DE", "addr:housenumber": "2", "addr:postcode": "34431", "addr:street": "Marienstraße", "amenity": "hospital", "contact:email": "info@bk-marsberg.de", "contact:phone": "+49 2992 605-0", "contact:website": "https://www.bk-marsberg.de/mhm/", "healthcare": "hospital", "name": "Sankt Marien Hospital", "wheelchair": "yes"}}, {"name": "Klinik Waldfrieden (geschlossen)", "latitude": 51.78797, "longitude": 8.8187326, "source": "osm", "_tags": {"addr:city": "Bad Lippspringe", "addr:country": "DE", "addr:housenumber": "2", "addr:postcode": "33175", "addr:street": "Paul-Fürstenberg-Straße", "amenity": "hospital", "check_date": "2025-05-03", "description": "Klinik aktuell vollständig geschlossen, Stand 03.05.2025", "healthcare": "hospital", "name": "Klinik Waldfrieden (geschlossen)", "note": "geschlossen", "source": "survey;local knowledge"}}, {"name": "Vitalisklinik", "latitude": 50.8585678, "longitude": 9.6934134, "source": "osm", "_tags": {"addr:city": "Bad Hersfeld", "addr:country": "DE", "addr:housenumber": "3", "addr:postcode": "36251", "addr:street": "Am Weinberg", "amenity": "hospital", "check_date": "2025-05-16", "description": "Klinik und Rehabilitationszentrum für Verdauungs- und Stoffwechselkrankheiten", "healthcare": "hospital", "internet_access": "wlan", "internet_access:fee": "no", "internet_access:ssid": "Vitalis", "name": "Vitalisklinik", "opening_hours": "Mo-Fr 08:00-18:00; Sa 09:00-12:00", "payment:cash": "yes", "payment:credit_cards": "yes", "payment:debit_cards": "yes", "phone": "+49 6621 205-0", "source": "survey", "toilets:wheelchair": "yes", "website": "https://www.vitalisklinik.de/", "wheelchair": "yes"}}, {"name": "Schön-Klinik", "latitude": 51.377627, "longitude": 9.0207072, "source": "osm", "_tags": {"addr:city": "Bad Arolsen", "addr:country": "DE", "addr:housenumber": "1", "addr:postcode": "34454", "addr:street": "Große Allee", "amenity": "hospital", "healthcare": "hospital", "name": "Schön-Klinik", "old_name": "Neues Schloss", "operator": "Schön Klinik", "operator:wikidata": "Q2258661", "section": "Große Allee", "website": "https://www.schoen-klinik.de/bad-arolsen"}}, {"name": "Werner-Wicker-Klinik", "latitude": 51.1092459, "longitude": 9.08561, "source": "osm", "_tags": {"amenity": "hospital", "emergency": "no", "healthcare": "hospital", "name": "Werner-Wicker-Klinik"}}, {"name": "Universitätsklinikum Gießen und Marburg", "latitude": 50.8165448, "longitude": 8.8064273, "source": "osm", "_tags": {"addr:city": "Marburg", "addr:housenumber": "1", "addr:postcode": "35043", "addr:street": "Baldingerstraße", "amenity": "hospital", "branch": "Marburg", "emergency": "yes", "healthcare": "hospital", "healthcare:speciality": "intensive;gynaecology;dialysis;emergency;cardiology;radiology;dermatology;surgery;internal;urology;paediatrics", "name": "Universitätsklinikum Gießen und Marburg", "operator": "Rhön-Klinikum", "operator:type": "private", "operator:wikidata": "Q573604", "short_name": "UKGM", "website": "https://www.ukgm.de", "wheelchair": "yes", "wikidata": "Q2496396", "wikipedia": "de:Universitätsklinikum Gießen und Marburg"}}, {"name": "Sankt Vincenz-Krankenhaus", "latitude": 51.7179384, "longitude": 8.7593034, "source": "osm", "_tags": {"amenity": "hospital", "check_date": "2024-03-28", "contact:website": "http://www.vincenz.de/", "healthcare": "hospital", "name": "Sankt Vincenz-Krankenhaus", "wheelchair": "yes"}}, {"name": "Sankt Vincenz Frauen- und Kinderklinik Sankt Louise", "latitude": 51.7087817, "longitude": 8.7645748, "source": "osm", "_tags": {"amenity": "hospital", "healthcare": "hospital", "name": "Sankt Vincenz Frauen- und Kinderklinik Sankt Louise", "wheelchair": "yes"}}, {"name": "Brüderkrankenhaus Sankt Josef", "latitude": 51.7104939, "longitude": 8.7593553, "source": "osm", "_tags": {"addr:city": "Paderborn", "addr:country": "DE", "addr:housenumber": "46", "addr:postcode": "33098", "addr:street": "Husener Straße", "amenity": "hospital", "contact:website": "http://www.bk-paderborn.de", "healthcare": "hospital", "name": "Brüderkrankenhaus Sankt Josef", "wheelchair": "yes"}}, {"name": "Sankt Johannisstift", "latitude": 51.7229357, "longitude": 8.7466193, "source": "osm", "_tags": {"addr:city": "Paderborn", "addr:country": "DE", "addr:housenumber": "28", "addr:postcode": "33102", "addr:street": "Reumontstraße", "amenity": "hospital", "healthcare": "hospital", "name": "Sankt Johannisstift", "website": "https://www.johannisstift.de/", "wheelchair": "yes"}}, {"name": "LWL-Klinik Marsberg", "latitude": 51.4577438, "longitude": 8.8397187, "source": "osm", "_tags": {"amenity": "hospital", "healthcare": "hospital", "name": "LWL-Klinik Marsberg", "website": "https://www.lwl-klinik-marsberg.de/"}}, {"name": "Helios Kliniken Kassel", "latitude": 51.3114072, "longitude": 9.4546822, "source": "osm", "_tags": {"addr:city": "Kassel", "addr:housenumber": "29", "addr:postcode": "34121", "addr:street": "Hansteinstraße", "amenity": "hospital", "emergency": "yes", "healthcare": "hospital", "name": "Helios Kliniken Kassel", "old_name": "DRK-Kliniken Nordhessen, Standort Wehlheiden", "operator": "Helios Kliniken", "operator:type": "private", "operator:wikidata": "Q1254151", "operator:wikipedia": "de:Helios Kliniken", "phone": "+49 561 30860", "toilets:wheelchair": "yes", "website": "https://www.helios-gesundheit.de/kliniken/kassel", "wheelchair": "yes"}}, {"name": "Elisabeth-Krankenhaus", "latitude": 51.3099596, "longitude": 9.4919159, "source": "osm", "_tags": {"addr:city": "Kassel", "addr:housenumber": "7", "addr:street": "Weinbergstraße", "amenity": "hospital", "emergency": "yes", "healthcare": "hospital", "name": "Elisabeth-Krankenhaus", "operator": "Elisabeth-Krankenhaus gGmbH Kassel", "phone": "+49 56172010", "website": "https://www.elisabeth-krankenhaus-kassel.de/", "wheelchair": "yes"}}, {"name": "Agaplesion Diakonie Kliniken Kassel", "latitude": 51.3141949, "longitude": 9.462728, "source": "osm", "_tags": {"addr:city": "Kassel", "addr:country": "DE", "addr:housenumber": "34", "addr:postcode": "34119", "addr:street": "Herkulesstraße", "alt_name": "Diakonie-Kliniken Kassel;Diakonissen-Krankenhaus", "amenity": "hospital", "emergency": "yes", "healthcare": "hospital", "loc_name": "Diako", "name": "Agaplesion Diakonie Kliniken Kassel", "old_name": "Diakonie Gesundheitszentrum", "source:position": "HiRes aerial imagery", "website": "https://www.diako-kassel.de/", "wheelchair": "yes"}}, {"name": "LWL-Klinik Marsberg", "latitude": 51.4541768, "longitude": 8.8599228, "source": "osm", "_tags": {"amenity": "hospital", "healthcare": "hospital", "name": "LWL-Klinik Marsberg"}}, {"name": "LWL-Klinik Marsberg", "latitude": 51.4564163, "longitude": 8.8555236, "source": "osm", "_tags": {"amenity": "hospital", "healthcare": "hospital", "name": "LWL-Klinik Marsberg", "wheelchair": "limited"}}, {"name": "Kreisklinik Hofgeismar", "latitude": 51.4960055, "longitude": 9.3694127, "source": "osm", "_tags": {"addr:city": "Hofgeismar", "addr:housenumber": "1", "addr:postcode": "34369", "addr:street": "Liebenauer Straße", "addr:suburb": "Hofgeismar", "alt_name": "Hessenklinik Hofgeismar", "amenity": "hospital", "building": "hospital", "emergency": "yes", "healthcare": "hospital", "healthcare:speciality": "surgery;internal;gynaecology;intensive;emergency;radiology", "name": "Kreisklinik Hofgeismar", "official_name": "Eigenbetrieb Kliniken des Landkreises Kassel, Standort Hofgeismar", "operator": "Landkreis Kassel", "phone": "+49 5671 810", "website": "https://kreisklinikenkassel.de/hofgeismar/", "wheelchair": "yes", "wikidata": "Q89042084", "wikipedia": "de:Kreisklinik Hofgeismar"}}, {"name": "Ludwig-Noll-Krankenhaus", "latitude": 51.2708906, "longitude": 9.4887998, "source": "osm", "_tags": {"addr:city": "Kassel", "addr:country": "DE", "addr:housenumber": "156", "addr:postcode": "34134", "addr:street": "Dennhäuser Straße", "amenity": "hospital", "emergency": "no", "healthcare": "hospital", "healthcare:speciality": "psychiatry", "name": "Ludwig-Noll-Krankenhaus", "wikidata": "Q1874102"}}, {"name": "Marienkrankenhaus Kassel", "latitude": 51.3281855, "longitude": 9.4806551, "source": "osm", "_tags": {"addr:city": "Kassel", "addr:country": "DE", "addr:housenumber": "85", "addr:postcode": "34127", "addr:street": "Marburger Straße", "amenity": "hospital", "email": "info@marienkrankenhaus-kassel.de", "emergency": "yes", "fax": "+49 561 8073-4000", "healthcare": "hospital", "name": "Marienkrankenhaus Kassel", "phone": "+49 561 8073-0", "website": "https://marienkrankenhaus-kassel.de/", "wheelchair": "yes", "wikidata": "Q15507848", "wikipedia": "de:Marienkrankenhaus Kassel"}}, {"name": "Orthopädie Bad Hersfeld", "latitude": 50.8607629, "longitude": 9.6943949, "source": "osm", "_tags": {"addr:city": "Bad Hersfeld", "addr:country": "DE", "addr:housenumber": "16", "addr:postcode": "36251", "addr:street": "Am Hopfengarten", "amenity": "hospital", "building": "yes", "healthcare": "hospital", "name": "Orthopädie Bad Hersfeld", "wheelchair": "yes"}}, {"name": "Vitos Klinik für Psychiatrie und Psychotherapie", "latitude": 51.2298647, "longitude": 9.2554454, "source": "osm", "_tags": {"addr:city": "Bad Emstal", "addr:housenumber": "9", "addr:postcode": "34308", "addr:street": "Landgraf-Philipp-Straße", "addr:suburb": "Merxhausen", "amenity": "hospital", "contact:phone": "+49 5624 60 0", "healthcare": "hospital", "healthcare:speciality": "psychiatry", "name": "Vitos Klinik für Psychiatrie und Psychotherapie", "operator": "Vitos Kurhessen gGmbH"}}, {"name": "Klinik Birkental", "latitude": 51.1079778, "longitude": 9.083059, "source": "osm", "_tags": {"amenity": "hospital", "healthcare": "hospital", "name": "Klinik Birkental"}}, {"name": "Asklepios Stadtklinik Bad Wildungen", "latitude": 51.1171898, "longitude": 9.1142051, "source": "osm", "_tags": {"amenity": "hospital", "email": "stadtklinik.badwildungen@asklepios.com", "emergency": "yes", "fax": "+49 5621 795-28 66", "healthcare": "hospital", "name": "Asklepios Stadtklinik Bad Wildungen", "operator": "Asklepios Klinik Bad Wildungen GmbH", "phone": "+49 5621 795 0", "website": "https://www.asklepios.com/bad-wildungen/stadtklinik/", "wheelchair": "yes"}}, {"name": "", "latitude": 51.1168036, "longitude": 9.1060291, "source": "osm", "_tags": {"addr:city": "Bad Wildungen", "addr:country": "DE", "addr:housenumber": "2", "addr:postcode": "34537", "addr:street": "Herzog-Georg-Weg", "amenity": "hospital"}}, {"name": "", "latitude": 51.4232074, "longitude": 9.4776599, "source": "osm", "_tags": {"building:part": "yes", "healthcare": "hospital"}}, {"name": "Hospital zum Heiligen Geist", "latitude": 51.1326455, "longitude": 9.2774269, "source": "osm", "_tags": {"addr:city": "Fritzlar", "addr:housenumber": "6", "addr:postcode": "34560", "addr:street": "Am Hospital", "amenity": "hospital", "emergency": "yes", "healthcare": "hospital", "name": "Hospital zum Heiligen Geist", "phone": "+49 5622 9970", "website": "https://www.hospital-fritzlar.de/", "wheelchair": "yes"}}, {"name": "Lungenfachklinik Immenhausen", "latitude": 51.4231779, "longitude": 9.4771481, "source": "osm", "_tags": {"addr:city": "Immenhausen", "addr:housenumber": "3", "addr:postcode": "34376", "addr:street": "Robert-Koch-Straße", "amenity": "hospital", "emergency": "yes", "healthcare": "hospital", "healthcare:speciality": "pulmonology;intensive;infectious_diseases", "name": "Lungenfachklinik Immenhausen", "phone": "+49 5673 5010", "website": "https://www.lungenfachklinik-immenhausen.de/", "wikidata": "Q50282220", "wikipedia": "de:Lungenfachklinik Immenhausen"}}, {"name": "Vitos Kinder- und Jugendklinik für psychische Gesundheit Kassel", "latitude": 51.3136111, "longitude": 9.4543549, "source": "osm", "_tags": {"addr:city": "Kassel", "addr:country": "DE", "addr:housenumber": "111", "addr:postcode": "34119", "addr:street": "Herkulesstraße", "amenity": "hospital", "emergency": "no", "healthcare": "hospital", "healthcare:speciality": "child_psychiatry", "name": "Vitos Kinder- und Jugendklinik für psychische Gesundheit Kassel", "note": "Wiedereröffnung des Neubaus 16. Oktober 2017, Ambulanzen ab 9.10.17", "old_name": "Vitos Klinik für Kinder- und Jugendpsychiatrie", "operator": "https://www.vitos.de/gesellschaften/vitos-kurhessen/einrichtungen/vitos-klinik-bad-wilhelmshoehe", "phone": "+49 561 310060", "source:position": "HiRes aerial imagery", "website": "https://www.vitos.de/gesellschaften/vitos-kurhessen/einrichtungen/vitos-klinik-bad-wilhelmshoehe"}}, {"name": "Batzenmühle", "latitude": 51.003817, "longitude": 9.3526171, "source": "osm", "_tags": {"addr:city": "Homberg (Efze)", "addr:housenumber": "1", "addr:postcode": "34576", "addr:street": "Batzenmühle", "amenity": "hospital", "description": "Sozialtherapeutische Wohneinrichtung", "healthcare": "hospital", "healthcare:speciality": "psychiatry", "name": "Batzenmühle", "operator": "Hephata Diakonie", "phone": "+49 5684 99840", "website": "https://www.hephata.de/standort/batzenmuehle"}}, {"name": "Klinikum Hann. Münden", "latitude": 51.3981037, "longitude": 9.6582753, "source": "osm", "_tags": {"addr:city": "Hann. Münden", "addr:housenumber": "105", "addr:postcode": "34346", "addr:street": "Vogelsang", "alt_name": "NZN", "amenity": "hospital", "fax": "+49 5541 996-392", "healthcare": "hospital", "name": "Klinikum Hann. Münden", "short_name": "KHM", "toilets:wheelchair": "yes", "website": "https://khmue.de/", "wheelchair": "yes", "wheelchair:description": "In der Notaufnahme / Ambulanz voll taugliche Toilette."}}, {"name": "St. Vincenz Hospital", "latitude": 51.7273958, "longitude": 9.1807095, "source": "osm", "_tags": {"amenity": "hospital", "contact:phone": "+49 5272 607-0", "contact:website": "https://brakel.khwe.de/", "emergency": "yes", "healthcare": "hospital", "name": "St. Vincenz Hospital", "opening_hours": "24/7", "operator": "Kath. Hospitalvereinigung Weser-Egge gGmbH"}}, {"name": "Habichtswald-Klinik", "latitude": 51.3135501, "longitude": 9.4247465, "source": "osm", "_tags": {"addr:city": "Kassel", "addr:housenumber": "1", "addr:postcode": "34131", "addr:street": "Wigandstraße", "amenity": "hospital", "emergency": "no", "healthcare": "hospital", "name": "Habichtswald-Klinik", "operator": "Werner Wilhelm Wicker GmbH & Co. KG", "website": "https://www.habichtswaldklinik.de/", "wheelchair": "yes"}}, {"name": "St. Josef Hospital Bad Driburg", "latitude": 51.7419517, "longitude": 9.0116909, "source": "osm", "_tags": {"amenity": "hospital", "contact:phone": "+49 5253 985-0", "contact:website": "https://baddriburg.khwe.de", "emergency": "yes", "healthcare": "hospital", "name": "St. Josef Hospital Bad Driburg", "operator": "Kath. Hospitalvereinigung Weser-Egge gGmbH", "wheelchair": "yes"}}, {"name": "Parkland-Klinik", "latitude": 51.1081752, "longitude": 9.0845495, "source": "osm", "_tags": {"amenity": "hospital", "healthcare": "hospital", "name": "Parkland-Klinik"}}, {"name": "Klinik am Kurpark", "latitude": 51.1092276, "longitude": 9.0792497, "source": "osm", "_tags": {"addr:city": "Bad Wildungen", "addr:country": "DE", "addr:housenumber": "19", "addr:postcode": "34537", "addr:street": "Ziergartenstraße", "addr:suburb": "Reinhardshausen", "amenity": "hospital", "contact:fax": "+49 5621 702-190", "contact:phone": "+49 5621 702-0", "email": "info@klinik-am-kurpark.de", "healthcare": "hospital", "name": "Klinik am Kurpark", "toilets:wheelchair": "yes", "website": "https://www.klinik-am-kurpark.de/", "wheelchair": "limited"}}, {"name": "Vitos Kliniken", "latitude": 51.3122745, "longitude": 9.4302543, "source": "osm", "_tags": {"addr:city": "Kassel", "addr:housenumber": "345", "addr:postcode": "34131", "addr:street": "Wilhelmshöher Allee", "amenity": "hospital", "healthcare:speciality": "orthopaedics;psychiatry", "name": "Vitos Kliniken", "operator": "Vitos GmbH", "wheelchair": "yes"}}, {"name": "Helios Kliniken Kassel, Standort Kaufungen", "latitude": 51.2831274, "longitude": 9.6494223, "source": "osm", "_tags": {"addr:city": "Kaufungen", "addr:country": "DE", "addr:housenumber": "2", "addr:postcode": "34260", "addr:street": "Sophie-Henschel-Weg", "amenity": "hospital", "emergency": "no", "healthcare": "hospital", "name": "Helios Kliniken Kassel, Standort Kaufungen", "old_name": "DRK Klinik Kaufungen", "operator": "Helios Kliniken", "operator:wikidata": "Q1254151", "phone": "+49 5605 9450"}}, {"name": "Fachklink Fürstenwald", "latitude": 51.3825413, "longitude": 9.3686529, "source": "osm", "_tags": {"amenity": "hospital", "description": "Fachklinik für Suchtkranke", "emergency": "no", "healthcare": "hospital", "name": "Fachklink Fürstenwald", "website": "http://fachklinik-fuerstenwald.de/"}}, {"name": "Asklepios Klinikum Schwalmstadt", "latitude": 50.922145, "longitude": 9.2563194, "source": "osm", "_tags": {"amenity": "hospital", "emergency": "yes", "healthcare": "hospital", "name": "Asklepios Klinikum Schwalmstadt"}}, {"name": "Hephata Klinik", "latitude": 50.9099992, "longitude": 9.1680636, "source": "osm", "_tags": {"amenity": "hospital", "name": "Hephata Klinik"}}, {"name": "Asklepios Weserbergland-Klinik", "latitude": 51.7890648, "longitude": 9.3762815, "source": "osm", "_tags": {"addr:city": "Höxter", "addr:housenumber": "90", "addr:postcode": "37671", "addr:street": "Grüne Mühle", "amenity": "hospital", "description": "Fachklinik für geriatrische und neurologische Rehabilitation und Ihr Therapiezentrum für neuromuskuläre Erkrankungen", "healthcare": "hospital", "name": "Asklepios Weserbergland-Klinik", "operator": "Asklepios Kliniken", "operator:type": "private", "operator:wikidata": "Q732068", "operator:wikipedia": "de:Asklepios Kliniken", "toilets:wheelchair": "yes", "website": "https://www.asklepios.com/hoexter/", "wheelchair": "yes"}}, {"name": "Vitos Klinik für forensische Psychiatrie Bad Emstal", "latitude": 51.2267399, "longitude": 9.2605005, "source": "osm", "_tags": {"addr:city": "Bad Emstal", "addr:housenumber": "6", "addr:postcode": "34308", "addr:street": "Klosterweg", "amenity": "hospital", "healthcare": "hospital", "name": "Vitos Klinik für forensische Psychiatrie Bad Emstal"}}, {"name": "Evangelisches Krankenhaus Gesundbrunnen gGmbH", "latitude": 51.5045221, "longitude": 9.4100721, "source": "osm", "_tags": {"addr:city": "Hofgeismar", "addr:housenumber": "1", "addr:postcode": "34369", "addr:street": "Am Krähenberg", "addr:suburb": "Hofgeismar", "amenity": "hospital", "healthcare": "hospital", "name": "Evangelisches Krankenhaus Gesundbrunnen gGmbH"}}, {"name": "Orthopädische Klinik", "latitude": 51.211994, "longitude": 9.7072412, "source": "osm", "_tags": {"addr:city": "Hessisch Lichtenau", "addr:postcode": "37235", "addr:street": "Am Mühlenberg", "amenity": "hospital", "contact:email": "info@lichtenau-ev.de", "name": "Orthopädische Klinik", "phone": "+495602830", "toilets:wheelchair": "yes", "website": "https://www.klinik-lichtenau.de/", "wheelchair": "yes"}}, {"name": "LWL-Klinik Paderborn", "latitude": 51.7190025, "longitude": 8.7636941, "source": "osm", "_tags": {"addr:city": "Paderborn", "addr:country": "DE", "addr:housenumber": "1", "addr:postcode": "33098", "addr:street": "Agathastraße", "amenity": "hospital", "healthcare": "hospital", "name": "LWL-Klinik Paderborn", "website": "https://www.lwl-klinik-paderborn.de/de/", "wheelchair": "yes"}}, {"name": "", "latitude": 51.787096, "longitude": 8.7984743, "source": "osm", "_tags": {"building": "hospital", "building:levels": "3", "building:material": "brick", "healthcare": "hospital", "roof:shape": "half-hipped", "source": "NRW DOP;NRW ALKIS"}}, {"name": "", "latitude": 51.7873871, "longitude": 8.7989126, "source": "osm", "_tags": {"building": "hospital", "building:levels": "3", "building:material": "brick", "healthcare": "hospital", "roof:shape": "half-hipped", "source": "NRW DOP;NRW ALKIS"}}, {"name": "Klinik am Park", "latitude": 51.7872763, "longitude": 8.7996146, "source": "osm", "_tags": {"addr:city": "Bad Lippspringe", "addr:country": "DE", "addr:housenumber": "25", "addr:postcode": "33175", "addr:street": "Auguste-Viktoria-Allee", "amenity": "hospital", "healthcare": "hospital", "name": "Klinik am Park", "operator": "Medizinisches Zentrum für Gesundheit", "website": "https://www.medizinisches-zentrum.de/einrichtungen/klinik-am-park-1/"}}, {"name": "Kurwald-Klinik", "latitude": 51.7888224, "longitude": 8.8041712, "source": "osm", "_tags": {"amenity": "hospital", "healthcare": "hospital", "name": "Kurwald-Klinik"}}, {"name": "Cecilien-Klinik", "latitude": 51.7875157, "longitude": 8.8176662, "source": "osm", "_tags": {"addr:city": "Bad Lippspringe", "addr:housenumber": "26", "addr:postcode": "33175", "addr:street": "Lindenstraße", "amenity": "hospital", "description": "Reha / Kur Klinik - ACHTUNG Kein aktut Krankenhaus - keine Notaufnahme", "healthcare": "hospital", "internet_access": "wlan", "name": "Cecilien-Klinik", "website": "https://www.medizinisches-zentrum.de/einrichtungen/cecilien-klinik/", "wheelchair": "yes"}}, {"name": "Klinik Martinusquelle", "latitude": 51.7870058, "longitude": 8.8100806, "source": "osm", "_tags": {"amenity": "hospital", "healthcare": "hospital", "healthcare:speciality": "cardiology", "name": "Klinik Martinusquelle", "operator": "Medizinisches Zentrum für Gesundheit Bad Lippspringe"}}, {"name": "Karl-Hansen-Klinik", "latitude": 51.7822674, "longitude": 8.8263057, "source": "osm", "_tags": {"amenity": "hospital", "healthcare": "hospital", "healthcare:speciality": "pulmonology", "name": "Karl-Hansen-Klinik", "website": "https://www.medizinisches-zentrum.de/akutkarl-hansen-klinik", "wheelchair": "limited"}}, {"name": "Teutoburger-Wald-Klinik", "latitude": 51.7836625, "longitude": 8.8281349, "source": "osm", "_tags": {"amenity": "hospital", "healthcare": "hospital", "name": "Teutoburger-Wald-Klinik", "toilets:wheelchair": "yes", "wheelchair": "yes"}}, {"name": "Lebensraum Gombeth", "latitude": 51.062748, "longitude": 9.2912813, "source": "osm", "_tags": {"addr:city": "Borken (Hessen)", "addr:housenumber": "1", "addr:postcode": "34582", "addr:street": "Borkener Straße", "addr:suburb": "Gombeth", "amenity": "hospital", "building": "yes", "emergency": "no", "healthcare": "hospital", "healthcare:speciality": "psychiatry", "name": "Lebensraum Gombeth", "operator": "Hephata Diakonie", "phone": "+49 6691 183051", "website": "https://www.hephata.de/standort/sozialpaedagogisch-therapeutischer-lebensraum-gombeth"}}, {"name": "Kreiskrankenhaus Rotenburg", "latitude": 50.9957352, "longitude": 9.7207254, "source": "osm", "_tags": {"addr:city": "Rotenburg an der Fulda", "addr:housenumber": "1", "addr:postcode": "36199", "addr:street": "Am Emanuelsberg", "amenity": "hospital", "emergency": "yes", "fax": "+49 6623 861503", "healthcare": "hospital", "name": "Kreiskrankenhaus Rotenburg", "phone": "+49 6623 860", "website": "https://www.kkh-rotenburg.de/", "wheelchair": "yes"}}, {"name": "Hessenklinik Stadtkrankenhaus Korbach", "latitude": 51.2673746, "longitude": 8.8710087, "source": "osm", "_tags": {"addr:city": "Korbach", "addr:housenumber": "19", "addr:postcode": "34497", "addr:street": "Enser Straße", "amenity": "hospital", "check_date": "2025-04-30", "email": "info@krankenhaus-korbach.de", "healthcare": "hospital", "name": "Hessenklinik Stadtkrankenhaus Korbach", "operator": "Hessenklinik Stadtkrankenhaus Korbach gGmbH", "phone": "+49 5631 5690", "toilets:wheelchair": "yes", "website": "https://www.krankenhaus-korbach.de/", "wheelchair": "yes"}}, {"name": "Wicker Klinik", "latitude": 51.1161386, "longitude": 9.1113555, "source": "osm", "_tags": {"addr:city": "Bad Wildungen", "addr:country": "DE", "addr:housenumber": "2-4", "addr:postcode": "34537", "addr:street": "Fürst-Friedrich-Straße", "amenity": "hospital", "emergency": "no", "healthcare": "rehabilitation", "name": "Wicker Klinik", "operator": "Werner Wicker GmbH & Co. KG", "website": "https://www.wicker.de/kliniken/wicker-klinik"}}, {"name": "Schön Klinik Bad Arolsen", "latitude": 51.3799023, "longitude": 9.0274855, "source": "osm", "_tags": {"addr:city": "Bad Arolsen", "addr:country": "DE", "addr:housenumber": "10", "addr:postcode": "34454", "addr:street": "Hofgarten", "amenity": "hospital", "beds": "300", "healthcare": "hospital", "healthcare:speciality": "psychosomatic;psychiatry", "name": "Schön Klinik Bad Arolsen", "operator": "Schön Klinik", "operator:type": "private", "operator:wikidata": "Q2258661", "phone": "+49-5691-62380", "start_date": "1992", "website": "https://www.schoen-klinik.de/bad-arolsen"}}, {"name": "Marcus Klinik", "latitude": 51.7350197, "longitude": 9.0364953, "source": "osm", "_tags": {"amenity": "hospital", "contact:email": "zentrale@marcus-klinik.de", "contact:fax": "+49 5253 95-3810", "contact:phone": "+49 5253 95-30", "contact:website": "https://marcus-klinik.de", "emergency": "no", "healthcare": "rehabilitation", "name": "Marcus Klinik", "operator": "Marcus Klinik GmbH & Co. KG"}}, {"name": "St. Ansgar Krankenhaus", "latitude": 51.7854303, "longitude": 9.3654636, "source": "osm", "_tags": {"amenity": "hospital", "contact:fax": "+49 5271 66-1109", "contact:phone": "+49 5271 66-0", "contact:website": "https://hoexter.khwe.de/", "emergency": "yes", "healthcare": "hospital", "name": "St. Ansgar Krankenhaus", "opening_hours": "24/7", "operator": "Kath. Hospitalvereinigung Weser-Egge gGmbH", "wikidata": "Q103842132"}}, {"name": "", "latitude": 51.4227289, "longitude": 9.4777809, "source": "osm", "_tags": {"building:part": "yes", "healthcare": "hospital"}}, {"name": "", "latitude": 51.422939, "longitude": 9.4776512, "source": "osm", "_tags": {"building:part": "yes", "healthcare": "hospital"}}, {"name": "St. Elisabeth-Krankenhaus", "latitude": 51.4152029, "longitude": 9.1215763, "source": "osm", "_tags": {"amenity": "hospital", "healthcare": "hospital", "name": "St. Elisabeth-Krankenhaus", "website": "https://www.elisabeth-krankenhaus-volkmarsen.de/", "wheelchair": "yes"}}, {"name": "Hardtwaldklinik I", "latitude": 51.061829, "longitude": 9.1730843, "source": "osm", "_tags": {"addr:city": "Bad Zwesten", "addr:housenumber": "31a", "addr:postcode": "34596", "addr:street": "Hardtstraße", "alt_name": "Hardtwaldklinik", "amenity": "hospital", "emergency": "no", "healthcare": "hospital", "name": "Hardtwaldklinik I", "phone": "+49 5626 870", "website": "https://www.hardtwaldklinik1.de/", "wheelchair": "yes"}}, {"name": "Krankenhaus Bad Arolsen", "latitude": 51.3793857, "longitude": 9.0079263, "source": "osm", "_tags": {"addr:city": "Bad Arolsen", "addr:country": "DE", "addr:housenumber": "50", "addr:postcode": "34454", "addr:street": "Große Allee", "amenity": "hospital", "contact:phone": "+49 5691 8000", "contact:website": "http://www.klinikum-kassel.de/index.php?parent=1220", "emergency": "yes", "healthcare": "hospital", "name": "Krankenhaus Bad Arolsen", "operator": "Krankenhaus Bad Arolsen GmbH", "wheelchair": "yes", "wikidata": "Q1786524"}}, {"name": "Asklepios Helenenklinik Bad Wildungen", "latitude": 51.1181614, "longitude": 9.1140727, "source": "osm", "_tags": {"addr:city": "Bad Wildungen", "addr:housenumber": "35", "addr:postcode": "34537", "addr:street": "Laustraße", "amenity": "hospital", "healthcare": "hospital", "name": "Asklepios Helenenklinik Bad Wildungen"}}, {"name": "Klinikum Bad Hersfeld", "latitude": 50.8762388, "longitude": 9.71465, "source": "osm", "_tags": {"amenity": "hospital", "emergency": "yes", "healthcare": "hospital", "name": "Klinikum Bad Hersfeld", "opening_hours": "24/7", "operator": "Klinikum Bad Hersfeld GmbH", "phone": "+49 6621 880", "website": "https://www.klinikum-bad-hersfeld.de/", "wheelchair": "yes", "wikidata": "Q1706505"}}, {"name": "Zentrum für Psychische Gesundheit, Universitätsklinik Marburg", "latitude": 50.8181434, "longitude": 8.7808587, "source": "osm", "_tags": {"amenity": "hospital", "contact:phone": "+49 6421 2865200", "healthcare": "hospital", "healthcare:speciality": "psychiatry;child_and_adolescent_psychiatry", "name": "Zentrum für Psychische Gesundheit, Universitätsklinik Marburg", "operator": "UKGM", "toilets:wheelchair": "yes", "wheelchair": "yes", "wheelchair:description": "WC: Platz li. vom WC 105cm, re. vom WC 20cm, Aufzug: Durchgangsbr. 120cm. 1 Stellplatz für Personen mit Behinderungen"}}, {"name": "Hardtwaldklinik II", "latitude": 51.0631408, "longitude": 9.1685884, "source": "osm", "_tags": {"addr:city": "Bad Zwesten", "addr:country": "DE", "addr:housenumber": "32", "addr:postcode": "34596", "addr:street": "Hardtstraße", "alt_name": "Hardtwaldklinik", "amenity": "hospital", "emergency": "no", "name": "Hardtwaldklinik II", "phone": "+49 5626 880", "website": "https://www.hardtwaldklinik2.de/"}}, {"name": "Kreiskrankenhaus Frankenberg", "latitude": 51.061805, "longitude": 8.7919671, "source": "osm", "_tags": {"addr:city": "Frankenberg (Eder)", "addr:country": "DE", "addr:housenumber": "9", "addr:postcode": "35066", "addr:street": "Forststraße", "amenity": "hospital", "healthcare": "hospital", "name": "Kreiskrankenhaus Frankenberg", "phone": "+49 6451 550", "website": "https://www.krankenhaus-frankenberg.de/"}}, {"name": "MEDIAN Klinik Wigbertshöhe", "latitude": 50.8598281, "longitude": 9.6928368, "source": "osm", "_tags": {"addr:city": "Bad Hersfeld", "addr:housenumber": "10-12", "addr:postcode": "36251", "addr:street": "Am Hainberg", "amenity": "hospital", "check_date": "2025-05-02", "healthcare": "hospital", "name": "MEDIAN Klinik Wigbertshöhe", "operator": "MEDIAN"}}, {"name": "Klinik am Hainberg", "latitude": 50.8610018, "longitude": 9.6913302, "source": "osm", "_tags": {"addr:city": "Bad Hersfeld", "addr:housenumber": "32", "addr:postcode": "36251", "addr:street": "Ludwig-Braun-Straße", "amenity": "hospital", "healthcare": "hospital", "name": "Klinik am Hainberg"}}, {"name": "Diakonie-Krankenhaus Wehrda", "latitude": 50.829184, "longitude": 8.7614397, "source": "osm", "_tags": {"alt_name": "DGD-Diakonie-Krankenhaus Wehrda", "amenity": "hospital", "contact:email": "info@dkh-wehrda.de", "contact:fax": "+49 6421 808-567", "contact:phone": "+49 6421 808-0", "contact:website": "https://www.dkh-wehrda.de/", "healthcare": "hospital", "name": "Diakonie-Krankenhaus Wehrda", "operator": "Deutscher Gemeinschafts-Diakonieverband GmbH", "wikidata": "Q92191831", "wikipedia": "de:Diakonie-Krankenhaus Wehrda"}}, {"name": "Habichtswald Psychosomatische Akut-Klinik", "latitude": 51.3131509, "longitude": 9.4245686, "source": "osm", "_tags": {"addr:city": "Kassel", "addr:housenumber": "3-5", "addr:postcode": "34131", "addr:street": "Wigandstraße", "building": "hospital", "healthcare": "hospital", "name": "Habichtswald Psychosomatische Akut-Klinik"}}, {"name": "Vitos psychiatrische Tagesklinik Bad Wildungen", "latitude": 51.123104, "longitude": 9.1308378, "source": "osm", "_tags": {"addr:city": "Bad Wildungen", "addr:housenumber": "7", "addr:postcode": "34537", "addr:street": "Rörigstraße", "building": "hospital", "emergency": "no", "healthcare": "hospital", "healthcare:speciality": "psychiatry", "name": "Vitos psychiatrische Tagesklinik Bad Wildungen", "year_of_construction": "2020..2022"}}, {"name": "", "latitude": 51.1231704, "longitude": 9.1309397, "source": "osm", "_tags": {"addr:city": "Bad Wildungen", "addr:housenumber": "7", "addr:postcode": "34537", "addr:street": "Rörigstraße", "healthcare": "hospital", "healthcare:speciality": "psychiatry"}}, {"name": "Paracelsus-Elena-Klinik", "latitude": 51.3306329, "longitude": 9.4226546, "source": "osm", "_tags": {"addr:city": "Kassel", "addr:country": "DE", "addr:housenumber": "16", "addr:postcode": "34128", "addr:street": "Klinikstraße", "addr:suburb": "Harleshausen", "amenity": "hospital", "emergency": "no", "healthcare": "hospital", "name": "Paracelsus-Elena-Klinik", "operator": "Paracelsus-Kliniken Deutschland GmbH & Co. KGaA", "source": "bing", "website": "https://www.paracelsus-kliniken.de/kassel.html", "wheelchair": "limited"}}, {"name": "", "latitude": 51.4230118, "longitude": 9.4776599, "source": "osm", "_tags": {"addr:city": "Immenhausen", "addr:housenumber": "3", "addr:postcode": "34376", "addr:street": "Robert-Koch-Straße", "building": "hospital", "healthcare": "hospital"}}, {"name": "Kreisklinik Wolfhagen", "latitude": 51.3205497, "longitude": 9.190788, "source": "osm", "_tags": {"addr:city": "Wolfhagen", "addr:country": "DE", "addr:housenumber": "1", "addr:postcode": "34466", "addr:street": "Am Kleinen Ofenberg", "alt_name": "Hessenklinik Wolfhagen", "amenity": "hospital", "emergency": "yes", "healthcare": "hospital", "healthcare:speciality": "surgery;internal;emergency;intensive", "name": "Kreisklinik Wolfhagen", "official_name": "Eigenbetrieb Kliniken des Landkreises Kassel, Standort Wolfhagen", "phone": "+49 5692 400", "website": "https://kreisklinikenkassel.de/wolfhagen/", "wheelchair": "yes", "wikidata": "Q88978434", "wikipedia": "de:Kreisklinik Wolfhagen"}}, {"name": "Klinikum Kassel", "latitude": 51.3278859, "longitude": 9.5090224, "source": "osm", "_tags": {"addr:city": "Kassel", "addr:housenumber": "41-43", "addr:postcode": "34125", "addr:street": "Mönchebergstraße", "alt_name": "Klinikum Kassel GmbH", "amenity": "hospital", "contact:email": "info@klinikum-kassel.de", "emergency": "yes", "healthcare": "hospital", "hospital:level:DE": "3", "name": "Klinikum Kassel", "old_name": "Städtische Kliniken", "operator": "Gesundheit Nordhessen Holding AG", "phone": "+49 561 9800", "type": "multipolygon", "website": "https://www.gesundheit-nordhessen.de/klinikum-kassel", "wikidata": "Q1377573", "wikipedia": "de:Klinikum Kassel"}}, {"name": "Klinik- und Rehabilitationszentrum Lippoldsberg", "latitude": 51.6155008, "longitude": 9.5900859, "source": "osm", "_tags": {"addr:city": "Wesertal", "addr:country": "DE", "addr:housenumber": "1", "addr:postcode": "34399", "addr:street": "Birkenallee", "amenity": "hospital", "emergency": "yes", "healthcare": "hospital", "name": "Klinik- und Rehabilitationszentrum Lippoldsberg", "operator": "Klinik- und Rehabilitationszentrum Lippoldsberg GmbH", "type": "multipolygon", "website": "https://www.klinik-lippoldsberg.de/"}}, {"name": "HELIOS Klinikum Warburg", "latitude": 51.4874585, "longitude": 9.1409444, "source": "osm", "_tags": {"addr:city": "Warburg", "addr:country": "DE", "addr:housenumber": "50", "addr:postcode": "34414", "addr:street": "Hüffertstraße", "amenity": "hospital", "building": "hospital", "email": "info.warburg@helios-kliniken.de", "fax": "+49-5641-91-1011", "healthcare": "hospital", "name": "HELIOS Klinikum Warburg", "old_name": "St.-Petri-Hospital Warburg", "operator": "Helios Kliniken", "operator:wikidata": "Q1254151", "operator:wikipedia": "de:Helios Kliniken", "phone": "+49-5641-91-0", "type": "multipolygon", "website": "http://www.helios-kliniken.de/klinik/warburg.html", "wheelchair": "yes", "wikidata": "Q1356504"}}, {"name": "Klinik für Kinder- und Jugendpsychiatrie, Psychosomatik und Psychotherapie", "latitude": 50.8182476, "longitude": 8.77978, "source": "osm", "_tags": {"addr:city": "Marburg", "addr:country": "DE", "addr:housenumber": "45", "addr:postcode": "35039", "addr:street": "Schützenstraße", "amenity": "hospital", "email": "kjp.mr@uk-gm.de", "emergency": "yes", "fax": "+49 6421 5865667", "healthcare": "hospital", "healthcare:speciality": "child_psychiatry", "name": "Klinik für Kinder- und Jugendpsychiatrie, Psychosomatik und Psychotherapie", "operator": "UKGM GmbH", "operator:type": "private", "phone": "+49 6421 5866471", "start_date": "2022-12", "type": "multipolygon", "website": "https://www.ukgm.de/ugm_2/deu/umr_kjp/index.html"}}, {"name": "Mediclin Kliniken", "latitude": 51.1099042, "longitude": 9.0781512, "source": "osm", "_tags": {"amenity": "hospital", "healthcare": "hospital", "name": "Mediclin Kliniken", "operator": "Mediclin", "operator:type": "private", "operator:wikidata": "Q1916295", "type": "multipolygon"}}, {"name": "Vitos Haina", "latitude": 51.0290315, "longitude": 8.9759617, "source": "osm", "_tags": {"amenity": "hospital", "name": "Vitos Haina", "phone": "+49 64 56 ‐ 9 10", "type": "multipolygon", "website": "https://www.vitos.de/gesellschaften/vitos-haina/einrichtungen/vitos-klinik-fuer-psychiatrie-und-psychotherapie-haina/kontakt-und-anfahrt"}}]