[{"name": "Klinik für Kinder- und Jugendmedizin", "latitude": 51.6691324, "longitude": 7.828988, "source": "osm", "_tags": {"amenity": "hospital", "check_date": "2025-03-26", "healthcare": "hospital", "name": "Klinik für Kinder- und Jugendmedizin", "wheelchair": "yes"}}, {"name": "Tagesklinik Walstedde", "latitude": 51.7618409, "longitude": 7.7934557, "source": "osm", "_tags": {"amenity": "hospital", "check_date": "2024-09-26", "healthcare": "hospital", "name": "Tagesklinik Walstedde"}}, {"name": "Fachkrankenhaus Kloster Grafschaft", "latitude": 51.1442407, "longitude": 8.3243853, "source": "osm", "_tags": {"amenity": "hospital", "contact:email": "verwaltung@fkkg.de", "contact:fax": "+49 2972 791-1155", "contact:phone": "+49 2972 791-00", "contact:website": "https://www.krankenhaus-klostergrafschaft.de/", "healthcare": "hospital", "healthcare:speciality": "internal", "name": "Fachkrankenhaus Kloster Grafschaft", "operator": "Fachkrankenhaus Kloster Grafschaft GmbH", "wikidata": "Q15110594"}}, {"name": "Karolinen-Hospital", "latitude": 51.425983, "longitude": 7.9996734, "source": "osm", "_tags": {"addr:city": "Arnsberg", "addr:housenumber": "5", "addr:postcode": "59759", "addr:street": "Stolte Ley", "amenity": "hospital", "contact:phone": "+49 2932 952-0", "contact:website": "https://klinikum-hochsauerland.de/das-klinikum/standorte/karolinen-hospital", "emergency": "yes", "healthcare": "hospital", "name": "Karolinen-Hospital", "opening_hours": "24/7", "operator": "Klinikum Hochsauerland GmbH", "wheelchair": "yes"}}, {"name": "St. Franziskus Hospital", "latitude": 51.7673246, "longitude": 7.8846321, "source": "osm", "_tags": {"addr:city": "Ahlen", "addr:country": "DE", "addr:housenumber": "55", "addr:postcode": "59227", "addr:street": "Robert-Koch-Straße", "amenity": "hospital", "building": "hospital", "emergency": "yes", "healthcare": "hospital", "healthcare:speciality": "gynaecology;orthopaedics;emergency;intensive;surgery;trauma;neurology", "name": "St. Franziskus Hospital", "operator": "St. Franziskus-Stiftung Münster", "operator:type": "private_non_profit", "operator:wikidata": "Q2318238", "phone": "+492382858-0", "wheelchair": "yes"}}, {"name": "Kinderklinik", "latitude": 51.7681276, "longitude": 7.8841868, "source": "osm", "_tags": {"amenity": "hospital", "building": "hospital", "emergency": "yes", "healthcare": "hospital", "healthcare:speciality": "paediatrics", "name": "Kinderklinik", "operator": "St. Franziskus-Stiftung Münster", "operator:type": "private_non_profit", "operator:wikidata": "Q2318238", "phone": "+492382858-0", "wheelchair": "yes"}}, {"name": "LWL-Universitätsklinik Hamm", "latitude": 51.6853579, "longitude": 7.8625228, "source": "osm", "_tags": {"addr:city": "Hamm", "addr:housenumber": "64", "addr:postcode": "59071", "addr:street": "Heithofer Allee", "amenity": "hospital", "name": "LWL-Universitätsklinik Hamm", "toilets:wheelchair": "yes", "wheelchair": "limited", "wikidata": "Q18410588", "wikipedia": "de:LWL-Universitätsklinik Hamm"}}, {"name": "Aatalklinik", "latitude": 51.5173063, "longitude": 8.7015778, "source": "osm", "_tags": {"amenity": "hospital", "emergency": "no", "healthcare": "hospital", "name": "Aatalklinik", "website": "https://www.aatalklinik.de", "wheelchair": "yes"}}, {"name": "Klinik für Manuelle Therapie Haus 2/3", "latitude": 51.6910707, "longitude": 7.8499028, "source": "osm", "_tags": {"UntereDenkmalbehörde:inscription_date": "2005-05-19", "addr:city": "Hamm", "addr:country": "DE", "addr:housenumber": "107", "addr:postcode": "59071", "addr:street": "Ostenallee", "amenity": "hospital", "building": "yes", "check_date": "2024-07-25", "heritage": "8", "heritage:operator": "UntereDenkmalbehörde", "heritage:ref": "292", "name": "Klinik für Manuelle Therapie Haus 2/3", "start_date": "1936", "wheelchair": "yes"}}, {"name": "Bethesda Krankenhaus", "latitude": 50.899321, "longitude": 7.8647556, "source": "osm", "_tags": {"addr:city": "Freudenberg", "addr:country": "DE", "addr:housenumber": "39", "addr:postcode": "57258", "addr:street": "Euelsbruchstraße", "amenity": "hospital", "building": "yes", "healthcare": "hospital", "name": "Bethesda Krankenhaus", "phone": "+49 2734 2790", "source": "GDI.SW", "source:phone": "https://www.wilnsdorf.de/Leben-Wohnen/Soziales-Gesundheit-Senioren/Gesundheit/index.php", "wheelchair": "yes"}}, {"name": "AHG Klinik", "latitude": 50.9984077, "longitude": 8.1148667, "source": "osm", "_tags": {"addr:city": "Hilchenbach", "addr:country": "DE", "addr:housenumber": "14", "addr:postcode": "57271", "addr:street": "Ferndorfstraße", "amenity": "hospital", "building": "yes", "name": "AHG Klinik", "source": "GDI.SW", "wheelchair": "yes"}}, {"name": "Johanniter-Kliniken Hamm", "latitude": 51.6697311, "longitude": 7.8272206, "source": "osm", "_tags": {"amenity": "hospital", "healthcare": "hospital", "name": "Johanniter-Kliniken Hamm", "wheelchair": "yes", "wikidata": "Q50038300"}}, {"name": "Klinik Walstedde", "latitude": 51.7620875, "longitude": 7.7939097, "source": "osm", "_tags": {"addr:city": "Drensteinfurt", "addr:housenumber": "3", "addr:postcode": "48317", "addr:street": "Nordholter Weg", "amenity": "hospital", "building": "yes", "check_date": "2024-09-26", "healthcare": "hospital", "name": "Klinik Walstedde"}}, {"name": "HELIOS Klinik Attendorn", "latitude": 51.1260573, "longitude": 7.8975003, "source": "osm", "_tags": {"addr:city": "Attendorn", "addr:housenumber": "9", "addr:postcode": "57439", "addr:street": "Hohler Weg", "amenity": "hospital", "contact:phone": "+49 2722 60-0", "emergency": "yes", "healthcare": "hospital", "name": "HELIOS Klinik Attendorn", "old_name": "Krankenhaus St. Barbara Attendorn", "operator": "Helios Kliniken", "operator:wikidata": "Q1254151", "toilets:wheelchair": "yes", "website": "http://www.helios-kliniken.de/klinik/attendorn.html", "wheelchair": "yes"}}, {"name": "Klinik Lindenplatz", "latitude": 51.5949056, "longitude": 8.176583, "source": "osm", "_tags": {"addr:city": "Bad Sassendorf", "addr:housenumber": "29", "addr:postcode": "59505", "addr:street": "Weslarner Straße", "amenity": "hospital", "building": "yes", "healthcare": "hospital", "name": "Klinik Lindenplatz", "wheelchair": "limited"}}, {"name": "Klinik Wiesengrund", "latitude": 51.59209, "longitude": 8.1727088, "source": "osm", "_tags": {"addr:city": "Bad Sassendorf", "addr:housenumber": "20", "addr:postcode": "59505", "addr:street": "Wiesenstraße", "amenity": "hospital", "building": "yes", "healthcare": "hospital", "name": "Klinik Wiesengrund"}}, {"name": "Elisabeth-Klinik", "latitude": 51.3568243, "longitude": 8.47311, "source": "osm", "_tags": {"addr:city": "Olsberg", "addr:housenumber": "4", "addr:postcode": "59939", "addr:street": "Heinrich-Sommer-Straße", "amenity": "hospital", "building": "hospital", "contact:phone": "+49 2962 803-0", "contact:website": "https://elisabeth-klinik.de/", "emergency": "yes", "healthcare": "hospital", "name": "Elisabeth-Klinik", "opening_hours": "24/7", "operator": "Elisabeth-Klinik gGmbH", "wheelchair": "yes"}}, {"name": "Dreifaltigkeits Hospital", "latitude": 51.6730396, "longitude": 8.3383455, "source": "osm", "_tags": {"addr:city": "Lippstadt", "addr:country": "DE", "addr:housenumber": "31", "addr:postcode": "59555", "addr:street": "Klosterstraße", "amenity": "hospital", "emergency": "yes", "healthcare": "hospital", "name": "Dreifaltigkeits Hospital", "website": "https://dreifaltigkeits-hospital.de/", "wheelchair": "yes"}}, {"name": "Klinikum Stadt Soest", "latitude": 51.5655545, "longitude": 8.0775502, "source": "osm", "_tags": {"amenity": "hospital", "contact:email": "info@klinikumstadtsoest.de", "contact:fax": "+49 2921 65620", "contact:phone": "+49 2921 900", "contact:website": "https://klinikumstadtsoest.de", "emergency": "yes", "healthcare": "hospital", "name": "Klinikum Stadt Soest", "old_name": "Stadtkrankenhaus", "opening_hours": "24/7", "operator": "Klinikum Stadt Soest gGmbH", "toilets:wheelchair": "yes", "wheelchair": "yes"}}, {"name": "Tagesklinik Hamm", "latitude": 51.6849622, "longitude": 7.859562, "source": "osm", "_tags": {"amenity": "hospital", "building": "yes", "emergency": "no", "name": "Tagesklinik Hamm", "wheelchair": "limited"}}, {"name": "Klinik Quellenhof", "latitude": 51.5924426, "longitude": 8.1535886, "source": "osm", "_tags": {"addr:city": "Bad Sassendorf", "addr:housenumber": "3", "addr:postcode": "59505", "addr:street": "Hepper Straße", "amenity": "hospital", "building": "yes", "healthcare": "hospital", "name": "Klinik Quellenhof"}}, {"name": "Klinik am Hellweg", "latitude": 51.5877663, "longitude": 8.1684542, "source": "osm", "_tags": {"addr:city": "Bad Sassendorf", "addr:housenumber": "2", "addr:postcode": "59505", "addr:street": "Bismarckstraße", "amenity": "hospital", "building": "yes", "healthcare": "hospital", "name": "Klinik am Hellweg"}}, {"name": "Diagnose und Therapiezentrum / Kurmittelhaus", "latitude": 51.5872248, "longitude": 8.169395, "source": "osm", "_tags": {"addr:city": "Bad Sassendorf", "addr:country": "DE", "addr:housenumber": "16", "addr:postcode": "59505", "addr:street": "Kaiserstraße", "amenity": "hospital", "building": "yes", "healthcare": "hospital", "name": "Diagnose und Therapiezentrum / Kurmittelhaus"}}, {"name": "Klinik am Park", "latitude": 51.5900203, "longitude": 8.1723743, "source": "osm", "_tags": {"addr:city": "Bad Sassendorf", "addr:housenumber": "9", "addr:postcode": "59505", "addr:street": "Berliner Straße", "amenity": "hospital", "building": "yes", "healthcare": "hospital", "name": "Klinik am Park", "wheelchair": "yes"}}, {"name": "Johanniter-Kliniken Hamm", "latitude": 51.6791169, "longitude": 7.8181886, "source": "osm", "_tags": {"addr:city": "Hamm", "addr:country": "DE", "addr:housenumber": "13 - 19", "addr:postcode": "59065", "addr:street": "Nassauerstraße", "amenity": "hospital", "building": "hospital", "fax": "+49 2381 181202", "healthcare": "hospital", "name": "Johanniter-Kliniken Hamm", "phone": "+49 2381 180", "website": "https://www.johanniter.de/johanniter-kliniken/johanniter-kliniken-hamm/", "wheelchair": "yes", "wikidata": "Q1664423", "wikipedia": "de:St. Marien-Hospital Hamm"}}, {"name": "Johanniter-Kliniken Hamm", "latitude": 51.6883631, "longitude": 7.8504702, "source": "osm", "_tags": {"addr:housenumber": "19", "addr:street": "Knappenstraße", "amenity": "hospital", "check_date": "2024-06-25", "emergency": "yes", "fax": "+49 2381 181209", "healthcare": "hospital", "name": "Johanniter-Kliniken Hamm", "operator": "Johanniter-Kliniken Hamm", "phone": "+49 2381 181205", "wheelchair": "yes"}}, {"name": "Sauerlandklinik Hachen", "latitude": 51.3832137, "longitude": 7.9743939, "source": "osm", "_tags": {"addr:city": "Sundern (Sauerland)", "addr:country": "DE", "addr:housenumber": "44", "addr:postcode": "59846", "addr:street": "Siepenstraße", "amenity": "hospital", "email": "post@sauerlandklinik-hachen.de", "fax": "+49 2935 4951", "healthcare": "hospital", "healthcare:speciality": "neurology", "name": "Sauerlandklinik Hachen", "phone": "+49 2935 8080", "website": "https://www.sauerlandklinik-hachen.de/", "wheelchair": "yes"}}, {"name": "Reha-Klinik Panorama", "latitude": 51.7171887, "longitude": 8.3298289, "source": "osm", "_tags": {"addr:city": "Lippstadt", "addr:country": "DE", "addr:housenumber": "5", "addr:postcode": "59556", "addr:street": "Eichenweg", "addr:suburb": "Bad Waldliesborn", "amenity": "hospital", "building": "yes", "email": "info@reha-klinik-panorama.de", "healthcare": "hospital", "healthcare:speciality": "orthopaedics;physiatry", "name": "Reha-Klinik Panorama", "operator": "Reha-Klinik Panorama GmbH", "website": "https://www.reha-klinik-panorama.de"}}, {"name": "Marien Kliniken Siegen", "latitude": 50.8790914, "longitude": 8.0298466, "source": "osm", "_tags": {"addr:city": "Siegen", "addr:country": "DE", "addr:housenumber": "51", "addr:postcode": "57072", "addr:street": "Kampenstraße", "amenity": "hospital", "building": "hospital", "contact:email": "info@mariengesellschaft.de", "contact:fax": "+49 271 231-2299", "contact:phone": "+49 271 231-0", "contact:website": "https://www.marien-kliniken.de", "emergency": "yes", "healthcare": "hospital", "heritage": "8", "heritage:operator": "UntereDenkmalbehörde", "name": "Marien Kliniken Siegen", "opening_hours": "24/7", "ref:siegen": "A-320", "wheelchair": "yes", "wikidata": "Q1435273", "wikipedia": "de:St.-Marien-Krankenhaus Siegen"}}, {"name": "St. Johannes-Hospital", "latitude": 51.4504518, "longitude": 7.9639921, "source": "osm", "_tags": {"addr:city": "Arnsberg", "addr:country": "DE", "addr:housenumber": "7", "addr:postcode": "59755", "addr:street": "Springufer", "addr:suburb": "Neheim-Hüsten", "amenity": "hospital", "building": "yes", "loc_name": "JoHo", "name": "St. Johannes-Hospital", "operator": "Klinikum Arnsberg", "website": "http://www.joho-arnsberg.de", "wheelchair": "yes"}}, {"name": "Lungenklinik Hemer", "latitude": 51.3927624, "longitude": 7.7654113, "source": "osm", "_tags": {"amenity": "hospital", "emergency": "yes", "healthcare": "hospital", "healthcare:speciality": "pulmonology", "name": "Lungenklinik Hemer", "opening_hours": "24/7", "operator": "Deutscher Gemeinschafts-Diakonieverband", "wheelchair": "yes", "wikidata": "Q1877469", "wikipedia": "de:Lungenklinik Hemer"}}, {"name": "Klinikum Siegen", "latitude": 50.9024873, "longitude": 8.0205265, "source": "osm", "_tags": {"addr:housenumber": "76", "addr:postcode": "57076", "addr:street": "Weidenauer Straße", "amenity": "hospital", "contact:email": "info@klinikum-siegen.de", "contact:facebook": "KlinikumSiegen", "contact:fax": "+49 271 705-2114", "contact:instagram": "klinikumsiegen", "contact:phone": "+49 271 705-0", "contact:website": "https://www.klinikum-siegen.de", "emergency": "yes", "healthcare": "hospital", "name": "Klinikum Siegen", "opening_hours": "24/7", "wheelchair": "yes"}}, {"name": "DGD Stadtklinik Hemer", "latitude": 51.3903088, "longitude": 7.7574648, "source": "osm", "_tags": {"amenity": "hospital", "emergency": "yes", "healthcare": "hospital", "name": "DGD Stadtklinik Hemer", "old_name": "Paracelsus-Klinik Hemer", "wikidata": "Q88183008"}}, {"name": "Marienkrankenhaus Soest", "latitude": 51.5749376, "longitude": 8.1123508, "source": "osm", "_tags": {"addr:city": "Soest", "addr:housenumber": "5", "addr:postcode": "59494", "addr:street": "Widumgasse", "alt_name": "K 10/1", "amenity": "hospital", "building": "hospital", "check_date": "2024-08-01", "contact:email": "info@marienkrankenhaus-soest.de", "contact:fax": "+49 2921 391 2240", "contact:phone": "+49 2921 391 0", "contact:website": "http://www.marienkrankenhaus-soest.de/", "healthcare": "hospital", "name": "Marienkrankenhaus Soest", "roof:colour": "grey", "wheelchair": "yes"}}, {"name": "Hospital zum Hl. Geist Geseke", "latitude": 51.6366454, "longitude": 8.5098743, "source": "osm", "_tags": {"addr:city": "Geseke", "addr:country": "DE", "addr:housenumber": "76", "addr:postcode": "59590", "addr:street": "Bachstraße", "amenity": "hospital", "building": "yes", "healthcare": "hospital", "name": "Hospital zum Hl. Geist Geseke", "phone": "+49 2942 5900", "website": "https://www.dreifaltigkeits-hospital.de/index.php?krankenhaus=Geseke"}}, {"name": "Klinik Wiesengrund", "latitude": 51.5919027, "longitude": 8.1729118, "source": "osm", "_tags": {"addr:city": "Bad Sassendorf", "addr:housenumber": "100", "addr:postcode": "59505", "addr:street": "Berliner Straße", "amenity": "hospital", "building": "yes", "healthcare": "hospital", "name": "Klinik Wiesengrund"}}, {"name": "Neurologische Klinik Sorpesee", "latitude": 51.3495788, "longitude": 7.9505313, "source": "osm", "_tags": {"amenity": "hospital", "building": "hospital", "email": "info@klinik-sorpesee.de", "emergency": "no", "fax": "+49 2935 807-200", "healthcare": "hospital", "healthcare:speciality": "neurology", "name": "Neurologische Klinik Sorpesee", "operator": "Neurologische Klinik Sorpesee GmbH & Co. KG", "phone": "+49 2935 807-0", "website": "https://www.klinik-sorpesee.de/", "wheelchair": "yes"}}, {"name": "Reha-Klinik Panorama", "latitude": 51.7171044, "longitude": 8.3304627, "source": "osm", "_tags": {"addr:city": "Lippstadt", "addr:country": "DE", "addr:housenumber": "3", "addr:postcode": "59556", "addr:street": "Eichenweg", "addr:suburb": "Bad Waldliesborn", "amenity": "hospital", "building": "yes", "name": "Reha-Klinik Panorama"}}, {"name": "St. Walburga Krankenhaus", "latitude": 51.3416742, "longitude": 8.2900458, "source": "osm", "_tags": {"addr:city": "Meschede", "addr:housenumber": "12", "addr:postcode": "59872", "addr:street": "Schederweg", "amenity": "hospital", "contact:phone": "+49 2921 202-0", "contact:website": "https://klinikum-hochsauerland.de/das-klinikum/standorte/st-walburga-krankenhaus", "emergency": "yes", "healthcare": "hospital", "name": "St. Walburga Krankenhaus", "opening_hours": "24/7", "operator": "Klinikum Hochsauerland GmbH", "wheelchair": "yes"}}, {"name": "Justizvollzugskrankenhaus Nordrhein-Westfalen", "latitude": 51.4782102, "longitude": 7.7826614, "source": "osm", "_tags": {"alt_name": "Justizvollzugskrankenhaus Fröndenberg", "amenity": "hospital", "contact:email": "poststelle@jvk.nrw.de", "contact:fax": "+49 2373 758-322", "contact:phone": "+49 2373 758-0", "contact:website": "https://www.jvk.nrw.de/", "emergency": "no", "healthcare": "hospital", "name": "Justizvollzugskrankenhaus Nordrhein-Westfalen", "wheelchair": "yes", "wikidata": "Q1714455", "wikipedia": "de:Justizvollzugskrankenhaus Nordrhein-Westfalen"}}, {"name": "St. Josefs-Hospital", "latitude": 51.1083281, "longitude": 8.0698833, "source": "osm", "_tags": {"addr:city": "Lennestadt", "addr:housenumber": "7", "addr:postcode": "57368", "addr:street": "Uferstraße", "amenity": "hospital", "check_date": "2024-07-22", "emergency": "yes", "name": "St. Josefs-Hospital", "operator": "Katholische Hospitalgesellschaft Südwestfalen gGmbH Olpe", "phone": "+49 2723 606 0", "website": "https://www.hospitalgesellschaft.com/", "wheelchair": "yes"}}, {"name": "St. Martinus-Hospital", "latitude": 51.0279623, "longitude": 7.8465989, "source": "osm", "_tags": {"addr:city": "Olpe", "addr:housenumber": "6", "addr:postcode": "57462", "addr:street": "Hospitalweg", "amenity": "hospital", "emergency": "yes", "healthcare": "hospital", "name": "St. Martinus-Hospital", "operator": "Katholische Hospitalgesellschaft Südwestfalen gGmbH Olpe", "phone": "+49 2751 85 0", "toilets:wheelchair": "yes", "website": "http://www.martinus-hospital.de", "wheelchair": "yes"}}, {"name": "St. Josefs-Krankenhaus", "latitude": 51.678315, "longitude": 8.618025, "source": "osm", "_tags": {"amenity": "hospital", "contact:phone": "+49 5258/10-0", "contact:website": "http://www.st-josefs.de/", "healthcare": "hospital", "name": "St. Josefs-Krankenhaus"}}, {"name": "Krankenhaus Maria-Hilf", "latitude": 51.4417984, "longitude": 8.355693, "source": "osm", "_tags": {"amenity": "hospital", "email": "info@krankenhaus-warstein.de", "emergency": "yes", "fax": "+49 2902 891-198", "healthcare": "hospital", "healthcare:speciality": "general;surgery;fertility;gastroenterology;gynaecology;internal;cardiology;neurology;orthopaedics;radiology;trauma", "name": "Krankenhaus Maria-Hilf", "opening_hours": "24/7", "operator": "Krankenhaus Maria Hilf GmbH", "phone": "+49 2902 891-0", "website": "https://www.krankenhaus-warstein.de/"}}, {"name": "Vamed Klinik Bad Berleburg", "latitude": 51.0603711, "longitude": 8.4026673, "source": "osm", "_tags": {"amenity": "hospital", "contact:phone": "+49 2751 802-0", "emergency": "yes", "healthcare": "hospital", "name": "Vamed Klinik Bad Berleburg", "opening_hours": "24/7", "wheelchair": "yes"}}, {"name": "Mariannen-Hospital Werl", "latitude": 51.551304, "longitude": 7.9063043, "source": "osm", "_tags": {"addr:city": "Werl", "addr:housenumber": "15", "addr:postcode": "59457", "addr:street": "Unnaer Straße", "amenity": "hospital", "emergency": "yes", "healthcare": "hospital", "name": "Mariannen-Hospital Werl", "operator": "Katholischer Hospitalverbund Hellweg", "operator:type": "private", "website": "https://www.mariannen-hospital.de/"}}, {"name": "Städtisches Krankenhaus Maria-Hilf", "latitude": 51.3859744, "longitude": 8.5819695, "source": "osm", "_tags": {"addr:city": "Brilon", "addr:housenumber": "1", "addr:postcode": "59929", "addr:street": "Am Schönschede", "amenity": "hospital", "contact:email": "info@kh-brilon.de", "contact:phone": "+49 2961 780-0", "contact:website": "https://www.krankenhaus-brilon.de", "emergency": "yes", "healthcare": "hospital", "name": "Städtisches Krankenhaus Maria-Hilf", "opening_hours": "24/7", "operator": "Städt. Krankenhaus Maria-Hilf Brilon gGmbH"}}, {"name": "St. Barbara Klinik", "latitude": 51.7082938, "longitude": 7.841015, "source": "osm", "_tags": {"amenity": "hospital", "email": "info@barbaraklinik.de", "fax": "+49 2381 6811263", "healthcare": "hospital", "name": "St. Barbara Klinik", "phone": "+49 2381 6810", "website": "https://www.barbaraklinik.de", "wikidata": "Q110719657", "wikipedia": "de:St. Barbara-Klinik Hamm-Heessen"}}, {"name": "DRK-Krankenhaus Biedenkopf", "latitude": 50.9134839, "longitude": 8.5230662, "source": "osm", "_tags": {"addr:city": "Biedenkopf", "addr:country": "DE", "addr:housenumber": "71-75", "addr:postcode": "35216", "addr:street": "Hainstraße", "amenity": "hospital", "healthcare": "hospital", "name": "DRK-Krankenhaus Biedenkopf", "wheelchair": "yes"}}, {"name": "Dr. Becker Klinik Möhnesee", "latitude": 51.49224, "longitude": 8.1173597, "source": "osm", "_tags": {"addr:city": "Möhnesee", "addr:country": "DE", "addr:housenumber": "2", "addr:postcode": "59519", "addr:street": "Schnappweg", "addr:suburb": "Körbecke", "amenity": "hospital", "contact:email": "info.klinik-moehnesee@dbkg.de", "contact:fax": "+49 2924 800-555", "contact:phone": "+49 2924 800-0", "contact:website": "https://www.dbkg.de/kliniken/klinik_moehnesee", "healthcare": "rehabilitation", "name": "Dr. Becker Klinik Möhnesee", "operator": "Dr. Becker Klinikgesellschaft mbH & Co. KG", "operator:wikidata": "Q1253817", "wheelchair": "yes"}}, {"name": "", "latitude": 51.715429, "longitude": 8.3403924, "source": "osm", "_tags": {"amenity": "hospital", "healthcare": "rehabilitation"}}, {"name": "Christliches Krankenhaus (Wiedenbrücker Straße)", "latitude": 51.6847853, "longitude": 8.342369, "source": "osm", "_tags": {"addr:city": "Lippstadt", "addr:housenumber": "33", "addr:postcode": "59555", "addr:street": "Wiedenbrücker Straße", "amenity": "hospital", "emergency": "yes", "healthcare": "hospital", "name": "Christliches Krankenhaus (Wiedenbrücker Straße)", "operator": "Klinikum Lippstadt GmbH", "website": "https://klinikumlippstadt.de/"}}, {"name": "St. Franziskus-Hospital Winterberg", "latitude": 51.1932756, "longitude": 8.5373788, "source": "osm", "_tags": {"addr:city": "Winterberg", "addr:housenumber": "2", "addr:postcode": "59955", "addr:street": "Franziskusstraße", "amenity": "hospital", "contact:email": "verwaltung@gesundheitszentrum-winterberg.de", "contact:fax": "+49 2981 802-4316", "contact:phone": "+49 2981 802-0", "contact:website": "https://gesundheitszentrum-winterberg.de", "emergency": "yes", "healthcare": "hospital", "name": "St. Franziskus-Hospital Winterberg", "opening_hours": "24/7", "operator": "St. Franziskus-Hospital Winterberg gGmbH", "wheelchair": "yes"}}, {"name": "Diakonie Klinikum Jung-Stilling", "latitude": 50.8517284, "longitude": 8.0182242, "source": "osm", "_tags": {"amenity": "hospital", "contact:email": "diakonie-klinikum@diakonie-sw.de", "contact:fax": "+49 271 333-4996", "contact:phone": "+49 271 333-3", "contact:website": "https://www.jung-stilling.de/", "emergency": "yes", "healthcare": "hospital", "name": "Diakonie Klinikum Jung-Stilling", "opening_hours": "24/7", "operator": "Diakonie Klinikum GmbH", "wheelchair": "yes"}}, {"name": "Krankenhaus Plettenberg", "latitude": 51.2131947, "longitude": 7.8867037, "source": "osm", "_tags": {"amenity": "hospital", "contact:email": "info@radprax.de", "contact:phone": "+49 2391 630", "contact:website": "https://www.radprax.de/krankenhaus-plettenberg/", "emergency": "yes", "name": "Krankenhaus Plettenberg", "operator": "radprax Krankenhaus Plettenberg GmbH", "wheelchair": "yes", "wikidata": "Q15117623", "wikipedia": "de:Krankenhaus Plettenberg"}}, {"name": "Stadtklinik Werdohl", "latitude": 51.2570778, "longitude": 7.7654125, "source": "osm", "_tags": {"amenity": "hospital", "contact:fax": "+49 2392 57-357", "contact:phone": "+49 2392 57-0", "contact:website": "https://www.maerkische-kliniken.de/stadtklinik-werdohl/", "emergency": "yes", "healthcare": "hospital", "name": "Stadtklinik Werdohl", "opening_hours": "24/7", "wheelchair": "yes"}}, {"name": "St. Vincent Krankenhaus", "latitude": 51.4368749, "longitude": 7.8006684, "source": "osm", "_tags": {"amenity": "hospital", "emergency": "yes", "healthcare": "hospital", "name": "St. Vincent Krankenhaus"}}, {"name": "Marienhospital", "latitude": 51.4014473, "longitude": 8.0727986, "source": "osm", "_tags": {"amenity": "hospital", "healthcare": "hospital", "name": "Marienhospital", "website": "https://klinikum-hochsauerland.de/das-klinikum/standorte/marienhospital", "wikidata": "Q2776846", "wikipedia": "de:Marienhospital Arnsberg"}}, {"name": "Marien-Hospital Erwitte", "latitude": 51.6151728, "longitude": 8.3387207, "source": "osm", "_tags": {"addr:city": "Erwitte", "addr:housenumber": "14", "addr:postcode": "59597", "addr:street": "Von-Droste-Straße", "amenity": "hospital", "building": "hospital", "contact:email": "info@dreifaltigkeits-hospital.de", "contact:fax": "+49 2943 890-8809", "contact:phone": "+49 2943 890-0", "contact:website": "https://dreifaltigkeits-hospital.de/erwitte/", "emergency": "no", "healthcare": "hospital", "name": "Marien-Hospital Erwitte", "opening_hours": "24/7", "operator": "Dreifaltigkeits-Hospital gGmbH", "type": "multipolygon", "wheelchair": "yes"}}, {"name": "Klinik am Hellweg", "latitude": 51.5871717, "longitude": 8.1705369, "source": "osm", "_tags": {"addr:city": "Bad Sassendorf", "addr:housenumber": "6", "addr:postcode": "59505", "addr:street": "Friedrichstraße", "amenity": "hospital", "building": "yes", "healthcare": "hospital", "name": "Klinik am Hellweg", "type": "multipolygon", "wheelchair": "limited"}}, {"name": "Klinik für Manuelle Therapie", "latitude": 51.6902634, "longitude": 7.8431249, "source": "osm", "_tags": {"addr:city": "Hamm", "addr:country": "DE", "addr:housenumber": "83", "addr:street": "Ostenallee", "amenity": "hospital", "building": "hospital", "fax": "+49 2381 986719", "name": "Klinik für Manuelle Therapie", "phone": "+49 2381 9860", "type": "multipolygon", "website": "https://www.kmt-hamm.de/", "wheelchair": "yes"}}, {"name": "St. Elisabeth-Hospital", "latitude": 51.7526753, "longitude": 8.0388477, "source": "osm", "_tags": {"addr:city": "Beckum", "addr:country": "DE", "addr:housenumber": "10", "addr:postcode": "59269", "addr:street": "Elisabethstraße", "amenity": "hospital", "building": "yes", "emergency": "yes", "healthcare": "hospital", "healthcare:speciality": "emergency;intensive;surgery;internal;urology;vascular_surgery;geriatrics;trauma", "name": "St. Elisabeth-Hospital", "operator": "St. Franziskus-Stiftung Münster", "operator:type": "private", "operator:wikidata": "Q2318238", "type": "multipolygon", "website": "https://www.krankenhaus-beckum.de", "wheelchair": "yes"}}]