[{"name": "The Paddocks Hospital", "latitude": 51.7284019, "longitude": -0.8262369, "source": "osm", "_tags": {"addr:full": "Princes Risborough", "addr:postcode": "HP27 0JS", "addr:street": "Aylesbury Road", "amenity": "hospital", "healthcare": "hospital", "name": "The Paddocks Hospital", "operator:type": "private", "postal_code": "HP27 0JS", "website": "https://www.bmihealthcare.co.uk/hospitals/bmi-the-paddocks-clinic"}}, {"name": "UCL Institute of Orthopaedics and Musculoskeletal Science", "latitude": 51.6312434, "longitude": -0.3074425, "source": "osm", "_tags": {"amenity": "hospital", "name": "UCL Institute of Orthopaedics and Musculoskeletal Science", "toilets:wheelchair": "yes", "wheelchair": "yes"}}, {"name": "Shrublands Day Hospital", "latitude": 51.6270176, "longitude": -0.7394082, "source": "osm", "_tags": {"amenity": "hospital", "name": "Shrublands Day Hospital"}}, {"name": "Leatherhead Clinic", "latitude": 51.295826, "longitude": -0.3195308, "source": "osm", "_tags": {"addr:city": "Leatherhead", "addr:postcode": "KT22 8SD", "addr:street": "Poplar Road", "amenity": "hospital", "healthcare": "hospital", "name": "Leatherhead Clinic", "phone": "+44 1372 384300", "toilets:wheelchair": "no", "website": "https://www.cshsurrey.co.uk/our-services/location/leatherhead-clinic", "wheelchair": "yes", "wheelchair:description": "Ramp from 3 Blue Badge spaces to automatic doors (open outward). Accessible Toilet behind main reception only 120cm clear width. [No working hearing loops Feb 2018]"}}, {"name": "The Chalfonts and Gerrards Cross Hospital", "latitude": 51.6072855, "longitude": -0.5614238, "source": "osm", "_tags": {"addr:city": "Chalfont St Peter", "addr:postcode": "SL9 9DR", "addr:street": "Hampden Road", "contact:phone": "+44 1753 883821", "healthcare": "hospital", "name": "The Chalfonts and Gerrards Cross Hospital", "operator": "Buckinghamshire Healthcare NHS Trust", "website": "http://www.buckshealthcare.nhs.uk/visiting-your-hospitals/visiting/chalfonts-and-gerrards-hospital/", "wikidata": "Q30292791"}}, {"name": "Cobham Day Surgery", "latitude": 51.3347608, "longitude": -0.4079026, "source": "osm", "_tags": {"addr:city": "Cobham", "addr:housenumber": "168", "addr:postcode": "KT11 1HS", "addr:street": "Portsmouth Road", "amenity": "hospital", "contact:phone": "+44 1932 588400", "emergency": "no", "healthcare": "hospital", "name": "Cobham Day Surgery", "opening_hours": "Mo-Fr 08:00-18:00", "operator": "Epsomedical"}}, {"name": "Connolly House", "latitude": 50.8478033, "longitude": -0.7758343, "source": "osm", "_tags": {"addr:city": "Chichester", "addr:postcode": "PO19 6PG", "addr:street": "College Lane", "amenity": "hospital", "fhrs:authority": "Chichester", "fhrs:id": "7702", "fhrs:local_authority_id": "03/00161/FOOD", "healthcare": "hospital", "name": "Connolly House", "operator": "Sussex Partnership NHS Trust"}}, {"name": "Elmleigh Hospital", "latitude": 50.8582719, "longitude": -0.9748866, "source": "osm", "_tags": {"amenity": "hospital", "name": "Elmleigh Hospital", "source": "Bing"}}, {"name": "Coronary Care Unit (CCU) and Cardiology Ward", "latitude": 51.2816292, "longitude": -1.1114254, "source": "osm", "_tags": {"addr:housename": "1st Floor", "amenity": "hospital", "contact:phone": "+44 1256 313 627", "healthcare": "hospital", "healthcare:speciality": "cardiology", "name": "Coronary Care Unit (CCU) and Cardiology Ward", "operator": "Hampshire Hospitals NHS Foundation Trust", "operator:type": "government", "phone": "+44 1256 852 648", "website": "https://www.hampshirehospitals.nhs.uk/our-services/az-departments-and-specialties/coronary-care-unit-ccu-and-cardiology-ward"}}, {"name": "Optegra Eye Hospital", "latitude": 51.2411966, "longitude": -0.613303, "source": "osm", "_tags": {"address": "GU2 7YF", "barrier": "entrance", "healthcare": "hospital", "internet_access": "yes", "name": "Optegra Eye Hospital", "source": "Wheelmap Survey visit 2024-01-17", "toilets:wheelchair": "yes", "wheelchair": "yes", "wheelchair:description": "Step-free entrance with automatic sliding doors. Slightly sloping path from Blue Badge spaces"}}, {"name": "Watford General Hospital", "latitude": 51.6490168, "longitude": -0.4042252, "source": "osm", "_tags": {"addr:postcode": "WD18 0HB", "addr:street": "Vicarage Rd, Watford", "amenity": "hospital", "emergency": "yes", "healthcare": "hospital", "name": "Watford General Hospital", "operator": "https://www.westhertshospitals.nhs.uk/about/watfordgeneralhospital.asp", "phone": "+44 1923 244366"}}, {"name": "Hounslow Medical Centre", "latitude": 51.4694387, "longitude": -0.3772728, "source": "osm", "_tags": {"amenity": "hospital", "healthcare": "hospital", "name": "Hounslow Medical Centre"}}, {"name": "NHS Albany Lodge and St Albans Children Centre", "latitude": 51.7553436, "longitude": -0.3440455, "source": "osm", "_tags": {"amenity": "hospital", "healthcare": "hospital", "name": "NHS Albany Lodge and St Albans Children Centre", "operator": "NHS", "operator:type": "public", "operator:wikidata": "Q918396"}}, {"name": "Northwick Park Hospital", "latitude": 51.5753346, "longitude": -0.3215253, "source": "osm", "_tags": {"addr:city": "Harrow", "addr:country": "GB", "addr:housename": "Northwick Park Hospital", "addr:postcode": "HA1 3UJ", "addr:street": "Watford Road", "amenity": "hospital", "emergency": "yes", "healthcare": "hospital", "name": "Northwick Park Hospital", "phone": "+44 20 8864 3232", "wheelchair": "yes", "wikidata": "Q7060443", "wikipedia": "en:Northwick Park Hospital"}}, {"name": "Watford General Hospital", "latitude": 51.6485174, "longitude": -0.4020442, "source": "osm", "_tags": {"addr:city": "Watford", "addr:street": "Vicarage Road", "amenity": "hospital", "contact:website": "https://www.westhertshospitals.nhs.uk/about/watfordgeneralhospital.asp", "emergency": "yes", "healthcare": "hospital", "name": "Watford General Hospital", "operator": "NHS", "operator:type": "government", "operator:wikidata": "Q918396", "phone": "+44 1923 244366", "toilets:wheelchair": "yes", "website": "https://www.westhertshospitals.nhs.uk/default.asp", "wheelchair": "yes", "wikidata": "Q7974617", "wikipedia": "en:Watford General Hospital"}}, {"name": "Ashford Hospital", "latitude": 51.4443852, "longitude": -0.4733728, "source": "osm", "_tags": {"addr:city": "Ashford", "addr:postcode": "TW15 3AA", "addr:street": "London Road", "amenity": "hospital", "contact:website": "http://www.ashfordstpeters.nhs.uk/", "emergency": "no", "fhrs:id": "1255632", "healthcare": "hospital", "name": "Ashford Hospital", "operator": "Ashford and St. Peter's Hospitals NHS Foundation Trust", "operator:type": "government", "source:addr": "fhrs opendata", "toilets:wheelchair": "yes", "website": "http://www.ashfordstpeters.nhs.uk/", "wheelchair": "yes", "wheelchair:description": "Changing Places Toilet is located in the 1st floor outpatients department and is not locked. http://changingplaces.uktoiletmap.org/toilet/view/903", "wikidata": "Q30292831", "wikipedia": "en:Ashford Hospital"}}, {"name": "St Mark's", "latitude": 51.575993, "longitude": -0.3201695, "source": "osm", "_tags": {"amenity": "hospital", "healthcare": "hospital", "name": "St Mark's", "wikidata": "Q7589963"}}, {"name": "John Radcliffe Hospital", "latitude": 51.7641092, "longitude": -1.2194901, "source": "osm", "_tags": {"addr:city": "Oxford", "addr:postcode": "OX3 9DU", "addr:street": "Headley Way", "addr:suburb": "Headington", "amenity": "hospital", "contact:phone": "+44 300 304 7777", "contact:website": "https://www.ouh.nhs.uk/hospitals/jr/", "emergency": "yes", "healthcare": "hospital", "loc_name": "The JR", "name": "John Radcliffe Hospital", "short_name": "JR Hospital", "source": "yahoo_imagery", "wikidata": "Q6254080", "wikipedia": "en:John Radcliffe Hospital"}}, {"name": "Tolworth Hospital", "latitude": 51.3794911, "longitude": -0.2891912, "source": "osm", "_tags": {"addr:city": "Surbiton", "addr:country": "GB", "addr:postcode": "KT6 7QU", "addr:street": "Red Lion Road", "amenity": "hospital", "emergency": "no", "healthcare": "hospital", "image": "https://commons.wikimedia.org/wiki/File:Tolworth_Hospital_sign.jpg", "name": "Tolworth Hospital", "operator": "NHS", "phone": "+44 20 3513 5000", "website": "https://www.swlstg.nhs.uk/", "wikidata": "Q30292891"}}, {"name": "Kingston Hospital", "latitude": 51.4149164, "longitude": -0.2826846, "source": "osm", "_tags": {"addr:city": "Kingston upon Thames", "addr:postcode": "KT2 7QB", "addr:street": "Galsworthy Road", "amenity": "hospital", "emergency": "yes", "fhrs:id": "1385880", "healthcare": "hospital", "name": "Kingston Hospital", "ref:GB:cqc_location": "RAX01", "source:addr": "FHRS Open Data", "wikidata": "Q50517755"}}, {"name": "Nuffield Orthopaedic Centre", "latitude": 51.7545432, "longitude": -1.2090151, "source": "osm", "_tags": {"amenity": "hospital", "healthcare": "hospital", "name": "Nuffield Orthopaedic Centre", "source": "yahoo_imagery", "wikidata": "Q7068714"}}, {"name": "The Oxford Centre for Diabetes, Endocrinology and Metabolism 1", "latitude": 51.7477485, "longitude": -1.2138996, "source": "osm", "_tags": {"alt_name": "OCDEM 1", "building": "hospital", "healthcare": "hospital", "healthcare:speciality": "endocrinology", "name": "The Oxford Centre for Diabetes, Endocrinology and Metabolism 1"}}, {"name": "Warneford Hospital", "latitude": 51.7506708, "longitude": -1.2214959, "source": "osm", "_tags": {"amenity": "hospital", "emergency": "no", "healthcare": "hospital", "name": "Warneford Hospital", "note": "Fixed the size of the Warnford Mental Hospital facility and added a very new path stucure though a newly cut down piece of woodland. Purpose for it is unclear.", "wikidata": "Q14956785"}}, {"name": "Central Middlesex Hospital", "latitude": 51.5314837, "longitude": -0.2676149, "source": "osm", "_tags": {"addr:city": "London", "addr:postcode": "NW10 7NS", "addr:street": "Acton Lane", "amenity": "hospital", "emergency": "yes", "healthcare": "hospital", "name": "Central Middlesex Hospital", "phone": "+44 20 8965 5733", "website": "https://www.lnwh.nhs.uk/central-middlesex-hospital/", "wikidata": "Q5061433"}}, {"name": "Churchill Hospital", "latitude": 51.7491861, "longitude": -1.2129786, "source": "osm", "_tags": {"amenity": "hospital", "healthcare": "hospital", "name": "Churchill Hospital", "nohousenumber": "yes", "phone": "+44 300 304 7777", "website": "https://%20www.ouh.nhs.uk/hospitals/churchhill/"}}, {"name": "Wexham Park Hospital", "latitude": 51.5322498, "longitude": -0.5740083, "source": "osm", "_tags": {"addr:city": "Slough", "addr:housename": "Wexham Park", "addr:postcode": "SL2 4HL", "amenity": "hospital", "emergency": "yes", "healthcare": "hospital", "name": "Wexham Park Hospital", "operator": "Frimley Health NHS Foundation Trust", "operator:type": "public/government", "ref:GB:cqc_location": "RDU50", "wikidata": "Q7990262", "wikipedia": "en:Wexham Park Hospital"}}, {"name": "Townlands Memorial Hospital", "latitude": 51.5386736, "longitude": -0.9090387, "source": "osm", "_tags": {"addr:city": "Henley-on-Thames", "addr:postcode": "RG9 2DR", "addr:street": "York Road", "alt_name": "Townlands Hospital", "amenity": "hospital", "contact:phone": "+44 1865 903363", "fhrs:id": "271816", "fhrs:local_authority_id": "AD:16407", "healthcare": "hospital", "healthcare:speciality": "minor_injuries", "name": "Townlands Memorial Hospital", "operator": "Oxford Health NHS Foundation Trust", "phone": "+44 1865 903363", "ref:GB:cqc_location": "RHW04", "wheelchair": "yes", "wikidata": "Q30293112"}}, {"name": "West Middlesex Hospital", "latitude": 51.4730783, "longitude": -0.3244097, "source": "osm", "_tags": {"addr:street": "Twickenham Road", "amenity": "hospital", "healthcare": "hospital", "name": "West Middlesex Hospital", "wheelchair": "yes", "wikidata": "Q7985920", "wikipedia": "en:West Middlesex University Hospital"}}, {"name": "Queen Alexandra Hospital", "latitude": 50.8501874, "longitude": -1.0700386, "source": "osm", "_tags": {"addr:city": "Portsmouth", "addr:postcode": "PO6 3LY", "amenity": "hospital", "brand": "NHS", "emergency": "yes", "healthcare": "hospital", "name": "Queen Alexandra Hospital", "operator": "NHS", "operator:type": "government", "operator:wikidata": "Q918396", "phone": "+44 23 9228 6000", "short_name": "QA", "toilets:wheelchair": "yes", "website": "https://www.porthosp.nhs.uk/", "wheelchair": "yes", "wikidata": "Q7270183", "wikipedia": "en:Queen Alexandra Hospital"}}, {"name": "Royal Berkshire Hospital", "latitude": 51.449191, "longitude": -0.9580091, "source": "osm", "_tags": {"addr:city": "Reading", "addr:postcode": "RG1 5AN", "addr:street": "London Road", "amenity": "hospital", "emergency": "yes", "healthcare": "hospital", "name": "Royal Berkshire Hospital", "operator": "Royal Berkshire NHS Foundation Trust", "wikidata": "Q7373809", "wikipedia": "en:Royal Berkshire Hospital"}}, {"name": "Hillingdon Hospital", "latitude": 51.5255502, "longitude": -0.4614789, "source": "osm", "_tags": {"addr:city": "Uxbridge", "addr:postcode": "UB8 3NN", "addr:street": "Pield Heath Road", "amenity": "hospital", "emergency": "yes", "healthcare": "hospital", "name": "Hillingdon Hospital", "operator": "The Hillingdon Hospitals NHS Trust", "wikidata": "Q5763292"}}, {"name": "The Manor Hospital", "latitude": 51.7602574, "longitude": -1.2154791, "source": "osm", "_tags": {"amenity": "hospital", "emergency": "no", "healthcare": "hospital", "name": "The Manor Hospital", "operator": "Nuffield Health", "operator:type": "private", "operator:wikidata": "Q7068711", "source:geometry": "Bing", "wikidata": "Q113379692"}}, {"name": "St Albans City Hospital", "latitude": 51.7601507, "longitude": -0.3439161, "source": "osm", "_tags": {"addr:city": "St Albans", "addr:postcode": "AL3 5PN", "addr:street": "Waverley Road", "alt_name": "St Albans Hospital", "amenity": "hospital", "contact:website": "https://www.westhertshospitals.nhs.uk/about/stalbanscityhospital.asp", "emergency": "no", "fhrs:authority": "St Albans City", "fhrs:id": "306074", "healthcare": "hospital", "name": "St Albans City Hospital", "operator": "NHS", "operator:type": "public", "operator:wikidata": "Q918396", "phone": "+44 1727 866122", "website": "https://www.westhertshospitals.nhs.uk/default.asp", "wikidata": "Q30292901"}}, {"name": "Cygnet Hospital", "latitude": 51.3147995, "longitude": -0.6152907, "source": "osm", "_tags": {"addr:city": "Woking", "addr:postcode": "GU21 2QS", "amenity": "hospital", "building": "yes", "name": "Cygnet Hospital"}}, {"name": "Farnham Road Hospital", "latitude": 51.2356213, "longitude": -0.5850384, "source": "osm", "_tags": {"addr:city": "Guildford", "addr:country": "GB", "addr:postcode": "GU2 7LX", "addr:street": "Farnham Road", "amenity": "hospital", "emergency": "no", "fhrs:authority": "Guildford", "fhrs:id": "649834", "fhrs:local_authority_id": "4440", "healthcare": "hospital", "name": "Farnham Road Hospital", "postal_code": "GU2 7LX", "toilets:wheelchair": "yes", "website": "https://www.sabp.nhs.uk/", "wheelchair": "yes", "wheelchair:description": "Ramped route from Farnham Road. Dedicated Blue Badge spaces in car park (access entryphone). Automatic doors open out. Accessible toilet near reception.", "wikidata": "Q16992079"}}, {"name": "Mount Vernon", "latitude": 51.6156301, "longitude": -0.4459713, "source": "osm", "_tags": {"amenity": "hospital", "healthcare": "hospital", "name": "Mount Vernon", "wikidata": "Q6924380"}}, {"name": "Royal National Orthopaedic Hospital", "latitude": 51.6315888, "longitude": -0.3139203, "source": "osm", "_tags": {"amenity": "hospital", "healthcare": "hospital", "name": "Royal National Orthopaedic Hospital", "wikidata": "Q7374518"}}, {"name": "St Mark's Hospital", "latitude": 51.5255422, "longitude": -0.7434217, "source": "osm", "_tags": {"addr:city": "Maidenhead", "addr:postcode": "SL6 6DU", "addr:street": "St Mark's Road", "amenity": "hospital", "healthcare": "hospital", "name": "St Mark's Hospital", "ref:GB:cqc_location": "RDU54;RWXZ1", "website": "https://www.berkshirehealthcare.nhs.uk/our-sites/windsor-ascot-maidenhead/st-marks-hospital/", "wikidata": "Q87872513"}}, {"name": "Stoke Mandeville Hospital", "latitude": 51.7982923, "longitude": -0.801917, "source": "osm", "_tags": {"addr:city": "Aylesbury", "addr:country": "GB", "addr:postcode": "HP21 8AL", "addr:street": "Mandeville Road", "amenity": "hospital", "emergency": "yes", "healthcare": "hospital", "name": "Stoke Mandeville Hospital", "website": "https://www.buckshealthcare.nhs.uk/For%20patients%20and%20visitors/stoke-mandeville-hospital.htm", "wikidata": "Q2741521", "wikipedia": "en:Stoke Mandeville Hospital"}}, {"name": "Royal Surrey County Hospital", "latitude": 51.2411709, "longitude": -0.6088556, "source": "osm", "_tags": {"addr:city": "Guildford", "addr:postcode": "GU2 7XX", "addr:street": "Egerton Road", "amenity": "hospital", "emergency": "yes", "fhrs:id": "649588", "healthcare": "hospital", "name": "Royal Surrey County Hospital", "wikidata": "Q7374889"}}, {"name": "Spire Clare Park Hospital", "latitude": 51.2252021, "longitude": -0.8473544, "source": "osm", "_tags": {"addr:city": "Farnham", "addr:country": "GB", "addr:postcode": "GU10 5XX", "amenity": "hospital", "healthcare": "hospital", "name": "Spire Clare Park Hospital", "operator": "Spire Healthcare"}}, {"name": "Parklands Hospital", "latitude": 51.2827063, "longitude": -1.1122463, "source": "osm", "_tags": {"addr:city": "Basingstoke", "addr:postcode": "RG24 9RH", "amenity": "hospital", "building": "yes", "healthcare": "hospital", "name": "Parklands Hospital", "source": "OS7"}}, {"name": "Ealing Hospital", "latitude": 51.5075305, "longitude": -0.3453188, "source": "osm", "_tags": {"addr:city": "Southall", "addr:postcode": "UB1 3HW", "addr:street": "Uxbridge Road", "amenity": "hospital", "contact:website": "https://www.lnwh.nhs.uk/ealing-hospital/?", "emergency": "yes", "healthcare": "hospital", "name": "Ealing Hospital", "phone": "+44 20 8967 5000", "wheelchair": "yes"}}, {"name": "Fleet Community Hospital", "latitude": 51.2874427, "longitude": -0.8485718, "source": "osm", "_tags": {"amenity": "hospital", "emergency": "no", "healthcare": "hospital", "name": "Fleet Community Hospital"}}, {"name": "Princes House", "latitude": 51.4517657, "longitude": -0.9590183, "source": "osm", "_tags": {"addr:city": "Reading", "addr:housenumber": "73a", "addr:postcode": "RG1 5UZ", "addr:street": "London Road", "amenity": "hospital", "building": "yes", "name": "Princes House", "ref:GB:uprn": "310086249;310073406", "source:building": "OS_OpenData_StreetView"}}, {"name": "RMC", "latitude": 51.2407174, "longitude": -0.9469298, "source": "osm", "_tags": {"access": "private", "amenity": "hospital", "building": "yes", "healthcare": "hospital", "name": "RMC"}}, {"name": "", "latitude": 51.5905128, "longitude": -0.2819639, "source": "osm", "_tags": {"amenity": "hospital", "source": "OS"}}, {"name": "Wycombe General Hospital", "latitude": 51.6263178, "longitude": -0.7544882, "source": "osm", "_tags": {"addr:postcode": "HP11 2TT", "amenity": "hospital", "emergency": "no", "fhrs:id": "626891", "healthcare": "hospital", "name": "Wycombe General Hospital", "wikidata": "Q8039641"}}, {"name": "Thame Community Hospital", "latitude": 51.7448703, "longitude": -0.9696827, "source": "osm", "_tags": {"addr:city": "Thame", "addr:postcode": "OX9 3JT", "addr:street": "East Street", "amenity": "hospital", "building": "yes", "emergency": "no", "fhrs:id": "272229", "healthcare": "hospital", "name": "Thame Community Hospital", "wheelchair": "yes", "wikidata": "Q30293006"}}, {"name": "Nuffield Health Chichester Hospital", "latitude": 50.8479576, "longitude": -0.7799525, "source": "osm", "_tags": {"addr:city": "Chichester", "addr:postcode": "PO19 6WB", "addr:street": "Broyle Road", "amenity": "hospital", "building": "hospital", "fhrs:authority": "Chichester", "fhrs:id": "147734", "fhrs:local_authority_id": "92/00743/FOOD", "healthcare": "hospital", "name": "Nuffield Health Chichester Hospital", "operator": "Nuffield Health", "operator:type": "private", "operator:wikidata": "Q7068711"}}, {"name": "Petersfield Hospital", "latitude": 51.0038869, "longitude": -0.9423811, "source": "osm", "_tags": {"addr:city": "Petersfield", "addr:postcode": "GU32 3LB", "addr:street": "Swan Street", "amenity": "hospital", "building": "hospital", "fhrs:id": "910460", "healthcare": "hospital", "name": "Petersfield Hospital", "wikidata": "Q30292859"}}, {"name": "King Edward VII Hospital", "latitude": 51.473523, "longitude": -0.6140584, "source": "osm", "_tags": {"amenity": "hospital", "emergency": "no", "healthcare": "hospital", "name": "King Edward VII Hospital", "ref:GB:cqc_location": "RDU53", "wikidata": "Q87868745"}}, {"name": "Worthing Hospital", "latitude": 50.8165002, "longitude": -0.3641218, "source": "osm", "_tags": {"addr:city": "Worthing", "addr:postcode": "BN11 2DH", "addr:street": "Lyndhurst Road", "amenity": "hospital", "emergency": "yes", "healthcare": "hospital", "name": "Worthing Hospital", "website": "https://www.uhsussex.nhs.uk/hospitals/worthing-hospital/", "wheelchair": "yes", "wikidata": "Q8037222", "wikipedia": "en:Worthing Hospital"}}, {"name": "Horsham Hospital", "latitude": 51.0701027, "longitude": -0.3244136, "source": "osm", "_tags": {"addr:city": "Horsham", "addr:postcode": "RH12 2DR", "addr:street": "Hurst Road", "amenity": "hospital", "emergency": "no", "fhrs:id": "194001", "healthcare": "hospital", "name": "Horsham Hospital", "note": "has minor injuries unit", "operator": "NHS", "operator:wikidata": "Q918396", "source": "OS OpenData StreetView", "source:addr": "FHRS Open Data"}}, {"name": "Berkshire Independent Hospital", "latitude": 51.4443285, "longitude": -0.9886605, "source": "osm", "_tags": {"amenity": "hospital", "healthcare": "hospital", "name": "Berkshire Independent Hospital", "name:en": "Berkshire Independent Hospital", "wikidata": "Q30292927"}}, {"name": "Broadmoor Hospital", "latitude": 51.3687608, "longitude": -0.7774648, "source": "osm", "_tags": {"addr:city": "Crowthorne", "addr:street": "Joshua Jebb Way", "amenity": "hospital", "emergency": "no", "healthcare": "hospital", "healthcare:speciality": "psychiatry", "name": "Broadmoor Hospital", "old_name": "Broadmoor Criminal Lunatic Asylum", "operator": "NHS", "operator:wikidata": "Q918396", "source": "Bing", "start_date": "1863", "website": "https://www.westlondon.nhs.uk/our-services/adult/secure-services/broadmoor-hospital", "wikidata": "Q4972265", "wikipedia": "en:Broadmoor Hospital"}}, {"name": "Wokingham Hospital", "latitude": 51.4102863, "longitude": -0.845857, "source": "osm", "_tags": {"amenity": "hospital", "emergency": "no", "name": "Wokingham Hospital", "wikidata": "Q30293197"}}, {"name": "Holy Cross Hospital", "latitude": 51.0905211, "longitude": -0.7372102, "source": "osm", "_tags": {"addr:city": "Haslemere", "addr:postcode": "GU27 1NQ", "addr:street": "Hindhead Road", "amenity": "hospital", "email": "reception@holycross.org.uk", "emergency": "no", "fax": "+44 1428 644007", "fhrs:id": "181684", "healthcare": "hospital", "name": "Holy Cross Hospital", "operator": "The Congregation of the Daughters of the Cross of Liege", "phone": "+44 1428 643311", "website": "https://www.holycross.org.uk"}}, {"name": "Haslemere & District Hospital", "latitude": 51.0922974, "longitude": -0.7074426, "source": "osm", "_tags": {"addr:city": "Haslemere", "addr:postcode": "GU27 2BJ", "addr:street": "Church Lane", "amenity": "hospital", "fhrs:id": "539805", "name": "Haslemere & District Hospital"}}, {"name": "Ashtead Clinic", "latitude": 51.3140897, "longitude": -0.3036458, "source": "osm", "_tags": {"amenity": "hospital", "building": "yes", "emergency": "no", "healthcare": "hospital", "name": "Ashtead Clinic", "ref:GB:uprn": "100062369016;100062135603;100062135604;100062135605;100062135606"}}, {"name": "Aldershot Centre for Health", "latitude": 51.2543558, "longitude": -0.7656292, "source": "osm", "_tags": {"addr:postcode": "GU11 1AY", "amenity": "hospital", "building": "hospital", "emergency": "no", "healthcare": "hospital", "name": "Aldershot Centre for Health", "wheelchair": "yes"}}, {"name": "The Priory Hospital", "latitude": 51.3225644, "longitude": -0.6225977, "source": "osm", "_tags": {"amenity": "hospital", "building": "hospital", "check_date": "2019-06-05", "name": "The Priory Hospital"}}, {"name": "Farnham Community Hospital", "latitude": 51.2206058, "longitude": -0.7843474, "source": "osm", "_tags": {"addr:postcode": "GU9 9QL", "amenity": "hospital", "emergency": "no", "healthcare": "hospital", "name": "Farnham Community Hospital", "note": "& Centre for Health", "wikidata": "Q15217399"}}, {"name": "St Peter's Hospital A&E", "latitude": 51.3771251, "longitude": -0.5267214, "source": "osm", "_tags": {"amenity": "hospital", "building": "hospital", "emergency": "yes", "healthcare": "hospital", "name": "St Peter's Hospital A&E", "source": "Surrey aerial"}}, {"name": "Edgware Community Hospital", "latitude": 51.6064844, "longitude": -0.2709666, "source": "osm", "_tags": {"addr:street": "Burnt Oak Broadway", "amenity": "hospital", "emergency": "no", "healthcare": "hospital", "name": "Edgware Community Hospital", "postal_code": "HA8 0AD", "wikidata": "Q30293035"}}, {"name": "Prospect Park Hospital", "latitude": 51.4491596, "longitude": -1.0144583, "source": "osm", "_tags": {"addr:city": "Reading", "addr:postcode": "RG30 4EJ", "addr:street": "Honey End Lane", "amenity": "hospital", "emergency": "no", "healthcare": "hospital", "healthcare:speciality": "psychiatry", "name": "Prospect Park Hospital", "wikidata": "Q30292887"}}, {"name": "The Old Red Hill Clinic (Barnet Adolescent Services)", "latitude": 51.6114198, "longitude": -0.2772697, "source": "osm", "_tags": {"amenity": "hospital", "building": "yes", "emergency": "no", "name": "The Old Red Hill Clinic (Barnet Adolescent Services)"}}, {"name": "The Broadway Health Centre", "latitude": 51.5111392, "longitude": -0.3793441, "source": "osm", "_tags": {"amenity": "hospital", "building": "yes", "emergency": "no", "healthcare": "hospital", "name": "The Broadway Health Centre"}}, {"name": "Woking Community Hospital", "latitude": 51.3149284, "longitude": -0.5568503, "source": "osm", "_tags": {"amenity": "hospital", "last_check": "2018-07-21", "name": "Woking Community Hospital", "wheelchair": "yes"}}, {"name": "Wallingford Community Hospital", "latitude": 51.5951527, "longitude": -1.1276951, "source": "osm", "_tags": {"amenity": "hospital", "emergency": "no", "healthcare": "hospital", "name": "Wallingford Community Hospital"}}, {"name": "LB Healthcare", "latitude": 50.8810243, "longitude": -1.257436, "source": "osm", "_tags": {"addr:city": "Whiteley", "amenity": "hospital", "building": "commercial", "description": "Physiotherapy and Rehabilitation", "healthcare": "hospital", "name": "LB Healthcare", "phone": "+44 1489 569888", "ref:GB:uprn": "10012134831;10012130907", "source": "OS_OpenData_StreetView; survey", "website": "https://www.lbhealthcare.co.uk/"}}, {"name": "St Bernards Hospital (West London Mental Health NHS Trust)", "latitude": 51.5063644, "longitude": -0.3471886, "source": "osm", "_tags": {"amenity": "hospital", "healthcare": "hospital", "name": "St Bernards Hospital (West London Mental Health NHS Trust)"}}, {"name": "Cygnet Hospital", "latitude": 51.5672075, "longitude": -0.3377958, "source": "osm", "_tags": {"addr:city": "Harrow", "addr:housenumber": "87", "addr:postcode": "HA1 3JL", "addr:street": "London Road", "amenity": "hospital", "building": "yes", "emergency": "no", "fhrs:id": "276726", "name": "Cygnet Hospital", "source:addr": "FHRS Open Data"}}, {"name": "Nuffield Health Woking Hospital", "latitude": 51.3319293, "longitude": -0.561262, "source": "osm", "_tags": {"addr:city": "Woking", "addr:postcode": "GU21 4BY", "addr:street": "Shores Road", "amenity": "hospital", "building": "yes", "emergency": "no", "healthcare": "hospital", "name": "Nuffield Health Woking Hospital", "operator": "Nuffield Health", "operator:type": "private", "operator:wikidata": "Q7068711", "phone": "+44 1483 378996"}}, {"name": "Leatherhead Community Hospital", "latitude": 51.2952365, "longitude": -0.3200195, "source": "osm", "_tags": {"addr:city": "Leatherhead", "addr:postcode": "KT22 8SD", "addr:street": "Poplar Road", "amenity": "hospital", "healthcare": "hospital", "name": "Leatherhead Community Hospital", "phone": "+44 1372 384 348", "toilets:wheelchair": "no", "website": "https://www.cshsurrey.co.uk/our-services/location/leatherhead-community-hospital", "wheelchair": "yes", "wheelchair:description": "Ramp from Blue Badge spaces to main automatic doors. All on single level. \"Accessible\" toilet opposite reception only 100cm wide. [No hearing loops Feb 2018]"}}, {"name": "Epsom General Hospital", "latitude": 51.3251513, "longitude": -0.2731372, "source": "osm", "_tags": {"addr:city": "Epsom", "addr:postcode": "KT18 7EG", "addr:street": "Dorking Road", "amenity": "hospital", "emergency": "yes", "fhrs:id": "6421", "healthcare": "hospital", "name": "Epsom General Hospital", "ref:GB:cqc_location": "RVR50", "source:addr:postcode": "FHRS Open Data", "wheelchair": "yes", "wheelchair:description": "Ramped routes to all entrances. Dedicated Blue Badge spaces near main entrance (zone A). Toilets not yet checked.", "wikidata": "Q2692584"}}, {"name": "Cygnet Hospital Ealing", "latitude": 51.5211547, "longitude": -0.297186, "source": "osm", "_tags": {"amenity": "hospital", "building": "yes", "name": "Cygnet Hospital Ealing"}}, {"name": "Amersham Hospital", "latitude": 51.6626623, "longitude": -0.6215809, "source": "osm", "_tags": {"amenity": "hospital", "contact:phone": "+44 1296 315000", "emergency": "no", "healthcare": "hospital", "internet_access": "wlan", "internet_access:fee": "no", "internet_access:ssid": "BHT_Public", "name": "Amersham Hospital", "ref:GB:cqc_location": "RXQ51", "website": "https://www.buckshealthcare.nhs.uk/visiting-your-hospitals/visiting/amersham-hospital/", "wikidata": "Q4745823", "wikipedia": "en:Amersham Hospital"}}, {"name": "St. Ebba's Hospital", "latitude": 51.3507676, "longitude": -0.2730494, "source": "osm", "_tags": {"amenity": "hospital", "name": "St. Ebba's Hospital", "wikidata": "Q7587779"}}, {"name": "Oak Park Community Clinic", "latitude": 50.8579948, "longitude": -0.9784158, "source": "osm", "_tags": {"alt_name": "Havant Community Health", "amenity": "hospital", "building": "yes", "healthcare": "hospital", "name": "Oak Park Community Clinic"}}, {"name": "Didcot Hospital", "latitude": 51.6041046, "longitude": -1.2595404, "source": "osm", "_tags": {"amenity": "hospital", "emergency": "no", "healthcare": "hospital", "name": "Didcot Hospital", "source": "OS OpenMap Local"}}, {"name": "Harefield Hospital", "latitude": 51.6071139, "longitude": -0.4852044, "source": "osm", "_tags": {"addr:city": "Uxbridge", "addr:country": "GB", "addr:postcode": "UB9 6JH", "addr:street": "Hill End Road", "addr:suburb": "Harefield", "amenity": "hospital", "healthcare": "hospital", "name": "Harefield Hospital", "operator": "Guy's and St Thomas' NHS Foundation Trust", "phone": "+44 1895 82 37 37", "website": "https://www.rbht.nhs.uk/", "wikidata": "Q5656797"}}, {"name": "Ashtead Hospital", "latitude": 51.3045578, "longitude": -0.3031771, "source": "osm", "_tags": {"amenity": "hospital", "emergency": "no", "healthcare": "hospital", "name": "Ashtead Hospital", "operator": "Bupa"}}, {"name": "Mount Alvernia Hospital", "latitude": 51.2356437, "longitude": -0.5642432, "source": "osm", "_tags": {"addr:city": "Guildford", "addr:country": "GB", "addr:housenumber": "46", "addr:postcode": "GU1 3LX", "addr:street": "Harvey Road", "amenity": "hospital", "emergency": "no", "fhrs:authority": "Guildford", "fhrs:id": "815997", "fhrs:local_authority_id": "5766", "name": "Mount Alvernia Hospital", "source": "photo", "website": "https://www.bmihealthcare.co.uk/hospitals/bmi-mount-alvernia-hospital", "wikidata": "Q30292743"}}, {"name": "Cassel Hospital", "latitude": 51.4324112, "longitude": -0.3090559, "source": "osm", "_tags": {"addr:city": "Richmond", "addr:housenumber": "1", "addr:postcode": "TW10 7JF", "addr:street": "Ham Common", "addr:suburb": "Ham", "amenity": "hospital", "fhrs:id": "1575152", "healthcare": "hospital", "name": "Cassel Hospital", "not:addr:postcode": "TW10 7JL", "operator": "West London NHS Trust", "operator:website": "https://www.westlondon.nhs.uk/our-services/adult/mental-health-services/cassel-hospital", "source:addr": "FHRS Open Data", "website": "https://www.nhs.uk/services/hospitals/overview/defaultview.aspx?id=3086", "wikidata": "Q5049284", "wikipedia": "en:Cassel Hospital"}}, {"name": "Thornford Park", "latitude": 51.3808449, "longitude": -1.2507095, "source": "osm", "_tags": {"addr:city": "Thatcham", "addr:housename": "Thornford Park", "addr:postcode": "RG19 8ET", "addr:street": "Crookham Hill", "amenity": "hospital", "emergency": "no", "healthcare": "hospital", "name": "Thornford Park", "operator": "Elysium Healthcare"}}, {"name": "CIrcle Reading", "latitude": 51.4291345, "longitude": -0.976354, "source": "osm", "_tags": {"amenity": "hospital", "healthcare": "hospital", "name": "CIrcle Reading"}}, {"name": "Chalfont Centre for Epilepsy", "latitude": 51.6223561, "longitude": -0.549337, "source": "osm", "_tags": {"amenity": "hospital", "emergency": "no", "fixme": "extent/ boundaries", "healthcare": "hospital", "name": "Chalfont Centre for Epilepsy"}}, {"name": "Hemel Hempstead Hospital", "latitude": 51.7509958, "longitude": -0.4695835, "source": "osm", "_tags": {"amenity": "hospital", "emergency": "no", "healthcare": "hospital", "name": "Hemel Hempstead Hospital", "source": "OS OpenMap Local", "wikidata": "Q30292953"}}, {"name": "", "latitude": 51.7469791, "longitude": -0.4532194, "source": "osm", "_tags": {"amenity": "hospital", "healthcare": "hospital", "source": "OS OpenMap Local"}}, {"name": "Frimley Park Hospital", "latitude": 51.3196793, "longitude": -0.7420142, "source": "osm", "_tags": {"addr:city": "Camberley", "addr:full": "Frimley, Camberley GU16 7UJ", "addr:postcode": "GU16 7UJ", "addr:street": "Portsmouth Road", "addr:suburb": "Frimley", "amenity": "hospital", "contact:phone": "+44 1276 604604", "contact:website": "https://www.fhft.nhs.uk/your-hospitals/frimley-park/", "electricity": "grid", "emergency": "yes", "healthcare": "hospital", "insurance:health": "public", "name": "Frimley Park Hospital", "opening_hours": "24/7", "operational_status": "operational", "wheelchair": "yes", "wikidata": "Q5504570", "wikipedia": "en:Frimley Park Hospital"}}, {"name": "Hindmoor Manor", "latitude": 51.105446, "longitude": -0.7335088, "source": "osm", "_tags": {"amenity": "hospital", "healthcare": "hospital", "name": "Hindmoor Manor", "source": "OS OpenMap Local"}}, {"name": "Rush Court", "latitude": 51.6195697, "longitude": -1.1295437, "source": "osm", "_tags": {"amenity": "hospital", "name": "Rush Court", "source": "OS OpenMap Local"}}, {"name": "The Hospice Of St Francis", "latitude": 51.7663177, "longitude": -0.5999416, "source": "osm", "_tags": {"addr:city": "Berkhamsted", "addr:housename": "The Hospice Of St Francis", "addr:postcode": "HP4 3GW", "addr:street": "Spring Garden Lane", "addr:suburb": "Northchurch", "amenity": "hospital", "fhrs:id": "202088", "healthcare": "hospital", "name": "The Hospice Of St Francis", "source": "OS OpenMap Local", "source:addr": "FHRS Open Data"}}, {"name": "Oak Farm clinic", "latitude": 51.5440668, "longitude": -0.449408, "source": "osm", "_tags": {"addr:city": "Uxbridge", "addr:postcode": "UB10 9PB", "addr:street": "Long Lane", "amenity": "hospital", "name": "Oak Farm clinic"}}, {"name": "Upton Hospital", "latitude": 51.5057102, "longitude": -0.5933035, "source": "osm", "_tags": {"amenity": "hospital", "healthcare": "hospital", "name": "Upton Hospital", "operator": "NHS", "operator:type": "public", "operator:wikidata": "Q918396", "ref:GB:cqc_location": "RWX85", "wikidata": "Q30281142"}}, {"name": "St Richard's Hospital", "latitude": 50.8439592, "longitude": -0.7694953, "source": "osm", "_tags": {"addr:city": "Chichester", "addr:postcode": "PO19 6SE", "addr:street": "Spitalfield Lane", "amenity": "hospital", "healthcare": "hospital", "name": "St Richard's Hospital", "website": "https://www.uhsussex.nhs.uk/hospitals/st-richards-hospital/", "wikidata": "Q7595419", "wikipedia": "en:St Richard's Hospital"}}, {"name": "Sue Ryder Duchess of Kent Hospice", "latitude": 51.4493029, "longitude": -1.0022403, "source": "osm", "_tags": {"amenity": "hospital", "healthcare": "hospital", "name": "Sue Ryder Duchess of Kent Hospice"}}, {"name": "Spire Dunedin Hospital", "latitude": 51.4505345, "longitude": -0.9860165, "source": "osm", "_tags": {"addr:city": "Reading", "addr:housenumber": "16", "addr:street": "Bath Road", "amenity": "hospital", "contact:phone": "+44 118 958 7676", "healthcare": "hospital", "healthcare:speciality": "general", "name": "Spire Dunedin Hospital", "operator": "Spire Healthcare", "website": "https://www.spirehealthcare.com/spire-dunedin-hospital/"}}, {"name": "Harold Kidd Unit", "latitude": 50.8515633, "longitude": -0.7732463, "source": "osm", "_tags": {"addr:city": "Chichester", "addr:postcode": "PO19 6AU", "addr:street": "Blomfield Drive", "amenity": "hospital", "building": "hospital", "healthcare": "hospital", "name": "Harold Kidd Unit"}}, {"name": "", "latitude": 50.8512734, "longitude": -0.7733096, "source": "osm", "_tags": {"amenity": "hospital", "healthcare": "hospital"}}, {"name": "Midhurst Community Hospital", "latitude": 50.99358, "longitude": -0.7352055, "source": "osm", "_tags": {"addr:city": "Midhurst", "addr:postcode": "GU29 9AW", "addr:street": "Dodsley Lane", "addr:suburb": "Easebourne", "amenity": "hospital", "beds": "17", "emergency": "no", "healthcare": "hospital", "name": "Midhurst Community Hospital", "operator": "Sussex Community NHS Foundation Trust", "phone": "+44 1730 819100", "wikidata": "Q30292707"}}, {"name": "Basingstoke and North Hampshire Hospital", "latitude": 51.2809802, "longitude": -1.1109073, "source": "osm", "_tags": {"amenity": "hospital", "emergency": "yes", "healthcare": "hospital", "name": "Basingstoke and North Hampshire Hospital", "wikidata": "Q7055529", "wikipedia": "en:Basingstoke and North Hampshire Hospital"}}, {"name": "Alton Community Hospital", "latitude": 51.140196, "longitude": -0.9894502, "source": "osm", "_tags": {"addr:city": "Alton", "addr:postcode": "GU34 1RJ", "addr:street": "Chawton Park Road", "amenity": "hospital", "healthcare": "hospital", "name": "Alton Community Hospital", "website": "https://www.southernhealth.nhs.uk/our-services/our-main-sites-and-locations/alton-community-hospital", "wikidata": "Q30292803"}}, {"name": "Chase Hospital", "latitude": 51.1064435, "longitude": -0.8622125, "source": "osm", "_tags": {"addr:city": "Bordon", "addr:postcode": "GU35 0YZ", "addr:street": "Conde Way", "amenity": "hospital", "healthcare": "hospital", "name": "Chase Hospital"}}, {"name": "Marlow Community Hospital", "latitude": 51.5735888, "longitude": -0.7704981, "source": "osm", "_tags": {"addr:city": "Marlow", "addr:postcode": "SL7 1DJ", "addr:street": "Victoria Road", "amenity": "hospital", "fhrs:id": "576701", "healthcare": "hospital", "name": "Marlow Community Hospital", "ref:GB:cqc_location": "RXQ65", "website": "https://www.nhs.uk/Services/hospitals/Overview/DefaultView.aspx?id=29094", "wheelchair": "yes", "wikidata": "Q30293156"}}, {"name": "Priory Pelham Woods", "latitude": 51.2250864, "longitude": -0.3271596, "source": "osm", "_tags": {"amenity": "hospital", "healthcare": "hospital", "healthcare:speciality": "psychiatry", "name": "Priory Pelham Woods", "operator": "NHS", "operator:type": "public", "operator:wikidata": "Q918396"}}, {"name": "Dorking Community Hospital", "latitude": 51.2260431, "longitude": -0.3330255, "source": "osm", "_tags": {"addr:postcode": "RH4 2AA", "addr:street": "Horsham Road", "alt_name": "Dorking Community Hospital", "amenity": "hospital", "emergency": "no", "healthcare": "hospital", "name": "Dorking Community Hospital", "operator": "Surrey Downs Health and Care", "operator:type": "public", "website": "https://surreydownshealthandcare.nhs.uk/dorking-hospital"}}, {"name": "Arundel & District Community Hospital", "latitude": 50.8543623, "longitude": -0.5654097, "source": "osm", "_tags": {"addr:city": "Arundel", "addr:postcode": "BN18 0AB", "addr:street": "Chichester Road", "amenity": "hospital", "beds": "20", "emergency": "no", "fhrs:authority": "Arun", "fhrs:id": "138707", "fhrs:local_authority_id": "740409", "healthcare": "hospital", "name": "Arundel & District Community Hospital", "phone": "+44 1903 882543"}}, {"name": "Swandean", "latitude": 50.8419472, "longitude": -0.4112428, "source": "osm", "_tags": {"amenity": "hospital", "healthcare": "hospital", "name": "Swandean", "source": "bing"}}, {"name": "Teddington Memorial Hospital", "latitude": 51.4256938, "longitude": -0.3410941, "source": "osm", "_tags": {"addr:city": "Teddington", "addr:housename": "Teddington War Memorial Hospital", "addr:postcode": "TW11 0JL", "addr:street": "Hampton Road", "amenity": "hospital", "check_date": "2024-11-10", "emergency": "no", "healthcare": "hospital", "healthcare:speciality": "radiology;diagnostic_radiology;general;community;diabetology;gynaecology;paediatrics", "name": "Teddington Memorial Hospital", "operator:type": "public", "source": "survey", "source:addr": "FHRS Open Data", "wheelchair": "yes", "wikidata": "Q17022101"}}, {"name": "Spire Thames Valley Hospital", "latitude": 51.5427247, "longitude": -0.5720396, "source": "osm", "_tags": {"addr:postcode": "SL3 6NH", "addr:street": "Wexham Street", "amenity": "hospital", "emergency": "no", "healthcare": "hospital", "name": "Spire Thames Valley Hospital", "operator": "Spire Healthcare Group plc", "operator:type": "private", "phone": "+44 1753 662 241", "ref:GB:cqc_location": "1-2745569338", "website": "https://www.spirehealthcare.com/spire-thames-valley-hospital/"}}, {"name": "Ridgeway Community Mental Health Team", "latitude": 51.6041599, "longitude": -1.2604575, "source": "osm", "_tags": {"amenity": "hospital", "healthcare": "hospital", "name": "Ridgeway Community Mental Health Team"}}, {"name": "Spire Bushey Hospital", "latitude": 51.6374383, "longitude": -0.3316358, "source": "osm", "_tags": {"amenity": "hospital", "name": "Spire Bushey Hospital"}}, {"name": "Cobham Community Hospital and Health Centre", "latitude": 51.3348912, "longitude": -0.408094, "source": "osm", "_tags": {"addr:city": "Cobham", "addr:housenumber": "168", "addr:street": "Portsmouth Road", "amenity": "hospital", "emergency": "no", "healthcare": "hospital", "landuse": "healthcare", "name": "Cobham Community Hospital and Health Centre"}}, {"name": "Milford Hospital", "latitude": 51.1676833, "longitude": -0.6251331, "source": "osm", "_tags": {"addr:city": "Godalming", "addr:county": "Surrey", "addr:postcode": "GU7 1UF", "addr:street": "Tuesley Lane", "amenity": "hospital", "fhrs:id": "161403", "healthcare": "hospital", "name": "Milford Hospital", "operator": "Surrey NHS Trust", "source": "DigitalGlobe-Standard", "source:addr": "FHRS Open Data", "wikidata": "Q6851730", "wikipedia": "en:Milford Hospital"}}, {"name": "Princess Margaret Hospital", "latitude": 51.4748554, "longitude": -0.6101204, "source": "osm", "_tags": {"addr:city": "Windsor", "addr:housenumber": "38-42", "addr:postcode": "SL4 3SJ", "addr:street": "Osborne Road", "amenity": "hospital", "fhrs:id": "842817", "healthcare": "hospital", "name": "Princess Margaret Hospital", "ref:GB:cqc_location": "1-128767105", "source:addr": "FHRS Open Data", "wikidata": "Q30292886"}}, {"name": "", "latitude": 51.5211636, "longitude": -0.2971478, "source": "osm", "_tags": {"amenity": "hospital", "healthcare": "hospital"}}, {"name": "", "latitude": 51.3226057, "longitude": -0.6233697, "source": "osm", "_tags": {"amenity": "hospital", "healthcare": "hospital"}}, {"name": "", "latitude": 51.3187456, "longitude": -0.5920263, "source": "osm", "_tags": {"amenity": "hospital", "healthcare": "hospital"}}, {"name": "Heatherwood Hospital", "latitude": 51.4080179, "longitude": -0.6864173, "source": "osm", "_tags": {"amenity": "hospital", "healthcare": "hospital", "name": "Heatherwood Hospital", "wikidata": "Q14956784"}}, {"name": "Spire Hospital Portsmouth", "latitude": 50.8684331, "longitude": -0.9551392, "source": "osm", "_tags": {"addr:city": "Havant", "addr:postcode": "PO9 5NP", "addr:street": "Bartons Road", "amenity": "hospital", "designation": "Private", "emergency": "no", "healthcare": "hospital", "name": "Spire Hospital Portsmouth", "operator": "Spire Healthcare", "operator:type": "private", "phone": "+44 2392 801436", "source": "OS OpenData StreetView", "source_1": "leaflet of this hospital", "website": "https://www.spirehealthcare.com/spire-portsmouth-hospital"}}, {"name": "", "latitude": 51.2196332, "longitude": -0.5785368, "source": "osm", "_tags": {"amenity": "hospital", "healthcare": "hospital"}}, {"name": "St Peter's Hospital", "latitude": 51.3771098, "longitude": -0.5269244, "source": "osm", "_tags": {"addr:city": "Chertsey", "addr:postcode": "KT16 0PZ", "addr:street": "Guildford Road", "amenity": "hospital", "emergency": "yes", "healthcare": "hospital", "name": "St Peter's Hospital", "operator": "NHS", "operator:type": "public", "operator:wikidata": "Q918396", "phone": "+44 1932 872000", "website": "https://www.ashfordstpeters.nhs.uk/", "wikidata": "Q7595324", "wikipedia": "en:St Peter's Hospital, Chertsey"}}, {"name": "West Park Hospital", "latitude": 51.3405338, "longitude": -0.3007611, "source": "osm", "_tags": {"amenity": "hospital", "healthcare": "hospital", "healthcare:speciality": "psychiatry", "name": "West Park Hospital", "operator": "NHS", "operator:type": "public", "operator:wikidata": "Q918396"}}, {"name": "", "latitude": 51.3394246, "longitude": -0.2936518, "source": "osm", "_tags": {"amenity": "hospital", "healthcare": "hospital"}}, {"name": "The Fountain Centre", "latitude": 51.2416749, "longitude": -0.6092258, "source": "osm", "_tags": {"addr:city": "Guildford", "addr:full": "The Fountain Centre, Royal Surrey Cancer Centre, Royal Surrey County Hospital NHS Foundation Trust", "addr:housename": "The Fountain Centre", "addr:postcode": "GU2 7XX", "addr:street": "Egerton Road", "amenity": "hospital", "description": "Cancer Charity based in the Royal Surrey Cancer Centre", "healthcare": "hospital", "healthcare:speciality": "cancer_charity", "name": "The Fountain Centre"}}, {"name": "Horton Haven", "latitude": 51.3450109, "longitude": -0.2848449, "source": "osm", "_tags": {"amenity": "hospital", "healthcare": "hospital", "healthcare:speciality": "psychiatry", "name": "Horton Haven"}}, {"name": "", "latitude": 51.3371136, "longitude": -0.2974066, "source": "osm", "_tags": {"amenity": "hospital", "healthcare": "hospital"}}, {"name": "", "latitude": 51.3468853, "longitude": -0.2736361, "source": "osm", "_tags": {"amenity": "hospital", "healthcare": "hospital"}}, {"name": "Priory Hospital High Wycombe", "latitude": 51.6130945, "longitude": -0.7923259, "source": "osm", "_tags": {"amenity": "hospital", "healthcare": "hospital", "name": "Priory Hospital High Wycombe", "suspected:fhrs:id": "1041073", "suspected:ref:GB:cqc_location": "1-5303149515"}}, {"name": "", "latitude": 51.4307807, "longitude": -0.3395572, "source": "osm", "_tags": {"amenity": "hospital", "healthcare": "hospital", "operator": "NHS", "operator:type": "public", "operator:wikidata": "Q918396"}}, {"name": "Salvington Lodge", "latitude": 50.8425453, "longitude": -0.4104772, "source": "osm", "_tags": {"addr:city": "Worthing", "addr:housenumber": "1", "addr:postcode": "BN13 3AT", "addr:street": "Salvington Hill", "amenity": "hospital", "building": "yes", "healthcare": "hospital", "name": "Salvington Lodge", "type": "multipolygon"}}, {"name": "Wembley Centre for Health & Care", "latitude": 51.5500864, "longitude": -0.3059305, "source": "osm", "_tags": {"amenity": "hospital", "building": "yes", "name": "Wembley Centre for Health & Care", "source": "OS", "type": "multipolygon"}}, {"name": "", "latitude": 51.5501205, "longitude": -0.3045693, "source": "osm", "_tags": {"amenity": "hospital", "building": "yes", "source": "OS", "type": "multipolygon"}}, {"name": "The Clementine Churchill Hospital", "latitude": 51.5650798, "longitude": -0.3322955, "source": "osm", "_tags": {"amenity": "hospital", "building": "yes", "healthcare": "hospital", "name": "The Clementine Churchill Hospital", "operator": "BMI", "operator:type": "private", "source": "OS;local knowledge", "type": "multipolygon"}}, {"name": "Walton Community Hospital", "latitude": 51.379903, "longitude": -0.406427, "source": "osm", "_tags": {"amenity": "hospital", "building": "yes", "name": "Walton Community Hospital", "type": "multipolygon"}}, {"name": "Clayponds Hospital", "latitude": 51.4951007, "longitude": -0.2986011, "source": "osm", "_tags": {"amenity": "hospital", "building": "yes", "name": "Clayponds Hospital", "type": "multipolygon"}}, {"name": "Royal Surrey County Hospital", "latitude": 51.2411709, "longitude": -0.6088556, "source": "osm", "_tags": {"addr:city": "Guildford", "addr:country": "GB", "addr:postcode": "GU2 7XX", "addr:street": "Egerton Road", "amenity": "hospital", "emergency": "yes", "fhrs:authority": "Guildford", "fhrs:id": "649588", "fhrs:local_authority_id": "3661", "healthcare": "hospital", "name": "Royal Surrey County Hospital", "type": "multipolygon", "wikidata": "Q7374889"}}, {"name": "Ravenswood House", "latitude": 50.8832078, "longitude": -1.2001141, "source": "osm", "_tags": {"amenity": "hospital", "brand": "NHS", "emergency": "no", "healthcare": "hospital", "name": "Ravenswood House", "operator": "NHS", "operator:type": "public", "operator:wikidata": "Q918396", "type": "multipolygon"}}, {"name": "The Chiltern Hospital", "latitude": 51.6903747, "longitude": -0.6938607, "source": "osm", "_tags": {"addr:postcode": "HP16 0EN", "addr:street": "London Road", "amenity": "hospital", "beds": "66", "building": "hospital", "emergency": "no", "healthcare": "hospital", "name": "The Chiltern Hospital", "operator": "BMI Healthcare", "operator:type": "private", "phone": "+44 1494 890890", "ref:GB:cqc_location": "1-128758622", "type": "multipolygon", "website": "https://www.bmihealthcare.co.uk/hospitals/bmi-the-chiltern-hospital"}}, {"name": "Littlemore Mental Health Centre", "latitude": 51.7184154, "longitude": -1.2294242, "source": "osm", "_tags": {"amenity": "hospital", "emergency": "no", "healthcare": "hospital", "landuse": "healthcare", "name": "Littlemore Mental Health Centre", "type": "multipolygon"}}, {"name": "Kingsley Green Hospital", "latitude": 51.7034647, "longitude": -0.3073136, "source": "osm", "_tags": {"amenity": "hospital", "emergency": "no", "healthcare": "hospital", "name": "Kingsley Green Hospital", "old_name": "Harperbury Hospital", "type": "multipolygon", "wikidata": "Q6413307"}}, {"name": "Meadowfield", "latitude": 50.842562, "longitude": -0.4118677, "source": "osm", "_tags": {"addr:city": "Worthing", "addr:postcode": "BN13 3EF", "addr:street": "Arundel Road", "building": "yes", "healthcare": "hospital", "name": "Meadowfield", "source": "Yahoo", "type": "multipolygon"}}, {"name": "Radiotherapy", "latitude": 51.2801066, "longitude": -1.1128894, "source": "osm", "_tags": {"building": "hospital", "healthcare": "hospital", "healthcare:speciality": "radiotherapy", "name": "Radiotherapy", "phone": "+44 1256 315059", "type": "multipolygon", "website": "https://www.hampshirehospitals.nhs.uk/our-services/az-departments-and-specialties/radiotherapy"}}, {"name": "Candover Clinic", "latitude": 51.2802039, "longitude": -1.1122172, "source": "osm", "_tags": {"building": "hospital", "healthcare": "hospital", "name": "Candover Clinic", "phone": "+44 1256 315010", "type": "multipolygon", "website": "https://www.candoverclinic.com/"}}, {"name": "Molesey Community Hospital", "latitude": 51.3973376, "longitude": -0.3725266, "source": "osm", "_tags": {"addr:city": "West Molesey", "addr:postcode": "KT8 2LU", "addr:street": "High Street", "amenity": "hospital", "healthcare": "hospital", "healthcare:speciality": "rehabilitation", "name": "Molesey Community Hospital", "operator": "NHS", "operator:wikidata": "Q918396", "phone": "+44 20 8941 4481", "type": "multipolygon"}}]