[{"name": "Wantage Community Hospital", "latitude": 51.5896327, "longitude": -1.4187676, "source": "osm", "_tags": {"amenity": "hospital", "healthcare": "hospital", "name": "Wantage Community Hospital"}}, {"name": "Andover War Memorial Hospital", "latitude": 51.2155631, "longitude": -1.494556, "source": "osm", "_tags": {"addr:city": "Andover", "addr:postcode": "SP10 3LB", "addr:street": "Charlton Road", "amenity": "hospital", "emergency": "no", "healthcare": "hospital", "name": "Andover War Memorial Hospital", "operator": "Hampshire Hospitals NHS Foundation Trust", "phone": "+44 1264 358 811", "wikidata": "Q23926537"}}, {"name": "Royal South Hants Urgent Treatment Centre", "latitude": 50.91291, "longitude": -1.3964605, "source": "osm", "_tags": {"addr:city": "Southampton", "addr:country": "GB", "addr:county": "Hampshire", "addr:floor": "B", "addr:postcode": "SO14 0YG", "addr:street": "Brinton's Terrace", "amenity": "hospital", "check_date": "2024-05-28", "contact:phone": "+44 3339997613", "emergency": "yes", "healthcare": "hospital", "healthcare:speciality": "emergency", "name": "Royal South Hants Urgent Treatment Centre", "opening_hours": "Mo-Fr 07:30-22:00; Sa,Su 08:00-22:00"}}, {"name": "Wessex Suite", "latitude": 51.452362, "longitude": -2.1265576, "source": "osm", "_tags": {"healthcare": "hospital", "name": "Wessex Suite"}}, {"name": "Minor Injury Unit", "latitude": 51.4526701, "longitude": -2.1264039, "source": "osm", "_tags": {"healthcare": "hospital", "name": "Minor Injury Unit", "opening_hours": "Mo-Su 08:00-20:00"}}, {"name": "Western Community Hospital", "latitude": 50.924939, "longitude": -1.4465831, "source": "osm", "_tags": {"amenity": "hospital", "check_date": "2024-04-03", "healthcare": "hospital", "name": "Western Community Hospital", "wikidata": "Q30293085", "wikipedia": "en:Western Community Hospital"}}, {"name": "Wessex Hospital", "latitude": 50.9968564, "longitude": -1.3595559, "source": "osm", "_tags": {"addr:city": "Eastleigh", "addr:postcode": "SO53 2DW", "addr:street": "Winchester Road", "amenity": "hospital", "check_date": "2024-04-03", "emergency": "no", "healthcare": "hospital", "name": "Wessex Hospital", "operator": "Nuffield Health", "operator:type": "private", "operator:wikidata": "Q7068711", "phone": "+44 23 8026 6377", "website": "https://www.nuffieldhealth.com/hospitals/wessex"}}, {"name": "Stroud General Hospital", "latitude": 51.7428168, "longitude": -2.2077218, "source": "osm", "_tags": {"addr:postcode": "GL5 2HY", "amenity": "hospital", "fhrs:id": "154509", "healthcare": "hospital", "name": "Stroud General Hospital", "wikidata": "Q30293014"}}, {"name": "Abingdon Community Hospital", "latitude": 51.6699016, "longitude": -1.3020196, "source": "osm", "_tags": {"amenity": "hospital", "emergency": "no", "healthcare": "hospital", "name": "Abingdon Community Hospital", "source": "OS_OpenData_StreetView+local_knowledge", "wikidata": "Q30293110"}}, {"name": "Westminster Memorial Hospital", "latitude": 51.0047244, "longitude": -2.2001257, "source": "osm", "_tags": {"addr:postcode": "SP7 8BD", "addr:street": "Abbey Walk", "amenity": "hospital", "building": "yes", "fhrs:id": "993995", "healthcare": "hospital", "name": "Westminster Memorial Hospital", "source": "OS_OpenData_StreetView", "source:addr": "FHRS Open Data", "wikidata": "Q14956841", "wikipedia": "en:Westminster Memorial Hospital"}}, {"name": "Cirencester Hospital", "latitude": 51.7123462, "longitude": -1.9759847, "source": "osm", "_tags": {"addr:city": "Cirencester", "addr:postcode": "GL7 1UY", "addr:street": "Tetbury Road", "amenity": "hospital", "fhrs:id": "13617", "healthcare": "hospital", "name": "Cirencester Hospital", "ref:GB:cqc_location": "RTE23", "vaccination": "covid19", "website": "https://www.ghc.nhs.uk/locations/cirencester-hospital/", "wikidata": "Q30292866"}}, {"name": "Sarum Road Hospital (BMI)", "latitude": 51.0614012, "longitude": -1.3405371, "source": "osm", "_tags": {"amenity": "hospital", "emergency": "no", "healthcare": "hospital", "name": "Sarum Road Hospital (BMI)", "source": "BingOS_OpenData_Streetview"}}, {"name": "Hythe Hospital", "latitude": 50.8587624, "longitude": -1.4028949, "source": "osm", "_tags": {"amenity": "hospital", "emergency": "yes", "healthcare": "hospital", "name": "Hythe Hospital"}}, {"name": "Spire Southampton Hospital", "latitude": 50.9305601, "longitude": -1.4324256, "source": "osm", "_tags": {"amenity": "hospital", "check_date": "2025-07-22", "emergency": "no", "healthcare": "hospital", "name": "Spire Southampton Hospital"}}, {"name": "Princess Anne Hospital", "latitude": 50.9353523, "longitude": -1.4351668, "source": "osm", "_tags": {"amenity": "hospital", "check_date": "2025-07-22", "emergency": "no", "healthcare": "hospital", "name": "Princess Anne Hospital", "wikidata": "Q7244546", "wikipedia": "en:Princess Anne Hospital"}}, {"name": "Southampton General Hospital", "latitude": 50.9325171, "longitude": -1.4354054, "source": "osm", "_tags": {"addr:city": "Southampton", "addr:postcode": "SO16 6YD", "addr:street": "Tremona Road", "alt_name": "General Hospital", "amenity": "hospital", "check_date": "2025-07-22", "emergency": "yes", "healthcare": "hospital", "name": "Southampton General Hospital", "operator": "University Hospitals Southampton", "source": "OS_OpenData_Streetview", "wikidata": "Q7569131", "wikipedia": "en:Southampton General Hospital"}}, {"name": "Great Western Hospital", "latitude": 51.5388828, "longitude": -1.7268056, "source": "osm", "_tags": {"addr:postcode": "SN3 6BB", "amenity": "hospital", "emergency": "yes", "fhrs:id": "764513;1051650", "healthcare": "hospital", "name": "Great Western Hospital"}}, {"name": "Romsey Hospital", "latitude": 50.9921739, "longitude": -1.4818563, "source": "osm", "_tags": {"amenity": "hospital", "emergency": "no", "healthcare": "hospital", "healthcare:speciality": "blood_check;physiatry", "name": "Romsey Hospital", "operator": "NHS", "operator:wikidata": "Q918396"}}, {"name": "Royal South Hants Hospital", "latitude": 50.9125895, "longitude": -1.3974888, "source": "osm", "_tags": {"addr:city": "Southampton", "addr:postcode": "SO14 0YG", "addr:street": "Brintons Terrace", "amenity": "hospital", "check_date": "2024-04-03", "healthcare": "hospital", "name": "Royal South Hants Hospital", "wheelchair": "yes", "wikidata": "Q7374854"}}, {"name": "Fareham Community Hospital", "latitude": 50.8705959, "longitude": -1.2747961, "source": "osm", "_tags": {"addr:city": "Southampton", "addr:country": "GB", "addr:place": "Sarisbury", "addr:postcode": "SO31 7DQ", "addr:street": "Brook Lane", "amenity": "hospital", "emergency": "no", "healthcare": "hospital", "name": "Fareham Community Hospital", "wikidata": "Q30293073"}}, {"name": "Witney Community Hospital", "latitude": 51.7875141, "longitude": -1.4896882, "source": "osm", "_tags": {"amenity": "hospital", "healthcare": "hospital", "name": "Witney Community Hospital"}}, {"name": "Salisbury District Hospital", "latitude": 51.0452151, "longitude": -1.787898, "source": "osm", "_tags": {"amenity": "hospital", "emergency": "yes", "healthcare": "hospital", "name": "Salisbury District Hospital", "source": "Bing", "wikidata": "Q7404759"}}, {"name": "David Stone Medical Centre", "latitude": 51.760847, "longitude": -1.5851897, "source": "osm", "_tags": {"addr:city": "West Oxfordshire", "addr:postcode": "OX18 3LX", "addr:street": "Barwood Avenue", "amenity": "hospital", "building": "hospital", "building:levels": "1", "description": "Medical Centre", "healthcare": "hospital", "healthcare:speciality": "general", "name": "David Stone Medical Centre"}}, {"name": "Andover Hospital (Grounds)", "latitude": 51.2155051, "longitude": -1.4943226, "source": "osm", "_tags": {"amenity": "hospital", "emergency": "no", "healthcare": "hospital", "name": "Andover Hospital (Grounds)", "source": "Bing"}}, {"name": "Priory Hospital", "latitude": 50.8811119, "longitude": -1.4454203, "source": "osm", "_tags": {"addr:city": "Southampton", "addr:postcode": "SO40 4WU", "addr:street": "Hythe Road", "amenity": "hospital", "building": "yes", "emergency": "no", "healthcare": "hospital", "name": "Priory Hospital", "ref:GB:uprn": "100062528307"}}, {"name": "Moorgreen Hospital", "latitude": 50.9282288, "longitude": -1.3242045, "source": "osm", "_tags": {"amenity": "hospital", "health_specialty:geriatrics": "yes", "healthcare": "hospital", "name": "Moorgreen Hospital", "wikidata": "Q6908386", "wikipedia": "en:Moorgreen Hospital"}}, {"name": "Blandford Community Hospital", "latitude": 50.8619475, "longitude": -2.1665878, "source": "osm", "_tags": {"addr:city": "Blandford Forum", "addr:postcode": "DT11 7DD", "addr:street": "Milldown Road", "amenity": "hospital", "building": "yes", "check_date": "2024-09-12", "contact:phone": "+44 1258 456541", "emergency": "no", "fhrs:id": "993757", "healthcare": "hospital", "name": "Blandford Community Hospital"}}, {"name": "Trowbridge Community Hospital", "latitude": 51.3249147, "longitude": -2.2100987, "source": "osm", "_tags": {"amenity": "hospital", "healthcare": "hospital", "name": "Trowbridge Community Hospital", "operator": "NHS", "operator:wikidata": "Q918396", "website": "https://www.nhs.uk/ServiceDirectories/Pages/Hospital.aspx?id=5QK04&v=0"}}, {"name": "Tatchbury Mount Hospital", "latitude": 50.9306376, "longitude": -1.5281985, "source": "osm", "_tags": {"amenity": "hospital", "emergency": "no", "fixme": "This boundary is a guess", "healthcare": "hospital", "name": "Tatchbury Mount Hospital", "wikidata": "Q85805269"}}, {"name": "New Hall Hospital", "latitude": 51.0325515, "longitude": -1.7631884, "source": "osm", "_tags": {"amenity": "hospital", "emergency": "no", "healthcare": "hospital", "name": "New Hall Hospital"}}, {"name": "Naomi House & Jacksplace", "latitude": 51.1520064, "longitude": -1.3456183, "source": "osm", "_tags": {"addr:city": "Winchester", "addr:country": "GB", "addr:place": "Sutton Scotney", "addr:postcode": "SO21 3JE", "addr:street": "Stockbridge Road", "alt_name": "Wessex Children's Hospice Trust", "amenity": "hospital", "emergency": "no", "healthcare": "hospital", "name": "Naomi House & Jacksplace", "note": "The extent of the grounds has been guessed so may not be 100% accurate.", "source:addr": "correspondence", "source:outline": "bing", "website": "https://naomihouse.org.uk/", "wikidata": "Q6964643", "wikipedia": "en:Naomi House Children's Hospice"}}, {"name": "St Andrew's Surgery", "latitude": 50.965572, "longitude": -1.3523048, "source": "osm", "_tags": {"addr:city": "Eastleigh", "addr:housename": "St Andrew's Surgery", "addr:street": "Market Street", "amenity": "hospital", "building": "yes", "emergency": "no", "healthcare": "hospital", "name": "St Andrew's Surgery", "ref:GB:uprn": "100062535103", "wheelchair": "yes"}}, {"name": "Green Lane Hospital", "latitude": 51.3393616, "longitude": -1.982165, "source": "osm", "_tags": {"amenity": "hospital", "check_date": "2024-10-03", "healthcare": "hospital", "name": "Green Lane Hospital", "wikidata": "Q5602774", "wikipedia": "en:Green Lane Hospital, Wiltshire"}}, {"name": "Warminster Community Hospital", "latitude": 51.2067143, "longitude": -2.1812905, "source": "osm", "_tags": {"amenity": "hospital", "building": "yes", "emergency": "no", "healthcare": "hospital", "name": "Warminster Community Hospital"}}, {"name": "Leigh House Hospital", "latitude": 51.0625128, "longitude": -1.2829416, "source": "osm", "_tags": {"amenity": "hospital", "healthcare": "hospital", "name": "Leigh House Hospital", "wikidata": "Q30293122"}}, {"name": "Stroud Maternity Hospital", "latitude": 51.742314, "longitude": -2.2085726, "source": "osm", "_tags": {"addr:postcode": "GL5 2JB", "amenity": "hospital", "building": "hospital", "fhrs:id": "552466", "healthcare": "hospital", "name": "Stroud Maternity Hospital"}}, {"name": "Melksham Community Hospital", "latitude": 51.3672204, "longitude": -2.1315435, "source": "osm", "_tags": {"addr:postcode": "SN12 7NZ", "amenity": "hospital", "healthcare": "hospital", "name": "Melksham Community Hospital", "ref:GB:nhs_ods": "92GAD"}}, {"name": "Tetbury Hospital", "latitude": 51.6353758, "longitude": -2.1545953, "source": "osm", "_tags": {"addr:postcode": "GL8 8XB", "amenity": "hospital", "healthcare": "hospital", "name": "Tetbury Hospital", "website": "https://www.tetburyhospital.co.uk/"}}, {"name": "Medical Centre", "latitude": 50.8899098, "longitude": -2.0996892, "source": "osm", "_tags": {"amenity": "hospital", "healthcare": "hospital", "name": "Medical Centre"}}, {"name": "", "latitude": 50.9858419, "longitude": -1.398643, "source": "osm", "_tags": {"amenity": "hospital", "healthcare": "hospital"}}, {"name": "West Berkshire Community Hospital", "latitude": 51.4060536, "longitude": -1.2920047, "source": "osm", "_tags": {"addr:postcode": "RG18 3AS", "amenity": "hospital", "emergency": "no", "healthcare": "hospital", "name": "West Berkshire Community Hospital", "source:addr:postcode": "CodePoint Postcodes", "wikidata": "Q7984466"}}, {"name": "Royal Hampshire County Hospital", "latitude": 51.0592528, "longitude": -1.332716, "source": "osm", "_tags": {"amenity": "hospital", "healthcare": "hospital", "name": "Royal Hampshire County Hospital"}}, {"name": "Savernake Hospital", "latitude": 51.4153846, "longitude": -1.7048791, "source": "osm", "_tags": {"addr:postcode": "SN8 3HL", "addr:street": "Maurice Way", "amenity": "hospital", "emergency": "no", "healthcare": "hospital", "name": "Savernake Hospital", "operator": "Great Western Hospitals NHS Foundation Trust", "phone": "+44 1672 517200"}}, {"name": "Fordingbridge Hospital", "latitude": 50.928229, "longitude": -1.7929139, "source": "osm", "_tags": {"amenity": "hospital", "emergency": "no", "healthcare": "hospital", "name": "Fordingbridge Hospital", "wikidata": "Q14956843", "wikipedia": "en:Fordingbridge Hospital"}}, {"name": "The Ridgeway Hospital", "latitude": 51.5253432, "longitude": -1.786122, "source": "osm", "_tags": {"addr:city": "Swindon", "addr:country": "GB", "addr:postcode": "SN4 9DD", "addr:street": "Moormead Road", "addr:suburb": "Wroughton", "alt_name": "Ridgeway Hospital", "amenity": "hospital", "fhrs:id": "254020", "healthcare": "hospital", "name": "The Ridgeway Hospital", "ref:GB:cqc_location": "1-128767148", "ref:GB:uprn": "100121363447", "wikidata": "Q30293103"}}, {"name": "Marlborough House", "latitude": 51.5501117, "longitude": -1.7975427, "source": "osm", "_tags": {"addr:city": "Swindon", "addr:housename": "Marlborough House (NHS)", "addr:postcode": "SN1 4JS", "addr:street": "Okus Road", "area": "yes", "fhrs:id": "253809", "healthcare": "hospital", "healthcare:speciality": "child_psychiatry", "name": "Marlborough House", "operator": "Oxford Health NHS Foundation Trust"}}, {"name": "New Forest Birthing Centre", "latitude": 50.8909371, "longitude": -1.5231972, "source": "osm", "_tags": {"amenity": "hospital", "emergency": "no", "healthcare": "hospital", "name": "New Forest Birthing Centre"}}, {"name": "Chippenham Community Hospital", "latitude": 51.4524977, "longitude": -2.1270681, "source": "osm", "_tags": {"addr:city": "Chippenham", "addr:postcode": "SN15 2AJ", "addr:street": "Rowden Hill", "amenity": "hospital", "healthcare": "hospital", "name": "Chippenham Community Hospital", "wheelchair": "yes"}}, {"name": "The Priory", "latitude": 50.9356181, "longitude": -1.3527034, "source": "osm", "_tags": {"amenity": "hospital", "healthcare": "hospital", "name": "The Priory"}}, {"name": "Royal South Hants Hospital", "latitude": 50.9127592, "longitude": -1.3982436, "source": "osm", "_tags": {"amenity": "hospital", "name": "Royal South Hants Hospital", "type": "site", "website:official": "http://www.royalsouthhantshospital.nhs.uk/"}}, {"name": "Royal Hampshire County Hospital", "latitude": 51.0611719, "longitude": -1.3294776, "source": "osm", "_tags": {"addr:city": "Winchester", "addr:country": "GB", "addr:postcode": "SO22 5DG", "addr:street": "Romsey Road", "amenity": "hospital", "brand": "NHS", "emergency": "yes", "healthcare": "hospital", "name": "Royal Hampshire County Hospital", "operator": "NHS", "operator:type": "public", "operator:wikidata": "Q918396", "source": "Bing;OS OpenData StreetView", "type": "multipolygon", "website": "https://www.hampshirehospitals.nhs.uk/", "wikidata": "Q7374253", "wikipedia": "en:Royal Hampshire County Hospital"}}, {"name": "St Leonards Hospital", "latitude": 50.8174102, "longitude": -1.8570408, "source": "osm", "_tags": {"amenity": "hospital", "healthcare": "hospital", "name": "St Leonards Hospital", "type": "multipolygon", "wikidata": "Q85803024", "wikipedia": "en:St Leonard's Hospital, Ferndown"}}]