[{"name": "Privatklinik Eschweiler", "latitude": 50.8183212, "longitude": 6.2385482, "source": "osm", "_tags": {"addr:city": "Eschweiler", "addr:housenumber": "59", "addr:postcode": "52249", "addr:street": "Röher Straße", "amenity": "hospital", "check_date": "2025-03-01", "contact:email": "info@privatklinik-eschweiler.de", "contact:fax": "+49 2403 789 156", "contact:phone": "+49 2403 789 10", "contact:website": "https://www.privatklinik-eschweiler.de", "healthcare": "hospital", "healthcare:speciality": "psychiatry", "image": "https://www.privatklinik-eschweiler.de/wp-content/uploads/privatklinik-echweiler-logo-300-200x256.jpg", "name": "Privatklinik Eschweiler", "old_name": "Röher Parkklinik", "operator": "Privatklinik Eschweiler GmbH", "operator:type": "business", "website": "https://www.privatklinik-eschweiler.de", "wheelchair": "yes"}}, {"name": "Malteser Krankenhaus St. Johannes-Stift", "latitude": 51.4532101, "longitude": 6.710091, "source": "osm", "_tags": {"addr:city": "Duisburg", "addr:housenumber": "21", "addr:postcode": "47198", "addr:street": "Johannisstraße", "amenity": "hospital", "beds": "267", "check_date": "2025-04-29", "contact:phone": "+49 2066 29-0", "contact:website": "http://www.malteser-stjohannesstift.de/", "email": "krankenhaus.duisburg-homberg@malteser.org", "emergency": "yes", "healthcare": "hospital", "name": "Malteser Krankenhaus St. Johannes-Stift", "operator": "Malteser", "website": "https://www.malteser-kliniken-rhein-ruhr.de/medizinische-fachbereiche/malteser-krankenhaus-st-johannes-stift.html", "wheelchair": "yes"}}, {"name": "Maasziekenhuis Pantein", "latitude": 51.6635586, "longitude": 5.9403546, "source": "osm", "_tags": {"addr:city": "Beugen", "addr:housenumber": "1", "addr:postcode": "5835DV", "addr:street": "Dokter Kopstraat", "amenity": "hospital", "emergency": "yes", "healthcare": "hospital", "name": "Maasziekenhuis Pantein", "phone": "+31 485 845 000", "source": "BAG", "source:date": "2014-03-24", "website": "https://www.maasziekenhuispantein.nl/"}}, {"name": "Interdisziplinäre Frühförderstelle IFF", "latitude": 51.652433, "longitude": 6.6129454, "source": "osm", "_tags": {"amenity": "hospital", "healthcare": "hospital", "name": "Interdisziplinäre Frühförderstelle IFF"}}, {"name": "Elkerliek Ziekenhuis", "latitude": 51.4682183, "longitude": 5.7904601, "source": "osm", "_tags": {"addr:city": "Deurne", "addr:housenumber": "16", "addr:postcode": "5751CB", "addr:street": "Dunantweg", "amenity": "hospital", "healthcare": "hospital", "name": "Elkerliek Ziekenhuis", "phone": "+31 493 328 888", "source": "BAG", "source:date": "2014-05-20", "website": "https://www.elkerliek.nl"}}, {"name": "Hospital zum Hl. Geist", "latitude": 51.3630017, "longitude": 6.4116776, "source": "osm", "_tags": {"amenity": "hospital", "healthcare": "hospital", "name": "Hospital zum Hl. Geist", "wheelchair": "yes"}}, {"name": "VieCuri Medisch Centrum locatie Venray", "latitude": 51.5275554, "longitude": 5.9599529, "source": "osm", "_tags": {"amenity": "hospital", "healthcare": "hospital", "name": "VieCuri Medisch Centrum locatie Venray", "wheelchair": "yes"}}, {"name": "Städtische Kliniken Mönchengladbach GmbH Elisabeth-Krankenhaus Rheydt", "latitude": 51.1581384, "longitude": 6.4186197, "source": "osm", "_tags": {"amenity": "hospital", "emergency": "yes", "healthcare": "hospital", "name": "Städtische Kliniken Mönchengladbach GmbH Elisabeth-Krankenhaus Rheydt", "toilets:wheelchair": "yes", "website": "https://www.sk-mg.de/", "wheelchair": "yes", "wikidata": "Q1686084", "wikipedia": "de:Städtische Kliniken Mönchengladbach"}}, {"name": "Lukaskrankenhaus", "latitude": 51.1915587, "longitude": 6.6719386, "source": "osm", "_tags": {"addr:city": "Neuss", "addr:country": "DE", "addr:housenumber": "84", "addr:postcode": "41464", "addr:street": "Preußenstraße", "amenity": "hospital", "contact:email": "information@lukasneuss.de", "contact:fax": "+49 2131 888-7999", "contact:phone": "+49 2131 888-0", "contact:website": "https://www.lukasneuss.de/", "emergency": "yes", "healthcare": "hospital", "name": "Lukaskrankenhaus", "official_name": "Städtische Kliniken Neuss -Lukaskrankenhaus- GmbH", "operator": "Rheinland Klinikum Neuss GmbH", "wheelchair": "yes", "wikidata": "Q1877016", "wikimedia_commons": "Category:Lukaskrankenhaus Neuss", "wikipedia": "de:Lukaskrankenhaus Neuss"}}, {"name": "Sankt Antonius Hospital", "latitude": 50.8184661, "longitude": 6.2642569, "source": "osm", "_tags": {"addr:city": "Eschweiler", "addr:housenumber": "8", "addr:postcode": "52249", "addr:street": "Dechant-Deckers-Straße", "amenity": "hospital", "building": "hospital", "emergency": "yes", "healthcare": "hospital", "name": "Sankt Antonius Hospital", "source": "historical", "website": "https://www.sah-eschweiler.de/", "wheelchair": "yes", "wikidata": "Q2315962", "wikimedia_commons": "Category:St.-Antonius-Hospital Eschweiler", "wikipedia": "de:St.-Antonius-Hospital Eschweiler"}}, {"name": "LVR-Klinik Viersen", "latitude": 51.2911266, "longitude": 6.3550015, "source": "osm", "_tags": {"amenity": "hospital", "healthcare": "hospital", "name": "LVR-Klinik Viersen", "website": "http://www.klinik-viersen.lvr.de", "wheelchair": "yes"}}, {"name": "Evangelisches Krankenhaus Bethesda", "latitude": 51.1990776, "longitude": 6.4246818, "source": "osm", "_tags": {"amenity": "hospital", "healthcare": "hospital", "name": "Evangelisches Krankenhaus Bethesda", "wheelchair": "yes"}}, {"name": "LVR Klinik Mönchengladbach", "latitude": 51.1712076, "longitude": 6.4372446, "source": "osm", "_tags": {"amenity": "hospital", "healthcare": "hospital", "name": "LVR Klinik Mönchengladbach", "toilets:wheelchair": "yes", "website": "https://klinik-moenchengladbach.lvr.de/de/nav_main/startseite.html", "wheelchair": "yes"}}, {"name": "Rhein-Maas Klinikum", "latitude": 50.8146199, "longitude": 6.14266, "source": "osm", "_tags": {"amenity": "hospital", "contact:phone": "+49 2405 620", "contact:website": "https://www.rheinmaasklinikum.de/", "emergency": "yes", "healthcare": "hospital", "name": "Rhein-Maas Klinikum", "operator": "Rhein-Maas Klinikum GmbH"}}, {"name": "Landschaftsverband Rheinland - Klinik Düren", "latitude": 50.8169127, "longitude": 6.4829758, "source": "osm", "_tags": {"addr:city": "Düren", "addr:country": "DE", "addr:housenumber": "15", "addr:postcode": "52353", "addr:street": "Meckerstraße", "amenity": "hospital", "healthcare": "hospital", "name": "Landschaftsverband Rheinland - Klinik Düren", "old_name": "Provinzial Heil- und Pflegeanstalt", "operator": "Landschaftsverband Rheinland", "website": "https://klinik-dueren.lvr.de/", "wikidata": "Q1798442", "wikimedia_commons": "Category:LVR-Klinik Düren", "wikipedia": "de:LVR-Klinik Düren"}}, {"name": "St. Mauritius Therapieklinik", "latitude": 51.2795469, "longitude": 6.6277459, "source": "osm", "_tags": {"amenity": "hospital", "contact:email": "info@stmtk.de", "contact:fax": "+49 2159 6791566", "contact:phone": "+49 2159 6790", "contact:website": "http://www.stmtk.de", "healthcare": "hospital", "name": "St. Mauritius Therapieklinik", "toilets:wheelchair": "yes", "wheelchair": "yes"}}, {"name": "LVR-Klinik Bedburg-Hau", "latitude": 51.7596012, "longitude": 6.1816625, "source": "osm", "_tags": {"amenity": "hospital", "email": "lvr-klinik-bedburg-hau@lvr.de", "fax": "+49 2821 81-1098", "healthcare": "hospital", "healthcare:speciality": "psychiatry;neuropsychiatry;child_psychiatry", "name": "LVR-Klinik Bedburg-Hau", "phone": "+49 2821 81-0", "website": "https://klinik-bedburg-hau.lvr.de", "wikidata": "Q1798438", "wikipedia": "de:LVR-Klinik Bedburg-Hau"}}, {"name": "St. Marienhospital Birkesdorf", "latitude": 50.8223937, "longitude": 6.4668872, "source": "osm", "_tags": {"addr:city": "Düren", "addr:country": "DE", "addr:housenumber": "44", "addr:postcode": "52353", "addr:street": "Hospitalstraße", "amenity": "hospital", "building": "hospital", "email": "info.smh-dn@ct-west.de", "emergency": "yes", "fax": "+49 2421 805 575", "healthcare": "hospital", "name": "St. Marienhospital Birkesdorf", "opening_hours": "24/7", "phone": "+49 2421 805 0", "website": "https://www.marien-hospital-dueren.de/", "wheelchair": "yes", "wikidata": "Q2320768", "wikipedia": "de:St. Marien-Hospital (Birkesdorf)"}}, {"name": "St. Nikolaus Hospital Rheinberg", "latitude": 51.5415036, "longitude": 6.6082167, "source": "osm", "_tags": {"addr:city": "Rheinberg", "addr:country": "DE", "addr:housenumber": "55", "addr:postcode": "47495", "addr:street": "Orsoyer Straße", "amenity": "hospital", "building": "hospital", "email": "rh.sek@st-josef-moers.de", "healthcare": "hospital", "healthcare:speciality": "psychiatry", "name": "St. Nikolaus Hospital Rheinberg", "operator": "St. Josef Krankenhaus GmbH Moers", "operator:type": "private", "phone": "+49 2843 17 90", "website": "https://www.st-josef-moers.de/psychiatrie-und-psychotherapie-st-nikolaus-hospital-rheinberg", "wheelchair": "yes", "wheelchair:description": "2 aG-Parkplätze"}}, {"name": "Helios St. Josefshospital Uerdingen", "latitude": 51.3524293, "longitude": 6.6481433, "source": "osm", "_tags": {"addr:city": "Krefeld", "addr:country": "DE", "addr:housenumber": "69", "addr:postcode": "47829", "addr:street": "Kurfürstenstraße", "amenity": "hospital", "building": "hospital", "healthcare": "hospital", "name": "Helios St. Josefshospital Uerdingen", "operator": "Helios Kliniken", "operator:wikidata": "Q1254151", "website": "https://www.helios-gesundheit.de/standorte-angebote/kliniken/krefeld-uerdingen/", "wheelchair": "yes"}}, {"name": "Evangelisches Krankenhaus Dinslaken", "latitude": 51.558391, "longitude": 6.7302513, "source": "osm", "_tags": {"amenity": "hospital", "healthcare": "hospital", "name": "Evangelisches Krankenhaus Dinslaken", "phone": "+49 2064 42-0", "website": "https://www.evkln.de/startseite/ev-krankenhaus-dinslaken/", "wheelchair": "yes"}}, {"name": "St. Vinzenz-Hospital Dinslaken", "latitude": 51.5592377, "longitude": 6.7274565, "source": "osm", "_tags": {"amenity": "hospital", "emergency": "yes", "healthcare": "hospital", "name": "St. Vinzenz-Hospital Dinslaken", "wheelchair": "yes"}}, {"name": "St. Elisabeth-Krankenhaus Geilenkirchen", "latitude": 50.9657287, "longitude": 6.1237685, "source": "osm", "_tags": {"amenity": "hospital", "contact:email": "info@krankenhaus-geilenkirchen.de", "contact:fax": "+49 2451 622-380", "contact:phone": "+49 2451 622-0", "contact:website": "https://krankenhaus-geilenkirchen.de", "emergency": "yes", "healthcare": "hospital", "name": "St. Elisabeth-Krankenhaus Geilenkirchen", "opening_hours": "24/7", "operator": "St. Elisabeth-Krankenhaus Geilenkirchen gemeinnützige Gesellschaft mbH", "wikidata": "Q2318059", "wikipedia": "de:St. Elisabeth-Krankenhaus Geilenkirchen"}}, {"name": "Krankenhaus Maria-Hilf", "latitude": 51.3254581, "longitude": 6.5858315, "source": "osm", "_tags": {"addr:city": "Krefeld", "addr:country": "DE", "addr:housenumber": "94", "addr:street": "Oberdießemer Straße", "amenity": "hospital", "healthcare": "hospital", "name": "Krankenhaus Maria-Hilf", "phone": "+49-2151-3340", "toilets:wheelchair": "yes", "website": "https://www.maria-hilf.de/", "wheelchair": "yes", "wikidata": "Q44444892"}}, {"name": "Helios Klinikum Krefeld", "latitude": 51.3206185, "longitude": 6.5675991, "source": "osm", "_tags": {"amenity": "hospital", "healthcare": "hospital", "name": "Helios Klinikum Krefeld", "operator": "Helios Kliniken", "operator:wikidata": "Q1254151", "operator:wikipedia": "de:Helios Kliniken", "toilets:wheelchair": "yes", "wheelchair": "yes"}}, {"name": "Kreiskrankenhaus Grevenbroich St. Elisabeth", "latitude": 51.0910803, "longitude": 6.5937835, "source": "osm", "_tags": {"addr:city": "Grevenbroich", "addr:country": "DE", "addr:housenumber": "5", "addr:postcode": "41515", "addr:street": "Von-Werth-Straße", "alt_name": "Kreiskrankenhaus Grevenbroich – St. Elisabeth –", "amenity": "hospital", "email": "info.gv@kkh-ne.de", "fax": "+49 2181 6005103", "name": "Kreiskrankenhaus Grevenbroich St. Elisabeth", "operator": "Rhein-Kreis Neuss", "phone": "+49 2181 6001", "website": "http://gv.rkn-kliniken.de/", "wheelchair": "yes", "wikidata": "Q1450039"}}, {"name": "Kliniken Maria Hilf GmbH", "latitude": 51.2190284, "longitude": 6.4202787, "source": "osm", "_tags": {"alt_name": "Krankenhaus St. Franziskus", "amenity": "hospital", "email": "info@mariahilf.de", "healthcare": "hospital", "name": "Kliniken Maria Hilf GmbH", "operator": "Kliniken Maria Hilf GmbH", "phone": "+49 2161 8920", "toilets:wheelchair": "yes", "website": "https://mariahilf.de/", "wheelchair": "yes"}}, {"name": "Tagesklinik Bedburg", "latitude": 50.9987685, "longitude": 6.577229, "source": "osm", "_tags": {"addr:city": "Bedburg", "addr:country": "DE", "addr:housenumber": "1", "addr:postcode": "50181", "addr:street": "Augustinerallee", "amenity": "hospital", "building": "hospital", "name": "Tagesklinik Bedburg", "operator": "Landschaftsverband Rheinland"}}, {"name": "Krankenhaus Bethanien", "latitude": 51.4617499, "longitude": 6.6336809, "source": "osm", "_tags": {"addr:city": "Moers", "addr:country": "DE", "addr:housenumber": "21", "addr:postcode": "47441", "addr:street": "Bethanienstraße", "amenity": "hospital", "email": "info@bethanienmoers.de", "emergency": "no", "healthcare": "hospital", "healthcare:speciality": "gynaecology;radiology;cardiology;surgery;orthopaedics", "name": "Krankenhaus Bethanien", "operator": "Stiftung Krankenhaus Bethanien für die Grafschaft Moers", "operator:type": "religious", "phone": "+49 2841/200-0", "toilets:wheelchair": "yes", "website": "https://www.bethanien-moers.de", "wheelchair": "yes"}}, {"name": "St. Josef Krankenhaus", "latitude": 51.4454856, "longitude": 6.640518, "source": "osm", "_tags": {"amenity": "hospital", "email": "contact@st-josef-moers.de", "emergency": "yes", "healthcare": "hospital", "name": "St. Josef Krankenhaus", "operator": "St. Josef Krankenhaus GmbH Moers", "operator:type": "religious", "phone": "+49 2841 107-1", "website": "https://www.st-josef-moers.de/", "wheelchair": "yes"}}, {"name": "Niederrhein-Klinik Korschenbroich", "latitude": 51.1922557, "longitude": 6.5195938, "source": "osm", "_tags": {"addr:city": "Korschenbroich", "addr:country": "DE", "addr:housenumber": "22-24", "addr:postcode": "41352", "addr:street": "Regentenstraße", "amenity": "hospital", "building": "hospital", "fax": "+49 2161 979222", "healthcare": "hospital", "name": "Niederrhein-Klinik Korschenbroich", "phone": "+49 2161 9790", "website": "https://www.niederrhein-klinik.de/", "wheelchair": "yes"}}, {"name": "St. Elisabeth-Hospital", "latitude": 51.3044348, "longitude": 6.6767774, "source": "osm", "_tags": {"addr:city": "Meerbusch", "addr:country": "DE", "addr:housenumber": "74-76", "addr:postcode": "40668", "addr:street": "Hauptstraße", "amenity": "hospital", "contact:email": "info@rrz-meerbusch.de", "contact:fax": "+49 2150 917-111", "contact:phone": "+49 2150 917-0", "contact:website": "https://www.rrz-meerbusch.de/", "healthcare": "hospital", "name": "St. Elisabeth-Hospital", "operator": "St. Franziskus-Stiftung Münster", "operator:wikidata": "Q2318238", "ref:vatin": "DE315572429"}}, {"name": "LVR Verbund Heilpädagogischer Hilfen (HPH)", "latitude": 51.2868238, "longitude": 6.3512482, "source": "osm", "_tags": {"amenity": "hospital", "healthcare": "hospital", "name": "LVR Verbund Heilpädagogischer Hilfen (HPH)", "operator": "LVR-HPH-Netz West"}}, {"name": "", "latitude": 51.2956429, "longitude": 6.3460926, "source": "osm", "_tags": {"amenity": "hospital", "healthcare": "hospital"}}, {"name": "Alexius/Josef Krankenhaus", "latitude": 51.1912809, "longitude": 6.7019633, "source": "osm", "_tags": {"addr:city": "Neuss", "addr:country": "DE", "addr:housenumber": "99", "addr:postcode": "41464", "addr:street": "Nordkanalallee", "amenity": "hospital", "email": "info@psychiatrie-neuss.de", "emergency": "yes", "fax": "+49 2131 5292-9001", "healthcare": "hospital", "healthcare:speciality": "psychiatry", "name": "Alexius/Josef Krankenhaus", "operator": "St. Augustinus-Kliniken gGmbH", "operator:type": "religious", "phone": "+49 2131 5292-00", "source": "Bing", "toilets:wheelchair": "yes", "website": "https://www.psychiatrie-neuss.de/", "wheelchair": "yes", "wikidata": "Q35387575", "wikimedia_commons": "Category:Alexius Krankenhaus in Neuss", "wikipedia": "de:St. Alexius-/St. Josef-Krankenhaus"}}, {"name": "St. Bernhard-Hospital", "latitude": 51.491252, "longitude": 6.5161086, "source": "osm", "_tags": {"amenity": "hospital", "healthcare": "hospital", "name": "St. Bernhard-Hospital", "operator": "St. Franziskus-Stiftung Münster", "operator:wikidata": "Q2318238", "wikidata": "Q2317552", "wikipedia": "de:St. Bernhard-Hospital Kamp-Lintfort"}}, {"name": "Allgemeines Krankenhaus Viersen", "latitude": 51.2507988, "longitude": 6.381708, "source": "osm", "_tags": {"amenity": "hospital", "healthcare": "hospital", "name": "Allgemeines Krankenhaus Viersen", "toilets:wheelchair": "yes", "website": "https://www.kinderhaus-viersen.de/", "wheelchair": "yes"}}, {"name": "Sankt Antonius Hospital", "latitude": 51.7726173, "longitude": 6.1355496, "source": "osm", "_tags": {"amenity": "hospital", "emergency": "yes", "healthcare": "hospital", "name": "Sankt Antonius Hospital", "operator": "Katholische Kliniken im Kreis Kleve Trägergesellschaft mbH", "phone": "+49 2821 4900", "toilets:wheelchair": "yes", "website": "https://www.kkle.de/", "wheelchair": "yes", "wikidata": "Q20008617"}}, {"name": "St. Nikolaus-Hospital", "latitude": 51.740061, "longitude": 6.2935893, "source": "osm", "_tags": {"addr:city": "Kalkar", "addr:housenumber": "86-88", "addr:postcode": "47546", "addr:street": "Grabenstraße", "amenity": "hospital", "building": "yes", "contact:phone": "+49 2824 170", "contact:website": "http://www.kkikk.de/snh/index.html", "healthcare": "hospital", "name": "St. Nikolaus-Hospital"}}, {"name": "Zuyderland", "latitude": 50.9839481, "longitude": 5.8420954, "source": "osm", "_tags": {"amenity": "hospital", "building": "yes", "building:levels": "6", "building:levels:underground": "2", "emergency": "yes", "healthcare": "hospital", "height": "25", "layer": "-1", "name": "Zuyderland", "ref:bag": "1883100000058903", "roof:shape": "flat", "source": "BAG", "source:date": "2022-02-22", "start_date": "2008", "url": "https://www.zuyderland.nl/", "wheelchair": "limited", "wikidata": "Q2549749", "wikipedia": "nl:Zuyderland Medisch Centrum"}}, {"name": "St. Irmgardis-Krankenhaus", "latitude": 51.2856539, "longitude": 6.3753429, "source": "osm", "_tags": {"amenity": "hospital", "healthcare": "hospital", "name": "St. Irmgardis-Krankenhaus", "operator": "St. Franziskus-Stiftung Münster", "operator:wikidata": "Q2318238", "phone": "+49 2162 8990"}}, {"name": "Ziekenhuis Maas en Kempen", "latitude": 51.1018953, "longitude": 5.7683622, "source": "osm", "_tags": {"addr:housenumber": "425", "addr:street": "Diestersteenweg", "alt_name": "ZOL Maas en Kempen", "amenity": "hospital", "emergency": "yes", "emergency_ward": "complete", "healthcare": "hospital", "healthcare:speciality": "general", "name": "Ziekenhuis Maas en Kempen", "official_name": "Ziekenhuis Oost-Limburg - Ziekenhuis Maas En Kempen", "ref:fps_health:campus": "6120", "ref:fps_health:recognition": "717", "website": "https://www.zol.be/contact/zol-maas-en-kempen", "wheelchair": "yes"}}, {"name": "LVR-Klinik für Orthopädie Viersen", "latitude": 51.2911213, "longitude": 6.3498661, "source": "osm", "_tags": {"amenity": "hospital", "name": "LVR-Klinik für Orthopädie Viersen", "website": "http://www.orthopaedie-viersen.lvr.de", "wheelchair": "yes"}}, {"name": "Sankt Josef-Hospital", "latitude": 51.6431235, "longitude": 6.4520034, "source": "osm", "_tags": {"amenity": "hospital", "name": "Sankt Josef-Hospital", "website": "https://www.sankt-josef-hospital.de/"}}, {"name": "", "latitude": 50.867866, "longitude": 5.9721974, "source": "osm", "_tags": {"amenity": "hospital", "healthcare": "hospital"}}, {"name": "Zuyderland", "latitude": 50.8702694, "longitude": 5.9763214, "source": "osm", "_tags": {"amenity": "hospital", "healthcare": "hospital", "name": "Zuyderland", "website": "https://www.zuyderland.nl/", "wikidata": "Q2549749", "wikipedia": "nl:Zuyderland Medisch Centrum"}}, {"name": "Marienhospital", "latitude": 51.5845069, "longitude": 6.2496949, "source": "osm", "_tags": {"amenity": "hospital", "healthcare": "hospital", "name": "Marienhospital", "operator": "Katholisches Karl-Leisner-Klinikum gGmbH", "phone": "+492832100", "wheelchair": "yes"}}, {"name": "Katholisches Karl-Leisner-Klinikum Wilhelm-Anton-Hospital Goch", "latitude": 51.6766025, "longitude": 6.181603, "source": "osm", "_tags": {"amenity": "hospital", "healthcare": "hospital", "name": "Katholisches Karl-Leisner-Klinikum Wilhelm-Anton-Hospital Goch", "phone": "+49-2823-8910"}}, {"name": "VieCuri", "latitude": 51.35745, "longitude": 6.1537485, "source": "osm", "_tags": {"amenity": "hospital", "emergency": "yes", "healthcare": "hospital", "name": "VieCuri", "toilets:wheelchair": "yes", "wheelchair": "yes", "wikidata": "Q2435226"}}, {"name": "Herzpark Hardterwald Kardiologische Rehabilitation", "latitude": 51.1890873, "longitude": 6.361564, "source": "osm", "_tags": {"amenity": "hospital", "healthcare": "hospital", "name": "Herzpark Hardterwald Kardiologische Rehabilitation", "operator": "MedNation AG", "website": "https://www.herzpark-mg.de/", "wheelchair": "limited"}}, {"name": "Städtisches Krankenhaus Nettetal", "latitude": 51.3089948, "longitude": 6.2708798, "source": "osm", "_tags": {"amenity": "hospital", "contact:email": "info@krankenhaus-nettetal.de", "contact:fax": "+49 2153 125-718", "contact:phone": "+49 2153 125-0", "contact:website": "https://www.krankenhaus-nettetal.de", "emergency": "yes", "healthcare": "hospital", "name": "Städtisches Krankenhaus Nettetal", "opening_hours": "24/7", "operator": "Städtisches Krankenhaus Nettetal GmbH", "wheelchair": "yes", "wikidata": "Q57401191"}}, {"name": "Krankenhaus Neuwerk \"Maria von den Aposteln\"", "latitude": 51.224276, "longitude": 6.4705263, "source": "osm", "_tags": {"amenity": "hospital", "healthcare": "hospital", "name": "Krankenhaus Neuwerk \"Maria von den Aposteln\"", "operator": "St. Augustinus-Kliniken gGmbH", "wheelchair": "yes"}}, {"name": "", "latitude": 51.2943454, "longitude": 6.3493896, "source": "osm", "_tags": {"amenity": "hospital"}}, {"name": "Kinder- und Jugendpsychiatrie", "latitude": 51.2939835, "longitude": 6.3481954, "source": "osm", "_tags": {"amenity": "hospital", "name": "Kinder- und Jugendpsychiatrie"}}, {"name": "Forensische Klinik", "latitude": 50.8218698, "longitude": 6.4802244, "source": "osm", "_tags": {"addr:city": "Düren", "addr:country": "DE", "addr:housenumber": "67-69", "addr:postcode": "52353", "addr:street": "Akazienstraße", "amenity": "hospital", "email": "klinik-dueren@lvr.de", "healthcare": "hospital", "name": "Forensische Klinik", "operator": "Landschaftsverband Rheinland", "phone": "+49 2421 400", "website": "https://klinik-dueren.lvr.de/de/nav_main/fachgebiete___behandlungsangebote/forensische_psychiatrie/forensische_psychiatrie_1.html", "wikidata": "Q1437139", "wikipedia": "de:Forensik (Düren)"}}, {"name": "Helios Cäcilien-Hospital Hüls", "latitude": 51.3759004, "longitude": 6.5149234, "source": "osm", "_tags": {"amenity": "hospital", "emergency": "yes", "healthcare": "hospital", "name": "Helios Cäcilien-Hospital Hüls", "operator": "Helios Kliniken", "operator:wikidata": "Q1254151", "phone": "+49 2151 7391", "toilets:wheelchair": "yes", "wheelchair": "yes"}}, {"name": "Bertha-Krankenhaus", "latitude": 51.3970798, "longitude": 6.7008209, "source": "osm", "_tags": {"addr:city": "Duisburg", "addr:housenumber": "5", "addr:postcode": "47229", "addr:street": "Maiblumenstraße", "amenity": "hospital", "beds": "81", "email": "birgit.schwichtenberg@sana.de", "emergency": "no", "healthcare": "hospital", "healthcare:speciality": "psychiatry", "name": "Bertha-Krankenhaus", "note": "Klinik für Kinder-und Jugendpsychiatrie, Psychotherapie und Psychosomatik", "operator": "Sana", "operator:type": "private", "phone": "+492065258461", "website": "https://www.sana.de/duisburg/medizin-pflege/kinder-und-jugendpsychiatrie-und-psychotherapie", "wheelchair": "limited"}}, {"name": "Johanna-Etienne Krankenhaus", "latitude": 51.2132298, "longitude": 6.6585845, "source": "osm", "_tags": {"addr:city": "Neuss", "addr:housenumber": "46", "addr:postcode": "41462", "addr:street": "Am Hasenberg", "amenity": "hospital", "emergency": "yes", "healthcare": "hospital", "healthcare:speciality": "cardiology;gynaecology", "name": "Johanna-Etienne Krankenhaus", "operator": "St. Augstinus-Gruppe", "operator:type": "religious"}}, {"name": "Schön Klinik Düsseldorf", "latitude": 51.2313187, "longitude": 6.7272689, "source": "osm", "_tags": {"addr:city": "Düsseldorf", "addr:country": "DE", "addr:housenumber": "2", "addr:postcode": "40549", "addr:street": "Am Heerdter Krankenhaus", "amenity": "hospital", "beds": "202", "emergency": "yes", "healthcare": "hospital", "healthcare:speciality": "general;intensive;emergency", "name": "Schön Klinik Düsseldorf", "operator": "Schön Klinik", "operator:type": "private", "operator:wikidata": "Q2258661", "operator:wikipedia": "de:Schön Klinik", "phone": "+49-211-5670", "start_date": "1892", "website": "https://www.schoen-klinik.de/duesseldorf"}}, {"name": "Städtisches Krankenhaus Heinsberg", "latitude": 51.0650983, "longitude": 6.0949377, "source": "osm", "_tags": {"amenity": "hospital", "emergency": "yes", "fax": "+49 2452 188574", "healthcare": "hospital", "name": "Städtisches Krankenhaus Heinsberg", "opening_hours": "24/7", "phone": "+49 2452 1880", "toilets:wheelchair": "yes", "website": "https://www.krankenhaus-heinsberg.com/", "wheelchair": "yes", "wikidata": "Q15130717", "wikipedia": "de:Städtisches Krankenhaus Heinsberg"}}, {"name": "Krankenhaus Jülich", "latitude": 50.9260294, "longitude": 6.3638991, "source": "osm", "_tags": {"addr:city": "Jülich", "addr:country": "DE", "addr:housenumber": "22", "addr:postcode": "52428", "addr:street": "Kurfürstenstraße", "amenity": "hospital", "contact:email": "info.juelich@ct-west.de", "contact:fax": "+49 2461 620-2009", "contact:phone": "+49 2461 620-0", "contact:website": "https://www.krankenhaus-juelich.de/", "healthcare": "hospital", "name": "Krankenhaus Jülich", "operator": "Stadt Jülich", "wheelchair": "yes"}}, {"name": "Hermann-Josef Krankenhaus", "latitude": 51.074548, "longitude": 6.3126399, "source": "osm", "_tags": {"amenity": "hospital", "email": "info@hjk-erkelenz.de", "fax": "+49 2431 892218", "healthcare": "hospital", "name": "Hermann-Josef Krankenhaus", "phone": "+49 2431 890", "website": "https://www.hjk-erkelenz.de/", "wikidata": "Q15056633", "wikipedia": "de:Hermann-Josef-Krankenhaus"}}, {"name": "Maria-Hilf-Krankenhaus", "latitude": 50.9521023, "longitude": 6.6374387, "source": "osm", "_tags": {"amenity": "hospital", "contact:email": "info@maria-hilf-krankenhaus.de", "contact:fax": "+49 2271 87121", "contact:phone": "+49 2271 870", "contact:website": "https://maria-hilf-krankenhaus.de/", "emergency": "yes", "healthcare": "hospital", "name": "Maria-Hilf-Krankenhaus", "operator": "Maria-Hilf-Krankenhaus Bergheim/Erft gGmbH", "operator:type": "religious", "toilets:wheelchair": "yes", "wheelchair": "yes"}}, {"name": "Laurentius Ziekenhuis", "latitude": 51.1917488, "longitude": 6.0002361, "source": "osm", "_tags": {"addr:city": "Roermond", "addr:housenumber": "6", "addr:postcode": "6043CV", "addr:street": "Monseigneur Driessenstraat", "amenity": "hospital", "healthcare": "hospital", "name": "Laurentius Ziekenhuis", "toilets:wheelchair": "yes", "website": "https://www.laurentiusziekenhuisroermond.nl", "wheelchair": "yes", "wikidata": "Q2085452", "wikimedia_commons": "Category:Laurentius Ziekenhuis", "wikipedia": "nl:Laurentius Ziekenhuis"}}, {"name": "Johanniter Krankenhaus Rheinhausen", "latitude": 51.4120651, "longitude": 6.6992298, "source": "osm", "_tags": {"addr:city": "Duisburg", "addr:housenumber": "1-7", "addr:postcode": "47228", "addr:street": "Kreuzacker", "amenity": "hospital", "beds": "304", "brand": "Johanniter-Unfall-Hilfe", "brand:wikidata": "Q14751117", "brand:wikipedia": "de:Johanniter-Unfall-Hilfe", "healthcare": "hospital", "name": "Johanniter Krankenhaus Rheinhausen", "phone": "+49 2065 970", "short_name": "JUH", "website": "https://www.johanniter.de/einrichtungen/krankenhaus/duisburg-rheinhausen/"}}, {"name": "VIALIFE Campus Bardenberg", "latitude": 50.8437102, "longitude": 6.1108483, "source": "osm", "_tags": {"addr:city": "Würselen", "addr:country": "DE", "addr:housenumber": "1", "addr:postcode": "52146", "addr:street": "Dr.-Hans-Böckler-Platz", "addr:suburb": "Bardenberg", "amenity": "hospital", "contact:phone": "+49 241 60020", "contact:website": "https://campus-bardenberg.via.life/", "healthcare": "rehabilitation", "healthcare:speciality": "psychosomatic", "name": "VIALIFE Campus Bardenberg", "opening_hours": "Mo-Fr 08:00-18:00; Sa,Su,PH off", "operator": "VIALIFE Reha Bardenberg GmbH", "wheelchair": "yes"}}, {"name": "St.-Clemens-Hospital", "latitude": 51.5282294, "longitude": 6.3272743, "source": "osm", "_tags": {"addr:city": "Geldern", "addr:country": "DE", "addr:housenumber": "6", "addr:postcode": "47608", "addr:street": "Clemensstraße", "amenity": "hospital", "emergency": "yes", "healthcare": "hospital", "name": "St.-Clemens-Hospital", "website": "https://www.clemens-hospital.de/", "wheelchair": "yes"}}, {"name": "Helios Klinik Duisburg Homberg", "latitude": 51.4532787, "longitude": 6.7099434, "source": "osm", "_tags": {"addr:city": "Duisburg", "addr:housenumber": "21", "addr:postcode": "47198", "addr:street": "Johannisstraße", "amenity": "hospital", "healthcare": "hospital", "name": "Helios Klinik Duisburg Homberg", "operator": "Helios Kliniken", "operator:wikidata": "Q1254151", "website": "https://www.helios-gesundheit.de/kliniken/duisburg-homberg/"}}, {"name": "Evangelisches Krankenhaus Wesel", "latitude": 51.6596685, "longitude": 6.6550799, "source": "osm", "_tags": {"addr:city": "Wesel", "addr:country": "DE", "addr:housenumber": "88", "addr:postcode": "46485", "addr:street": "Schermbecker Landstraße", "amenity": "hospital", "building": "hospital", "contact:phone": "+49 281 106 1", "contact:website": "http://www.evkwesel.de/", "emergency": "yes", "healthcare": "hospital", "name": "Evangelisches Krankenhaus Wesel", "operator": "Evangelisches Krankenhaus Wesel GmbH", "type": "multipolygon", "wheelchair": "yes", "wikidata": "Q1381353"}}, {"name": "Marien-Hospital", "latitude": 51.6555368, "longitude": 6.6110822, "source": "osm", "_tags": {"addr:city": "Wesel", "addr:country": "DE", "addr:housenumber": "8-38", "addr:postcode": "46483", "addr:street": "Pastor-Janßen-Straße", "amenity": "hospital", "building": "yes", "healthcare": "hospital", "name": "Marien-Hospital", "type": "multipolygon", "wheelchair": "limited"}}]