[{"name": "BG Klinikum Bergmannstrost Halle", "latitude": 51.4602457, "longitude": 11.9865819, "source": "osm", "_tags": {"addr:city": "Halle (Saale)", "addr:country": "DE", "addr:housenumber": "165", "addr:postcode": "06112", "addr:street": "Merseburger Straße", "amenity": "hospital", "contact:phone": "+49 345 13260", "contact:website": "http://www.bergmannstrost.de", "emergency": "yes", "healthcare": "hospital", "name": "BG Klinikum Bergmannstrost Halle", "operator": "BG Klinikum Bergmannstrost Halle gGmbH", "toilets:wheelchair": "yes", "wheelchair": "yes", "wikidata": "Q485139", "wikipedia": "de:BG Klinikum Bergmannstrost Halle"}}, {"name": "Universitätsklinikum Halle (Saale)", "latitude": 51.5017665, "longitude": 11.936832, "source": "osm", "_tags": {"addr:city": "Halle (Saale)", "addr:country": "DE", "addr:housenumber": "40", "addr:postcode": "06120", "addr:street": "Ernst-Grube-Straße", "amenity": "hospital", "contact:phone": "+49 345 5570", "contact:website": "http://www.medizin.uni-halle.de/index.php?id=398", "emergency": "yes", "healthcare": "hospital", "name": "Universitätsklinikum Halle (Saale)", "operator": "Medizinische Fakultät der Martin-Luther-Universität Halle-Wittenberg", "wheelchair": "yes", "wikidata": "Q1263366"}}, {"name": "Goitzsche Klinikum", "latitude": 51.6338047, "longitude": 12.3338957, "source": "osm", "_tags": {"addr:city": "Bitterfeld-Wolfen", "addr:country": "DE", "addr:housenumber": "2", "addr:postcode": "06749", "addr:street": "Friedrich-Ludwig-Jahn-Straße", "addr:suburb": "Bitterfeld", "amenity": "hospital", "contact:phone": "+49 3493 310", "contact:website": "https://www.gzbiwo.de/", "emergency": "yes", "healthcare": "hospital", "healthcare:speciality": "general", "name": "Goitzsche Klinikum", "official_name": "Gesundheitszentrum Bitterfeld/Wolfen", "operator": "Gesundheitszentrum Bitterfeld/Wolfen gGmbH", "toilets:wheelchair": "yes", "wheelchair": "yes"}}, {"name": "Diakoniekrankenhaus Halle", "latitude": 51.494253, "longitude": 11.958975, "source": "osm", "_tags": {"addr:city": "Halle (Saale)", "addr:country": "DE", "addr:housenumber": "7", "addr:postcode": "06114", "addr:street": "Mühlweg", "amenity": "hospital", "check_date": "2025-07-15", "contact:website": "http://www.diakoniekrankenhaus-halle.de/kliniken/", "emergency": "yes", "healthcare": "hospital", "name": "Diakoniekrankenhaus Halle", "operator": "Diakoniewerk Halle", "operator:type": "religious", "toilets:wheelchair": "yes", "wheelchair": "yes"}}, {"name": "Kreiskrankenhaus Delitzsch", "latitude": 51.527194, "longitude": 12.3375394, "source": "osm", "_tags": {"addr:city": "Delitzsch", "addr:housenumber": "3 - 9", "addr:postcode": "04509", "addr:street": "Dübener Straße", "amenity": "hospital", "contact:fax": "+49 34202 767902", "contact:phone": "+49 34202 7670", "email": "verwaltung@kkh-delitzsch-gmbh.de", "emergency": "yes", "healthcare": "hospital", "name": "Kreiskrankenhaus Delitzsch", "operator": "Kreiskrankenhaus Delitzsch GmbH", "operator:type": "private", "website": "https://www.kliniken-delitzsch-eilenburg.de/standort-delitzsch", "wheelchair": "yes", "wikidata": "Q113377982", "wikipedia": "de:Kreiskrankenhaus Delitzsch"}}, {"name": "Haus 20", "latitude": 51.3830883, "longitude": 12.3762251, "source": "osm", "_tags": {"building": "hospital", "building:levels": "5", "emergency": "yes", "healthcare": "hospital", "healthcare:speciality": "emergency", "name": "Haus 20", "roof:levels": "0"}}, {"name": "SRH Klinikum Zeitz", "latitude": 51.0307959, "longitude": 12.1593894, "source": "osm", "_tags": {"addr:city": "Zeitz", "addr:country": "DE", "addr:housenumber": "1", "addr:postcode": "06712", "addr:street": "Lindenallee", "amenity": "hospital", "contact:email": "info@klinikum-burgenlandkreis.de", "contact:facebook": "https://www.facebook.com/SRH-Klinikum-Burgenlandkreis-109699660672791", "contact:phone": "+49 03441 2010", "contact:website": "https://www.klinikum-burgenlandkreis.de/", "emergency": "yes", "healthcare": "hospital", "name": "SRH Klinikum Zeitz", "operator": "SRH Klinikum Burgenlandkreis GmbH"}}, {"name": "SRH Klinikum Naumburg", "latitude": 51.161012, "longitude": 11.8148405, "source": "osm", "_tags": {"addr:city": "Naumburg (Saale)", "addr:country": "DE", "addr:housenumber": "31", "addr:postcode": "06618", "addr:street": "Humboldtstraße", "amenity": "hospital", "fixme": "Geländegrenzen", "healthcare": "hospital", "name": "SRH Klinikum Naumburg", "operator": "SRH Klinikum Burgenlandkreis GmbH", "short_name": "KH Naumburg", "toilets:wheelchair": "yes", "website": "https://www.klinikum-burgenlandkreis.de/", "wheelchair": "yes", "wikidata": "Q89039351"}}, {"name": "", "latitude": 51.1347366, "longitude": 12.504619, "source": "osm", "_tags": {"addr:city": "Borna", "addr:country": "DE", "addr:housenumber": "2", "addr:postcode": "04552", "addr:street": "Rudolf-Virchow-Straße", "amenity": "hospital", "contact:email": "postmaster.borna@sana.de", "contact:fax": "+49 3433 211105", "contact:phone": "+49 3433 210", "contact:website": "https://www.kliniken-leipziger-land.de/", "description": "Parkplatz Klinikum Borna", "emergency": "emergency_ward_entrance", "healthcare": "hospital", "healthcare:speciality": "emergency;gynaecology;internal;neurology;orthopaedics;otolaryngology;radiology;urology", "note": "Akademisches Lehrkrankenhaus der Universität Leipzig", "operator": "Sana Kliniken Leipziger Land GmbH", "wheelchair": "yes"}}, {"name": "Klinik Köthen", "latitude": 51.7467963, "longitude": 11.9727939, "source": "osm", "_tags": {"addr:city": "Köthen", "addr:country": "DE", "addr:housenumber": "29", "addr:postcode": "06366", "addr:street": "Hallesche Straße", "amenity": "hospital", "contact:phone": "+49 3496 520", "contact:website": "https://www.helios-gesundheit.de/kliniken/koethen/", "emergency": "yes", "healthcare": "hospital", "name": "Klinik Köthen", "operator": "Helios Kliniken", "operator:wikidata": "Q1254151", "operator:wikipedia": "de:Helios Kliniken", "wheelchair": "yes"}}, {"name": "Klinik für Forensische Psychiatrie", "latitude": 51.2941376, "longitude": 12.4244653, "source": "osm", "_tags": {"addr:city": "Leipzig", "addr:housenumber": "11", "addr:street": "Gorbitzer Straße", "amenity": "hospital", "emergency": "no", "healthcare": "hospital", "healthcare:speciality": "psychiatry;forensic", "name": "Klinik für Forensische Psychiatrie", "operator": "Klinikum St. Georg gGmbH", "start_date": "1996", "website": "https://www.sanktgeorg.de/medizinische-bereiche/kliniken-abteilungen/forensische-psychiatrie.html"}}, {"name": "Haus Dessauer", "latitude": 50.8702618, "longitude": 12.0464434, "source": "osm", "_tags": {"building": "hospital", "healthcare": "hospital", "name": "Haus Dessauer", "source": "bing"}}, {"name": "Krankenhaus Martha Maria", "latitude": 51.5031384, "longitude": 11.8775228, "source": "osm", "_tags": {"addr:city": "Halle (Saale)", "addr:housenumber": "1", "addr:postcode": "06120", "addr:street": "Röntgenstraße", "amenity": "hospital", "check_date": "2025-03-02", "landuse": "commercial", "name": "Krankenhaus Martha Maria", "toilets:wheelchair": "yes", "wheelchair": "yes"}}, {"name": "Klinik Weißenfels", "latitude": 51.1939594, "longitude": 11.9569056, "source": "osm", "_tags": {"addr:city": "Weißenfels", "addr:country": "DE", "addr:housenumber": "76", "addr:postcode": "06667", "addr:street": "Naumburger Straße", "amenity": "hospital", "contact:phone": "+49 3443 400", "contact:website": "https://www.asklepios.com/weissenfels/", "emergency": "yes", "healthcare": "hospital", "name": "Klinik Weißenfels", "note": "hospital", "operator": "Asklepios Kliniken Weißenfels-Hohenmölsen GmbH", "source": "Bing", "toilets:wheelchair": "yes", "wheelchair": "yes", "wikidata": "Q30269507"}}, {"name": "Moritz Klinik", "latitude": 50.9183043, "longitude": 11.8602254, "source": "osm", "_tags": {"amenity": "hospital", "name": "Moritz Klinik"}}, {"name": "Klinikum Altenburger Land", "latitude": 50.9723911, "longitude": 12.4399276, "source": "osm", "_tags": {"addr:city": "Altenburg", "addr:country": "DE", "addr:housenumber": "10", "addr:postcode": "04600", "addr:street": "Am Waldessaum", "amenity": "hospital", "contact:phone": "+49 3447 520", "contact:website": "http://www.klinikum-altenburgerland.de/", "emergency": "yes", "healthcare": "hospital", "healthcare:speciality": "surgery;intensive;internal;gynaecology;paediatrics;cardiology;oncology;radiology;abortion", "name": "Klinikum Altenburger Land", "opening_hours": "24/7", "operator": "Klinikum Altenburger Land GmbH", "short_name": "KH Altenburg", "source": "Bing", "wheelchair": "yes", "wikidata": "Q23979529"}}, {"name": "Krankenhaus St. Barbara", "latitude": 51.4588251, "longitude": 11.9785785, "source": "osm", "_tags": {"addr:city": "Halle (Saale)", "addr:country": "DE", "addr:housenumber": "4", "addr:postcode": "06110", "addr:street": "Barbarastraße", "amenity": "hospital", "healthcare": "hospital", "name": "Krankenhaus St. Barbara", "operator": "Krankenhaus St. Elisabeth und St. Barbara Halle (Saale) GmbH", "phone": "+49 345 21330", "website": "https://www.krankenhaus-halle-saale.de/", "wheelchair": "yes"}}, {"name": "Krankenhaus St. Elisabeth und St. Barbara", "latitude": 51.4775469, "longitude": 11.9681942, "source": "osm", "_tags": {"addr:city": "Halle (Saale)", "addr:housenumber": "5", "addr:postcode": "06110", "addr:street": "Mauerstraße", "amenity": "hospital", "contact:city": "Halle (Saale)", "contact:housenumber": "5", "contact:postcode": "06110", "contact:street": "Mauerstraße", "email": "info@krankenhaus-halle-saale.de", "emergency": "yes", "fax": "+49 345 2134005", "healthcare": "hospital", "name": "Krankenhaus St. Elisabeth und St. Barbara", "operator": "Krankenhaus St. Elisabeth und St. Barbara Halle (Saale) GmbH", "operator:type": "public", "phone": "+49 345 21330", "toilets:wheelchair": "yes", "website": "https://www.krankenhaus-halle-saale.de/", "wheelchair": "yes"}}, {"name": "Asklepios MVZ Sachsen-Anhalt D-Arzt und Chirurgie", "latitude": 51.1983282, "longitude": 11.9602914, "source": "osm", "_tags": {"addr:city": "Weißenfels", "addr:housenumber": "4", "addr:postcode": "06667", "addr:street": "Kleine Deichstraße", "amenity": "hospital", "building": "yes", "fax": "+49 3443 302602", "healthcare": "hospital", "healthcare:speciality": "surgery;accident_insurance_consultant", "name": "Asklepios MVZ Sachsen-Anhalt D-Arzt und Chirurgie", "opening_hours": "Mo-Tu 08:00 -18:00; We 08:00-12:00; Th 08:00-18:00; Fr 08:00-12:00", "operator": "Asklepios Kliniken", "operator:type": "private", "operator:wikidata": "Q732068", "operator:wikipedia": "de:Asklepios Kliniken", "phone": "+49 3443 345700", "wheelchair": "yes"}}, {"name": "Klinik Eilenburg", "latitude": 51.4603958, "longitude": 12.6210669, "source": "osm", "_tags": {"addr:city": "Eilenburg", "addr:country": "DE", "addr:housenumber": "5-8", "addr:postcode": "04838", "addr:street": "Wilhelm-Grune-Straße", "amenity": "hospital", "contact:facebook": "https://www.facebook.com/Kreiskrankenhaus-Delitzsch-GmbH-Klinik-Delitzsch-Klinik-Eilenburg-239933522741422/", "contact:fax": "+49 3423 667909", "contact:instagram": "https://www.instagram.com/kliniken_delitzsch_eilenburg/", "contact:linkedin": "https://de.linkedin.com/company/kliniken-delitzsch-eilenburg", "contact:phone": "+49 3423 6670", "email": "verwaltung@kkh-delitzsch-gmbh.de", "emergency": "yes", "healthcare": "hospital", "name": "Klinik Eilenburg", "operator": "Kreiskrankenhaus Delitzsch GmbH", "website": "https://www.kliniken-delitzsch-eilenburg.de/standort-eilenburg", "wheelchair": "yes", "wikidata": "Q113541976", "wikipedia": "de:Krankenhaus Eilenburg"}}, {"name": "Evangelisches Diakonissenkrankenhaus Leipzig", "latitude": 51.342499, "longitude": 12.3197657, "source": "osm", "_tags": {"addr:city": "Leipzig", "addr:housenumber": "49", "addr:postcode": "04177", "addr:street": "Georg-Schwarz-Straße", "amenity": "hospital", "contact:website": "www.diako-leipzig.de", "emergency": "yes", "healthcare": "hospital", "name": "Evangelisches Diakonissenkrankenhaus Leipzig", "operator": "Ev. Diakonissen­krankenhaus gemeinnützige GmbH", "operator:type": "religious", "wheelchair": "yes", "wikidata": "Q1208335", "wikipedia": "de:Diakonissenkrankenhaus Leipzig"}}, {"name": "Universitätsklinikum Leipzig", "latitude": 51.3230051, "longitude": 12.3984575, "source": "osm", "_tags": {"amenity": "hospital", "contact:facebook": "https://www.facebook.com/LeipzigUniklinik/", "contact:instagram": "https://www.instagram.com/uniklinikum_leipzig/", "contact:linkedin": "https://www.linkedin.com/company/universit%C3%A4tsklinikum-leipzig", "contact:twitter": "https://www.twitter.com/UKL_Leipzig", "contact:website": "https://www.uniklinikum-leipzig.de/", "contact:youtube": "https://www.youtube.com/channel/UChgKcs0nt3Po3rYPgFDoenA", "emergency": "no", "healthcare": "hospital", "healthcare:speciality": "psychiatry;human_genetics", "hospital:level:DE": "3", "name": "Universitätsklinikum Leipzig", "operator": "Universitätsklinikum Leipzig", "operator:type": "university", "wheelchair": "yes", "wikidata": "Q2496392", "wikipedia": "de:Universitätsklinikum Leipzig"}}, {"name": "Universitätsklinikum Leipzig", "latitude": 51.3302387, "longitude": 12.3870755, "source": "osm", "_tags": {"addr:city": "Leipzig", "addr:postcode": "04103", "addr:street": "Liebigstraße", "alt_name": "Uniklinik Leipzig", "amenity": "hospital", "contact:fax": "+49 341 9715909", "contact:instagram": "https://www.instagram.com/uniklinikum_leipzig/", "contact:linkedin": "https://www.linkedin.com/company/universit%C3%A4tsklinikum-leipzig", "contact:phone": "+49 341 97109", "contact:twitter": "https://www.twitter.com/UKL_Leipzig", "contact:website": "https://www.uniklinikum-leipzig.de/", "contact:youtube": "https://www.youtube.com/channel/UChgKcs0nt3Po3rYPgFDoenA", "emergency": "yes", "healthcare": "hospital", "name": "Universitätsklinikum Leipzig", "operator": "Universitätsklinikum Leipzig", "operator:type": "university", "short_name": "UKL", "wheelchair": "yes", "wikidata": "Q2496392"}}, {"name": "Kreiskrankenhaus Ronneburg", "latitude": 50.8670634, "longitude": 12.1882684, "source": "osm", "_tags": {"addr:city": "Ronneburg", "addr:housenumber": "1", "addr:postcode": "07580", "addr:street": "Rudolf-Breitscheid-Platz", "amenity": "hospital", "contact:email": "post@krankenhaus-ronneburg.de", "contact:fax": "+49 36602 55203", "contact:phone": "+49 36602 550", "contact:website": "http://www.krankenhaus-ronneburg.de/", "healthcare": "hospital", "healthcare:speciality": "geriatrics", "name": "Kreiskrankenhaus Ronneburg", "name_1": "Fachklinik für Geriatrie", "operator": "Fachklinik für Geriatrie GmbH", "short_name": "KH Ronneburg"}}, {"name": "Klinik für Psychiatrie, Psychotherapie und Psychosomatik", "latitude": 50.988669, "longitude": 12.4243748, "source": "osm", "_tags": {"addr:city": "Altenburg", "addr:country": "DE", "addr:housenumber": "28", "addr:postcode": "04600", "addr:street": "Zeitzer Straße", "amenity": "hospital", "description": "Psychiatrisches Krankenhaus", "email": "info@lukasstiftung-altenburg.de", "fax": "+49 3447 562150", "healthcare": "hospital", "healthcare:speciality": "psychiatry", "name": "Klinik für Psychiatrie, Psychotherapie und Psychosomatik", "operator": "Evangelische Lukas-Stiftung Altenburg", "phone": "+49 3447 5620", "short_name": "KH Altenburg Ev. Lukas Stiftung", "website": "https://www.lukasstiftung-altenburg.de/"}}, {"name": "Klinik Schkeuditz", "latitude": 51.3944728, "longitude": 12.2312474, "source": "osm", "_tags": {"addr:city": "Schkeuditz", "addr:country": "DE", "addr:housenumber": "45", "addr:postcode": "04435", "addr:street": "Leipziger Straße", "amenity": "hospital", "contact:phone": "+49 34204 800", "contact:website": "https://www.helios-gesundheit.de/kliniken/schkeuditz/", "emergency": "yes", "healthcare": "hospital", "name": "Klinik Schkeuditz", "operator": "Helios Kliniken", "operator:wikidata": "Q1254151", "wheelchair": "yes"}}, {"name": "Städtisches Klinikum Dessau - Standort Auenweg", "latitude": 51.81597, "longitude": 12.1973961, "source": "osm", "_tags": {"addr:city": "Dessau-Roßlau", "addr:housenumber": "38", "addr:postcode": "06847", "addr:street": "Auenweg", "amenity": "hospital", "emergency": "yes", "healthcare": "hospital", "name": "Städtisches Klinikum Dessau - Standort Auenweg", "operator": "Städtisches Klinikum Dessau", "operator:type": "public"}}, {"name": "SRH Wald-Klinikum Gera", "latitude": 50.8685809, "longitude": 12.0511131, "source": "osm", "_tags": {"addr:city": "Gera", "addr:housenumber": "122", "addr:postcode": "07548", "addr:street": "Straße des Friedens", "amenity": "hospital", "contact:instagram": "srh_waldklinikum_gera", "email": "info.wkg@srh.de", "emergency": "yes", "healthcare": "hospital", "healthcare:speciality": "psychiatry;ophthalmology;intensive;orthopaedics;gynaecology;emergency;surgery;cardiology;dermatology;radiology;oncology;internal;paediatrics", "internet_access": "wlan", "name": "SRH Wald-Klinikum Gera", "opening_hours": "24/7", "phone": "+493658280", "short_name": "KH Gera", "shortest_name": "SRH Gera", "website": "https://www.waldklinikumgera.de/", "wheelchair": "yes", "wikidata": "Q1668885"}}, {"name": "Klinikum Grimma", "latitude": 51.2374959, "longitude": 12.718689, "source": "osm", "_tags": {"amenity": "hospital", "contact:facebook": "https://www.facebook.com/muldentalkliniken/", "contact:fax": "+49 3425 932399", "contact:phone": "+49 3437 93784000", "contact:youtube": "https://www.youtube.com/channel/UCi85FgkomtE16wBIcoGsaqw", "email": "info@kh-muldental.de", "emergency": "yes", "healthcare": "hospital", "name": "Klinikum Grimma", "nohousenumber": "separate", "operator": "Sana Kliniken Muldental GmbH", "operator:type": "private", "ref:vatin": "DE233146564", "toilets:wheelchair": "yes", "website": "https://www.kh-muldental.de/", "wheelchair": "yes"}}, {"name": "Waldkliniken Eisenberg", "latitude": 50.9569235, "longitude": 11.8834066, "source": "osm", "_tags": {"addr:city": "Eisenberg", "addr:country": "DE", "addr:housenumber": "81", "addr:postcode": "07607", "addr:street": "Klosterlausnitzer Straße", "amenity": "hospital", "contact:email": "info@waldkliniken-eisenberg.de", "contact:fax": "+49 36691 81807", "contact:phone": "+49 36691 80", "contact:website": "https://www.waldkliniken-eisenberg.de", "emergency": "yes", "healthcare": "hospital", "healthcare:speciality": "intensive;orthopaedics;emergency;radiology;internal;surgery", "name": "Waldkliniken Eisenberg", "note": "Für Regionalleitstelle Jena u.a einsatzrelevant", "short_name": "KH Eisenberg", "shortest_name": "WKE", "wikidata": "Q27938121"}}, {"name": "Waldkrankenhaus Bad Düben", "latitude": 51.5984605, "longitude": 12.5822418, "source": "osm", "_tags": {"addr:city": "Bad Düben", "addr:housenumber": "15a", "addr:postcode": "04849", "addr:street": "Gustav-Adolf-Straße", "amenity": "hospital", "contact:phone": "+49 34243 760", "contact:website": "http://www.waldkrankenhaus-bad-dueben.de/", "healthcare": "hospital", "name": "Waldkrankenhaus Bad Düben", "operator": "Mediclin", "operator:wikidata": "Q1916295", "wheelchair": "yes", "wikidata": "Q23787903"}}, {"name": "", "latitude": 51.3650327, "longitude": 11.9934331, "source": "osm", "_tags": {"amenity": "hospital"}}, {"name": "Carl-von-Basedow-Klinikum", "latitude": 51.3663941, "longitude": 11.9939723, "source": "osm", "_tags": {"addr:city": "Merseburg", "addr:country": "DE", "addr:housenumber": "52", "addr:postcode": "06217", "addr:street": "Weiße Mauer", "amenity": "hospital", "contact:phone": "+49 3461 270", "contact:website": "https://klinikum-saalekreis.de/", "designation": "Carl-von-Basedow-Klinikum Merseburg", "healthcare": "hospital", "name": "Carl-von-Basedow-Klinikum", "operator": "Carl-von-Basedow-Klinikum Saalekreis gGmbH", "toilets:wheelchair": "yes"}}, {"name": "Robert-Koch-Klinikum", "latitude": 51.3180143, "longitude": 12.3024052, "source": "osm", "_tags": {"amenity": "hospital", "emergency": "yes", "healthcare": "hospital", "healthcare:speciality": "pulmonology", "name": "Robert-Koch-Klinikum", "operator": "Sankt Georg Untenehmensgruppe", "operator:type": "state_primary_health_care", "website": "https://www.sanktgeorg.de/medizinische-bereiche/kliniken-abteilungen.html", "wheelchair": "yes"}}, {"name": "St. Elisabeth-Krankenhaus", "latitude": 51.3030542, "longitude": 12.3785294, "source": "osm", "_tags": {"addr:city": "Leipzig", "addr:country": "DE", "addr:housenumber": "84", "addr:postcode": "04277", "addr:street": "Biedermannstraße", "amenity": "hospital", "contact:phone": "+49 341 39590", "contact:website": "http://www.ek-leipzig.de/", "emergency": "yes", "healthcare": "hospital", "name": "St. Elisabeth-Krankenhaus", "operator": "Gemeinnützige Gesellschaft mbH des Katholischen Kirchenlehens St. Trinitatis zu Leipzig", "operator:type": "religious", "wikidata": "Q22674616"}}, {"name": "Arbeiterwohlfahrt Psychiatriezentrum Halle", "latitude": 51.4729349, "longitude": 11.9172786, "source": "osm", "_tags": {"addr:city": "Halle (Saale)", "addr:country": "DE", "addr:housenumber": "11", "addr:postcode": "06124", "addr:street": "Zscherbener Straße", "amenity": "hospital", "brand": "Arbeiterwohlfahrt", "contact:phone": "+49 345 69220", "contact:website": "https://www.awo-sachsenanhalt.de/awo-psychiatriezentrum-halle", "healthcare": "hospital", "healthcare:speciality": "psychiatry", "name": "Arbeiterwohlfahrt Psychiatriezentrum Halle", "operator": "AWO Landesverband Sachsen-Anhalt e.V.", "operator:type": "public"}}, {"name": "Ameos Klinikum Bernburg", "latitude": 51.7823822, "longitude": 11.7352523, "source": "osm", "_tags": {"addr:housenumber": "98a", "addr:postcode": "06406", "addr:street": "Kustrenaer Straße", "amenity": "hospital", "building": "hospital", "emergency": "yes", "healthcare": "hospital", "name": "Ameos Klinikum Bernburg", "operator": "Ameos", "operator:wikidata": "Q462865", "type": "multipolygon", "website": "https://www.ameos.eu/standorte/ameos-ost/bernburg/ameos-klinikum-bernburg/", "wheelchair": "yes", "wikidata": "Q28737977"}}, {"name": "Städtisches Klinikum St. Georg", "latitude": 51.3845754, "longitude": 12.3764904, "source": "osm", "_tags": {"addr:city": "Leipzig", "addr:country": "DE", "addr:housenumber": "141", "addr:postcode": "04129", "addr:street": "Delitzscher Straße", "amenity": "hospital", "contact:facebook": "http://www.facebook.com/sanktgeorgleipzig", "contact:instagram": "https://www.instagram.com/klinikumstgeorg/", "contact:twitter": "https://twitter.com/KlinikumStGeorg", "contact:youtube": "https://www.youtube.com/user/KlinikumSanktGeorg", "emergency": "yes", "healthcare": "hospital", "name": "Städtisches Klinikum St. Georg", "operator": "Klinikum St. Georg gGmbH", "operator:type": "private_non_profit", "type": "multipolygon", "website": "https://www.sanktgeorg.de/"}}, {"name": "SALUS Fachklinikum Bernburg", "latitude": 51.7868235, "longitude": 11.7270363, "source": "osm", "_tags": {"addr:city": "Bernburg", "addr:housenumber": "16-18", "addr:postcode": "06406", "addr:street": "Olga-Benario-Straße", "amenity": "hospital", "email": "fkh.bernburg@salus-lsa.de", "emergency": "no", "healthcare": "hospital", "healthcare:speciality": "psychiatry;child_psychiatry;neuropsychiatry", "name": "SALUS Fachklinikum Bernburg", "operator": "Salus GmbH", "operator:type": "private", "phone": "+49 3471343", "social_facility": "day_care", "type": "multipolygon", "website": "https://www.salus-lsa.de/kliniken-einrichtungen-leistungen/fachklinikum-bernburg/"}}]