[{"name": "Aldrington House", "latitude": 50.8301875, "longitude": -0.1842301, "source": "osm", "_tags": {"amenity": "hospital", "emergency": "no", "healthcare": "hospital", "name": "Aldrington House"}}, {"name": "Eye Hospital", "latitude": 50.8187633, "longitude": -0.1176353, "source": "osm", "_tags": {"amenity": "hospital", "healthcare": "hospital", "name": "Eye Hospital"}}, {"name": "Priory Hospital", "latitude": 51.6320636, "longitude": -0.1183042, "source": "osm", "_tags": {"addr:city": "London", "addr:housename": "Grovelands House", "addr:postcode": "N14 6RA", "addr:street": "The Bourne", "amenity": "hospital", "healthcare": "hospital", "name": "Priory Hospital"}}, {"name": "Cheshunt Community Hospital", "latitude": 51.6992501, "longitude": -0.0332109, "source": "osm", "_tags": {"addr:postcode": "EN8 8XN", "amenity": "hospital", "healthcare": "hospital", "name": "Cheshunt Community Hospital", "source": "yahoo"}}, {"name": "Bridge Lane Health Centre", "latitude": 51.4732684, "longitude": -0.1663173, "source": "osm", "_tags": {"amenity": "hospital", "healthcare": "hospital", "name": "Bridge Lane Health Centre", "phone": "+44 20 3538 0882", "public": "yes", "website": "https://bridgelanegp.co.uk/"}}, {"name": "British Home & Hospital for Incurables", "latitude": 51.423089, "longitude": -0.1070682, "source": "osm", "_tags": {"addr:city": "London", "addr:country": "GB", "addr:postcode": "SW16 3JB", "addr:street": "Crown Lane", "amenity": "hospital", "healthcare": "hospital", "name": "British Home & Hospital for Incurables"}}, {"name": "The Somerfield Hospital", "latitude": 51.2767386, "longitude": 0.508001, "source": "osm", "_tags": {"amenity": "hospital", "fee": "yes", "name": "The Somerfield Hospital", "source": "audio"}}, {"name": "Chelsfield Park Hospital", "latitude": 51.3582569, "longitude": 0.1316749, "source": "osm", "_tags": {"addr:city": "Orpington", "addr:country": "GB", "addr:county": "Kent", "addr:place": "Chelsfield", "addr:postcode": "BR6 7RG", "addr:street": "Bucks Cross Road", "amenity": "hospital", "contact:phone": "+44 1689 877855", "contact:website": "https://www.bmihealthcare.co.uk/hospitals/bmi-chelsfield-park-hospital", "fhrs:id": "357692", "name": "Chelsfield Park Hospital", "operator": "BMI Healthcare"}}, {"name": "Jasmine Centre", "latitude": 51.4338957, "longitude": 0.2608497, "source": "osm", "_tags": {"amenity": "hospital", "healthcare": "hospital", "name": "Jasmine Centre", "toilets:wheelchair": "yes", "wheelchair": "yes"}}, {"name": "King's / Dartford Dialysis Unit", "latitude": 51.433839, "longitude": 0.2608422, "source": "osm", "_tags": {"amenity": "hospital", "healthcare": "hospital", "name": "King's / Dartford Dialysis Unit", "toilets:wheelchair": "yes", "wheelchair": "yes"}}, {"name": "Hawkhurst Community Hospital", "latitude": 51.048891, "longitude": 0.4891827, "source": "osm", "_tags": {"addr:city": "Cranbrook", "addr:housename": "Hawkhurst Cottage Hospital", "addr:postcode": "TN18 4PU", "addr:suburb": "High Street", "addr:village": "Hawkhurst", "amenity": "hospital", "emergency": "no", "fhrs:id": "24084", "healthcare": "hospital", "name": "Hawkhurst Community Hospital", "source:addr": "FHRS Open Data"}}, {"name": "Sloane Hospital", "latitude": 51.4082042, "longitude": -0.0045395, "source": "osm", "_tags": {"addr:city": "Beckenham", "addr:housename": "Sloane Hospital", "addr:housenumber": "125", "addr:postcode": "BR3 5HS", "addr:street": "Albermarle Road", "amenity": "hospital", "description": "private hospital, specialists/consultants, MRI scans, x-rays", "healthcare": "hospital", "name": "Sloane Hospital", "opening_hours": "Mo-Su 08:00-21:30", "phone": "+44 20 8466 6911", "website": "https://www.bmihealthcare.co.uk/sloane"}}, {"name": "Tunbridge Wells Independant Hospital", "latitude": 51.1340484, "longitude": 0.1853731, "source": "osm", "_tags": {"amenity": "hospital", "name": "Tunbridge Wells Independant Hospital", "source": "OS_OpenData_StreetView"}}, {"name": "Queen Mary's Childrens' Hospital", "latitude": 51.3797984, "longitude": -0.1848418, "source": "osm", "_tags": {"addr:city": "Carshalton", "addr:postcode": "SM5 1AA", "addr:street": "Wrythe Lane", "amenity": "hospital", "email": "est-tr.PALS@nhs.net", "fax": "+44 20 8641 4546", "healthcare": "hospital", "name": "Queen Mary's Childrens' Hospital", "phone": "+44 20 8296 2000", "website": "https://www.epsom-sthelier.nhs.uk/"}}, {"name": "Whitepost Health Care Group Head Office & Shrewsbury Court Independent Hospital", "latitude": 51.2366302, "longitude": -0.1799284, "source": "osm", "_tags": {"addr:city": "Redhill", "addr:postcode": "RH1 6YY", "addr:street": "Whitepost Hill", "amenity": "hospital", "healthcare": "hospital", "name": "Whitepost Health Care Group Head Office & Shrewsbury Court Independent Hospital", "note": "Re-opened as White Post Health Care Centre 1981", "wheelchair": "limited", "wheelchair:description": "Security entrance, door opens outward. Toilet  not assessed. Induction Loop sign, but no signal detected at reception desk."}}, {"name": "Chapel Orchard Day Surgery", "latitude": 51.4020487, "longitude": -0.1715368, "source": "osm", "_tags": {"amenity": "hospital", "healthcare": "hospital", "name": "Chapel Orchard Day Surgery"}}, {"name": "Jacob's Neuro Centre", "latitude": 51.8078101, "longitude": 0.1375173, "source": "osm", "_tags": {"amenity": "hospital", "emergency": "no", "healthcare": "hospital", "name": "Jacob's Neuro Centre"}}, {"name": "Ivy Court Surgery (temporary location)", "latitude": 51.0678935, "longitude": 0.6909309, "source": "osm", "_tags": {"addr:city": "Tenterden", "addr:postcode": "TN30 6RB", "addr:street": "Recreation Ground Road", "amenity": "hospital", "emergency": "no", "healthcare": "hospital", "name": "Ivy Court Surgery (temporary location)"}}, {"name": "Suttons Manor Hospital", "latitude": 51.660966, "longitude": 0.1844401, "source": "osm", "_tags": {"addr:city": "Romford", "addr:housename": "Partnerships in Care Suttons Manor", "addr:postcode": "RM4 1BF", "addr:street": "London Road", "amenity": "hospital", "emergency": "no", "name": "Suttons Manor Hospital", "operator": "Priory Group", "phone": "+44 1708 687 398"}}, {"name": "The Portland Hospital for Women and Children", "latitude": 51.5224709, "longitude": -0.1435858, "source": "osm", "_tags": {"addr:housenumber": "212", "addr:street": "Great Portland Street", "amenity": "hospital", "check_date": "2024-04-28", "healthcare": "hospital", "healthcare:speciality": "gynaecology", "name": "The Portland Hospital for Women and Children", "source": "survey"}}, {"name": "The Montefiore Hospital", "latitude": 50.8314371, "longitude": -0.1556496, "source": "osm", "_tags": {"addr:city": "Hove", "addr:housenumber": "2", "addr:postcode": "BN3 1RD", "addr:street": "Montefiore Road", "amenity": "hospital", "fhrs:id": "493861", "healthcare": "hospital", "name": "The Montefiore Hospital", "operator": "Spire Healthcare Group", "phone": "+44 1273 828 120", "website": "https://www.spirehealthcare.com/Montefiore/", "wikidata": "Q6905063", "wikipedia": "en:The Montefiore Hospital, Hove"}}, {"name": "Day Surgery Centre", "latitude": 51.4690343, "longitude": -0.0930863, "source": "osm", "_tags": {"addr:city": "London", "addr:street": "Bessemer Road", "check_date": "2024-07-01", "healthcare": "hospital", "healthcare:speciality": "surgery", "name": "Day Surgery Centre", "opening_hours": "Mo-Sa 07:30-19:00", "operator": "King's College Hospital", "phone": "+44 20 3299 3483"}}, {"name": "Dermatology Entrance", "latitude": 51.4530939, "longitude": -0.0172982, "source": "osm", "_tags": {"entrance": "yes", "healthcare": "hospital", "healthcare:speciality": "dermatology", "name": "Dermatology Entrance"}}, {"name": "Schoen Clinic", "latitude": 51.5162998, "longitude": -0.1498767, "source": "osm", "_tags": {"addr:city": "London", "addr:housenumber": "66", "addr:postcode": "W1U 2SB", "addr:street": "Wigmore Street", "description": "Schoen Clinic Orthopaedic and Spinal Hospital London", "healthcare": "hospital", "healthcare:speciality": "orthopaedics", "name": "Schoen Clinic", "operator": "Schoen Clinic", "website": "https://www.schoen-clinic.co.uk/london"}}, {"name": "North London Hospice Winchmore Hill", "latitude": 51.6249907, "longitude": -0.0925094, "source": "osm", "_tags": {"amenity": "hospital", "healthcare": "hospital", "name": "North London Hospice Winchmore Hill"}}, {"name": "Oxted Health Center", "latitude": 51.2576629, "longitude": -5.97e-05, "source": "osm", "_tags": {"amenity": "hospital", "healthcare": "hospital", "name": "Oxted Health Center"}}, {"name": "Livingstone Community Hospitals", "latitude": 51.4422302, "longitude": 0.2267637, "source": "osm", "_tags": {"addr:city": "Dartford", "addr:housename": "Livingstone Community Hospital", "addr:street": "East Hill", "amenity": "hospital", "contact:phone": "+44 01322 622374", "contact:website": "https://www.nhs.uk/Services/Hospitals/Overview/DefaultView.aspx?id=NDAJ0", "emergency": "no", "healthcare": "hospital", "name": "Livingstone Community Hospitals"}}, {"name": "Acute Mental Health Unit for Elderly", "latitude": 50.8882967, "longitude": 0.5615019, "source": "osm", "_tags": {"addr:city": "Hastings", "addr:housenumber": "729", "addr:postcode": "TN37 7PT", "addr:street": "The Ridge", "amenity": "hospital", "contact:phone": "+44 01424 758101", "healthcare": "hospital", "name": "Acute Mental Health Unit for Elderly"}}, {"name": "Chelmsford Osteopathic Practice", "latitude": 51.733512, "longitude": 0.4795091, "source": "osm", "_tags": {"addr:city": "Chelmsford", "addr:housename": "Kenmore House", "addr:postcode": "CM2 6HX", "addr:street": "Navigation Yard", "amenity": "clinic", "check_date": "2024-10-04", "currency:GBP": "yes", "currency:XBT": "yes", "description": "If you are looking for a registered osteopath in Essex, visit the Chelmsford Osteopathic Practice. We can provide treatment for a wide variety of ailments caused by injury or the stresses of everyday life.", "email": "info@chelmsfordosteopathicpractice.co.uk", "healthcare": "hospital", "healthcare:speciality": "osteopathy", "name": "Chelmsford Osteopathic Practice", "opening_hours": "Mo-Sa 09:00-20:00; Su off", "payment:lightning_contactless": "no", "payment:onchain": "yes", "phone": "+44 1245 963333", "survey:date": "2022-11-18", "website": "https://chelmsfordosteopathicpractice.co.uk/"}}, {"name": "SpaMedica Epsom", "latitude": 51.3361067, "longitude": -0.2618505, "source": "osm", "_tags": {"amenity": "hospital", "healthcare": "hospital", "healthcare:speciality": "ophthalmology", "name": "SpaMedica Epsom", "operator": "SpaMedica"}}, {"name": "Sexual Health Clinic", "latitude": 51.3911811, "longitude": -0.1123103, "source": "osm", "_tags": {"amenity": "hospital", "healthcare": "hospital", "name": "Sexual Health Clinic", "operator": "Croydon University Hospital"}}, {"name": "Macmillan Cancer Support Centres", "latitude": 51.3895435, "longitude": -0.1115896, "source": "osm", "_tags": {"amenity": "hospital", "healthcare": "hospital", "name": "Macmillan Cancer Support Centres", "operator": "Croydon University Hospital"}}, {"name": "Main Reception", "latitude": 51.3892531, "longitude": -0.1111571, "source": "osm", "_tags": {"amenity": "hospital", "healthcare": "hospital", "name": "Main Reception", "operator": "Croydon University Hospital", "wheelchair": "yes"}}, {"name": "Patient Advice and Liaison Service (PALS)", "latitude": 51.388644, "longitude": -0.108499, "source": "osm", "_tags": {"amenity": "hospital", "healthcare": "hospital", "name": "Patient Advice and Liaison Service (PALS)", "operator": "Croydon University Hospital"}}, {"name": "Maternity Reception", "latitude": 51.3912926, "longitude": -0.1110591, "source": "osm", "_tags": {"amenity": "hospital", "healthcare": "hospital", "name": "Maternity Reception", "operator": "Croydon University Hospital", "wheelchair": "yes"}}, {"name": "Fertility Treatment", "latitude": 51.3911477, "longitude": -0.1102788, "source": "osm", "_tags": {"amenity": "hospital", "healthcare": "hospital", "name": "Fertility Treatment"}}, {"name": "Gynaecology Department", "latitude": 51.3905149, "longitude": -0.1093613, "source": "osm", "_tags": {"amenity": "hospital", "healthcare": "hospital", "name": "Gynaecology Department", "operator": "Croydon University Hospital"}}, {"name": "Women's Health Unit", "latitude": 51.3909333, "longitude": -0.1110648, "source": "osm", "_tags": {"amenity": "hospital", "healthcare": "hospital", "name": "Women's Health Unit", "operator": "Croydon University Hospital"}}, {"name": "Croydon Heart Centre", "latitude": 51.3887004, "longitude": -0.11113, "source": "osm", "_tags": {"amenity": "hospital", "healthcare": "hospital", "name": "Croydon Heart Centre"}}, {"name": "Dental Department", "latitude": 51.3902698, "longitude": -0.1097438, "source": "osm", "_tags": {"amenity": "hospital", "healthcare": "hospital", "name": "Dental Department", "operator": "Croydon University Hospital"}}, {"name": "Dermatology Department", "latitude": 51.3904846, "longitude": -0.1099614, "source": "osm", "_tags": {"amenity": "hospital", "healthcare": "hospital", "name": "Dermatology Department", "operator": "Croydon University Hospital"}}, {"name": "Diabetic Department", "latitude": 51.3886983, "longitude": -0.108209, "source": "osm", "_tags": {"amenity": "hospital", "healthcare": "hospital", "name": "Diabetic Department", "operator": "Croydon University Hospital"}}, {"name": "MRI", "latitude": 51.3888297, "longitude": -0.1088304, "source": "osm", "_tags": {"amenity": "hospital", "healthcare": "hospital", "name": "MRI", "operator": "Croydon University Hospital"}}, {"name": "Main X-Ray", "latitude": 51.3891088, "longitude": -0.1087926, "source": "osm", "_tags": {"amenity": "hospital", "healthcare": "hospital", "name": "Main X-Ray", "operator": "Croydon University Hospital"}}, {"name": "Vascular Ultrasound", "latitude": 51.3891619, "longitude": -0.1103441, "source": "osm", "_tags": {"amenity": "hospital", "healthcare": "hospital", "name": "Vascular Ultrasound", "operator": "Croydon University Hospital", "wheelchair": "yes"}}, {"name": "Wound Clinic", "latitude": 51.3890953, "longitude": -0.1102589, "source": "osm", "_tags": {"amenity": "hospital", "healthcare": "hospital", "name": "Wound Clinic", "operator": "Croydon University Hospital"}}, {"name": "Moorfields Eye Unit", "latitude": 51.3893068, "longitude": -0.1099839, "source": "osm", "_tags": {"amenity": "hospital", "healthcare": "hospital", "name": "Moorfields Eye Unit", "operator": "Croydon University Hospital"}}, {"name": "The Willows (Children's Clinic)", "latitude": 51.389144, "longitude": -0.1097382, "source": "osm", "_tags": {"amenity": "hospital", "healthcare": "hospital", "name": "The Willows (Children's Clinic)", "operator": "Croydon University Hospital"}}, {"name": "Day Surgery Unit (DSU)", "latitude": 51.3898664, "longitude": -0.1107072, "source": "osm", "_tags": {"amenity": "hospital", "healthcare": "hospital", "name": "Day Surgery Unit (DSU)", "operator": "Croydon University Hospital"}}, {"name": "Emergency Department", "latitude": 51.3887022, "longitude": -0.1092569, "source": "osm", "_tags": {"amenity": "hospital", "healthcare": "hospital", "name": "Emergency Department", "operator": "Croydon University Hospital"}}, {"name": "King's College Hospital Emergency Department", "latitude": 51.4687588, "longitude": -0.0927953, "source": "osm", "_tags": {"amenity": "hospital", "check_date": "2024-08-21", "emergency": "yes", "healthcare": "hospital", "healthcare:speciality": "emergency", "internet_access": "no", "name": "King's College Hospital Emergency Department", "opening_hours": "24/7", "operator:type": "public", "phone": "+442023999000", "website": "https://kch.nhs.uk", "wheelchair": "yes"}}, {"name": "Dental Hospital", "latitude": 51.4691229, "longitude": -0.0927114, "source": "osm", "_tags": {"amenity": "hospital", "check_date": "2024-11-09", "healthcare": "hospital", "name": "Dental Hospital", "website": "https://www.kch.nhs.uk/patients-and-visitors/patients/dental-patients/", "wheelchair": "yes"}}, {"name": "Great Ormond Street Outpatients - Zebra and Hippo Clinic Areas", "latitude": 51.5216322, "longitude": -0.1213221, "source": "osm", "_tags": {"addr:city": "London", "addr:housenumber": "60", "addr:postcode": "WC1N 3JH", "addr:street": "Great Ormond Street", "amenity": "hospital", "healthcare": "hospital", "internet_access": "wlan", "name": "Great Ormond Street Outpatients - Zebra and Hippo Clinic Areas", "ref:GB:cqc_location": "RP401", "ref:GB:nhs_ods": "RP401", "website": "https://www.gosh.nhs.uk/your-hospital-visit/outpatient-appointment/"}}, {"name": "National Hospital for Neurology and Neurosurgery at Cleveland Street", "latitude": 51.5196573, "longitude": -0.1380023, "source": "osm", "_tags": {"addr:city": "London", "addr:housenumber": "25", "addr:postcode": "W1T 4AJ", "addr:street": "Cleveland Street", "amenity": "hospital", "healthcare": "hospital", "healthcare:speciality": "neurology;neurosurgery", "name": "National Hospital for Neurology and Neurosurgery at Cleveland Street", "operator": "NHS", "operator:type": "public", "operator:wikidata": "Q918396", "ref:GB:cqc_location": "RRVCL"}}, {"name": "Medlabs Diagnostics", "latitude": 51.5208997, "longitude": -0.1124702, "source": "osm", "_tags": {"amenity": "hospital", "healthcare": "hospital", "name": "Medlabs Diagnostics", "ref:GB:cqc_location": "1-22084905984"}}, {"name": "Proton International @ UCLH", "latitude": 51.5238264, "longitude": -0.1363481, "source": "osm", "_tags": {"addr:city": "London", "addr:housenumber": "1", "addr:postcode": "WC1E 6AS", "addr:street": "Grafton Way", "amenity": "hospital", "healthcare": "hospital", "name": "Proton International @ UCLH", "operator": "Proton International London Limited", "ref:GB:cqc_location": "1-14279687485"}}, {"name": "HCA Healthcare UK Laboratories", "latitude": 51.5225872, "longitude": -0.1352478, "source": "osm", "_tags": {"addr:city": "London", "addr:housenumber": "2-10", "addr:postcode": "WC1E 6JA", "addr:street": "Capper Street", "amenity": "hospital", "healthcare": "hospital", "name": "HCA Healthcare UK Laboratories", "ref:GB:cqc_location": "1-11010280687"}}, {"name": "Optimal Vision", "latitude": 51.5199661, "longitude": -0.1302119, "source": "osm", "_tags": {"addr:city": "London", "addr:housenumber": "7", "addr:postcode": "WC1E 6HA", "addr:street": "Gower Mews", "amenity": "hospital", "healthcare": "hospital", "healthcare:speciality": "ophthalmology", "name": "Optimal Vision", "operator": "Optimal Vision Ltd", "ref:GB:cqc_location": "1-13932164067"}}, {"name": "Until SOHO", "latitude": 51.5145533, "longitude": -0.1299683, "source": "osm", "_tags": {"addr:city": "London", "addr:housenumber": "111", "addr:postcode": "WC2H 0DT", "addr:street": "Charing Cross Road", "amenity": "hospital", "check_date": "2025-05-29", "healthcare": "hospital", "name": "Until SOHO", "ref:GB:cqc_location": "1-14429388915"}}, {"name": "Queen Square Imaging Centre", "latitude": 51.5217376, "longitude": -0.1230571, "source": "osm", "_tags": {"amenity": "hospital", "healthcare": "hospital", "name": "Queen Square Imaging Centre", "operator": "Q.S. Enterprises Limited", "ref:GB:cqc_location": "1-1353988292"}}, {"name": "Tunica Diagnostics", "latitude": 51.5145501, "longitude": -0.1300121, "source": "osm", "_tags": {"addr:city": "London", "addr:housenumber": "111", "addr:postcode": "WC2H 0DT", "addr:street": "Charing Cross Road", "amenity": "hospital", "healthcare": "hospital", "healthcare:speciality": "diagnostics", "name": "Tunica Diagnostics", "operator": "Tunica Diagnostics ltd", "ref:GB:cqc_location": "1-15125385272"}}, {"name": "Clinical Research Facility", "latitude": 51.5227136, "longitude": -0.1360165, "source": "osm", "_tags": {"addr:city": "London", "addr:housenumber": "170", "addr:postcode": "W1T 7HA", "addr:street": "Tottenham Court Road", "amenity": "hospital", "check_date": "2025-06-18", "healthcare": "hospital", "long_name": "National Institute for Health and Care Research UCLH Clinical Research Facility", "name": "Clinical Research Facility", "operator": "University College London Hospitals NHS Foundation Trust", "ref:GB:cqc_location": "RRVCR"}}, {"name": "Sleep & Health Clinic", "latitude": 51.5234503, "longitude": -0.1403723, "source": "osm", "_tags": {"addr:city": "London", "addr:housename": "Saint Luke's House", "addr:housenumber": "13-14", "addr:street": "Fitzroy Square", "amenity": "hospital", "healthcare": "hospital", "name": "Sleep & Health Clinic", "operator": "Sleep & Health Clinic ltd"}}, {"name": "St Ann's Hospital", "latitude": 51.5802183, "longitude": -0.0883215, "source": "osm", "_tags": {"addr:city": "London", "addr:country": "GB", "addr:postcode": "N15 3TH", "addr:street": "St Ann's Road", "amenity": "hospital", "emergency": "no", "healthcare": "hospital", "name": "St Ann's Hospital", "wikidata": "Q7592462", "wikipedia": "en:St Ann's Hospital"}}, {"name": "North Middlesex University Hospital", "latitude": 51.613284, "longitude": -0.0735435, "source": "osm", "_tags": {"alt_name": "North Middlesex Hospital", "amenity": "hospital", "emergency": "yes", "healthcare": "hospital", "loc_name": "North Mid", "name": "North Middlesex University Hospital", "website": "https://www.royalfree.nhs.uk/our-locations/north-middlesex-university-hospital", "wikidata": "Q7056104", "wikipedia": "en:North Middlesex University Hospital"}}, {"name": "The Wilson Hospital", "latitude": 51.3975104, "longitude": -0.1631461, "source": "osm", "_tags": {"addr:city": "Mitcham", "addr:country": "GB", "addr:postcode": "CR4 4TP", "addr:street": "Cranmer Road", "amenity": "hospital", "healthcare": "hospital", "loc_name": "The Wilson", "name": "The Wilson Hospital", "operator": "NHS", "operator:type": "public", "operator:wikidata": "Q918396", "phone": "+44 20 8648 3021", "website": "https://www.clch.nhs.uk/locations/wilson-hospital.aspx"}}, {"name": "Hammersmith Hospital", "latitude": 51.5173881, "longitude": -0.235288, "source": "osm", "_tags": {"amenity": "hospital", "healthcare": "hospital", "name": "Hammersmith Hospital", "wheelchair": "yes", "wikidata": "Q5645747"}}, {"name": "Barnet Hospital", "latitude": 51.6509125, "longitude": -0.2145599, "source": "osm", "_tags": {"addr:city": "Barnet", "addr:postcode": "EN5 3DJ", "addr:street": "Wellhouse Lane", "amenity": "hospital", "emergency": "yes", "healthcare": "hospital", "name": "Barnet Hospital", "wikidata": "Q4861607"}}, {"name": "St George's Hospital", "latitude": 51.4264422, "longitude": -0.1752072, "source": "osm", "_tags": {"addr:city": "London", "addr:postcode": "SW17 0QT", "addr:street": "Blackshaw Road", "amenity": "hospital", "beds": "1300", "contact:phone": "+44 20 8672 1255", "contact:website": "http://www.stgeorges.nhs.uk", "emergency": "yes", "fhrs:id": "298392", "healthcare": "hospital", "healthcare:speciality": "general;emergency;trauma;neurology;intensive;gynaecology;cardiology;anaesthetics", "name": "St George's Hospital", "operator": "St George's University Hospitals NHS Foundation Trust", "operator:type": "public", "operator:wikidata": "Q7593174", "source:addr": "FHRS Open Data", "wikidata": "Q3495316", "wikipedia": "en:St George's Hospital"}}, {"name": "St. Helier Hospital", "latitude": 51.3803771, "longitude": -0.1845767, "source": "osm", "_tags": {"addr:city": "Carshalton", "addr:postcode": "SM5 1AA", "addr:street": "Wrythe Lane", "amenity": "hospital", "emergency": "yes", "healthcare": "hospital", "name": "St. Helier Hospital", "operator": "Epsom and St Helier University Hospitals NHS Trust", "operator:type": "public", "phone": "+44 20 8296 2000", "website": "https://www.epsom-sthelier.nhs.uk/", "wheelchair": "yes", "wikidata": "Q7593367"}}, {"name": "Barnes Hospital", "latitude": 51.4672064, "longitude": -0.2558588, "source": "osm", "_tags": {"addr:city": "London", "addr:postcode": "SW14 8SU", "addr:street": "South Worple Way", "amenity": "hospital", "healthcare": "hospital", "name": "Barnes Hospital", "wikidata": "Q16983704", "wikipedia": "en:Barnes Hospital, London"}}, {"name": "Thurrock Community Hospital", "latitude": 51.4967681, "longitude": 0.3364899, "source": "osm", "_tags": {"addr:city": "Grays", "addr:postcode": "RM16 2PX", "addr:street": "Long Lane", "amenity": "hospital", "emergency": "no", "healthcare": "hospital", "name": "Thurrock Community Hospital", "operator": "NHS", "operator:type": "government", "operator:wikidata": "Q918396"}}, {"name": "Queen Mary's Hospital", "latitude": 51.4187458, "longitude": 0.1039333, "source": "osm", "_tags": {"addr:postcode": "DA14 6LT", "addr:street": "Frognal Avenue", "amenity": "hospital", "fhrs:id": "765937", "healthcare": "hospital", "landuse": "industrial", "name": "Queen Mary's Hospital", "source:addr": "FHRS Open Data", "wikidata": "Q7270448"}}, {"name": "BMI The Kings Oak Hospital", "latitude": 51.6679063, "longitude": -0.1053316, "source": "osm", "_tags": {"addr:housename": "The Kings Oak", "addr:postcode": "EN2 8SD", "addr:street": "The Ridgeway", "building": "hospital", "emergency": "no", "healthcare": "hospital", "name": "BMI The Kings Oak Hospital", "operator:wikidata": "Q5531938", "phone": "+44 20 8370 9500", "website": "https://www.bmihealthcare.co.uk/hospitals/bmi-the-kings-oak-hospital"}}, {"name": "Crawley Hospital", "latitude": 51.1166383, "longitude": -0.1973564, "source": "osm", "_tags": {"addr:city": "Crawley", "amenity": "hospital", "healthcare": "hospital", "name": "Crawley Hospital", "toilets:wheelchair": "yes", "wheelchair": "yes", "wheelchair:description": "Dedicated Blue Badge spaces near Green Wing. Ramped and step-free access to automatic or powered doors. Step-free route to bus stops. Hearing Loop at Red Reception - may be off. Other loops not working on 2/2/2016", "wikidata": "Q5182983"}}, {"name": "Finchley Memorial Hospital", "latitude": 51.60561, "longitude": -0.1770117, "source": "osm", "_tags": {"amenity": "hospital", "emergency": "no", "name": "Finchley Memorial Hospital", "wikidata": "Q28404845", "wikipedia": "en:Finchley Memorial Hospital"}}, {"name": "Chase Farm Hospital", "latitude": 51.6670768, "longitude": -0.10256, "source": "osm", "_tags": {"amenity": "hospital", "emergency": "no", "healthcare": "hospital", "name": "Chase Farm Hospital", "website": "https://www.royalfree.nhs.uk/chase-farm-hospital/", "wheelchair": "yes", "wikidata": "Q5087127", "wikipedia": "en:Chase Farm Hospital"}}, {"name": "St Michael's Community Hospital", "latitude": 51.6620161, "longitude": -0.0839186, "source": "osm", "_tags": {"amenity": "hospital", "name": "St Michael's Community Hospital"}}, {"name": "St Anthony's", "latitude": 51.3798987, "longitude": -0.220725, "source": "osm", "_tags": {"amenity": "hospital", "building": "yes", "healthcare": "hospital", "name": "St Anthony's", "postal_code": "SM3 9DW", "wikidata": "Q16900532", "wikipedia": "en:St Anthony's Hospital, North Cheam"}}, {"name": "Central Middlesex Hospital", "latitude": 51.5314837, "longitude": -0.2676149, "source": "osm", "_tags": {"addr:city": "London", "addr:postcode": "NW10 7NS", "addr:street": "Acton Lane", "amenity": "hospital", "emergency": "yes", "healthcare": "hospital", "name": "Central Middlesex Hospital", "phone": "+44 20 8965 5733", "website": "https://www.lnwh.nhs.uk/central-middlesex-hospital/", "wikidata": "Q5061433"}}, {"name": "Lambeth Hospital", "latitude": 51.4653315, "longitude": -0.1224959, "source": "osm", "_tags": {"addr:city": "London", "addr:housenumber": "108", "addr:postcode": "SW9 9NU", "addr:street": "Landor Road", "amenity": "hospital", "fhrs:authority": "Lambeth", "fhrs:id": "484248", "fhrs:inspectiondate": "2014-02-03", "fhrs:rating": "4", "healthcare": "hospital", "name": "Lambeth Hospital", "wikidata": "Q6481446"}}, {"name": "Croydon University Hospital", "latitude": 51.3901236, "longitude": -0.1100563, "source": "osm", "_tags": {"addr:city": "Thornton Heath", "addr:housenumber": "530", "addr:postcode": "CR7 7YE", "addr:street": "London Road", "alt_name": "Mayday Hospital", "amenity": "hospital", "beds": "670", "emergency": "yes", "fhrs:authority": "Croydon", "fhrs:id": "370621;918528", "healthcare": "hospital", "name": "Croydon University Hospital", "opening_hours": "24/7", "source:postcode": "FSA Food Hygiene Ratings database", "wikidata": "Q5189706"}}, {"name": "Norbury Health Centre", "latitude": 51.4049847, "longitude": -0.1203608, "source": "osm", "_tags": {"amenity": "hospital", "check_date": "2024-04-02", "healthcare": "hospital", "name": "Norbury Health Centre", "source": "photo"}}, {"name": "Normanby Building", "latitude": 51.4686055, "longitude": -0.094323, "source": "osm", "_tags": {"addr:city": "London", "addr:street": "Bessemer Road", "building": "yes", "check_date": "2024-10-16", "healthcare": "hospital", "healthcare:speciality": "ophthalmology;dermatology", "name": "Normanby Building", "operator": "King's College Hospital"}}, {"name": "Royal National Throat, Nose and Ear Hospital", "latitude": 51.5292405, "longitude": -0.1192676, "source": "osm", "_tags": {"addr:city": "London", "addr:housenumber": "330-332", "addr:postcode": "WC1X 8EE", "addr:street": "Gray's Inn Road", "amenity": "hospital", "building": "yes", "healthcare": "hospital", "name": "Royal National Throat, Nose and Ear Hospital", "note": "Most Royal National ENT Hospital services have moved to 47-49 Huntley Street, along with Eastman Dental Hospital. This site will contain wards and some other services until 2020 but the main move has now happened.", "source": "https://www.uclh.nhs.uk/OurServices/OurHospitals/RNENTD/Pages/Home.aspx;https://www.uclh.nhs.uk/aboutus/NewDev/phase5/Pages/Anewworldleadingcentre.aspx;https://www.uclh.nhs.uk/OurServices/OurHospitals/RNTNE/Pages/Home.aspx", "wikidata": "Q7374519"}}, {"name": "Maidstone Hospital", "latitude": 51.27469, "longitude": 0.485671, "source": "osm", "_tags": {"addr:postcode": "ME16 9QQ", "amenity": "hospital", "emergency": "yes", "healthcare": "hospital", "name": "Maidstone Hospital", "source": "landsat;local knowledge", "wikidata": "Q6735522"}}, {"name": "Bourne Hall Health Centre", "latitude": 51.3512724, "longitude": -0.2525304, "source": "osm", "_tags": {"amenity": "hospital", "name": "Bourne Hall Health Centre", "wheelchair": "no"}}, {"name": "Caterham Dene Hospital & Minor Injuries Unit", "latitude": 51.283807, "longitude": -0.0855357, "source": "osm", "_tags": {"addr:city": "Caterham", "addr:street": "Church Street", "amenity": "hospital", "check_date": "2024-04-11", "healthcare": "hospital", "name": "Caterham Dene Hospital & Minor Injuries Unit", "toilets:wheelchair": "yes", "wheelchair": "yes", "wheelchair:description": "Step-free entrance with double automatic doors opening inward (2 sets). Reception has low counter with knee space. (Hearing Loop faulty 6/2018). 3 Blue Badge spaces in car park outside Physiotherapy", "wikidata": "Q30293099"}}, {"name": "Caterham Dene - Physiotherapy", "latitude": 51.2835621, "longitude": -0.0854675, "source": "osm", "_tags": {"addr:city": "Caterham", "addr:street": "Church Street", "amenity": "hospital", "name": "Caterham Dene - Physiotherapy", "wheelchair": "yes", "wheelchair:description": "Step-free entrance. 3x Blue Badge spaces near door."}}, {"name": "Bracton Centre", "latitude": 51.4332547, "longitude": 0.1796349, "source": "osm", "_tags": {"amenity": "hospital", "healthcare": "hospital", "name": "Bracton Centre"}}, {"name": "St Charles' Hospital", "latitude": 51.5222211, "longitude": -0.2176095, "source": "osm", "_tags": {"amenity": "hospital", "check_date": "2025-09-12", "healthcare": "hospital", "name": "St Charles' Hospital", "wikidata": "Q27081429"}}, {"name": "Newham University Hospital", "latitude": 51.5216743, "longitude": 0.0366399, "source": "osm", "_tags": {"alt_name": "Newham General Hospital", "amenity": "hospital", "beds": "430", "healthcare": "hospital", "historic:operator": "Newham University Hospital Trust", "name": "Newham University Hospital", "opening_hours": "24/7", "operator": "Barts Health NHS Trust", "ref:GB:cqc_location": "R1HNH", "website": "https://www.bartshealth.nhs.uk/our-hospitals/newham-university-hospital/", "wikidata": "Q7018154", "wikipedia": "en:Newham University Hospital"}}, {"name": "Nuffield Health Brighton Hospital", "latitude": 50.8345492, "longitude": -0.081974, "source": "osm", "_tags": {"addr:city": "Brighton & Hove", "addr:postcode": "BN2 6DX", "addr:street": "Warren Road", "amenity": "hospital", "building": "hospital", "building:material": "brick", "fhrs:id": "208073", "healthcare": "hospital", "height": "16", "name": "Nuffield Health Brighton Hospital", "operator": "Nuffield Health", "operator:type": "private_non_profit", "ref:GB:uprn": "22105053", "roof:material": "roof_tiles", "roof:shape": "hipped", "website": "https://www.nuffieldhealth.com/hospitals/brighton"}}, {"name": "Tunbridge Wells Hospital at Pembury", "latitude": 51.1490287, "longitude": 0.3083364, "source": "osm", "_tags": {"addr:city": "Pembury", "addr:postcode": "TN2 4QJ", "addr:street": "Tonbridge Road", "amenity": "hospital", "check_date": "2024-11-09", "emergency": "yes", "healthcare": "hospital", "name": "Tunbridge Wells Hospital at Pembury"}}, {"name": "Bethlem Royal Hospital", "latitude": 51.3826284, "longitude": -0.0316828, "source": "osm", "_tags": {"amenity": "hospital", "healthcare": "hospital", "name": "Bethlem Royal Hospital", "name:uk": "Бедлам", "postal_code": "BR3 3BX", "wikidata": "Q831377", "wikipedia": "en:Bethlem Royal Hospital"}}, {"name": "Queen Mary's Hospital", "latitude": 51.4549711, "longitude": -0.2416041, "source": "osm", "_tags": {"addr:city": "London", "addr:housenumber": "171", "addr:postcode": "SW15 5PN", "addr:street": "Roehampton Lane", "amenity": "hospital", "emergency": "no", "fhrs:authority": "Wandsworth", "fhrs:id": "1572393", "fhrs:local_authority_id": "PI/000457125", "healthcare": "hospital", "name": "Queen Mary's Hospital", "source": "local_knowledge", "source:addr": "FHRS Open Data", "wikidata": "Q7270446", "wikipedia": "en:Queen Mary's Hospital, Roehampton"}}, {"name": "Childrens Resource Centre", "latitude": 51.4355218, "longitude": 0.255846, "source": "osm", "_tags": {"amenity": "hospital", "building": "hospital", "healthcare": "hospital", "name": "Childrens Resource Centre"}}, {"name": "Whipps Cross University Hospital", "latitude": 51.5775152, "longitude": 0.002042, "source": "osm", "_tags": {"addr:city": "London", "addr:postcode": "E11 1NR", "addr:street": "Whipps Cross Road", "amenity": "hospital", "emergency": "yes", "healthcare": "hospital", "name": "Whipps Cross University Hospital", "ref:GB:cqc_location": "R1HKH", "source": "yahoo;knowledge", "wikidata": "Q7993761", "wikipedia": "en:Whipps Cross University Hospital"}}, {"name": "Potters Bar Community Hospital", "latitude": 51.6871719, "longitude": -0.1774184, "source": "osm", "_tags": {"addr:city": "Potters Bar", "addr:county": "Hertfordshire", "addr:housename": "Potters Bar Community Hospital", "addr:postcode": "EN6 2RY", "addr:street": "Barnet Road", "amenity": "hospital", "check_date": "2025-04-09", "healthcare": "hospital", "name": "Potters Bar Community Hospital", "wikidata": "Q30292872"}}, {"name": "St. Pancras Hospital", "latitude": 51.5362791, "longitude": -0.1314026, "source": "osm", "_tags": {"addr:city": "London", "addr:postcode": "NW1 0PE", "addr:street": "St Pancras Way", "amenity": "hospital", "healthcare": "hospital", "name": "St. Pancras Hospital", "wikidata": "Q7595036"}}, {"name": "Homerton University Hospital", "latitude": 51.550645, "longitude": -0.0455017, "source": "osm", "_tags": {"amenity": "hospital", "emergency": "yes", "healthcare": "hospital", "loc_name": "Homerton Hospital", "name": "Homerton University Hospital", "ref:GB:cqc_location": "RQXM1", "ref:GB:nhs_ods": "RQXM1", "website": "https://www.homerton.nhs.uk/", "wikidata": "Q19654384", "wikipedia": "en:Homerton University Hospital"}}, {"name": "St Mary's Hospital", "latitude": 51.5174818, "longitude": -0.1742846, "source": "osm", "_tags": {"addr:city": "London", "addr:postcode": "W2 1NY", "addr:street": "Praed Street", "alt_name": "Saint Mary's Hospital, Paddington", "amenity": "hospital", "emergency": "yes", "healthcare": "hospital", "name": "St Mary's Hospital", "website": "https://www.imperial.nhs.uk/our-locations/st-marys-hospital", "wikidata": "Q3495342", "wikipedia": "en:St Mary's Hospital, London"}}, {"name": "Queen Elizabeth II Hospital", "latitude": 51.7829774, "longitude": -0.1885156, "source": "osm", "_tags": {"amenity": "hospital", "check_date": "2024-06-03", "emergency": "yes", "name": "Queen Elizabeth II Hospital", "wikidata": "Q7270362"}}, {"name": "The Whittington Hospital", "latitude": 51.5666448, "longitude": -0.1393183, "source": "osm", "_tags": {"addr:street": "Magdala Avenue", "amenity": "hospital", "healthcare": "hospital", "name": "The Whittington Hospital", "postal_code": "N19 5NF", "wheelchair": "yes", "wikidata": "Q7996907"}}, {"name": "Southend University Hospital", "latitude": 51.5542551, "longitude": 0.6881721, "source": "osm", "_tags": {"addr:city": "Southend-on-Sea", "addr:postcode": "SS0 0RY", "addr:street": "Prittlewell Chase", "amenity": "hospital", "contact:website": "https://www.mse.nhs.uk/southend-hospital", "emergency": "yes", "healthcare": "hospital", "name": "Southend University Hospital", "operator": "NHS;Mid and South Essex NHS Foundation Trust", "operator:type": "government", "operator:wikidata": "Q918396", "phone": "+44 1702 435555", "ref": "RAJ", "ref:GB:cqc_location": "RAJ01", "ref:GB:nhs_ods": "RAJ01", "website": "https://www.mse.nhs.uk/", "wheelchair": "yes", "wikidata": "Q50575526"}}, {"name": "The Princess Grace Hospital", "latitude": 51.522486, "longitude": -0.1529101, "source": "osm", "_tags": {"amenity": "hospital", "building": "yes", "building:levels": "5", "fixme": "Does this merit the tag 'hospital', i.e. it has in-patients?", "healthcare": "hospital", "name": "The Princess Grace Hospital", "operator": "HCA", "operator:type": "private", "source": "Bing;survey", "wikidata": "Q16901558"}}, {"name": "King Edward VII's Hospital", "latitude": 51.5209342, "longitude": -0.1504175, "source": "osm", "_tags": {"addr:city": "London", "addr:country": "GB", "addr:housename": "King Edward VII's Hospital", "addr:housenumber": "5-10", "addr:postcode": "W1G 6AA", "addr:street": "Beaumont Street", "amenity": "hospital", "building": "yes", "check_date": "2024-04-18", "fhrs:confidence_management": "0", "fhrs:hygiene": "0", "fhrs:id": "413238", "fhrs:local_authority_id": "01108/0055/1/000", "fhrs:rating": "5", "fhrs:structural": "0", "healthcare": "hospital", "name": "King Edward VII's Hospital", "ref:GB:cqc_location": "1-114202635", "ref:GB:uprn": "10033529930;10033601882", "source": "survey", "source:addr": "FSA Food Hygiene Ratings Database", "source:postcode": "FSA Food Hygiene Ratings Database", "website": "https://www.kingedwardvii.co.uk/", "wikidata": "Q580652", "wikipedia": "en:King Edward VII's Hospital"}}, {"name": "The Portland Hospital", "latitude": 51.5230212, "longitude": -0.1443613, "source": "osm", "_tags": {"addr:city": "London", "addr:housenumber": "205-209", "addr:postcode": "W1W 5AH", "addr:street": "Great Portland Street", "amenity": "hospital", "building": "yes", "check_date": "2025-06-24", "emergency": "no", "fhrs:id": "411924", "healthcare": "hospital", "name": "The Portland Hospital", "ref:GB:cqc_location": "1-126955917", "ref:GB:nhs_ods": "NW604", "source": "survey", "source:addr": "FHRS Open Data", "wikidata": "Q7231952"}}, {"name": "Royal Brompton Hospital", "latitude": 51.4891664, "longitude": -0.170971, "source": "osm", "_tags": {"addr:city": "London", "addr:postcode": "SW3 6PY", "addr:street": "Sydney Street", "amenity": "hospital", "emergency": "no", "healthcare": "hospital", "name": "Royal Brompton Hospital", "operator": "Guy's and St Thomas' NHS Foundation Trust", "source:postcode": "FHRS Open Data", "wikidata": "Q7373850"}}, {"name": "The Royal Marsden Hospital", "latitude": 51.4905731, "longitude": -0.1725464, "source": "osm", "_tags": {"amenity": "hospital", "healthcare": "hospital", "name": "The Royal Marsden Hospital", "wikidata": "Q7761706"}}, {"name": "Cambian Churchill", "latitude": 51.497186, "longitude": -0.1096392, "source": "osm", "_tags": {"addr:city": "London", "addr:housenumber": "22", "addr:postcode": "SE1 7PW", "addr:street": "Barkham Terrace", "amenity": "hospital", "building": "hospital", "building:levels": "4", "check_date": "2025-09-18", "fhrs:id": "1149999", "healthcare": "hospital", "name": "Cambian Churchill", "roof:levels": "1"}}, {"name": "Chelmsford and Essex (C&E) Centre", "latitude": 51.731008, "longitude": 0.4708996, "source": "osm", "_tags": {"addr:city": "Chelmsford", "addr:postcode": "CM2 0QH", "addr:street": "New London Road", "amenity": "hospital", "building": "yes", "emergency": "no", "healthcare": "hospital", "healthcare:speciality": "mental_health", "name": "Chelmsford and Essex (C&E) Centre", "opening_hours": "Mo-Fr 09:00-17:00; Sa-Su off", "operator": "NHS", "operator:type": "public", "operator:wikidata": "Q918396", "phone": "+44 1245 315200"}}, {"name": "Medway Maritime Hospital", "latitude": 51.3796228, "longitude": 0.5416333, "source": "osm", "_tags": {"addr:city": "Gillingham", "addr:country": "GB", "addr:county": "Kent", "addr:housename": "Medway Maritime Hospital", "addr:postcode": "ME7 5NY", "addr:street": "Windmill Road", "alt_name": "Medway Hospital", "amenity": "hospital", "beds": "588", "check_date": "2025-03-16", "contact:facebook": "https://www.facebook.com/MedwayNHS/", "email": "medwayft.pals@nhs.net", "emergency": "yes", "fhrs:authority": "Medway", "fhrs:id": "620897", "healthcare": "hospital", "historic": "yes", "loc_name": "Medway Maritime Hospital", "mobile": "01634830000", "name": "Medway Maritime Hospital", "nat_name": "Medway Maritime Hospital", "official_name": "Medway Maritime Hospital", "old_name": "Royal Naval Hospital", "opening_hours": "24/7", "operator": "Medway NHS Foundation Trust", "operator:type": "public/government", "phone": "+44 1634 830000", "source": "Bing;local knowledge;aerial imagery", "website": "https://www.medway.nhs.uk/", "wheelchair": "yes", "wikidata": "Q6807411", "wikimedia_commons": "File:Medway Maritime Hospital - geograph.org.uk - 3205764.jpg", "wikipedia": "en:Medway Maritime Hospital"}}, {"name": "The Royal Alex Children's Hospital", "latitude": 50.8199084, "longitude": -0.1174404, "source": "osm", "_tags": {"addr:city": "Brighton & Hove", "addr:postcode": "BN2 5BE", "addr:street": "Eastern Road", "alt_name": "Children's Ark", "amenity": "hospital", "building": "hospital", "building:colour": "#C0D0F0", "description": "Archetect : Building Design Partnership. Height esimated.", "healthcare": "hospital", "height": "32", "name": "The Royal Alex Children's Hospital", "operator": "Brighton and Sussex University Hospitals NHS Trust", "phone": "+44 1273 696955", "start_date": "June 2007", "toilets:wheelchair": "yes", "website": "https://www.bsuh.nhs.uk/alex/", "wheelchair": "yes", "wikidata": "Q7373654"}}, {"name": "Royal Sussex County Hospital", "latitude": 50.819587, "longitude": -0.1166722, "source": "osm", "_tags": {"addr:city": "Brighton", "addr:postcode": "BN2 5BE", "addr:street": "Eastern Road", "amenity": "hospital", "emergency": "yes", "healthcare": "hospital", "name": "Royal Sussex County Hospital", "operator": "Brighton and Sussex University Hospitals NHS Trust", "website": "https://www.uhsussex.nhs.uk/hospitals/royal-sussex-county-hospital/", "wikidata": "Q7374890", "wikipedia": "en:Royal Sussex County Hospital"}}, {"name": "CRGH", "latitude": 51.5202012, "longitude": -0.1015412, "source": "osm", "_tags": {"addr:city": "London", "addr:housenumber": "16", "addr:street": "St. John Street", "amenity": "hospital", "building": "yes", "building:colour": "#A0522D", "building:levels": "4", "building:material": "brick", "healthcare": "hospital", "healthcare:speciality": "fertility", "name": "CRGH", "operator": "City Fertility Limited", "ref:GB:cqc_location": "1-483017017", "roof:colour": "darkgrey"}}, {"name": "St Peter's Hospital", "latitude": 51.7300704, "longitude": 0.6715161, "source": "osm", "_tags": {"addr:city": "Maldon", "addr:country": "GB", "addr:housename": "St Peter's Hospital", "addr:postcode": "CM9 6EG", "addr:street": "Spital Road", "amenity": "hospital", "emergency": "no", "fhrs:authority": "Maldon", "fhrs:id": "20753", "fhrs:rating": "5", "healthcare": "hospital", "name": "St Peter's Hospital", "source": "Bing", "wikidata": "Q30292997"}}, {"name": "Caldecot Centre", "latitude": 51.4696774, "longitude": -0.0938642, "source": "osm", "_tags": {"addr:city": "London", "addr:housenumber": "15-22", "addr:postcode": "SE5 9RS", "addr:street": "Caldecot Road", "building": "hospital", "healthcare": "hospital", "healthcare:speciality": "sexual_health", "name": "Caldecot Centre", "operator": "King's College Hospital NHS Foundation Trust"}}, {"name": "The London Welbeck Hospital", "latitude": 51.5182542, "longitude": -0.1493761, "source": "osm", "_tags": {"addr:housenumber": "27", "addr:street": "Welbeck Street", "amenity": "hospital", "check_date": "2025-01-31", "healthcare": "hospital", "healthcare:speciality": "plastic_surgery;surgery;paediatric_surgery;dental_oral_maxillo_facial_surgery", "name": "The London Welbeck Hospital", "website": "https://londonwelbeckhospital.co.uk/", "wikidata": "Q6671010", "wikipedia": "en:London Welbeck Hospital"}}, {"name": "Lister Hospital", "latitude": 51.4864231, "longitude": -0.150183, "source": "osm", "_tags": {"addr:housename": "The Lister Hospital", "addr:street": "Chelsea Bridge Road", "amenity": "hospital", "building": "hospital", "building:levels": "4", "check_date": "2024-10-31", "healthcare": "hospital", "name": "Lister Hospital", "roof:levels": "1", "source": "Bing", "wikidata": "Q6646489"}}, {"name": "Vincent Square Clinic", "latitude": 51.4914736, "longitude": -0.1345453, "source": "osm", "_tags": {"addr:housename": "Hopkinson House", "amenity": "hospital", "building": "yes", "healthcare": "hospital", "name": "Vincent Square Clinic", "wheelchair": "yes"}}, {"name": "Gordon Hospital", "latitude": 51.4921664, "longitude": -0.1359502, "source": "osm", "_tags": {"addr:city": "London", "addr:postcode": "SW1V 2RH", "addr:street": "Bloomburg Street", "amenity": "hospital", "building": "yes", "fhrs:id": "412339", "healthcare": "hospital", "name": "Gordon Hospital", "wikidata": "Q60747194"}}, {"name": "Evelina London Children's Hospital", "latitude": 51.4983235, "longitude": -0.1183943, "source": "osm", "_tags": {"addr:city": "London", "addr:postcode": "SE1 7EH", "addr:street": "Westminster Bridge Road", "amenity": "hospital", "building": "hospital", "building:levels": "7", "contact:website": "https://www.evelinalondon.nhs.uk/Home.aspx", "emergency": "yes", "healthcare": "hospital", "healthcare:for": "child", "healthcare:speciality": "paediatrics", "name": "Evelina London Children's Hospital", "operator": "Guy's & St Thomas' NHS Foundation Trust", "wikidata": "Q5416238", "wikipedia": "en:Evelina London Children's Hospital"}}, {"name": "Grays Court Community Hospital", "latitude": 51.5392785, "longitude": 0.1580578, "source": "osm", "_tags": {"addr:city": "Dagenham", "addr:postcode": "RM10 9SR", "addr:street": "John Parker Close", "amenity": "hospital", "building": "yes", "emergency": "no", "fhrs:id": "129890", "fhrs:local_authority_id": "60868", "healthcare": "hospital", "name": "Grays Court Community Hospital"}}, {"name": "Southlands Hospital", "latitude": 50.8408728, "longitude": -0.2563319, "source": "osm", "_tags": {"addr:city": "Shoreham-by-Sea", "addr:housename": "Southlands Hospital", "addr:postcode": "BN43 6TQ", "addr:street": "Upper Shoreham Road", "amenity": "hospital", "emergency": "no", "healthcare": "hospital", "name": "Southlands Hospital", "operator": "Western Sussex Hospitals NHS Foundation Trust", "website": "https://www.westernsussexhospitals.nhs.uk/our-hospitals/southlands-hospital/", "wikidata": "Q7570897", "wikipedia": "en:Southlands Hospital"}}, {"name": "St Thomas' Hospital", "latitude": 51.4991013, "longitude": -0.1187323, "source": "osm", "_tags": {"addr:city": "London", "addr:postcode": "SE1 7EH", "addr:street": "Westminster Bridge Road", "amenity": "hospital", "check_date": "2024-11-05", "emergency": "yes", "healthcare": "hospital", "name": "St Thomas' Hospital", "operator": "Guy's and St Thomas' NHS Foundation Trust", "phone": "+44 20 7188 7188", "source": "OS_OpenData_StreetView;Bing", "website": "https://www.guysandstthomas.nhs.uk/", "wheelchair": "yes", "wikidata": "Q1143779", "wikimedia_commons": "Category:St Thomas' Hospital", "wikipedia": "en:St Thomas' Hospital"}}, {"name": "Cleveland Clinic London", "latitude": 51.4993942, "longitude": -0.148755, "source": "osm", "_tags": {"addr:city": "London", "addr:housenumber": "33", "addr:postcode": "SW1X 7HY", "addr:street": "Grosvenor Place", "amenity": "hospital", "beds": "184", "building": "commercial", "building:levels": "6", "check_date": "2024-07-28", "emergency": "no", "healthcare": "hospital", "internet_access": "wlan", "internet_access:fee": "no", "name": "Cleveland Clinic London", "operator": "Cleveland Clinic", "operator:type": "private", "phone": "+44 20 3423 7500", "source:beds": "https://clevelandcliniclondon.uk/", "website": "https://clevelandcliniclondon.uk/", "wheelchair": "yes", "wikidata": "Q97040389", "wikipedia": "en:Cleveland Clinic London"}}, {"name": "Brighton General Hospital", "latitude": 50.8306388, "longitude": -0.1145203, "source": "osm", "_tags": {"amenity": "hospital", "check_date": "2023-08-29", "emergency": "no", "healthcare": "hospital", "name": "Brighton General Hospital", "operator": "NHS Trust", "source": "OS_OpenData_Streetview; Bing", "wheelchair": "yes", "wikidata": "Q30280106", "wikipedia": "en:Brighton General Hospital"}}, {"name": "Brentwood Community Hospital", "latitude": 51.6233407, "longitude": 0.3160273, "source": "osm", "_tags": {"addr:city": "Brentwood", "addr:housename": "Brentwood Community Hospital", "addr:postcode": "CM15 8DR", "addr:street": "Crescent Drive", "amenity": "hospital", "check_date": "2024-11-16", "emergency": "no", "healthcare": "hospital", "healthcare:speciality": "chiropractic;paediatrics;cardiology;otolaryngology;epilepsy_services;parkinson's_desease;rehabilitation;sexual_health;tissue_viability", "internet_access": "yes", "internet_access:fee": "no", "internet_access:ssid": "NHSWiFi", "name": "Brentwood Community Hospital", "official_name": "Brentwood Community Hospital", "phone": "+44 1277 695000", "source": "https://www.nhs.uk/services/hospital/brentwood-community-hospital/RAJ25", "website": "https://www.nhs.uk/services/hospital/brentwood-community-hospital/RAJ25", "wheelchair": "yes"}}, {"name": "Queens Hospital", "latitude": 51.5687233, "longitude": 0.1810182, "source": "osm", "_tags": {"addr:city": "Romford", "addr:postcode": "RM7 0AG", "addr:street": "Rom Valley Way", "amenity": "hospital", "beds": "939", "emergency": "yes", "healthcare": "hospital", "name": "Queens Hospital", "opening_hours": "24/7", "operator": "Barking, Havering and Redbridge University Hospitals NHS Trust", "operator:type": "public", "operator:wikidata": "Q4861025", "phone": "+44 330 400 4333", "wheelchair": "yes", "wikidata": "Q7270013"}}, {"name": "Purley War Memorial Hospital", "latitude": 51.3405666, "longitude": -0.1148023, "source": "osm", "_tags": {"addr:city": "Purley", "addr:housenumber": "856", "addr:postcode": "CR8 2YL", "addr:street": "Brighton Road", "amenity": "hospital", "healthcare": "hospital", "name": "Purley War Memorial Hospital", "opening_hours": "Mo-Su 08:00-20:00", "phone": "+44 20 8401 3000"}}, {"name": "Royal Hospital for Neuro-Disability", "latitude": 51.4519811, "longitude": -0.2139272, "source": "osm", "_tags": {"addr:city": "London", "addr:postcode": "SW15 3SW", "addr:street": "West Hill", "amenity": "hospital", "emergency": "no", "healthcare": "hospital", "healthcare:speciality": "physiatry;neurology", "name": "Royal Hospital for Neuro-Disability", "wikidata": "Q7374301"}}, {"name": "Biggin Hill Clinic", "latitude": 51.3130711, "longitude": 0.0344392, "source": "osm", "_tags": {"amenity": "hospital", "building": "yes", "name": "Biggin Hill Clinic"}}, {"name": "Hartswood Hospital", "latitude": 51.6004241, "longitude": 0.2930177, "source": "osm", "_tags": {"access": "private", "amenity": "hospital", "building": "yes", "emergency": "no", "healthcare": "hospital", "name": "Hartswood Hospital"}}, {"name": "The Groves Medical Centre", "latitude": 51.4103397, "longitude": -0.2613381, "source": "osm", "_tags": {"amenity": "hospital", "building": "yes", "emergency": "no", "healthcare": "hospital", "name": "The Groves Medical Centre"}}, {"name": "Springdene Nursing Home", "latitude": 51.6344405, "longitude": -0.1679502, "source": "osm", "_tags": {"addr:housenumber": "55", "addr:street": "Oakleigh Park North", "amenity": "hospital", "building": "yes", "name": "Springdene Nursing Home"}}, {"name": "Darent Valley Hospital", "latitude": 51.434731, "longitude": 0.2570899, "source": "osm", "_tags": {"amenity": "hospital", "emergency": "yes", "healthcare": "hospital", "name": "Darent Valley Hospital", "source": "Bing", "toilets:wheelchair": "yes", "wheelchair": "yes", "wikidata": "Q25171377"}}, {"name": "Edgware Community Hospital", "latitude": 51.6064844, "longitude": -0.2709666, "source": "osm", "_tags": {"addr:street": "Burnt Oak Broadway", "amenity": "hospital", "emergency": "no", "healthcare": "hospital", "name": "Edgware Community Hospital", "postal_code": "HA8 0AD", "wikidata": "Q30293035"}}, {"name": "West View Hospital", "latitude": 51.0641373, "longitude": 0.6749555, "source": "osm", "_tags": {"amenity": "hospital", "healthcare": "hospital", "name": "West View Hospital", "note": "Care home"}}, {"name": "Bowes Road Clinic", "latitude": 51.6154941, "longitude": -0.1310823, "source": "osm", "_tags": {"amenity": "hospital", "emergency": "no", "healthcare": "hospital", "name": "Bowes Road Clinic"}}, {"name": "St Bartholomew's Hospital", "latitude": 51.5175315, "longitude": -0.1000771, "source": "osm", "_tags": {"amenity": "hospital", "healthcare": "hospital", "name": "St Bartholomew's Hospital", "note": "approx-ish area", "ref:GB:cqc_location": "R1HM0", "ref:GB:nhs_ods": "R1HM0", "short_name": "Barts", "wheelchair": "limited", "wikidata": "Q164946", "wikipedia": "en:St Bartholomew's Hospital"}}, {"name": "Nuffield Hospital", "latitude": 51.6233456, "longitude": 0.3129081, "source": "osm", "_tags": {"amenity": "hospital", "building": "hospital", "emergency": "no", "healthcare": "hospital", "name": "Nuffield Hospital", "wheelchair": "yes"}}, {"name": "Shirley Oaks Hospital", "latitude": 51.3821689, "longitude": -0.0563816, "source": "osm", "_tags": {"addr:city": "Croydon", "addr:postcode": "CR9 8AB", "addr:street": "Poppy Lane", "amenity": "hospital", "fhrs:authority": "Croydon", "fhrs:id": "859731", "healthcare": "hospital", "name": "Shirley Oaks Hospital"}}, {"name": "Mile End Hospital", "latitude": 51.5250528, "longitude": -0.0421703, "source": "osm", "_tags": {"addr:city": "London", "addr:housenumber": "275", "addr:postcode": "E1 4DG", "addr:street": "Bancroft Road", "amenity": "hospital", "barrier": "wall", "emergency": "no", "fhrs:id": "83681", "healthcare": "hospital", "name": "Mile End Hospital", "operator": "Barts Health NHS Trust", "ref:GB:cqc_location": "R1H13", "ref:GB:nhs_ods": "R1H13", "wikidata": "Q6851069"}}, {"name": "Charing Cross Hospital", "latitude": 51.486919, "longitude": -0.2197632, "source": "osm", "_tags": {"addr:city": "London", "addr:postcode": "W6 8RF", "addr:street": "Fulham Palace Road", "amenity": "hospital", "emergency": "yes", "healthcare": "hospital", "healthcare:speciality": "general;emergency", "name": "Charing Cross Hospital", "source": "Local knowledge", "type": "general acute hospital", "wikidata": "Q4982607", "wikipedia": "en:Charing Cross Hospital Medical School"}}, {"name": "Victoria Hospital", "latitude": 51.5838151, "longitude": 0.1880023, "source": "osm", "_tags": {"amenity": "hospital", "emergency": "no", "healthcare": "hospital", "name": "Victoria Hospital"}}, {"name": "Springfield Hospital", "latitude": 51.7538735, "longitude": 0.4851576, "source": "osm", "_tags": {"addr:city": "Chelmsford", "addr:postcode": "CM1 7GU", "addr:street": "Lawn Lane", "amenity": "hospital", "emergency": "no", "healthcare": "hospital", "name": "Springfield Hospital", "operator": "Ramsay Health Care UK", "operator:type": "private", "operator:wikidata": "Q20047299", "phone": "+44 1245 952741", "website": "https://www.springfieldhospital.co.uk/"}}, {"name": "Crowborough War Memorial Hospital", "latitude": 51.0515255, "longitude": 0.1574026, "source": "osm", "_tags": {"addr:postcode": "TN6 1HB", "addr:street": "South View Road", "amenity": "hospital", "building": "yes", "emergency": "no", "fhrs:id": "171236", "healthcare": "hospital", "name": "Crowborough War Memorial Hospital", "ref:GB:uprn": "100062590847", "source:addr": "FHRS Open Data"}}, {"name": "Sevenoaks Hospital", "latitude": 51.2879438, "longitude": 0.1954915, "source": "osm", "_tags": {"addr:postcode": "TN13 3PG", "addr:street": "Hospital Road", "amenity": "hospital", "emergency": "no", "fhrs:id": "266389", "healthcare": "hospital", "name": "Sevenoaks Hospital", "source:addr": "FHRS Open Data"}}, {"name": "Millway Medical Practice", "latitude": 51.6155345, "longitude": -0.2440094, "source": "osm", "_tags": {"addr:city": "London", "addr:postcode": "NW7 2HX", "addr:street": "Hartley Avenue", "amenity": "hospital", "building": "yes", "emergency": "no", "name": "Millway Medical Practice"}}, {"name": "Jenner House", "latitude": 51.7840488, "longitude": 0.1340534, "source": "osm", "_tags": {"addr:postcode": "CM17 0AX", "amenity": "hospital", "building": "public", "emergency": "no", "healthcare": "hospital", "name": "Jenner House"}}, {"name": "Tunbridge Wells Nuffield Hospital", "latitude": 51.1314227, "longitude": 0.277915, "source": "osm", "_tags": {"addr:housename": "Tunbridge Wells Nuffield Hospital", "addr:postcode": "TN2 4UL", "addr:street": "Kingswood Road", "amenity": "hospital", "building": "yes", "contact:phone": "+44 01892 531111", "contact:website": "https://www.nuffieldhealth.com/hospitals/tunbridge-wells?utm_source=google&utm_medium=local&utm_campaign=GoogleLocal-Tunbridge-Wells-Hospital", "emergency": "yes", "fhrs:id": "22828", "healthcare": "hospital", "name": "Tunbridge Wells Nuffield Hospital", "source:addr": "FHRS Open Data"}}, {"name": "Rivers Hospital", "latitude": 51.8079439, "longitude": 0.1364756, "source": "osm", "_tags": {"addr:city": "Sawbridgeworth", "addr:postcode": "CM21 0HH", "addr:street": "High Wych Road", "amenity": "hospital", "healthcare": "hospital", "name": "Rivers Hospital", "phone": "+44 1279 600282"}}, {"name": "Portslade Health Centre", "latitude": 50.833573, "longitude": -0.2132966, "source": "osm", "_tags": {"addr:city": "Portslade", "addr:housenumber": "69", "addr:postcode": "BN41 1LB", "addr:street": "Church Road", "amenity": "hospital", "building": "yes", "fhrs:id": "207326", "healthcare": "hospital", "name": "Portslade Health Centre", "ref:GB:uprn": "22273583;22001860", "source:addr": "FHRS Open Data", "website": "https://www.portsladehealthcentre.co.uk/"}}, {"name": "Lister House Health Centre", "latitude": 51.7545995, "longitude": 0.0900294, "source": "osm", "_tags": {"amenity": "hospital", "emergency": "no", "healthcare": "centre", "name": "Lister House Health Centre"}}, {"name": "Hove Polyclinic", "latitude": 50.8420847, "longitude": -0.1895664, "source": "osm", "_tags": {"addr:city": "Hove", "addr:postcode": "BN3 7HY", "addr:street": "Nevill Avenue", "amenity": "hospital", "building": "yes", "fhrs:id": "207824", "healthcare": "hospital", "name": "Hove Polyclinic", "ref:GB:uprn": "22017474", "source:addr": "FHRS Open Data"}}, {"name": "Nevill Hospital", "latitude": 50.8412151, "longitude": -0.1920458, "source": "osm", "_tags": {"amenity": "hospital", "building": "yes", "healthcare": "hospital", "name": "Nevill Hospital", "ref:GB:uprn": "22190212;22163237"}}, {"name": "Princess Alexandra Hospital", "latitude": 51.7715335, "longitude": 0.0858415, "source": "osm", "_tags": {"amenity": "hospital", "emergency": "yes", "healthcare": "hospital", "name": "Princess Alexandra Hospital", "wikidata": "Q50573098"}}, {"name": "Appleby Care Centre", "latitude": 51.3429955, "longitude": -0.2666493, "source": "osm", "_tags": {"amenity": "hospital", "building": "yes", "name": "Appleby Care Centre", "ref:GB:uprn": "100061360129"}}, {"name": "Queen Elizabeth Hospital", "latitude": 51.4778478, "longitude": 0.050258, "source": "osm", "_tags": {"addr:city": "London", "addr:postcode": "SE18 4QH", "addr:street": "Stadium Road", "amenity": "hospital", "emergency": "yes", "healthcare": "hospital", "name": "Queen Elizabeth Hospital", "phone": "+44 20 8836 6000", "toilets:wheelchair": "yes", "wheelchair": "yes", "wikidata": "Q7270343"}}, {"name": "Coborn Centre for Adolescent Mental Health", "latitude": 51.5196806, "longitude": 0.0383924, "source": "osm", "_tags": {"addr:city": "London", "addr:postcode": "E13 8SP", "addr:street": "Cherry Tree Way", "amenity": "hospital", "building": "yes", "emergency": "no", "healthcare": "hospital", "name": "Coborn Centre for Adolescent Mental Health", "phone": "+44 20 7540 6789", "website": "https://www.elft.nhs.uk/camhs/where-we-work/coborn-centre-adolescent-mental-health"}}, {"name": "Cygnet Hospital Godden Green", "latitude": 51.2710155, "longitude": 0.2303, "source": "osm", "_tags": {"addr:housename": "Cygnet Hospital Godden Green", "addr:postcode": "TN15 0JR", "addr:street": "Godden Green", "amenity": "hospital", "building": "hospital", "contact:website": "https://www.cygnethealth.co.uk/locations/cygnet-hospital-godden-green/", "emergency": "no", "fhrs:id": "266813", "name": "Cygnet Hospital Godden Green", "opening_hours": "24/7", "phone": "+441732763491", "source:addr": "FHRS Open Data", "website": "https://www.cygnethealth.co.uk/"}}, {"name": "Queen Victoria Hospital", "latitude": 51.1350888, "longitude": -0.0021778, "source": "osm", "_tags": {"addr:city": "East Grinstead", "addr:housename": "Queen Victoria Hospital", "addr:postcode": "RH19 3DZ", "addr:street": "Holtye Road", "amenity": "hospital", "description": "Non-emergency NHS hospital on the edge of East Grinstead, West Sussex.", "email": "qvh.info@nhs.net", "emergency": "no", "fhrs:id": "499893;14450", "healthcare": "hospital", "internet_access": "wlan", "internet_access:fee": "no", "internet_access:ssid": "QVH-Visitors", "name": "Queen Victoria Hospital", "operator": "NHS", "operator:type": "public", "operator:wikidata": "Q918396", "phone": "+44 1342 414000", "ref:GB:cqc_location": "RPC04", "website": "https://www.qvh.nhs.uk/", "wheelchair": "yes", "wikidata": "Q7270535", "wikipedia": "en:Queen Victoria Hospital"}}, {"name": "", "latitude": 51.5837509, "longitude": 0.0290393, "source": "osm", "_tags": {"amenity": "hospital", "emergency": "no", "healthcare": "hospital", "note": "boundary estimated", "operator": "NHS", "operator:type": "public", "operator:wikidata": "Q918396", "source": "survey"}}, {"name": "King's College Hospital", "latitude": 51.4684289, "longitude": -0.093654, "source": "osm", "_tags": {"addr:city": "London", "addr:postcode": "SE5 9RS", "addr:street": "Denmark Hill", "amenity": "hospital", "check_date": "2024-04-28", "emergency": "yes", "fee": "no", "fhrs:id": "484055", "healthcare": "hospital", "name": "King's College Hospital", "operator": "King's College Hospital NHS Foundation Trust", "source:addr": "FHRS Open Data", "website": "https://www.kch.nhs.uk/", "wikidata": "Q1742181", "wikipedia": "en:King's College Hospital"}}, {"name": "Tonbridge Cottage Hospital", "latitude": 51.1792908, "longitude": 0.2771726, "source": "osm", "_tags": {"amenity": "hospital", "name": "Tonbridge Cottage Hospital"}}, {"name": "", "latitude": 51.3775519, "longitude": -0.0326756, "source": "osm", "_tags": {"amenity": "hospital", "healthcare": "hospital"}}, {"name": "Spire London East", "latitude": 51.5872417, "longitude": 0.0436493, "source": "osm", "_tags": {"amenity": "hospital", "healthcare": "hospital", "name": "Spire London East", "old_name": "Spire Roding Hospital", "website": "https://www.spirehealthcare.com/roding/"}}, {"name": "Farmfield Hospital (psychiatric)", "latitude": 51.1663745, "longitude": -0.2016871, "source": "osm", "_tags": {"amenity": "hospital", "emergency": "no", "healthcare": "hospital", "healthcare:speciality": "psychiatry", "name": "Farmfield Hospital (psychiatric)", "operator": "Elysium Healthcare"}}, {"name": "John Howard Centre", "latitude": 51.5480322, "longitude": -0.0391378, "source": "osm", "_tags": {"addr:city": "London", "addr:housenumber": "12", "addr:postcode": "E9 5TD", "addr:street": "Kenworthy Road", "alt_name": "Forensic Services Directorate", "amenity": "hospital", "healthcare": "hospital", "healthcare:speciality": "psychiatry", "name": "John Howard Centre", "old_name": "Hackney Hospital", "operator": "East London NHS Foundation Trust", "operator:type": "public", "phone": "+44 20 8510 2003", "ref:GB:cqc_location": "RWK60", "ref:GB:nhs_ods": "RWK60"}}, {"name": "Langley Green Hospital (psychiatric)", "latitude": 51.1319347, "longitude": -0.1887997, "source": "osm", "_tags": {"amenity": "hospital", "emergency": "no", "healthcare": "hospital", "healthcare:speciality": "psychiatry", "name": "Langley Green Hospital (psychiatric)"}}, {"name": "KIMS Hospital", "latitude": 51.2860986, "longitude": 0.556316, "source": "osm", "_tags": {"addr:city": "Maidstone", "addr:housename": "KIMS Hospital", "addr:postcode": "ME14 5FT", "addr:street": "Newnham Court way", "alt_name": "Kent Institute of Medicine and Surgery", "amenity": "hospital", "contact:website": "https://kims.org.uk/", "emergency": "no", "healthcare": "hospital", "name": "KIMS Hospital", "opening_hours": "24/7", "operator": "KIMS", "phone": "+44 1622 237500", "wikidata": "Q24887213", "wikipedia": "en:KIMS Hospital, Maidstone"}}, {"name": "The Holly Private Hospital", "latitude": 51.6243284, "longitude": 0.0321768, "source": "osm", "_tags": {"addr:city": "Buckhurst Hill", "addr:country": "GB", "addr:postcode": "IG9 5HX", "addr:street": "High Road", "amenity": "hospital", "healthcare": "hospital", "landuse": "residential", "name": "The Holly Private Hospital", "old_name": "Holly House Hospital", "phone": "+44 20 8505 3311", "website": "https://www.theholly.com/"}}, {"name": "Orsett Hospital", "latitude": 51.5098825, "longitude": 0.3658239, "source": "osm", "_tags": {"addr:city": "Orsett", "addr:postcode": "RM16 3EU", "addr:street": "Rowley Road", "amenity": "hospital", "emergency": "no", "healthcare": "hospital", "name": "Orsett Hospital", "operator": "NHS", "operator:type": "government", "operator:wikidata": "Q918396", "phone": "+44 1268 524900", "website": "https://www.mse.nhs.uk/", "wikidata": "Q30292832"}}, {"name": "Priory Hospital Chelmsford", "latitude": 51.7431746, "longitude": 0.4892269, "source": "osm", "_tags": {"addr:city": "Chelmsford", "addr:postcode": "CM1 7SJ", "addr:street": "Stump Lane", "amenity": "hospital", "emergency": "no", "fax": "+44 1245 346177", "healthcare": "hospital", "healthcare:speciality": "mental_health", "name": "Priory Hospital Chelmsford", "operator": "The Priory Group", "operator:type": "private", "phone": "+44 1245 806412", "ref:GB:cqc_location": "1-127132186", "website": "https://www.priorygroup.com/", "wikidata": "Q30265238"}}, {"name": "BMI London Independent Hospital", "latitude": 51.5202652, "longitude": -0.0469652, "source": "osm", "_tags": {"addr:city": "London", "addr:country": "GB", "addr:housenumber": "1", "addr:place": "Stepney Green", "addr:postcode": "E1 4NL", "addr:state": "London", "addr:street": "Beaumont Square", "amenity": "hospital", "building": "hospital", "contact:phone": "+44 20 7780 2400", "contact:website": "https://www.bmihealthcare.co.uk/hospitals/bmi-the-london-independent-hospital", "fhrs:id": "41389", "healthcare": "hospital", "name": "BMI London Independent Hospital", "operator": "BMI", "ref:GB:cqc_location": "1-128766965", "ref:GB:nhs_ods": "NT422"}}, {"name": "Bexhill Hospital", "latitude": 50.8500418, "longitude": 0.4752018, "source": "osm", "_tags": {"addr:city": "Bexhill-on-Sea", "addr:housename": "Bexhill Hospital", "addr:postcode": "TN40 2DZ", "addr:street": "Holliers Hill", "amenity": "hospital", "architect": "Adams, Holden & Pearson", "beds": "54", "contact:email": "enquiries@esht.nhs.uk", "contact:phone": "+44 1424 755255", "contact:website": "https://www.esht.nhs.uk/hospitals-and-community/bexhill-hospital/", "emergency": "no", "fhrs:id": "761444", "healthcare": "hospital", "name": "Bexhill Hospital", "operator": "NHS", "operator:type": "public", "operator:wikidata": "Q918396", "ref:GB:cqc_location": "P4W3M", "ref:charity": "1169175", "ref:esher": "MES132", "source:addr": "FHRS Open Data", "start_date": "1933-05-13", "wheelchair": "yes", "wikidata": "Q30292928", "wikimedia_commons": "File:Bexhill Hospital - geograph.org.uk - 1463359.jpg", "wikimedia_commons:1": "File:Specialist Unit at Bexhill Hospital, Bexhill-on-Sea - geograph.org.uk - 692738.jpg", "wikipedia": "en:Bexhill Hospital"}}, {"name": "Moorfields Eye Hospital (City Road campus)", "latitude": 51.5272631, "longitude": -0.0902151, "source": "osm", "_tags": {"amenity": "hospital", "emergency": "yes", "healthcare": "hospital", "name": "Moorfields Eye Hospital (City Road campus)", "ref:GB:cqc_location": "RP601", "ref:GB:nhs_ods": "RP601", "wikidata": "Q1946861", "wikipedia": "en:Moorfields Eye Hospital"}}, {"name": "London Bridge Hospital", "latitude": 51.5061317, "longitude": -0.0860403, "source": "osm", "_tags": {"addr:city": "London", "addr:postcode": "SE1 2PR", "addr:street": "Tooley Street", "amenity": "hospital", "emergency": "no", "healthcare": "hospital", "name": "London Bridge Hospital", "operator:type": "private", "website": "http://www.londonbridgehospital.com", "wikidata": "Q6669893", "wikipedia": "en:London Bridge Hospital"}}, {"name": "Fitzrovia Hospital", "latitude": 51.5234772, "longitude": -0.1404316, "source": "osm", "_tags": {"addr:city": "London", "addr:housename": "Saint Luke's House", "addr:housenumber": "13-14", "addr:street": "Fitzroy Square", "amenity": "hospital", "building": "yes", "healthcare": "hospital", "name": "Fitzrovia Hospital", "note": "private cosmetic surgery clinic", "ref:GB:cqc_location": "1-20288364561;1-13740482832", "ref:GB:uprn": "5196151;5196595"}}, {"name": "Spire Gatwick Park Hospital (Private)", "latitude": 51.1673067, "longitude": -0.1832702, "source": "osm", "_tags": {"amenity": "hospital", "healthcare": "hospital", "name": "Spire Gatwick Park Hospital (Private)"}}, {"name": "University College Hospital", "latitude": 51.5248695, "longitude": -0.1364433, "source": "osm", "_tags": {"addr:city": "London", "addr:country": "GB", "addr:housenumber": "235", "addr:postcode": "NW1 2BU", "addr:street": "Euston Road", "amenity": "hospital", "beds": "665", "check_date": "2025-02-25", "contact:phone": "+44 20 3456 7890", "contact:website": "https://www.uclh.nhs.uk/", "emergency": "yes", "healthcare": "hospital", "name": "University College Hospital", "operator": "National Health Service (NHS)", "ref:GB:nhs_ods": "RRV03", "short_name": "UCH", "start_date": "1834", "toilets:wheelchair": "yes", "wheelchair": "yes", "wikidata": "Q3551343", "wikipedia": "en:University College Hospital"}}, {"name": "Weymouth Street Hospital", "latitude": 51.5202358, "longitude": -0.1505415, "source": "osm", "_tags": {"addr:city": "London", "addr:housenumber": "42-46", "addr:postcode": "W1G 6NP", "addr:street": "Weymouth Street", "amenity": "hospital", "building": "hospital", "emergency": "no", "fixme": "Does this merit the tag 'hospital', i.e. it has in-patients?", "healthcare": "hospital", "name": "Weymouth Street Hospital", "note": "http://www.openstreetmap.org/note/726409", "operator": "Phoenix Hospital Group", "phone": "+44 20 7935 1200", "website": "https://www.weymouthstreethospital.com/", "wikidata": "Q20714162"}}, {"name": "Barking Community Hospital", "latitude": 51.5387903, "longitude": 0.0988176, "source": "osm", "_tags": {"addr:city": "Barking", "addr:postcode": "IG11 9LX", "addr:street": "Upney Lane", "amenity": "hospital", "healthcare": "hospital", "name": "Barking Community Hospital", "phone": "+44 20 3644 2301", "wikidata": "Q30292861"}}, {"name": "Headcorn Surgery", "latitude": 51.1701311, "longitude": 0.6337962, "source": "osm", "_tags": {"amenity": "hospital", "name": "Headcorn Surgery", "source": "headcornsurgery.nhs.uk"}}, {"name": "Chalkhill", "latitude": 50.9911428, "longitude": -0.0938111, "source": "osm", "_tags": {"addr:city": "Haywards Heath", "addr:postcode": "RH16 4NQ", "addr:street": "Lewes Road", "amenity": "hospital", "building": "yes", "healthcare": "hospital", "name": "Chalkhill", "operator": "NHS", "operator:wikidata": "Q918396"}}, {"name": "Sussex Orthopaedic Treatment Centre", "latitude": 50.9914421, "longitude": -0.0930064, "source": "osm", "_tags": {"addr:city": "Haywards Heath", "addr:postcode": "RH16 4EY", "addr:street": "Lewes Road", "amenity": "hospital", "building": "yes", "healthcare": "hospital", "name": "Sussex Orthopaedic Treatment Centre", "operator": "NHS", "operator:wikidata": "Q918396", "phone": "+44 1444 448770", "ref:GB:uprn": "10014104007"}}, {"name": "University Hospital Lewisham", "latitude": 51.4537809, "longitude": -0.0179238, "source": "osm", "_tags": {"amenity": "hospital", "check_date": "2022-10-16", "emergency": "yes", "healthcare": "hospital", "internet_access": "wlan", "internet_access:fee": "no", "internet_access:ssid": "NHS WiFi", "name": "University Hospital Lewisham", "opening_hours": "24/7", "operator:type": "public", "ref:GB:cqc_location": "RJ224", "ref:GB:nhs_ods": "RJ224", "source": "survey", "wheelchair": "yes", "wikidata": "Q14956783", "wikipedia": "en:University Hospital Lewisham"}}, {"name": "Rochford Hospital", "latitude": 51.5840089, "longitude": 0.7033457, "source": "osm", "_tags": {"addr:city": "Rochford", "amenity": "hospital", "emergency": "no", "healthcare": "hospital", "name": "Rochford Hospital", "operator": "NHS", "operator:type": "public", "operator:wikidata": "Q918396"}}, {"name": "Highgate Mental Health Centre", "latitude": 51.5667363, "longitude": -0.1425875, "source": "osm", "_tags": {"addr:city": "London", "addr:postcode": "N19 5NX", "addr:street": "Dartmouth Park Hill", "amenity": "hospital", "emergency": "yes", "healthcare": "hospital", "name": "Highgate Mental Health Centre", "operator": "Camden and Islington NHS Foundation Trust"}}, {"name": "", "latitude": 51.7651807, "longitude": -0.2422117, "source": "osm", "_tags": {"amenity": "hospital", "healthcare": "hospital", "source": "OS OpenMap Local"}}, {"name": "Lewes Victoria", "latitude": 50.8749956, "longitude": -0.0053798, "source": "osm", "_tags": {"amenity": "hospital", "healthcare": "hospital", "name": "Lewes Victoria", "source": "DigitalGlobe", "wikidata": "Q30293125"}}, {"name": "Highfield Nursing Home", "latitude": 51.8030318, "longitude": -0.0345359, "source": "osm", "_tags": {"amenity": "hospital", "name": "Highfield Nursing Home", "source": "OS OpenMap Local"}}, {"name": "Mildmay Mission Hospital", "latitude": 51.5277306, "longitude": -0.0755805, "source": "osm", "_tags": {"addr:city": "London", "addr:housenumber": "19", "addr:postcode": "E2 7DZ", "addr:street": "Tabernacle Gardens", "alt_name": "Mildmay Hospital", "amenity": "hospital", "building": "hospital", "building:levels": "4", "healthcare": "hospital", "name": "Mildmay Mission Hospital", "ref:GB:cqc_location": "1-2311760426", "roof:levels": "0", "website": "https://www.mildmay.org/", "wheelchair": "yes", "wikidata": "Q124749523", "wikipedia": "en:Mildmay Mission Hospital"}}, {"name": "Little Brook Hospital", "latitude": 51.4464132, "longitude": 0.2428038, "source": "osm", "_tags": {"addr:city": "Dartford", "addr:postcode": "DA2 6PB", "addr:street": "Bow Arrow Lane", "alt_name": "Littlebrook Hospital", "amenity": "hospital", "emergency": "no", "healthcare": "hospital", "healthcare:speciality": "geriatrics;psychiatry", "name": "Little Brook Hospital", "operator": "Kent and Medway NHS and Social Care Partnership Trust", "phone": "+44 1322622222", "website": "https://www.kmpt.nhs.uk/"}}, {"name": "Basildon University Hospital", "latitude": 51.5581629, "longitude": 0.4513565, "source": "osm", "_tags": {"addr:city": "Basildon", "addr:postcode": "SS16 5NL", "addr:street": "Nether Mayne", "amenity": "hospital", "contact:website": "https://www.mse.nhs.uk/basildon-university-hospital", "emergency": "yes", "healthcare": "hospital", "name": "Basildon University Hospital", "operator": "NHS;Mid and South Essex NHS Foundation Trust", "operator:type": "government", "operator:wikidata": "Q918396", "phone": "+44 1268 524900", "ref": "RDD", "source": "OS OpenMap Local", "website": "https://www.mse.nhs.uk/", "wheelchair": "yes", "wikidata": "Q30292885"}}, {"name": "Leonard Lodge Nursing Home", "latitude": 51.6356068, "longitude": 0.3444734, "source": "osm", "_tags": {"addr:city": "Brentwood", "addr:housename": "Leonard Lodge", "addr:postcode": "CM13 1AQ", "addr:street": "Roxwell Gardens", "amenity": "hospital", "name": "Leonard Lodge Nursing Home", "source": "OS OpenMap Local", "website": "https://www.barchester.com/home/leonard-lodge-care-home"}}, {"name": "Hutton Village Nursing Home", "latitude": 51.6276893, "longitude": 0.3619969, "source": "osm", "_tags": {"amenity": "hospital", "name": "Hutton Village Nursing Home", "source": "OS OpenMap Local"}}, {"name": "BMI Hendon Hospital", "latitude": 51.5937166, "longitude": -0.2244096, "source": "osm", "_tags": {"amenity": "hospital", "emergency": "no", "name": "BMI Hendon Hospital", "website": "https://www.bmihealthcare.co.uk/hospitals/bmi-hendon-hospital"}}, {"name": "Princess Royal", "latitude": 50.9908459, "longitude": -0.0911237, "source": "osm", "_tags": {"amenity": "hospital", "healthcare": "hospital", "name": "Princess Royal", "wheelchair": "yes", "wikidata": "Q7244803"}}, {"name": "Burrswood", "latitude": 51.1187001, "longitude": 0.1718901, "source": "osm", "_tags": {"addr:city": "Groombridge", "addr:place": "Burrswood Hospital", "addr:postcode": "TN3 9PY", "amenity": "hospital", "building": "yes", "contact:website": "http://www.burrswood.org.uk/", "fhrs:id": "6319", "healthcare": "hospital", "name": "Burrswood", "source:addr": "FHRS Open Data"}}, {"name": "Nuffield Health Highgate Hospital", "latitude": 51.5766504, "longitude": -0.1570546, "source": "osm", "_tags": {"addr:housenumber": "17-19", "addr:street": "View Road", "amenity": "hospital", "building": "hospital", "email": "hohig.enquiries@nuffieldhealth.com", "healthcare": "hospital", "name": "Nuffield Health Highgate Hospital", "operator": "Nuffield Health", "operator:type": "private", "operator:wikidata": "Q7068711", "phone": "+44 20 8341 4182", "ref:GB:nhs_ods": "NYW03", "website": "https://www.nuffieldhealth.com/hospitals/highgate", "wikidata": "Q28404470"}}, {"name": "Renal Dialysis Unit", "latitude": 51.4011388, "longitude": 0.014417, "source": "osm", "_tags": {"addr:city": "Bromley", "addr:postcode": "BR1 1AG", "addr:street": "Ringers Road", "amenity": "hospital", "healthcare": "hospital", "healthcare:speciality": "renal", "name": "Renal Dialysis Unit", "number": "020 3299 7510", "operator": "NHS Kings@Bromley"}}, {"name": "Great Ormond Street Hospital for Children", "latitude": 51.5224739, "longitude": -0.1204028, "source": "osm", "_tags": {"addr:city": "London", "addr:country": "GB", "addr:postcode": "WC1N 3JH", "addr:street": "Great Ormond Street", "amenity": "hospital", "contact:website": "http://www.gosh.nhs.uk/", "healthcare": "hospital", "name": "Great Ormond Street Hospital for Children", "operator": "Great Ormond Street Hospital for Children NHS Foundation Trust", "operator:type": "public", "operator:wikidata": "Q19873658", "ref:GB:cqc_location": "RP401", "ref:GB:nhs_ods": "RP401", "wikidata": "Q1349705", "wikipedia": "en:Great Ormond Street Hospital"}}, {"name": "Princess Royal University Hospital", "latitude": 51.3662017, "longitude": 0.0580564, "source": "osm", "_tags": {"addr:city": "Orpington", "addr:postcode": "BR6 8ND", "addr:street": "Farnborough Common", "amenity": "hospital", "emergency": "yes", "healthcare": "hospital", "name": "Princess Royal University Hospital", "operator": "King's College NHS Foundation Trust", "phone": "+44 1689 863000", "website": "https://pruh.kch.nhs.uk/", "wheelchair": "yes", "wikidata": "Q7244808"}}, {"name": "Blackheath Hospital", "latitude": 51.4634313, "longitude": 0.0067008, "source": "osm", "_tags": {"amenity": "hospital", "healthcare": "hospital", "name": "Blackheath Hospital"}}, {"name": "Uckfield Community Hospital", "latitude": 50.9660023, "longitude": 0.1058018, "source": "osm", "_tags": {"addr:city": "Uckfield", "addr:postcode": "TN22 5AW", "addr:street": "Framfield Road", "amenity": "hospital", "healthcare": "hospital", "name": "Uckfield Community Hospital"}}, {"name": "The Dene", "latitude": 50.9655308, "longitude": -0.1651034, "source": "osm", "_tags": {"amenity": "hospital", "healthcare": "hospital", "name": "The Dene", "operator": "The Priory Group", "website": "https://www.priorygroup.com/location-results/item/the-dene"}}, {"name": "Royal London Hospital", "latitude": 51.5174467, "longitude": -0.0599244, "source": "osm", "_tags": {"addr:city": "London", "addr:postcode": "E1 1BB", "addr:street": "Whitechapel Road", "amenity": "hospital", "emergency": "yes", "fhrs:id": "100125", "healthcare": "hospital", "name": "Royal London Hospital", "operator": "Barts Health NHS Trust", "ref:GB:cqc_location": "R1H12", "ref:GB:nhs_ods": "R1H12", "wikidata": "Q7374421", "wikipedia": "en:Royal London Hospital"}}, {"name": "Erith and District Hospital", "latitude": 51.4769611, "longitude": 0.1667663, "source": "osm", "_tags": {"amenity": "hospital", "healthcare": "hospital", "name": "Erith and District Hospital", "note": "The boundary is subject to checking/improvement", "wikidata": "Q30293058"}}, {"name": "The Portland Hospital Consulting Suite", "latitude": 51.5228041, "longitude": -0.1442135, "source": "osm", "_tags": {"addr:housenumber": "205-207", "addr:street": "Great Portland Street", "amenity": "hospital", "building": "hospital", "building:levels": "7", "check_date": "2023-08-12", "healthcare": "hospital", "name": "The Portland Hospital Consulting Suite"}}, {"name": "Queen Anne Street Medical Centre", "latitude": 51.5182104, "longitude": -0.1470993, "source": "osm", "_tags": {"addr:housenumber": "18-22", "addr:street": "Queen Anne Street", "amenity": "hospital", "building": "yes", "healthcare": "hospital", "name": "Queen Anne Street Medical Centre", "ref:GB:cqc_location": "1-19458919324", "website": "https://qasmc.com/"}}, {"name": "One Hatfield Hospital", "latitude": 51.7712452, "longitude": -0.2364681, "source": "osm", "_tags": {"addr:city": "Hatfield", "addr:housenumber": "3", "addr:postcode": "AL10 9UA", "addr:street": "Hatfield Avenue", "amenity": "hospital", "building": "hospital", "building:levels": "2", "emergency": "no", "healthcare": "hospital", "name": "One Hatfield Hospital"}}, {"name": "Nightingale Hospital", "latitude": 51.5218142, "longitude": -0.1652215, "source": "osm", "_tags": {"addr:street": "Lisson Grove", "amenity": "hospital", "check_date": "2024-04-04", "healthcare": "hospital", "healthcare:speciality": "psychiatry", "name": "Nightingale Hospital", "website": "https://www.nightingalehospital.co.uk/", "wikidata": "Q60746347"}}, {"name": "Hospital of St John and St Elizabeth", "latitude": 51.5332691, "longitude": -0.1749786, "source": "osm", "_tags": {"addr:housenumber": "60", "addr:street": "Grove End Road", "amenity": "hospital", "healthcare": "hospital", "name": "Hospital of St John and St Elizabeth", "website": "https://www.hje.org.uk/", "wikidata": "Q5908758", "wikipedia": "en:Hospital of St John and St Elizabeth"}}, {"name": "Guy's Hospital", "latitude": 51.5032347, "longitude": -0.0868297, "source": "osm", "_tags": {"addr:city": "London", "addr:postcode": "SE1 9RT", "addr:street": "Great Maze Pond", "amenity": "hospital", "emergency": "no", "healthcare": "hospital", "name": "Guy's Hospital", "operator": "Guy's and St Thomas' NHS Foundation Trust", "phone": "+44 20 7188 7188", "website": "https://www.guysandstthomas.nhs.uk/", "wikidata": "Q777039", "wikipedia": "en:Guy's Hospital"}}, {"name": "Memorial Hospital", "latitude": 51.4677752, "longitude": 0.063508, "source": "osm", "_tags": {"addr:city": "London", "addr:postcode": "SE18 3RG", "addr:street": "Shooters Hill", "addr:suburb": "Woolwich", "amenity": "hospital", "healthcare": "hospital", "name": "Memorial Hospital", "phone": "+44 20 8836 8500", "website": "https://www.nhs.uk/Services/hospitals/Overview/DefaultView.aspx?id=2324", "wikidata": "Q23891198"}}, {"name": "Broomfield Hospital", "latitude": 51.7754476, "longitude": 0.4646736, "source": "osm", "_tags": {"addr:city": "Chelmsford", "addr:country": "GB", "addr:postcode": "CM1 7ET", "addr:street": "Court Road", "amenity": "hospital", "contact:website": "https://www.mse.nhs.uk/broomfield-hospital", "emergency": "yes", "healthcare": "hospital", "name": "Broomfield Hospital", "operator": "NHS;Mid and South Essex NHS Foundation Trust", "operator:type": "public", "operator:wikidata": "Q918396", "phone": "+44 1245 362000", "ref": "RQ8", "ref:GB:cqc_location": "RAJ32", "survey:date": "2023-09-03", "website": "https://www.mse.nhs.uk/", "wheelchair": "yes", "wikidata": "Q4975301", "wikipedia": "en:Broomfield Hospital"}}, {"name": "", "latitude": 51.4211265, "longitude": -0.0785948, "source": "osm", "_tags": {"amenity": "hospital", "healthcare": "hospital"}}, {"name": "Phoenix Hospital", "latitude": 51.706762, "longitude": 0.5036516, "source": "osm", "_tags": {"addr:city": "Chelmsford", "addr:postcode": "CM2 8FR", "addr:street": "West Hanningfield Road", "amenity": "hospital", "emergency": "no", "healthcare": "hospital", "name": "Phoenix Hospital", "operator": "Phoenix Hospital Group", "operator:type": "private"}}, {"name": "", "latitude": 51.6268413, "longitude": 0.2943732, "source": "osm", "_tags": {"amenity": "hospital", "building": "yes", "healthcare": "hospital"}}, {"name": "Goodmayes Hospital", "latitude": 51.5773934, "longitude": 0.1112317, "source": "osm", "_tags": {"addr:city": "Ilford", "addr:country": "GB", "addr:postcode": "IG3 8XJ", "addr:street": "Barley Lane", "amenity": "hospital", "healthcare": "hospital", "name": "Goodmayes Hospital", "operator": "North East London NHS Foundation Trust", "ref:GB:nhs_ods": "RATGM", "wikidata": "Q30293120", "wikipedia": "en:Goodmayes Hospital"}}, {"name": "Benenden Hospital", "latitude": 51.0872536, "longitude": 0.6168441, "source": "osm", "_tags": {"addr:city": "Cranbrook", "addr:postcode": "TN17 4AX", "addr:street": "Goddard's Green Road", "amenity": "hospital", "healthcare": "hospital", "name": "Benenden Hospital", "website": "https://www.benendenhospital.org.uk/", "wikidata": "Q30280033"}}, {"name": "Royal Free Hospital", "latitude": 51.5530202, "longitude": -0.1654575, "source": "osm", "_tags": {"addr:city": "London", "addr:postcode": "NW3 2QG", "addr:street": "Pond Street", "amenity": "hospital", "check_date": "2024-01-15", "emergency": "yes", "healthcare": "hospital", "name": "Royal Free Hospital", "opening_hours": "24/7", "operator": "Royal Free London", "phone": "+44 20 7794 0500", "reg_name": "Royal Free", "short_name": "RFH", "source": "OS;Bing", "website": "https://www.royalfree.nhs.uk/our-locations/royal-free-hospital", "wheelchair": "yes", "wikidata": "Q7374196", "wikipedia": "en:Royal Free Hospital"}}, {"name": "Cromwell Hospital", "latitude": 51.4952203, "longitude": -0.1911413, "source": "osm", "_tags": {"addr:housenumber": "164-178", "addr:street": "Cromwell Road", "amenity": "hospital", "healthcare": "hospital", "name": "Cromwell Hospital", "operator": "BUPA", "operator:type": "private", "phone": "+44 20 7460 5700", "was:name": "Bupa Cromwell Hospital", "website": "https://www.cromwellhospital.com/", "wikidata": "Q5187669", "wikipedia": "en:Cromwell Hospital"}}, {"name": "Worlds End Health Centre", "latitude": 51.4804604, "longitude": -0.1846804, "source": "osm", "_tags": {"addr:city": "London", "addr:housenumber": "529", "addr:postcode": "SW10 0UD", "addr:street": "King's Road", "amenity": "hospital", "building": "yes", "building:levels": "2", "healthcare": "hospital", "name": "Worlds End Health Centre"}}, {"name": "University College Hospital at Westmoreland Street", "latitude": 51.5196063, "longitude": -0.1496613, "source": "osm", "_tags": {"addr:city": "London", "addr:housenumber": "16-18", "addr:street": "Westmoreland Street", "amenity": "hospital", "emergency": "no", "fhrs:confidence_management": "0", "fhrs:hygiene": "0", "fhrs:id": "428160", "fhrs:local_authority_id": "01609/0016/0/000", "fhrs:rating": "5", "fhrs:structural": "5", "healthcare": "hospital", "name": "University College Hospital at Westmoreland Street", "operator": "University College London Hospitals NHS Foundation Trust", "postal_code": "W1G 8PH", "source:addr": "FSA Food Hygiene Ratings Database", "source:postcode": "FSA Food Hygiene Ratings Database", "wheelchair": "yes", "wikidata": "Q7739155"}}, {"name": "North Downs Hospital", "latitude": 51.2742276, "longitude": -0.0806041, "source": "osm", "_tags": {"addr:housenumber": "46", "addr:street": "Tupwood Lane", "amenity": "hospital", "name": "North Downs Hospital", "website": "https://www.northdownshospital.co.uk/", "wikidata": "Q30292801"}}, {"name": "Royal Marsden Hospital", "latitude": 51.3442848, "longitude": -0.1912482, "source": "osm", "_tags": {"amenity": "hospital", "healthcare": "hospital", "name": "Royal Marsden Hospital", "website": "https://www.royalmarsden.nhs.uk/"}}, {"name": "Beckenham Beacon", "latitude": 51.4051958, "longitude": -0.0330035, "source": "osm", "_tags": {"amenity": "hospital", "healthcare": "hospital", "name": "Beckenham Beacon", "wikidata": "Q4878645"}}, {"name": "Nuffield Health Cancer Centre London", "latitude": 51.4338573, "longitude": -0.2237476, "source": "osm", "_tags": {"amenity": "hospital", "healthcare": "hospital", "name": "Nuffield Health Cancer Centre London"}}, {"name": "St. George's Health & Wellbeing Hub", "latitude": 51.5487002, "longitude": 0.2190364, "source": "osm", "_tags": {"addr:city": "Hornchurch", "addr:housenumber": "113", "addr:postcode": "RM12 6RR", "addr:street": "Suttons Lane", "amenity": "hospital", "emergency": "no", "healthcare": "hospital", "healthcare:speciality": "community;general;blood_check;maternity;medical_imaging;geriatrics", "name": "St. George's Health & Wellbeing Hub", "operator": "NHS", "operator:type": "public", "operator:wikidata": "Q918396", "source": "https://www.nhs.uk/services/hospital/st-georges-health-and-wellbeing-hub/P8E7P"}}, {"name": "Saint Margaret's Hospital", "latitude": 51.7044115, "longitude": 0.1240188, "source": "osm", "_tags": {"amenity": "hospital", "healthcare": "hospital", "name": "Saint Margaret's Hospital", "wikidata": "Q7589867", "wikipedia": "en:St Margaret's Hospital, Epping"}}, {"name": "Cygnet Hospital Beckton", "latitude": 51.513611, "longitude": 0.0647023, "source": "osm", "_tags": {"addr:city": "London", "addr:housenumber": "23", "addr:postcode": "E6 6ZB", "addr:street": "Tunnan Leys", "amenity": "hospital", "fhrs:id": "849348", "healthcare": "hospital", "name": "Cygnet Hospital Beckton", "ref:GB:cqc_location": "1-130471820"}}, {"name": "New Victoria Hospital", "latitude": 51.4157617, "longitude": -0.2541802, "source": "osm", "_tags": {"addr:city": "Kingston upon Thames", "addr:housenumber": "184", "addr:postcode": "KT2 7EG", "addr:street": "Coombe Lane West", "amenity": "hospital", "emergency": "no", "healthcare": "hospital", "name": "New Victoria Hospital", "operator:type": "private_non_profit", "website": "https://www.newvictoria.co.uk/"}}, {"name": "Chelsea and Westminster Hospital", "latitude": 51.4843905, "longitude": -0.1814395, "source": "osm", "_tags": {"addr:city": "London", "addr:housenumber": "369", "addr:postcode": "SW10 9NH", "addr:street": "Fulham Road", "amenity": "hospital", "emergency": "yes", "healthcare": "hospital", "name": "Chelsea and Westminster Hospital", "start_date": "1993", "website": "https://www.chelwest.nhs.uk/", "wikidata": "Q5090151", "wikipedia": "en:Chelsea and Westminster Hospital"}}, {"name": "Royal Brompton Hospital", "latitude": 51.4899939, "longitude": -0.1741702, "source": "osm", "_tags": {"addr:street": "Fulham Road", "amenity": "hospital", "healthcare": "hospital", "name": "Royal Brompton Hospital", "wikidata": "Q7373850", "wikipedia": "en:Royal Brompton Hospital"}}, {"name": "Amberstone Hospital", "latitude": 50.8817862, "longitude": 0.2756319, "source": "osm", "_tags": {"addr:city": "Hailsham", "addr:hamlet": "Carters Corner", "addr:postcode": "BN27 4HU", "addr:street": "Cowbeech Road", "amenity": "hospital", "fhrs:id": "812884", "healthcare": "hospital", "name": "Amberstone Hospital", "source:addr": "FHRS Open Data", "wikidata": "Q30293128"}}, {"name": "King George Hospital", "latitude": 51.5802535, "longitude": 0.1112641, "source": "osm", "_tags": {"addr:city": "Ilford", "addr:postcode": "IG3 8YB", "addr:street": "Barley Lane", "amenity": "hospital", "emergency": "yes", "healthcare": "hospital", "name": "King George Hospital", "ref:GB:nhs_ods": "RF4DG", "wikidata": "Q6411611"}}, {"name": "Wellesley Hospital", "latitude": 51.5541559, "longitude": 0.7272229, "source": "osm", "_tags": {"amenity": "hospital", "healthcare": "hospital", "name": "Wellesley Hospital", "operator": "Spire Healthcare", "ref:GB:nhs_ods": "NT313", "website": "https://www.spirehealthcare.com/spire-wellesley-hospital/", "wheelchair": "yes"}}, {"name": "Eltham Community Hospital", "latitude": 51.4492355, "longitude": 0.0537202, "source": "osm", "_tags": {"amenity": "hospital", "building": "hospital", "healthcare": "hospital", "name": "Eltham Community Hospital", "website": "https://www.nhs.uk/services/hospital/eltham-community-hospital/RPGHP", "wikidata": "Q105376589"}}, {"name": "Queen Charlotte's & Chelsea Hospital", "latitude": 51.5163849, "longitude": -0.2373413, "source": "osm", "_tags": {"addr:city": "London", "addr:postcode": "W12 0HS", "addr:street": "Du Cane Road", "amenity": "hospital", "building": "hospital", "building:levels": "5", "check_date": "2024-01-28", "healthcare": "hospital", "internet_access": "wlan", "internet_access:fee": "no", "name": "Queen Charlotte's & Chelsea Hospital", "phone": "+44 20 3313 1111", "website": "https://www.imperial.nhs.uk/our-locations/queen-charlottes-and-chelsea-hospital", "wikidata": "Q7270242"}}, {"name": "Noah's Ark Children's Hospice", "latitude": 51.6581205, "longitude": -0.2148715, "source": "osm", "_tags": {"amenity": "hospital", "healthcare": "hospital", "healthcare:speciality": "paediatrics", "name": "Noah's Ark Children's Hospice", "wheelchair": "yes"}}, {"name": "The Horder Centre", "latitude": 51.0636102, "longitude": 0.1432421, "source": "osm", "_tags": {"addr:city": "Crowborough", "addr:postcode": "TN6 1XP", "addr:street": "St Johns Road", "amenity": "hospital", "emergency": "no", "healthcare": "hospital", "name": "The Horder Centre"}}, {"name": "The Doctors Laboratory", "latitude": 51.5280288, "longitude": -0.1280407, "source": "osm", "_tags": {"addr:city": "London", "addr:housename": "The Halo Building", "addr:housenumber": "1", "addr:street": "Mabledon Place", "amenity": "hospital", "building": "office", "check_date": "2025-06-18", "emergency": "no", "healthcare": "hospital", "healthcare:speciality": "pathology", "name": "The Doctors Laboratory", "operator": "The Doctors Laboratory Limited", "ref:GB:cqc_location": "1-5588555895", "website": "https://www.tdlpathology.com/"}}, {"name": "Gravesham Community Hospital", "latitude": 51.4436692, "longitude": 0.3652955, "source": "osm", "_tags": {"addr:city": "Gravesend", "addr:postcode": "DA11 0DG", "amenity": "hospital", "healthcare": "hospital", "name": "Gravesham Community Hospital", "opening_hours": "08:00-20:00", "phone": "+44 1474 360500", "website": "https://www.nhs.uk/nhs-services/services-near-you/", "wikidata": "Q133854031"}}, {"name": "Potters Bar Clinic", "latitude": 51.6865495, "longitude": -0.177779, "source": "osm", "_tags": {"addr:city": "Potters Bar", "addr:housenumber": "190", "addr:postcode": "EN6 2SE", "addr:street": "Barnet Road", "amenity": "hospital", "building": "hospital", "check_date": "2025-04-09", "email": "pottersbar@elysiumhealthcare.co.uk", "emergency": "yes", "healthcare": "hospital", "healthcare:speciality": "psychiatry", "name": "Potters Bar Clinic", "operator": "Elysium Healthcare", "operator:type": "private", "operator:wikidata": "Q39086513", "phone": "+44 1707 858585", "website": "https://www.elysiumhealthcare.co.uk/location/potters-bar-clinic/", "wikidata": "Q107103988"}}, {"name": "Hertford County Hospital", "latitude": 51.7965751, "longitude": -0.0887462, "source": "osm", "_tags": {"addr:postcode": "SG14 1LP", "addr:street": "North Road", "amenity": "hospital", "emergency": "no", "healthcare": "hospital", "name": "Hertford County Hospital", "operator": "East and North Hertfordshire NHS Trust", "phone": "+44 1438 314333", "website": "https://www.enherts-tr.nhs.uk/hospitals/hertford/", "wikidata": "Q5744684"}}, {"name": "Huntercombe Hospital", "latitude": 51.4477919, "longitude": -0.2422168, "source": "osm", "_tags": {"healthcare": "hospital", "name": "Huntercombe Hospital"}}, {"name": "The Cavell Hospital", "latitude": 51.6590735, "longitude": -0.1019474, "source": "osm", "_tags": {"amenity": "hospital", "emergency": "no", "healthcare": "hospital", "name": "The Cavell Hospital", "ref:GB:cqc_location": "1-128758601"}}, {"name": "Edenbridge and District War Memorial Hospital", "latitude": 51.1894389, "longitude": 0.066249, "source": "osm", "_tags": {"addr:city": "Edenbridge", "addr:housenumber": "7", "addr:postcode": "TN8 5DD", "addr:street": "Mead Road", "amenity": "hospital", "emergency": "no", "name": "Edenbridge and District War Memorial Hospital", "website": "http://www.ehlof.org.uk/ashok"}}, {"name": "Royal National ENT and Eastman Dental Hospitals", "latitude": 51.5225494, "longitude": -0.1345308, "source": "osm", "_tags": {"addr:city": "London", "addr:housenumber": "47-49", "addr:postcode": "WC1E 6DG", "addr:street": "Huntley Street", "amenity": "hospital", "check_date": "2023-09-13", "emergency": "no", "healthcare": "hospital", "healthcare:speciality": "ear_nose_throat;dentistry", "internet_access": "wlan", "name": "Royal National ENT and Eastman Dental Hospitals", "note": "New location of the Royal National ENT and Eastman Dental Hospitals. Some services will remain at Gray's Inn Road until 2020 but this is now open and the primary location.", "operator": "University College Hospitals", "operator:type": "public", "phone": "+44 20 3456 7890", "ref:GB:cqc_location": "RRVP5", "ref:GB:nhs_ods": "RRVP5", "website": "https://www.uclh.nhs.uk/OurServices/OurHospitals/RNTNE/Pages/Home.aspx"}}, {"name": "Macmillan Cancer Centre", "latitude": 51.5231171, "longitude": -0.1352014, "source": "osm", "_tags": {"addr:city": "London", "addr:postcode": "WC1E 6AG", "addr:street": "Huntley Street", "amenity": "hospital", "emergency": "no", "healthcare": "hospital", "healthcare:speciality": "oncology;chemotherapy;Haematology;surgical_oncology", "name": "Macmillan Cancer Centre", "nohousenumber": "yes", "operator": "University College Hospitals"}}, {"name": "Skin Sense GP Clinic", "latitude": 51.7472464, "longitude": 0.5130039, "source": "osm", "_tags": {"addr:city": "Chelmsford", "addr:housename": "Skin Sense", "addr:housenumber": "27", "addr:postcode": "CM2 5LB", "addr:street": "Springfield Lyons Approach", "amenity": "clinic", "building": "yes", "building:levels": "2", "description": "Private GP & Medical & Aesthetic Clinic", "healthcare": "hospital", "healthcare:speciality": "general;blood_check;dermatology;allergology;gynaecology", "name": "Skin Sense GP Clinic", "source": "Bing", "start_date": "2023-03-17", "website": "https://skinsensegpclinic.com/"}}, {"name": "Baring Road Medical Centre", "latitude": 51.435425, "longitude": 0.0194302, "source": "osm", "_tags": {"addr:city": "London", "addr:housename": "Baring Road Medical Centre", "addr:housenumber": "282", "addr:postcode": "SE12 0DS", "addr:street": "Baring Road", "addr:suburb": "Grove Park", "amenity": "hospital", "building:levels": "3", "healthcare": "hospital", "healthcare:speciality": "colposcapy", "name": "Baring Road Medical Centre", "note": "Colposcopy Clinic", "operator": "NHS", "operator:wikidata": "Q918396", "phone": "+44 20 8857 5682"}}, {"name": "Springfield University Hospital", "latitude": 51.4369882, "longitude": -0.1707934, "source": "osm", "_tags": {"addr:city": "London", "addr:housename": "Trinity Building", "addr:housenumber": "15", "addr:postcode": "SW17 0YF", "addr:street": "Springfield Drive", "amenity": "hospital", "email": "ContactCentreSPH@swlstg.nhs.uk", "healthcare": "hospital", "healthcare:speciality": "mental_health_services", "name": "Springfield University Hospital", "operator": "NHS", "operator:type": "public", "operator:wikidata": "Q918396", "phone": "+44 20 3513 5000"}}, {"name": "Hayes Priory", "latitude": 51.3729673, "longitude": 0.0146574, "source": "osm", "_tags": {"addr:city": "Bromely", "addr:county": "Kent", "addr:housename": "Priory Hospital Hayes Grove", "addr:postcode": "BR2 7AS", "addr:street": "Prestons Road", "addr:village": "Hayes", "amenity": "hospital", "building": "yes", "contact:email": "hayesgrove@priorygroup.com", "contact:phone": "+44 20 8462 7722", "healthcare": "hospital", "name": "Hayes Priory", "operator": "Priory", "operator:type": "private", "website": "https://www.priorygroup.com/locations/priory-hospital-hayes-grove"}}, {"name": "FKS Hair Clinic", "latitude": 51.4749263, "longitude": -0.1944238, "source": "osm", "_tags": {"addr:city": "London", "addr:housenumber": "109", "addr:postcode": "SW6 4SJ", "addr:street": "New King's Road", "amenity": "hospital", "contact:facebook": "https://www.facebook.com/fkshairclinic/", "description": "London's Best Hair Transplant Clinic", "email": "info@fksclinic.co.uk", "healthcare": "hospital", "healthcare:speciality": "plastic_surgery;transplant", "image": "https://www.fksclinic.co.uk/wp-content/uploads/2024/10/fks-clinic-768x576.webp", "internet_access": "yes", "mobile": "+44 7444 919835", "name": "FKS Hair Clinic", "opening_hours": "Mo-Sa 08:00-18:00", "website": "https://www.fksclinic.co.uk"}}, {"name": "Orpington Hospital", "latitude": 51.3624785, "longitude": 0.0947953, "source": "osm", "_tags": {"amenity": "hospital", "name": "Orpington Hospital", "wikidata": "Q30292829"}}, {"name": "Demelza House", "latitude": 51.3507836, "longitude": 0.6912906, "source": "osm", "_tags": {"amenity": "hospital", "healthcare": "hospital", "name": "Demelza House", "operator": "Demelza Hospice for Children"}}, {"name": "", "latitude": 51.3702113, "longitude": 0.5622653, "source": "osm", "_tags": {"amenity": "hospital", "healthcare": "hospital"}}, {"name": "Will Adams NHS Treatment Centre", "latitude": 51.3811594, "longitude": 0.5770747, "source": "osm", "_tags": {"amenity": "hospital", "emergency": "no", "healthcare": "hospital", "name": "Will Adams NHS Treatment Centre"}}, {"name": "Spire Alexandra Hospital", "latitude": 51.3279994, "longitude": 0.5264355, "source": "osm", "_tags": {"addr:city": "Chatham", "addr:country": "GB", "addr:postcode": "ME5 9PG", "addr:street": "Impton Lane", "addr:suburb": "Walderslade", "amenity": "hospital", "emergency": "no", "healthcare": "hospital", "name": "Spire Alexandra Hospital", "operator": "Spire Healthcare Group PLC", "phone": "+44 1634 934245", "website": "https://www.spirehealthcare.com/spire-alexandra-hospital/"}}, {"name": "", "latitude": 51.3365376, "longitude": 0.5063783, "source": "osm", "_tags": {"amenity": "hospital", "healthcare": "hospital"}}, {"name": "Jane Atkinson Health and Wellbeing Centre", "latitude": 51.5908869, "longitude": -0.0070046, "source": "osm", "_tags": {"addr:city": "London", "addr:housenumber": "714", "addr:postcode": "E17 3HP", "addr:street": "Forest Road", "amenity": "hospital", "check_date": "2025-05-26", "emergency": "no", "healthcare": "hospital", "healthcare:speciality": "psychiatry", "name": "Jane Atkinson Health and Wellbeing Centre", "operator": "North East London NHS Foundation Trust", "operator:type": "public", "ref:GB:nhs_ods": "RATTH", "was:wikidata": "Q7796687", "was:wikipedia": "en:Thorpe Coombe Hospital", "website": "https://www.nelft.nhs.uk/jane-atkinson-health-wellbeing-centre/"}}, {"name": "Chelmer Clinic", "latitude": 51.7743028, "longitude": 0.486797, "source": "osm", "_tags": {"amenity": "hospital", "name": "Chelmer Clinic"}}, {"name": "Nuffield Health at St Bartholomew's Hospital", "latitude": 51.5173292, "longitude": -0.1010719, "source": "osm", "_tags": {"addr:city": "London", "addr:housenumber": "38", "addr:street": "Giltspur Street", "amenity": "hospital", "healthcare": "hospital", "name": "Nuffield Health at St Bartholomew's Hospital", "operator": "Nuffield Health", "operator:type": "private", "operator:wikidata": "Q7068711", "ref:GB:cqc_location": "1-11984358600"}}, {"name": "National Hospital for Neurology and Neurosurgery", "latitude": 51.5221919, "longitude": -0.1224733, "source": "osm", "_tags": {"addr:city": "London", "addr:postcode": "WC1N 3BG", "addr:street": "Queen Square", "amenity": "hospital", "emergency": "no", "healthcare": "hospital", "name": "National Hospital for Neurology and Neurosurgery", "operator": "NHS", "operator:type": "public", "operator:wikidata": "Q918396", "phone": "+44 20 3456 7890", "ref:GB:cqc_location": "RRVNQ", "ref:GB:nhs_ods": "RRVNQ", "toilets:wheelchair": "yes", "website": "https://www.uclh.nhs.uk/ourservices/ourhospitals/nhnn/Pages/Home.aspx", "wheelchair": "yes", "wikidata": "Q3336892"}}, {"name": "Royal London Hospital for Integrated Medicine", "latitude": 51.5217696, "longitude": -0.1214747, "source": "osm", "_tags": {"amenity": "hospital", "healthcare": "hospital", "name": "Royal London Hospital for Integrated Medicine", "old_name": "Royal Homeopathic Hospital", "ref:GB:cqc_location": "RRV60", "ref:GB:nhs_ods": "RRV60", "website": "https://www.uclh.nhs.uk/ourservices/ourhospitals/rlhim/Pages/Home.aspx", "wheelchair": "yes", "wikidata": "Q7374417"}}, {"name": "", "latitude": 51.1354262, "longitude": -0.1889856, "source": "osm", "_tags": {"amenity": "hospital", "healthcare": "hospital"}}, {"name": "Royal Sussex County Hospital", "latitude": 50.8190632, "longitude": -0.1189966, "source": "osm", "_tags": {"addr:city": "Brighton", "addr:postcode": "BN2 5BE", "addr:street": "Eastern Road", "amenity": "hospital", "emergency": "yes", "healthcare": "hospital", "name": "Royal Sussex County Hospital", "operator": "Brighton and Sussex University Hospitals NHS Trust", "website": "https://www.uhsussex.nhs.uk/hospitals/royal-sussex-county-hospital/", "wikidata": "Q7374890", "wikipedia": "en:Royal Sussex County Hospital"}}, {"name": "Royal Sussex County Hospital", "latitude": 50.8187514, "longitude": -0.1204373, "source": "osm", "_tags": {"addr:city": "Brighton", "addr:postcode": "BN2 5BE", "addr:street": "Eastern Road", "amenity": "hospital", "emergency": "yes", "healthcare": "hospital", "name": "Royal Sussex County Hospital", "operator": "Brighton and Sussex University Hospitals NHS Trust", "website": "https://www.uhsussex.nhs.uk/hospitals/royal-sussex-county-hospital/", "wikidata": "Q7374890", "wikipedia": "en:Royal Sussex County Hospital"}}, {"name": "Royal Sussex County Hospital", "latitude": 50.8192399, "longitude": -0.1188742, "source": "osm", "_tags": {"addr:city": "Brighton", "addr:postcode": "BN2 5BE", "addr:street": "Eastern Road", "amenity": "hospital", "emergency": "yes", "healthcare": "hospital", "name": "Royal Sussex County Hospital", "operator": "Brighton and Sussex University Hospitals NHS Trust", "website": "https://www.uhsussex.nhs.uk/hospitals/royal-sussex-county-hospital/", "wikidata": "Q7374890", "wikipedia": "en:Royal Sussex County Hospital"}}, {"name": "Royal Sussex County Hospital", "latitude": 50.8188066, "longitude": -0.1178743, "source": "osm", "_tags": {"addr:city": "Brighton", "addr:postcode": "BN2 5BE", "addr:street": "Eastern Road", "amenity": "hospital", "emergency": "yes", "healthcare": "hospital", "name": "Royal Sussex County Hospital", "operator": "Brighton and Sussex University Hospitals NHS Trust", "website": "https://www.uhsussex.nhs.uk/hospitals/royal-sussex-county-hospital/", "wikidata": "Q7374890", "wikipedia": "en:Royal Sussex County Hospital"}}, {"name": "Conquest Hospital", "latitude": 50.8850851, "longitude": 0.5677866, "source": "osm", "_tags": {"addr:city": "Hastings", "addr:postcode": "TN37 7RD", "addr:street": "The Ridge", "amenity": "hospital", "contact:phone": "+44 01424 755255", "contact:website": "https://www.nhs.uk/Services/hospitals/Overview/DefaultView.aspx?id=RXC01", "healthcare": "hospital", "name": "Conquest Hospital", "wheelchair": "yes", "wikidata": "Q5162425"}}, {"name": "Mill View Hospital", "latitude": 50.8428052, "longitude": -0.1909058, "source": "osm", "_tags": {"amenity": "hospital", "building": "yes", "healthcare": "hospital", "name": "Mill View Hospital", "type": "multipolygon"}}, {"name": "Newham Centre for Mental Health", "latitude": 51.5202848, "longitude": 0.0388136, "source": "osm", "_tags": {"addr:city": "London", "addr:postcode": "E13 8SP", "addr:street": "Cherry Tree Way", "addr:suburb": "Plaistow", "amenity": "hospital", "building": "yes", "emergency": "no", "healthcare": "hospital", "name": "Newham Centre for Mental Health", "operator": "East London NHS Foundation Trust", "ref:GB:cqc_location": "RWK46", "ref:GB:uprn": "10012837041", "type": "multipolygon", "website": "https://www.elft.nhs.uk/services/newham-centre-mental-health"}}, {"name": "City & Hackney Centre for Mental Health", "latitude": 51.5503279, "longitude": -0.0444111, "source": "osm", "_tags": {"amenity": "hospital", "building": "hospital", "building:levels": "2", "healthcare": "hospital", "name": "City & Hackney Centre for Mental Health", "nohousenumber": "yes", "official_name": "Adult Mental Health Services - City and Hackney Directorate", "ref:GB:cqc_location": "RWK62", "roof:levels": "0", "roof:shape": "quadruple_saltbox", "type": "multipolygon"}}, {"name": "East Surrey Hospital", "latitude": 51.2188913, "longitude": -0.1623128, "source": "osm", "_tags": {"amenity": "hospital", "building": "yes", "emergency": "yes", "healthcare": "hospital", "internet_access": "wlan", "internet_access:fee": "no", "name": "East Surrey Hospital", "type": "multipolygon", "wheelchair": "yes", "wheelchair:description": "Wide Automatic doors at entrances. Accessible WCs located near Main and East Entrances, see map detail.", "wikidata": "Q14956872"}}, {"name": "Maudsley Hospital", "latitude": 51.4690387, "longitude": -0.0902554, "source": "osm", "_tags": {"addr:city": "London", "addr:postcode": "SE5 8AZ", "addr:street": "Denmark Hill", "amenity": "hospital", "emergency": "no", "healthcare": "hospital", "healthcare:speciality": "psychiatry", "name": "Maudsley Hospital", "operator": "South London and Maudsley NHS Foundation Trust", "phone": "+44 20 3228 6000", "type": "multipolygon", "website": "https://www.slam.nhs.uk/", "wikidata": "Q6792344", "wikipedia": "en:Maudsley Hospital"}}, {"name": "London Clinic", "latitude": 51.5229039, "longitude": -0.1499741, "source": "osm", "_tags": {"addr:city": "London", "addr:housenumber": "20", "addr:postcode": "W1G 6BW", "addr:street": "Devonshire Place", "amenity": "hospital", "healthcare": "hospital", "name": "London Clinic", "source": "OS", "type": "multipolygon", "website": "https://www.thelondonclinic.co.uk/", "wikidata": "Q14996990", "wikipedia": "en:The London Clinic"}}, {"name": "The Priory", "latitude": 51.4622574, "longitude": -0.2516039, "source": "osm", "_tags": {"addr:city": "London", "addr:housename": "The Roehampton Priory Hospital", "addr:postcode": "SW15 5JJ", "addr:street": "Priory Lane", "amenity": "hospital", "emergency": "no", "fhrs:id": "1572541", "healthcare": "hospital", "name": "The Priory", "source:addr": "FHRS Open Data", "type": "multipolygon", "wikidata": "Q7245500"}}]