[{"name": "Haus Gilead I", "latitude": 52.0139033, "longitude": 8.5253601, "source": "osm", "_tags": {"addr:city": "Bielefeld", "addr:country": "DE", "addr:housenumber": "13", "addr:postcode": "33617", "addr:street": "Burgsteig", "description": "Evangelisches Klinikum Bethel (EvKB) - Haus Gilead I", "email": "info@evkb.de", "emergency": "yes", "healthcare": "hospital", "name": "Haus Gilead I", "opening_hours": "24/7", "operator": "Evangelisches Klinikum Bethel gGmbH", "phone": "+49-521-772700", "source": "Evangelisches Klinikum Bethel (EvKB)", "website": "https://www.evkb.de/", "wheelchair": "yes", "wikidata": "Q1381343", "wikipedia": "de:Evangelisches Klinikum Bethel"}}, {"name": "", "latitude": 52.0417494, "longitude": 8.5406865, "source": "osm", "_tags": {"addr:city": "Bielefeld", "addr:country": "DE", "addr:housenumber": "99", "addr:postcode": "33611", "addr:street": "Schildescher Straße", "description": "Allgemein- und Viszeralchirurgie, Bauchzentrum, Brustzentrum, Kontinenzzentrum, Tumorzentrum, Wundtherapiezentrum, Urologie, Nephrologie, Nuklearmedizin, Diabetologie, Gefäßchirurgie, Prostatakrebszentrum, Neurologie, Schlaflabor, Zentrale Notaufnahme", "email": "info@evkb.de", "emergency": "yes", "healthcare": "hospital", "healthcare:speciality": "urology;neurology;internal;radiology;physiotherapy;surgery;sleep", "loc_name": "Johannes-Krankenhaus / Johanneskrankenhaus", "operator": "Evangelisches Klinikum Bethel gGmbH", "phone": "+49 521 772-702", "source": "Evangelisches Klinikum Bethel (EvKB)", "website": "https://evkb.de/", "wheelchair": "yes", "wikidata": "Q1381343", "wikipedia": "de:Evangelisches Klinikum Bethel"}}, {"name": "St. Lucia", "latitude": 51.963272, "longitude": 8.2253845, "source": "osm", "_tags": {"addr:city": "Harsewinkel", "addr:housenumber": "3", "addr:postcode": "33428", "addr:street": "Dechant-Budde-Weg", "amenity": "hospital", "building": "yes", "emergency": "no", "healthcare": "hospital", "healthcare:speciality": "geriatrics", "name": "St. Lucia", "name:etymology:wikidata": "Q183240", "source:building": "OpenData Kreis Gütersloh - NAS", "website": "https://www.sankt-elisabeth-hospital.de/de/medizin/fachbereiche/geriatrie.php", "wheelchair": "yes"}}, {"name": "Marienhospital Osnabrück", "latitude": 52.2702301, "longitude": 8.0537541, "source": "osm", "_tags": {"addr:city": "Osnabrück", "addr:housenumber": "1", "addr:postcode": "49074", "addr:street": "Bischofsstraße", "amenity": "hospital", "contact:email": "information@mho.de", "contact:fax": "+49-541-326-3001", "contact:phone": "+49-541-326-0", "contact:website": "http://www.niels-stensen-kliniken.de/marienhospital-osnabrueck.html", "emergency": "yes", "healthcare": "hospital", "name": "Marienhospital Osnabrück", "operator": "Niels-Stensen-Kliniken", "short_name": "MHO", "toilets:wheelchair": "yes", "wheelchair": "yes", "wikidata": "Q1897718", "wikipedia": "de:Marienhospital Osnabrück"}}, {"name": "St. Josef-Stift", "latitude": 51.8414284, "longitude": 7.8211426, "source": "osm", "_tags": {"amenity": "hospital", "contact:website": "https://www.st-josef-stift.de/", "healthcare": "hospital", "name": "St. Josef-Stift", "toilets:wheelchair": "yes", "wheelchair": "yes", "wikidata": "Q29573091"}}, {"name": "LWL-Klinik Gütersloh", "latitude": 51.8962346, "longitude": 8.3504278, "source": "osm", "_tags": {"addr:city": "Gütersloh", "addr:housenumber": "50", "addr:postcode": "33334", "addr:street": "Buxelstraße", "amenity": "hospital", "emergency": "no", "healthcare": "hospital", "healthcare:speciality": "psychiatry", "name": "LWL-Klinik Gütersloh", "operator": "Landschaftsverband Westfalen-Lippe", "toilets:wheelchair": "yes", "website": "https://www.lwl-klinikum-guetersloh.de/de/", "wheelchair": "yes", "wikidata": "Q1798472"}}, {"name": "Sankt Elisabeth Hospital", "latitude": 51.8824224, "longitude": 8.3814439, "source": "osm", "_tags": {"addr:city": "Gütersloh", "addr:housenumber": "130", "addr:postcode": "33332", "addr:street": "Stadtring Kattenstroth", "amenity": "hospital", "emergency": "yes", "healthcare": "hospital", "name": "Sankt Elisabeth Hospital", "website": "https://www.sankt-elisabeth-hospital.de/", "wheelchair": "yes", "wikidata": "Q2221900"}}, {"name": "Klinikum Gütersloh", "latitude": 51.8974159, "longitude": 8.3850347, "source": "osm", "_tags": {"addr:city": "Gütersloh", "addr:country": "DE", "addr:housenumber": "19", "addr:postcode": "33332", "addr:street": "Reckenberger Straße", "amenity": "hospital", "emergency": "yes", "healthcare": "hospital", "name": "Klinikum Gütersloh", "website": "https://www.klinikum-guetersloh.de/", "wheelchair": "yes", "wikidata": "Q1774616"}}, {"name": "Christliches Kinderhospital Osnabrück", "latitude": 52.2698941, "longitude": 8.0530625, "source": "osm", "_tags": {"addr:city": "Osnabrück", "addr:country": "DE", "addr:housenumber": "1", "addr:postcode": "49074", "addr:street": "Johannisfreiheit", "amenity": "hospital", "check_date": "2025-07-27", "contact:email": "info@ckos.de", "contact:fax": "+49-541-7000-6942", "contact:phone": "+49-541-7000-6000", "contact:website": "http://www.ckos.de", "emergency": "yes", "healthcare": "hospital", "name": "Christliches Kinderhospital Osnabrück", "opening_hours": "24/7", "short_name": "CKO", "toilets:wheelchair": "yes", "wheelchair": "yes", "wikidata": "Q60560381"}}, {"name": "Klinikum Herford", "latitude": 52.1270427, "longitude": 8.6998588, "source": "osm", "_tags": {"amenity": "hospital", "contact:fax": "+49 5221 42649", "contact:phone": "+49 5221 94-0", "contact:website": "https://www.klinikum-herford.de/", "emergency": "yes", "healthcare": "hospital", "name": "Klinikum Herford", "opening_hours": "24/7", "wheelchair": "yes", "wikidata": "Q1774618", "wikipedia": "de:Klinikum Herford"}}, {"name": "Mathilden-Hospital Herford", "latitude": 52.1120115, "longitude": 8.6750338, "source": "osm", "_tags": {"amenity": "hospital", "contact:fax": "+49 5221 593-4204", "email": "info@mathilden-hospital.de", "emergency": "yes", "emergency:phone": "+49 5221 5932121", "healthcare": "hospital", "name": "Mathilden-Hospital Herford", "operator": "Katholische Hospitalvereinigung Ostwestfalen", "phone": "+49 5221 593-0", "website": "https://www.mathilden-hospital.de/de/", "wikidata": "Q1562930", "wikipedia": "de:Mathilden-Hospital (Herford)"}}, {"name": "Kinderklinik", "latitude": 52.1263464, "longitude": 8.6991914, "source": "osm", "_tags": {"amenity": "hospital", "building": "hospital", "building:colour": "#B1A3A0", "building:levels": "1", "emergency": "yes", "healthcare": "hospital", "healthcare:speciality": "paediatrics", "height": "4", "name": "Kinderklinik", "operator": "Klinikum Herford", "operator:type": "public", "roof:colour": "#B1A3A0", "wheelchair": "yes"}}, {"name": "Evangelische Krankenhaus Enger", "latitude": 52.1398741, "longitude": 8.5648676, "source": "osm", "_tags": {"addr:city": "Enger", "addr:housenumber": "47", "addr:postcode": "32130", "addr:street": "Hagenstraße", "amenity": "hospital", "emergency": "no", "healthcare": "hospital", "name": "Evangelische Krankenhaus Enger", "website": "https://www.krankenhaus-enger.de", "wheelchair": "yes"}}, {"name": "Lukas-Krankenhaus", "latitude": 52.198184, "longitude": 8.5946289, "source": "osm", "_tags": {"addr:city": "Bünde", "addr:housenumber": "56", "addr:postcode": "32257", "addr:street": "Hindenburgstraße", "alt_name": "Lukaskrankenhaus", "amenity": "hospital", "check_date": "2025-02-16", "contact:email": "info@lukas-krankenhaus.de", "contact:fax": "+49 5223 167-192", "contact:phone": "+49 5223 167-0", "contact:website": "http://www.lukas-krankenhaus.de", "emergency": "yes", "healthcare": "hospital", "name": "Lukas-Krankenhaus", "official_name": "Lukas-Krankenhaus Bünde", "toilets:wheelchair": "yes", "wheelchair": "limited", "wikidata": "Q1876864", "wikipedia": "de:Lukas-Krankenhaus Bünde"}}, {"name": "Sankt Vinzenz Hospital", "latitude": 51.8328322, "longitude": 8.3305795, "source": "osm", "_tags": {"amenity": "hospital", "healthcare": "hospital", "name": "Sankt Vinzenz Hospital", "wheelchair": "yes"}}, {"name": "Maria Frieden", "latitude": 51.9880491, "longitude": 7.817566, "source": "osm", "_tags": {"addr:city": "Telgte", "addr:country": "DE", "addr:housenumber": "1", "addr:postcode": "48291", "addr:street": "Am Krankenhaus", "amenity": "hospital", "check_date": "2024-04-08", "contact:fax": "+49 2504 672000", "contact:phone": "+49 2504 670", "contact:website": "https://www.maria-frieden-telgte.de/", "emergency": "no", "healthcare": "rehabilitation", "healthcare:speciality": "geriatrics;neurology", "name": "Maria Frieden", "operator": "Franziskus-Stiftung Münster", "operator:type": "religious"}}, {"name": "Josephs-Hospital", "latitude": 51.9607739, "longitude": 8.0023675, "source": "osm", "_tags": {"addr:city": "Warendorf", "addr:country": "DE", "addr:housenumber": "2", "addr:postcode": "48231", "addr:street": "Am Krankenhaus", "amenity": "hospital", "contact:email": "info@jhwaf.de", "contact:fax": "+49 2581 201003", "contact:phone": "+49 2581 200", "contact:website": "http://jhwaf.de/", "emergency": "yes", "name": "Josephs-Hospital", "operator": "Stiftung Josephs-Hospital Warendorf", "wheelchair": "yes"}}, {"name": "Franziskus-Hospital Harderberg", "latitude": 52.2377281, "longitude": 8.0721747, "source": "osm", "_tags": {"addr:city": "Georgsmarienhütte", "addr:housenumber": "23", "addr:postcode": "49124", "addr:street": "Alte Rothenfelder Straße", "alt_name": "Klinikum St. Georg GmbH", "amenity": "hospital", "contact:phone": "+49 541 5020", "contact:website": "http://www.niels-stensen-kliniken.de/franziskus-hospital-harderberg.html", "emergency": "yes", "healthcare": "hospital", "name": "Franziskus-Hospital Harderberg", "operator": "Niels-Stensen-Kliniken"}}, {"name": "Klinikum Osnabrück", "latitude": 52.2781976, "longitude": 8.0025079, "source": "osm", "_tags": {"addr:city": "Osnabrück", "addr:housenumber": "1", "addr:postcode": "49076", "addr:street": "Am Finkenhügel", "alt_name": "Klinikum am Finkenhügel Osnabrück", "amenity": "hospital", "check_date": "2025-07-09", "emergency": "yes", "healthcare": "hospital", "hospital:level:DE": "3", "name": "Klinikum Osnabrück", "operator": "Stadt Osnabrück", "website": "https://www.klinikum-os.de/", "wheelchair": "yes", "wikidata": "Q15823873"}}, {"name": "Kinderhospital Osnabrück", "latitude": 52.2518192, "longitude": 8.0646915, "source": "osm", "_tags": {"addr:city": "Osnabrück", "addr:country": "DE", "addr:housenumber": "187", "addr:postcode": "49082", "addr:street": "Iburger Straße", "amenity": "hospital", "emergency": "no", "healthcare": "hospital", "healthcare:speciality": "child_psychiatry", "name": "Kinderhospital Osnabrück", "source": "frida", "wheelchair": "yes", "wikidata": "Q1741819", "wikipedia": "de:Kinderhospital Osnabrück"}}, {"name": "Krankenhaus Lübbecke", "latitude": 52.2957885, "longitude": 8.6038136, "source": "osm", "_tags": {"addr:city": "Lübbecke", "addr:housenumber": "65", "addr:postcode": "32312", "addr:street": "Virchowstraße", "amenity": "hospital", "contact:email": "information-luebbecke@muehlenkreiskliniken.de", "contact:fax": "+49 5741 9999", "contact:phone": "+49 5741 350", "contact:website": "https://www.muehlenkreiskliniken.de/krankenhaus-luebbecke.html", "emergency": "yes", "healthcare": "hospital", "name": "Krankenhaus Lübbecke", "opening_hours": "24/7", "operator": "Mühlenkreisklinik AöR"}}, {"name": "Klinikum Bielefeld Rosenhöhe", "latitude": 51.9823661, "longitude": 8.5323312, "source": "osm", "_tags": {"addr:city": "Bielefeld", "addr:country": "DE", "addr:housenumber": "27", "addr:postcode": "33647", "addr:street": "An der Rosenhöhe", "amenity": "hospital", "email": "info@klinikumbielefeld.de", "emergency": "yes", "healthcare": "hospital", "healthcare:speciality": "dermatology;geriatrics;internal;ophthalmology;orthopaedics;surgery;trauma", "name": "Klinikum Bielefeld Rosenhöhe", "opening_hours": "24/7", "operator": "Klinikum Bielefeld gem. GmbH", "phone": "+49 521 943-50", "toilets:wheelchair": "no", "website": "https://www.klinikumbielefeld.de/fachkliniken-bielefeld-rosenhoehe.html", "wheelchair": "yes"}}, {"name": "Klinikum Bielefeld Mitte", "latitude": 52.0144103, "longitude": 8.5445336, "source": "osm", "_tags": {"addr:city": "Bielefeld", "addr:country": "DE", "addr:housenumber": "50", "addr:postcode": "33604", "addr:street": "Teutoburger Straße", "amenity": "hospital", "email": "info@klinikumbielefeld.de", "emergency": "yes", "healthcare": "hospital", "hospital:level:DE": "3", "name": "Klinikum Bielefeld Mitte", "opening_hours": "24/7", "operator": "Klinikum Bielefeld gem. GmbH", "phone": "+49 521 581-0", "website": "https://www.klinikumbielefeld.de/", "wheelchair": "yes", "wikidata": "Q1774594"}}, {"name": "Evangelisches Klinikum Bethel", "latitude": 52.0134833, "longitude": 8.5255207, "source": "osm", "_tags": {"addr:city": "Bielefeld", "addr:country": "DE", "addr:housenumber": "11", "addr:postcode": "33617", "addr:street": "Kantensiek", "amenity": "hospital", "contact:fax": "+49 521 772 78013", "contact:phone": "+49 521 772 78011", "contact:website": "https://www.evkb.de/", "description": "Evangelisches Klinikum Bethel Standort Bethel", "email": "info@evkb.de", "emergency": "yes", "healthcare": "hospital", "name": "Evangelisches Klinikum Bethel", "operator": "Evangelisches Klinikum Bethel gGmbH", "phone": "+49 521 772 78011", "website": "https://evkb.de/", "wheelchair": "yes"}}, {"name": "Kinderzentrum Bethel", "latitude": 52.0119323, "longitude": 8.5300139, "source": "osm", "_tags": {"addr:city": "Bielefeld", "addr:country": "DE", "addr:housenumber": "10", "addr:postcode": "33617", "addr:street": "Grenzweg", "alt_name": "Evangelisches Klinikum Bethel Kinderzentrum", "amenity": "hospital", "check_date": "2025-06-06", "email": "kinderklinik@evkb.de", "emergency": "yes", "fixme": "muss noch weiter ergänzt werden", "healthcare": "hospital", "name": "Kinderzentrum Bethel", "operator": "Evangelisches Klinikum Bethel gGmbH", "phone": "+49 521 772-705", "website": "https://evkb.de/kliniken-zentren/zentren/kinderzentrum/", "wheelchair": "yes"}}, {"name": "Helios Klinik Lengerich", "latitude": 52.1987656, "longitude": 7.8434526, "source": "osm", "_tags": {"addr:city": "Lengerich", "addr:housenumber": "49", "addr:postcode": "49525", "addr:street": "Martin-Luther-Straße", "amenity": "hospital", "contact:email": "info.lengerich@helios-gesundheit.de", "contact:fax": "+49 5481 801-685", "contact:phone": "+49 5481 801-0", "contact:website": "https://www.helios-gesundheit.de/kliniken/lengerich/", "emergency": "yes", "healthcare": "hospital", "name": "Helios Klinik Lengerich", "operator": "Helios Kliniken", "operator:wikidata": "Q1254151", "wheelchair": "yes"}}, {"name": "Klinikum Halle (Westf.)", "latitude": 52.0545192, "longitude": 8.3548009, "source": "osm", "_tags": {"amenity": "hospital", "contact:email": "info@klinikumhalle.de", "contact:phone": "+49 5201 188-0", "contact:website": "https://www.klinikumbielefeld.de/fachkliniken-halle-westfalen.html", "emergency": "yes", "healthcare": "hospital", "name": "Klinikum Halle (Westf.)", "opening_hours": "24/7", "operator": "Betriebsleitung der Klinikum Bielefeld gem. GmbH", "wheelchair": "yes"}}, {"name": "Franziskus Hospital", "latitude": 52.0227162, "longitude": 8.5231108, "source": "osm", "_tags": {"addr:city": "Bielefeld", "addr:country": "DE", "addr:housenumber": "26", "addr:postcode": "33615", "addr:street": "Kiskerstraße", "amenity": "hospital", "email": "info@franziskus.de", "emergency": "yes", "emergency_telephone_code": "+49 521 589 1351", "fax": "+49 521 589-4204", "healthcare": "hospital", "loc_name": "Klösterchen", "name": "Franziskus Hospital", "opening_hours": "24/7", "operator": "Franziskus Hospital Bielefeld", "phone": "+49 521 589-0", "website": "http://www.franziskus.de/", "wheelchair": "yes", "wikidata": "Q1450404"}}, {"name": "Johannesstift", "latitude": 52.0424293, "longitude": 8.5402014, "source": "osm", "_tags": {"addr:city": "Bielefeld", "addr:country": "DE", "addr:housenumber": "99", "addr:postcode": "33611", "addr:street": "Schildescher Straße", "amenity": "hospital", "contact:phone": "+49 521 772-702", "contact:website": "https://evkb.de/", "email": "info@evkb.de", "emergency": "yes", "healthcare": "hospital", "name": "Johannesstift", "operator": "Evangelisches Klinikum Bethel gGmbH", "phone": "+49 521 772-702", "website": "https://evkb.de/ueber-uns/standorte-anfahrt/johannesstift/", "wikidata": "Q1381343", "wikipedia": "de:Evangelisches Klinikum Bethel"}}, {"name": "Marienhospital", "latitude": 51.8219153, "longitude": 8.1424854, "source": "osm", "_tags": {"amenity": "hospital", "emergency": "yes", "healthcare": "hospital", "name": "Marienhospital", "opening_hours": "24/7"}}, {"name": "Kinderzentrum Haus 2", "latitude": 52.0113194, "longitude": 8.5314571, "source": "osm", "_tags": {"addr:city": "Bielefeld", "addr:country": "DE", "addr:housenumber": "14", "addr:postcode": "33617", "addr:street": "Grenzweg", "amenity": "hospital", "description": "Kinderzentrum im Evangelischen Klinikum Bethel (EvKB) - Haus II", "email": "kindertagesklinik@evkb.de", "emergency": "yes", "healthcare": "hospital", "name": "Kinderzentrum Haus 2", "operator": "Evangelisches Klinikum Bethel gGmbH", "phone": "+49-521-77278050", "source": "Evangelisches Klinikum Bethel gGmbH", "website": "https://evkb.de/kliniken-zentren/zentren/kinderzentrum/", "wheelchair": "yes", "wikidata": "Q1381343", "wikipedia": "de:Evangelisches Klinikum Bethel"}}, {"name": "Krankenhaus Mara", "latitude": 52.0069768, "longitude": 8.5281024, "source": "osm", "_tags": {"addr:city": "Bielefeld", "addr:country": "DE", "addr:housename": "Mara", "addr:housenumber": "21", "addr:postcode": "33617", "addr:street": "Maraweg", "amenity": "hospital", "email": "info@mara.de", "emergency": "yes", "healthcare": "hospital", "name": "Krankenhaus Mara", "note": "Epilepsie-Zentrum Bethel und Zentrum für Behindertenmedizin", "phone": "+49 0521 772-701", "source": "Krankenhaus Mara gGmbH", "website": "https://www.mara.de/", "wheelchair": "yes", "wikidata": "Q1381343", "wikipedia": "de:Evangelisches Klinikum Bethel"}}, {"name": "Krankenhaus Sankt Raphael Ostercappeln", "latitude": 52.3442425, "longitude": 8.230239, "source": "osm", "_tags": {"amenity": "hospital", "emergency": "yes", "healthcare": "hospital", "name": "Krankenhaus Sankt Raphael Ostercappeln", "note": "Krankenhaus wird zum 31.07.2025 dauerhaft geschlossen.", "note:source": "https://www.niels-stensen-kliniken.de/aktuelles/medizinstrategie.html", "operator": "Niels-Stensen-Kliniken", "phone": "+49 5473 29 0", "website": "https://www.niels-stensen-kliniken.de/krankenhaus-st-raphael.html", "wheelchair": "yes"}}, {"name": "Schüchtermann-Klinik", "latitude": 52.1126522, "longitude": 8.1643976, "source": "osm", "_tags": {"addr:city": "Bad Rothenfelde", "addr:country": "DE", "addr:housenumber": "5-11", "addr:postcode": "49214", "addr:street": "Ulmenallee", "amenity": "hospital", "building": "hospital", "contact:email": "empfang@schuechtermann-klinik.de", "contact:fax": "+49 5424 641 598", "contact:phone": "+49 5424 641 0", "contact:website": "http://www.schuechtermann-klinik.de", "emergency": "yes", "healthcare": "hospital", "name": "Schüchtermann-Klinik", "type": "multipolygon", "wikipedia": "de:Schüchtermann"}}, {"name": "Christliches Klinikum Melle", "latitude": 52.1986424, "longitude": 8.3364486, "source": "osm", "_tags": {"addr:city": "Melle", "addr:housenumber": "3", "addr:postcode": "49324", "addr:street": "Engelgarten", "amenity": "hospital", "building": "yes", "email": "info@ck-melle.de", "emergency": "yes", "fax": "+49 5422 104 5599", "healthcare": "hospital", "name": "Christliches Klinikum Melle", "opening_hours": "24/7", "phone": "+49 5422 104 0", "type": "multipolygon", "website": "https://www.niels-stensen-kliniken.de/christliches-klinikum-melle.html", "wheelchair": "yes"}}, {"name": "AMEOS Klinikum Osnabrück", "latitude": 52.2860443, "longitude": 8.0536599, "source": "osm", "_tags": {"addr:city": "Osnabrück", "addr:postcode": "49088", "amenity": "hospital", "area": "yes", "emergency": "no", "healthcare": "hospital", "healthcare:speciality": "psychiatry", "name": "AMEOS Klinikum Osnabrück", "old_name": "Provinzialständige Irrenanstalt Osnabrück;Landeskrankenhaus Osnabrück", "operator": "Ameos", "operator:type": "private", "operator:wikidata": "Q462865", "operator:wikipedia": "de:Ameos", "type": "multipolygon", "website": "https://www.ameos.eu/standorte/ameos-west/osnabrueck/ameos-klinikum-osnabrueck/", "wikidata": "Q54046715", "wikipedia": "de:Ameos Klinikum Osnabrück"}}, {"name": "Sankt Rochus-Hospital Telgte", "latitude": 51.9790205, "longitude": 7.7639045, "source": "osm", "_tags": {"amenity": "hospital", "emergency": "yes", "healthcare": "hospital", "healthcare:speciality": "psychiatry", "name": "Sankt Rochus-Hospital Telgte", "operator": "St. Franziskus-Stiftung Münster", "operator:type": "private_non_profit", "operator:wikidata": "Q2318238", "short_name": "Rochus-Hospital", "type": "multipolygon", "website": "https://www.srh-telgte.de/", "wheelchair": "yes", "wikidata": "Q1542283", "wikipedia": "de:St. Rochus-Hospital Telgte"}}]