[{"name": "MediClin Deister Weser Kliniken Haus Weser", "latitude": 52.2083877, "longitude": 9.4702601, "source": "osm", "_tags": {"addr:city": "Bad Münder am Deister", "addr:housenumber": "5", "addr:postcode": "31848", "addr:street": "Lug ins Land", "amenity": "hospital", "healthcare": "rehabilitation", "healthcare:speciality": "oncology;physiatry;psychiatry;behavior", "name": "MediClin Deister Weser Kliniken Haus Weser", "operator": "MediClin Deister Weser Kliniken", "toilets:wheelchair": "yes", "wheelchair": "yes"}}, {"name": "Deister-Süntel-Klinik - Fachkrankenhaus für Innere Medizin", "latitude": 52.2081747, "longitude": 9.4739455, "source": "osm", "_tags": {"addr:city": "Bad Münder am Deister", "addr:housenumber": "36", "addr:postcode": "31848", "addr:street": "Deisterallee", "amenity": "hospital", "healthcare": "hospital", "healthcare:speciality": "geriatrics;internal;palliative;nephrology", "name": "Deister-Süntel-Klinik - Fachkrankenhaus für Innere Medizin"}}, {"name": "Ev. Krankenhaus Holzminden", "latitude": 51.8344742, "longitude": 9.4551415, "source": "osm", "_tags": {"amenity": "hospital", "healthcare": "hospital", "name": "Ev. Krankenhaus Holzminden"}}, {"name": "Kinderchirurgie am Deister", "latitude": 52.1999449, "longitude": 9.4615446, "source": "osm", "_tags": {"addr:city": "Bad Münder am Deister", "addr:housenumber": "4a", "addr:postcode": "31848", "addr:street": "Vor dem Oberntore", "amenity": "hospital", "healthcare": "hospital", "healthcare:speciality": "paediatric_surgery", "name": "Kinderchirurgie am Deister", "operator": "Kassenärztliche Vereinigung - KVN", "operator:type": "government_facility-public"}}, {"name": "Elithera Gesundheitszentrum Bad Münder", "latitude": 52.1999599, "longitude": 9.4615511, "source": "osm", "_tags": {"addr:city": "Bad Münder am Deister", "addr:housenumber": "4a", "addr:postcode": "31848", "addr:street": "Vor dem Oberntore", "amenity": "hospital", "healthcare": "hospital", "healthcare:speciality": "physiatry", "name": "Elithera Gesundheitszentrum Bad Münder", "operator": "Elithera"}}, {"name": "Krankenhaus Bad Oeynhausen", "latitude": 52.1935285, "longitude": 8.7974217, "source": "osm", "_tags": {"addr:city": "Bad Oeynhausen", "addr:country": "DE", "addr:housenumber": "28", "addr:postcode": "32545", "addr:street": "Wielandstraße", "amenity": "hospital", "emergency": "yes", "healthcare": "hospital", "name": "Krankenhaus Bad Oeynhausen", "phone": "+49 5731 770", "website": "https://www.muehlenkreiskliniken.de/krankenhaus-bad-oeynhausen", "wheelchair": "yes"}}, {"name": "KRH Klinikum Robert Koch Gehrden", "latitude": 52.3040407, "longitude": 9.5978338, "source": "osm", "_tags": {"addr:city": "Gehrden", "addr:housenumber": "1", "addr:postcode": "30989", "addr:street": "Von-Reden-Straße", "amenity": "hospital", "email": "info.gehrden@krh.eu", "emergency": "yes", "fax": "+49 5108 69 1002", "healthcare": "hospital", "name": "KRH Klinikum Robert Koch Gehrden", "operator": "Klinikum Region Hannover", "phone": "+49 5108 69 0", "website": "http://www.krh.eu/klinikum/RKG/", "wikidata": "Q134008272", "wikimedia_commons": "Category:KRH Klinikum Robert Koch Gehrden", "wikipedia": "de:KRH Klinikum Robert Koch Gehrden"}}, {"name": "Klinikum Lippe-Detmold", "latitude": 51.9412451, "longitude": 8.8797905, "source": "osm", "_tags": {"addr:city": "Detmold", "addr:housenumber": "18", "addr:postcode": "32756", "addr:street": "Röntgenstraße", "amenity": "hospital", "building": "hospital", "building:colour": "white", "building:levels": "8", "building:material": "plaster", "check_date": "2024-04-28", "email": "info@klinikum-lippe.de", "emergency": "yes", "healthcare": "hospital", "name": "Klinikum Lippe-Detmold", "name:etymology:wikidata": "Q1774635", "opening_hours:visitors": "PH open;Mo-So 15:00-19:00", "phone": "+49 5231 72-0", "roof:colour": "grey", "roof:shape": "flat", "website": "https://www.klinikum-lippe.de/", "wheelchair": "yes", "wikidata": "Q1774635"}}, {"name": "Klinik Porta Westfalica", "latitude": 52.1989767, "longitude": 8.805738, "source": "osm", "_tags": {"addr:city": "Bad Oeynhausen", "addr:country": "DE", "addr:housenumber": "65", "addr:postcode": "32547", "addr:street": "Steinstraße", "amenity": "hospital", "emergency": "no", "healthcare": "hospital", "name": "Klinik Porta Westfalica", "wheelchair": "yes"}}, {"name": "Auguste-Viktoria-Klinik", "latitude": 52.2073319, "longitude": 8.7869673, "source": "osm", "_tags": {"addr:city": "Bad Oeynhausen", "addr:country": "DE", "addr:housenumber": "2", "addr:postcode": "32545", "addr:street": "Am Kokturkanal", "amenity": "hospital", "emergency": "no", "healthcare": "hospital", "name": "Auguste-Viktoria-Klinik", "wheelchair": "yes"}}, {"name": "Klinik am Rosengarten", "latitude": 52.1999327, "longitude": 8.792604, "source": "osm", "_tags": {"amenity": "hospital", "building": "yes", "emergency": "no", "healthcare": "hospital", "name": "Klinik am Rosengarten", "toilets:wheelchair": "yes", "website": "https://www.klinikamrosengarten.de", "wheelchair": "yes"}}, {"name": "Gollwitzer-Meier-Klinik", "latitude": 52.2028107, "longitude": 8.7931992, "source": "osm", "_tags": {"addr:city": "Bad Oeynhausen", "addr:housenumber": "43", "addr:postcode": "32545", "addr:street": "Herforder Straße", "amenity": "hospital", "email": "info@gollwitzer-meier-klinik.de", "emergency": "no", "fax": "+49 5731 - 249-200", "healthcare": "hospital", "healthcare:speciality": "cardiology", "name": "Gollwitzer-Meier-Klinik", "phone": "+49 5731 - 249-0", "website": "https://www.gollwitzer-meier-klinik.de/", "wikidata": "Q77075703"}}, {"name": "Klinik am Park", "latitude": 52.1991657, "longitude": 8.7907481, "source": "osm", "_tags": {"addr:city": "Bad Oeynhausen", "addr:housenumber": "14", "addr:postcode": "32545", "addr:street": "Westkorso", "amenity": "hospital", "check_date": "2025-09-07", "emergency": "no", "healthcare": "hospital", "name": "Klinik am Park", "operator": "Klinik am Park Quellenh.KG Salze-K.GmbH & Co.", "phone": "+49 5731 248 0", "website": "https://www.median-kliniken.de/", "wheelchair": "limited"}}, {"name": "Johanniter Ordenshäuser", "latitude": 52.1995132, "longitude": 8.7890577, "source": "osm", "_tags": {"addr:city": "Bad Oeynhausen", "addr:housenumber": "7", "addr:postcode": "32545", "addr:street": "Johanniterstraße", "amenity": "hospital", "check_date": "2025-08-21", "emergency": "no", "healthcare": "hospital", "name": "Johanniter Ordenshäuser", "not:brand:wikidata": "Q14751117", "phone": "+49 5731 1510", "toilets:wheelchair": "yes", "website": "https://www.johanniter.de/johanniter-kliniken/johanniter-ordenshaeuser-bad-oeynhausen/", "wheelchair": "yes"}}, {"name": "Klinik am Osterbach", "latitude": 52.1979503, "longitude": 8.7881767, "source": "osm", "_tags": {"addr:city": "Bad Oeynhausen", "addr:housenumber": "2", "addr:postcode": "32545", "addr:street": "Am Osterbach", "amenity": "hospital", "contact:email": "info@klinik-am-osterbach.de", "contact:fax": "+49 5731 159 704", "emergency": "no", "healthcare": "hospital", "name": "Klinik am Osterbach", "operator": "Werner Wicker GmbH & Co. KG", "phone": "+49 5731 159 0", "website": "https://www.klinik-am-osterbach.de/", "wheelchair": "yes"}}, {"name": "Johannes Wesling Klinikum", "latitude": 52.2612497, "longitude": 8.8889772, "source": "osm", "_tags": {"addr:city": "Minden", "addr:country": "DE", "addr:housename": "Johannes Wesling Klinikum", "addr:housenumber": "1", "addr:postcode": "32429", "addr:street": "Hans-Nolte-Straße", "amenity": "hospital", "building": "yes", "contact:email": "info@muehlenkreiskliniken.de", "contact:fax": "+49 571 790292929", "emergency": "yes", "healthcare": "hospital", "height": "16", "name": "Johannes Wesling Klinikum", "operator": "Klinikum Minden - Mühlenkreiskliniken AöR", "phone": "+49 571 7900", "website": "https://www.muehlenkreiskliniken.de/", "wheelchair": "yes", "wheelchair:access": "yes", "wikidata": "Q1958489"}}, {"name": "Artemed Fachklinik", "latitude": 52.2038558, "longitude": 8.8048911, "source": "osm", "_tags": {"amenity": "hospital", "emergency": "no", "healthcare": "hospital", "name": "Artemed Fachklinik", "website": "https://www.artemed-oeynhausen.de/", "wheelchair": "limited"}}, {"name": "Klinik am Korso", "latitude": 52.2015943, "longitude": 8.7992434, "source": "osm", "_tags": {"addr:city": "Bad Oeynhausen", "addr:housenumber": "4", "addr:postcode": "32545", "addr:street": "Ostkorso", "amenity": "hospital", "emergency": "no", "healthcare": "hospital", "name": "Klinik am Korso", "phone": "+49 5731 1810", "website": "https://www.klinik-am-korso.de/#_", "wheelchair": "yes", "wikidata": "Q1774572", "wikipedia": "de:Klinik am Korso"}}, {"name": "DIAKOVERE Friederikenstift Humboldtstraße", "latitude": 52.3711545, "longitude": 9.7246093, "source": "osm", "_tags": {"addr:city": "Hannover", "addr:country": "DE", "addr:housenumber": "5", "addr:postcode": "30169", "addr:street": "Humboldtstraße", "amenity": "hospital", "contact:facebook": "https://www.facebook.com/Friederikenstift", "contact:phone": "+49 511 129-0", "contact:website": "http://www.diakoniekrankenhaus-friederikenstift.de", "emergency": "yes", "healthcare": "hospital", "name": "DIAKOVERE Friederikenstift Humboldtstraße", "official_name": "DIAKOVERE Friederikenstift gGmbH", "phone": "+49 511 129-0", "short_name": "Friederikenstift", "website": "https://www.diakovere.de/unternehmen-und-mehr/krankenhaeuser/friederikenstift/", "wheelchair": "yes", "wikidata": "Q1457128", "wikimedia_commons": "Category:Friederikenstift (Hannover)", "wikipedia": "de:Friederikenstift (Hannover)"}}, {"name": "Herz- und Diabeteszentrum NRW", "latitude": 52.1921497, "longitude": 8.7952165, "source": "osm", "_tags": {"addr:city": "Bad Oeynhausen", "addr:housenumber": "11", "addr:postcode": "32545", "addr:street": "Georgstraße", "amenity": "hospital", "email": "info@hdz-nrw.de", "emergency": "yes", "healthcare": "hospital", "name": "Herz- und Diabeteszentrum NRW", "note": "Herzzentrum B.O.", "opening_hours": "24/7", "operator": "Universitätsklinik der Ruhr-Universität Bochum", "phone": "+49 5731 970", "website": "https://www.hdz-nrw.de", "wheelchair": "yes", "wikidata": "Q1615024"}}, {"name": "Albert-Schweitzer-Therapeutikum Holzminden", "latitude": 51.8243044, "longitude": 9.483123, "source": "osm", "_tags": {"addr:city": "Holzminden", "addr:country": "DE", "addr:housenumber": "5", "addr:postcode": "37603", "addr:street": "Pipping", "amenity": "hospital", "contact:fax": "+49 5531 9311 11", "contact:phone": "+49 5531 9311 0", "contact:website": "https://www.familienwerk.info/einrichtungen/klinik-holzminden", "emergency": "no", "healthcare": "hospital", "healthcare:speciality": "psychiatry", "name": "Albert-Schweitzer-Therapeutikum Holzminden", "operator": "Albert-Schweitzer-Familienwerk e.V.", "wheelchair": "limited"}}, {"name": "Krankenhaus Lindenbrunn", "latitude": 52.1100434, "longitude": 9.5491034, "source": "osm", "_tags": {"addr:city": "Coppenbrügge", "addr:housenumber": "1", "addr:postcode": "31863", "addr:street": "Lindenbrunn", "amenity": "hospital", "email": "info@krankenhaus-lindenbrunn.de", "fax": "+49 5156 782 155", "healthcare": "hospital", "name": "Krankenhaus Lindenbrunn", "phone": "+49 5156 782 0", "toilets:wheelchair": "yes", "website": "https://www.krankenhaus-lindenbrunn.de/", "wheelchair": "yes", "wikidata": "Q1523553", "wikipedia": "de:Lindenbrunn"}}, {"name": "KRH Klinikum Nordstadt", "latitude": 52.3918895, "longitude": 9.7143061, "source": "osm", "_tags": {"addr:city": "Hannover", "addr:country": "DE", "addr:housenumber": "41", "addr:postcode": "30167", "addr:street": "Haltenhoffstraße", "alt_name": "Nordstadtkrankenhaus", "amenity": "hospital", "check_date": "2024-04-01", "healthcare": "hospital", "name": "KRH Klinikum Nordstadt", "operator": "KRH Klinikum Region Hannover", "phone": "+49 511 906 6000", "short_name": "KRH Nordstadt", "website": "http://www.krh.eu/", "wheelchair": "limited", "wikidata": "Q1718941", "wikimedia_commons": "Category:Nordstadtkrankenhaus (Hannover)", "wikipedia": "de:KRH Klinikum Nordstadt"}}, {"name": "BDH-Klinik Hessisch Oldendorf", "latitude": 52.1739958, "longitude": 9.2503124, "source": "osm", "_tags": {"addr:city": "Hessisch Oldendorf", "addr:housenumber": "18-28", "addr:postcode": "31840", "addr:street": "Greitstraße", "amenity": "hospital", "fax": "+49 5152 781 212", "healthcare": "hospital", "name": "BDH-Klinik Hessisch Oldendorf", "note": "Neurologisches Zentrum mit Intensivmedizin, Stroke Unit und phasenübergreifender Rehabilitation", "phone": "+49 5152 781 0", "website": "http://www.bdh-klinik-hessisch-oldendorf.de"}}, {"name": "Agaplesion Evangelisches Klinikum Schaumburg gGmbH", "latitude": 52.2641171, "longitude": 9.1051577, "source": "osm", "_tags": {"addr:city": "Obernkirchen", "addr:housenumber": "1", "addr:postcode": "31683", "addr:street": "Zum Schaumburger Klinikum", "amenity": "hospital", "contact:email": "information@ksl.agaplesion.de", "contact:fax": "+49 5724 9580 881399", "contact:phone": "+49 5724 9580 0", "contact:website": "https://www.ev-klinikum-schaumburg.de", "emergency": "yes", "healthcare": "hospital", "name": "Agaplesion Evangelisches Klinikum Schaumburg gGmbH", "phone": "+49 5724 95800", "start_date": "2017-11-30"}}, {"name": "Klinikum Lippe Lemgo", "latitude": 52.0377286, "longitude": 8.9002791, "source": "osm", "_tags": {"addr:city": "Lemgo", "addr:housenumber": "85", "addr:postcode": "32657", "addr:street": "Rintelner Straße", "amenity": "hospital", "emergency": "yes", "healthcare": "hospital", "name": "Klinikum Lippe Lemgo", "note": "Hier wird fleißig gebaut. Alle neuen Gebäude und das Parkhaus nachtragen.", "operator": "Klinikum Lippe GmbH", "toilets:wheelchair": "yes", "wheelchair": "yes", "wikimedia_commons": "File:Klikum-Lippe-Lemgo.png"}}, {"name": "Agaplesion evangelisches Krankenhaus Holzminden", "latitude": 51.834158, "longitude": 9.4555899, "source": "osm", "_tags": {"addr:city": "Holzminden", "addr:country": "DE", "addr:housenumber": "34", "addr:postcode": "37603", "addr:street": "Forster Weg", "amenity": "hospital", "emergency": "yes", "fax": "+49 5531 705 288", "healthcare": "hospital", "name": "Agaplesion evangelisches Krankenhaus Holzminden", "operator": "Agaplesion", "operator:wikidata": "Q55445", "operator:wikipedia": "de:Agaplesion", "phone": "+49 5531 7050", "website": "https://www.evk-holzminden.de/start-1", "wheelchair": "yes", "wikidata": "Q15781839"}}, {"name": "vita nova Klinik", "latitude": 52.0872455, "longitude": 8.7440895, "source": "osm", "_tags": {"addr:city": "Bad Salzuflen", "addr:country": "DE", "addr:housenumber": "9 - 13", "addr:postcode": "32105", "addr:street": "Roonstraße", "amenity": "hospital", "building": "hospital", "email": "info@vitanova-kliniken.de", "emergency": "no", "healthcare": "clinic", "healthcare:speciality": "psychiatry", "name": "vita nova Klinik", "note": "Private Fachklinik, Psychiatrie, Psychosomatische Medizin und Psychotherapie einschl. Schmerztherapie", "operator": "Vita Nova Klinikbetreibergesellschaft mbH", "phone": "+49 5222 343450", "website": "https://www.vitanova-kliniken.de/"}}, {"name": "KRH Klinikum Siloah", "latitude": 52.3598758, "longitude": 9.7239145, "source": "osm", "_tags": {"amenity": "hospital", "healthcare": "hospital", "name": "KRH Klinikum Siloah", "name:etymology:wikidata": "Q1483483", "old_name": "Klinikum Region Hannover: Klinikum Siloah-Oststadt-Heidehaus", "old_short_name": "KRH Siloah-Oststadt-Heidehaus", "source:geometry": "HiRes aerial imagery 2009", "website": "http://krh.eu/klinikum/SOH/", "wheelchair": "yes", "wikidata": "Q1718943", "wikimedia_commons": "Category:KRH Klinikum Siloah", "wikipedia": "de:KRH Klinikum Siloah"}}, {"name": "Salzetalklinik", "latitude": 52.0942156, "longitude": 8.7610544, "source": "osm", "_tags": {"addr:city": "Bad Salzuflen", "addr:country": "DE", "amenity": "hospital", "contact:fax": "+49 5222 186-3987", "contact:phone": "+49 5222 186-0", "contact:website": "https://salzetal.deutsche-rentenversicherung-reha-zentren.de", "healthcare": "rehabilitation", "name": "Salzetalklinik", "operator": "Deutschen Rentenversicherung Westfalen", "operator:wikidata": "Q1203793", "wheelchair": "yes"}}, {"name": "Burghof-Klinik Haus 3", "latitude": 52.2042912, "longitude": 9.0735069, "source": "osm", "_tags": {"addr:city": "Rinteln", "addr:housenumber": "9", "addr:postcode": "31737", "addr:street": "Virchowstraße", "amenity": "hospital", "emergency": "no", "healthcare": "hospital", "healthcare:speciality": "psychiatry", "name": "Burghof-Klinik Haus 3"}}, {"name": "Reha-Klinik Lipperland", "latitude": 52.0900728, "longitude": 8.7566064, "source": "osm", "_tags": {"addr:city": "Bad Salzuflen", "addr:country": "DE", "addr:postcode": "32105", "amenity": "hospital", "contact:phone": "+49 5222 620", "contact:website": "http://www.rehazentrum-badsalzuflen.de/reha-zentrum-bad-salzuflen/klinik-lipperland/unsere-klinik/unsere-klinik.html", "healthcare": "rehabilitation", "name": "Reha-Klinik Lipperland", "operator": "Deutschen Rentenversicherung Bund", "operator:wikidata": "Q1203782"}}, {"name": "Klinik am Lietholz", "latitude": 52.0930222, "longitude": 8.7567341, "source": "osm", "_tags": {"addr:city": "Bad Salzuflen", "addr:country": "DE", "addr:housenumber": "31", "addr:postcode": "32105", "addr:street": "Lietholzstraße", "amenity": "hospital", "emergency": "no", "healthcare": "hospital", "healthcare:speciality": "physiatry", "name": "Klinik am Lietholz", "operator": "Deutsche Rentenversicherung Bund", "phone": "+49 5222 620", "website": "https://www.reha-klinik-am-lietholz.de/klinik/am_lietholz/startseite/startseite_node.html"}}, {"name": "MEDIAN Klinik am Burggraben Bad Salzuflen", "latitude": 52.0963209, "longitude": 8.7615904, "source": "osm", "_tags": {"addr:city": "Bad Salzuflen", "addr:country": "DE", "addr:housenumber": "47-49", "addr:postcode": "32105", "addr:street": "Alte Vlothoer Straße", "amenity": "hospital", "contact:email": "kontakt.klinikamburggraben@median-kliniken.de", "contact:phone": "+49 5222 37-0", "contact:website": "https://www.median-kliniken.de/de/median-klinik-am-burggraben-bad-salzuflen/", "healthcare": "rehabilitation", "name": "MEDIAN Klinik am Burggraben Bad Salzuflen", "operator": "MEDIAN Unternehmensgruppe B.V. & Co. KG", "operator:wikidata": "Q1916200"}}, {"name": "Unterkunft für Flüchtlinge", "latitude": 52.3807126, "longitude": 9.6567619, "source": "osm", "_tags": {"addr:city": "Hannover", "addr:postcode": "30453", "building": "residential", "building:levels": "2", "healthcare": "hospital", "name": "Unterkunft für Flüchtlinge", "social_facility": "shelter", "social_facility:for": "migrant"}}, {"name": "Burghof-Klinik Haus 1", "latitude": 52.1842784, "longitude": 9.0815691, "source": "osm", "_tags": {"addr:city": "Rinteln", "addr:housenumber": "19", "addr:postcode": "31737", "addr:street": "Ritterstraße", "amenity": "hospital", "healthcare": "hospital", "healthcare:speciality": "psychiatry", "name": "Burghof-Klinik Haus 1", "toilets:wheelchair": "yes", "website": "http://www.burghof-klinik.de/index.php/unsere-einrichtungen/haus-1", "wheelchair": "yes"}}, {"name": "St. Rochus Krankenhaus", "latitude": 51.8564146, "longitude": 9.0888281, "source": "osm", "_tags": {"addr:city": "Steinheim", "addr:housenumber": "34", "addr:postcode": "32839", "addr:street": "Nieheimer Straße", "amenity": "hospital", "emergency": "yes", "healthcare": "hospital", "healthcare:speciality": "internal", "name": "St. Rochus Krankenhaus", "operator": "Katholische Hospitalvereinigung Weser-Egge"}}, {"name": "MEDIAN Klinik NRZ Bad Salzuflen", "latitude": 52.0971412, "longitude": 8.7502872, "source": "osm", "_tags": {"addr:city": "Bad Salzuflen", "addr:country": "DE", "addr:postcode": "32105", "amenity": "hospital", "contact:email": "kontakt.nrz-badsalzuflen@median-kliniken.de", "contact:phone": "+49 5222 398-0", "contact:website": "https://www.median-kliniken.de/de/median-nrz-bad-salzuflen", "healthcare": "rehabilitation", "name": "MEDIAN Klinik NRZ Bad Salzuflen", "old_name": "Klinik Flachsheide", "operator": "MEDIAN Unternehmensgruppe B.V. & Co. KG", "operator:wikidata": "Q1916200", "wheelchair": "yes"}}, {"name": "Rose Klinik", "latitude": 51.8942436, "longitude": 8.9840147, "source": "osm", "_tags": {"amenity": "hospital", "check_date": "2025-07-29", "contact:phone": "+49 5234 907-0", "contact:website": "https://www.rose-klinik.de/", "emergency": "no", "healthcare": "hospital", "long_name": "MEDICLIN Rose Klinik", "name": "Rose Klinik", "operator": "Mediclin", "operator:wikidata": "Q1916295"}}, {"name": "Deister Süntel Klinik Bad Münder", "latitude": 52.2082695, "longitude": 9.4721466, "source": "osm", "_tags": {"addr:city": "Bad Münder am Deister", "addr:housenumber": "36", "addr:postcode": "31848", "addr:street": "Deisterallee", "amenity": "hospital", "check_date": "2023-10-22", "emergency": "no", "healthcare": "hospital", "name": "Deister Süntel Klinik Bad Münder", "opening_hours": "24/7", "website": "https://dsk-bm.de/"}}, {"name": "Klinikum Warendorff", "latitude": 52.3677575, "longitude": 9.7189401, "source": "osm", "_tags": {"addr:housenumber": "8", "addr:street": "Schwarzer Bär", "building": "hospital", "healthcare": "hospital", "healthcare:speciality": "psychiatry", "healthcare:speciality:2": "psychotherapy", "name": "Klinikum Warendorff"}}, {"name": "Sana Klinikum Hameln-Pyrmont", "latitude": 52.1075835, "longitude": 9.3517303, "source": "osm", "_tags": {"amenity": "hospital", "healthcare": "hospital", "name": "Sana Klinikum Hameln-Pyrmont", "operator:wikidata": "Q1242494", "website": "https://www.sana-hm.de"}}, {"name": "Friederikenstift", "latitude": 52.3710515, "longitude": 9.7246718, "source": "osm", "_tags": {"addr:city": "Hannover", "addr:housenumber": "5", "addr:postcode": "30169", "addr:street": "Humboldtstraße", "amenity": "hospital", "building": "hospital", "emergency": "yes", "name": "Friederikenstift", "type": "building", "website": "http://www.diakoniekrankenhaus-friederikenstift.de"}}, {"name": "Evangelisches Bathildiskrankenhaus", "latitude": 51.9852959, "longitude": 9.2736752, "source": "osm", "_tags": {"addr:city": "Bad Pyrmont", "addr:housenumber": "4", "addr:postcode": "31812", "addr:street": "Maulbeerallee", "amenity": "hospital", "building": "hospital", "building:levels": "5", "emergency": "yes", "healthcare": "hospital", "name": "Evangelisches Bathildiskrankenhaus", "roof:levels": "0", "roof:shape": "hipped", "type": "multipolygon", "website": "https://www.bathildis.de/", "wheelchair": "yes"}}]