[{"name": "Ambulante Psychosomatik & Familienclearing GmbH", "latitude": 52.375472, "longitude": 12.9299001, "source": "osm", "_tags": {"addr:city": "Werder (Havel)", "addr:housenumber": "12", "addr:postcode": "14542", "addr:street": "Brandenburger Straße", "amenity": "hospital", "healthcare": "physiotherapist", "healthcare:speciality": "child_psychiatry", "name": "Ambulante Psychosomatik & Familienclearing GmbH", "operator": "APF", "operator:type": "business"}}, {"name": "Neurologische Rehabilitationsklinik Beelitz-Heilstätten", "latitude": 52.2672447, "longitude": 12.9247149, "source": "osm", "_tags": {"addr:city": "Beelitz", "addr:country": "DE", "addr:housename": "C5", "addr:postcode": "14547", "addr:street": "Paracelsusring", "amenity": "hospital", "building": "yes", "healthcare": "rehabilitation", "historic": "yes", "name": "Neurologische Rehabilitationsklinik Beelitz-Heilstätten", "old_name": "Männer-Lungenheilstätte (B5)", "ref": "B5", "toilets:wheelchair": "yes", "wheelchair": "yes"}}, {"name": "Neurologisches Fachkrankenhaus für Bewegungsstörungen / Parkinson", "latitude": 52.2554258, "longitude": 12.9294417, "source": "osm", "_tags": {"alt_name": "Eiermannbau", "amenity": "hospital", "healthcare": "hospital", "name": "Neurologisches Fachkrankenhaus für Bewegungsstörungen / Parkinson", "old_name": "Krankenhaus Beelitz-Heilstätten", "wheelchair": "limited"}}, {"name": "Fontane-Klinik Motzen", "latitude": 52.1815033, "longitude": 13.5986156, "source": "osm", "_tags": {"access": "private", "addr:city": "Mittenwalde", "addr:country": "DE", "addr:housenumber": "5", "addr:postcode": "15749", "addr:street": "Fontanestraße", "addr:suburb": "Motzen", "amenity": "hospital", "check_date": "2025-08-28", "contact:facebook": "https://www.facebook.com/pages/category/Mental-Health-Service/Fontane-Klinik-105237251091892/", "contact:kununu": "https://www.kununu.com/de/fontane-klinik1", "contact:xing": "https://www.xing.com/pages/fontane-klinik", "contact:youtube": "https://www.youtube.com/channel/UCocx1PAUtLEv096xGF_6wgw/videos", "email": "info@fontane-klinik.de", "emergency": "no", "fax": "+49 33769 86104", "health_facility:type": "therapy", "health_specialty:addiction_medicine": "main", "health_specialty:adult_psychiatry": "main", "health_specialty:child_psychiatry": "main", "health_specialty:music_therapy": "yes", "health_specialty:occupational_therapy": "yes", "health_specialty:physiotherapy": "yes", "health_specialty:psychiatry": "main", "health_specialty:psychotherapy": "yes", "healthcare": "hospital", "medical_system:western": "yes", "name": "Fontane-Klinik Motzen", "operator": "EfGe Entwicklungsgesellschaft für Gesundheitseinrichtungen mbH", "phone": "+49 33769 860", "treat:inpatient": "only", "website": "https://www.fontane-klinik.de/"}}, {"name": "Evangelisches Krankenhaus Luckau", "latitude": 51.8537283, "longitude": 13.7032263, "source": "osm", "_tags": {"addr:city": "Luckau", "addr:country": "DE", "addr:housenumber": "24", "addr:postcode": "15926", "addr:street": "Berliner Straße", "amenity": "hospital", "contact:phone": "+49 3544 580", "emergency": "yes", "fax": "+49 3544 58134", "healthcare": "hospital", "healthcare:speciality": "anaesthetics;intensive;surgery;proctology;trauma;geriatrics;internal;urology", "name": "Evangelisches Krankenhaus Luckau", "opening_hours": "06:00-22:00", "operator": "Evangelisches Krankenhaus Luckau gGmbh", "website": "https://www.diakonissenhaus.de/krankenhaeuser/evangelisches-krankenhaus-luckau", "wikidata": "Q58038821"}}, {"name": "Ärztehaus Berliner Straße 4", "latitude": 51.8545783, "longitude": 13.7048103, "source": "osm", "_tags": {"healthcare": "hospital", "name": "Ärztehaus Berliner Straße 4"}}, {"name": "Evangelisches Krankenhaus Ludwigsfelde-Teltow", "latitude": 52.3107662, "longitude": 13.2578665, "source": "osm", "_tags": {"addr:city": "Ludwigsfelde", "addr:housenumber": "40-44", "addr:postcode": "14974", "addr:street": "Albert-Schweitzer-Straße", "amenity": "hospital", "contact:website": "https://www.diakonissenhaus.de/krankenhaeuser/evangelisches-krankenhaus-ludwigsfelde-teltow/", "emergency": "yes", "name": "Evangelisches Krankenhaus Ludwigsfelde-Teltow", "wikidata": "Q57959543"}}, {"name": "Evangelische Kliniken Luise-Henrietten-Stift Lehnin", "latitude": 52.3223523, "longitude": 12.744652, "source": "osm", "_tags": {"addr:city": "Kloster Lehnin", "addr:country": "DE", "addr:housenumber": "8a", "addr:postcode": "14797", "addr:street": "Klosterkirchplatz", "addr:suburb": "Lehnin", "amenity": "hospital", "building": "hospital", "building:levels": "3", "fax": "+49 3382 786288", "name": "Evangelische Kliniken Luise-Henrietten-Stift Lehnin", "operator": "Evangelisches Hospiz Potsdam gemeinnützige GmbH", "phone": "+49 3382 786138", "roof:levels": "1", "roof:shape": "flat", "website": "https://www.diakonissenhaus.de/menu/krankenhaeuser/kliniken-lehnin/", "wheelchair": "yes"}}, {"name": "Asklepios Fachklinikum Teupitz", "latitude": 52.1312228, "longitude": 13.6178994, "source": "osm", "_tags": {"addr:city": "Teupitz", "addr:housenumber": "21", "addr:postcode": "15755", "addr:street": "Buchholzer Straße", "amenity": "hospital", "healthcare": "hospital", "healthcare:speciality": "internal;neurology;psychiatry", "name": "Asklepios Fachklinikum Teupitz", "operator": "Asklepios Kliniken", "operator:type": "private", "operator:wikidata": "Q732068", "wheelchair": "yes"}}, {"name": "Ernst von Bergmann Klinikum - Psychiatrie, Psychotherapie", "latitude": 52.3846727, "longitude": 13.1365516, "source": "osm", "_tags": {"amenity": "hospital", "building": "yes", "healthcare": "hospital", "healthcare:speciality": "psychiatry", "name": "Ernst von Bergmann Klinikum - Psychiatrie, Psychotherapie", "source": "bing", "wheelchair": "yes"}}, {"name": "Oberlinklinik", "latitude": 52.3940485, "longitude": 13.0891185, "source": "osm", "_tags": {"addr:city": "Potsdam", "addr:country": "DE", "addr:housenumber": "24", "addr:postcode": "14482", "addr:street": "Rudolf-Breitscheid-Straße", "addr:suburb": "Babelsberg Nord", "amenity": "hospital", "building": "hospital", "description": "Orthopädische Fachklinik", "healthcare": "hospital", "name": "Oberlinklinik", "roof:shape": "flat", "toilets:wheelchair": "yes", "wheelchair": "yes", "wheelchair:description": "Barrierefreie Toilette: Wochentags bis 18 Uhr, am Wochenende momentan gar kein Zugang zur Toilette", "wikidata": "Q96575418"}}, {"name": "Fachkrankenhaus für neurologische Frührehabilitation Beelitz-Heilstätten", "latitude": 52.2662587, "longitude": 12.9265207, "source": "osm", "_tags": {"addr:city": "Beelitz", "addr:country": "DE", "addr:housenumber": "8", "addr:postcode": "14547", "addr:street": "Paracelsusring", "addr:suburb": "Beelitz-Heilstätten", "amenity": "hospital", "building": "yes", "healthcare": "hospital", "name": "Fachkrankenhaus für neurologische Frührehabilitation Beelitz-Heilstätten"}}, {"name": "KMG-Klinikum Luckenwalde", "latitude": 52.0996975, "longitude": 13.1788233, "source": "osm", "_tags": {"addr:city": "Luckenwalde", "addr:housenumber": "1a", "addr:postcode": "14943", "addr:street": "Saarstraße", "amenity": "hospital", "emergency": "yes", "healthcare": "hospital", "name": "KMG-Klinikum Luckenwalde", "operator": "KMG Kliniken SE", "operator:type": "private"}}, {"name": "Johanniter Krankenhaus Treuenbrietzen", "latitude": 52.0817824, "longitude": 12.8767226, "source": "osm", "_tags": {"addr:housenumber": "20/28", "addr:street": "Johanniterstraße", "amenity": "hospital", "fax": "+49 33748 82773", "healthcare": "hospital", "name": "Johanniter Krankenhaus Treuenbrietzen", "phone": "+49 33748 82368", "toilets:wheelchair": "yes", "wheelchair": "yes", "wikidata": "Q117728997"}}, {"name": "Achenbach Krankenhaus Königs Wusterhausen", "latitude": 52.3034698, "longitude": 13.6278035, "source": "osm", "_tags": {"addr:city": "Königs Wusterhausen", "addr:country": "DE", "addr:housenumber": "29", "addr:postcode": "15711", "addr:street": "Köpenicker Straße", "addr:suburb": "Königs Wusterhausen", "amenity": "hospital", "contact:phone": "+49 3375 2880", "contact:website": "https://www.klinikum-ds.de/", "healthcare": "hospital", "healthcare:speciality": "ophthalmology;surgery;gynaecology;otolaryngology;internal;paediatrics", "name": "Achenbach Krankenhaus Königs Wusterhausen", "operator": "Klinikum Dahme-Spreewald GmbH", "wheelchair": "yes"}}]