[{"name": "The Manor", "latitude": 52.1381807, "longitude": -0.5139421, "source": "osm", "_tags": {"addr:city": "Biddenham", "addr:country": "GB", "addr:housename": "Manor House", "addr:housenumber": "6", "addr:postcode": "MK40 4AW", "addr:street": "Church End", "amenity": "hospital", "fhrs:authority": "Bedford", "fhrs:id": "102392", "fhrs:local_authority_id": "33947", "healthcare": "hospital", "name": "The Manor", "operator": "BMI"}}, {"name": "Willen Hospice", "latitude": 52.0619019, "longitude": -0.7200168, "source": "osm", "_tags": {"addr:city": "Milton Keynes", "addr:country": "GB", "addr:postcode": "MK15 9AB", "addr:street": "Milton Road", "addr:suburb": "Willen", "amenity": "hospital", "emergency": "no", "fhrs:authority": "Milton Keynes", "fhrs:id": "119952", "fhrs:local_authority_id": "49037", "healthcare": "hospital", "name": "Willen Hospice", "phone": "+44 1908 663636"}}, {"name": "Parkside Medical Centre", "latitude": 51.9985863, "longitude": -0.7466163, "source": "osm", "_tags": {"addr:city": "Milton Keynes", "addr:country": "GB", "addr:postcode": "MK3 6EN", "addr:street": "Whalley Drive", "addr:suburb": "Bletchley", "amenity": "hospital", "emergency": "no", "name": "Parkside Medical Centre", "wheelchair": "yes"}}, {"name": "PJ Care Mallard House Neurological Care Centre", "latitude": 52.0235883, "longitude": -0.8089636, "source": "osm", "_tags": {"addr:city": "Milton Keynes", "addr:country": "GB", "addr:housenumber": "2", "addr:postcode": "MK8 0DZ", "addr:street": "Dunthorne Way", "addr:suburb": "Grange Farm", "amenity": "hospital", "emergency": "no", "fhrs:authority": "Milton Keynes", "fhrs:id": "135153", "fhrs:local_authority_id": "68691", "healthcare": "hospital", "name": "PJ Care Mallard House Neurological Care Centre", "operator": "PJ Care"}}, {"name": "Manfield Health Campus", "latitude": 52.2651354, "longitude": -0.8634889, "source": "osm", "_tags": {"addr:city": "Northampton", "addr:country": "GB", "addr:housename": "Cynthia Spencer & Favell Hse", "addr:postcode": "NN3 6NP", "addr:street": "Kettering Road", "amenity": "hospital", "fhrs:authority": "Northampton", "fhrs:id": "178791", "fhrs:local_authority_id": "PI/000050324", "healthcare": "hospital", "name": "Manfield Health Campus", "operator": "Northamptonshire Healthcare NHS Foundation Trust", "phone": "+44 1536 480300", "ref:GB:cqc_location": "RP1A2"}}, {"name": "Oakley Court", "latitude": 51.8970706, "longitude": -0.4641429, "source": "osm", "_tags": {"addr:city": "Luton", "addr:country": "GB", "addr:housename": "Community Mental Health Hospital", "addr:postcode": "LU4 9WT", "addr:street": "Angel Close", "amenity": "hospital", "fhrs:authority": "Luton", "fhrs:id": "812865", "fhrs:local_authority_id": "111556", "healthcare": "hospital", "name": "Oakley Court"}}, {"name": "St Matthews Hospital", "latitude": 52.2514478, "longitude": -0.8784717, "source": "osm", "_tags": {"addr:city": "Northampton", "addr:country": "GB", "addr:housenumber": "22-23", "addr:postcode": "NN2 7HF", "addr:street": "St Matthews Parade", "addr:suburb": "Kingsley", "amenity": "hospital", "fhrs:authority": "West Northamptonshire", "fhrs:id": "1389002", "fhrs:local_authority_id": "PI/000095386", "healthcare": "hospital", "name": "St Matthews Hospital", "operator": "St. Matthews Limited", "phone": "+44 1604 723530", "ref:GB:cqc_location": "1-116950764", "website": "https://smhc.uk.com/"}}, {"name": "Broomhill", "latitude": 52.3209403, "longitude": -0.9610677, "source": "osm", "_tags": {"addr:city": "Spratton", "addr:country": "GB", "addr:postcode": "NN6 8LD", "addr:street": "Holdenby Road", "amenity": "hospital", "healthcare": "hospital", "name": "Broomhill", "operator": "St. Matthews Limited", "ref:GB:cqc_location": "1-390976877", "website": "https://smhc.uk.com/"}}, {"name": "Bedford Health Village", "latitude": 52.1413228, "longitude": -0.4590702, "source": "osm", "_tags": {"addr:city": "Bedford", "addr:country": "GB", "addr:housenumber": "3", "addr:postcode": "MK40 2NT", "addr:street": "Kimbolton Road", "amenity": "hospital", "emergency": "no", "healthcare": "hospital", "name": "Bedford Health Village", "ref:GB:cqc_location": "RWK1R", "wheelchair": "yes"}}, {"name": "Bedford Hospital South Wing", "latitude": 52.1284264, "longitude": -0.4724591, "source": "osm", "_tags": {"addr:city": "Bedford", "addr:country": "GB", "addr:postcode": "MK42 9DJ", "addr:street": "Kempston Road", "amenity": "hospital", "emergency": "yes", "fhrs:authority": "Bedford", "fhrs:id": "94474", "fhrs:local_authority_id": "27657", "healthcare": "hospital", "name": "Bedford Hospital South Wing", "source": "bing"}}, {"name": "Bedford Hospital South Wing", "latitude": 52.1287535, "longitude": -0.4695372, "source": "osm", "_tags": {"amenity": "hospital", "healthcare": "hospital", "name": "Bedford Hospital South Wing"}}, {"name": "Northampton General Hospital", "latitude": 52.236057, "longitude": -0.8838202, "source": "osm", "_tags": {"addr:city": "Northampton", "addr:country": "GB", "addr:postcode": "NN1 5BD", "addr:street": "Cliftonville Road", "amenity": "hospital", "emergency": "yes", "fhrs:authority": "Northampton", "fhrs:id": "166166", "fhrs:local_authority_id": "PI/000009084", "healthcare": "hospital", "name": "Northampton General Hospital", "operator": "Northampton General Hospital NHS Trust", "phone": "+44 1604 634700", "ref:GB:cqc_location": "RNS01", "source:addr": "FHRS Open Data", "website": "https://www.northamptongeneral.nhs.uk", "wikidata": "Q7057612"}}, {"name": "Luton and Dunstable", "latitude": 51.8969826, "longitude": -0.4744135, "source": "osm", "_tags": {"amenity": "hospital", "building": "yes", "emergency": "yes", "healthcare": "hospital", "name": "Luton and Dunstable"}}, {"name": "Isebrook Hospital", "latitude": 52.298008, "longitude": -0.6831254, "source": "osm", "_tags": {"addr:city": "Wellingborough", "addr:country": "GB", "addr:postcode": "NN8 1LP", "addr:street": "Irthlingborough Road", "amenity": "hospital", "fhrs:authority": "North Northamptonshire", "fhrs:id": "168224", "fhrs:local_authority_id": "PI/000012757", "healthcare": "hospital", "name": "Isebrook Hospital", "operator": "Northamptonshire Healthcare NHS Foundation Trust", "phone": "+44 3000 272700", "ref:GB:cqc_location": "RP1F2", "source": "OS_OpenData_StreetView"}}, {"name": "Steppingley Hospital", "latitude": 52.0117989, "longitude": -0.5132783, "source": "osm", "_tags": {"amenity": "hospital", "name": "Steppingley Hospital", "source": "OS_OpenData_StreetView"}}, {"name": "Buckingham Community Hospital", "latitude": 52.0023995, "longitude": -0.9856706, "source": "osm", "_tags": {"amenity": "hospital", "healthcare": "hospital", "name": "Buckingham Community Hospital", "source": "OS_OpenData_StreetView,bing", "wikidata": "Q30293031"}}, {"name": "", "latitude": 51.9975284, "longitude": -0.747168, "source": "osm", "_tags": {"amenity": "hospital", "healthcare": "hospital", "source": "bing"}}, {"name": "Hospital of St Cross", "latitude": 52.364075, "longitude": -1.2573765, "source": "osm", "_tags": {"amenity": "hospital", "emergency": "no", "healthcare": "hospital", "name": "Hospital of St Cross", "toilets:wheelchair": "yes", "wheelchair": "yes", "wikidata": "Q5908745"}}, {"name": "Milton Keynes University  Hospital", "latitude": 52.0262459, "longitude": -0.7367014, "source": "osm", "_tags": {"addr:city": "Milton Keynes", "addr:country": "GB", "addr:postcode": "MK6 5LD", "addr:street": "Standing Way", "addr:suburb": "Eaglestone", "amenity": "hospital", "emergency": "yes", "fhrs:id": "104279", "healthcare": "hospital", "name": "Milton Keynes University  Hospital"}}, {"name": "Eaglestone View", "latitude": 52.0267905, "longitude": -0.7397023, "source": "osm", "_tags": {"addr:city": "Milton Keynes", "addr:country": "GB", "addr:postcode": "MK6 5LS", "addr:street": "Chadwick Drive", "addr:suburb": "Eaglestone - West", "amenity": "hospital", "building": "yes", "fhrs:authority": "Milton Keynes", "fhrs:id": "131635", "fhrs:local_authority_id": "63161", "healthcare": "hospital", "name": "Eaglestone View", "operator": "Elysium Healthcare"}}, {"name": "Courtenay House Surgery", "latitude": 51.9512007, "longitude": -0.2774194, "source": "osm", "_tags": {"amenity": "hospital", "emergency": "no", "name": "Courtenay House Surgery"}}, {"name": "Bicester Community Hospital", "latitude": 51.8962241, "longitude": -1.1582123, "source": "osm", "_tags": {"addr:city": "Bicester", "addr:postcode": "OX26 6DU", "addr:street": "King's End", "amenity": "hospital", "healthcare": "hospital", "name": "Bicester Community Hospital", "source": "local_knowledge; website", "source:geometry": "Bing", "website": "https://www.oxfordhealth.nhs.uk/?directory=community-hospital-bicester-2", "wikidata": "Q30293142"}}, {"name": "St Andrews Hospital", "latitude": 52.2354094, "longitude": -0.872069, "source": "osm", "_tags": {"addr:city": "Northampton", "addr:country": "GB", "addr:postcode": "NN1 5DG", "addr:street": "Cliftonville Road", "amenity": "hospital", "email": "info@standrew.co.uk", "healthcare": "hospital", "name": "St Andrews Hospital", "phone": "+44 1604 616000", "ref:GB:cqc_location": "1-121538260", "website": "http://www.standrewshealthcare.co.uk/", "wikidata": "Q60740184"}}, {"name": "Three Shires Hospital", "latitude": 52.2360615, "longitude": -0.8743376, "source": "osm", "_tags": {"addr:city": "Northampton", "addr:country": "GB", "addr:postcode": "NN1 5DR", "addr:street": "The Avenue", "amenity": "hospital", "building": "hospital", "fhrs:authority": "Northampton", "fhrs:id": "895387", "fhrs:local_authority_id": "PI/000085055", "healthcare": "hospital", "name": "Three Shires Hospital", "operator": "Three Shires Hospital LLP", "phone": "+44 1604 805829", "ref:GB:cqc_location": "1-2079393249", "website": "https://www.bmihealthcare.co.uk/three-shires"}}, {"name": "Luton and Dunstable Hospital", "latitude": 51.8968398, "longitude": -0.4741599, "source": "osm", "_tags": {"alt_name": "Luton and Dunstable University Hospital", "amenity": "hospital", "emergency": "yes", "name": "Luton and Dunstable Hospital", "source": "Bing;OS StreetView;existing buildings", "website": "https://www.ldh.nhs.uk/", "wikidata": "Q6705902", "wikipedia": "en:Luton and Dunstable University Hospital"}}, {"name": "Luton and Dunstable Hospital", "latitude": 51.8944381, "longitude": -0.4741351, "source": "osm", "_tags": {"alt_name": "Luton and Dunstable University Hospital", "amenity": "hospital", "emergency": "yes", "healthcare": "hospital", "name": "Luton and Dunstable Hospital", "source": "OS OpenMap Local", "website": "https://www.ldh.nhs.uk/", "wikidata": "Q6705902", "wikipedia": "en:Luton and Dunstable University Hospital"}}, {"name": "Widecombe Nursing Home", "latitude": 51.9174538, "longitude": -0.430024, "source": "osm", "_tags": {"addr:city": "Luton", "addr:country": "GB", "addr:housenumber": "36", "addr:postcode": "LU3 2DT", "addr:street": "Grasmere Road", "amenity": "hospital", "fhrs:authority": "Luton", "fhrs:id": "359496", "fhrs:local_authority_id": "7303", "healthcare": "hospital", "name": "Widecombe Nursing Home", "source": "OS OpenMap Local"}}, {"name": "Spire Hospital", "latitude": 51.8274595, "longitude": -0.3606683, "source": "osm", "_tags": {"addr:city": "Harpenden", "addr:housename": "Spire Harpenden Hospital", "addr:postcode": "AL5 4BP", "addr:street": "Ambrose Lane", "amenity": "hospital", "check_date": "2024-05-11", "emergency": "no", "fhrs:authority": "St Albans City", "fhrs:id": "305378", "healthcare": "hospital", "name": "Spire Hospital", "operator": "Spire Healthcare Group", "operator:type": "private", "phone": "+44 1582 763191", "website": "https://www.spirehealthcare.com/spire-harpenden-hospital/"}}, {"name": "Brooklands Health Centre", "latitude": 52.0460278, "longitude": -0.6759983, "source": "osm", "_tags": {"amenity": "hospital", "healthcare": "hospital", "name": "Brooklands Health Centre"}}, {"name": "Kettering General Hospital - Nene Park", "latitude": 52.3292654, "longitude": -0.6003266, "source": "osm", "_tags": {"amenity": "hospital", "healthcare": "hospital", "name": "Kettering General Hospital - Nene Park"}}, {"name": "Danetre Community Hospital", "latitude": 52.2520408, "longitude": -1.1607954, "source": "osm", "_tags": {"addr:city": "Daventry", "addr:country": "GB", "addr:postcode": "NN11 4DY", "addr:street": "London Road", "amenity": "hospital", "healthcare": "hospital", "name": "Danetre Community Hospital", "operator": "Northamptonshire Healthcare NHS Foundation Trust", "ref:GB:cqc_location": "RP1J6", "source": "bing"}}, {"name": "Royal Buckinghamshire Hospital", "latitude": 51.8207711, "longitude": -0.8159702, "source": "osm", "_tags": {"addr:postcode": "HP19 9AB", "addr:street": "Buckingham Road", "amenity": "hospital", "fhrs:id": "606705", "healthcare": "hospital", "name": "Royal Buckinghamshire Hospital", "website": "https://www.royalbucks.co.uk/", "wikidata": "Q7373861", "wikipedia": "en:Royal Buckinghamshire Hospital"}}, {"name": "Whiteleaf Centre", "latitude": 51.8205916, "longitude": -0.8023131, "source": "osm", "_tags": {"addr:city": "Aylesbury", "addr:postcode": "HP20 1EG", "addr:street": "Bierton Road", "amenity": "hospital", "emergency": "no", "healthcare": "hospital", "name": "Whiteleaf Centre", "website": "https://www.oxfordhealth.nhs.uk/whiteleaf/"}}, {"name": "St. Marys Hospital", "latitude": 52.3937953, "longitude": -0.7215578, "source": "osm", "_tags": {"addr:city": "Kettering", "addr:country": "GB", "addr:housenumber": "77", "addr:postcode": "NN15 7PW", "addr:street": "London Road", "amenity": "hospital", "fhrs:authority": "North Northamptonshire", "fhrs:id": "82965", "fhrs:local_authority_id": "202", "healthcare": "hospital", "name": "St. Marys Hospital", "operator": "Northamptonshire Healthcare NHS Foundation Trust", "phone": "+44 1536 410141", "ref:GB:cqc_location": "RP1A1"}}, {"name": "Brackley Medical Centre & Community Hospital", "latitude": 52.0380188, "longitude": -1.1378293, "source": "osm", "_tags": {"addr:city": "Brackley", "addr:country": "GB", "addr:postcode": "NN13 6QZ", "addr:street": "Wellington Road", "amenity": "hospital", "building": "hospital", "fhrs:authority": "West Northamptonshire", "fhrs:id": "1541453", "fhrs:local_authority_id": "FR/202000171", "healthcare": "hospital", "name": "Brackley Medical Centre & Community Hospital", "ref:GB:cqc_location": "T0F5S"}}, {"name": "The Sett", "latitude": 52.2408893, "longitude": -0.9517056, "source": "osm", "_tags": {"amenity": "hospital", "healthcare": "hospital", "name": "The Sett"}}, {"name": "Harpenden Memorial Hospital", "latitude": 51.818736, "longitude": -0.3531437, "source": "osm", "_tags": {"addr:city": "Harpenden", "addr:postcode": "AL5 4TA", "addr:street": "Carlton Road", "amenity": "hospital", "emergency": "no", "healthcare": "hospital", "name": "Harpenden Memorial Hospital", "operator": "NHS", "operator:wikidata": "Q918396", "phone": "+44 1582 760196"}}, {"name": "Luton and Dunstable Hospital", "latitude": 51.8959515, "longitude": -0.4773565, "source": "osm", "_tags": {"amenity": "hospital", "emergency": "yes", "healthcare": "hospital", "name": "Luton and Dunstable Hospital"}}, {"name": "BMI Saxon Clinic", "latitude": 52.0254443, "longitude": -0.7401826, "source": "osm", "_tags": {"addr:city": "Milton Keynes", "addr:country": "GB", "addr:postcode": "MK6 5LR", "addr:street": "Chadwick Drive", "addr:suburb": "Eaglestone - West", "amenity": "hospital", "building": "yes", "description": "Private Clinic", "fhrs:authority": "Milton Keynes", "fhrs:id": "130145", "fhrs:local_authority_id": "61193", "healthcare": "hospital", "name": "BMI Saxon Clinic", "type": "multipolygon"}}, {"name": "Chadwick Lodge", "latitude": 52.0267646, "longitude": -0.7408895, "source": "osm", "_tags": {"addr:city": "Milton Keynes", "addr:country": "GB", "addr:postcode": "MK6 5LS", "addr:street": "Chadwick Drive", "addr:suburb": "Eaglestone - West", "amenity": "hospital", "building": "yes", "fhrs:authority": "Milton Keynes", "fhrs:id": "131635", "fhrs:local_authority_id": "63161", "healthcare": "hospital", "name": "Chadwick Lodge", "operator": "Elysium Healthcare", "type": "multipolygon"}}, {"name": "Berrywood Hospital", "latitude": 52.2473407, "longitude": -0.9599197, "source": "osm", "_tags": {"addr:city": "Northampton", "addr:country": "GB", "addr:housename": "Berrywood Hospital", "addr:postcode": "NN5 6UD", "addr:street": "Berrywood Drive", "amenity": "hospital", "building": "hospital", "fhrs:authority": "Northampton", "fhrs:id": "181888", "fhrs:local_authority_id": "PI/000071862", "name": "Berrywood Hospital", "operator": "Northamptonshire Healthcare NHS Foundation Trust", "phone": "+44 1604685433", "ref:GB:cqc_location": "RP1V4", "type": "multipolygon", "wikidata": "Q4894895"}}]