[{"name": "Hausarztteam NL Rosenburg", "latitude": 51.9157373, "longitude": 11.8864728, "source": "osm", "_tags": {"addr:city": "Groß Rosenburg", "addr:housenumber": "45", "addr:postcode": "39240", "addr:street": "Hauptstraße", "amenity": "doctors", "healthcare": "hospital", "healthcare:speciality": "general", "name": "Hausarztteam NL Rosenburg", "operator": "Hausarztteam Schönebeck"}}, {"name": "AWO Krankenhaus Calbe", "latitude": 51.9041114, "longitude": 11.7681742, "source": "osm", "_tags": {"amenity": "hospital", "check_date": "2024-03-30", "name": "AWO Krankenhaus Calbe", "website": "https://www.awo-sachsenanhalt.de/awo-krankenhaus-calbe.html"}}, {"name": "AMEOS Klinikum Schönebeck", "latitude": 52.0121087, "longitude": 11.7385396, "source": "osm", "_tags": {"amenity": "hospital", "emergency": "yes", "healthcare": "hospital", "healthcare:speciality": "internal;surgery;gynaecology;vascular_surgery;paediatrics", "name": "AMEOS Klinikum Schönebeck", "wheelchair": "yes"}}, {"name": "Städtisches Klinikum Dessau - Standort Gropiusallee", "latitude": 51.8373598, "longitude": 12.2265922, "source": "osm", "_tags": {"addr:city": "Dessau-Roßlau", "addr:country": "DE", "addr:housenumber": "7", "addr:postcode": "06846", "addr:street": "Gropiusallee", "amenity": "hospital", "contact:phone": "+49 340 65020", "contact:website": "https://klinikum-dessau.de", "emergency": "yes", "healthcare": "hospital", "name": "Städtisches Klinikum Dessau - Standort Gropiusallee", "operator": "Städtisches Klinikum Dessau", "wikidata": "Q28009241", "wikipedia": "de:Städtisches Klinikum Dessau"}}, {"name": "REHA-Klinik \"Hoher Fläming\"", "latitude": 52.1651292, "longitude": 12.5867128, "source": "osm", "_tags": {"addr:city": "Bad Belzig", "addr:country": "DE", "addr:housenumber": "3", "addr:postcode": "14806", "addr:street": "Hermann-Lielje-Straße", "amenity": "hospital", "check_date": "2025-08-06", "contact:fax": "+49-33841-54-799", "contact:phone": "+49-33841-54-0", "name": "REHA-Klinik \"Hoher Fläming\"", "website": "http://www.rehaklinikum-oberlinhaus.de/startseite/", "wheelchair": "yes"}}, {"name": "Ev. Krankenhaus Paul Gerhardt Stift", "latitude": 51.8702739, "longitude": 12.6558726, "source": "osm", "_tags": {"addr:city": "Wittenberg", "addr:country": "DE", "addr:housenumber": "42-45", "addr:postcode": "06886", "addr:street": "Paul-Gerhardt-Straße", "amenity": "hospital", "emergency": "yes", "healthcare": "hospital", "name": "Ev. Krankenhaus Paul Gerhardt Stift", "operator": "Paul Gerhardt Diakonie Krankenhaus und Pflege GmbH", "phone": "+49 3491 500", "website": "https://www.pgdiakonie.de/evangelisches-krankenhaus-paul-gerhardt-stift/", "wheelchair": "yes"}}, {"name": "HELIOS Klinik Jerichower Land", "latitude": 52.2646007, "longitude": 11.832682, "source": "osm", "_tags": {"addr:city": "Burg", "addr:country": "DE", "addr:housenumber": "55A", "addr:postcode": "39288", "addr:street": "August-Bebel-Straße", "amenity": "hospital", "contact:facebook": "https://www.facebook.com/heliosburg/", "contact:instagram": "heliosburg", "contact:phone": "+49 3921 960", "contact:website": "https://www.helios-gesundheit.de/kliniken/burg/", "emergency": "yes", "healthcare": "hospital", "healthcare:speciality": "anaesthetics;cardiology;gastroenterology;geriatrics;gynaecology;internal;orthopaedics;paediatrics;palliative;plastic_surgery;radiology;surgery", "name": "HELIOS Klinik Jerichower Land", "operator": "Helios Kliniken", "operator:wikidata": "Q1254151", "operator:wikipedia": "de:Helios Kliniken", "source": "survey", "toilets:wheelchair": "yes", "wheelchair": "yes"}}, {"name": "Maßregelvollzug Uchtspringe Außenstelle Lochow", "latitude": 52.1562875, "longitude": 11.9927213, "source": "osm", "_tags": {"addr:city": "Möckern", "addr:country": "DE", "addr:housenumber": "3", "addr:postcode": "39291", "addr:street": "Lochow", "amenity": "hospital", "barrier": "fence", "contact:phone": "+49 39221 6470", "contact:website": "https://www.salus-lsa.de/kliniken-einrichtungen-leistungen/forensische-psychiatrie-und-massregelvollzug/massregelvollzug-uchtspringe", "emergency": "no", "healthcare": "hospital", "healthcare:speciality": "forensic_psychiatry", "name": "Maßregelvollzug Uchtspringe Außenstelle Lochow", "note": "Außenstelle Lochow", "operator": "Salus gGmbH"}}, {"name": "Psychiatrische Tagesklinik Dessau", "latitude": 51.8389319, "longitude": 12.2462386, "source": "osm", "_tags": {"addr:city": "Dessau-Roßlau", "addr:country": "DE", "addr:housenumber": "66", "addr:postcode": "06844", "addr:street": "Teichstraße", "amenity": "clinic", "building": "civic", "healthcare": "hospital", "healthcare:speciality": "psychiatry", "name": "Psychiatrische Tagesklinik Dessau", "opening_hours": "Mo-Fr 08:00-15:00; Sa,Su,PH off", "operator": "Alexianer Sachsen-Anhalt GmbH"}}, {"name": "Lungenklinik Lostau", "latitude": 52.2154038, "longitude": 11.728622, "source": "osm", "_tags": {"addr:city": "Möser", "addr:country": "DE", "addr:housenumber": "2", "addr:postcode": "39291", "addr:street": "Lindenstraße", "addr:suburb": "Lostau", "amenity": "hospital", "contact:email": "blkh@pfeiffersche-stiftungen.de", "contact:phone": "+49 39222 80", "contact:website": "http://www.lungenklinik-lostau.de/", "healthcare": "hospital", "healthcare:speciality": "anaesthetics;oncology;pulmonology;surgery", "name": "Lungenklinik Lostau", "operator": "Lungenklinik Lostau gGmbH;Pfeiffersche Stiftungen zu Magdeburg-Cracau", "wheelchair": "yes"}}, {"name": "Haus 2", "latitude": 51.8173679, "longitude": 12.1973842, "source": "osm", "_tags": {"building": "hospital", "building:levels": "2", "healthcare": "hospital", "healthcare:speciality": "psychiatry", "height": "15", "name": "Haus 2", "roof:height": "3", "roof:material": "roof_tiles", "roof:shape": "gabled"}}, {"name": "Haus 1", "latitude": 51.8180924, "longitude": 12.1972561, "source": "osm", "_tags": {"addr:city": "Dessau-Roßlau", "addr:housenumber": "36", "addr:postcode": "06847", "addr:street": "Auenweg", "building": "hospital", "healthcare": "hospital", "healthcare:speciality": "psychiatry", "name": "Haus 1"}}, {"name": "Helios Klinik Zerbst/Anhalt", "latitude": 51.960414, "longitude": 12.0945424, "source": "osm", "_tags": {"addr:housenumber": "53", "addr:postcode": "39261", "addr:street": "Friedrich-Naumann-Straße", "amenity": "hospital", "healthcare": "hospital", "name": "Helios Klinik Zerbst/Anhalt", "operator": "Helios Kliniken", "operator:wikidata": "Q1254151", "toilets:wheelchair": "yes", "website": "https://www.helios-gesundheit.de/kliniken/zerbst/", "wheelchair": "yes"}}, {"name": "Städtisches Klinikum Dessau - Standort Auenweg", "latitude": 51.81597, "longitude": 12.1973961, "source": "osm", "_tags": {"addr:city": "Dessau-Roßlau", "addr:housenumber": "38", "addr:postcode": "06847", "addr:street": "Auenweg", "amenity": "hospital", "emergency": "yes", "healthcare": "hospital", "name": "Städtisches Klinikum Dessau - Standort Auenweg", "operator": "Städtisches Klinikum Dessau", "operator:type": "public"}}, {"name": "Klinik Ernst von Bergmann Bad Belzig", "latitude": 52.1406209, "longitude": 12.5990698, "source": "osm", "_tags": {"amenity": "hospital", "check_date": "2024-07-24", "contact:email": "info@klinikevb.de", "contact:fax": "+49 33841 93-386", "contact:phone": "+49 33841 93-0", "contact:website": "https://www.klinikevb-badbelzig.de", "emergency": "yes", "healthcare": "hospital", "name": "Klinik Ernst von Bergmann Bad Belzig", "opening_hours": "24/7", "operator": "Klinik Ernst von Bergmann Bad Belzig gGmbH", "wheelchair": "yes"}}, {"name": "HELIOS Fachkrankenhaus Vogelsang-Gommern", "latitude": 52.0837182, "longitude": 11.7808336, "source": "osm", "_tags": {"addr:city": "Gommern", "addr:country": "DE", "addr:housenumber": "1", "addr:postcode": "39245", "addr:street": "Sophie-von-Boetticher-Straße", "addr:suburb": "Vogelsang", "amenity": "hospital", "contact:facebook": "https://www.facebook.com/heliosvogelsang/", "contact:phone": "+49 39200 670", "contact:website": "https://www.helios-gesundheit.de/kliniken/vogelsang-gommern", "healthcare": "hospital", "healthcare:speciality": "anaesthetics;orthopaedics;palliative;physiatry;rheumatology", "name": "HELIOS Fachkrankenhaus Vogelsang-Gommern", "operator": "Helios Kliniken", "operator:wikidata": "Q1254151"}}, {"name": "St. Joseph-Krankenhaus Dessau", "latitude": 51.817703, "longitude": 12.1969078, "source": "osm", "_tags": {"addr:city": "Dessau-Roßlau", "addr:housenumber": "36", "addr:postcode": "06847", "addr:street": "Auenweg", "amenity": "hospital", "emergency": "yes", "healthcare": "hospital", "healthcare:speciality": "psychiatry", "name": "St. Joseph-Krankenhaus Dessau", "operator": "Alexianer Sachsen-​Anhalt GmbH", "operator:type": "religious"}}, {"name": "Haus 1", "latitude": 51.8155512, "longitude": 12.1973244, "source": "osm", "_tags": {"addr:city": "Dessau-Roßlau", "addr:housenumber": "38", "addr:postcode": "06847", "addr:street": "Auenweg", "building": "hospital", "contact:phone": "+49 340 5010", "description": "Helicopter landing pad available", "electricity": "grid", "emergency": "yes", "health_amenity:type": "emergency_department;imaging_equipment;intensive_care_unit;operating_theater;ultrasound;x_ray", "healthcare": "hospital", "healthcare:speciality": "emergency", "name": "Haus 1", "operational_status": "operational", "operator": "Städtisches Klinikum Dessau", "type": "multipolygon", "url": "http://www.klinikum-dessau.de/", "wheelchair": "yes", "wikidata": "Q28737984"}}, {"name": "AMEOS Klinikum Schönebeck", "latitude": 52.0044494, "longitude": 11.7278532, "source": "osm", "_tags": {"amenity": "hospital", "contact:email": "verwaltung@kh-sbk.de", "contact:facebook": "https://www.facebook.com/AMEOSGruppe", "contact:fax": "+49 3928 641609", "contact:instagram": "https://www.instagram.com/ameos_gruppe", "contact:linkedin": "https://www.linkedin.com/company/ameos-gruppe", "contact:phone": "+49 3928 640", "contact:website": "https://www.ameos.de/klinikum-schoenebeck", "emergency": "yes", "healthcare": "hospital", "healthcare:speciality": "internal;surgery;gynaecology;vascular_surgery;paediatrics", "name": "AMEOS Klinikum Schönebeck", "operator": "Ameos", "operator:wikidata": "Q462865", "type": "site"}}]