[{"name": "Paracelsus-Roswitha-Klinik", "latitude": 51.876518, "longitude": 10.0351333, "source": "osm", "_tags": {"addr:city": "Bad Gandersheim", "addr:country": "DE", "addr:housenumber": "2a", "addr:street": "Dr.-Heinrich-Jasper-Straße", "amenity": "hospital", "healthcare": "rehabilitation", "name": "Paracelsus-Roswitha-Klinik", "url": "http://www.paracelsus-kliniken.de", "website": "https://www.paracelsus-kliniken.de/roswitha-klinik.html", "wheelchair": "yes"}}, {"name": "DIAKOVERE Henriettenstift - Zentrum für Medizin im Alter", "latitude": 52.3632398, "longitude": 9.8282801, "source": "osm", "_tags": {"addr:city": "Hannover", "addr:country": "DE", "addr:housenumber": "19", "addr:postcode": "30559", "addr:street": "Schwemannstraße", "alt_name": "neubethesda", "amenity": "hospital", "entrance": "main", "healthcare": "hospital", "loc_name": "Neu-Bethesda", "name": "DIAKOVERE Henriettenstift - Zentrum für Medizin im Alter", "website": "https://www.diakovere.de/standorte/henriettenstift/geriatrie/#c4178", "wheelchair": "yes"}}, {"name": "Neonatologie", "latitude": 52.3631444, "longitude": 9.8281623, "source": "osm", "_tags": {"alt_name:en": "NICU", "healthcare": "hospital", "name": "Neonatologie", "name:en": "Newborn Intensive Care Unit"}}, {"name": "Tagesklinik", "latitude": 52.3800509, "longitude": 9.9847098, "source": "osm", "_tags": {"addr:city": "Lehrte", "addr:housenumber": "22a", "addr:postcode": "31275", "addr:street": "Manskestraße", "amenity": "hospital", "emergency": "no", "healthcare": "hospital", "healthcare:speciality": "psychiatry", "level": "1", "name": "Tagesklinik", "operator": "Klinikum Wahrendorff GmbH"}}, {"name": "Ameos-Poliklinikum Herr Pochat (Neurologe)", "latitude": 51.9944136, "longitude": 9.8324613, "source": "osm", "_tags": {"addr:postcode": "31061", "amenity": "hospital", "healthcare": "hospital", "healthcare:speciality": "neurology", "name": "Ameos-Poliklinikum Herr Pochat (Neurologe)", "operator": "Ameos", "operator:wikidata": "Q462865", "operator:wikipedia": "de:Ameos"}}, {"name": "Akut-Geriatrie", "latitude": 52.3635005, "longitude": 9.8283296, "source": "osm", "_tags": {"healthcare": "hospital", "healthcare:speciality": "geriatrics", "name": "Akut-Geriatrie"}}, {"name": "Kurklinik", "latitude": 51.8757972, "longitude": 10.031864, "source": "osm", "_tags": {"addr:housenumber": "5", "addr:street": "Habichtsfang", "amenity": "hospital", "name": "Kurklinik"}}, {"name": "Städtisches Klinikum Celler Straße", "latitude": 52.2747448, "longitude": 10.5037949, "source": "osm", "_tags": {"addr:city": "Braunschweig", "addr:country": "DE", "addr:postcode": "38114", "addr:street": "Celler Straße", "amenity": "hospital", "emergency": "yes", "healthcare": "hospital", "healthcare:speciality": "gynaecology;intensive;radiology;oncology;abortion;clinical_pathology;diagnostic_radiology;geriatrics;haematology;pathology;dental_oral_maxillo_facial_surgery;neonatology;nuclear;apotheke;sozialpsychatrie", "name": "Städtisches Klinikum Celler Straße", "operator": "Städtisches Klinikum Braunschweig gGmbH", "operator:type": "public", "website": "https://www.klinikum-braunschweig.de/index.php?id=481", "wheelchair": "yes"}}, {"name": "KRH Klinikum Agnes Karll Laatzen", "latitude": 52.3066548, "longitude": 9.7988431, "source": "osm", "_tags": {"amenity": "hospital", "emergency": "yes", "healthcare": "hospital", "name": "KRH Klinikum Agnes Karll Laatzen", "operator": "KRH Klinikum Region Hannover", "wheelchair": "yes", "wikidata": "Q50037262"}}, {"name": "Klinikum Peine", "latitude": 52.3013824, "longitude": 10.2390635, "source": "osm", "_tags": {"addr:city": "Peine", "addr:housenumber": "8", "addr:postcode": "31226", "addr:street": "Virchowstraße", "addr:suburb": "Kernstadt Süd", "amenity": "hospital", "emergency": "yes", "healthcare": "hospital", "name": "Klinikum Peine", "phone": "+49 5171 930", "website": "https://www.klinikum-peine.de/", "wheelchair": "yes", "wikidata": "Q64739297"}}, {"name": "Klinikum Braunschweig Salzdahlumer Straße", "latitude": 52.2379093, "longitude": 10.5476076, "source": "osm", "_tags": {"addr:city": "Braunschweig", "addr:housenumber": "90", "addr:postcode": "38126", "addr:street": "Salzdahlumer Straße", "amenity": "hospital", "emergency": "yes", "healthcare": "hospital", "hospital:level:DE": "3", "name": "Klinikum Braunschweig Salzdahlumer Straße", "operator": "Klinikum Braunschweig gGmbH", "toilets:wheelchair": "yes", "website": "https://www.klinikum-braunschweig.de/482.0.html", "wheelchair": "yes", "wikidata": "Q118205923"}}, {"name": "KRH Klinkum Lehrte", "latitude": 52.3801602, "longitude": 9.9838359, "source": "osm", "_tags": {"addr:city": "Lehrte", "addr:country": "DE", "addr:housenumber": "22", "addr:postcode": "31275", "addr:street": "Manskestraße", "amenity": "hospital", "emergency": "yes", "fax": "+495132 503288", "healthcare": "hospital", "name": "KRH Klinkum Lehrte", "operator": "KRH Klinikum Region Hannover", "phone": "+495132 5030", "website": "https://lehrte.krh.de/", "wheelchair": "yes"}}, {"name": "Kinderkrankenhaus auf der Bult", "latitude": 52.3604101, "longitude": 9.7769977, "source": "osm", "_tags": {"addr:city": "Hannover", "addr:housenumber": "12", "addr:postcode": "30173", "addr:street": "Janusz-Korczak-Allee", "alt_name": "Kinder- und Jugendkrankenhaus Auf der Bult", "amenity": "hospital", "email": "info@hka.de", "fax": "+49 511 8115 - 1060", "healthcare": "hospital", "healthcare:speciality": "paediatrics", "name": "Kinderkrankenhaus auf der Bult", "phone": "+49 511 8115 - 0", "website": "https://www.auf-der-bult.de", "wikidata": "Q1741836", "wikimedia_commons": "Category:Kinderkrankenhaus auf der Bult (Hannover)", "wikipedia": "de:Kinderkrankenhaus auf der Bult"}}, {"name": "Annastift", "latitude": 52.3707439, "longitude": 9.8098058, "source": "osm", "_tags": {"addr:city": "Hannover", "addr:housenumber": "1-7", "addr:postcode": "30625", "addr:street": "Anna-von-Borries-Straße", "amenity": "hospital", "healthcare": "hospital", "name": "Annastift", "name:etymology:wikidata": "Q560462", "name:etymology:wikipedia": "de:Anna von Borries", "phone": "+49 511 5354-0", "website": "https://www.diakovere.de/unternehmen-und-mehr/krankenhaeuser/annastift/", "wheelchair": "yes", "wikidata": "Q564619", "wikimedia_commons": "Category:Annastift (Hannover)", "wikipedia": "de:Annastift (Hannover)"}}, {"name": "Helios Klinikum Salzgitter", "latitude": 52.1544926, "longitude": 10.3180927, "source": "osm", "_tags": {"addr:city": "Salzgitter", "addr:housenumber": "191", "addr:postcode": "38226", "addr:street": "Kattowitzer Straße", "amenity": "hospital", "fax": "+49 5341 835 1515", "healthcare": "hospital", "name": "Helios Klinikum Salzgitter", "operator": "Helios Kliniken", "operator:type": "private", "operator:wikidata": "Q1254151", "operator:wikipedia": "de:Helios Kliniken", "phone": "+49 5341 835 0", "toilets:wheelchair": "yes", "website": "http://www.helios-kliniken.de/klinik/salzgitter.html", "wheelchair": "yes"}}, {"name": "Henriettenstift Neu-Bethesda Kirchrode", "latitude": 52.3634111, "longitude": 9.8285557, "source": "osm", "_tags": {"healthcare": "hospital", "name": "Henriettenstift Neu-Bethesda Kirchrode", "operator": "Diakovere gGmbH", "website": "https://www.diakovere.de"}}, {"name": "Vinzenzkrankenhaus", "latitude": 52.3583668, "longitude": 9.8147936, "source": "osm", "_tags": {"addr:city": "Hannover", "addr:housenumber": "31", "addr:postcode": "30559", "addr:street": "Lange-Feld-Straße", "amenity": "hospital", "emergency": "yes", "fax": "+49 511 950-2950", "healthcare": "hospital", "name": "Vinzenzkrankenhaus", "phone": "+49 511 950-0", "website": "https://www.vinzenzkrankenhaus.de/", "wheelchair": "yes", "wikidata": "Q50038936", "wikimedia_commons": "Category:Vinzenzkrankenhaus Hannover", "wikipedia": "de:Vinzenzkrankenhaus (Hannover)"}}, {"name": "Asklepios Harzklinik Goslar", "latitude": 51.9278474, "longitude": 10.4428702, "source": "osm", "_tags": {"addr:postcode": "38642", "alt_name": "Asklepios Harzkliniken Dr.-Herbert-Nieper-Krankenhaus Goslar", "amenity": "hospital", "healthcare": "hospital", "name": "Asklepios Harzklinik Goslar", "operator": "Asklepios Kliniken", "operator:type": "private", "operator:wikidata": "Q732068", "phone": "+495321440", "website": "https://www.asklepios.com/goslar", "wheelchair": "yes"}}, {"name": "VAMED Rehaklinik Bad Salzdetfurth", "latitude": 52.0734351, "longitude": 10.010782, "source": "osm", "_tags": {"addr:city": "Bad Salzdetfurth", "addr:country": "DE", "addr:housenumber": "6", "addr:postcode": "31162", "addr:street": "An der Peesel", "amenity": "hospital", "building": "hospital", "healthcare": "rehabilitation", "healthcare:speciality": "cardiology;orthopaedics;geriatrics", "name": "VAMED Rehaklinik Bad Salzdetfurth", "website": "https://www.vamed-gesundheit.de/reha/bad-salzdetfurth/", "wheelchair": "yes"}}, {"name": "MEDIAN Salze Klinik Bad Salzdetfurth", "latitude": 52.07375, "longitude": 10.0126957, "source": "osm", "_tags": {"addr:city": "Bad Salzdetfurth", "addr:country": "DE", "addr:housenumber": "5", "addr:postcode": "31162", "addr:street": "An der Peesel", "amenity": "hospital", "building": "yes", "healthcare": "rehabilitation", "healthcare:speciality": "orthopaedics;psychotherapy", "name": "MEDIAN Salze Klinik Bad Salzdetfurth", "website": "https://www.median-kliniken.de/de/standorte/median-salze-klinik-bad-salzdetfurth", "wheelchair": "yes"}}, {"name": "Klinik am Kronsberg", "latitude": 52.3096396, "longitude": 9.8344793, "source": "osm", "_tags": {"addr:city": "Hannover", "addr:country": "DE", "addr:housenumber": "61", "addr:postcode": "30539", "addr:street": "Debberoder Straße", "amenity": "hospital", "healthcare": "hospital", "name": "Klinik am Kronsberg", "note": "Laut Beschilderung vor Ort geht das Klinikgelände bis zum Weg im Westen", "source": "Bing"}}, {"name": "Asklepios Kliniken Schildautal", "latitude": 51.8830065, "longitude": 10.2162063, "source": "osm", "_tags": {"addr:city": "Seesen", "addr:housenumber": "1", "addr:postcode": "38723", "addr:street": "Karl-Herold-Straße", "amenity": "hospital", "building": "hospital", "healthcare": "hospital", "name": "Asklepios Kliniken Schildautal", "operator": "Asklepios Kliniken", "operator:type": "private", "operator:wikidata": "Q732068", "operator:wikipedia": "de:Asklepios Kliniken", "website": "https://www.asklepios.com/seesen/", "wheelchair": "yes"}}, {"name": "Einbecker Bürgerspital", "latitude": 51.8338789, "longitude": 9.8685914, "source": "osm", "_tags": {"addr:city": "Einbeck", "addr:country": "DE", "addr:housenumber": "8", "addr:postcode": "37574", "addr:street": "Andershäuser Straße", "amenity": "hospital", "building": "hospital", "healthcare": "hospital", "name": "Einbecker Bürgerspital", "website": "https://einbecker-buergerspital.de/", "wheelchair": "yes"}}, {"name": "Asklepios Harzklinik Bad Harzburg", "latitude": 51.885651, "longitude": 10.5759017, "source": "osm", "_tags": {"addr:city": "Bad Harzburg", "addr:country": "DE", "addr:housenumber": "95", "addr:postcode": "38667", "addr:street": "Ilsenburger Straße", "alt_name": "Asklepios Harzkliniken Fritz-König-Stift Bad Harzburg", "amenity": "hospital", "healthcare": "hospital", "healthcare:speciality": "orthopaedics", "name": "Asklepios Harzklinik Bad Harzburg", "operator": "Asklepios Kliniken", "operator:type": "private", "operator:wikidata": "Q732068", "website": "https://www.asklepios.com/badharzburg/"}}, {"name": "Herzogin Elisabeth Hospital", "latitude": 52.2329433, "longitude": 10.5263304, "source": "osm", "_tags": {"addr:city": "Braunschweig", "addr:country": "DE", "addr:housenumber": "24", "addr:postcode": "38124", "addr:street": "Leipziger Straße", "addr:suburb": "Melverode", "amenity": "hospital", "contact:email": "info@heh-bs.de", "contact:phone": "+49 531 699 0", "contact:website": "http://www.heh-bs.de", "healthcare": "hospital", "name": "Herzogin Elisabeth Hospital", "name:etymology:wikidata": "Q2214093", "short_name": "HEH", "wheelchair": "yes", "wikidata": "Q63872143"}}, {"name": "AMEOS Klinikum Alfeld", "latitude": 51.994362, "longitude": 9.8328582, "source": "osm", "_tags": {"addr:city": "Alfeld", "addr:housenumber": "26", "addr:postcode": "31061", "addr:street": "Landrat-Beushausen-Straße", "amenity": "hospital", "building": "hospital", "emergency": "yes", "healthcare": "hospital", "name": "AMEOS Klinikum Alfeld", "operator": "Ameos", "operator:type": "private", "operator:wikidata": "Q462865", "operator:wikipedia": "de:Ameos", "website": "https://www.ameos.eu/standorte/ameos-west/alfeld/ameos-klinikum-alfeld/", "wheelchair": "yes"}}, {"name": "Johanniterstift", "latitude": 52.0854518, "longitude": 9.7772029, "source": "osm", "_tags": {"addr:city": "Gronau (Leine)", "addr:housenumber": "6", "addr:postcode": "31028", "addr:street": "Junkernstraße", "amenity": "hospital", "brand": "Johanniter", "brand:wikidata": "Q28131582", "brand:wikipedia": "de:Johanniter GmbH", "building": "yes", "healthcare": "hospital", "name": "Johanniterstift", "operator": "Johanniter GmbH", "operator:type": "ngo", "operator:wikidata": "Q28131582", "operator:wikipedia": "de:Johanniter GmbH", "social_facility": "nursing_home", "social_facility:for": "senior", "website": "https://www.johanniter.de/johanniter-seniorenhaeuser/standorte/johanniter-stift-gronau/"}}, {"name": "Johanniter Stift Elze", "latitude": 52.1161907, "longitude": 9.7360844, "source": "osm", "_tags": {"addr:city": "Elze", "addr:housenumber": "6", "addr:postcode": "31008", "addr:street": "Sehlder Straße", "amenity": "hospital", "brand": "Johanniter", "brand:wikidata": "Q28131582", "brand:wikipedia": "de:Johanniter GmbH", "building": "yes", "building:levels": "2.5", "healthcare": "hospital", "name": "Johanniter Stift Elze", "operator": "Johanniter GmbH", "operator:type": "private", "operator:wikidata": "Q28131582", "operator:wikipedia": "de:Johanniter GmbH", "phone": "+49 5068 93344 0", "roof:levels": "1", "social_facility": "nursing_home", "social_facility:for": "senior", "website": "https://www.johanniter.de/johanniter-seniorenhaeuser/standorte/johanniter-stift-elze/"}}, {"name": "Cochlear Implant Centrum", "latitude": 52.3933671, "longitude": 9.7870991, "source": "osm", "_tags": {"amenity": "hospital", "contact:website": "http://www.cic-hannover.de/", "healthcare": "hospital", "name": "Cochlear Implant Centrum"}}, {"name": "Marienstift", "latitude": 52.2586934, "longitude": 10.5478986, "source": "osm", "_tags": {"addr:city": "Braunschweig", "addr:country": "DE", "addr:housenumber": "35", "addr:postcode": "38102", "addr:street": "Helmstedter Straße", "amenity": "hospital", "healthcare": "hospital", "name": "Marienstift", "old_name": "Haus Siloah", "operator": "Evangelische Stiftung Neuerkerode", "website": "https://www.neuerkerode.de/krankenhaus-marienstift/", "wheelchair": "yes"}}, {"name": "", "latitude": 52.3695569, "longitude": 9.7550133, "source": "osm", "_tags": {"addr:city": "Hannover", "addr:country": "DE", "addr:housenumber": "72-90", "addr:postcode": "30171", "addr:street": "Marienstraße", "building": "hospital", "building:use": "medical", "fixme": "Split into multiple buildings", "healthcare": "hospital", "toilets:wheelchair": "yes", "wheelchair": "yes"}}, {"name": "DRK-Krankenhaus Clementinenhaus", "latitude": 52.3865243, "longitude": 9.7450518, "source": "osm", "_tags": {"addr:city": "Hannover", "addr:country": "DE", "addr:housenumber": "1", "addr:postcode": "30161", "addr:street": "Lützerodestraße", "alt_name": "Clementinenhaus", "amenity": "hospital", "brand": "Deutsches Rotes Kreuz", "brand:wikidata": "Q694104", "brand:wikipedia": "de:Deutsches Rotes Kreuz", "check_date": "2025-03-25", "email": "info@clementinenhaus.de", "fax": "+49 511 3394-2509", "healthcare": "hospital", "name": "DRK-Krankenhaus Clementinenhaus", "phone": "+49 511 33942500", "website": "https://www.clementinenhaus.de/", "wheelchair": "yes", "wikidata": "Q20831036", "wikimedia_commons": "Category:Clementinenhaus Hannover", "wikipedia": "de:Clementinenhaus"}}, {"name": "Psych-Dorf", "latitude": 52.336757, "longitude": 9.9451494, "source": "osm", "_tags": {"amenity": "hospital", "building": "yes", "healthcare": "hospital", "name": "Psych-Dorf", "source": "Bing 2012"}}, {"name": "Dr. Fontheim Mentale Gesundheit", "latitude": 52.0230238, "longitude": 10.4316145, "source": "osm", "_tags": {"addr:city": "Liebenburg", "addr:housenumber": "15", "addr:postcode": "38704", "addr:street": "Lindenstraße", "amenity": "hospital", "healthcare": "hospital", "healthcare:speciality": "psychiatry", "name": "Dr. Fontheim Mentale Gesundheit", "website": "https://www.fontheim.de/", "wheelchair": "yes", "wikidata": "Q116137360"}}, {"name": "Johanniter-Krankenhaus Gronau", "latitude": 52.0820098, "longitude": 9.7668802, "source": "osm", "_tags": {"addr:city": "Gronau (Leine)", "addr:housenumber": "1-3", "addr:postcode": "31028", "addr:street": "Johanniterstraße", "amenity": "hospital", "email": "info@johanniter-gronau.de", "fax": "+49 5182 583 101", "healthcare": "hospital", "name": "Johanniter-Krankenhaus Gronau", "phone": "+49 5182 583 0", "website": "https://www.johanniter.de/einrichtungen/krankenhaus/gronau/"}}, {"name": "Städtisches Klinikum Wolfenbüttel", "latitude": 52.1798402, "longitude": 10.5340282, "source": "osm", "_tags": {"addr:city": "Wolfenbüttel", "addr:country": "DE", "addr:housenumber": "80", "addr:postcode": "38302", "addr:street": "Alter Weg", "amenity": "hospital", "email": "info@klinikum-wolfenbüttel.de", "emergency": "yes", "fax": "+49 5331 934444", "healthcare": "hospital", "name": "Städtisches Klinikum Wolfenbüttel", "phone": "+49 5331 9340", "website": "https://www.klinikum-wolfenbuettel.de/", "wheelchair": "yes", "wikidata": "Q55774513"}}, {"name": "Haus Hagenberg", "latitude": 52.0262567, "longitude": 10.6076614, "source": "osm", "_tags": {"addr:city": "Schladen-Werla", "addr:housenumber": "1", "addr:street": "Auf dem Hagenberg", "addr:suburb": "Hornburg", "amenity": "hospital", "building": "hospital", "healthcare": "hospital", "name": "Haus Hagenberg", "operator": "Der Paritätische, Braunschweig", "website": "https://www.paritaetischer-bs.de/angebote/sucht-und-drogen/haus-hagenberg/"}}, {"name": "Helios Klinikum Hildesheim", "latitude": 52.151027, "longitude": 9.9766477, "source": "osm", "_tags": {"addr:city": "Hildesheim", "addr:housenumber": "33", "addr:postcode": "31135", "addr:street": "Senator-Braun-Allee", "amenity": "hospital", "emergency": "yes", "healthcare": "hospital", "name": "Helios Klinikum Hildesheim", "operator": "Helios Kliniken", "operator:type": "private", "operator:wikidata": "Q1254151", "website": "https://www.helios-gesundheit.de/kliniken/hildesheim/"}}, {"name": "Barbarossa Klinik", "latitude": 51.8777889, "longitude": 10.5632176, "source": "osm", "_tags": {"amenity": "hospital", "check_date": "2025-07-19", "healthcare": "hospital", "name": "Barbarossa Klinik"}}, {"name": "BürgerGesundheitsPark", "latitude": 51.8736883, "longitude": 10.0267767, "source": "osm", "_tags": {"addr:city": "Bad Gandersheim", "addr:housenumber": "2", "addr:postcode": "37581", "addr:street": "Albert-Rohloff-Straße", "amenity": "hospital", "healthcare": "hospital", "name": "BürgerGesundheitsPark", "operator": "UMG Göttingen", "phone": "05382 702-0", "website": "https://www.buergergesundheitspark.de/"}}, {"name": "Klinikum Wahrendorff Standort Ilten", "latitude": 52.343839, "longitude": 9.9318014, "source": "osm", "_tags": {"amenity": "hospital", "fixme": "Klinikgelände genau Kartographieren", "healthcare": "hospital", "healthcare:speciality": "psychiatry", "name": "Klinikum Wahrendorff Standort Ilten", "operator": "Klinikum Wahrendorff GmbH", "operator:type": "private", "website": "https://www.wahrendorff.de/"}}, {"name": "International Neuroscience Institute", "latitude": 52.3901791, "longitude": 9.7967442, "source": "osm", "_tags": {"addr:city": "Hannover", "addr:country": "DE", "addr:postcode": "30625", "addr:street": "Rudolf-Pichlmayr-Straße", "alt_name": "INI", "amenity": "hospital", "healthcare": "hospital", "name": "International Neuroscience Institute", "name:fa": "بنیاد علمی بین‌المللی علوم مغز و اعصاب", "name:pt": "Instituto Internacional de Neurociência", "name:ru": "Международный институт неврологии", "phone": "+49 511 270920", "website": "https://www.ini-hannover.de/", "wikidata": "Q1666786", "wikimedia_commons": "Category:International Neuroscience Institute", "wikipedia": "de:International Neuroscience Institute"}}, {"name": "Paracelsus-Klinik am See", "latitude": 51.8689875, "longitude": 10.0415911, "source": "osm", "_tags": {"amenity": "hospital", "name": "Paracelsus-Klinik am See"}}, {"name": "Diakovere Henriettenstift Marienstraße", "latitude": 52.3694158, "longitude": 9.7549227, "source": "osm", "_tags": {"amenity": "hospital", "contact:fax": "+49 511 2892000", "contact:phone": "+49 511 2890", "emergency": "yes", "healthcare": "hospital", "name": "Diakovere Henriettenstift Marienstraße", "operator": "Diakovere", "website": "https://www.diakovere.de/unternehmen-und-mehr/krankenhaeuser/henriettenstift", "wikidata": "Q1606222", "wikimedia_commons": "Category:Henriettenstiftung (Hannover)", "wikipedia": "de:Krankenhaus Diakovere Henriettenstift"}}, {"name": "Klinikum Wahrendorff", "latitude": 52.335456, "longitude": 9.9470568, "source": "osm", "_tags": {"amenity": "hospital", "healthcare": "hospital", "healthcare:speciality": "psychiatry", "name": "Klinikum Wahrendorff"}}, {"name": "Klinik am Zuckerberg", "latitude": 52.2418479, "longitude": 10.5294111, "source": "osm", "_tags": {"addr:city": "Braunschweig", "addr:country": "DE", "addr:housenumber": "2", "addr:postcode": "38124", "addr:street": "Zuckerbergweg", "amenity": "hospital", "healthcare": "hospital", "name": "Klinik am Zuckerberg", "website": "https://www.klinik-am-zuckerberg.de/"}}, {"name": "St. Bernward Krankenhaus", "latitude": 52.1471624, "longitude": 9.947384, "source": "osm", "_tags": {"addr:city": "Hildesheim", "addr:country": "DE", "addr:housenumber": "9", "addr:postcode": "31134", "addr:street": "Treibestraße", "amenity": "hospital", "building": "yes", "healthcare": "hospital", "name": "St. Bernward Krankenhaus", "type": "multipolygon", "wheelchair": "limited", "wikidata": "Q30260743"}}, {"name": "St.-Elisabeth-Krankenhaus", "latitude": 52.0454172, "longitude": 10.3716055, "source": "osm", "_tags": {"addr:housenumber": "20", "addr:postcode": "38259", "addr:street": "Liebenhaller Straße", "amenity": "hospital", "building": "hospital", "healthcare": "hospital", "name": "St.-Elisabeth-Krankenhaus", "phone": "+49 5341 8240", "type": "multipolygon", "website": "https://www.st-elisabeth-sz.de/"}}, {"name": "Sophienklinik", "latitude": 52.3621536, "longitude": 9.7772505, "source": "osm", "_tags": {"addr:city": "Hannover", "addr:country": "DE", "addr:housenumber": "160", "addr:postcode": "30173", "addr:street": "Bischofsholer Damm", "amenity": "hospital", "building": "hospital", "building:levels": "3", "healthcare": "hospital", "height": "9", "name": "Sophienklinik", "operator": "Sophienklinik GmbH", "roof:shape": "flat", "type": "multipolygon", "website": "https://www.sophienklinik.de/"}}, {"name": "Zentralklinikum Wahrendorff", "latitude": 52.3355621, "longitude": 9.9447875, "source": "osm", "_tags": {"addr:city": "Sehnde", "addr:housenumber": "6", "addr:postcode": "31319", "addr:street": "Matthias-Wilkening-Weg", "amenity": "hospital", "building": "yes", "healthcare": "hospital", "name": "Zentralklinikum Wahrendorff", "operator": "Klinikum Wahrendorff GmbH", "type": "multipolygon", "wheelchair": "yes"}}, {"name": "Medizinische Hochschule Hannover", "latitude": 52.383524, "longitude": 9.8035698, "source": "osm", "_tags": {"addr:city": "Hannover", "addr:country": "DE", "addr:housenumber": "1", "addr:postcode": "30625", "addr:street": "Carl-Neuberg-Straße", "amenity": "hospital", "emergency": "yes", "healthcare": "hospital", "healthcare:speciality": "psychiatry;paediatrics;ophthalmology;dentistry;gynaecology;cardiology;emergency;surgery;oncology;dermatology;orthopaedics;internal;radiology;dialysis;maternity;biology;nephrology", "hospital:level:DE": "3", "name": "Medizinische Hochschule Hannover", "phone": "+49 511 532-0", "smoking": "no", "smoking:outside": "separated", "type": "multipolygon", "website": "https://www.mhh.de", "wheelchair": "yes", "wikidata": "Q911561", "wikipedia": "de:Medizinische Hochschule Hannover"}}, {"name": "AMEOS Klinikum", "latitude": 52.1449341, "longitude": 9.9848439, "source": "osm", "_tags": {"amenity": "hospital", "healthcare": "hospital", "name": "AMEOS Klinikum", "operator": "Ameos", "operator:type": "private", "operator:wikidata": "Q462865", "operator:wikipedia": "de:Ameos", "type": "multipolygon"}}]