[{"name": "Lampeter Medical Practice", "latitude": 52.1125961, "longitude": -4.076953, "source": "osm", "_tags": {"addr:city": "Lampeter", "addr:housename": "Lampeter Medicall Practice", "addr:postcode": "SA48 7AA", "addr:street": "Bridge Street", "amenity": "hospital", "emergency": "no", "healthcare": "hospital", "name": "Lampeter Medical Practice"}}, {"name": "Llandovery Hospital", "latitude": 51.9987191, "longitude": -3.796741, "source": "osm", "_tags": {"addr:city": "Llandovery", "addr:place": "Cottage Hospital", "addr:postcode": "SA20 0LA", "addr:street": "Llanfair Road", "amenity": "hospital", "contact:phone": "+44 1550 722200", "emergency": "no", "fhrs:id": "41549", "healthcare": "hospital", "name": "Llandovery Hospital", "name:cy": "Ysbyty Llanymddyfri", "source:addr": "FHRS Open Data", "wikidata": "Q65088798"}}, {"name": "Cottage Hospital Llandrindod Wells", "latitude": 52.2433383, "longitude": -3.3767912, "source": "osm", "_tags": {"addr:city": "Llandrindod Wells", "addr:country": "GB", "addr:postcode": "LD1 5HF", "addr:street": "Temple Street", "amenity": "hospital", "contact:phone": "+44 1597 822951", "emergency": "no", "healthcare": "hospital", "name": "Cottage Hospital Llandrindod Wells", "start_date": "1880"}}, {"name": "Aberaeron Integrated Care Centre", "latitude": 52.2378197, "longitude": -4.2577004, "source": "osm", "_tags": {"addr:city": "Aberaeron", "addr:housename": "Integrated Care Centre", "addr:postcode": "SA46 0DY", "addr:street": "Vicarage Hill,", "amenity": "hospital", "building:levels": "2", "healthcare": "hospital", "healthcare:speciality": "community", "name": "Aberaeron Integrated Care Centre", "note": "Front of the building at ground floor is Outpatient clinic\nRear of building is Tanyfron GP Surgery. Upstairs is Health office space", "operator": "Hywel Dda University Health Board", "operator:type": "state_primary_health_care"}}, {"name": "Ambulance station", "latitude": 52.2373556, "longitude": -4.2566841, "source": "osm", "_tags": {"addr:city": "Aberaeron", "addr:housename": "Integrated Health Centre", "addr:postcode": "SA46 0DY", "addr:street": "Vicarage Hill", "amenity": "hospital", "emergency": "yes", "healthcare": "hospital", "healthcare:speciality": "general;ambulance", "name": "Ambulance station", "operator": "WAST", "operator:type": "public"}}, {"name": "Brecon War Memorial Hospital", "latitude": 51.9486854, "longitude": -3.3846889, "source": "osm", "_tags": {"amenity": "hospital", "emergency": "yes", "healthcare": "hospital", "name": "Brecon War Memorial Hospital", "name:cy": "Ysbyty Coffa Rhyfel Sir Frycheiniog (Aberhonddu)", "wheelchair": "yes", "wikidata": "Q96373927"}}, {"name": "Tregaron Hospital", "latitude": 52.215621, "longitude": -3.9365246, "source": "osm", "_tags": {"addr:city": "Tregaron", "addr:housename": "Tregaron Hospital", "addr:postcode": "SY25 6JP", "addr:street": "Dewi Road", "amenity": "hospital", "emergency": "no", "healthcare": "hospital", "name": "Tregaron Hospital", "name:cy": "Ysbyty Tregaron", "operator": "Hywel Dda University Health Board", "operator:type": "public", "phone": "+44 1974 298 203", "website": "https://hduhb.nhs.wales/healthcare/hospitals-and-centres/community-hospitals/tregaron-hospital/", "wheelchair": "yes"}}]