[{"name": "Hafan Derwen Psychiatric Unit", "latitude": 51.8565844, "longitude": -4.337879, "source": "osm", "_tags": {"amenity": "hospital", "healthcare": "hospital", "name": "Hafan Derwen Psychiatric Unit", "operator": "NHS (Hywel Dda Health Board)"}}, {"name": "Ysbyty Cyffredinol Glangwili / Glangwili General Hospital", "latitude": 51.8681033, "longitude": -4.2845401, "source": "osm", "_tags": {"addr:city": "Carmarthen", "addr:postcode": "SA31 2AF", "addr:street": "Dolgwili Road", "amenity": "hospital", "healthcare": "hospital", "name": "Ysbyty Cyffredinol Glangwili / Glangwili General Hospital", "name:cy": "Ysbyty Cyffredinol Glangwili", "name:en": "Glangwili General Hospital", "operator": "Hywel Dda Local Health Board", "phone": "+44 1267 235151", "wikidata": "Q18378847", "wikipedia": "en:Glangwili General Hospital"}}, {"name": "Ysbyty Werndale Private Hospital", "latitude": 51.8343617, "longitude": -4.4374841, "source": "osm", "_tags": {"amenity": "hospital", "healthcare": "hospital", "name": "Ysbyty Werndale Private Hospital", "name:cy": "Ysbyty Werndale"}}]