[{"name": "AMEOS Poliklinikum Wernigerode", "latitude": 51.837743, "longitude": 10.7937621, "source": "osm", "_tags": {"addr:city": "Wernigerode", "addr:housenumber": "5", "addr:postcode": "38855", "addr:street": "Kohlgartenstraße", "amenity": "hospital", "healthcare": "hospital", "healthcare:speciality": "otolaryngology", "name": "AMEOS Poliklinikum Wernigerode", "operator": "Ameos", "operator:wikidata": "Q462865"}}, {"name": "Krankenhaus St. Marienstift Magdeburg", "latitude": 52.1373597, "longitude": 11.6004457, "source": "osm", "_tags": {"addr:city": "Magdeburg", "addr:country": "DE", "addr:housenumber": "30", "addr:postcode": "39110", "addr:street": "Harsdorfer Straße", "amenity": "hospital", "fixme": "nördl. Begrenzung", "healthcare": "hospital", "name": "Krankenhaus St. Marienstift Magdeburg", "website": "https://www.st-marienstift.de/", "wheelchair": "no", "wikidata": "Q1435924", "wikipedia": "de:Krankenhaus St. Marienstift Magdeburg"}}, {"name": "AMEOS Klinikum St. Salvator Halberstadt", "latitude": 51.901313, "longitude": 11.0537131, "source": "osm", "_tags": {"addr:city": "Halberstadt", "addr:housenumber": "5", "addr:postcode": "38820", "addr:street": "Gleimstraße", "amenity": "hospital", "building": "hospital", "emergency": "yes", "healthcare": "hospital", "name": "AMEOS Klinikum St. Salvator Halberstadt", "operator": "Ameos", "operator:type": "private", "operator:wikidata": "Q462865", "toilets:wheelchair": "yes", "wheelchair": "yes", "wikidata": "Q28738008"}}, {"name": "Klinikum Magdeburg", "latitude": 52.157752, "longitude": 11.5817958, "source": "osm", "_tags": {"addr:city": "Magdeburg", "addr:country": "DE", "addr:housenumber": "34", "addr:postcode": "39130", "addr:street": "Birkenallee", "amenity": "hospital", "emergency": "yes", "healthcare": "hospital", "hospital:level:DE": "3", "loc_name": "Städtisches Klinikum", "name": "Klinikum Magdeburg", "old_name": "Walter-Friedrich-Krankenhaus", "operator": "Klinikum Magdeburg gGmbH", "website": "https://www.klinikum-magdeburg.de/", "wheelchair": "yes", "wikidata": "Q1774636", "wikipedia": "de:Klinikum Magdeburg"}}, {"name": "Rehabilitationsklinik Bad Salzelmen", "latitude": 51.997816, "longitude": 11.7192693, "source": "osm", "_tags": {"addr:city": "Schönebeck (Elbe)", "addr:housenumber": "5", "addr:postcode": "39218", "addr:street": "Badepark", "amenity": "hospital", "building": "hospital", "contact:website": "https://www.rehaklinik-bad-salzelmen.de/", "healthcare": "hospital", "healthcare:speciality": "orthopaedics;oncology;pulmonology", "name": "Rehabilitationsklinik Bad Salzelmen", "operator": "Waldburg-Zeil Kliniken", "toilets:wheelchair": "yes", "wheelchair": "yes"}}, {"name": "Klinikum in den Pfeifferschen Stiftungen", "latitude": 52.1152065, "longitude": 11.6678862, "source": "osm", "_tags": {"addr:city": "Magdeburg", "addr:country": "DE", "addr:housenumber": "10", "addr:postcode": "39114", "addr:street": "Pfeifferstraße", "addr:suburb": "Cracau", "amenity": "hospital", "barrier": "fence", "emergency": "yes", "healthcare": "hospital", "name": "Klinikum in den Pfeifferschen Stiftungen", "operator": "Klinikum in den Pfeifferschen Stiftungen gGmbH", "reg_name": "Pfeiffersche Stiftungen", "toilets:wheelchair": "yes", "website": "https://www.klinikum-pfeiffer.de/", "wheelchair": "yes", "wikidata": "Q1751440", "wikipedia": "de:Pfeiffersche Stiftungen"}}, {"name": "Universitätsfrauenklinik Magdeburg", "latitude": 52.129445, "longitude": 11.6177219, "source": "osm", "_tags": {"addr:city": "Magdeburg", "addr:country": "DE", "addr:housenumber": "35", "addr:postcode": "39108", "addr:street": "Gerhart-Hauptmann-Straße", "amenity": "hospital", "check_date": "2025-07-27", "healthcare": "hospital", "healthcare:speciality": "gynaecology", "name": "Universitätsfrauenklinik Magdeburg", "operator": "Uniklinik Magdeburg", "website": "http://www.kgyn.ovgu.de/", "wheelchair": "yes", "wikipedia": "de:Landesfrauenklinik Magdeburg"}}, {"name": "AMEOS Klinikum Haldensleben", "latitude": 52.2855412, "longitude": 11.3769246, "source": "osm", "_tags": {"addr:city": "Haldensleben", "addr:country": "DE", "addr:housenumber": "27", "addr:postcode": "39340", "addr:street": "Kiefholzstraße", "amenity": "hospital", "contact:phone": "+49 3904 4740", "contact:website": "https://www.ameos.eu/standorte/ameos-ost/haldensleben/ameos-klinikum-haldensleben/", "emergency": "yes", "healthcare": "hospital", "healthcare:speciality": "anaesthetics;cardiology;emergency;gastroenterology;internal;neurology;ophthalmology;orthopaedics;otolaryngology;radiology;surgery;trauma;urology", "name": "AMEOS Klinikum Haldensleben", "old_name": "Sana-Klinkum", "operator": "AMEOS Grupe"}}, {"name": "Lebenshilfe Reinsdorf", "latitude": 52.1558258, "longitude": 11.0423135, "source": "osm", "_tags": {"addr:city": "Büddenstedt", "addr:country": "DE", "addr:housenumber": "8", "addr:postcode": "38372", "addr:street": "Schwalbenweg", "addr:suburb": "Reinsdorf", "amenity": "hospital", "building": "yes", "healthcare": "hospital", "name": "Lebenshilfe Reinsdorf"}}, {"name": "AWO Psychiatriezentrum", "latitude": 52.2438432, "longitude": 10.812723, "source": "osm", "_tags": {"addr:city": "Königslutter am Elm", "addr:country": "DE", "addr:housenumber": "10", "addr:postcode": "38154", "addr:street": "Vor dem Kaiserdom", "amenity": "hospital", "healthcare": "hospital", "healthcare:speciality": "psychiatry", "name": "AWO Psychiatriezentrum", "website": "https://www.awo-psychiatriezentrum.de/", "wheelchair": "yes", "wikidata": "Q21006486"}}, {"name": "Fachklinik Alte Ölmühle", "latitude": 52.1292409, "longitude": 11.6730435, "source": "osm", "_tags": {"addr:city": "Magdeburg", "addr:country": "DE", "addr:housenumber": "66", "addr:postcode": "39114", "addr:street": "Berliner Chaussee", "amenity": "hospital", "emergency": "no", "healthcare": "rehabilitation", "healthcare:speciality": "psychiatry", "name": "Fachklinik Alte Ölmühle", "operator": "SRH Gesundheit", "phone": "+49 391 81040", "website": "https://www.fachklinik-alte-oelmuehle.de/", "wheelchair": "yes", "wikidata": "Q47535891"}}, {"name": "HELIOS Bördeklinik", "latitude": 52.0658403, "longitude": 11.1905095, "source": "osm", "_tags": {"addr:city": "Oschersleben", "addr:country": "DE", "addr:housenumber": "4", "addr:postcode": "39387", "addr:street": "Kreiskrankenhaus", "addr:suburb": "Neindorf", "amenity": "hospital", "contact:fax": "+49 3949 935202", "contact:phone": "+49 3949 9350", "contact:website": "https://www.helios-gesundheit.de/kliniken/boerdeklinik/", "emergency": "yes", "healthcare": "hospital", "healthcare:speciality": "anaesthetics;surgery;gastroenterology;geriatrics;internal;intensive;cardiology;orthopaedics;palliative;plastic_surgery;radiology;urology", "name": "HELIOS Bördeklinik", "operator": "Helios Kliniken", "operator:wikidata": "Q1254151"}}, {"name": "MEDIAN Klinik Flechtingen", "latitude": 52.3251649, "longitude": 11.2382678, "source": "osm", "_tags": {"addr:city": "Flechtingen", "addr:country": "DE", "addr:housenumber": "1-3", "addr:postcode": "39345", "addr:street": "Parkstraße", "amenity": "hospital", "contact:email": "kontakt.flechtingen@median-kliniken.de", "contact:phone": "+49 39054 81999", "contact:website": "https://www.median-kliniken.de/de/median-klinik-flechtingen/ueber-uns/", "healthcare": "hospital", "healthcare:speciality": "cardiology;neurology;pulmonology", "name": "MEDIAN Klinik Flechtingen", "operator": "MEDIAN Kliniken GmbH"}}, {"name": "Lungenklinik Lostau", "latitude": 52.2154038, "longitude": 11.728622, "source": "osm", "_tags": {"addr:city": "Möser", "addr:country": "DE", "addr:housenumber": "2", "addr:postcode": "39291", "addr:street": "Lindenstraße", "addr:suburb": "Lostau", "amenity": "hospital", "contact:email": "blkh@pfeiffersche-stiftungen.de", "contact:phone": "+49 39222 80", "contact:website": "http://www.lungenklinik-lostau.de/", "healthcare": "hospital", "healthcare:speciality": "anaesthetics;oncology;pulmonology;surgery", "name": "Lungenklinik Lostau", "operator": "Lungenklinik Lostau gGmbH;Pfeiffersche Stiftungen zu Magdeburg-Cracau", "wheelchair": "yes"}}, {"name": "Universitätsklinikum Magdeburg", "latitude": 52.102679, "longitude": 11.6152851, "source": "osm", "_tags": {"addr:city": "Magdeburg", "addr:housenumber": "44", "addr:postcode": "39120", "addr:street": "Leipziger Straße", "alt_name": "Medizinische Fakultät der Otto-von-Guericke-Universität", "amenity": "hospital", "contact:email": "pressestelle@med.ovgu.de", "contact:phone": "+49 3916701", "contact:website": "https://www.med.uni-magdeburg.de/", "emergency": "yes", "healthcare": "hospital", "name": "Universitätsklinikum Magdeburg", "name:en": "University hospital Magdeburg", "official_name": "Otto-von-Guericke-Universität - Medizinische Fakultät - Universitätsklinikum Magdeburg A. ö. R.", "old_name": "Medizinische Akademie", "operator": "Universitätsklinikum Magdeburg A. ö. R.", "wheelchair": "yes", "wikidata": "Q18334570", "wikipedia": "de:Universitätsklinikum Magdeburg"}}, {"name": "AMEOS Klinikum Haldensleben - Psychatrie", "latitude": 52.2821615, "longitude": 11.3704754, "source": "osm", "_tags": {"addr:city": "Haldensleben", "addr:country": "DE", "addr:housenumber": "4", "addr:postcode": "39340", "addr:street": "Kiefholzstraße", "amenity": "hospital", "contact:phone": "+49 3904 4750", "contact:website": "https://www.ameos.eu/standorte/ameos-ost/haldensleben/ameos-klinikum-haldensleben/", "healthcare": "hospital", "healthcare:speciality": "child_psychiatry;psychiatry", "name": "AMEOS Klinikum Haldensleben - Psychatrie", "operator": "AMEOS Grupe"}}, {"name": "Haus 60e", "latitude": 52.1023985, "longitude": 11.61887, "source": "osm", "_tags": {"building": "hospital", "building:levels": "3", "check_date": "2025-09-15", "healthcare": "hospital", "name": "Haus 60e", "operator": "Universitätsklinikum Magdeburg A. ö. R."}}, {"name": "AMEOS Klinikum St. Salvator Halberstadt", "latitude": 51.9009145, "longitude": 11.0531608, "source": "osm", "_tags": {"amenity": "hospital", "healthcare": "hospital", "name": "AMEOS Klinikum St. Salvator Halberstadt", "operator": "Ameos", "operator:type": "private", "operator:wikidata": "Q462865"}}, {"name": "Klinikum Staßfurt", "latitude": 51.8531235, "longitude": 11.5928657, "source": "osm", "_tags": {"amenity": "hospital", "check_date": "2025-04-15", "emergency": "yes", "healthcare": "hospital", "name": "Klinikum Staßfurt", "official_name": "Klinikum Aschersleben-Staßfurt GmbH - Standort Staßfurt", "phone": "+49 3925 262-0", "toilets:wheelchair": "yes", "website": "http://www.kkl-as.de", "wheelchair": "yes"}}, {"name": "Median Klinik NRZ", "latitude": 52.0862359, "longitude": 11.6375143, "source": "osm", "_tags": {"addr:city": "Magdeburg", "addr:housenumber": "4", "addr:postcode": "39120", "addr:street": "Gustav-Ricker-Straße", "amenity": "hospital", "building": "yes", "name": "Median Klinik NRZ", "type": "multipolygon", "website": "https://www.median-kliniken.de/de/standorte/median-klinik-nrz-magdeburg/klinikprofil/"}}, {"name": "Harz-Klinikum Wernigerode", "latitude": 51.8356751, "longitude": 10.7744284, "source": "osm", "_tags": {"addr:city": "Wernigerode", "addr:country": "DE", "addr:housenumber": "15", "addr:postcode": "38855", "addr:street": "Ilsenburger Straße", "amenity": "hospital", "healthcare": "hospital", "name": "Harz-Klinikum Wernigerode", "operator": "Harz-Klinikum Wernigerode-Blankenburg GmbH", "operator:type": "public", "phone": "+49 3943 610", "type": "multipolygon", "website": "http://www.harz-klinikum.de/"}}, {"name": "HELIOS St. Marienberg Klinik Helmstedt", "latitude": 52.2319847, "longitude": 10.9996985, "source": "osm", "_tags": {"addr:city": "Helmstedt", "addr:country": "DE", "addr:housenumber": "26", "addr:postcode": "38350", "addr:street": "Conringstraße", "amenity": "hospital", "emergency": "yes", "healthcare": "hospital", "name": "HELIOS St. Marienberg Klinik Helmstedt", "old_name": "Kreiskrankenhaus St. Marienberg", "operator": "Helios Kliniken", "operator:wikidata": "Q1254151", "type": "multipolygon", "wheelchair": "yes"}}, {"name": "AMEOS Klinikum Schönebeck", "latitude": 52.0044494, "longitude": 11.7278532, "source": "osm", "_tags": {"amenity": "hospital", "contact:email": "verwaltung@kh-sbk.de", "contact:facebook": "https://www.facebook.com/AMEOSGruppe", "contact:fax": "+49 3928 641609", "contact:instagram": "https://www.instagram.com/ameos_gruppe", "contact:linkedin": "https://www.linkedin.com/company/ameos-gruppe", "contact:phone": "+49 3928 640", "contact:website": "https://www.ameos.de/klinikum-schoenebeck", "emergency": "yes", "healthcare": "hospital", "healthcare:speciality": "internal;surgery;gynaecology;vascular_surgery;paediatrics", "name": "AMEOS Klinikum Schönebeck", "operator": "Ameos", "operator:wikidata": "Q462865", "type": "site"}}]