[{"name": "Nuffield Health Hereford Hospital", "latitude": 52.0638103, "longitude": -2.6999319, "source": "osm", "_tags": {"addr:city": "Hereford", "addr:housenumber": "2", "addr:postcode": "HR1 1DF", "addr:street": "Venns Lane", "amenity": "hospital", "fhrs:id": "489529", "healthcare": "hospital", "name": "Nuffield Health Hereford Hospital", "operator": "Nuffield Health", "operator:type": "private", "operator:wikidata": "Q7068711", "source:addr": "FHRS Open Data"}}, {"name": "First Aid Hut", "latitude": 52.3776866, "longitude": -2.2916322, "source": "osm", "_tags": {"amenity": "hospital", "healthcare": "hospital", "name": "First Aid Hut"}}, {"name": "Velindre@Neville Hall", "latitude": 51.8236544, "longitude": -3.0345767, "source": "osm", "_tags": {"addr:city": "Abergavenny", "addr:housename": "Velindre@Neville Hall", "addr:postcode": "NP7 7EG", "addr:street": "Brecon Road", "amenity": "hospital", "healthcare": "hospital", "healthcare:speciality": "oncology", "name": "Velindre@Neville Hall", "operator": "Velindre Cancer Service", "operator:type": "public"}}, {"name": "Ross on Wye Community Hospital", "latitude": 51.9125048, "longitude": -2.5836057, "source": "osm", "_tags": {"amenity": "hospital", "building": "yes", "emergency": "no", "healthcare": "hospital", "name": "Ross on Wye Community Hospital"}}, {"name": "Malvern Community Hospital", "latitude": 52.1248407, "longitude": -2.3209327, "source": "osm", "_tags": {"addr:city": "Malvern", "addr:housenumber": "185", "addr:postcode": "WR14 1EX", "addr:street": "Worcester Road", "amenity": "hospital", "check_date": "2025-07-28", "fhrs:id": "672768", "healthcare": "hospital", "name": "Malvern Community Hospital", "note": "needs a better survey", "source:addr": "FHRS Open Data"}}, {"name": "Nevill Hall Hospital", "latitude": 51.8239518, "longitude": -3.0339902, "source": "osm", "_tags": {"addr:city": "Abergavenny", "addr:housename": "Nevill Hall General Hospital", "addr:postcode": "NP7 7EG", "addr:street": "Brecon Road", "amenity": "hospital", "emergency": "yes", "healthcare": "hospital", "healthcare:speciality": "general", "name": "Nevill Hall Hospital", "name:cy": "Ysbyty Neuadd Nevill", "operator": "NHS", "operator:type": "public", "operator:wikidata": "Q918396", "source": "Bing", "source:name": "survey", "wikidata": "Q7004588", "wikipedia": "en:Nevill Hall Hospital"}}, {"name": "Ty Gwyn Hall", "latitude": 51.8434989, "longitude": -3.0086266, "source": "osm", "_tags": {"amenity": "hospital", "healthcare": "hospital", "name": "Ty Gwyn Hall", "operator": "Elysium Healthcare", "operator:type": "private"}}, {"name": "Bromyard Community Hospital", "latitude": 52.1863461, "longitude": -2.5068822, "source": "osm", "_tags": {"addr:city": "Bromyard", "addr:postcode": "HR7 4QN", "addr:street": "Highwell Lane", "amenity": "hospital", "building": "hospital", "emergency": "no", "fhrs:id": "489643", "healthcare": "hospital", "name": "Bromyard Community Hospital", "phone": "+44 1885 485700", "source:addr": "FHRS Open Data"}}, {"name": "Kington Surgery", "latitude": 52.1965266, "longitude": -3.0211958, "source": "osm", "_tags": {"amenity": "hospital", "building": "yes", "healthcare": "hospital", "name": "Kington Surgery"}}, {"name": "Ludlow Hospital", "latitude": 52.373655, "longitude": -2.7144022, "source": "osm", "_tags": {"addr:city": "Ludlow", "addr:street": "Gravel Hill", "alt_name": "Ludlow Community Hospital", "amenity": "hospital", "healthcare": "hospital", "name": "Ludlow Hospital", "old_name": "East Hamlet Hospital", "operator": "NHS", "operator:type": "public", "operator:wikidata": "Q918396", "toilets:wheelchair": "yes", "wheelchair": "yes", "wikidata": "Q14956774", "wikipedia": "en:Ludlow Hospital"}}, {"name": "Hereford County Hospital", "latitude": 52.0568243, "longitude": -2.7063369, "source": "osm", "_tags": {"amenity": "hospital", "emergency": "yes", "healthcare": "hospital", "name": "Hereford County Hospital", "toilets:wheelchair": "yes", "wheelchair": "yes", "wikidata": "Q30279757", "wikipedia": "en:Hereford County Hospital"}}, {"name": "Leominster Community Hospital", "latitude": 52.2230756, "longitude": -2.7388958, "source": "osm", "_tags": {"addr:city": "Leominster", "addr:postcode": "HR6 8JH", "addr:street": "South Street", "amenity": "hospital", "healthcare": "hospital", "name": "Leominster Community Hospital", "operator": "Wye Valley NHS Trust"}}, {"name": "Tenbury Community Hospital", "latitude": 52.3152968, "longitude": -2.5896006, "source": "osm", "_tags": {"addr:city": "Tenbury Wells", "addr:country": "GB", "addr:postcode": "WR15 8AP", "addr:street": "Worcester Road", "addr:suburb": "Burford", "amenity": "hospital", "emergency": "no", "fhrs:authority": "Shropshire", "fhrs:id": "698881", "fhrs:local_authority_id": "14/00225/COMM", "healthcare": "hospital", "name": "Tenbury Community Hospital"}}, {"name": "Ledbury Community Health and Care Centre", "latitude": 52.0359987, "longitude": -2.4248629, "source": "osm", "_tags": {"addr:city": "Ledbury", "amenity": "hospital", "healthcare": "hospital", "name": "Ledbury Community Health and Care Centre"}}, {"name": "Forest of Dean Community Hospital", "latitude": 51.8313467, "longitude": -2.5056502, "source": "osm", "_tags": {"amenity": "hospital", "emergency": "no", "healthcare": "hospital", "name": "Forest of Dean Community Hospital", "operator": "Gloucestershire Health and Care NHS Foundation Trust", "operator:type": "public", "ref:GB:cqc_location": "Y4W1S"}}, {"name": "Hay on Wye Medical Centre", "latitude": 52.0701957, "longitude": -3.1257457, "source": "osm", "_tags": {"amenity": "hospital", "building": "yes", "healthcare": "hospital", "name": "Hay on Wye Medical Centre"}}, {"name": "Maindiff Court Hospital", "latitude": 51.833163, "longitude": -2.9955648, "source": "osm", "_tags": {"addr:postcode": "NP7 8NF", "addr:street": "Ross Road", "amenity": "hospital", "contact:phone": "+44 1873 735500", "emergency": "no", "healthcare": "hospital", "name": "Maindiff Court Hospital", "wikidata": "Q6736266", "wikipedia": "en:Maindiff Court Hospital"}}, {"name": "Bronllys Community Hospital", "latitude": 52.0078794, "longitude": -3.2590169, "source": "osm", "_tags": {"addr:city": "Brecon", "addr:city:cy": "Aberhonddu", "addr:city:en": "Brecon", "addr:country": "GB", "addr:postcode": "LD3 0LY", "addr:street": "Brecon Road", "addr:suburb": "Bronllys", "amenity": "hospital", "email": "powys.geninfo@wales.nhs.uk", "emergency": "no", "healthcare": "hospital", "name": "Bronllys Community Hospital", "name:cy": "Ysbyty Cymunedol Bronllys", "operator": "Powys Teaching Health Board", "operator:type": "government", "phone": "+44 1874 711 255", "website": "https://pthb.nhs.wales/hospitals-and-centres/south-powys/bronllys-hospital/", "wikidata": "Q30265249", "wikipedia": "en:Bronllys Hospital"}}]