[{"name": "Klinikum Frankfurt (Oder)", "latitude": 52.3006469, "longitude": 14.4811759, "source": "osm", "_tags": {"amenity": "hospital", "healthcare": "hospital", "name": "Klinikum Frankfurt (Oder)", "operator": "Klinikum Frankfurt (Oder) GmbH", "toilets:wheelchair": "yes", "wheelchair": "yes", "wikidata": "Q120207399"}}, {"name": "Ev. Krankenhaus Lutherstift", "latitude": 52.3328044, "longitude": 14.5360488, "source": "osm", "_tags": {"amenity": "hospital", "healthcare": "hospital", "name": "Ev. Krankenhaus Lutherstift", "wheelchair": "yes", "wikidata": "Q58137470"}}, {"name": "Städtisches Krankenhaus", "latitude": 52.3412818, "longitude": 14.5425897, "source": "osm", "_tags": {"amenity": "hospital", "healthcare": "hospital", "name": "Städtisches Krankenhaus"}}, {"name": "Naemi-Wilke-Stift", "latitude": 51.9454905, "longitude": 14.7143495, "source": "osm", "_tags": {"amenity": "hospital", "emergency": "yes", "healthcare": "hospital", "healthcare:speciality": "internal;orthopaedics;surgery", "name": "Naemi-Wilke-Stift"}}, {"name": "Spreewaldklinik Lübben", "latitude": 51.9442037, "longitude": 13.8747771, "source": "osm", "_tags": {"addr:city": "Lübben (Spreewald)", "addr:country": "DE", "addr:housenumber": "29", "addr:postcode": "15907", "addr:street": "Schillerstraße", "amenity": "hospital", "contact:website": "https://www.klinikum-ds.de/", "emergency": "yes", "healthcare": "hospital", "healthcare:speciality": "surgery;gynaecology;internal;paediatrics", "name": "Spreewaldklinik Lübben", "operator": "Klinikum Dahme-Spreewald GmbH", "wheelchair": "yes"}}, {"name": "Städtisches Krankenhaus Eisenhüttenstadt", "latitude": 52.1412034, "longitude": 14.6250877, "source": "osm", "_tags": {"addr:city": "Eisenhüttenstadt", "addr:housenumber": "39", "addr:postcode": "15890", "addr:street": "Friedrich-Engels-Straße", "amenity": "hospital", "emergency": "yes", "name": "Städtisches Krankenhaus Eisenhüttenstadt", "operator": "Städtisches Krankenhaus Eisenhüttenstadt GmbH", "wheelchair": "yes"}}, {"name": "Asklepios Fachklinikum Lübben", "latitude": 51.9358187, "longitude": 13.8867778, "source": "osm", "_tags": {"addr:city": "Lübben (Spreewald)", "addr:country": "DE", "addr:housenumber": "17", "addr:postcode": "15907", "addr:street": "Luckauer Straße", "amenity": "hospital", "healthcare": "hospital", "healthcare:speciality": "child_psychiatry;neurology;psychiatry", "name": "Asklepios Fachklinikum Lübben", "operator": "Asklepios Kliniken", "operator:type": "private", "operator:wikidata": "Q732068", "phone": "+49 3546 290", "website": "https://www.asklepios.com/luebben", "wheelchair": "yes", "wikidata": "Q15792107"}}, {"name": "Helios Klinikum Bad Saarow", "latitude": 52.2837019, "longitude": 14.0623505, "source": "osm", "_tags": {"addr:city": "Bad Saarow", "addr:country": "DE", "addr:housenumber": "33", "addr:postcode": "15526", "addr:street": "Pieskower Straße", "amenity": "hospital", "healthcare": "hospital", "name": "Helios Klinikum Bad Saarow", "operator": "Helios Kliniken", "operator:wikidata": "Q1254151", "operator:wikipedia": "de:Helios Kliniken", "phone": "+49 33631 70", "wheelchair": "yes", "wikidata": "Q50038600"}}, {"name": "Niepubliczny Zakład Opieki Zdrowotnej Szpital im. Profesora Zbigniewa Religi w Słubicach sp. z o.o.", "latitude": 52.3516804, "longitude": 14.55672, "source": "osm", "_tags": {"amenity": "hospital", "email": "sekretariat@szpitalslubice.pl", "emergency": "yes", "healthcare": "hospital", "name": "Niepubliczny Zakład Opieki Zdrowotnej Szpital im. Profesora Zbigniewa Religi w Słubicach sp. z o.o.", "name:de": "Distrikt Krankenhaus", "operator": "Powiat Słubicki", "phone": "+48 95 758 20 71", "website": "https://www.szpitalslubice.pl/", "wikidata": "Q24946642", "wikipedia": "pl:Szpital Powiatowy w Słubicach"}}, {"name": "Rehabilitacja", "latitude": 51.9459833, "longitude": 14.7277967, "source": "osm", "_tags": {"addr:city": "Gubin", "addr:housenumber": "35", "addr:postcode": "66-620", "addr:street": "Śląska", "amenity": "hospital", "building": "yes", "building:levels": "2", "healthcare": "hospital", "height": "8", "name": "Rehabilitacja", "operator": "Zachodnie Centrum Medyczne sp. z o.o."}}, {"name": "Ośrodek Zdrowia Grunwald", "latitude": 51.9455958, "longitude": 14.7276546, "source": "osm", "_tags": {"addr:city": "Gubin", "addr:housenumber": "35B", "addr:postcode": "66-620", "addr:street": "Śląska", "amenity": "clinic", "building": "yes", "healthcare": "hospital", "healthcare:speciality": "psychiatry;internal", "name": "Ośrodek Zdrowia Grunwald", "operator": "Stanisław Bojkowski"}}, {"name": "Zachodnie Centrum Medyczne sp. z o.o.", "latitude": 51.9455824, "longitude": 14.7268107, "source": "osm", "_tags": {"addr:city": "Gubin", "addr:housenumber": "35", "addr:postcode": "66-620", "addr:street": "Śląska", "amenity": "hospital", "building": "yes", "building:levels": "2", "healthcare": "hospital", "height": "10", "name": "Zachodnie Centrum Medyczne sp. z o.o.", "operator": "Zachodnie Centrum Medyczne w Krośnie Odrzańskim", "url": "https://polska-org.pl/6863993,Gubin,Zachodnie_Centrum_Medyczne.html"}}, {"name": "Gutsschloss Blossin", "latitude": 52.2549901, "longitude": 13.798825, "source": "osm", "_tags": {"access": "private", "addr:city": "Heidesee", "addr:housenumber": "7", "addr:postcode": "15754", "addr:street": "Anger", "addr:suburb": "Blossin", "amenity": "hospital", "health_facility:type": "therapy", "healthcare": "hospital", "healthcare:speciality": "psychiatry", "name": "Gutsschloss Blossin", "website": "https://www.gutsschloss-blossin.de/"}}, {"name": "", "latitude": 52.1921163, "longitude": 14.0065434, "source": "osm", "_tags": {"amenity": "hospital"}}, {"name": "Oder-Spree Krankenhaus Beeskow", "latitude": 52.1703835, "longitude": 14.2415615, "source": "osm", "_tags": {"addr:city": "Beeskow", "addr:country": "DE", "addr:housenumber": "28", "addr:postcode": "15848", "addr:street": "Schützenstraße", "amenity": "hospital", "fax": "+49 3366 444444", "healthcare": "hospital", "name": "Oder-Spree Krankenhaus Beeskow", "phone": "+49 3366 4440", "type": "multipolygon", "wheelchair": "yes"}}]