[{"name": "ZGT Almelo", "latitude": 52.337155, "longitude": 6.6408034, "source": "osm", "_tags": {"addr:city": "Almelo", "addr:housenumber": "1", "addr:postcode": "7609PP", "addr:street": "Zilvermeeuw", "amenity": "hospital", "email": "info@zgt.nl", "emergency": "yes", "healthcare": "hospital", "name": "ZGT Almelo", "phone": "+31 88 708 7878", "source": "BAG", "source:date": "2014-06-29", "website": "https://www.zgt.nl/patienten-en-bezoekers/zgt-locaties-contactgegevens/ziekenhuislocatie-almelo/"}}, {"name": "Slingeland Ziekenhuis Locatie Gezellenlaan", "latitude": 51.9543817, "longitude": 6.3012531, "source": "osm", "_tags": {"addr:city": "Doetinchem", "addr:housenumber": "10", "addr:postcode": "7005AZ", "addr:street": "Gezellenlaan", "amenity": "hospital", "healthcare": "hospital", "name": "Slingeland Ziekenhuis Locatie Gezellenlaan", "source": "BAG", "source:date": "2014-02-11", "website": "https://dermatologie.slingeland.nl/kenniscentrum/"}}, {"name": "Radiotherapiegroep", "latitude": 52.00138, "longitude": 5.9081681, "source": "osm", "_tags": {"addr:city": "Arnhem", "addr:housenumber": "47", "addr:postcode": "6815AD", "addr:street": "Wagnerlaan", "amenity": "hospital", "healthcare": "hospital", "healthcare:speciality": "radiotherapy", "name": "Radiotherapiegroep", "source": "BAG", "source:date": "2014-02-11", "wikidata": "Q50037746"}}, {"name": "Streekziekenhuis Koningin Beatrix", "latitude": 51.9786141, "longitude": 6.7014269, "source": "osm", "_tags": {"addr:city": "Winterswijk", "addr:housenumber": "1", "addr:postcode": "7101BN", "addr:street": "Beatrixpark", "amenity": "hospital", "check_date": "2024-11-13", "emergency": "yes", "healthcare": "hospital", "name": "Streekziekenhuis Koningin Beatrix", "source": "BAG", "source:date": "2014-03-24"}}, {"name": "High & Intensive Care", "latitude": 51.8152085, "longitude": 5.8814182, "source": "osm", "_tags": {"addr:city": "Nijmegen", "addr:housenumber": "61", "addr:postcode": "6525DX", "addr:street": "Nijmeegsebaan", "amenity": "hospital", "healthcare": "hospital", "healthcare:speciality": "psychiatry", "name": "High & Intensive Care", "operator": "Pro Persona", "phone": "+31 24 343 6520", "source": "BAG", "source:date": "2014-03-24", "website": "https://propersona.nl/behandellocaties/high-intensive-care-nijmegen/"}}, {"name": "Polikliniek CWZ de Waalsprong", "latitude": 51.8819906, "longitude": 5.8453079, "source": "osm", "_tags": {"addr:city": "Nijmegen", "addr:housenumber": "3", "addr:postcode": "6515GM", "addr:street": "Carbatinastraat", "amenity": "hospital", "healthcare": "hospital", "name": "Polikliniek CWZ de Waalsprong", "operator": "CWZ", "source": "BAG", "source:date": "2015-10-25"}}, {"name": "Pro Persona GGZ", "latitude": 51.9977338, "longitude": 5.9115298, "source": "osm", "_tags": {"amenity": "hospital", "healthcare": "hospital", "name": "Pro Persona GGZ", "wheelchair": "yes"}}, {"name": "Dialyse afd. Radboud UMC", "latitude": 51.8226963, "longitude": 5.8611281, "source": "osm", "_tags": {"addr:city": "Nijmegen", "addr:housenumber": "7", "addr:postcode": "6525GL", "addr:street": "René Descartesdreef", "amenity": "hospital", "healthcare": "hospital", "internet_access": "wlan", "name": "Dialyse afd. Radboud UMC", "phone": "+31 24 361 3767", "toilets:wheelchair": "yes", "website": "https://www.radboudumc.nl/", "wheelchair": "yes"}}, {"name": "Gelre Diagnostisch Centrum", "latitude": 52.2113314, "longitude": 5.933973, "source": "osm", "_tags": {"addr:city": "Apeldoorn", "addr:housenumber": "32", "addr:postcode": "7314PS", "addr:street": "John F. Kennedylaan", "amenity": "hospital", "check_date": "2025-02-24", "healthcare": "hospital", "healthcare:speciality": "diagnostics", "name": "Gelre Diagnostisch Centrum", "website": "https://www.gelreziekenhuizen.nl/patient/afdelingen/diagnostisch-centrum/"}}, {"name": "Rijnstate Elst", "latitude": 51.9170465, "longitude": 5.8559626, "source": "osm", "_tags": {"addr:city": "Elst", "addr:housenumber": "2", "addr:postcode": "6662NC", "addr:street": "Stationsplein", "amenity": "hospital", "healthcare": "hospital", "name": "Rijnstate Elst", "opening_hours": "Mo-Fr 08:30-17:30", "source": "BAG", "source:date": "2021-10-19", "website": "https://www.rijnstate.nl/elst"}}, {"name": "Willibrord-Spital", "latitude": 51.8328956, "longitude": 6.2386321, "source": "osm", "_tags": {"addr:city": "Emmerich am Rhein", "addr:housenumber": "4", "addr:postcode": "46446", "addr:street": "Lilienstraße", "amenity": "hospital", "healthcare": "hospital", "name": "Willibrord-Spital"}}, {"name": "Sint Maartenskliniek Nijmegen", "latitude": 51.8335599, "longitude": 5.8995536, "source": "osm", "_tags": {"amenity": "hospital", "email": "contact@maartenskliniek.nl", "emergency": "yes", "healthcare": "hospital", "name": "Sint Maartenskliniek Nijmegen", "operator": "Sint Maartenskliniek", "operator:wikidata": "Q97111891", "toilets:wheelchair": "yes", "website": "https://www.maartenskliniek.nl/", "wheelchair": "yes", "wikidata": "Q1906803", "wikimedia_commons": "Category:Sint Maartenskliniek (Ubbergen)", "wikipedia": "nl:Sint Maartenskliniek"}}, {"name": "St. Willibrord Spital Emmerich-Rees", "latitude": 51.832846, "longitude": 6.2396204, "source": "osm", "_tags": {"addr:city": "Emmerich am Rhein", "addr:country": "DE", "addr:housenumber": "9", "addr:postcode": "46446", "addr:street": "Willibrordstraße", "amenity": "hospital", "check_date": "2024-03-11", "healthcare": "hospital", "name": "St. Willibrord Spital Emmerich-Rees", "phone": "+49 2822 730", "website": "http://www.willibrord.de/", "wheelchair": "yes"}}, {"name": "St. Vinzenz-Hospital Rhede", "latitude": 51.8398402, "longitude": 6.6927135, "source": "osm", "_tags": {"amenity": "hospital", "check_date": "2024-06-07", "emergency": "no", "healthcare": "hospital", "name": "St. Vinzenz-Hospital Rhede", "wheelchair": "yes"}}, {"name": "St. Agnes Hospital", "latitude": 51.8555909, "longitude": 6.6270529, "source": "osm", "_tags": {"addr:city": "Bocholt", "addr:country": "DE", "addr:housenumber": "125", "addr:postcode": "46397", "addr:street": "Barloer Weg", "addr:suburb": "Stenern", "amenity": "hospital", "emergency": "yes", "healthcare": "hospital", "healthcare:speciality": "paediatrics;gynaecology;emergency;cardiology;internal;radiology;orthopaedics;trauma;gastroenterological_surgery;pulmonologie;vascular_surgery", "level": "4", "name": "St. Agnes Hospital", "opening_hours": "24/7", "operator": "Stiftung St. Agnes Hospital", "operator:type": "religious", "phone": "+49 2871 20-0", "toilets:wheelchair": "yes", "website": "https://www.klinikum-westmuensterland.de/bocholt/", "wheelchair": "yes"}}, {"name": "Centraal Dierenlaboratorium", "latitude": 51.8246343, "longitude": 5.8648294, "source": "osm", "_tags": {"amenity": "hospital", "building": "yes", "healthcare": "hospital", "name": "Centraal Dierenlaboratorium", "operator": "RadboudUMC", "ref:bag": "268100000088922", "source": "BAG", "source:date": "2018-02-08", "start_date": "1997"}}, {"name": "Gelre Zutphen", "latitude": 52.1230667, "longitude": 6.2175382, "source": "osm", "_tags": {"amenity": "hospital", "healthcare": "hospital", "name": "Gelre Zutphen", "website": "https://www.gelreziekenhuizen.nl/home/", "wikidata": "Q15875541", "wikipedia": "nl:Gelre ziekenhuizen Zutphen"}}, {"name": "Canisius-Wilhelmina Ziekenhuis", "latitude": 51.8175938, "longitude": 5.8307846, "source": "osm", "_tags": {"addr:city": "Nijmegen", "addr:housenumber": "100", "addr:postcode": "6532SZ", "addr:street": "Weg door Jonkerbos", "amenity": "hospital", "emergency": "yes", "healthcare": "hospital", "name": "Canisius-Wilhelmina Ziekenhuis", "phone": "+31 24 365 7657", "short_name": "CWZ", "source": "BAG", "source:date": "2014-05-07", "website": "https://www.cwz.nl/", "wheelchair": "yes", "wikidata": "Q2249007", "wikimedia_commons": "Category:Canisius-Wilhelmina Ziekenhuis", "wikipedia": "nl:Canisius-Wilhelmina Ziekenhuis"}}, {"name": "Deventer Ziekenhuis", "latitude": 52.2613123, "longitude": 6.1916563, "source": "osm", "_tags": {"addr:city": "Deventer", "addr:housenumber": "75", "addr:postcode": "7416SE", "addr:street": "Nico Bolkesteinlaan", "amenity": "hospital", "emergency": "yes", "healthcare": "hospital", "internet_access": "wlan", "name": "Deventer Ziekenhuis", "phone": "+31 570 535 353", "source": "BAG", "source:date": "2014-02-11", "website": "https://www.dz.nl/", "wikidata": "Q2203146", "wikipedia": "nl:Deventer Ziekenhuis"}}, {"name": "Gelre ziekenhuizen", "latitude": 52.1812395, "longitude": 5.9471608, "source": "osm", "_tags": {"addr:city": "Apeldoorn", "addr:country": "NL", "addr:housenumber": "31", "addr:postcode": "7334DZ", "addr:street": "Albert Schweitzerlaan", "amenity": "hospital", "emergency": "yes", "healthcare": "hospital", "name": "Gelre ziekenhuizen", "old_name": "Lukas ziekenhuis", "operator": "Gelre Ziekenhuizen", "phone": "+31 55 581 8181", "website": "https://www.gelreziekenhuizen.nl/Gelreziekenhuizen", "wikidata": "Q15875540", "wikipedia": "nl:Gelre ziekenhuizen Apeldoorn"}}, {"name": "Rijnstate Arnhem", "latitude": 52.0004002, "longitude": 5.9095791, "source": "osm", "_tags": {"addr:city": "Arnhem", "addr:country": "NL", "addr:housenumber": "55", "addr:postcode": "6815AG", "addr:street": "Wagnerlaan", "amenity": "hospital", "emergency": "yes", "healthcare": "hospital", "name": "Rijnstate Arnhem", "phone": "+31 88 055 8888", "website": "https://www.rijnstate.nl/", "wheelchair": "yes", "wikidata": "Q96377466"}}, {"name": "Rijnstate Ziekenhuis Zevenaar", "latitude": 51.9425469, "longitude": 6.0701997, "source": "osm", "_tags": {"addr:city": "Zevenaar", "addr:country": "NL", "addr:housenumber": "14A", "addr:postcode": "6903ZN", "addr:street": "Hunneveldweg", "amenity": "hospital", "contact:website": "https://www.rijnstate.nl/contact/adressen-en-bereikbaarheid/rijnstate-zevenaar/", "healthcare": "hospital", "name": "Rijnstate Ziekenhuis Zevenaar", "phone": "+31 88 055 8887", "wikidata": "Q96377151"}}, {"name": "Slingeland Ziekenhuis", "latitude": 51.976078, "longitude": 6.2851991, "source": "osm", "_tags": {"addr:city": "Doetinchem", "addr:housenumber": "25", "addr:postcode": "7009BL", "addr:street": "Kruisbergseweg", "amenity": "hospital", "emergency": "yes", "healthcare": "hospital", "internet_access": "wlan", "name": "Slingeland Ziekenhuis", "source": "BAG", "source:date": "2014-02-11", "website": "https://www.slingeland.nl/", "wikidata": "Q14360802", "wikipedia": "nl:Slingeland Ziekenhuis"}}, {"name": "Radboud Universitair Medisch Centrum", "latitude": 51.8229649, "longitude": 5.8622849, "source": "osm", "_tags": {"addr:city": "Nijmegen", "addr:housenumber": "10", "addr:postcode": "6525GA", "addr:street": "Geert Grooteplein Zuid", "alt_name": "Academisch Ziekenhuis Nijmegen", "amenity": "hospital", "check_date": "2025-09-17", "emergency": "yes", "healthcare": "hospital", "internet_access": "wlan", "name": "Radboud Universitair Medisch Centrum", "name:en": "Radboudumc", "phone": "+31 24 361 1111", "short_name": "Radboudumc", "source": "BAG", "source:date": "2018-02-08", "toilets:wheelchair": "yes", "website": "https://www.radboudumc.nl", "wheelchair": "yes", "wikidata": "Q2594321", "wikimedia_commons": "Category:Radboud University Nijmegen Medical Centre", "wikipedia": "nl:Radboudumc"}}, {"name": "", "latitude": 51.917144, "longitude": 5.8564508, "source": "osm", "_tags": {"amenity": "hospital", "healthcare": "hospital"}}, {"name": "St. Agnes Hospital", "latitude": 51.8553251, "longitude": 6.6270753, "source": "osm", "_tags": {"addr:city": "Bocholt", "addr:housenumber": "125", "addr:postcode": "46397", "addr:street": "Barloer Weg", "building": "hospital", "building:levels": "4", "healthcare": "hospital", "healthcare:speciality": "general;anaesthetics;gastroenterology;vascular_surgery;gynaecology;intensive;cardiology;oncology;palliative", "name": "St. Agnes Hospital", "smoking": "no", "start_date": "1985", "type": "multipolygon", "wheelchair": "yes"}}, {"name": "Streekziekenhuis Koningin Beatrix", "latitude": 51.9784098, "longitude": 6.7003072, "source": "osm", "_tags": {"addr:city": "Winterswijk", "addr:housenumber": "1", "addr:postcode": "7101BN", "addr:street": "Beatrixpark", "amenity": "hospital", "building": "yes", "emergency": "yes", "healthcare": "hospital", "name": "Streekziekenhuis Koningin Beatrix", "ref:bag": "294100000379493", "source": "BAG", "source:date": "2014-03-24", "start_date": "1984", "type": "multipolygon"}}]