[{"name": "Saint Anne's", "latitude": 51.942225, "longitude": -10.2342926, "source": "osm", "_tags": {"amenity": "hospital", "check_date": "2025-07-25", "healthcare": "hospital", "name": "Saint Anne's"}}, {"name": "University Hospital Kerry", "latitude": 52.2658252, "longitude": -9.6875883, "source": "osm", "_tags": {"HSE_code": "236", "HSE_hgid": "5", "HSE_hgroup": "South/South West Hospital Group", "HSE_region": "South West", "addr:city": "Tralee", "addr:postcode": "V92 NX94", "alt_name": "Kerry General Hospital", "amenity": "hospital", "emergency": "yes", "healthcare": "hospital", "healthcare:speciality": "emergency;general;cardiology", "name": "University Hospital Kerry", "old_name": "Tralee General Hospital", "operator": "Health Service Executive", "operator:short": "HSE", "operator:type": "government", "operator:wikidata": "Q5690681", "operator:wikipedia": "en:Health Service Executive", "phone": "+353-66-7184000", "website": "https://www.hse.ie/eng/services/list/5/kerryhealthservices/uhk/", "wikidata": "Q6394528", "wikipedia": "en:University Hospital Kerry"}}, {"name": "Kenmare Public Hospital", "latitude": 51.8889896, "longitude": -9.5816498, "source": "osm", "_tags": {"amenity": "hospital", "healthcare": "hospital", "name": "Kenmare Public Hospital", "wheelchair": "yes"}}, {"name": "Killarney Community Hospital", "latitude": 52.0655279, "longitude": -9.5173318, "source": "osm", "_tags": {"amenity": "hospital", "building": "yes", "healthcare": "hospital", "name": "Killarney Community Hospital"}}, {"name": "St. Finan's Hospital", "latitude": 52.0676059, "longitude": -9.5113055, "source": "osm", "_tags": {"amenity": "hospital", "building": "yes", "healthcare": "hospital", "name": "St. Finan's Hospital", "name:ga": "Oispidéal Naomh Fhionán", "wikidata": "Q65042917"}}, {"name": "Bon Secours Hospital", "latitude": 52.2699614, "longitude": -9.713027, "source": "osm", "_tags": {"amenity": "hospital", "healthcare": "hospital", "name": "Bon Secours Hospital", "wheelchair": "yes", "wikidata": "Q4941009", "wikipedia": "en:Bon Secours Hospital, Tralee"}}, {"name": "Deer Lodge", "latitude": 52.0674314, "longitude": -9.5185734, "source": "osm", "_tags": {"addr:city": "Killarney", "addr:postcode": "V93NH63", "addr:street": "St. Margaret's Road", "amenity": "hospital", "healthcare": "hospital", "healthcare:speciality": "psychiatry", "name": "Deer Lodge", "name:ga": "Lóiste na Fhia", "operator": "Health Service Executive", "operator:short": "HSE", "operator:type": "public", "operator:wikidata": "Q5690681", "year_of_construction": "2017"}}]