[{"name": "Urgent Care Cambridge", "latitude": 52.2183876, "longitude": 0.1367897, "source": "osm", "_tags": {"addr:city": "Cambridge", "addr:postcode": "CB4 1PX", "addr:street": "Union Lane", "amenity": "hospital", "check_date": "2025-08-13", "emergency": "yes", "healthcare": "hospital", "name": "Urgent Care Cambridge"}}, {"name": "Cambridge Lea Hospital (Spire)", "latitude": 52.2447321, "longitude": 0.1134644, "source": "osm", "_tags": {"amenity": "hospital", "check_date": "2024-05-10", "healthcare": "hospital", "name": "Cambridge Lea Hospital (Spire)", "website": "https://www.spirehealthcare.com/cambridge/"}}, {"name": "Saffron Walden Community Hospital (no A&E)", "latitude": 52.0242714, "longitude": 0.2588568, "source": "osm", "_tags": {"amenity": "hospital", "check_date": "2024-07-25", "healthcare": "hospital", "name": "Saffron Walden Community Hospital (no A&E)", "ref:GB:cqc_location": "R1LTH", "wikidata": "Q26490772"}}, {"name": "Cambridge Private Hospital (Orwell Grange)", "latitude": 52.1307004, "longitude": -0.0311602, "source": "osm", "_tags": {"amenity": "hospital", "emergency": "no", "hospital": "cosmetic", "name": "Cambridge Private Hospital (Orwell Grange)", "note": "Cosmetic Surgery only", "source": "survey"}}, {"name": "MS (Multiple Scelerosis) Therapy Centre", "latitude": 52.335637, "longitude": -0.1686893, "source": "osm", "_tags": {"amenity": "hospital", "healthcare": "hospital", "name": "MS (Multiple Scelerosis) Therapy Centre"}}, {"name": "Linnea Cromwell Hospital", "latitude": 52.3325647, "longitude": -0.1866606, "source": "osm", "_tags": {"amenity": "hospital", "healthcare": "hospital", "name": "Linnea Cromwell Hospital"}}, {"name": "", "latitude": 51.9465409, "longitude": -0.0811474, "source": "osm", "_tags": {"amenity": "hospital", "fixme": "What is this? Seems unlikely to be a hospital from aerial imagery. Perhaps a clinic of some sort?", "healthcare": "hospital"}}, {"name": "Cambridge Biomedical Campus", "latitude": 52.1739275, "longitude": 0.1384943, "source": "osm", "_tags": {"alt_name": "Addenbrooke's", "amenity": "hospital", "emergency": "yes", "healthcare": "hospital", "name": "Cambridge Biomedical Campus", "old_name": "Cambridge University Hospitals NHS Foundation Trust Addenbrooke's Hospital", "operator": "Cambridge University Hospitals NHS Foundation Trust", "ref:university_of_cambridge": "H", "wikidata": "Q5025360"}}, {"name": "Kneesworth House Hospital", "latitude": 52.0790479, "longitude": -0.0319578, "source": "osm", "_tags": {"amenity": "hospital", "name": "Kneesworth House Hospital", "source:name": "dictaphone"}}, {"name": "", "latitude": 52.2471724, "longitude": -0.1195749, "source": "osm", "_tags": {"amenity": "hospital"}}, {"name": "Lister Hospital", "latitude": 51.9247379, "longitude": -0.2139629, "source": "osm", "_tags": {"addr:city": "Stevenage", "addr:postcode": "SG1 4AB", "addr:street": "Coreys Mill Lane", "amenity": "hospital", "beds": "730", "emergency": "yes", "healthcare": "hospital", "name": "Lister Hospital", "note": "FIXME - needs to be surveyed", "opening_hours": "24/7", "operator": "NHS", "operator:type": "public", "operator:wikidata": "Q918396", "phone": "+44 1438 314333", "source": "observation;estimation;landsat", "website": "https://www.enherts-tr.nhs.uk/hospitals/lister/", "wikidata": "Q6646491"}}, {"name": "Royston Hospital", "latitude": 52.0408429, "longitude": -0.021915, "source": "osm", "_tags": {"addr:city": "Royston", "addr:postcode": "SG8 9EN", "amenity": "hospital", "building": "hospital", "healthcare:speciality": "gynaecology", "name": "Royston Hospital"}}, {"name": "Hinchingbrooke Hospital", "latitude": 52.3324685, "longitude": -0.2021603, "source": "osm", "_tags": {"amenity": "hospital", "healthcare": "hospital", "landuse": "commercial", "name": "Hinchingbrooke Hospital", "ref:GB:cqc_location": "RYV05", "ref:GB:nhs_ods": "RYV05", "wheelchair": "yes", "wikidata": "Q14956808"}}, {"name": "Biggleswade Hospital", "latitude": 52.0989802, "longitude": -0.2470496, "source": "osm", "_tags": {"addr:city": "Biggleswade", "addr:housename": "Biggleswade Hospital", "addr:postcode": "SG18 0EL", "addr:street": "Potton Road", "amenity": "hospital", "emergency": "no", "healthcare": "hospital", "name": "Biggleswade Hospital", "operator": "Essex Partnership University NHS Foundation Trust", "operator:type": "public"}}, {"name": "Newmarket Hospital (no A&E)", "latitude": 52.2511145, "longitude": 0.3999481, "source": "osm", "_tags": {"addr:city": "Newmarket", "addr:country": "GB", "addr:housenumber": "56", "addr:postcode": "CB8 7JG", "addr:street": "Exning Road", "amenity": "hospital", "emergency": "no", "fhrs:id": "1673442", "healthcare": "hospital", "name": "Newmarket Hospital (no A&E)"}}, {"name": "Brookfields Hospital", "latitude": 52.1974936, "longitude": 0.1534359, "source": "osm", "_tags": {"addr:city": "Cambridge", "addr:housenumber": "351", "addr:postcode": "CB1 3DF", "addr:street": "Mill Road", "amenity": "hospital", "healthcare": "hospital", "name": "Brookfields Hospital", "wikidata": "Q30293029"}}, {"name": "The Royal Papworth Hospital", "latitude": 52.1732461, "longitude": 0.135771, "source": "osm", "_tags": {"amenity": "hospital", "description": "Royal Papworth Hospital site", "healthcare": "hospital", "name": "The Royal Papworth Hospital", "ref:GB:cqc_location": "RGMX1"}}, {"name": "Kingsway Health Centre", "latitude": 51.8995288, "longitude": -0.2067519, "source": "osm", "_tags": {"amenity": "hospital", "building": "yes", "check_date": "2024-09-03", "designation": "Physiotherapy", "emergency": "no", "healthcare": "hospital", "name": "Kingsway Health Centre", "source": "local knowledge"}}, {"name": "Fulbourn Hospital (psychiatric)", "latitude": 52.1849967, "longitude": 0.1880545, "source": "osm", "_tags": {"amenity": "hospital", "emergency": "no", "healthcare": "hospital", "name": "Fulbourn Hospital (psychiatric)", "source": "local_knowledge", "wikidata": "Q5507788"}}, {"name": "West Suffolk Hospital", "latitude": 52.2308862, "longitude": 0.7080234, "source": "osm", "_tags": {"addr:postcode": "IP33 2QZ", "addr:street": "Hardwick Lane", "amenity": "hospital", "fhrs:id": "1674684", "healthcare": "hospital", "name": "West Suffolk Hospital", "pharmacy": "yes", "ref:GB:cqc_location": "RGR50", "source:addr": "FSA Food Hygiene Ratings Database", "website": "https://www.wsh.nhs.uk/", "wikidata": "Q50804992", "wikipedia": "en:West Suffolk Hospital"}}, {"name": "Ida Darwin Hospital", "latitude": 52.1857698, "longitude": 0.2041331, "source": "osm", "_tags": {"amenity": "hospital", "emergency": "no", "name": "Ida Darwin Hospital"}}, {"name": "Pinehill Hospital", "latitude": 51.9494046, "longitude": -0.2627475, "source": "osm", "_tags": {"addr:city": "Hitchin", "addr:county": "Hertfordshire", "addr:postcode": "SG4 9QZ", "addr:street": "Benslow Lane", "amenity": "hospital", "check_date": "2025-06-26", "emergency": "no", "fhrs:id": "961058", "name": "Pinehill Hospital", "source": "OS OpenMap Local", "source:addr": "FHRS Open Data"}}, {"name": "Wymondley Nursing Home", "latitude": 51.9327613, "longitude": -0.2298574, "source": "osm", "_tags": {"addr:city": "Hitchin", "addr:county": "Hertfordshire", "addr:postcode": "SG4 7HT", "addr:street": "Stevenage Road", "addr:suburb": "Little Wymondley", "amenity": "hospital", "fhrs:id": "961336", "name": "Wymondley Nursing Home", "source": "OS OpenMap Local"}}, {"name": "Herts And Essex Community Hospital", "latitude": 51.8659344, "longitude": 0.1750248, "source": "osm", "_tags": {"amenity": "hospital", "emergency": "no", "healthcare": "hospital", "name": "Herts And Essex Community Hospital", "source": "OS OpenMap Local", "wikidata": "Q5744849"}}, {"name": "St Edmunds Hospital", "latitude": 52.2400321, "longitude": 0.7194582, "source": "osm", "_tags": {"addr:postcode": "IP33 2AA", "addr:street": "St Marys Square", "amenity": "hospital", "fhrs:id": "1114424", "healthcare": "hospital", "name": "St Edmunds Hospital", "source": "OS OpenMap Local", "source:addr": "FSA Food Hygiene Ratings Database", "website": "https://www.circlehealthgroup.co.uk/hospitals/st-edmunds-hospital"}}, {"name": "RAF Lakenheath Medical Hospital", "latitude": 52.3935182, "longitude": 0.5451567, "source": "osm", "_tags": {"addr:postcode": "IP27 9PP", "amenity": "hospital", "building": "hospital", "healthcare": "hospital", "name": "RAF Lakenheath Medical Hospital", "website": "https://www.military.com/base-guide/raf-lakenheath/contact/medical-hospital/16353"}}, {"name": "Nuffield Health Cambridge Hospital", "latitude": 52.1901335, "longitude": 0.1237579, "source": "osm", "_tags": {"addr:city": "Cambridge", "addr:housenumber": "2-4", "addr:postcode": "CB2 8AF", "addr:street": "Trumpington Road", "amenity": "hospital", "emergency": "no", "fhrs:id": "506871", "healthcare": "hospital", "name": "Nuffield Health Cambridge Hospital", "operator": "Nuffield Health", "phone": "+44 1223 370 922", "ref:university_of_cambridge": "yes", "website": "https://www.nuffieldhealth.com/hospitals/cambridge", "wikidata": "Q42851410", "wikipedia": "en:Nuffield Health Cambridge Hospital"}}, {"name": "Braintree Community Hospital", "latitude": 51.8795775, "longitude": 0.5408639, "source": "osm", "_tags": {"addr:city": "Braintree", "addr:street": "Chadwick Drive", "amenity": "hospital", "emergency": "no", "healthcare": "hospital", "healthcare:speciality": "maternity", "name": "Braintree Community Hospital", "operator": "NHS", "operator:type": "government", "operator:wikidata": "Q918396"}}, {"name": "Danesbury House Neurological Centre", "latitude": 51.8279082, "longitude": -0.2228386, "source": "osm", "_tags": {"addr:postcode": "AL6 9PW", "addr:street": "School Lane", "amenity": "hospital", "beds": "14", "building": "hospital", "emergency": "no", "name": "Danesbury House Neurological Centre", "phone": "+44 1438 841841"}}, {"name": "Halstead Hospital", "latitude": 51.9481012, "longitude": 0.6382035, "source": "osm", "_tags": {"addr:city": "Halstead", "addr:housenumber": "78", "addr:postcode": "CO9 2DL", "addr:street": "Hedingham Road", "amenity": "hospital", "name": "Halstead Hospital"}}, {"name": "", "latitude": 52.2474507, "longitude": -0.1216757, "source": "osm", "_tags": {"amenity": "hospital"}}, {"name": "Glastonbury Court", "latitude": 52.2364854, "longitude": 0.6893032, "source": "osm", "_tags": {"addr:city": "Bury St Edmunds", "addr:postcode": "IP33 2EX", "addr:street": "Glastonbury Road", "amenity": "hospital", "fhrs:id": "1673697", "fixme": "Is this a care home rather than a hospital?", "name": "Glastonbury Court", "ref:GB:cqc_location": "RGR58", "source:addr": "FHRS Open Data", "website": "https://www.careuk.com/care-homes/glastonbury-court-bury-st-edmunds"}}, {"name": "Brookfields Hospital", "latitude": 52.1974482, "longitude": 0.1531032, "source": "osm", "_tags": {"amenity": "hospital", "name": "Brookfields Hospital", "type": "site"}}, {"name": "Rosie Maternity Hospital", "latitude": 52.1739625, "longitude": 0.139101, "source": "osm", "_tags": {"addr:city": "Cambridge", "addr:postcode": "CB2 0SW", "amenity": "hospital", "building": "hospital", "layer": "1", "name": "Rosie Maternity Hospital", "nohousenumber": "yes", "operator": "Cambridge University Hospitals NHS Foundation Trust", "ref:GB:cqc_location": "RGT01", "ref:university_of_cambridge": "yes", "type": "multipolygon", "wikidata": "Q7368893"}}, {"name": "Addenbrooke's Hospital", "latitude": 52.1740297, "longitude": 0.1411717, "source": "osm", "_tags": {"amenity": "hospital", "name": "Addenbrooke's Hospital", "operator": "Cambridge University Hospitals NHS Foundation Trust", "ref:GB:cqc_location": "RGT01", "type": "site", "wikidata": "Q130282"}}]