[{"name": "Szpital Uniwersytecki w Zielonej Górze", "latitude": 51.9408352, "longitude": 15.5203693, "source": "osm", "_tags": {"addr:city": "Zielona Góra", "addr:housenumber": "26", "addr:postcode": "65-046", "addr:street": "Zyty", "amenity": "hospital", "email": "kancelaria@szpital.zgora.pl", "emergency": "yes", "healthcare": "hospital", "name": "Szpital Uniwersytecki w Zielonej Górze", "official_name": "Szpital Uniwersytecki  im. Karola Marcinkowskiego w Zielonej Górze Sp. z o.o.", "old_name": "Krankenhaus Bethesda", "phone": "+48 68 329 63 41", "url": "https://polska-org.pl/534258,Zielona_Gora,Szpital_Uniwersytecki_im_Karola_Marcinkowskiego.html", "website": "https://szpital.zgora.pl/", "wikidata": "Q48844301", "wikipedia": "pl:Szpital Uniwersytecki im. Karola Marcinkowskiego w Zielonej Górze"}}, {"name": "Neurologia - Oddział 20", "latitude": 52.144108, "longitude": 15.4031712, "source": "osm", "_tags": {"addr:city:simc": "0913539", "addr:housenumber": "43", "addr:place": "Cibórz", "addr:postcode": "66-213", "amenity": "hospital", "building": "yes", "healthcare": "hospital", "name": "Neurologia - Oddział 20", "source:addr": "skape.e-mapa.net"}}, {"name": "Szpital - Oddział 1", "latitude": 52.1469093, "longitude": 15.4097949, "source": "osm", "_tags": {"addr:city:simc": "0913539", "addr:housenumber": "61", "addr:place": "Cibórz", "addr:postcode": "66-213", "amenity": "hospital", "building": "yes", "healthcare": "hospital", "name": "Szpital - Oddział 1", "source:addr": "skape.e-mapa.net"}}, {"name": "Szpital - Oddział 10(ZOL X)", "latitude": 52.1456867, "longitude": 15.4069817, "source": "osm", "_tags": {"addr:city:simc": "0913539", "addr:housenumber": "54", "addr:place": "Cibórz", "addr:postcode": "66-213", "amenity": "hospital", "building": "yes", "healthcare": "hospital", "name": "Szpital - Oddział 10(ZOL X)", "source:addr": "skape.e-mapa.net"}}, {"name": "Szpital - Oddział 15", "latitude": 52.1441747, "longitude": 15.4058219, "source": "osm", "_tags": {"addr:city:simc": "0913539", "addr:housenumber": "48", "addr:place": "Cibórz", "addr:postcode": "66-213", "amenity": "hospital", "building": "yes", "healthcare": "hospital", "name": "Szpital - Oddział 15", "source:addr": "skape.e-mapa.net"}}, {"name": "Szpital - Oddział 17", "latitude": 52.1438699, "longitude": 15.4048207, "source": "osm", "_tags": {"addr:city:simc": "0913539", "addr:housenumber": "46", "addr:place": "Cibórz", "addr:postcode": "66-213", "amenity": "hospital", "building": "yes", "healthcare": "hospital", "image": "https://photos.app.goo.gl/5aLDGnvvDSZADs8X7", "mapillary": "1247743805644087", "name": "Szpital - Oddział 17", "source:addr": "skape.e-mapa.net"}}, {"name": "Szpital - Oddział 18", "latitude": 52.1442902, "longitude": 15.4040615, "source": "osm", "_tags": {"addr:city:simc": "0913539", "addr:housenumber": "44", "addr:place": "Cibórz", "addr:postcode": "66-213", "amenity": "hospital", "building": "yes", "healthcare": "hospital", "name": "Szpital - Oddział 18", "source:addr": "skape.e-mapa.net"}}, {"name": "Szpital - Oddział 19", "latitude": 52.1436992, "longitude": 15.4038455, "source": "osm", "_tags": {"addr:city:simc": "0913539", "addr:housenumber": "45", "addr:place": "Cibórz", "addr:postcode": "66-213", "amenity": "hospital", "building": "yes", "healthcare": "hospital", "image": "https://photos.app.goo.gl/zZA5rBu4DycvGdh2A", "mapillary": "317500496502684", "name": "Szpital - Oddział 19", "source:addr": "skape.e-mapa.net"}}, {"name": "Szpital - Oddział 2", "latitude": 52.1464712, "longitude": 15.4098266, "source": "osm", "_tags": {"addr:city:simc": "0913539", "addr:housenumber": "60", "addr:place": "Cibórz", "addr:postcode": "66-213", "amenity": "hospital", "building": "yes", "healthcare": "hospital", "name": "Szpital - Oddział 2", "source:addr": "skape.e-mapa.net"}}, {"name": "Szpital - Oddział 3", "latitude": 52.1460299, "longitude": 15.4097194, "source": "osm", "_tags": {"addr:city:simc": "0913539", "addr:housenumber": "59", "addr:place": "Cibórz", "addr:postcode": "66-213", "amenity": "hospital", "building": "yes", "healthcare": "hospital", "name": "Szpital - Oddział 3", "source:addr": "skape.e-mapa.net"}}, {"name": "Szpital - Oddział 4", "latitude": 52.1456043, "longitude": 15.4094125, "source": "osm", "_tags": {"addr:city:simc": "0913539", "addr:housenumber": "58", "addr:place": "Cibórz", "addr:postcode": "66-213", "amenity": "hospital", "building": "yes", "healthcare": "hospital", "image": "https://photos.app.goo.gl/fH3HVbSEf4Js3Mkh8", "mapillary": "3948768061906906", "name": "Szpital - Oddział 4", "source:addr": "skape.e-mapa.net"}}, {"name": "Szpital - Oddział 6", "latitude": 52.1449875, "longitude": 15.408473, "source": "osm", "_tags": {"addr:city:simc": "0913539", "addr:housenumber": "56", "addr:place": "Cibórz", "addr:postcode": "66-213", "amenity": "hospital", "building": "yes", "healthcare": "hospital", "image": "https://photos.app.goo.gl/4kcioW4ZcRpy2Kwo7", "mapillary": "2994782000764612", "name": "Szpital - Oddział 6", "source:addr": "skape.e-mapa.net"}}, {"name": "Szpital - Oddział 7", "latitude": 52.1470585, "longitude": 15.4074921, "source": "osm", "_tags": {"addr:city:simc": "0913539", "addr:housenumber": "66", "addr:place": "Cibórz", "addr:postcode": "66-213", "amenity": "hospital", "building": "yes", "healthcare": "hospital", "name": "Szpital - Oddział 7", "source:addr": "skape.e-mapa.net"}}, {"name": "Szpital - Oddział 8", "latitude": 52.1465967, "longitude": 15.407519, "source": "osm", "_tags": {"addr:city:simc": "0913539", "addr:housenumber": "65", "addr:place": "Cibórz", "addr:postcode": "66-213", "amenity": "hospital", "building": "yes", "healthcare": "hospital", "name": "Szpital - Oddział 8", "source:addr": "skape.e-mapa.net"}}, {"name": "Szpital - Oddział 9", "latitude": 52.1461682, "longitude": 15.4073562, "source": "osm", "_tags": {"addr:city:simc": "0913539", "addr:housenumber": "55", "addr:place": "Cibórz", "addr:postcode": "66-213", "amenity": "hospital", "building": "yes", "healthcare": "hospital", "name": "Szpital - Oddział 9", "source:addr": "skape.e-mapa.net"}}, {"name": "Szpital - Oddział 14B", "latitude": 52.1447955, "longitude": 15.4057357, "source": "osm", "_tags": {"addr:city:simc": "0913539", "addr:housenumber": "50", "addr:place": "Cibórz", "addr:postcode": "66-213", "amenity": "hospital", "building": "yes", "healthcare": "hospital", "name": "Szpital - Oddział 14B", "source:addr": "skape.e-mapa.net"}}, {"name": "Szpital - Oddział 16C", "latitude": 52.1445004, "longitude": 15.4049098, "source": "osm", "_tags": {"addr:city:simc": "0913539", "addr:housenumber": "47", "addr:place": "Cibórz", "addr:postcode": "66-213", "amenity": "hospital", "building": "yes", "healthcare": "hospital", "name": "Szpital - Oddział 16C", "source:addr": "skape.e-mapa.net"}}, {"name": "Wojewódzki Szpital Specjalistyczny dla Nerwowo i Psychicznie Chorych", "latitude": 52.1452987, "longitude": 15.4061473, "source": "osm", "_tags": {"amenity": "hospital", "healthcare": "hospital", "name": "Wojewódzki Szpital Specjalistyczny dla Nerwowo i Psychicznie Chorych", "url": "https://fotopolska.eu/Ciborz_Szpital_psychiatryczny?map_z=17"}}, {"name": "Zachodnie Centrum Medyczne sp. z o.o.", "latitude": 52.0570999, "longitude": 15.0984623, "source": "osm", "_tags": {"amenity": "hospital", "email": "sekretariat@szpitalzcm.pl", "emergency": "no", "healthcare": "hospital", "name": "Zachodnie Centrum Medyczne sp. z o.o.", "phone": "+48 68 419 75 80", "website": "https://szpitalzcm.pl/"}}, {"name": "Poliklinika - Szpital MSWiA", "latitude": 51.9420286, "longitude": 15.5206933, "source": "osm", "_tags": {"addr:city": "Zielona Góra", "addr:housenumber": "42", "addr:postcode": "65-044", "addr:street": "Wazów", "amenity": "hospital", "email": "dyrektor@poliklinika.zgora.pl", "emergency": "yes", "healthcare": "hospital", "name": "Poliklinika - Szpital MSWiA", "official_name": "Samodzielny Publiczny Zakład Opieki Zdrowotnej Ministerstwa Spraw Wewnętrznych i Administracji w Zielonej Górze", "operator": "Ministerstwo Spraw Wewnętrznych i Administracji", "phone": "+48 68 452 77 78", "website": "http://www.poliklinika.zgora.pl"}}, {"name": "Szpital - Oddział szpitalny", "latitude": 52.1459967, "longitude": 15.4054068, "source": "osm", "_tags": {"addr:city:simc": "0913539", "addr:housenumber": "10", "addr:place": "Cibórz", "addr:postcode": "66-213", "amenity": "hospital", "building": "yes", "healthcare": "hospital", "name": "Szpital - Oddział szpitalny", "source:addr": "skape.e-mapa.net", "type": "multipolygon", "url": "https://fotopolska.eu/Ciborz_Szpital_psychiatryczny?map_z=17"}}, {"name": "Lubuski Szpital Specjalistyczny Pulmonologiczno-Kardiologiczny w Torzymiu", "latitude": 52.3177886, "longitude": 15.0609387, "source": "osm", "_tags": {"amenity": "hospital", "healthcare": "hospital", "name": "Lubuski Szpital Specjalistyczny Pulmonologiczno-Kardiologiczny w Torzymiu", "operator": "Lubuski Szpital Specjalistyczny Pulmonologiczno-Kardiologiczny w Torzymiu Spółka z o.o.", "type": "multipolygon", "url": "https://polska-org.pl/8239182,Torzym,Lubuski_Szpital_Specjalistyczny_Pulmonologiczno_Kardiologiczny_w_Torzymiu.html", "website": "https://www.szpitaltorzym.pl/"}}]