[{"name": "Youghal Community Hospital", "latitude": 51.9575566, "longitude": -7.8600877, "source": "osm", "_tags": {"amenity": "hospital", "building": "yes", "healthcare": "hospital", "name": "Youghal Community Hospital"}}, {"name": "Dungarvan Community Hospital & Community Services", "latitude": 52.0873015, "longitude": -7.6366806, "source": "osm", "_tags": {"addr:street": "Springfield", "alt_name": "St Joseph's Hospital", "amenity": "hospital", "healthcare": "hospital", "name": "Dungarvan Community Hospital & Community Services", "operator": "Health Service Executive", "operator:short": "HSE", "operator:wikidata": "Q5690681", "operator:wikipedia": "en:Health Service Executive", "phone": "+353-58-20900"}}, {"name": "Midleton Community Hospital", "latitude": 51.9180805, "longitude": -8.1718839, "source": "osm", "_tags": {"amenity": "hospital", "healthcare": "hospital", "name": "Midleton Community Hospital", "wheelchair": "yes"}}, {"name": "South Tipperary General Hospital", "latitude": 52.355711, "longitude": -7.7157448, "source": "osm", "_tags": {"HSE_code": "105", "HSE_hgid": "5", "HSE_hgroup": "South/South West Hospital Group", "HSE_region": "South West", "amenity": "hospital", "healthcare": "hospital", "name": "South Tipperary General Hospital", "operator": "Health Service Executive", "operator:short": "HSE", "operator:type": "government", "operator:wikidata": "Q5690681", "operator:wikipedia": "en:Health Service Executive", "wikidata": "Q7568661"}}, {"name": "Fermoy Community Hospital", "latitude": 52.1387108, "longitude": -8.2566546, "source": "osm", "_tags": {"amenity": "hospital", "emergency": "no", "healthcare": "hospital", "name": "Fermoy Community Hospital", "operator": "Health Service Executive", "operator:short": "HSE", "operator:type": "government", "operator:wikidata": "Q5690681", "operator:wikipedia": "en:Health Service Executive"}}, {"name": "St. Brigid's Hospital", "latitude": 52.3476183, "longitude": -7.4037057, "source": "osm", "_tags": {"amenity": "hospital", "healthcare": "hospital", "name": "St. Brigid's Hospital", "operator": "Health Service Executive", "operator:short": "HSE", "operator:wikidata": "Q5690681"}}]