[{"name": "University Hospital Waterford", "latitude": 52.2489606, "longitude": -7.0788606, "source": "osm", "_tags": {"HSE_code": "100", "HSE_hgid": "5", "HSE_hgroup": "South/South West Hospital Group", "HSE_region": "South West", "amenity": "hospital", "emergency": "yes", "healthcare": "hospital", "is_in": "Waterford", "name": "University Hospital Waterford", "note": "formerly Ardkeen Hospsital", "old_name": "Waterford Regional Hospital", "operator": "Health Service Executive", "operator:short": "HSE", "operator:type": "public", "operator:wikidata": "Q5690681", "operator:wikipedia": "en:Health Service Executive", "toilets:wheelchair": "yes", "wheelchair": "yes", "wikidata": "Q7974039"}}, {"name": "UPMC Whitfield", "latitude": 52.2402271, "longitude": -7.1723069, "source": "osm", "_tags": {"amenity": "hospital", "healthcare": "hospital", "name": "UPMC Whitfield"}}, {"name": "Wexford General Hospital", "latitude": 52.3431683, "longitude": -6.4818362, "source": "osm", "_tags": {"HSE_code": "103", "HSE_hgid": "2", "HSE_hgroup": "Ireland East Hospital Group", "HSE_region": "Dublin East", "addr:city": "Wexford", "addr:street": "Newtown Road", "addr:townland": "Carricklawn", "amenity": "hospital", "emergency": "yes", "healthcare": "hospital", "name": "Wexford General Hospital", "operator": "Health Service Executive", "operator:short": "HSE", "operator:type": "public", "operator:wikidata": "Q5690681", "operator:wikipedia": "en:Health Service Executive", "phone": "+353 53 914 2233", "website": "https://www2.hse.ie/services/hospitals/wexford-general-hospital/", "wheelchair": "yes", "wikidata": "Q13157637"}}, {"name": "Hospital Grounds New Ross", "latitude": 52.389359, "longitude": -6.9389135, "source": "osm", "_tags": {"addr:city": "New Ross", "addr:street": "Hospital Road", "amenity": "hospital", "emergency": "no", "healthcare": "hospital", "name": "Hospital Grounds New Ross"}}, {"name": "Ely Hospital", "latitude": 52.3457643, "longitude": -6.4548537, "source": "osm", "_tags": {"addr:city": "Wexford", "addr:street": "Ferrybank", "addr:townland": "Tincone", "amenity": "hospital", "healthcare": "hospital", "name": "Ely Hospital", "operator": "Health Service Executive", "operator:short": "HSE", "operator:type": "government", "operator:wikidata": "Q5690681", "operator:wikipedia": "en:Health Service Executive", "wheelchair": "yes"}}, {"name": "Waterford Residential Care Centre", "latitude": 52.2501257, "longitude": -7.1027261, "source": "osm", "_tags": {"alt_name": "Saint Patrick's Hospital", "amenity": "hospital", "healthcare": "hospital", "name": "Waterford Residential Care Centre", "operator": "Health Service Executive", "operator:short": "HSE", "operator:type": "government", "operator:wikidata": "Q5690681", "operator:wikipedia": "en:Health Service Executive"}}, {"name": "", "latitude": 52.2456715, "longitude": -7.1038588, "source": "osm", "_tags": {"amenity": "hospital", "healthcare": "hospital"}}]