[{"name": "Horton Midwifery-led Unit", "latitude": 52.053652, "longitude": -1.3335016, "source": "osm", "_tags": {"addr:city": "Banbury", "addr:housename": "Horton General Hospital", "addr:postcode": "OX16 9AL", "addr:street": "Oxford Road", "amenity": "hospital", "check_date": "2025-04-08", "healthcare": "hospital", "name": "Horton Midwifery-led Unit", "operator": "NHS", "operator:type": "public", "operator:wikidata": "Q918396", "phone": "+44 1295 229459", "website": "https://www.ouh.nhs.uk/women/maternity/units/horton/default.aspx"}}, {"name": "Hospital Car Park", "latitude": 52.0661488, "longitude": -1.6229243, "source": "osm", "_tags": {"amenity": "hospital", "healthcare": "hospital", "name": "Hospital Car Park", "operator": "NHS"}}, {"name": "Rikenel Health Centre", "latitude": 51.8603959, "longitude": -2.2448283, "source": "osm", "_tags": {"amenity": "hospital", "emergency": "no", "healthcare": "hospital", "name": "Rikenel Health Centre", "source": "local_knowledge"}}, {"name": "Gloucestershire Royal Hospital", "latitude": 51.8660903, "longitude": -2.2324907, "source": "osm", "_tags": {"addr:city": "Gloucester", "addr:housename": "Gloucestershire Royal Hospital", "addr:postcode": "GL1 3NN", "addr:street": "Great Western Road", "amenity": "hospital", "emergency": "yes", "healthcare": "hospital", "name": "Gloucestershire Royal Hospital", "operator": "NHS", "operator:type": "public", "operator:wikidata": "Q918396", "phone": "+44 300 4222 222", "wheelchair": "yes", "wikidata": "Q1532247"}}, {"name": "Cheltenham General Hospital", "latitude": 51.893023, "longitude": -2.0717942, "source": "osm", "_tags": {"alt_name": "Cheltenham Hospital", "amenity": "hospital", "fixme": "Building outlines appear to have only the vaguest relation to available imagery sources. Some review needed.", "healthcare": "hospital", "name": "Cheltenham General Hospital", "ref:GB:cqc_location": "RTE01", "source": "local knowledge", "website": "https://www.gloshospitals.nhs.uk/", "wheelchair": "limited", "wikidata": "Q5090204", "wikipedia": "en:Cheltenham General Hospital"}}, {"name": "Princess of Wales Community Hospital", "latitude": 52.343695, "longitude": -2.0559671, "source": "osm", "_tags": {"addr:city": "Bromsgrove", "addr:postcode": "B61 0BB", "addr:street": "Stourbridge Road", "amenity": "hospital", "fhrs:id": "672379", "healthcare": "hospital", "name": "Princess of Wales Community Hospital"}}, {"name": "The Horton General Hospital", "latitude": 52.0540058, "longitude": -1.3358443, "source": "osm", "_tags": {"amenity": "hospital", "check_date": "2025-05-18", "emergency": "yes", "healthcare": "hospital", "healthcare:speciality": "paediatrics;orthopaedics;general;emergency;maternity", "internet_access": "wlan", "name": "The Horton General Hospital", "opening_hours": "24/7", "operator": "NHS", "operator:type": "public", "operator:wikidata": "Q918396", "source": "local_knowledge", "wikidata": "Q5906832"}}, {"name": "Worcestershire Royal Hospital", "latitude": 52.1913684, "longitude": -2.18154, "source": "osm", "_tags": {"amenity": "hospital", "healthcare": "hospital", "name": "Worcestershire Royal Hospital", "wheelchair": "yes", "wikidata": "Q30281214"}}, {"name": "Kidderminster Hospital", "latitude": 52.3851806, "longitude": -2.2613901, "source": "osm", "_tags": {"amenity": "hospital", "healthcare": "hospital", "name": "Kidderminster Hospital", "operator": "Worcestershire Acute Hospitals NHS Trust", "wikidata": "Q60740212", "wikipedia": "en:Kidderminster Hospital"}}, {"name": "St Michaels", "latitude": 52.2887207, "longitude": -1.5947445, "source": "osm", "_tags": {"addr:city": "Warwick", "addr:postcode": "CV34 5QW", "addr:street": "St Michaels Road", "amenity": "hospital", "check_date": "2025-08-26", "emergency": "no", "fhrs:id": "241801", "healthcare": "hospital", "name": "St Michaels", "source": "OS_OpenData_StreetView", "source:addr": "FHRS Open Data", "wikidata": "Q7594808"}}, {"name": "Evesham Community Hospital", "latitude": 52.0854821, "longitude": -1.9472904, "source": "osm", "_tags": {"addr:city": "Evesham", "addr:postcode": "WR11 1JT", "addr:street": "Waterside", "amenity": "hospital", "emergency": "minor_injuries", "fhrs:id": "673941", "healthcare": "hospital", "name": "Evesham Community Hospital", "source:addr": "FHRS Open Data"}}, {"name": "Royal Leamington Spa Rehabilitation Hospital", "latitude": 52.2689205, "longitude": -1.5404145, "source": "osm", "_tags": {"amenity": "hospital", "check_date": "2025-02-11", "healthcare": "hospital", "name": "Royal Leamington Spa Rehabilitation Hospital", "source": "visual survey;bing", "wheelchair": "yes", "wikidata": "Q7374389"}}, {"name": "Pershore Hospital", "latitude": 52.1140501, "longitude": -2.0777342, "source": "osm", "_tags": {"addr:city": "Pershore", "addr:postcode": "WR10 1PS", "addr:street": "Queen Elizabeth Drive", "amenity": "hospital", "building": "yes", "fhrs:id": "673972", "healthcare": "hospital", "name": "Pershore Hospital", "source:addr": "FHRS Open Data", "toilets:wheelchair": "yes", "wheelchair": "yes"}}, {"name": "Ellen Badger Hospital", "latitude": 52.0668558, "longitude": -1.6224857, "source": "osm", "_tags": {"addr:city": "Shipston-on-Stour", "addr:postcode": "CV36 4AX", "addr:street": "Stratford Road", "amenity": "hospital", "check_date": "2025-04-05", "fhrs:id": "503978", "healthcare": "hospital", "name": "Ellen Badger Hospital", "source": "visual survey;bing", "wikidata": "Q5364743"}}, {"name": "Nuffield Hospital", "latitude": 51.8919427, "longitude": -2.1298722, "source": "osm", "_tags": {"addr:city": "Cheltenham", "addr:postcode": "GL51 6SY", "amenity": "hospital", "building": "hospital", "emergency": "no", "healthcare": "hospital", "name": "Nuffield Hospital", "operator": "Nuffield Health Group"}}, {"name": "North Cotswolds Hospital", "latitude": 51.9834788, "longitude": -1.7067562, "source": "osm", "_tags": {"amenity": "hospital", "check_date": "2024-05-26", "emergency": "no", "healthcare": "hospital", "name": "North Cotswolds Hospital"}}, {"name": "Alexandra Hospital", "latitude": 52.2803746, "longitude": -1.9128333, "source": "osm", "_tags": {"amenity": "hospital", "healthcare": "hospital", "name": "Alexandra Hospital", "source": "bing", "wikidata": "Q30254348"}}, {"name": "The Joint Clinic - private Orthopaedic and Spinal Care", "latitude": 52.2660587, "longitude": -2.1474073, "source": "osm", "_tags": {"amenity": "hospital", "healthcare": "hospital", "name": "The Joint Clinic - private Orthopaedic and Spinal Care"}}, {"name": "Droitwich Spa Hospital (Private)", "latitude": 52.2662733, "longitude": -2.150998, "source": "osm", "_tags": {"amenity": "hospital", "emergency": "no", "healthcare": "hospital", "name": "Droitwich Spa Hospital (Private)", "operator": "BMI Healthcare"}}, {"name": "Helen Ley House", "latitude": 52.3217832, "longitude": -1.5403168, "source": "osm", "_tags": {"amenity": "hospital", "emergency": "no", "healthcare": "hospital", "name": "Helen Ley House", "operator": "Castel Froma", "source": "bing", "website": "https://www.castelfroma.org.uk/"}}, {"name": "Bromsgove Private Hospital", "latitude": 52.3321418, "longitude": -2.0059626, "source": "osm", "_tags": {"amenity": "hospital", "emergency": "no", "healthcare": "hospital", "name": "Bromsgove Private Hospital", "source": "OS-OpenData_StreetView"}}, {"name": "Shakespeare Hospice", "latitude": 52.1936891, "longitude": -1.7312547, "source": "osm", "_tags": {"addr:city": "Shottery", "addr:postcode": "CV37 9UL", "addr:street": "Church Lane", "amenity": "hospital", "building": "yes", "fhrs:id": "503291", "healthcare": "hospital", "name": "Shakespeare Hospice", "source": "Warwicks Aerial Imagery OGLv2", "website": "https://www.theshakespearehospice.org.uk/"}}, {"name": "Stratford upon Avon Hospital", "latitude": 52.1953445, "longitude": -1.7135745, "source": "osm", "_tags": {"amenity": "hospital", "emergency": "no", "healthcare": "hospital", "minor_injuries_unit": "yes", "name": "Stratford upon Avon Hospital"}}, {"name": "Chipping Norton War Memorial Community Hospital", "latitude": 51.9447793, "longitude": -1.5365102, "source": "osm", "_tags": {"amenity": "hospital", "emergency": "no", "healthcare": "hospital", "name": "Chipping Norton War Memorial Community Hospital", "operator": "Oxford Health NHS Trust"}}, {"name": "Spire Southbank Hospital", "latitude": 52.1812869, "longitude": -2.2162368, "source": "osm", "_tags": {"addr:city": "Worcester", "addr:street": "Bath Road", "amenity": "hospital", "emergency": "no", "healthcare": "hospital", "name": "Spire Southbank Hospital"}}, {"name": "Thirlestaine Breast Centre", "latitude": 51.8891873, "longitude": -2.0699987, "source": "osm", "_tags": {"HE_ref": "1388139", "addr:street": "Thirlestaine Road", "alt_name": "Thirlestaine Court", "amenity": "hospital", "building": "hospital", "healthcare": "hospital", "listed_status": "Grade II", "name": "Thirlestaine Breast Centre", "operator": "Gloucestershire Hospitals NHS Foundation Trust"}}, {"name": "Leckhampton Lodge Health Centre", "latitude": 51.8805146, "longitude": -2.0730327, "source": "osm", "_tags": {"amenity": "hospital", "emergency": "no", "healthcare": "hospital", "name": "Leckhampton Lodge Health Centre", "operator": "NHS", "operator:type": "government", "operator:wikidata": "Q918396"}}, {"name": "Winfield Hospital", "latitude": 51.8802153, "longitude": -2.2421966, "source": "osm", "_tags": {"addr:city": "Gloucester", "addr:postcode": "GL2 9WH", "amenity": "hospital", "building": "yes", "check_date": "2025-08-31", "healthcare": "hospital", "name": "Winfield Hospital", "name:en": "Winfield Hospital", "operator": "Ramsay Health Care", "operator:type": "private", "phone": "+44 1452 306009", "type": "multipolygon", "website": "https://www.winfieldhospital.co.uk"}}, {"name": "Tewkesbury Community Hospital", "latitude": 51.9922873, "longitude": -2.1523176, "source": "osm", "_tags": {"addr:city": "Tewkesbury", "addr:housenumber": "38", "addr:postcode": "GL20 5QN", "addr:street": "Barton Road", "amenity": "hospital", "fhrs:id": "615623", "healthcare": "hospital", "name": "Tewkesbury Community Hospital", "not:addr:postcode": "GL20 5GJ", "operator": "NHS", "operator:wikidata": "Q918396", "phone": "+44 300 421 6100", "ref:GB:cqc_location": "RTQ87", "source": "DigitalGlobe-Premium", "type": "multipolygon"}}, {"name": "Warwick Hospital", "latitude": 52.2899653, "longitude": -1.58321, "source": "osm", "_tags": {"amenity": "hospital", "emergency": "yes", "healthcare": "hospital", "name": "Warwick Hospital", "note": "Approximate/estimated area", "operator": "South Warwickshire General Hospitals NHS Trust", "ref:GB:cqc_location": "RJC02", "ref:GB:nhs_ods": "RJC02", "type": "multipolygon", "wikidata": "Q7971145"}}]