[{"name": "", "latitude": 52.2692778, "longitude": -8.5979328, "source": "osm", "_tags": {"amenity": "hospital", "healthcare": "hospital"}}, {"name": "Covid 19 test centre", "latitude": 51.922856, "longitude": -8.4847197, "source": "osm", "_tags": {"amenity": "hospital", "healthcare": "hospital", "healthcare:speciality": "community", "name": "Covid 19 test centre", "operator": "Health Service Executive", "operator:short": "HSE", "operator:type": "government", "operator:wikidata": "Q5690681", "operator:wikipedia": "en:Health Service Executive"}}, {"name": "South Infirmary-Victoria University Hospital", "latitude": 51.8935797, "longitude": -8.4641716, "source": "osm", "_tags": {"HSE_code": "206", "HSE_hgid": "5", "HSE_hgroup": "South/South West Hospital Group", "HSE_region": "South West", "addr:city": "Cork", "addr:postcode": "T12 X23H", "addr:street": "Old Blackrock Road", "alt_name": "SIVUH", "amenity": "hospital", "emergency": "Ear, Nose and Throat;Sexual Assault Treatment Unit only", "healthcare": "hospital", "name": "South Infirmary-Victoria University Hospital", "operator": "Health Service Executive", "operator:short": "HSE", "operator:wikidata": "Q5690681", "operator:wikipedia": "en:Health Service Executive", "phone": "+353-21-4926100", "wheelchair": "yes", "wikipedia": "en:South Infirmary-Victoria University Hospital"}}, {"name": "Saint Mary's Health Campus", "latitude": 51.9047514, "longitude": -8.49966, "source": "osm", "_tags": {"addr:street": "Baker's Road", "amenity": "hospital", "emergency": "no", "healthcare": "hospital", "healthcare:speciality": "orthopaedics", "name": "Saint Mary's Health Campus", "old_name": "Saint Mary's Orthopaedic Hospital", "wheelchair": "yes", "wikidata": "Q7590381"}}, {"name": "Saint Finbarr's Hospital", "latitude": 51.8876146, "longitude": -8.4610361, "source": "osm", "_tags": {"addr:city": "Cork", "addr:postcode": "T12 XH60", "addr:street": "Douglas Road", "amenity": "hospital", "healthcare": "hospital", "name": "Saint Finbarr's Hospital", "phone": "+353 21 496 6555", "wheelchair": "yes", "wikidata": "Q7587909", "wikipedia": "en:St. Finbarr's Hospital"}}, {"name": "Bon Secours Hospital", "latitude": 51.8924945, "longitude": -8.4974301, "source": "osm", "_tags": {"addr:city": "Cork", "addr:postcode": "T12 DV56", "addr:street": "College Road", "amenity": "hospital", "healthcare": "hospital", "name": "Bon Secours Hospital", "phone": "+353 21 454 2807", "website": "https://www.bonsecours.ie/cork", "wheelchair": "yes", "wikidata": "Q4941006"}}, {"name": "Mater Private Cork", "latitude": 51.8863277, "longitude": -8.4061109, "source": "osm", "_tags": {"addr:city": "Cork", "addr:street": "City Gate", "amenity": "hospital", "building": "hospital", "healthcare": "hospital", "name": "Mater Private Cork", "wheelchair": "yes"}}, {"name": "Cork University Hospital", "latitude": 51.8833458, "longitude": -8.5120707, "source": "osm", "_tags": {"HSE_code": "235", "HSE_hgid": "5", "HSE_hgroup": "South/South West Hospital Group", "HSE_region": "South West", "addr:city": "Cork", "addr:street": "Bishopstown Road", "alt_name": "CUH", "amenity": "hospital", "emergency": "yes", "healthcare": "hospital", "name": "Cork University Hospital", "operator": "Health Service Executive", "operator:short": "HSE", "operator:wikidata": "Q5690681", "operator:wikipedia": "en:Health Service Executive", "wikidata": "Q5170825", "wikipedia": "en:Cork University Hospital"}}, {"name": "St Stephen's Hospital, Sarsfield Court", "latitude": 51.9537296, "longitude": -8.4037043, "source": "osm", "_tags": {"addr:postcode": "T45 VK40", "amenity": "hospital", "emergency": "no", "healthcare": "hospital", "healthcare:speciality": "psychiatry", "name": "St Stephen's Hospital, Sarsfield Court"}}, {"name": "Mallow General Hospital", "latitude": 52.15165, "longitude": -8.6637739, "source": "osm", "_tags": {"HSE_code": "207", "HSE_hgid": "5", "HSE_hgroup": "South/South West Hospital Group", "HSE_region": "South West", "amenity": "hospital", "healthcare": "hospital", "name": "Mallow General Hospital", "operator": "Health Service Executive", "operator:short": "HSE", "operator:type": "government", "operator:wikidata": "Q5690681", "operator:wikipedia": "en:Health Service Executive", "wikidata": "Q6744301"}}, {"name": "Macroom Community Hospital", "latitude": 51.9074552, "longitude": -8.9675644, "source": "osm", "_tags": {"amenity": "hospital", "healthcare": "hospital", "name": "Macroom Community Hospital"}}, {"name": "Mercy University Hospital", "latitude": 51.8989322, "longitude": -8.4824487, "source": "osm", "_tags": {"HSE_code": "203", "HSE_hgid": "5", "HSE_hgroup": "South/South West Hospital Group", "HSE_region": "South West", "addr:postcode": "T12 WE28", "addr:street": "Grenville Place", "amenity": "hospital", "email": "enquiries@muh.ie", "emergency": "yes", "healthcare": "hospital", "healthcare:speciality": "emergency;cardiology;dietics;intensive;physiotherapy;men's_health;stroke;psychiatry;urology;oncology;paediatrics;general", "name": "Mercy University Hospital", "operator": "Health Service Executive", "operator:short": "HSE", "operator:type": "public", "operator:wikidata": "Q5690681", "operator:wikipedia": "en:Health Service Executive", "phone": "+353-21-4271971", "start_date": "1857", "website": "https://www.muh.ie/", "wikidata": "Q38251273", "wikipedia": "en:Mercy University Hospital"}}, {"name": "Kanturk Community Hospital", "latitude": 52.1761463, "longitude": -8.91634, "source": "osm", "_tags": {"amenity": "hospital", "healthcare": "hospital", "name": "Kanturk Community Hospital", "old_name": "Union Workhouse", "operator": "Health Service Executive", "operator:short": "HSE", "operator:type": "government", "operator:wikidata": "Q5690681", "operator:wikipedia": "en:Health Service Executive"}}, {"name": "Ballincollig Primary Care Centre", "latitude": 51.8900755, "longitude": -8.5854896, "source": "osm", "_tags": {"amenity": "hospital", "check_date": "2020-12-09", "healthcare": "hospital", "name": "Ballincollig Primary Care Centre", "operator": "Health Service Executive", "operator:short": "HSE", "operator:type": "government", "operator:wikidata": "Q5690681", "operator:wikipedia": "en:Health Service Executive"}}, {"name": "Ballincollig Community Nursing Unit", "latitude": 51.8906963, "longitude": -8.5894594, "source": "osm", "_tags": {"amenity": "hospital", "healthcare": "hospital", "name": "Ballincollig Community Nursing Unit", "name:ga": "Aonad Altranais Pobail Bhaile an Chollaigh", "operator": "Health Service Executive", "operator:short": "HSE", "operator:wikidata": "Q5690681"}}]