[{"name": "ZGT Hengelo", "latitude": 52.263175, "longitude": 6.770632, "source": "osm", "_tags": {"amenity": "hospital", "healthcare": "hospital", "name": "ZGT Hengelo", "old_name": "Streekziekenhuis Midden Twente", "operator": "Ziekenhuisgroep Twente"}}, {"name": "Christophorus Kliniken Coesfeld", "latitude": 51.9441642, "longitude": 7.1700403, "source": "osm", "_tags": {"addr:city": "Coesfeld", "addr:housenumber": "41", "addr:postcode": "48653", "addr:street": "Südring", "amenity": "hospital", "healthcare": "hospital", "name": "Christophorus Kliniken Coesfeld", "toilets:wheelchair": "yes", "website": "https://christophorus-kliniken.de/", "wheelchair": "yes"}}, {"name": "Klinikum Ibbenbüren \"St.-Elisabeth-Hospital\"", "latitude": 52.278612, "longitude": 7.71381, "source": "osm", "_tags": {"addr:city": "Ibbenbüren", "addr:country": "DE", "addr:housename": "Elisabeth Hospital", "addr:housenumber": "41", "addr:postcode": "49477", "addr:street": "Große Straße", "amenity": "hospital", "building": "hospital", "emergency": "yes", "healthcare": "hospital", "name": "Klinikum Ibbenbüren \"St.-Elisabeth-Hospital\"", "phone": "+49 5451 520", "website": "https://www.mathias-medizin.de/leistungen-einrichtungen/einrichtungen/klinikum-ibbenbueren", "wheelchair": "yes"}}, {"name": "Hospice", "latitude": 52.2649485, "longitude": 6.7640758, "source": "osm", "_tags": {"addr:city": "Hengelo", "addr:housenumber": "123", "addr:postcode": "7555SL", "addr:street": "P.C. Borstlaan", "amenity": "hospital", "emergency": "no", "healthcare": "hospital", "healthcare:speciality": "hospice", "name": "Hospice", "operator": "TriviumMeulenbeltZorg", "operator:type": "government"}}, {"name": "LWL-Klinik Münster", "latitude": 51.9783641, "longitude": 7.6176104, "source": "osm", "_tags": {"addr:city": "Münster", "addr:country": "DE", "addr:housenumber": "30", "addr:postcode": "48147", "addr:street": "Friedrich-Wilhelm-Weber-Straße", "amenity": "hospital", "beds": "312", "contact:email": "lwl-klinik-muenster@lwl.org", "contact:fax": "+49 251 91555-1001", "contact:phone": "+49 251 91555-0", "contact:website": "https://www.lwl-klinik-muenster.de/", "emergency": "no", "health_facility:type": "hospital", "healthcare": "hospital", "healthcare:speciality": "psychiatry", "name": "LWL-Klinik Münster", "old_name": "Westfälische Klinik für Psychiatrie und Psychotherapie Münster;Westfälisches Landeskrankenhaus Münster;Landesheil- und Krankenanstalt;Provinzial-Heil- und Krankenanstalt;Provinzial-Heilanstalt Marienthal;Provinzial-Irrenanstalt Marienthal", "operator": "Landschaftsverband Westfalen-Lippe", "toilets:wheelchair": "yes", "wheelchair": "yes", "wikidata": "Q1784018"}}, {"name": "Christophorus Kliniken", "latitude": 51.8273616, "longitude": 7.2803578, "source": "osm", "_tags": {"addr:city": "Dülmen", "addr:housenumber": "10", "addr:postcode": "48249", "addr:street": "Vollenstraße", "amenity": "hospital", "building": "yes", "emergency": "yes", "healthcare": "hospital", "name": "Christophorus Kliniken", "wheelchair": "yes"}}, {"name": "Maria-Josef-Hospital Greven", "latitude": 52.0880291, "longitude": 7.6105761, "source": "osm", "_tags": {"addr:city": "Greven", "addr:housenumber": "29", "addr:postcode": "48268", "addr:street": "Lindenstraße", "amenity": "hospital", "check_date": "2024-10-28", "contact:email": "info@mjh-greven.de", "contact:fax": "+49 2571 502-16097", "contact:phone": "+49 2571 502-0", "contact:website": "https://www.maria-josef-hospital.de", "emergency": "yes", "healthcare": "hospital", "healthcare:speciality": "general", "name": "Maria-Josef-Hospital Greven", "operator": "St. Franziskus-Stiftung Münster", "operator:wikidata": "Q2318238", "wheelchair": "yes"}}, {"name": "St. Marien-Krankenhaus Ahaus", "latitude": 52.0687879, "longitude": 6.9931937, "source": "osm", "_tags": {"addr:city": "Ahaus", "addr:country": "DE", "addr:housenumber": "101", "addr:postcode": "48683", "addr:street": "Wüllener Straße", "amenity": "hospital", "building": "hospital", "contact:phone": "+49 2561 99-0", "contact:website": "https://www.klinikum-westmuensterland.de/ahaus/", "emergency": "yes", "healthcare": "hospital", "name": "St. Marien-Krankenhaus Ahaus", "operator": "Klinikum Westmünsterland GmbH", "website": "https://www.marien-kh-gmbh.de/", "wheelchair": "limited"}}, {"name": "Mathias-Spital (Klinikum Rheine)", "latitude": 52.2759896, "longitude": 7.4257392, "source": "osm", "_tags": {"addr:city": "Rheine", "addr:housenumber": "31", "addr:postcode": "48431", "addr:street": "Frankenburgstraße", "amenity": "hospital", "contact:email": "info@mathias-spital.de", "contact:fax": "+49 5971 42-2009", "contact:phone": "+49 5971 42-0", "contact:website": "https://www.mathias-spital.com/", "emergency": "yes", "healthcare": "hospital", "healthcare:speciality": "paediatrics;gynaecology;surgery;a;gastroenterology;oncology", "name": "Mathias-Spital (Klinikum Rheine)", "operator": "Stiftung Mathias-Spital Rheine", "operator:type": "charitable", "toilets:wheelchair": "yes", "wheelchair": "yes", "wikidata": "Q50038662"}}, {"name": "ZaR", "latitude": 51.9791225, "longitude": 7.6129182, "source": "osm", "_tags": {"addr:city": "Münster", "addr:country": "DE", "addr:housenumber": "182", "addr:postcode": "48159", "addr:street": "Grevener Straße", "amenity": "hospital", "building": "yes", "building:levels": "2", "description": "Zentrum für ambulante Rehabilitation GmbH Münster", "healthcare": "rehabilitation", "name": "ZaR", "roof:levels": "1", "toilets:wheelchair": "yes", "website": "https://www.zar-ms.de", "wheelchair": "yes"}}, {"name": "Sankt Franziskus-Hospital", "latitude": 51.9612769, "longitude": 7.650607, "source": "osm", "_tags": {"amenity": "hospital", "beds": "600", "emergency": "yes", "healthcare": "hospital", "name": "Sankt Franziskus-Hospital", "operator": "St. Franziskus-Stiftung Münster", "operator:wikidata": "Q2318238", "phone": "+49 251 9350", "toilets:wheelchair": "yes", "website": "https://www.sfh-muenster.de/", "wheelchair": "yes", "wikidata": "Q2318236", "wikipedia": "de:St. Franziskus-Hospital Münster"}}, {"name": "Alexianer Münster GmbH", "latitude": 51.8772642, "longitude": 7.5638781, "source": "osm", "_tags": {"addr:housenumber": "9", "addr:street": "Alexianerweg", "amenity": "hospital", "building": "yes", "name": "Alexianer Münster GmbH", "source": "NRW-Atlas (ALK)", "toilets:wheelchair": "yes", "wheelchair": "limited"}}, {"name": "Clemenshospital", "latitude": 51.9324405, "longitude": 7.6140017, "source": "osm", "_tags": {"addr:city": "Münster", "addr:country": "DE", "addr:housenumber": "124", "addr:postcode": "48153", "addr:street": "Düesbergweg", "amenity": "hospital", "email": "info.clemenshospital@alexianer.de", "emergency": "yes", "fax": "+49 251 9764440", "healthcare": "hospital", "name": "Clemenshospital", "operator": "Alexianer Misericordia GmbH", "phone": "+49 251 9760", "toilets:wheelchair": "yes", "website": "https://www.clemenshospital.de/", "wheelchair": "yes", "wikidata": "Q1100206"}}, {"name": "Paulinenkrankenhaus", "latitude": 52.2990053, "longitude": 7.1507594, "source": "osm", "_tags": {"addr:city": "Bad Bentheim", "addr:country": "DE", "addr:housenumber": "1", "addr:postcode": "48455", "addr:street": "Paulinenweg", "amenity": "hospital", "building": "yes", "emergency": "no", "fax": "+49 5922 977177", "healthcare": "hospital", "healthcare:speciality": "orthopaedics", "name": "Paulinenkrankenhaus", "phone": "+49 5922 9770", "source": "Bing", "website": "https://www.orthopaedie-badbentheim.de/"}}, {"name": "Jakobi-Krankenhaus (Klinikum Rheine)", "latitude": 52.2728965, "longitude": 7.444489, "source": "osm", "_tags": {"addr:city": "Rheine", "addr:country": "DE", "addr:housenumber": "12", "addr:postcode": "48431", "addr:street": "Hörstkamp", "amenity": "hospital", "building": "hospital", "contact:email": "info@jakobi-Krankenhaus.de", "contact:fax": "+49 5971 46-205", "contact:phone": "+49 5971 46-0", "contact:website": "https://www.mathias-spital.com", "emergency": "yes", "healthcare": "hospital", "healthcare:speciality": "psychiatry;geriatrics;dialysis", "name": "Jakobi-Krankenhaus (Klinikum Rheine)", "operator": "Stiftung Mathias-Spital Rheine", "operator:type": "charitable", "toilets:wheelchair": "yes", "wheelchair": "yes"}}, {"name": "UKM Marienhospital Steinfurt", "latitude": 52.1265238, "longitude": 7.4004494, "source": "osm", "_tags": {"amenity": "hospital", "contact:email": "zentrale-st@ukm-mhs.de", "contact:phone": "+49 2552 79-0", "contact:website": "https://ukm-mhs.de/", "emergency": "yes", "healthcare": "hospital", "name": "UKM Marienhospital Steinfurt", "operator": "UKM Marienhospital Steinfurt GmbH", "short_name": "UKMMHS Steinfurt", "wheelchair": "yes"}}, {"name": "Ev. Lukas-Krankenhaus Gronau", "latitude": 52.2167356, "longitude": 7.0299803, "source": "osm", "_tags": {"amenity": "hospital", "contact:fax": "+49 2562 79-200", "contact:phone": "+49 2562 79-0", "contact:website": "https://www.lukas-gronau.de/", "denomination": "protestant", "emergency": "yes", "healthcare": "hospital", "name": "Ev. Lukas-Krankenhaus Gronau", "operator": "Ev. Lukas-Krankenhaus Gronau gemeinnützige GmbH", "religion": "christian"}}, {"name": "Medical Center", "latitude": 51.9320891, "longitude": 7.6154076, "source": "osm", "_tags": {"amenity": "hospital", "building": "hospital", "building:levels": "4", "name": "Medical Center", "roof:levels": "0", "roof:material": "grass", "roof:shape": "flat", "source": "bing;NRW Atlas (ALK)"}}, {"name": "Raphaelsklinik", "latitude": 51.9590757, "longitude": 7.6304729, "source": "osm", "_tags": {"amenity": "hospital", "beds": "316", "emergency": "yes", "healthcare": "hospital", "name": "Raphaelsklinik", "phone": "+49 251 5007 0", "toilets:wheelchair": "yes", "website": "https://www.raphaelsklinik.de/", "wheelchair": "yes", "wikidata": "Q2131450", "wikipedia": "de:Raphaelsklinik Münster"}}, {"name": "Christophorus Kliniken", "latitude": 51.9334029, "longitude": 7.3539893, "source": "osm", "_tags": {"amenity": "hospital", "healthcare": "hospital", "name": "Christophorus Kliniken", "opening_hours": "Mo-Fr 08:00-16:30", "phone": "+49 02502 220-0", "website": "https://www.christophorus-kliniken.de/", "wheelchair": "yes"}}, {"name": "St. Marien-Hospital Borken", "latitude": 51.8421489, "longitude": 6.8608995, "source": "osm", "_tags": {"amenity": "hospital", "healthcare": "hospital", "name": "St. Marien-Hospital Borken", "phone": "+49 2861 970", "website": "https://www.hospital-borken.de/", "wheelchair": "yes", "wheelchair:description": "im UG; durchgehend geöffnet"}}, {"name": "ZaR", "latitude": 51.9788937, "longitude": 7.6125207, "source": "osm", "_tags": {"addr:city": "Münster", "addr:country": "DE", "addr:housenumber": "180", "addr:postcode": "48159", "addr:street": "Grevener Straße", "amenity": "hospital", "building": "yes", "building:levels": "3", "description": "MVZ am ZaR/Neuropsychologie", "healthcare": "rehabilitation", "name": "ZaR"}}, {"name": "LWL-Tagesklinik für Psychotherapie", "latitude": 51.9614357, "longitude": 7.6411535, "source": "osm", "_tags": {"addr:city": "Münster", "addr:country": "DE", "addr:housenumber": "1", "addr:postcode": "48145", "addr:street": "Zumsandestraße", "beds": "20", "building": "hospital", "building:levels": "2", "check_date": "2024-08-11", "description": "Tagesklinik für teilstationäre psychotherapeutische Behandlung.", "email": "sebastian.voss@lwl.org", "emergency": "no", "health_facility:type": "hospital", "healthcare": "hospital", "healthcare:speciality": "psychiatry", "name": "LWL-Tagesklinik für Psychotherapie", "operator": "Landschaftsverband Westfalen-Lippe", "phone": "+49 251 91555-2760", "roof:colour": "black", "roof:shape": "flat", "source": "NRW Atlas (ALK,DOP40)", "source:addr": "regio-osm", "start_date": "2014-03", "website": "https://www.lwl-klinik-muenster.de/de/infoservice_fuer_patienten/medizinische_abteilungen_und_stationen/abteilung_spezielle_psychotherapie/tagesklinik-zumsandestrasse/"}}, {"name": "Medisch Spectrum Twente", "latitude": 52.2159404, "longitude": 6.8918776, "source": "osm", "_tags": {"addr:city": "Enschede", "addr:country": "NL", "addr:housenumber": "1", "addr:postcode": "7512KZ", "addr:street": "Koningsplein", "amenity": "hospital", "emergency": "yes", "healthcare": "hospital", "name": "Medisch Spectrum Twente", "phone": "+31 53 487 2000", "website": "https://www.mst.nl/", "wikidata": "Q2974418"}}, {"name": "LWL-Maßregelvollzugsklinik Rheine (Forensik)", "latitude": 52.3013136, "longitude": 7.3834167, "source": "osm", "_tags": {"amenity": "hospital", "barrier": "fence", "fence_type": "metal", "healthcare": "hospital", "healthcare:speciality": "forensic_psychiatry", "name": "LWL-Maßregelvollzugsklinik Rheine (Forensik)"}}, {"name": "St. Marien Hospital Vreden", "latitude": 52.0470929, "longitude": 6.8127197, "source": "osm", "_tags": {"amenity": "hospital", "contact:phone": "+49 2564 99-3", "contact:website": "https://www.klinikum-westmuensterland.de/vreden/", "emergency": "yes", "healthcare": "hospital", "name": "St. Marien Hospital Vreden", "operator": "Klinikum Westmünsterland GmbH", "wheelchair": "yes"}}, {"name": "St. Antonius-Hospital", "latitude": 52.2082895, "longitude": 7.0208279, "source": "osm", "_tags": {"amenity": "hospital", "check_date": "2025-07-09", "contact:phone": "+49 2562 915-0", "contact:website": "http://www.st-antonius-gronau.de/", "emergency": "yes", "healthcare": "hospital", "name": "St. Antonius-Hospital", "opening_hours": "24/7", "toilets:wheelchair": "yes", "wheelchair": "yes", "wikidata": "Q15129113", "wikipedia": "de:St.-Antonius-Hospital Gronau"}}, {"name": "Christophorus Klinik am Schlossgarten", "latitude": 51.8265562, "longitude": 7.2819221, "source": "osm", "_tags": {"amenity": "hospital", "emergency": "yes", "healthcare": "hospital", "name": "Christophorus Klinik am Schlossgarten", "website": "https://www.klinik-am-schlossgarten.de", "wheelchair": "yes"}}, {"name": "LWL-Therapiezentrum für Forensische Psychiatrie Münsterland", "latitude": 52.3259828, "longitude": 7.5392679, "source": "osm", "_tags": {"addr:city": "Hörstel", "addr:housenumber": "1", "addr:postcode": "48477", "addr:street": "An der Startbahn", "amenity": "hospital", "barrier": "fence", "healthcare": "hospital", "healthcare:speciality": "forensic_psychiatry", "name": "LWL-Therapiezentrum für Forensische Psychiatrie Münsterland", "operator": "Landschaftsverband Westfalen-Lippe", "operator:type": "public", "phone": "+49 5459 9065"}}, {"name": "MST Oldenzaal", "latitude": 52.3081344, "longitude": 6.9310132, "source": "osm", "_tags": {"amenity": "hospital", "emergency": "no", "healthcare": "hospital", "name": "MST Oldenzaal"}}, {"name": "Herz-Jesu-Krankenhaus", "latitude": 51.909853, "longitude": 7.6345117, "source": "osm", "_tags": {"amenity": "hospital", "email": "info@hjk-muenster.de", "emergency": "yes", "fax": "+49 2501 174201", "healthcare": "hospital", "name": "Herz-Jesu-Krankenhaus", "operator": "St. Franziskus-Stiftung Münster", "operator:type": "charitable", "operator:wikidata": "Q2318238", "phone": "+49 2501 170", "toilets:wheelchair": "yes", "website": "https://www.hjk-muenster.de", "wheelchair": "yes", "wikidata": "Q1615008", "wikipedia": "de:Herz-Jesu-Krankenhaus Münster-Hiltrup"}}, {"name": "Universitätsklinikum Münster", "latitude": 51.9625689, "longitude": 7.59575, "source": "osm", "_tags": {"addr:city": "Münster", "addr:housenumber": "33", "addr:postcode": "48149", "addr:street": "Albert-Schweitzer-Straße", "amenity": "hospital", "beds": "1457", "contact:phone": "+49 251 83-0", "contact:website": "https://www.ukm.de/", "emergency": "yes", "healthcare": "hospital", "hospital:level:DE": "3", "loc_name": "Uniklinik Münster", "name": "Universitätsklinikum Münster", "short_name": "UKM", "start_date": "1774", "type": "multipolygon", "wheelchair": "yes", "wikidata": "Q1748138", "wikipedia": "de:Universitätsklinikum Münster"}}]